{"type":"Topology","objects":{"data":{"geometries":[{"properties":{"name":"\u4ed9\u53f0\u5e02\u9752\u8449\u533a","pop":1},"type":"Polygon","arcs":[[0]],"id":"feature_00"},{"properties":{"name":"\u4ed9\u53f0\u5e02\u9752\u8449\u533a","pop":1},"type":"Polygon","arcs":[[-30,-29,28,-14,-18,-22,1,-37,2],[3]],"id":"feature_01"},{"properties":{"name":"\u4ed9\u53f0\u5e02\u9752\u8449\u533a","pop":2},"type":"Polygon","arcs":[[4]],"id":"feature_02"},{"properties":{"name":"\u4ed9\u53f0\u5e02\u9752\u8449\u533a","pop":3},"type":"Polygon","arcs":[[5]],"id":"feature_03"},{"properties":{"name":"\u4ed9\u53f0\u5e02\u9752\u8449\u533a","pop":3},"type":"Polygon","arcs":[[6]],"id":"feature_04"},{"properties":{"name":"\u4ed9\u53f0\u5e02\u5bae\u57ce\u91ce\u533a","pop":1},"type":"Polygon","arcs":[[-70,7,-68,8,-65,9,-63,10,-61,11,-59,12,-21,-20,19,-19,13,-29,-28,14],[15]],"id":"feature_05"},{"properties":{"name":"\u4ed9\u53f0\u5e02\u82e5\u6797\u533a","pop":1},"type":"Polygon","arcs":[[16,-23,17,18,-20,19,20]],"id":"feature_06"},{"properties":{"name":"\u4ed9\u53f0\u5e02\u592a\u767d\u533a","pop":1},"type":"Polygon","arcs":[[21,22,23],[24]],"id":"feature_07"},{"properties":{"name":"\u4ed9\u53f0\u5e02\u592a\u767d\u533a","pop":2},"type":"Polygon","arcs":[[25]],"id":"feature_08"},{"properties":{"name":"\u4ed9\u53f0\u5e02\u6cc9\u533a","pop":1},"type":"Polygon","arcs":[[26,27,28,29,30,-90,31,-96]],"id":"feature_09"},{"properties":{"name":"\u4ed9\u53f0\u5e02\u6cc9\u533a","pop":10},"type":"Polygon","arcs":[[32]],"id":"feature_10"},{"properties":{"name":"\u4ed9\u53f0\u5e02\u6cc9\u533a","pop":2},"type":"Polygon","arcs":[[33]],"id":"feature_11"},{"properties":{"name":"\u4ed9\u53f0\u5e02\u6cc9\u533a","pop":2},"type":"Polygon","arcs":[[-88,34,-92,35]],"id":"feature_12"},{"properties":{"name":"\u4ed9\u53f0\u5e02\u6cc9\u533a","pop":3},"type":"Polygon","arcs":[[36,37]],"id":"feature_13"},{"properties":{"name":"\u4ed9\u53f0\u5e02\u6cc9\u533a","pop":4},"type":"Polygon","arcs":[[38]],"id":"feature_14"},{"properties":{"name":"\u4ed9\u53f0\u5e02\u6cc9\u533a","pop":5},"type":"Polygon","arcs":[[39]],"id":"feature_15"},{"properties":{"name":"\u4ed9\u53f0\u5e02\u6cc9\u533a","pop":6},"type":"Polygon","arcs":[[40]],"id":"feature_16"},{"properties":{"name":"\u4ed9\u53f0\u5e02\u6cc9\u533a","pop":7},"type":"Polygon","arcs":[[41]],"id":"feature_17"},{"properties":{"name":"\u4ed9\u53f0\u5e02\u6cc9\u533a","pop":8},"type":"Polygon","arcs":[[42]],"id":"feature_18"},{"properties":{"name":"\u4ed9\u53f0\u5e02\u6cc9\u533a","pop":9},"type":"Polygon","arcs":[[43]],"id":"feature_19"},{"properties":{"name":"\u77f3\u5dfb\u5e02","pop":1},"type":"Polygon","arcs":[[44]],"id":"feature_20"},{"properties":{"name":"\u77f3\u5dfb\u5e02","pop":1},"type":"Polygon","arcs":[[45]],"id":"feature_21"},{"properties":{"name":"\u77f3\u5dfb\u5e02","pop":2},"type":"Polygon","arcs":[[46]],"id":"feature_22"},{"properties":{"name":"\u5869\u7ac8\u5e02","pop":1},"type":"Polygon","arcs":[[-67,47]],"id":"feature_23"},{"properties":{"name":"\u6c17\u4ed9\u6cbc\u5e02","pop":1},"type":"Polygon","arcs":[[48]],"id":"feature_24"},{"properties":{"name":"\u6c17\u4ed9\u6cbc\u5e02","pop":2},"type":"Polygon","arcs":[[49]],"id":"feature_25"},{"properties":{"name":"\u767d\u77f3\u5e02","pop":1},"type":"Polygon","arcs":[[50]],"id":"feature_26"},{"properties":{"name":"\u767d\u77f3\u5e02","pop":1},"type":"Polygon","arcs":[[51]],"id":"feature_27"},{"properties":{"name":"\u540d\u53d6\u5e02","pop":1},"type":"Polygon","arcs":[[52]],"id":"feature_28"},{"properties":{"name":"\u540d\u53d6\u5e02","pop":2},"type":"Polygon","arcs":[[53]],"id":"feature_29"},{"properties":{"name":"\u540d\u53d6\u5e02","pop":2},"type":"Polygon","arcs":[[54]],"id":"feature_30"},{"properties":{"name":"\u89d2\u7530\u5e02","pop":1},"type":"Polygon","arcs":[[55]],"id":"feature_31"},{"properties":{"name":"\u591a\u8cc0\u57ce\u5e02","pop":1},"type":"Polygon","arcs":[[56,-83,57,58,59,60,61,62,63,64,65,66]],"id":"feature_32"},{"properties":{"name":"\u591a\u8cc0\u57ce\u5e02","pop":2},"type":"Polygon","arcs":[[67,68,69,70]],"id":"feature_33"},{"properties":{"name":"\u5ca9\u6cbc\u5e02","pop":1},"type":"Polygon","arcs":[[71]],"id":"feature_34"},{"properties":{"name":"\u767b\u7c73\u5e02","pop":1},"type":"Polygon","arcs":[[72]],"id":"feature_35"},{"properties":{"name":"\u6771\u677e\u5cf6\u5e02","pop":1},"type":"Polygon","arcs":[[73]],"id":"feature_36"},{"properties":{"name":"\u5927\u5d0e\u5e02","pop":1},"type":"Polygon","arcs":[[74]],"id":"feature_37"},{"properties":{"name":"\u5927\u5d0e\u5e02","pop":1},"type":"Polygon","arcs":[[75]],"id":"feature_38"},{"properties":{"name":"\u5927\u6cb3\u539f\u753a","pop":1},"type":"Polygon","arcs":[[76]],"id":"feature_39"},{"properties":{"name":"\u67f4\u7530\u753a","pop":1},"type":"Polygon","arcs":[[77]],"id":"feature_40"},{"properties":{"name":"\u67f4\u7530\u753a","pop":1},"type":"Polygon","arcs":[[78]],"id":"feature_41"},{"properties":{"name":"\u67f4\u7530\u753a","pop":2},"type":"Polygon","arcs":[[79]],"id":"feature_42"},{"properties":{"name":"\u4e98\u7406\u90e1\u4e98\u7406\u753a","pop":1},"type":"Polygon","arcs":[[80]],"id":"feature_43"},{"properties":{"name":"\u677e\u5cf6\u753a","pop":1},"type":"Polygon","arcs":[[81]],"id":"feature_44"},{"properties":{"name":"\u4e03\u30f6\u6d5c\u753a","pop":1},"type":"Polygon","arcs":[[82,83]],"id":"feature_45"},{"properties":{"name":"\u5229\u5e9c\u753a","pop":1},"type":"Polygon","arcs":[[84]],"id":"feature_46"},{"properties":{"name":"\u5927\u548c\u753a","pop":1},"type":"Polygon","arcs":[[85]],"id":"feature_47"},{"properties":{"name":"\u5927\u548c\u753a","pop":2},"type":"Polygon","arcs":[[-94,86]],"id":"feature_48"},{"properties":{"name":"\u5bcc\u8c37\u753a","pop":1},"type":"Polygon","arcs":[[87,88]],"id":"feature_49"},{"properties":{"name":"\u5bcc\u8c37\u753a","pop":2},"type":"Polygon","arcs":[[89,90,91,92]],"id":"feature_50"},{"properties":{"name":"\u5bcc\u8c37\u753a","pop":3},"type":"Polygon","arcs":[[93,94]],"id":"feature_51"},{"properties":{"name":"\u4ed9\u53f0\u5e02\u5bae\u57ce\u91ce\u533a","pop":1},"type":"Polygon","arcs":[[95,96]],"id":"feature_52"}],"type":"GeometryCollection"}},"bbox":[140.6087,37.9628,141.5786,38.9149],"transform":{"scale":[9.699096990969865e-06,9.521095210952125e-06],"translate":[140.6087,37.9628]},"arcs":[[[27858,34082],[-62,-10],[-51,31],[31,32],[82,-53]],[[26745,30102],[-846,913],[-1216,-84],[-547,-966],[-1752,357],[1866,1376],[-866,294],[381,599],[-1093,210],[-31,451],[341,-378],[1278,126],[-1918,1198],[-1515,-410],[-72,893],[1123,10],[207,242],[-1506,84],[475,956],[1824,-1166],[124,1481]],[[24188,36277],[464,252],[969,-157],[247,-1334],[1011,452]],[[27858,34082],[485,693],[20,778],[-1000,-557],[495,-914]],[[15249,32906],[3083,168],[2433,-1639],[-6743,1219],[639,693],[588,-441]],[[15775,30154],[196,0],[0,-73],[-196,0],[0,73]],[[15775,30154],[-660,882],[505,515],[-103,-809],[1093,11],[-835,-599]],[[35869,35164],[980,-1208]],[[38962,33725],[464,-10]],[[39622,33694],[-505,-809],[990,641],[1691,-505]],[[42220,33242],[578,294]],[[42860,33578],[-640,-588],[774,641]],[[43262,33557],[-299,-1008],[-2258,126],[-598,-410],[5042,-556],[-5578,-158],[31,-536],[-846,1261],[-484,-494],[701,-231],[-165,-336],[-1784,893],[-918,-1681]],[[28260,30931],[1506,1355],[-351,1849]],[[31642,35259],[2114,-242],[-227,609],[1629,830],[1175,-32],[-82,-861]],[[34044,35027],[-402,-976],[-680,-588],[31,-148],[990,148],[-42,-893],[1980,210],[-21,1911],[-1856,336]],[[36106,30427],[-1381,-746],[381,-1186],[-2526,850],[846,-861],[-1145,-473],[-196,-1113],[1403,-178],[123,-631],[-917,-231],[-2557,1733]],[[27972,29818],[288,1113]],[[28260,30931],[1403,-252]],[[29652,30679],[11,0]],[[29663,30679],[2154,-325],[320,997],[1856,11],[2010,-273],[103,-662]],[[26745,30102],[1227,-284]],[[27972,29818],[2165,-2227]],[[30137,27591],[691,-766],[-908,189],[-10,-851],[-804,210],[-402,-872],[4299,-756],[-948,-1176],[-5001,42],[134,808],[-1320,-31],[1547,210],[1031,1533],[-1784,-399],[-2124,1439],[-1309,-10],[-278,-819],[-2908,787],[1516,1649],[2021,-1145],[-846,809],[433,641],[1011,-567],[-217,1071],[2784,515]],[[22146,27717],[-257,231],[-887,53],[134,-788],[2031,0],[-1021,504]],[[18229,29282],[216,-861],[-598,-441],[-598,704],[980,598]],[[31797,35374],[-155,-115]],[[31642,35259],[-2217,-1114]],[[29425,34145],[-10,-10]],[[29415,34135],[-1412,2247],[-1124,-892]],[[26879,35490],[-639,315],[1185,504],[-732,1029],[330,315],[62,-252],[340,-178],[206,-42],[52,10],[41,861],[-1216,610],[154,987],[650,693],[-186,-630],[804,189],[1578,-1765],[-175,1712]],[[30632,39313],[1330,-231],[-464,-977],[1051,462],[609,-1786],[-598,-220],[-866,1281],[-155,-598],[-52,861],[-195,-1061],[-1114,1082],[-392,-567],[1547,-641],[-1897,-126],[2454,-1365]],[[22260,41161],[794,-546],[-495,-252],[464,-84],[-1289,-11],[526,893]],[[26178,40531],[-805,-1481],[-1453,116],[495,903],[1763,462]],[[27281,41623],[1072,-840]],[[28322,40710],[-3608,262],[1546,956]],[[24188,36277],[-1186,11]],[[23002,36288],[-2000,199],[3083,946],[103,-1156]],[[18486,38987],[660,-431],[-907,-514],[-1588,578],[1835,367]],[[19765,37863],[41,-1670],[-835,189],[309,1450],[485,31]],[[21445,37422],[835,-157],[-1567,-463],[11,-1113],[-464,116],[-42,808],[1227,809]],[[26961,40100],[-1000,-1039],[423,-242],[21,-115],[-805,336],[1361,1060]],[[22353,39995],[1422,-21],[-51,-798],[-1918,903],[547,-84]],[[25466,37517],[134,-116],[-72,-136],[-124,-105],[-123,84],[92,-84],[-10,-210],[1093,21],[-433,-84],[-351,-179],[825,179],[145,-253],[-2104,105],[928,778]],[[67944,48965],[62,-504],[-794,-221],[93,599],[639,126]],[[67944,48965],[1990,1166],[-2897,-693],[1382,682],[330,1712],[1474,-1197],[1670,546],[2248,-735],[-3237,-2395],[876,-598],[-3217,-431],[1248,599],[-1351,388],[-2248,-609],[-154,735],[4691,147],[-2805,683]],[[81585,49238],[-31,-1260],[-3516,-588],[-3237,640],[1072,735],[1485,-567],[165,735],[4062,305]],[[40076,36403],[1062,1712],[-918,137],[897,872],[392,-694],[949,736],[-433,-567],[1196,-64],[2288,1040],[-690,-1691],[-1939,-367],[2155,-147],[-1010,-1660]],[[98019,98508],[877,-74],[1051,-956],[-2691,-441],[980,662],[-825,420],[608,389]],[[97751,99694],[1073,-52],[1103,-1302],[-918,0],[248,777],[-1578,-378],[72,955]],[[2619,4569],[268,-126],[82,-189],[-629,168],[279,147]],[[2619,4569],[-609,21],[691,-809],[-1278,-410],[443,-273],[-1278,-94],[526,998],[-1114,-95],[1526,1975],[1031,-179],[-959,-536],[1021,-598]],[[29095,23317],[1011,-1261],[-443,-493],[3134,-1166],[-3970,336],[-61,-1187],[-877,-851],[-587,284],[1134,903],[-3114,357],[-237,756],[1588,-567],[917,631],[-330,1869],[1835,389]],[[23332,24461],[598,316],[217,-799],[-567,-42],[-248,525]],[[23332,24461],[-1031,-210],[505,1565],[660,-451],[-639,-441],[505,-463]],[[18002,1933],[1093,-1061],[-990,-872],[-320,924],[-1299,326],[1516,683]],[[44025,35710],[31,-31]],[[44839,34397],[-1577,-840]],[[43262,33557],[-268,74]],[[42994,33631],[-134,-53]],[[42860,33578],[-62,-42]],[[42798,33536],[-578,-294]],[[42220,33242],[-422,-221]],[[41798,33021],[-763,872],[-1413,-199]],[[39622,33694],[-196,21]],[[39426,33715],[784,556],[-1340,1156],[721,-137],[485,1113]],[[40076,36403],[1351,-598],[1845,777],[753,-872]],[[38962,33725],[-2113,231]],[[36849,33956],[-980,1208]],[[35869,35164],[382,399]],[[36251,35563],[1742,-115],[145,-505],[-1660,358],[226,-820],[2258,-756]],[[27332,16626],[444,-1628],[453,315],[-2670,-2867],[361,1208],[-846,147],[836,1376],[-2062,641],[3484,808]],[[61418,77071],[639,-1355],[-2484,-441],[577,1218],[1268,578]],[[65645,49742],[-433,-378],[557,105],[93,-315],[-2217,-452],[1454,-168],[-1433,-703],[-2660,84],[732,1050],[3907,777]],[[35756,62104],[124,-178],[-330,42],[20,126],[186,10]],[[35756,62104],[-990,2857],[980,147],[-248,987],[1743,21],[969,-2573],[-794,147],[-1660,-1586]],[[13610,10587],[1330,-536],[-1320,-336],[1113,-157],[-876,-515],[691,-945],[-1093,189],[124,-756],[-1042,-399],[722,1407],[-784,-357],[-1113,462],[1289,105],[618,1722],[-1340,-1491],[1320,1586],[361,21]],[[17033,10724],[10,42],[247,-21],[0,-42],[-257,21]],[[17033,10724],[917,-305],[-124,-1040],[-2154,-115],[-310,850],[753,536],[-691,-252],[-185,200],[897,1302],[-21,-1050],[918,-126]],[[21043,12541],[763,-200],[-979,-998],[-1062,168],[1278,1030]],[[24930,8497],[1062,-158],[392,-1029],[-1279,-431],[-175,1618]],[[47984,44963],[856,-1586],[-1918,-567],[412,2111],[650,42]],[[44839,34397],[-783,1282]],[[44056,35679],[2299,-315],[-1732,-126],[216,-841]],[[37179,41004],[866,-1628],[-1289,283],[-206,-955],[-743,1501],[1372,799]],[[27322,51433],[2186,-966],[371,168],[-361,-347],[-2289,-336],[155,840],[-949,337],[887,304]],[[25992,43199],[382,1670],[381,-735]],[[27281,41623],[-1021,305]],[[26260,41928],[-278,861],[1227,126],[93,-315],[-124,-262],[51,-210],[526,976],[-82,-787],[1629,535],[1309,-693],[-825,-935],[-855,693],[-1650,-294]],[[30632,39313],[-1299,535]],[[29333,39848],[-1011,862]],[[28322,40710],[31,73]],[[28353,40783],[1712,-10],[567,-1460]],[[25992,43199],[763,935]],[[26755,44134],[557,703],[-722,-1901],[-598,263]],[[31797,35374],[93,53]],[[31890,35427],[-93,-53]]]}