{"type":"Topology","objects":{"data":{"geometries":[{"properties":{"name":"\u795e\u6238\u5e02\u6771\u7058\u533a","pop":1},"type":"Polygon","arcs":[[0,-3]],"id":"feature_00"},{"properties":{"name":"\u795e\u6238\u5e02\u6771\u7058\u533a","pop":1},"type":"Polygon","arcs":[[-74,1,2,3,-6,4]],"id":"feature_01"},{"properties":{"name":"\u795e\u6238\u5e02\u7058\u533a","pop":1},"type":"Polygon","arcs":[[5,6,-161,7]],"id":"feature_02"},{"properties":{"name":"\u795e\u6238\u5e02\u5175\u5eab\u533a","pop":1},"type":"Polygon","arcs":[[-159,8,-153,9]],"id":"feature_03"},{"properties":{"name":"\u795e\u6238\u5e02\u9577\u7530\u533a","pop":1},"type":"Polygon","arcs":[[-149,10]],"id":"feature_04"},{"properties":{"name":"\u795e\u6238\u5e02\u9808\u78e8\u533a","pop":1},"type":"Polygon","arcs":[[-19,11,-17,12,-39,13]],"id":"feature_05"},{"properties":{"name":"\u795e\u6238\u5e02\u9808\u78e8\u533a","pop":2},"type":"Polygon","arcs":[[-155,14]],"id":"feature_06"},{"properties":{"name":"\u795e\u6238\u5e02\u9808\u78e8\u533a","pop":3},"type":"Polygon","arcs":[[15]],"id":"feature_07"},{"properties":{"name":"\u795e\u6238\u5e02\u5782\u6c34\u533a","pop":1},"type":"Polygon","arcs":[[16,17,18,19,-60,-34,20]],"id":"feature_08"},{"properties":{"name":"\u795e\u6238\u5e02\u5317\u533a","pop":1},"type":"Polygon","arcs":[[21],[22]],"id":"feature_09"},{"properties":{"name":"\u795e\u6238\u5e02\u5317\u533a","pop":2},"type":"Polygon","arcs":[[23]],"id":"feature_10"},{"properties":{"name":"\u795e\u6238\u5e02\u5317\u533a","pop":3},"type":"Polygon","arcs":[[24]],"id":"feature_11"},{"properties":{"name":"\u795e\u6238\u5e02\u5317\u533a","pop":4},"type":"Polygon","arcs":[[25]],"id":"feature_12"},{"properties":{"name":"\u795e\u6238\u5e02\u5317\u533a","pop":5},"type":"Polygon","arcs":[[26]],"id":"feature_13"},{"properties":{"name":"\u795e\u6238\u5e02\u5317\u533a","pop":6},"type":"Polygon","arcs":[[27]],"id":"feature_14"},{"properties":{"name":"\u795e\u6238\u5e02\u5317\u533a","pop":6},"type":"Polygon","arcs":[[28]],"id":"feature_15"},{"properties":{"name":"\u795e\u6238\u5e02\u5317\u533a","pop":7},"type":"Polygon","arcs":[[29]],"id":"feature_16"},{"properties":{"name":"\u795e\u6238\u5e02\u5317\u533a","pop":8},"type":"Polygon","arcs":[[30]],"id":"feature_17"},{"properties":{"name":"\u795e\u6238\u5e02\u5317\u533a","pop":9},"type":"Polygon","arcs":[[31]],"id":"feature_18"},{"properties":{"name":"\u795e\u6238\u5e02\u4e2d\u592e\u533a","pop":1},"type":"Polygon","arcs":[[-157,32]],"id":"feature_19"},{"properties":{"name":"\u795e\u6238\u5e02\u897f\u533a","pop":1},"type":"Polygon","arcs":[[33,-59,34],[35]],"id":"feature_20"},{"properties":{"name":"\u795e\u6238\u5e02\u897f\u533a","pop":2},"type":"Polygon","arcs":[[36]],"id":"feature_21"},{"properties":{"name":"\u795e\u6238\u5e02\u897f\u533a","pop":3},"type":"Polygon","arcs":[[37]],"id":"feature_22"},{"properties":{"name":"\u795e\u6238\u5e02\u897f\u533a","pop":4},"type":"Polygon","arcs":[[38,39]],"id":"feature_23"},{"properties":{"name":"\u795e\u6238\u5e02\u897f\u533a","pop":5},"type":"Polygon","arcs":[[40]],"id":"feature_24"},{"properties":{"name":"\u795e\u6238\u5e02\u897f\u533a","pop":6},"type":"Polygon","arcs":[[-105,41,-107,42]],"id":"feature_25"},{"properties":{"name":"\u795e\u6238\u5e02\u897f\u533a","pop":7},"type":"Polygon","arcs":[[43]],"id":"feature_26"},{"properties":{"name":"\u795e\u6238\u5e02\u897f\u533a","pop":8},"type":"Polygon","arcs":[[-57,44]],"id":"feature_27"},{"properties":{"name":"\u59eb\u8def\u5e02","pop":1},"type":"Polygon","arcs":[[45]],"id":"feature_28"},{"properties":{"name":"\u59eb\u8def\u5e02","pop":1},"type":"Polygon","arcs":[[-146,46]],"id":"feature_29"},{"properties":{"name":"\u59eb\u8def\u5e02","pop":1},"type":"Polygon","arcs":[[47],[48],[49]],"id":"feature_30"},{"properties":{"name":"\u59eb\u8def\u5e02","pop":2},"type":"Polygon","arcs":[[50]],"id":"feature_31"},{"properties":{"name":"\u59eb\u8def\u5e02","pop":3},"type":"Polygon","arcs":[[51]],"id":"feature_32"},{"properties":{"name":"\u5c3c\u5d0e\u5e02","pop":1},"type":"Polygon","arcs":[[-55,52]],"id":"feature_33"},{"properties":{"name":"\u5c3c\u5d0e\u5e02","pop":1},"type":"Polygon","arcs":[[53,54,55,-67,-78]],"id":"feature_34"},{"properties":{"name":"\u660e\u77f3\u5e02","pop":1},"type":"Polygon","arcs":[[56,57,58,59,60,-140,61,-138,62],[63]],"id":"feature_35"},{"properties":{"name":"\u897f\u5bae\u5e02","pop":1},"type":"Polygon","arcs":[[64,-72,65,-99,-79,66]],"id":"feature_36"},{"properties":{"name":"\u897f\u5bae\u5e02","pop":2},"type":"Polygon","arcs":[[67]],"id":"feature_37"},{"properties":{"name":"\u897f\u5bae\u5e02","pop":3},"type":"Polygon","arcs":[[68]],"id":"feature_38"},{"properties":{"name":"\u6d32\u672c\u5e02","pop":1},"type":"Polygon","arcs":[[69]],"id":"feature_39"},{"properties":{"name":"\u6d32\u672c\u5e02","pop":1},"type":"Polygon","arcs":[[70]],"id":"feature_40"},{"properties":{"name":"\u82a6\u5c4b\u5e02","pop":1},"type":"Polygon","arcs":[[71,72,73,74]],"id":"feature_41"},{"properties":{"name":"\u4f0a\u4e39\u5e02","pop":1},"type":"Polygon","arcs":[[-94,75,-113,76,77,78,-98,79,-96,80]],"id":"feature_42"},{"properties":{"name":"\u76f8\u751f\u5e02","pop":1},"type":"Polygon","arcs":[[81]],"id":"feature_43"},{"properties":{"name":"\u76f8\u751f\u5e02","pop":1},"type":"Polygon","arcs":[[82]],"id":"feature_44"},{"properties":{"name":"\u76f8\u751f\u5e02","pop":1},"type":"Polygon","arcs":[[83]],"id":"feature_45"},{"properties":{"name":"\u8c4a\u5ca1\u5e02","pop":1},"type":"Polygon","arcs":[[84]],"id":"feature_46"},{"properties":{"name":"\u8c4a\u5ca1\u5e02","pop":1},"type":"Polygon","arcs":[[85]],"id":"feature_47"},{"properties":{"name":"\u52a0\u53e4\u5ddd\u5e02","pop":1},"type":"Polygon","arcs":[[-136,86,-144,87,-111,88,-109,89]],"id":"feature_48"},{"properties":{"name":"\u52a0\u53e4\u5ddd\u5e02","pop":2},"type":"Polygon","arcs":[[90]],"id":"feature_49"},{"properties":{"name":"\u8d64\u7a42\u5e02","pop":1},"type":"Polygon","arcs":[[91]],"id":"feature_50"},{"properties":{"name":"\u897f\u8107\u5e02","pop":1},"type":"Polygon","arcs":[[92]],"id":"feature_51"},{"properties":{"name":"\u5b9d\u585a\u5e02","pop":1},"type":"Polygon","arcs":[[-115,93,94,95,96,97,98,99],[100]],"id":"feature_52"},{"properties":{"name":"\u5b9d\u585a\u5e02","pop":2},"type":"Polygon","arcs":[[101]],"id":"feature_53"},{"properties":{"name":"\u4e09\u6728\u5e02","pop":1},"type":"Polygon","arcs":[[102]],"id":"feature_54"},{"properties":{"name":"\u4e09\u6728\u5e02","pop":1},"type":"Polygon","arcs":[[103]],"id":"feature_55"},{"properties":{"name":"\u4e09\u6728\u5e02","pop":1},"type":"Polygon","arcs":[[104,105,106,107]],"id":"feature_56"},{"properties":{"name":"\u9ad8\u7802\u5e02","pop":1},"type":"Polygon","arcs":[[108,109,110,111]],"id":"feature_57"},{"properties":{"name":"\u5ddd\u897f\u5e02","pop":1},"type":"Polygon","arcs":[[112,113,114,115]],"id":"feature_58"},{"properties":{"name":"\u5ddd\u897f\u5e02","pop":2},"type":"Polygon","arcs":[[116]],"id":"feature_59"},{"properties":{"name":"\u5ddd\u897f\u5e02","pop":3},"type":"Polygon","arcs":[[117]],"id":"feature_60"},{"properties":{"name":"\u5ddd\u897f\u5e02","pop":4},"type":"Polygon","arcs":[[-132,118]],"id":"feature_61"},{"properties":{"name":"\u5ddd\u897f\u5e02","pop":5},"type":"Polygon","arcs":[[119]],"id":"feature_62"},{"properties":{"name":"\u5c0f\u91ce\u5e02","pop":1},"type":"Polygon","arcs":[[120],[121]],"id":"feature_63"},{"properties":{"name":"\u4e09\u7530\u5e02","pop":1},"type":"Polygon","arcs":[[122]],"id":"feature_64"},{"properties":{"name":"\u4e09\u7530\u5e02","pop":2},"type":"Polygon","arcs":[[123]],"id":"feature_65"},{"properties":{"name":"\u4e09\u7530\u5e02","pop":3},"type":"Polygon","arcs":[[124]],"id":"feature_66"},{"properties":{"name":"\u4e09\u7530\u5e02","pop":4},"type":"Polygon","arcs":[[125]],"id":"feature_67"},{"properties":{"name":"\u52a0\u897f\u5e02","pop":1},"type":"Polygon","arcs":[[126]],"id":"feature_68"},{"properties":{"name":"\u52a0\u897f\u5e02","pop":1},"type":"Polygon","arcs":[[127]],"id":"feature_69"},{"properties":{"name":"\u52a0\u6771\u5e02","pop":1},"type":"Polygon","arcs":[[128]],"id":"feature_70"},{"properties":{"name":"\u305f\u3064\u306e\u5e02","pop":1},"type":"Polygon","arcs":[[129]],"id":"feature_71"},{"properties":{"name":"\u732a\u540d\u5ddd\u753a","pop":1},"type":"Polygon","arcs":[[130]],"id":"feature_72"},{"properties":{"name":"\u732a\u540d\u5ddd\u753a","pop":2},"type":"Polygon","arcs":[[131,132]],"id":"feature_73"},{"properties":{"name":"\u7a32\u7f8e\u753a","pop":1},"type":"Polygon","arcs":[[133]],"id":"feature_74"},{"properties":{"name":"\u64ad\u78e8\u753a","pop":1},"type":"Polygon","arcs":[[-142,134]],"id":"feature_75"},{"properties":{"name":"\u64ad\u78e8\u753a","pop":1},"type":"Polygon","arcs":[[135,136,137,138,139,140,141,142,143,144]],"id":"feature_76"},{"properties":{"name":"\u592a\u5b50\u753a","pop":1},"type":"Polygon","arcs":[[145,146]],"id":"feature_77"},{"properties":{"name":"\u795e\u6238\u5e02\u5175\u5eab\u533a","pop":1},"type":"Polygon","arcs":[[-151,147,148,149]],"id":"feature_78"},{"properties":{"name":"\u795e\u6238\u5e02\u9577\u7530\u533a","pop":1},"type":"Polygon","arcs":[[150,151,152,153,154,155]],"id":"feature_79"},{"properties":{"name":"\u795e\u6238\u5e02\u4e2d\u592e\u533a","pop":1},"type":"Polygon","arcs":[[156,157,158,159,160,161]],"id":"feature_80"}],"type":"GeometryCollection"}},"bbox":[134.37,34.3313,135.4603,35.5578],"transform":{"scale":[1.090310903109016e-05,1.2265122651226527e-05],"translate":[134.37,34.3313]},"arcs":[[[81683,30680],[651,-130],[65,-807],[1816,49],[73,-473],[-981,122],[1118,-872],[-3283,-302],[-229,1248],[1458,228],[-1174,367],[477,570]],[[85618,31618],[-862,25],[834,-212],[74,-905],[-973,-74],[166,873],[-230,424],[-1100,-783],[669,-579],[-1504,-130],[-37,318],[853,309],[-46,49],[-1779,-253]],[[81683,30680],[-9,0]],[[81674,30680],[-936,41]],[[80225,32662],[431,-343],[-18,1166],[1394,-954],[2476,579]],[[80225,32662],[458,-1435],[-605,-188],[660,-318]],[[80738,30721],[367,-636],[-2430,-16],[963,-554],[-1312,-131],[-678,277],[908,294],[-74,261],[-642,-269]],[[76932,31414],[1724,669],[312,970],[1257,-391]],[[74575,27631],[-1293,-220],[458,-49],[-642,-530],[752,604],[1119,-74],[-1045,-342],[926,-538],[-247,-539],[-2174,164],[660,717],[-660,-326]],[[71658,28626],[771,864],[1577,74]],[[71512,28830],[-9,40]],[[64899,27362],[734,979],[-762,-270]],[[64798,28006],[-404,449]],[[64312,28610],[2183,1271],[1100,-57],[-82,-1076],[899,693],[-321,-864],[1082,-326],[-1027,-392],[550,-342],[-3513,-351]],[[70595,25373],[-3798,-538],[597,978],[1430,351],[-174,709],[853,0],[-633,889],[945,40]],[[67100,26848],[211,-8],[826,-391],[-881,-383],[-1036,456],[880,326]],[[64798,28006],[73,65]],[[64871,28071],[28,-709]],[[64899,27362],[284,-196]],[[65183,27166],[752,-562],[-715,-603],[-624,-49],[404,603],[-1027,-546],[-156,220],[367,16],[-19,228],[193,416],[-28,318],[184,269],[-9,220],[-1349,-872],[505,-334],[-1477,-579],[4100,-155],[-862,-408],[-110,-921],[-3348,-506],[-2467,1517]],[[61450,27582],[10,-440],[1054,497],[-669,-799],[1045,57],[633,1134],[1275,-25]],[[71026,34570],[2714,-449],[-1825,-1435],[413,-1353],[-449,-286],[146,750],[-1660,-660],[-1706,261],[211,815],[1156,-24],[-367,1035],[1302,212],[-632,343],[697,791]],[[71915,34080],[-174,-742],[633,66],[321,375],[-780,301]],[[78143,41712],[-404,-669],[1064,41],[-954,-1378],[514,8],[-1477,-807],[-596,579],[697,-326],[945,1590],[-954,440],[1165,522]],[[77767,37603],[-193,-685],[-2008,-979],[91,930],[633,-229],[1477,963]],[[78721,39731],[504,-612],[734,-334],[-1990,24],[752,922]],[[77831,43595],[688,49],[119,-970],[-1036,-440],[229,1361]],[[68531,29718],[-110,-24],[-18,49],[73,41],[55,-66]],[[68531,29718],[275,604],[936,-343],[-789,-513],[-422,252]],[[71071,35165],[624,8],[220,-449],[-1100,-16],[256,457]],[[75456,43995],[797,-384],[-972,-872],[-174,889],[349,367]],[[75428,35768],[578,-187],[-1596,-286],[495,392],[523,81]],[[76373,26734],[-9,0]],[[61450,27582],[-834,-815]],[[55186,28186],[-220,89],[-248,286],[1963,-522],[679,571],[697,-196],[-459,-294],[28,-407],[917,636],[2907,-767]],[[58176,27452],[-27,-237],[-1661,-244],[1725,-123],[1302,636],[-1339,-32]],[[60166,33338],[1083,-1614],[-4403,-1435],[2587,3066],[733,-17]],[[61432,30852],[202,-685],[-2027,-1085],[-376,563],[2201,1207]],[[64312,28610],[82,-155]],[[64394,28455],[-2329,-74],[1779,873],[468,-644]],[[63156,34301],[1046,-245],[238,-546],[-1293,-253],[-651,962],[660,82]],[[61313,35344],[1935,-49],[-2054,-668],[-1046,668]],[[60891,35442],[110,-33]],[[55636,29425],[1494,-41],[-128,-815],[-844,-220],[349,513],[-871,563]],[[52325,30729],[-1294,628],[1926,253],[-559,-758]],[[20618,37301],[-110,-16],[-46,187],[83,0],[73,-171]],[[19793,40106],[467,-196],[-899,122]],[[20618,37301],[202,1223],[-1367,122],[1348,122],[-284,441],[-743,138],[-614,-1051],[-1064,538],[1018,40],[339,775],[816,-236],[358,717],[-46,-628],[450,131],[64,733],[706,-847],[-779,-17],[36,-212],[3082,74],[394,954],[-587,652],[771,579],[-1504,-41],[1504,587],[-496,342],[899,522],[-1064,579],[963,147],[523,-1158],[615,1411],[174,-506],[514,351],[-569,611],[-550,-856],[-486,139],[256,921],[1825,-33],[386,-1076],[1302,-693],[550,343],[-770,1027],[816,-644],[606,285],[-46,-603],[660,530],[541,-767],[2385,196],[-2256,-807],[1348,-791],[-541,-1321],[-1477,-587],[367,555],[-1348,146],[559,-619],[-523,-905],[-467,546],[-661,-334],[1385,-1117],[-137,-1011],[935,1215],[1486,-58],[101,-2136],[-688,971],[-954,-155],[-798,-1802],[-1045,-204],[1329,1174],[-1238,-65],[175,513],[-358,74],[-798,-400],[394,-611],[-513,301],[91,424],[1367,1248],[-972,285],[-661,-1394],[-1036,-995],[-880,-89],[1357,611],[-890,269],[1138,489],[-587,269],[889,1020],[-1972,-2063],[734,1973],[-908,-1231],[-458,1198],[36,-2242],[-1531,-244],[275,1117],[1100,481],[-1972,32],[569,-872],[-1568,-432],[-239,611],[376,147],[752,1011],[-91,277],[-679,-1207],[-954,253],[110,-277],[101,-106],[46,-122],[-1413,-498],[-651,873],[340,-1443],[-1514,-367],[826,3228],[1100,66],[-312,-547],[670,-187]],[[26497,38687],[321,913],[-752,832],[706,-473],[285,530],[431,-302],[440,131],[-2440,1557],[266,-1166],[-1211,-1256],[1743,41],[211,-807]],[[27102,41899],[-64,930],[-532,220],[-559,-497],[1155,-653]],[[33422,40424],[339,-408],[642,424],[-220,-848],[990,-228],[386,-767],[-1504,987],[-808,-367],[-376,1035],[551,172]],[[35577,37203],[816,-693],[-174,-522],[-1229,473],[587,742]],[[94056,30803],[330,-400],[-734,220],[468,-513],[-495,-595],[-1092,-131],[477,1394],[1037,25]],[[98568,35646],[1082,-693],[312,-726],[-128,-1223],[37,-24],[36,-114],[55,-33],[9,-16],[19,-41],[9,-16],[-1119,65],[-174,-1272],[-3366,-1084],[-1000,-1362],[-844,-302],[2458,2316],[-1275,-873],[-156,1264],[-467,-709]],[[94056,30803],[-9,0]],[[94047,30803],[-1083,-17],[-1128,-2282],[248,1296]],[[52325,30729],[73,123]],[[52398,30852],[1266,-441],[-615,-2152],[2137,-73]],[[55186,28186],[505,-1517],[4925,98]],[[60616,26767],[-1119,-1329]],[[59497,25438],[-4806,49],[-7301,4117],[-825,-807],[-1358,440],[697,1052]],[[46271,30607],[881,65],[110,930]],[[47840,31683],[1788,-1214],[844,163],[-826,-359],[248,-930],[-899,-293],[2101,-889],[715,677],[-1568,962],[1311,-334],[771,1263]],[[46996,29767],[-514,294],[-385,106],[1018,-742],[-119,342]],[[92084,29800],[-954,-677],[-890,677],[835,391],[651,824],[-853,-481],[-1119,1337],[-990,196],[91,-1117],[-1229,-164],[-45,661],[981,302],[174,521],[-1211,-106]],[[86507,34260],[-678,742],[669,114],[-202,465],[532,-816],[881,-16],[-220,897],[963,-400],[679,1109]],[[92029,36681],[1000,-4769],[-945,-2112]],[[86718,40962],[349,-400],[-1073,-73],[-74,538],[798,-65]],[[80564,41247],[560,-81],[-560,-628],[-706,570],[706,139]],[[46968,1141],[-211,9],[0,40],[202,-24],[9,-25]],[[46968,1141],[1018,685],[1238,-1100],[-2256,-644],[-642,929],[642,130]],[[86507,34260],[1018,-2096]],[[87525,32164],[-45,-636],[-1862,90]],[[85618,31618],[-1110,1492]],[[84508,33110],[1247,1215],[752,-65]],[[94523,38891],[19,-41]],[[96642,38385],[1752,-888],[174,-1851]],[[98568,35646],[-449,481],[-1679,-228],[-559,-1207],[-2880,970],[-972,1019]],[[92029,36681],[-92,269]],[[92341,39144],[183,48]],[[93478,39421],[18,-49]],[[10327,38744],[-18,-49],[-83,73],[74,0],[27,-24]],[[10410,38785],[-55,-41],[-28,0],[28,65],[55,-24]],[[10410,38785],[-550,734],[-514,-424],[578,-571],[-862,-269],[1265,-147],[-898,-359],[-725,726],[266,391],[-294,-285],[-678,57],[1632,1052],[-46,603],[1156,-24],[-569,-636],[1688,195],[-1449,-1043]],[[40154,98621],[-367,-196],[-83,123],[441,155],[9,-82]],[[40154,98621],[-101,1378],[1495,-473],[623,-1370],[-1174,-750],[257,595],[-1100,620]],[[46831,32482],[-2073,302],[-37,-603]],[[43841,31431],[27,407],[-211,188],[-862,-1362],[-926,-81],[-1624,986],[606,1036],[-615,73],[147,1280]],[[40337,34154],[578,913],[-550,473],[770,-114],[-403,456],[807,180]],[[40475,37236],[1100,-131],[532,913],[248,-929],[-670,-16],[1633,-783],[1642,147],[-725,-661],[1568,-464],[-431,-848],[945,228],[-486,465],[981,-261],[147,-498],[-761,139],[-303,-318],[1358,-253],[-404,-1215],[1642,-342],[-734,-620]],[[46345,37774],[981,-82],[-376,-391],[1302,-783],[-1183,-98],[422,490],[-899,627],[-990,-489],[743,726]],[[1550,35532],[229,-685],[1339,155],[-688,-767],[1569,-220],[275,-1117],[-789,-212],[-2999,1663],[-486,767],[1550,416]],[[54975,54349],[220,-554],[798,391],[-220,-742],[706,163],[175,-522],[-1248,-529],[-477,472],[477,-888],[-972,595],[9,-807],[-743,65],[1275,2356]],[[94523,38891],[-1027,481]],[[93496,39372],[-18,49]],[[93478,39421],[-954,-229]],[[92524,39192],[-183,-48]],[[92341,39144],[605,-1281],[-1137,-146],[128,-767]],[[91937,36950],[-119,-839],[-2687,244]],[[89131,36355],[908,367],[-477,717],[-2027,-163],[577,74],[56,1011],[687,-57],[-862,807],[624,57],[-64,628],[1229,212],[-9,-571],[706,701],[1073,-49],[-862,1590],[1045,-187],[156,-1590],[239,946],[1100,-742],[-229,432],[1467,269],[-587,350],[1505,90]],[[93918,41149],[-27,0],[46,-32],[0,8],[-19,24]],[[89543,40391],[-220,-563],[-688,155],[202,335],[706,73]],[[55058,37578],[192,-350],[-302,-253],[-165,318],[275,285]],[[54608,38866],[-101,17],[-36,122],[119,-8],[18,-131]],[[61313,35344],[-312,65]],[[61001,35409],[-110,33]],[[60891,35442],[-743,-147]],[[60148,35295],[-147,889],[-1990,147],[-495,970],[495,-25],[193,384],[-771,-82],[-64,595],[-1110,-758],[-1045,130],[366,1126],[-1109,49],[1614,603],[651,-954],[844,465],[137,-913],[844,-294],[-183,-408],[761,351],[881,-1207],[706,-16],[-74,766],[835,-220],[-55,-848],[615,-179],[-734,-522]],[[40475,37236],[1064,-1174]],[[41539,36062],[-1679,-433],[477,-1475]],[[40337,34154],[46,-196]],[[40383,33958],[-605,-1247],[-276,-66],[441,799],[64,506],[-835,-1239],[-788,1231],[27,-245],[-303,-269],[0,-41],[-9,-16],[-9,0],[-1605,783],[734,807],[376,-33],[743,441],[-46,89],[-1257,-407],[-935,-1028],[-578,269],[1211,1884],[-1349,1793],[1073,-635],[-293,603],[101,196],[2861,-677],[-1063,-392],[788,-456],[138,-294],[238,-179],[-9,-73],[-1321,986],[468,506],[-834,32],[330,-628],[-1046,343],[2082,-1313],[-550,-554],[1155,456],[-45,1558],[1018,-212]],[[96642,38385],[-1788,-138],[-312,603]],[[94542,38850],[-19,41]],[[94523,38891],[-201,1321],[1357,627],[-293,408]],[[95386,41247],[-1523,775],[1293,538],[-1403,2160],[706,343],[2651,-2063],[-1458,-465],[1045,-1337],[-1266,-1614],[1211,-1199]],[[94478,46302],[1192,-473],[1733,147],[-816,-1109],[-724,147],[440,-359],[-285,-106],[-1540,1753]],[[93157,44932],[1055,-954],[-202,-285],[-1293,98],[440,1141]],[[95083,47647],[138,-774],[-1211,-171]],[[92212,43603],[514,25],[513,-481],[-1036,-310],[-193,440],[670,65],[-936,196],[468,65]],[[51976,43033],[1110,-1085],[-1780,-856],[-476,1566],[1146,375]],[[52104,42706],[-91,-179],[-615,-122],[633,-57],[73,358]],[[79005,47337],[-660,-994],[1164,-913],[-1229,-1142],[-1302,579],[-908,-416],[-1367,922],[3816,40],[-404,1215],[890,709]],[[75190,47729],[834,-343],[-697,-407],[798,-620],[-1834,-530],[-101,995],[495,310],[440,-538],[-422,799],[487,334]],[[74272,47786],[459,81],[-624,-375],[321,-334],[-312,-350],[46,-221],[-91,0],[-10,-16],[-495,375],[706,840]],[[69742,50452],[816,-171],[-1569,-465],[349,457],[404,179]],[[43556,48503],[358,90],[184,-277],[-358,-253],[-184,440]],[[43556,48503],[-761,522],[-449,-986],[-963,326],[788,253],[-917,554],[2449,-73],[-147,-596]],[[54241,50452],[652,-693],[-560,-489],[-1495,187],[1403,995]],[[16344,44093],[147,-522],[257,513],[1265,-358],[-871,-343],[523,-595],[-2733,0],[1375,1076],[-192,595],[229,-366]],[[91121,46930],[578,-65],[403,-897],[-1678,89],[-184,506],[881,367]],[[95083,47647],[-1073,-945]],[[94010,46702],[-963,-408],[1321,1435],[-615,130],[1330,-212]],[[50087,34447],[-321,-1149],[-422,-123],[-505,1240],[1248,32]],[[44923,30941],[-596,-1361],[-1220,204],[541,954],[688,-180],[-504,506],[1073,-114]],[[46831,32482],[926,-693]],[[47757,31789],[83,-106]],[[47840,31683],[-578,-81]],[[47262,31602],[-991,-995]],[[46271,30607],[-367,-318]],[[45904,30289],[-981,652]],[[44923,30941],[-18,9]],[[44905,30950],[-1064,481]],[[43841,31431],[880,750]],[[44721,32181],[1101,-261],[1009,562]],[[19793,40106],[-432,-74]],[[19361,40032],[-972,310],[752,554],[-935,-114],[550,1085],[2183,-930],[-1614,-513],[468,-318]],[[71521,28773],[-9,57]],[[71512,28830],[-9,40]],[[71503,28870],[91,-171]],[[71521,28773],[73,-74]],[[71594,28699],[64,-73]],[[71658,28626],[771,-2128]],[[72429,26498],[-184,-522],[789,-179],[-2439,-424]],[[70595,25373],[-477,652],[660,391],[-963,1386]],[[69815,27802],[1220,498],[-1642,978],[1257,196],[871,-701]],[[76373,26734],[-9,0]],[[76364,26734],[-166,2014],[-1504,-155],[459,-791],[-578,-171]],[[74575,27631],[-1238,1305],[669,628]],[[74006,29564],[2926,1850]],[[76932,31414],[908,-1467]],[[77840,29947],[-1266,-522],[1220,-179],[-1339,-270],[-27,-611],[1531,285],[505,-391],[-706,-424],[1293,57],[-1000,-505],[1128,309],[358,-97],[-835,-962],[991,260],[578,-856],[-3898,693]]]}