{"type":"Topology","objects":{"data":{"geometries":[{"properties":{"name":"\u5927\u6d25\u5e02","pop":1},"type":"Polygon","arcs":[[0]],"id":"feature_00"},{"properties":{"name":"\u5927\u6d25\u5e02","pop":1},"type":"Polygon","arcs":[[1]],"id":"feature_01"},{"properties":{"name":"\u5927\u6d25\u5e02","pop":2},"type":"Polygon","arcs":[[-20,2]],"id":"feature_02"},{"properties":{"name":"\u5927\u6d25\u5e02","pop":3},"type":"Polygon","arcs":[[3]],"id":"feature_03"},{"properties":{"name":"\u5927\u6d25\u5e02","pop":3},"type":"Polygon","arcs":[[4]],"id":"feature_04"},{"properties":{"name":"\u5927\u6d25\u5e02","pop":4},"type":"Polygon","arcs":[[5]],"id":"feature_05"},{"properties":{"name":"\u5927\u6d25\u5e02","pop":5},"type":"Polygon","arcs":[[6]],"id":"feature_06"},{"properties":{"name":"\u5927\u6d25\u5e02","pop":6},"type":"Polygon","arcs":[[7]],"id":"feature_07"},{"properties":{"name":"\u5927\u6d25\u5e02","pop":7},"type":"Polygon","arcs":[[8]],"id":"feature_08"},{"properties":{"name":"\u5927\u6d25\u5e02","pop":8},"type":"Polygon","arcs":[[9]],"id":"feature_09"},{"properties":{"name":"\u5f66\u6839\u5e02","pop":1},"type":"Polygon","arcs":[[10]],"id":"feature_10"},{"properties":{"name":"\u5f66\u6839\u5e02","pop":1},"type":"Polygon","arcs":[[11]],"id":"feature_11"},{"properties":{"name":"\u5f66\u6839\u5e02","pop":2},"type":"Polygon","arcs":[[12]],"id":"feature_12"},{"properties":{"name":"\u5f66\u6839\u5e02","pop":2},"type":"Polygon","arcs":[[13]],"id":"feature_13"},{"properties":{"name":"\u5f66\u6839\u5e02","pop":2},"type":"Polygon","arcs":[[14]],"id":"feature_14"},{"properties":{"name":"\u9577\u6d5c\u5e02","pop":1},"type":"Polygon","arcs":[[15]],"id":"feature_15"},{"properties":{"name":"\u9577\u6d5c\u5e02","pop":1},"type":"Polygon","arcs":[[16]],"id":"feature_16"},{"properties":{"name":"\u8fd1\u6c5f\u516b\u5e61\u5e02","pop":1},"type":"Polygon","arcs":[[17]],"id":"feature_17"},{"properties":{"name":"\u8349\u6d25\u5e02","pop":1},"type":"Polygon","arcs":[[18]],"id":"feature_18"},{"properties":{"name":"\u8349\u6d25\u5e02","pop":1},"type":"Polygon","arcs":[[19,20,-25,21]],"id":"feature_19"},{"properties":{"name":"\u5b88\u5c71\u5e02","pop":1},"type":"Polygon","arcs":[[-27,22]],"id":"feature_20"},{"properties":{"name":"\u5b88\u5c71\u5e02","pop":2},"type":"Polygon","arcs":[[23]],"id":"feature_21"},{"properties":{"name":"\u6817\u6771\u5e02","pop":1},"type":"Polygon","arcs":[[24,25,26,27]],"id":"feature_22"},{"properties":{"name":"\u7532\u8cc0\u5e02","pop":1},"type":"Polygon","arcs":[[28]],"id":"feature_23"},{"properties":{"name":"\u7532\u8cc0\u5e02","pop":2},"type":"Polygon","arcs":[[29]],"id":"feature_24"},{"properties":{"name":"\u91ce\u6d32\u5e02","pop":1},"type":"Polygon","arcs":[[30]],"id":"feature_25"},{"properties":{"name":"\u6e56\u5357\u5e02","pop":1},"type":"Polygon","arcs":[[31]],"id":"feature_26"},{"properties":{"name":"\u6e56\u5357\u5e02","pop":2},"type":"Polygon","arcs":[[32]],"id":"feature_27"},{"properties":{"name":"\u6e56\u5357\u5e02","pop":2},"type":"Polygon","arcs":[[33]],"id":"feature_28"},{"properties":{"name":"\u6e56\u5357\u5e02","pop":3},"type":"Polygon","arcs":[[34]],"id":"feature_29"},{"properties":{"name":"\u6771\u8fd1\u6c5f\u5e02","pop":1},"type":"Polygon","arcs":[[35]],"id":"feature_30"},{"properties":{"name":"\u6771\u8fd1\u6c5f\u5e02","pop":1},"type":"Polygon","arcs":[[36]],"id":"feature_31"},{"properties":{"name":"\u6771\u8fd1\u6c5f\u5e02","pop":2},"type":"Polygon","arcs":[[37]],"id":"feature_32"}],"type":"GeometryCollection"}},"bbox":[135.8466,34.9318,136.2985,35.4033],"transform":{"scale":[4.519045190451853e-06,4.715047150471494e-06],"translate":[135.8466,34.9318]},"arcs":[[[4979,31580],[-89,-128],[-110,43],[66,212],[133,-127]],[[4979,31580],[3297,891],[-1682,-1740],[1815,615],[863,-3075],[-4536,-4751],[420,-3435],[-2080,-2439],[6970,-2058],[3165,-6405],[-443,-1739],[-3430,-1357],[576,4284],[-1616,-1930],[-2058,679],[1726,572],[-221,1973],[-2324,148],[886,1230],[-5068,2864],[1129,1102],[-2368,2779],[2124,1209],[-1040,2693],[2700,1485],[1195,6405]],[[21487,11347],[-1439,-2821],[-1571,954],[-2478,-2820],[-2589,212],[531,6299],[5953,-43]],[[13211,37624],[-487,-106],[155,997],[553,-148],[-221,-743]],[[13211,37624],[708,2800],[2655,2396],[664,-42],[509,-255],[-1128,-4772],[-3408,-127]],[[13875,6087],[708,-5430],[-1571,743],[-531,-1400],[-23,1506],[-2235,339],[2058,2376],[-2456,424],[4050,1442]],[[14052,45768],[110,-2396],[399,2290],[2367,106],[-619,-2842],[-1925,212],[-1616,849],[1284,1781]],[[27351,11029],[1328,-1782],[-2014,-1018],[-288,2057],[974,743]],[[10622,38663],[2146,-1527],[-4713,-1018],[1859,2439],[708,106]],[[11772,36967],[-354,-1061],[996,106],[199,-1696],[-2522,1081],[1681,1570]],[[91988,67422],[952,-275],[-221,-785],[-1217,424],[486,636]],[[91988,67422],[-1526,-1590],[531,2184],[-2457,-721],[-774,-1612],[-3098,3542],[4492,5960],[1792,-64],[377,-530],[-576,-997],[199,-85],[1461,1824],[-708,-2184],[1438,-806],[-1416,-636],[3983,-2651],[-2766,-1909],[-111,2884],[-841,-2609]],[[82031,62947],[-399,-127],[-221,127],[177,212],[443,-212]],[[82894,63266],[354,-679],[2677,-1124],[-4403,21],[1372,1782]],[[82894,63266],[-1107,1399],[2656,552],[-111,-191],[-1438,-1760]],[[94688,97878],[-155,382],[288,64],[133,-403],[-266,-43]],[[94688,97878],[2346,-2184],[177,1357],[2788,-679],[-2456,-2990],[-3231,-827],[-4315,3436],[2213,699],[354,2630],[3120,594],[-996,-2036]],[[54857,45684],[1305,-3309],[3120,-1866],[-5974,-2758],[-708,1952],[2522,1060],[-2921,976],[0,1760],[2656,2185]],[[26554,16734],[620,381],[243,-106],[-420,-848],[-443,573]],[[21487,11347],[-1593,1781]],[[19894,13128],[2633,1124],[-3430,1252],[-531,1887],[2655,-1951],[3098,1506],[-5753,5132],[3341,-997],[3408,1379]],[[27793,17518],[-2766,-2884],[1063,-2333],[-2877,-1421],[2478,-1421],[-575,-869],[-2213,-22],[1173,1167],[-2589,1612]],[[28369,23902],[-398,1676],[4160,5641],[2279,-403],[1394,-891],[-2523,-2396],[2412,-509],[-1084,-721],[1593,-1252],[-5200,-2545]],[[22682,39363],[973,-1251],[1306,-721],[-3961,233],[1682,1739]],[[27793,17518],[67,3606],[-2545,1336]],[[25315,22460],[3054,1442]],[[28369,23902],[2633,-1400]],[[31002,22502],[-686,-2926],[-1527,551],[-1106,-1294],[5244,552],[3917,2990],[-155,1930],[2390,-3478],[-4072,-149],[177,-2057],[-3186,-1272],[-4205,169]],[[73909,10647],[-1327,-1867],[1726,997],[1261,-827],[-2500,-127],[1526,-1442],[-796,-573],[-4315,1251],[995,3076],[3430,-488]],[[72869,4496],[576,-2396],[-2257,-1336],[420,2863],[1261,869]],[[40650,33891],[3209,-1654],[-2058,43],[819,-806],[-2479,-1612],[2014,-403],[-4868,-3394],[-67,3670],[2479,212],[2035,2608],[-1084,1336]],[[45518,18282],[67,-870],[2965,-1251],[1571,-2100],[-2589,764],[288,-1612],[-1461,127],[775,2227],[-2213,-254],[597,2969]],[[60588,14846],[-22,-191],[-266,64],[222,170],[66,-43]],[[60588,14846],[-1637,85],[1460,3330],[133,-955],[664,170],[-200,2757],[4316,-1251],[-2479,-4624],[-2257,488]],[[48174,23436],[2832,-1252],[-3076,1018],[-1062,-191],[1527,-487],[1527,-2842],[-3983,2778],[310,424],[1925,552]],[[81411,36627],[-332,213],[487,0],[-155,-213]],[[81411,36627],[3275,-1102],[-1261,-1443],[-5178,1337],[-819,1739],[-1616,-870],[-1526,1124],[4757,2354],[2213,-1209],[-2102,-784],[2257,-1146]],[[69307,54315],[265,-1654],[3585,1167],[1682,-2079],[-5798,212],[-1106,1040],[1372,1314]]]}