{"type":"Topology","objects":{"data":{"geometries":[{"properties":{"name":"\u677e\u6c5f\u5e02","pop":1},"type":"Polygon","arcs":[[0]],"id":"feature_0"},{"properties":{"name":"\u6d5c\u7530\u5e02","pop":1},"type":"Polygon","arcs":[[1]],"id":"feature_1"},{"properties":{"name":"\u51fa\u96f2\u5e02","pop":1},"type":"Polygon","arcs":[[2]],"id":"feature_2"},{"properties":{"name":"\u51fa\u96f2\u5e02","pop":1},"type":"Polygon","arcs":[[3]],"id":"feature_3"},{"properties":{"name":"\u76ca\u7530\u5e02","pop":1},"type":"Polygon","arcs":[[4]],"id":"feature_4"},{"properties":{"name":"\u76ca\u7530\u5e02","pop":1},"type":"Polygon","arcs":[[5]],"id":"feature_5"},{"properties":{"name":"\u5b89\u6765\u5e02","pop":1},"type":"Polygon","arcs":[[6]],"id":"feature_6"},{"properties":{"name":"\u5b89\u6765\u5e02","pop":1},"type":"Polygon","arcs":[[7]],"id":"feature_7"}],"type":"GeometryCollection"}},"bbox":[131.8261,34.6691,133.2684,35.4967],"transform":{"scale":[1.4423144231442488e-05,8.276082760827576e-06],"translate":[131.8261,34.6691]},"arcs":[[[86853,99757],[-298,-918],[624,-387],[-852,-966],[513,-133],[291,-471],[-1435,-363],[1885,-664],[1193,-1922],[-1213,713],[-583,-447],[333,-1111],[853,72],[-617,-157],[-21,-1414],[-277,1462],[-992,-531],[-610,652],[-62,-882],[-402,1051],[-618,-398],[423,3576],[-1587,326],[908,834],[-395,2139],[1345,-1885],[62,1728],[444,-894],[416,1075],[672,-85]],[[18949,29434],[-104,-725],[-340,-314],[423,-930],[-2059,-629],[-49,1426],[707,351],[236,-798],[1186,1619]],[[65658,83554],[42,97],[55,-97],[-41,-97],[-56,97]],[[65658,83554],[-658,-1003],[-125,834],[-458,-48],[402,-13],[-409,-314],[305,-1003],[-374,-580],[-568,1402],[-42,-858],[-236,387],[-249,1244],[561,689],[-658,1257],[984,290],[471,-1039],[42,1196],[1241,-471],[638,-1233],[-548,266],[305,-822],[-887,230],[263,-411]],[[2572,1232],[35,61],[312,-48],[-97,-194],[-250,181]],[[2572,1232],[-596,-1232],[-1470,544],[7,846],[-222,-713],[-291,12],[936,1861],[728,-1958],[582,1486],[326,-846]],[[98397,90961],[333,-955],[-55,-120],[-569,290],[291,785]],[[98397,90961],[14,2670],[479,-942],[-118,-399],[76,-60],[1137,338],[-243,-1196],[-1345,-411]]]}