{"type":"Topology","objects":{"data":{"geometries":[{"properties":{"name":"\u5b87\u90fd\u5bae\u5e02","pop":1},"type":"Polygon","arcs":[[0]],"id":"feature_00"},{"properties":{"name":"\u5b87\u90fd\u5bae\u5e02","pop":1},"type":"Polygon","arcs":[[1],[2]],"id":"feature_01"},{"properties":{"name":"\u5b87\u90fd\u5bae\u5e02","pop":2},"type":"Polygon","arcs":[[3]],"id":"feature_02"},{"properties":{"name":"\u8db3\u5229\u5e02","pop":1},"type":"Polygon","arcs":[[4],[5]],"id":"feature_03"},{"properties":{"name":"\u6803\u6728\u5e02","pop":1},"type":"Polygon","arcs":[[6]],"id":"feature_04"},{"properties":{"name":"\u6803\u6728\u5e02","pop":1},"type":"Polygon","arcs":[[7]],"id":"feature_05"},{"properties":{"name":"\u6803\u6728\u5e02","pop":1},"type":"Polygon","arcs":[[8]],"id":"feature_06"},{"properties":{"name":"\u6803\u6728\u5e02","pop":2},"type":"Polygon","arcs":[[9]],"id":"feature_07"},{"properties":{"name":"\u6803\u6728\u5e02","pop":2},"type":"Polygon","arcs":[[10]],"id":"feature_08"},{"properties":{"name":"\u4f50\u91ce\u5e02","pop":1},"type":"Polygon","arcs":[[11]],"id":"feature_09"},{"properties":{"name":"\u4f50\u91ce\u5e02","pop":2},"type":"Polygon","arcs":[[12]],"id":"feature_10"},{"properties":{"name":"\u9e7f\u6cbc\u5e02","pop":1},"type":"Polygon","arcs":[[13]],"id":"feature_11"},{"properties":{"name":"\u65e5\u5149\u5e02","pop":1},"type":"Polygon","arcs":[[14]],"id":"feature_12"},{"properties":{"name":"\u65e5\u5149\u5e02","pop":1},"type":"Polygon","arcs":[[15]],"id":"feature_13"},{"properties":{"name":"\u5c0f\u5c71\u5e02","pop":1},"type":"Polygon","arcs":[[16]],"id":"feature_14"},{"properties":{"name":"\u5c0f\u5c71\u5e02","pop":1},"type":"Polygon","arcs":[[17]],"id":"feature_15"},{"properties":{"name":"\u5c0f\u5c71\u5e02","pop":2},"type":"Polygon","arcs":[[18]],"id":"feature_16"},{"properties":{"name":"\u5c0f\u5c71\u5e02","pop":2},"type":"Polygon","arcs":[[19]],"id":"feature_17"},{"properties":{"name":"\u771f\u5ca1\u5e02","pop":1},"type":"Polygon","arcs":[[20]],"id":"feature_18"},{"properties":{"name":"\u5927\u7530\u539f\u5e02","pop":1},"type":"Polygon","arcs":[[21]],"id":"feature_19"},{"properties":{"name":"\u77e2\u677f\u5e02","pop":1},"type":"Polygon","arcs":[[22]],"id":"feature_20"},{"properties":{"name":"\u90a3\u9808\u5869\u539f\u5e02","pop":1},"type":"Polygon","arcs":[[23]],"id":"feature_21"},{"properties":{"name":"\u90a3\u9808\u5869\u539f\u5e02","pop":2},"type":"Polygon","arcs":[[24]],"id":"feature_22"},{"properties":{"name":"\u90a3\u9808\u5869\u539f\u5e02","pop":2},"type":"Polygon","arcs":[[25]],"id":"feature_23"},{"properties":{"name":"\u90a3\u9808\u5869\u539f\u5e02","pop":2},"type":"Polygon","arcs":[[26]],"id":"feature_24"},{"properties":{"name":"\u90a3\u9808\u5869\u539f\u5e02","pop":2},"type":"Polygon","arcs":[[27]],"id":"feature_25"},{"properties":{"name":"\u4e0b\u91ce\u5e02","pop":1},"type":"Polygon","arcs":[[28]],"id":"feature_26"},{"properties":{"name":"\u4e0b\u91ce\u5e02","pop":1},"type":"Polygon","arcs":[[29]],"id":"feature_27"},{"properties":{"name":"\u4e0b\u91ce\u5e02","pop":1},"type":"Polygon","arcs":[[30]],"id":"feature_28"},{"properties":{"name":"\u4e0b\u91ce\u5e02","pop":1},"type":"Polygon","arcs":[[31]],"id":"feature_29"},{"properties":{"name":"\u4e0b\u91ce\u5e02","pop":2},"type":"Polygon","arcs":[[32]],"id":"feature_30"},{"properties":{"name":"\u58ec\u751f\u753a","pop":1},"type":"Polygon","arcs":[[33]],"id":"feature_31"},{"properties":{"name":"\u58ec\u751f\u753a","pop":2},"type":"Polygon","arcs":[[34]],"id":"feature_32"},{"properties":{"name":"\u58ec\u751f\u753a","pop":2},"type":"Polygon","arcs":[[35]],"id":"feature_33"},{"properties":{"name":"\u58ec\u751f\u753a","pop":2},"type":"Polygon","arcs":[[36]],"id":"feature_34"},{"properties":{"name":"\u91ce\u6728\u753a","pop":1},"type":"Polygon","arcs":[[37]],"id":"feature_35"},{"properties":{"name":"\u9ad8\u6839\u6ca2\u753a","pop":1},"type":"Polygon","arcs":[[38]],"id":"feature_36"}],"type":"GeometryCollection"}},"bbox":[139.3786,36.2197,140.0684,36.9865],"transform":{"scale":[6.8980689806897175e-06,7.668076680766771e-06],"translate":[139.3786,36.2197]},"arcs":[[[68309,45722],[-261,-900],[261,-665],[-1261,1695],[1261,-130]],[[68309,45722],[-116,952],[-2059,-900],[-304,1278],[841,913],[551,-587],[275,1552],[1464,-691],[-261,1187],[-1145,-105],[-14,1174],[1565,-326],[-942,613],[1334,782],[1536,-3560],[2160,-404],[914,874],[-116,-1643],[2261,-613],[1479,2882],[4088,1004],[0,939],[-1885,-313],[-145,1226],[3581,-939],[-2667,-3691],[942,-1447],[-1073,-444],[0,-2817],[-1812,-1526],[769,-417],[-754,-926],[-856,-326],[-898,1656],[-2059,0],[-594,2530],[-1001,-769],[-1768,-10250],[-2117,873],[276,1305],[-1392,952],[783,1421],[-2204,574],[1146,1030],[623,-52],[116,-378],[348,39],[-1203,1030],[840,2087],[-927,782],[869,-130],[-72,2034],[565,-835],[189,587],[-1131,1813]],[[73194,46218],[406,691],[-1362,-470],[-44,1083],[-536,-248],[130,-1030],[1406,-26]],[[88155,45226],[1029,-352],[1450,-3442],[-2914,3547],[435,247]],[[362,19770],[4436,-1773],[537,-1722],[2363,1096],[-884,-1578],[1377,482],[43,-1082],[1247,952],[-160,-613],[522,-196],[3581,3782],[29,-3364],[1290,0],[-884,-1409],[1595,-1108],[1130,1252],[827,-1109],[-2465,-1108],[-3465,1891],[-1159,-1800],[1986,-900],[-319,-1408],[-1029,78],[-1204,1930],[-3450,639],[-420,626],[1507,378],[595,431],[-160,208],[-7814,3913],[348,1512]],[[12409,15115],[-391,-339],[1710,482],[-1072,756],[-247,-899]],[[48564,19340],[334,39],[14,-156],[-261,-13],[-87,130]],[[48999,21231],[-29,-117],[-203,234],[145,39],[87,-156]],[[48564,19340],[-971,-287],[-130,926],[1986,1004],[-189,1930],[1493,-495],[1465,1930],[-247,-1552],[1551,-470],[363,1970],[1130,-170],[-492,-2387],[-1552,-208],[1204,-2569],[-5161,117],[-174,1056],[-276,-795]],[[48477,13758],[595,-52],[-232,-769],[-522,104],[159,717]],[[48477,13758],[-2522,952],[217,1344],[2117,1317],[855,-1396],[-1783,-1017],[1537,561],[-421,-1761]],[[29414,14945],[551,-1174],[2783,496],[1479,-822],[-3726,-795],[-188,-1396],[1580,79],[-580,-509],[1377,-821],[-1826,730],[-711,-1291],[-2942,1447],[-116,1174],[-1639,130],[3306,1200],[58,796],[-1465,-79],[334,835],[1725,0]],[[30298,20148],[-1000,-2047],[-1638,365],[826,900],[-826,235],[2638,547]],[[56204,47613],[-174,-1969],[2943,-991],[-812,-1226],[-1797,169],[1290,-287],[-1348,-1082],[-450,1682],[740,-39],[-2450,391],[-435,-1017],[-1696,2165],[652,-196],[710,496],[-1449,-39],[507,1082],[2783,-808],[986,1669]],[[45534,66914],[653,313],[362,-209],[-493,-665],[-522,561]],[[45534,66914],[1218,-2217],[-3870,874],[1855,1017],[-333,821],[1130,-495]],[[61365,13993],[-87,-39],[-29,39],[87,26],[29,-26]],[[62249,15232],[3146,-1448],[-942,-769],[1986,-1004],[-1058,-196],[1145,-1421],[-986,-3313],[-1740,-287],[-652,913],[1334,1004],[87,1344],[-1276,-1800],[-4436,1695],[2349,2113],[-1900,-130],[44,1343],[1870,-404],[1029,2360]],[[55784,6273],[-44,-39],[-101,52],[29,39],[116,-52]],[[55784,6273],[435,1408],[1159,365],[725,-1108],[-1391,417],[594,-1004],[-1450,-2739],[-1710,978],[1638,1683]],[[88518,31338],[463,-196],[-753,-639],[2232,-339],[29,-835],[3015,744],[566,-1070],[-5625,-1891],[-783,1604],[87,1618],[769,1004]],[[93055,85862],[2522,-1421],[-1391,-1356],[565,-835],[-1218,1017],[551,222],[-145,326],[-2609,-1500],[-1566,991],[2726,796],[-986,1474],[1551,286]],[[80341,78442],[145,-1474],[1117,-339],[840,-3090],[-3696,3182],[0,1108],[1594,613]],[[93736,99999],[5118,-1122],[1058,-1643],[-3668,-534],[-2856,2047],[348,1252]],[[87343,88197],[1624,-470],[-594,-1173],[1174,-535],[-1899,-861],[319,1187],[-435,-404],[-508,-209],[102,1161],[-1856,182],[-739,665],[2812,457]],[[86459,88340],[-130,105],[115,78],[145,-91],[-130,-92]],[[85705,88184],[-275,195],[246,183],[276,-196],[-247,-182]],[[87343,88197],[-812,587],[-492,39],[565,404],[739,-1030]],[[66453,20892],[-87,-65],[-29,104],[116,-39]],[[69077,22313],[-130,26],[101,157],[131,-39],[-102,-144]],[[66453,20892],[3204,1969],[1044,-391],[-1044,-1565],[-1522,469],[290,-1682],[-942,-391],[-1233,352],[203,1239]],[[69657,22861],[-1218,-417],[1508,2060],[536,-39],[-826,-1604]],[[70454,29264],[319,-1865],[-2508,-274],[870,2217],[1319,-78]],[[65439,33007],[2145,-417],[131,-939],[-2987,-548],[-14,-1982],[-1290,704],[1609,2478],[-1015,600],[1421,104]],[[61539,27621],[145,13],[0,-78],[-131,-26],[-14,91]],[[61191,27908],[-87,78],[203,26],[15,-91],[-131,-13]],[[61191,27908],[1363,-1904],[-769,313],[-232,-1604],[-1188,2295],[826,900]],[[52870,2465],[1102,-952],[-2784,-1513],[-1594,1017],[3276,1448]],[[86850,54681],[2131,-1969],[-434,-639],[652,704],[696,-1030],[-2407,-509],[943,1044],[-2349,1121],[768,1278]]]}