{"type":"Topology","objects":{"data":{"geometries":[{"properties":{"name":"\u5c71\u5f62\u5e02","pop":1},"type":"Polygon","arcs":[[0]],"id":"feature_00"},{"properties":{"name":"\u5c71\u5f62\u5e02","pop":1},"type":"Polygon","arcs":[[1]],"id":"feature_01"},{"properties":{"name":"\u7c73\u6ca2\u5e02","pop":1},"type":"Polygon","arcs":[[2]],"id":"feature_02"},{"properties":{"name":"\u7c73\u6ca2\u5e02","pop":1},"type":"Polygon","arcs":[[3]],"id":"feature_03"},{"properties":{"name":"\u9db4\u5ca1\u5e02","pop":1},"type":"Polygon","arcs":[[4]],"id":"feature_04"},{"properties":{"name":"\u9152\u7530\u5e02","pop":1},"type":"Polygon","arcs":[[5]],"id":"feature_05"},{"properties":{"name":"\u9152\u7530\u5e02","pop":2},"type":"Polygon","arcs":[[6]],"id":"feature_06"},{"properties":{"name":"\u65b0\u5e84\u5e02","pop":1},"type":"Polygon","arcs":[[7]],"id":"feature_07"},{"properties":{"name":"\u5bd2\u6cb3\u6c5f\u5e02","pop":1},"type":"Polygon","arcs":[[8]],"id":"feature_08"},{"properties":{"name":"\u4e0a\u5c71\u5e02","pop":1},"type":"Polygon","arcs":[[9]],"id":"feature_09"},{"properties":{"name":"\u4e0a\u5c71\u5e02","pop":1},"type":"Polygon","arcs":[[10]],"id":"feature_10"},{"properties":{"name":"\u4e0a\u5c71\u5e02","pop":1},"type":"Polygon","arcs":[[11]],"id":"feature_11"},{"properties":{"name":"\u6751\u5c71\u5e02","pop":1},"type":"Polygon","arcs":[[12]],"id":"feature_12"},{"properties":{"name":"\u9577\u4e95\u5e02","pop":1},"type":"Polygon","arcs":[[13]],"id":"feature_13"},{"properties":{"name":"\u5929\u7ae5\u5e02","pop":1},"type":"Polygon","arcs":[[14]],"id":"feature_14"},{"properties":{"name":"\u6771\u6839\u5e02","pop":1},"type":"Polygon","arcs":[[15]],"id":"feature_15"},{"properties":{"name":"\u6771\u6839\u5e02","pop":2},"type":"Polygon","arcs":[[16]],"id":"feature_16"},{"properties":{"name":"\u5357\u967d\u5e02","pop":1},"type":"Polygon","arcs":[[17]],"id":"feature_17"},{"properties":{"name":"\u5c71\u8fba\u753a","pop":1},"type":"Polygon","arcs":[[18]],"id":"feature_18"},{"properties":{"name":"\u6cb3\u5317\u753a","pop":1},"type":"Polygon","arcs":[[19]],"id":"feature_19"}],"type":"GeometryCollection"}},"bbox":[139.7951,37.8853,140.4141,38.9416],"transform":{"scale":[6.190061900619004e-06,1.0563105631056313e-05],"translate":[139.7951,37.8853]},"arcs":[[[90015,33267],[210,-67],[-274,-75],[-49,38],[113,104]],[[90015,33267],[-1228,-1922],[-2487,-47],[-227,-549],[-920,-48],[-792,-691],[-420,66],[969,531],[-1211,-275],[-388,1240],[1470,691],[-2068,-123],[1083,625],[-1470,-331],[-663,729],[2052,3464],[-2213,682],[1082,587],[2229,-719],[1018,719],[1567,-199],[323,1174],[1600,-2158],[1857,965],[1115,-1751],[-1987,-1269],[3522,-757],[-1567,-417],[1890,266],[-1099,-483],[-3037,0]],[[54798,786],[468,-57],[258,-691],[-904,842],[178,-94]],[[51793,4573],[678,-1714],[1357,729],[1276,-1638],[-48,-975],[-921,691],[-581,-473],[1082,-985],[-2439,190],[-324,1136],[-2455,-777],[-1939,1629],[-2019,38],[1632,321],[-647,616],[2731,104],[210,966],[1340,-228],[-904,-378],[-275,-483],[129,-29],[2117,1260]],[[8804,82608],[-1340,-2262],[953,-1439],[1276,-104],[-1777,-360],[-1034,558],[-969,-1391],[-760,890],[-3602,-209],[985,900],[-2536,1363],[4750,426],[1357,1060],[1437,-483],[-581,786],[1841,265]],[[7173,99526],[4523,-654],[-452,-1420],[-65,105],[-856,-29],[1826,-918],[-1325,-10],[-1260,-1666],[-1713,-66],[-5589,3569],[1825,-407],[1503,-1070],[500,10],[146,359],[-2860,1061],[614,539],[-2358,38],[3053,634],[985,-984],[1034,1373],[469,-464]],[[3748,96695],[824,-435],[-1632,-568],[372,757],[-113,19],[-1341,-1117],[743,1240],[1147,104]],[[82164,84719],[1066,-2196],[953,66],[-1421,-568],[387,-634],[-2277,180],[-114,1202],[-1647,76],[3053,1874]],[[75654,47410],[1502,-672],[1002,1439],[662,-1742],[2504,-350],[-3296,-795],[33,-559],[1874,171],[-1050,-1042],[-1503,455],[388,1316],[-2763,142],[1212,984],[-3069,379],[549,1401],[1955,-1127]],[[78432,26545],[-129,-123],[-145,57],[161,104],[113,-38]],[[80597,26943],[178,95],[355,-124],[-242,-123],[-291,152]],[[80597,26943],[-2326,-1127],[1276,-378],[-194,-1364],[-856,-198],[161,1003],[-904,-852],[-2020,1202],[1099,682],[-792,132],[4556,900]],[[96574,57502],[-226,-786],[1955,-833],[-1793,-113],[32,-597],[-727,1344],[-2811,-66],[3570,1051]],[[39046,22124],[1648,-947],[-307,-1230],[-2197,-85],[-177,946],[-1874,284],[2907,1032]],[[94587,47316],[2036,-2225],[-3393,-653],[1179,-720],[-2697,-2158],[-1309,161],[695,473],[-307,47],[-323,-322],[-437,-151],[-64,615],[2213,549],[-695,2755],[1971,530],[194,1326],[937,-227]],[[94878,51093],[1373,-606],[-1212,-824],[905,-653],[4055,-85],[-5945,-19],[824,2187]],[[95217,53554],[3360,-492],[437,-691],[-2424,161],[582,-1023],[-2149,124],[1470,937],[-1276,984]],[[57722,15734],[1615,180],[1422,-265],[-857,-748],[-3392,142],[-97,719],[1309,-28]],[[76041,39657],[-484,-578],[3053,29],[-1923,-928],[-2261,161],[1615,1316]],[[85185,51926],[-759,-227],[-178,-1827],[-307,918],[-2003,218],[3247,918]]]}