{"type":"Topology","objects":{"data":{"geometries":[{"properties":{"name":"\u9752\u68ee\u5e02","pop":1},"type":"Polygon","arcs":[[0]],"id":"feature_00"},{"properties":{"name":"\u9752\u68ee\u5e02","pop":2},"type":"Polygon","arcs":[[1]],"id":"feature_01"},{"properties":{"name":"\u9752\u68ee\u5e02","pop":3},"type":"Polygon","arcs":[[2]],"id":"feature_02"},{"properties":{"name":"\u9752\u68ee\u5e02","pop":4},"type":"Polygon","arcs":[[3]],"id":"feature_03"},{"properties":{"name":"\u5f18\u524d\u5e02","pop":1},"type":"Polygon","arcs":[[4]],"id":"feature_04"},{"properties":{"name":"\u516b\u6238\u5e02","pop":1},"type":"Polygon","arcs":[[5]],"id":"feature_05"},{"properties":{"name":"\u516b\u6238\u5e02","pop":1},"type":"Polygon","arcs":[[6]],"id":"feature_06"},{"properties":{"name":"\u9ed2\u77f3\u5e02","pop":1},"type":"Polygon","arcs":[[7]],"id":"feature_07"},{"properties":{"name":"\u4e94\u6240\u5ddd\u539f\u5e02","pop":1},"type":"Polygon","arcs":[[8]],"id":"feature_08"},{"properties":{"name":"\u5341\u548c\u7530\u5e02","pop":1},"type":"Polygon","arcs":[[9]],"id":"feature_09"},{"properties":{"name":"\u5341\u548c\u7530\u5e02","pop":1},"type":"Polygon","arcs":[[10]],"id":"feature_10"},{"properties":{"name":"\u5341\u548c\u7530\u5e02","pop":1},"type":"Polygon","arcs":[[11]],"id":"feature_11"},{"properties":{"name":"\u5341\u548c\u7530\u5e02","pop":1},"type":"Polygon","arcs":[[12]],"id":"feature_12"},{"properties":{"name":"\u4e09\u6ca2\u5e02","pop":1},"type":"Polygon","arcs":[[13]],"id":"feature_13"},{"properties":{"name":"\u4e09\u6ca2\u5e02","pop":1},"type":"Polygon","arcs":[[14]],"id":"feature_14"},{"properties":{"name":"\u3080\u3064\u5e02","pop":1},"type":"Polygon","arcs":[[15]],"id":"feature_15"},{"properties":{"name":"\u3080\u3064\u5e02","pop":1},"type":"Polygon","arcs":[[16]],"id":"feature_16"},{"properties":{"name":"\u5e73\u5ddd\u5e02","pop":1},"type":"Polygon","arcs":[[17]],"id":"feature_17"},{"properties":{"name":"\u91ce\u8fba\u5730\u753a","pop":1},"type":"Polygon","arcs":[[18]],"id":"feature_18"},{"properties":{"name":"\u91ce\u8fba\u5730\u753a","pop":1},"type":"Polygon","arcs":[[19]],"id":"feature_19"}],"type":"GeometryCollection"}},"bbox":[140.4313,40.4834,141.5705,41.3077],"transform":{"scale":[1.1392113921139378e-05,8.243082430824247e-06],"translate":[140.4313,40.4834]},"arcs":[[[34085,45068],[413,-61],[-115,-800],[-2422,-3737],[605,-424],[-1518,-607],[-659,-776],[395,-449],[-1685,-425],[281,-667],[-702,-655],[-711,291],[649,1031],[-1079,1201],[-448,-837],[-992,49],[70,703],[-755,-691],[-465,1140],[-772,-1152],[316,473],[-922,437],[571,1164],[-1370,24],[-412,1092],[-501,-910],[-1062,389],[544,1237],[1256,340],[237,-886],[711,-61],[-185,935],[1098,-656],[-510,1226],[790,618],[1738,-1552],[88,279],[667,327],[-570,-655],[1896,73],[272,752],[9,-898],[325,680],[1597,-389],[2950,1747],[377,1080]],[[22551,46390],[1632,-1710],[-96,-497],[-2124,376],[588,1831]],[[33462,38942],[-413,-1565],[-992,995],[220,545],[386,-667],[799,692]],[[30644,37268],[843,-1347],[-553,-85],[324,-461],[-1009,801],[395,1092]],[[2344,17979],[1018,-1468],[2124,1310],[606,-691],[-430,-1529],[1870,-1031],[-624,-667],[-377,994],[-158,-1104],[-413,789],[360,-861],[-553,-195],[843,-715],[-808,521],[-79,-1079],[562,-668],[-983,328],[588,-849],[-1887,-1735],[-316,1795],[-1001,267],[413,1007],[-1282,-1844],[-1273,922],[1852,668],[-597,448],[448,813],[-974,-133],[465,534],[-518,885],[1405,1517],[-1001,-777],[-474,37],[649,218],[545,2293]],[[95434,1990],[-280,-425],[-150,170],[404,352],[26,-97]],[[91353,11137],[1483,-486],[1291,-1431],[2150,-73],[-632,-425],[-1527,486],[-1019,837],[-737,-595],[1457,-546],[150,-1237],[1123,716],[-1018,-1274],[992,133],[807,-1322],[-237,1019],[729,655],[369,-1176],[-790,-813],[2457,-12],[940,1176],[570,-1395],[-1018,-145],[26,-837],[1019,-692],[-1537,-109],[527,-134],[-1159,-885],[878,-898],[-500,-449],[-1405,1869],[-1202,497],[1922,-1686],[-957,-1553],[-1264,546],[782,1067],[-966,510],[-509,-983],[-562,752],[9,-946],[693,-121],[-913,-1177],[-1071,1541],[-588,-837],[439,-571],[-518,170],[-272,1820],[-2159,-36],[202,715],[772,-351],[3187,4355],[-773,182],[-1053,-2245],[-659,-12],[571,-327],[-1290,157],[1018,1553],[-325,971],[1791,60],[-825,631],[184,728],[-1203,-1383],[-500,728],[-957,-485],[-886,1698],[439,716],[728,-667],[-167,655],[1493,1371]],[[14440,22674],[597,-1869],[597,449],[166,-1710],[-640,-194],[272,-656],[-1730,-412],[-412,849],[474,376],[-799,206],[1492,1286],[-17,1675]],[[1220,41441],[141,-1056],[693,449],[-176,-1152],[1440,-37],[-992,-1140],[-957,255],[413,-1177],[-1229,194],[421,1238],[-974,740],[1220,1686]],[[70127,14897],[-43,134],[263,12],[-193,-121],[-27,-25]],[[70329,15334],[106,73],[70,-121],[-114,-73],[-62,121]],[[70329,15334],[-316,-352],[-289,279],[245,146],[360,-73]],[[70127,14897],[-1360,-1371],[-228,158],[254,170],[-535,1043],[246,-1152],[-2046,2281],[4477,1431],[-650,-461],[334,97],[334,-740],[-1133,206],[-641,-1031],[948,-631]],[[83215,23256],[448,36],[9,-339],[-509,-110],[52,413]],[[83215,23256],[-544,-1104],[-465,861],[-290,-655],[-333,619],[-255,145],[-70,-36],[-272,-1140],[70,1832],[-781,254],[1150,219],[-623,1298],[-712,-122],[404,1056],[-1123,679],[1115,1456],[-3161,-1116],[-184,776],[1018,971],[2221,-473],[1905,1492],[290,-1747],[1474,-461],[-26,-1238],[764,-351],[-2370,-1565],[2054,376],[-843,-583],[527,-873],[-667,473],[-273,-1043]],[[68925,97221],[175,97],[44,-182],[-87,-61],[-132,146]],[[68925,97221],[-1299,-1237],[-1089,1674],[1185,715],[-518,304],[-35,715],[1317,-594],[-413,728],[931,473],[509,-2062],[-377,267],[-62,-413],[-614,-48],[-404,-704],[869,182]],[[11350,13466],[1352,-1589],[-44,-255],[-623,546],[-158,-1165],[-246,0],[-237,1456],[-1168,704],[1124,303]],[[62245,47118],[184,158],[35,-36],[-167,-194],[-52,72]],[[62245,47118],[-404,-412],[860,-61],[-1905,-1504],[-491,2074],[1940,-97]]]}