{"type":"Topology","objects":{"data":{"geometries":[{"properties":{"name":"\u677e\u5c71\u5e02","pop":1},"type":"Polygon","arcs":[[0]],"id":"feature_00"},{"properties":{"name":"\u677e\u5c71\u5e02","pop":1},"type":"Polygon","arcs":[[1],[2],[3],[4]],"id":"feature_01"},{"properties":{"name":"\u677e\u5c71\u5e02","pop":2},"type":"Polygon","arcs":[[5]],"id":"feature_02"},{"properties":{"name":"\u677e\u5c71\u5e02","pop":3},"type":"Polygon","arcs":[[6]],"id":"feature_03"},{"properties":{"name":"\u677e\u5c71\u5e02","pop":4},"type":"Polygon","arcs":[[7]],"id":"feature_04"},{"properties":{"name":"\u677e\u5c71\u5e02","pop":4},"type":"Polygon","arcs":[[-40,8]],"id":"feature_05"},{"properties":{"name":"\u4eca\u6cbb\u5e02","pop":1},"type":"Polygon","arcs":[[9]],"id":"feature_06"},{"properties":{"name":"\u4eca\u6cbb\u5e02","pop":1},"type":"Polygon","arcs":[[10]],"id":"feature_07"},{"properties":{"name":"\u4eca\u6cbb\u5e02","pop":1},"type":"Polygon","arcs":[[11]],"id":"feature_08"},{"properties":{"name":"\u4eca\u6cbb\u5e02","pop":1},"type":"Polygon","arcs":[[12]],"id":"feature_09"},{"properties":{"name":"\u5b87\u548c\u5cf6\u5e02","pop":1},"type":"Polygon","arcs":[[13]],"id":"feature_10"},{"properties":{"name":"\u5b87\u548c\u5cf6\u5e02","pop":1},"type":"Polygon","arcs":[[14]],"id":"feature_11"},{"properties":{"name":"\u516b\u5e61\u6d5c\u5e02","pop":1},"type":"Polygon","arcs":[[15]],"id":"feature_12"},{"properties":{"name":"\u65b0\u5c45\u6d5c\u5e02","pop":1},"type":"Polygon","arcs":[[16]],"id":"feature_13"},{"properties":{"name":"\u65b0\u5c45\u6d5c\u5e02","pop":1},"type":"Polygon","arcs":[[17,-23]],"id":"feature_14"},{"properties":{"name":"\u65b0\u5c45\u6d5c\u5e02","pop":1},"type":"Polygon","arcs":[[18]],"id":"feature_15"},{"properties":{"name":"\u65b0\u5c45\u6d5c\u5e02","pop":1},"type":"Polygon","arcs":[[19]],"id":"feature_16"},{"properties":{"name":"\u65b0\u5c45\u6d5c\u5e02","pop":1},"type":"Polygon","arcs":[[20]],"id":"feature_17"},{"properties":{"name":"\u65b0\u5c45\u6d5c\u5e02","pop":1},"type":"Polygon","arcs":[[21]],"id":"feature_18"},{"properties":{"name":"\u65b0\u5c45\u6d5c\u5e02","pop":1},"type":"Polygon","arcs":[[22,23]],"id":"feature_19"},{"properties":{"name":"\u65b0\u5c45\u6d5c\u5e02","pop":1},"type":"Polygon","arcs":[[24]],"id":"feature_20"},{"properties":{"name":"\u897f\u6761\u5e02","pop":1},"type":"Polygon","arcs":[[25]],"id":"feature_21"},{"properties":{"name":"\u897f\u6761\u5e02","pop":2},"type":"Polygon","arcs":[[26]],"id":"feature_22"},{"properties":{"name":"\u5927\u6d32\u5e02","pop":1},"type":"Polygon","arcs":[[27]],"id":"feature_23"},{"properties":{"name":"\u4f0a\u4e88\u5e02","pop":1},"type":"Polygon","arcs":[[28,-37]],"id":"feature_24"},{"properties":{"name":"\u56db\u56fd\u4e2d\u592e\u5e02","pop":1},"type":"Polygon","arcs":[[29,31]],"id":"feature_25"},{"properties":{"name":"\u56db\u56fd\u4e2d\u592e\u5e02","pop":1},"type":"Polygon","arcs":[[30,31]],"id":"feature_26"},{"properties":{"name":"\u56db\u56fd\u4e2d\u592e\u5e02","pop":2},"type":"Polygon","arcs":[[32]],"id":"feature_27"},{"properties":{"name":"\u56db\u56fd\u4e2d\u592e\u5e02","pop":2},"type":"Polygon","arcs":[[33]],"id":"feature_28"},{"properties":{"name":"\u56db\u56fd\u4e2d\u592e\u5e02","pop":2},"type":"Polygon","arcs":[[34]],"id":"feature_29"},{"properties":{"name":"\u6771\u6e29\u5e02","pop":1},"type":"Polygon","arcs":[[35]],"id":"feature_30"},{"properties":{"name":"\u677e\u524d\u753a","pop":1},"type":"Polygon","arcs":[[36,37]],"id":"feature_31"},{"properties":{"name":"\u7825\u90e8\u753a","pop":1},"type":"Polygon","arcs":[[38,39]],"id":"feature_32"}],"type":"GeometryCollection"}},"bbox":[132.4143,33.1992,133.5935,34.09],"transform":{"scale":[1.17921179211793e-05,8.908089080890867e-06],"translate":[132.4143,33.1992]},"arcs":[[[33879,67972],[474,741],[2341,-135],[-1153,-1560],[-458,1392],[-840,-34],[153,-1010],[-517,606]],[[33879,67972],[-552,-326],[-687,999],[-1136,-1549],[-3095,1235],[17,966],[-1959,-1056],[-611,1157],[1018,11],[195,651],[-1722,101],[-407,-797],[908,-988],[-3028,23],[136,785],[424,-741],[509,191],[-738,2638],[1001,-280],[42,3457],[526,-1111],[568,707],[-509,909],[1060,-269],[-1730,1482],[170,830],[890,-1695],[645,404],[-288,595],[1551,-1560],[-161,-1594],[772,370],[-365,2257],[1255,875],[1154,-808],[-238,-1717],[535,-685],[814,741],[-289,146],[-144,381],[1900,-1942],[1407,955],[-932,-2942],[441,-1504],[1136,-370],[-1128,-449],[645,-483]],[[31792,68645],[501,977],[-933,326],[399,-292],[33,-1011]],[[24983,70834],[1289,360],[-424,1639],[-891,-393],[26,-1606]],[[27968,72709],[-1187,-370],[-162,-494],[526,-348],[823,1212]],[[28926,79669],[-76,-1841],[-407,393],[-721,-1212],[-704,404],[577,1223],[-1009,-1212],[-340,505],[119,1190],[619,-584],[-203,640],[2145,494]],[[30291,88010],[1060,-1179],[-771,-1425],[-306,101],[17,2503]],[[32623,66434],[0,45],[306,22],[0,-67],[-306,0]],[[31869,65929],[-763,494],[1255,561],[0,-1100]],[[51670,93960],[848,-135],[-339,-1022],[-653,461],[144,696]],[[50033,94813],[68,-56],[-59,-101],[-76,78],[67,79]],[[47786,95408],[-59,-90],[-144,157],[67,67],[136,-134]],[[51670,93960],[-348,1392],[-3256,-753],[-331,1752],[916,1863],[-610,1729],[1127,-34],[1077,-2615],[-76,965],[1425,-1336],[-356,-426],[1467,-2481],[-1035,-56]],[[13611,1358],[-34,-89],[-51,11],[0,112],[85,-34]],[[13611,1358],[-1077,225],[-1315,-1493],[-178,1336],[797,314],[-576,898],[568,-606],[441,415],[-653,1044],[1289,-90],[356,1561],[153,-820],[1348,539],[-1730,-1830],[653,158],[331,-214],[-662,-168],[798,-539],[-543,-730]],[[1052,30208],[17,-1189],[1865,830],[-1425,-1246],[738,-1145],[-805,573],[-772,-730],[704,1392],[-1374,449],[1052,1066]],[[73651,81106],[34,-224],[-93,-12],[8,214],[51,22]],[[76246,81521],[8,0]],[[75517,85394],[305,371],[203,-79],[-356,-382],[-152,90]],[[75576,86079],[8,202],[162,23],[33,-214],[-203,-11]],[[77535,86809],[195,179],[169,-303],[-195,-90],[-169,214]],[[76136,87280],[17,-123],[-153,-45],[-34,112],[170,56]],[[76246,81521],[8,0]],[[76254,81521],[-330,-550],[-1985,-235],[-500,696],[-263,-820],[-577,1302],[1001,865],[161,1594],[-4096,-315],[-34,910],[1688,90],[-577,2076],[594,595],[568,-11],[-178,-1493],[161,-696],[195,-67],[-42,1055],[568,-292],[322,123],[263,315],[-560,-258],[-59,707],[1111,-270],[-1510,865],[390,359],[1018,382],[483,-1145],[-50,325],[212,-11],[-60,168],[153,416],[34,22],[1136,-404],[-271,-1762],[602,-270],[-908,-1425],[416,-360],[-288,472],[322,292],[1789,-1830],[-755,-247],[-152,-1168]],[[77535,86809],[-1535,-1055],[755,1841],[-1298,56],[1323,909],[755,-1751]],[[63933,82947],[237,-1145],[288,101],[153,-460],[187,-180],[-340,1359],[1120,-113],[-17,-314],[-212,146],[-543,-314],[17,-135],[1509,-1134],[-186,-1471],[-2671,764],[-34,819],[1085,550],[-814,393],[221,1134]],[[56792,83071],[382,134],[-195,-336],[780,-158],[17,-426],[-1544,-180],[560,966]],[[11669,36428],[814,-719],[-1136,-191],[59,-1987],[-93,932],[-1026,-135],[407,842],[-450,539],[1425,719]],[[24779,64223],[1009,370],[102,-651],[-899,-438],[501,-370],[-1476,-1875],[-288,1572],[373,-449],[466,2290]],[[97989,89312],[-8,0]],[[97989,89312],[585,-112],[-229,-685],[1654,269],[-729,854],[407,1448],[-1298,718],[331,595],[-560,-561],[-186,999],[-543,-1908],[-1043,0],[560,-876],[983,281],[60,-1022]],[[97981,89312],[8,0]],[[97421,89278],[229,214],[68,-101],[-204,-247],[-93,134]],[[97650,89492],[-93,123],[76,68],[110,-113],[-93,-78]],[[97421,89278],[-560,-864],[814,-337],[-110,-842],[-331,584],[-865,-707],[314,382],[-280,190],[-220,-999],[-721,674],[-8,-629],[-272,-34],[-1162,910],[1340,460],[-135,921],[915,-405],[374,775],[-959,909],[416,505],[1450,-1493]],[[39526,68174],[1459,-662],[-1221,112],[17,-1078],[-1840,214],[1272,202],[-246,965],[559,247]],[[24779,64223],[-212,449]],[[24567,64672],[-144,1403],[-1196,617],[1900,539],[-348,-3008]],[[32361,65884],[84,-1415],[-517,-651],[-59,2111]],[[31869,65929],[492,-45]]]}