{"type":"Topology","objects":{"data":{"geometries":[{"properties":{"name":"\u91d1\u6ca2\u5e02","pop":1},"type":"Polygon","arcs":[[0]],"id":"feature_00"},{"properties":{"name":"\u91d1\u6ca2\u5e02","pop":1},"type":"Polygon","arcs":[[1]],"id":"feature_01"},{"properties":{"name":"\u91d1\u6ca2\u5e02","pop":1},"type":"Polygon","arcs":[[-27,2,-25,3]],"id":"feature_02"},{"properties":{"name":"\u91d1\u6ca2\u5e02","pop":2},"type":"Polygon","arcs":[[4,-29]],"id":"feature_03"},{"properties":{"name":"\u91d1\u6ca2\u5e02","pop":3},"type":"Polygon","arcs":[[5]],"id":"feature_04"},{"properties":{"name":"\u4e03\u5c3e\u5e02","pop":1},"type":"Polygon","arcs":[[6]],"id":"feature_05"},{"properties":{"name":"\u5c0f\u677e\u5e02","pop":1},"type":"Polygon","arcs":[[7]],"id":"feature_06"},{"properties":{"name":"\u5c0f\u677e\u5e02","pop":2},"type":"Polygon","arcs":[[8]],"id":"feature_07"},{"properties":{"name":"\u5c0f\u677e\u5e02","pop":2},"type":"Polygon","arcs":[[9]],"id":"feature_08"},{"properties":{"name":"\u5c0f\u677e\u5e02","pop":2},"type":"Polygon","arcs":[[10]],"id":"feature_09"},{"properties":{"name":"\u8f2a\u5cf6\u5e02","pop":1},"type":"Polygon","arcs":[[11]],"id":"feature_10"},{"properties":{"name":"\u52a0\u8cc0\u5e02","pop":1},"type":"Polygon","arcs":[[12]],"id":"feature_11"},{"properties":{"name":"\u52a0\u8cc0\u5e02","pop":1},"type":"Polygon","arcs":[[13]],"id":"feature_12"},{"properties":{"name":"\u52a0\u8cc0\u5e02","pop":2},"type":"Polygon","arcs":[[14]],"id":"feature_13"},{"properties":{"name":"\u7fbd\u548b\u5e02","pop":1},"type":"Polygon","arcs":[[15]],"id":"feature_14"},{"properties":{"name":"\u7fbd\u548b\u5e02","pop":1},"type":"Polygon","arcs":[[16]],"id":"feature_15"},{"properties":{"name":"\u7fbd\u548b\u5e02","pop":1},"type":"Polygon","arcs":[[17]],"id":"feature_16"},{"properties":{"name":"\u767d\u5c71\u5e02","pop":1},"type":"Polygon","arcs":[[18]],"id":"feature_17"},{"properties":{"name":"\u767d\u5c71\u5e02","pop":2},"type":"Polygon","arcs":[[19]],"id":"feature_18"},{"properties":{"name":"\u767d\u5c71\u5e02","pop":3},"type":"Polygon","arcs":[[20]],"id":"feature_19"},{"properties":{"name":"\u80fd\u7f8e\u5e02","pop":1},"type":"Polygon","arcs":[[21]],"id":"feature_20"},{"properties":{"name":"\u80fd\u7f8e\u5e02","pop":1},"type":"Polygon","arcs":[[22]],"id":"feature_21"},{"properties":{"name":"\u91ce\u3005\u5e02\u5e02","pop":1},"type":"Polygon","arcs":[[23,24,25,26]],"id":"feature_22"},{"properties":{"name":"\u6d25\u5e61\u753a","pop":1},"type":"Polygon","arcs":[[27]],"id":"feature_23"},{"properties":{"name":"\u5185\u7058\u753a","pop":1},"type":"Polygon","arcs":[[28,29]],"id":"feature_24"}],"type":"GeometryCollection"}},"bbox":[136.2998,36.274,136.9906,37.4071],"transform":{"scale":[6.908069080690765e-06,1.13311133111331e-05],"translate":[136.2998,36.274]},"arcs":[[[42472,26123],[15,44],[115,-18],[-29,-35],[-101,9]],[[48176,27764],[-189,-17],[-188,247],[348,-106],[29,-124]],[[46279,23952],[-1288,-389]],[[43876,23996],[-318,794],[-941,-679],[-1158,344],[984,821],[-1216,564],[420,-503],[-1100,-114],[593,1050],[1289,-530],[3097,768],[1101,71],[-15,-292],[275,265],[1173,-406],[58,115],[-970,927],[130,-495],[-1969,-114],[1477,573],[-463,371],[-1303,-750],[-1549,1791],[-2070,397],[1491,795],[1665,141],[-768,-291],[1419,-945],[-1303,-388],[1665,344],[1694,-529],[-391,-583],[2012,239],[-811,1500],[2012,644],[1419,-2497],[1766,1376],[521,-617],[-101,962],[579,-203],[1390,935],[-710,-150],[-101,291],[796,239],[579,-486],[1288,1192],[-173,-495],[1056,115],[-361,-944],[-2374,-186],[955,-750],[-1346,-35],[-478,-927],[3358,-679],[-4096,194],[-666,-1059],[1491,-741],[1114,476],[-57,-724],[1693,-406],[-1187,-185],[1245,-423],[275,-786],[-1230,406],[1071,-1041],[-1520,988],[-203,-1050],[-2996,1324],[1288,-671],[-101,-521],[-434,521],[0,-485],[-2230,176],[-492,-1041],[-1187,159],[-3083,-1501],[-420,-1050],[-1057,353]],[[48204,31038],[-1534,-741],[304,1412]],[[56658,22893],[-289,-918],[1824,-1192],[-2808,1007],[1273,1103]],[[94947,69137],[2461,-927],[506,556],[2085,-361],[-1882,-371],[594,-371],[-1593,-768],[-651,715],[-1650,0],[130,1527]],[[22336,12523],[1202,-777],[-1303,-1235],[1925,-530],[-1925,115],[-666,-609],[-29,839],[-955,-1183],[-2172,-71],[2389,1254],[-1028,1473],[2562,724]],[[17588,8516],[999,-1103],[796,203],[-912,-1835],[-1505,1173],[622,1562]],[[17588,8516],[-231,-35],[-145,124],[970,220],[-594,-309]],[[18182,8825],[-87,106],[434,27],[-159,-62],[-188,-71]],[[86696,99990],[-58,-44],[-73,9],[-14,-35],[565,-62],[43,-80],[289,-70],[145,-133],[-579,177],[-260,-291],[2128,-486],[246,-582],[-1086,406],[14,-706],[-1881,62],[-608,961],[781,-61],[-173,812],[521,123]],[[3300,3027],[0,97],[290,-35],[-58,-88],[-232,26]],[[3300,3027],[-825,-1288],[-2475,935],[970,274],[-550,459],[3764,414],[-884,-794]],[[8743,1933],[1593,-106],[-1433,-494],[-449,-1333],[-869,1244],[1158,689]],[[70150,54725],[203,-8],[0,-203],[-102,-9],[-101,220]],[[70150,54725],[-15,-335],[-434,-79],[333,573],[116,-159]],[[70034,54884],[-1158,-626],[-1433,335],[2041,1492],[550,-1201]],[[39939,23555],[854,-283],[-1202,-715],[1376,-882],[-3171,-839],[-1360,1218],[362,574],[752,-494],[623,335],[-2143,300],[3909,786]],[[35234,22443],[1042,-539],[-1418,-617],[-811,1270],[1187,-114]],[[27779,19371],[565,-529],[-2447,-512],[-362,-1059],[-1606,185],[3850,1915]],[[24667,16389],[231,158],[174,53],[-333,-238],[-72,27]],[[24667,16389],[-2316,-1916],[-1086,36],[1491,1959],[1028,-459],[202,565],[1101,441],[318,-88],[-738,-538]],[[45367,19945],[-1201,115],[-145,891],[1361,971],[-1173,-432],[-753,317],[666,1006],[-1201,-114],[593,723],[-1216,-220],[1578,794]],[[43876,23996],[1115,-433]],[[44991,23563],[-29,-467],[1317,856]],[[46279,23952],[362,-1024],[1274,-229],[-2244,-698],[-304,-2056]],[[64649,36016],[362,-777],[-1259,-106],[868,-450],[-1433,89],[-2244,-1933],[-1809,9],[231,953],[898,-71],[-246,238],[1303,-53],[57,71],[362,-35],[44,79],[304,-17],[159,88],[-680,494],[868,627],[-1187,503],[2548,-495],[854,786]],[[48204,31038],[-1230,671]],[[46974,31709],[3199,2427],[970,-194],[-2939,-2904]]]}