{"type":"Topology","objects":{"data":{"geometries":[{"properties":{"name":"\u76db\u5ca1\u5e02","pop":1},"type":"Polygon","arcs":[[0]],"id":"feature_00"},{"properties":{"name":"\u76db\u5ca1\u5e02","pop":1},"type":"Polygon","arcs":[[-20,1,-18,2]],"id":"feature_01"},{"properties":{"name":"\u5bae\u53e4\u5e02","pop":1},"type":"Polygon","arcs":[[3]],"id":"feature_02"},{"properties":{"name":"\u5bae\u53e4\u5e02","pop":1},"type":"Polygon","arcs":[[4]],"id":"feature_03"},{"properties":{"name":"\u5bae\u53e4\u5e02","pop":1},"type":"Polygon","arcs":[[5]],"id":"feature_04"},{"properties":{"name":"\u5927\u8239\u6e21\u5e02","pop":1},"type":"Polygon","arcs":[[6]],"id":"feature_05"},{"properties":{"name":"\u82b1\u5dfb\u5e02","pop":1},"type":"Polygon","arcs":[[7]],"id":"feature_06"},{"properties":{"name":"\u82b1\u5dfb\u5e02","pop":1},"type":"Polygon","arcs":[[8]],"id":"feature_07"},{"properties":{"name":"\u5317\u4e0a\u5e02","pop":1},"type":"Polygon","arcs":[[9]],"id":"feature_08"},{"properties":{"name":"\u5317\u4e0a\u5e02","pop":1},"type":"Polygon","arcs":[[10]],"id":"feature_09"},{"properties":{"name":"\u4e45\u6148\u5e02","pop":1},"type":"Polygon","arcs":[[11]],"id":"feature_10"},{"properties":{"name":"\u4e00\u95a2\u5e02","pop":1},"type":"Polygon","arcs":[[12]],"id":"feature_11"},{"properties":{"name":"\u4e00\u95a2\u5e02","pop":1},"type":"Polygon","arcs":[[13]],"id":"feature_12"},{"properties":{"name":"\u4e00\u95a2\u5e02","pop":1},"type":"Polygon","arcs":[[14]],"id":"feature_13"},{"properties":{"name":"\u91dc\u77f3\u5e02","pop":1},"type":"Polygon","arcs":[[15]],"id":"feature_14"},{"properties":{"name":"\u5965\u5dde\u5e02","pop":1},"type":"Polygon","arcs":[[16]],"id":"feature_15"},{"properties":{"name":"\u6edd\u6ca2\u5e02","pop":1},"type":"Polygon","arcs":[[17,18,19,20]],"id":"feature_16"},{"properties":{"name":"\u6edd\u6ca2\u5e02","pop":2},"type":"Polygon","arcs":[[21]],"id":"feature_17"},{"properties":{"name":"\u7d2b\u6ce2\u90e1\u77e2\u5dfe\u753a","pop":1},"type":"Polygon","arcs":[[22]],"id":"feature_18"}],"type":"GeometryCollection"}},"bbox":[141.0813,38.9121,141.9732,40.2001],"transform":{"scale":[8.919089190891835e-06,1.288012880128798e-05],"translate":[141.0813,38.9121]},"arcs":[[[8700,63501],[79,-16],[-34,-93],[-145,24],[100,85]],[[4373,64774],[44,23]],[[4507,64844],[1480,761],[-549,-1141],[863,-389],[-1502,575],[-303,-248],[1132,-924],[998,574],[-45,645],[931,-132],[987,1250],[1356,-55],[258,427],[-1009,-62],[1491,334],[-594,-1693],[-1704,86],[-785,-652],[1188,-699],[-527,-47],[202,-77],[0,-70],[-785,-132],[-437,567],[-516,-854],[1469,-761],[-168,753],[953,93],[-639,-303],[0,-582],[807,-148],[370,862],[-549,-124],[-191,109],[1525,326],[-1581,101],[1424,403],[482,-621],[-392,-520],[1626,-287],[-180,-187],[-605,94],[-281,-94],[942,-349],[-1334,466],[-359,-474],[662,-31],[-438,-962],[1447,-226],[-1772,-46],[68,-854],[-382,-194],[-358,590],[-841,-404],[1468,-1250],[-897,-536],[1032,-163],[348,-1079],[-1234,792],[-2231,-39],[-179,614],[1334,590],[-336,924],[-1772,-676],[-1749,1856],[3756,-16],[-2220,784],[-1054,-574],[-1177,295],[1009,644],[-2332,722],[-79,1157]],[[97510,55085],[22,-8],[45,-23],[-56,-23],[-11,54]],[[94864,56808],[-123,-15],[-23,39],[135,54],[11,-78]],[[97510,55085],[1379,994],[-4597,341],[2388,156],[-1244,729],[3318,-434],[-964,-474],[1099,23],[-56,-163],[112,140],[830,-256],[224,-218],[-830,226],[639,-746],[-224,-194],[-504,54],[179,109],[-325,466],[-348,-1242],[-67,730],[-1009,-241]],[[71711,12958],[841,-955],[-717,-78],[33,-1358],[-415,939],[-571,-140],[-281,86],[482,830],[-706,-62],[1334,738]],[[3980,38105],[729,-31],[-729,-598],[908,202],[-751,-388],[673,-155],[-583,-16],[-224,-357],[841,280],[470,-412],[-1569,148],[-1738,-746],[886,489],[-1211,39],[-56,62],[919,699],[-572,404],[1155,-55],[-785,-124],[438,-404],[740,-201],[-572,411],[785,-101],[246,854]],[[3980,38105],[-448,412],[1199,-225],[-179,-117],[-572,-70]],[[5348,30302],[0,24],[146,8],[0,-24],[-146,-8]],[[5348,30302],[863,-504],[-885,-179],[-112,-248],[953,62],[-1413,-1592],[-2949,1654],[1772,776],[-68,1010],[1839,-979]],[[77497,99851],[1110,-458],[-2433,-1591],[-583,70],[1446,1327],[-1805,24],[381,745],[1884,-117]],[[5460,815],[-190,-46],[-213,15],[100,70],[303,-39]],[[5684,2803],[124,8],[22,-39],[-134,-8],[-12,39]],[[5684,2803],[595,-1048],[2152,-404],[-1670,-567],[1222,-163],[-359,-489],[-1390,776],[-628,-900],[-292,1242],[-2634,-396],[347,1103],[1906,-32],[438,1662],[313,-784]],[[90110,28556],[-168,-521],[460,47],[627,-248],[-639,132],[-78,-288],[964,-233],[-1110,194],[112,327],[-1020,-567],[-1502,466],[-1032,-684],[-2040,-62],[145,-1009],[-336,807],[-2534,-450],[-2455,140],[5381,683],[-1816,761],[2254,-598],[4787,1103]],[[7120,18820],[179,-1025],[2097,-249],[-527,-706],[-1559,279],[-1009,-955],[-1469,101],[1110,241],[-863,163],[628,707],[-617,248],[1155,124],[-964,373],[1839,699]],[[4507,64844],[-90,-47]],[[4417,64797],[-44,-23]],[[4373,64774],[-1682,-303],[-662,-908]],[[2029,63563],[-1356,-23],[-673,582],[1760,-326],[695,1405],[2052,-357]],[[7837,67849],[-830,-171],[-157,-978],[-1648,233],[2231,1195],[404,-279]],[[7153,54704],[1738,-54],[-78,-613],[-1682,-156],[650,-543],[-919,109],[291,1257]]]}