{"type":"Topology","objects":{"data":{"geometries":[{"properties":{"name":"\u65b0\u6f5f\u5e02\u5317\u533a","pop":1},"type":"Polygon","arcs":[[0]],"id":"feature_00"},{"properties":{"name":"\u65b0\u6f5f\u5e02\u5317\u533a","pop":2},"type":"Polygon","arcs":[[1]],"id":"feature_01"},{"properties":{"name":"\u65b0\u6f5f\u5e02\u5317\u533a","pop":2},"type":"Polygon","arcs":[[2]],"id":"feature_02"},{"properties":{"name":"\u65b0\u6f5f\u5e02\u5317\u533a","pop":3},"type":"Polygon","arcs":[[3]],"id":"feature_03"},{"properties":{"name":"\u65b0\u6f5f\u5e02\u6771\u533a","pop":1},"type":"Polygon","arcs":[[4]],"id":"feature_04"},{"properties":{"name":"\u65b0\u6f5f\u5e02\u6771\u533a","pop":1},"type":"Polygon","arcs":[[-9,5],[6],[7]],"id":"feature_05"},{"properties":{"name":"\u65b0\u6f5f\u5e02\u4e2d\u592e\u533a","pop":1},"type":"Polygon","arcs":[[8,9,-18,10]],"id":"feature_06"},{"properties":{"name":"\u65b0\u6f5f\u5e02\u6c5f\u5357\u533a","pop":1},"type":"Polygon","arcs":[[11]],"id":"feature_07"},{"properties":{"name":"\u65b0\u6f5f\u5e02\u79cb\u8449\u533a","pop":1},"type":"Polygon","arcs":[[12]],"id":"feature_08"},{"properties":{"name":"\u65b0\u6f5f\u5e02\u79cb\u8449\u533a","pop":1},"type":"Polygon","arcs":[[13]],"id":"feature_09"},{"properties":{"name":"\u65b0\u6f5f\u5e02\u79cb\u8449\u533a","pop":2},"type":"Polygon","arcs":[[14]],"id":"feature_10"},{"properties":{"name":"\u65b0\u6f5f\u5e02\u79cb\u8449\u533a","pop":2},"type":"Polygon","arcs":[[15]],"id":"feature_11"},{"properties":{"name":"\u65b0\u6f5f\u5e02\u5357\u533a","pop":1},"type":"Polygon","arcs":[[16]],"id":"feature_12"},{"properties":{"name":"\u65b0\u6f5f\u5e02\u897f\u533a","pop":1},"type":"Polygon","arcs":[[17,18]],"id":"feature_13"},{"properties":{"name":"\u65b0\u6f5f\u5e02\u897f\u84b2\u533a","pop":1},"type":"Polygon","arcs":[[19]],"id":"feature_14"},{"properties":{"name":"\u65b0\u6f5f\u5e02\u897f\u84b2\u533a","pop":2},"type":"Polygon","arcs":[[20]],"id":"feature_15"},{"properties":{"name":"\u9577\u5ca1\u5e02","pop":1},"type":"Polygon","arcs":[[21],[22]],"id":"feature_16"},{"properties":{"name":"\u9577\u5ca1\u5e02","pop":2},"type":"Polygon","arcs":[[23]],"id":"feature_17"},{"properties":{"name":"\u9577\u5ca1\u5e02","pop":3},"type":"Polygon","arcs":[[24]],"id":"feature_18"},{"properties":{"name":"\u9577\u5ca1\u5e02","pop":3},"type":"Polygon","arcs":[[25]],"id":"feature_19"},{"properties":{"name":"\u9577\u5ca1\u5e02","pop":4},"type":"Polygon","arcs":[[26]],"id":"feature_20"},{"properties":{"name":"\u9577\u5ca1\u5e02","pop":4},"type":"Polygon","arcs":[[27]],"id":"feature_21"},{"properties":{"name":"\u4e09\u6761\u5e02","pop":1},"type":"Polygon","arcs":[[28]],"id":"feature_22"},{"properties":{"name":"\u4e09\u6761\u5e02","pop":1},"type":"Polygon","arcs":[[29]],"id":"feature_23"},{"properties":{"name":"\u4e09\u6761\u5e02","pop":1},"type":"Polygon","arcs":[[30]],"id":"feature_24"},{"properties":{"name":"\u4e09\u6761\u5e02","pop":1},"type":"Polygon","arcs":[[31]],"id":"feature_25"},{"properties":{"name":"\u67cf\u5d0e\u5e02","pop":1},"type":"Polygon","arcs":[[32]],"id":"feature_26"},{"properties":{"name":"\u67cf\u5d0e\u5e02","pop":1},"type":"Polygon","arcs":[[33]],"id":"feature_27"},{"properties":{"name":"\u65b0\u767a\u7530\u5e02","pop":1},"type":"Polygon","arcs":[[34]],"id":"feature_28"},{"properties":{"name":"\u5c0f\u5343\u8c37\u5e02","pop":1},"type":"Polygon","arcs":[[35]],"id":"feature_29"},{"properties":{"name":"\u52a0\u8302\u5e02","pop":1},"type":"Polygon","arcs":[[36]],"id":"feature_30"},{"properties":{"name":"\u52a0\u8302\u5e02","pop":1},"type":"Polygon","arcs":[[37]],"id":"feature_31"},{"properties":{"name":"\u52a0\u8302\u5e02","pop":1},"type":"Polygon","arcs":[[38]],"id":"feature_32"},{"properties":{"name":"\u52a0\u8302\u5e02","pop":1},"type":"Polygon","arcs":[[39]],"id":"feature_33"},{"properties":{"name":"\u5341\u65e5\u753a\u5e02","pop":1},"type":"Polygon","arcs":[[40]],"id":"feature_34"},{"properties":{"name":"\u5341\u65e5\u753a\u5e02","pop":1},"type":"Polygon","arcs":[[41]],"id":"feature_35"},{"properties":{"name":"\u898b\u9644\u5e02","pop":1},"type":"Polygon","arcs":[[42]],"id":"feature_36"},{"properties":{"name":"\u898b\u9644\u5e02","pop":2},"type":"Polygon","arcs":[[43]],"id":"feature_37"},{"properties":{"name":"\u6751\u4e0a\u5e02","pop":1},"type":"Polygon","arcs":[[44]],"id":"feature_38"},{"properties":{"name":"\u71d5\u5e02","pop":1},"type":"Polygon","arcs":[[45]],"id":"feature_39"},{"properties":{"name":"\u71d5\u5e02","pop":1},"type":"Polygon","arcs":[[46]],"id":"feature_40"},{"properties":{"name":"\u71d5\u5e02","pop":2},"type":"Polygon","arcs":[[47]],"id":"feature_41"},{"properties":{"name":"\u71d5\u5e02","pop":3},"type":"Polygon","arcs":[[48]],"id":"feature_42"},{"properties":{"name":"\u7cf8\u9b5a\u5ddd\u5e02","pop":1},"type":"Polygon","arcs":[[49]],"id":"feature_43"},{"properties":{"name":"\u7cf8\u9b5a\u5ddd\u5e02","pop":1},"type":"Polygon","arcs":[[50]],"id":"feature_44"},{"properties":{"name":"\u7cf8\u9b5a\u5ddd\u5e02","pop":1},"type":"Polygon","arcs":[[51]],"id":"feature_45"},{"properties":{"name":"\u7cf8\u9b5a\u5ddd\u5e02","pop":1},"type":"Polygon","arcs":[[52]],"id":"feature_46"},{"properties":{"name":"\u7cf8\u9b5a\u5ddd\u5e02","pop":1},"type":"Polygon","arcs":[[53]],"id":"feature_47"},{"properties":{"name":"\u7cf8\u9b5a\u5ddd\u5e02","pop":2},"type":"Polygon","arcs":[[54]],"id":"feature_48"},{"properties":{"name":"\u5999\u9ad8\u5e02","pop":1},"type":"Polygon","arcs":[[55]],"id":"feature_49"},{"properties":{"name":"\u4e94\u6cc9\u5e02","pop":1},"type":"Polygon","arcs":[[56]],"id":"feature_50"},{"properties":{"name":"\u4e94\u6cc9\u5e02","pop":2},"type":"Polygon","arcs":[[57]],"id":"feature_51"},{"properties":{"name":"\u4e0a\u8d8a\u5e02","pop":1},"type":"Polygon","arcs":[[58]],"id":"feature_52"},{"properties":{"name":"\u4e0a\u8d8a\u5e02","pop":2},"type":"Polygon","arcs":[[59]],"id":"feature_53"},{"properties":{"name":"\u4e0a\u8d8a\u5e02","pop":2},"type":"Polygon","arcs":[[60]],"id":"feature_54"},{"properties":{"name":"\u963f\u8cc0\u91ce\u5e02","pop":1},"type":"Polygon","arcs":[[61]],"id":"feature_55"},{"properties":{"name":"\u963f\u8cc0\u91ce\u5e02","pop":1},"type":"Polygon","arcs":[[62]],"id":"feature_56"},{"properties":{"name":"\u5357\u9b5a\u6cbc\u5e02","pop":1},"type":"Polygon","arcs":[[63]],"id":"feature_57"}],"type":"GeometryCollection"}},"bbox":[137.784,37.0044,139.4939,38.2366],"transform":{"scale":[1.7099170991709964e-05,1.2322123221232271e-05],"translate":[137.784,37.0044]},"arcs":[[[83957,74825],[609,-852],[-574,-990],[-976,1022],[941,820]],[[80203,77016],[58,-57],[35,-49],[-117,57],[24,49]],[[80203,77016],[-854,-990],[-333,584],[590,1469],[597,-1063]],[[82115,74817],[187,-763],[-1240,-8],[544,584],[509,187]],[[76916,76578],[29,8],[6,-57],[-29,-8],[-6,57]],[[75232,75287],[-223,625],[492,723],[-310,340],[3123,747],[368,-390],[-748,-1339],[421,-194],[146,-479],[-1597,-41],[1071,-495],[298,430],[-82,-592],[544,-33],[-661,-511],[339,-600],[-1234,-1429],[-702,219]],[[76916,76578],[-53,-138],[813,195],[-368,300],[-392,-357]],[[77132,74078],[-52,-211],[-761,-324],[1574,422],[-761,113]],[[75232,75287],[649,-1834],[-486,-146],[76,-552],[1006,-487]],[[76477,72268],[-783,-1087],[-825,625],[217,633],[-808,-236],[-1818,-1509],[-614,1315]],[[71430,73332],[3270,2970],[40,89],[193,244],[24,64],[0,25],[6,8],[0,97],[6,49],[11,81],[35,179],[71,203],[52,121],[-187,-803],[-199,-268],[24,-260],[-199,-300],[-246,-1217],[468,771],[-211,-836],[328,243],[164,544],[-135,268],[24,154],[263,-471]],[[77167,71554],[1176,-1168],[146,-609],[-871,-536],[-772,503],[29,780],[-474,8],[802,405],[-36,617]],[[79834,63179],[30,24],[40,-40],[-40,-33],[-30,49]],[[79834,63179],[-1321,617],[93,-633],[-637,-463],[216,463],[-1018,909],[802,1030],[-252,1080],[895,-869],[-175,-576],[1169,-8],[205,-503],[-649,-268],[672,-779]],[[77068,67545],[-53,-40],[-52,48],[64,57],[41,-65]],[[77068,67545],[930,57],[386,-568],[-222,-714],[-1094,1225]],[[72021,62854],[345,-762],[-392,-147],[708,203],[-6,-438],[-1228,-1039],[573,2183]],[[71430,73332],[416,-1323]],[[71846,72009],[-170,-1615],[427,-292],[228,-1948],[-906,219],[415,1031],[-708,2118],[-947,-560],[-258,-869],[-1006,57],[-736,-503],[836,-81],[-509,-406],[-550,593],[-380,-1193],[-339,373],[-333,-641],[-1299,-73],[1252,1030],[-205,642],[1918,600],[-479,203],[3333,2638]],[[64249,62173],[643,-382],[-99,-754],[444,-390],[-1029,-235],[88,568],[-544,251],[497,942]],[[66301,64762],[322,-520],[-421,-544],[386,-162],[-942,-170],[-152,625],[807,771]],[[63079,39579],[59,-1874],[754,-431],[-491,-511],[386,-154],[-433,-1055],[731,97],[632,-1030],[-936,365],[-1369,-617],[-520,-454],[263,-1283],[-444,25],[-258,1079],[562,1031],[-655,-406],[199,1867],[731,1184],[321,2248],[468,-81]],[[63453,35400],[6,-260],[445,-41],[-111,268],[-340,33]],[[61319,38938],[760,-503],[-1006,-1761],[-70,-1144],[-953,-804],[-228,682],[1497,3530]],[[71015,38833],[88,-73],[-6,-17],[-105,65],[23,25]],[[71015,38833],[-111,105],[-170,-154],[556,-24],[140,-1372],[-795,170],[-158,1275],[310,349],[228,-349]],[[58307,36861],[-176,-999],[-695,641],[719,-121],[152,479]],[[58108,36966],[76,-130],[-134,-57],[-59,122],[117,65]],[[69822,49675],[64,16],[106,-325],[-111,268],[-59,41]],[[69875,49967],[0,49],[76,0],[0,-49],[-76,0]],[[67687,50641],[-146,-211],[-169,211],[76,56],[239,-56]],[[69875,49967],[-106,-487],[-929,593],[-223,-698],[-1532,389],[883,1055],[567,-373],[-567,1079],[702,1023],[357,-844],[824,243],[1100,-2921],[-848,1249],[-515,-105],[287,-203]],[[46043,28591],[35,211],[53,-8],[-18,-227],[-70,24]],[[46043,28591],[-836,-398],[-450,1015],[-316,-406],[-35,170],[-141,-89],[-239,276],[-199,-16],[-199,130],[-18,73],[550,933],[-503,-990],[731,884],[24,-706],[1239,1810],[287,-341],[-211,341],[299,341],[-24,-844],[486,-171],[-363,-219],[1041,-949],[-1474,-203],[351,-641]],[[89829,78038],[1497,-787],[111,-1769],[-1602,130],[-1299,933],[-46,633],[1339,860]],[[58892,25596],[918,-251],[70,-641],[345,454],[-35,-1047],[-608,722],[-88,-933],[-485,73],[210,252],[-23,316],[-667,-617],[363,1672]],[[75045,52596],[23,-16],[-41,-73],[-129,-16],[147,105]],[[73331,52864],[76,-73],[-152,-40],[53,81],[23,32]],[[73746,53830],[35,49],[129,-106],[-64,-40],[-100,97]],[[75045,52596],[-802,487],[-912,-698],[-170,958],[562,649],[438,-592],[0,763],[568,16],[-293,-503],[1228,-1169],[-619,89]],[[57646,11289],[18,56],[216,17],[-12,-146],[-76,-33],[-146,106]],[[57646,11289],[117,-917],[-456,129],[152,-535],[-550,24],[88,-162],[-228,-495],[-246,-211],[65,819],[-492,447],[930,657],[252,1080],[368,-836]],[[66038,43239],[918,-113],[-105,-1421],[345,-162],[-859,-357],[198,503],[-871,528],[333,462],[-520,666],[561,-106]],[[64652,44862],[141,-982],[-363,-300],[-439,844],[661,438]],[[97490,99829],[708,-609],[1801,8],[-766,-495],[146,-471],[-1170,-300],[164,446],[-626,114],[345,300],[-204,641],[-562,-8],[164,374]],[[66500,53952],[-41,-16],[-46,56],[29,33],[58,-73]],[[66500,53952],[889,617],[-181,-796],[947,-625],[-883,317],[-702,-885],[-953,171],[-76,657],[480,-430],[479,974]],[[64681,57376],[-421,-1038],[305,-1088],[-1047,-576],[-100,1201],[1263,1501]],[[61845,51298],[567,-625],[-397,-917],[-492,950],[322,592]],[[3521,2751],[11,-73],[-41,-8],[-5,65],[35,16]],[[3521,2751],[-12,65],[134,8],[6,-32],[-128,-41]],[[3450,2873],[6,-33],[30,-105],[-53,130],[17,8]],[[5263,3011],[-117,32],[-29,73],[129,57],[17,-162]],[[5146,3043],[322,57],[-70,211],[-883,-430],[-135,-1014],[30,1257],[-702,-527],[-357,365],[2328,804],[-679,-422],[410,162],[339,-244],[-287,-600],[-742,40],[426,341]],[[2562,2508],[87,-560],[-707,146],[-199,-236],[702,49],[-457,-479],[234,-381],[-672,609],[-901,-228],[105,-730],[-754,-698],[439,1574],[2123,934]],[[27715,2662],[-24,-690],[369,617],[111,-292],[-111,-966],[-462,316],[187,-738],[-1427,349],[1357,1404]],[[81343,61321],[363,-1429],[737,-357],[-375,-811],[-971,527],[246,2070]],[[82478,56638],[93,-560],[-836,-763],[-959,479],[1702,844]],[[27153,10315],[883,-1023],[76,333],[626,-81],[-310,-479],[375,-909],[-503,357],[-848,-1323],[-1158,-73],[286,1575],[-877,519],[1450,1104]],[[26586,12011],[199,-8],[29,-146],[-199,-90],[-29,244]],[[26586,12011],[246,-868],[-860,762],[556,828],[-673,-65],[0,-1112],[526,-332],[-853,-211],[193,1436],[-328,-535],[-240,486],[749,447],[-363,414],[474,454],[994,649],[234,-568],[64,366],[-81,40],[-182,438],[-11,114],[391,1518],[217,275],[-597,-1874],[176,-219],[345,162],[-146,16],[-182,268],[895,852],[433,-836],[-790,-24],[187,-666],[-643,-113],[2105,24],[41,-682],[-1187,211],[-1093,-1290],[64,868],[-661,-1233]],[[84864,67448],[134,16],[146,-57],[-280,-16],[0,57]],[[84864,67448],[-316,-714],[-830,97],[-205,641],[1082,893],[269,-917]],[[64249,5884],[228,-301],[-433,-235],[-205,-1550],[-122,990],[-322,-138],[854,1234]]]}