{"type":"Topology","objects":{"data":{"geometries":[{"properties":{"name":"\u5927\u962a\u5e02\u90fd\u5cf6\u533a","pop":1},"type":"Polygon","arcs":[[-28,-33,-74,-68,-24,-30,0]],"id":"feature_000"},{"properties":{"name":"\u5927\u962a\u5e02\u798f\u5cf6\u533a","pop":1},"type":"Polygon","arcs":[[-7,-5,-20,-49,-65]],"id":"feature_001"},{"properties":{"name":"\u5927\u962a\u5e02\u6b64\u82b1\u533a","pop":1},"type":"Polygon","arcs":[[1]],"id":"feature_002"},{"properties":{"name":"\u5927\u962a\u5e02\u6b64\u82b1\u533a","pop":1},"type":"Polygon","arcs":[[2]],"id":"feature_003"},{"properties":{"name":"\u5927\u962a\u5e02\u6b64\u82b1\u533a","pop":1},"type":"Polygon","arcs":[[-6,-9,3,-21,4]],"id":"feature_004"},{"properties":{"name":"\u5927\u962a\u5e02\u897f\u533a","pop":1},"type":"Polygon","arcs":[[-19,-16,-15,-10,5,6,-64,-72]],"id":"feature_005"},{"properties":{"name":"\u5927\u962a\u5e02\u6e2f\u533a","pop":1},"type":"Polygon","arcs":[[14,-15,-14,7,8,9]],"id":"feature_006"},{"properties":{"name":"\u5927\u962a\u5e02\u5927\u6b63\u533a","pop":1},"type":"Polygon","arcs":[[10]],"id":"feature_007"},{"properties":{"name":"\u5927\u962a\u5e02\u5927\u6b63\u533a","pop":1},"type":"Polygon","arcs":[[11]],"id":"feature_008"},{"properties":{"name":"\u5927\u962a\u5e02\u5927\u6b63\u533a","pop":1},"type":"Polygon","arcs":[[-46,12,13,14,15,-18]],"id":"feature_009"},{"properties":{"name":"\u5927\u962a\u5e02\u5929\u738b\u5bfa\u533a","pop":1},"type":"Polygon","arcs":[[-26,-35,-42,-17,-70,-25]],"id":"feature_010"},{"properties":{"name":"\u5927\u962a\u5e02\u6d6a\u901f\u533a","pop":1},"type":"Polygon","arcs":[[16,-47,17,18,-71]],"id":"feature_011"},{"properties":{"name":"\u5927\u962a\u5e02\u897f\u6dc0\u5ddd\u533a","pop":1},"type":"Polygon","arcs":[[19,20,21,-50]],"id":"feature_012"},{"properties":{"name":"\u5927\u962a\u5e02\u6771\u6dc0\u5ddd\u533a","pop":1},"type":"Polygon","arcs":[[-244,22,-144,-31,23,-67,-48,-125]],"id":"feature_013"},{"properties":{"name":"\u5927\u962a\u5e02\u6771\u6210\u533a","pop":1},"type":"Polygon","arcs":[[-269,-27,24,-69,-32]],"id":"feature_014"},{"properties":{"name":"\u5927\u962a\u5e02\u751f\u91ce\u533a","pop":1},"type":"Polygon","arcs":[[-268,-63,-41,-36,25,26]],"id":"feature_015"},{"properties":{"name":"\u5927\u962a\u5e02\u65ed\u533a","pop":1},"type":"Polygon","arcs":[[-54,-53,-34,27,28,29,30,-143]],"id":"feature_016"},{"properties":{"name":"\u5927\u962a\u5e02\u57ce\u6771\u533a","pop":1},"type":"Polygon","arcs":[[-270,31,-75,32,33,52,-52]],"id":"feature_017"},{"properties":{"name":"\u5927\u962a\u5e02\u963f\u500d\u91ce\u533a","pop":1},"type":"Polygon","arcs":[[-40,-37,-43,34,35]],"id":"feature_018"},{"properties":{"name":"\u5927\u962a\u5e02\u4f4f\u5409\u533a","pop":1},"type":"Polygon","arcs":[[-39,-206,-106,-77,-56,-44,36]],"id":"feature_019"},{"properties":{"name":"\u5927\u962a\u5e02\u6771\u4f4f\u5409\u533a","pop":1},"type":"Polygon","arcs":[[-62,37,-207,38,39,40]],"id":"feature_020"},{"properties":{"name":"\u5927\u962a\u5e02\u897f\u6210\u533a","pop":1},"type":"Polygon","arcs":[[41,42,43,-55,44,45,46]],"id":"feature_021"},{"properties":{"name":"\u5927\u962a\u5e02\u6dc0\u5ddd\u533a","pop":1},"type":"Polygon","arcs":[[47,-66,48,49,50,-118,-126]],"id":"feature_022"},{"properties":{"name":"\u5927\u962a\u5e02\u9db4\u898b\u533a","pop":1},"type":"Polygon","arcs":[[-239,-209,-271,51,-53,52,53,-142]],"id":"feature_023"},{"properties":{"name":"\u5927\u962a\u5e02\u4f4f\u4e4b\u6c5f\u533a","pop":1},"type":"Polygon","arcs":[[54,55,-76,56],[57],[58]],"id":"feature_024"},{"properties":{"name":"\u5927\u962a\u5e02\u5e73\u91ce\u533a","pop":1},"type":"Polygon","arcs":[[-267,-172,-197,59,-195,60,61,62]],"id":"feature_025"},{"properties":{"name":"\u5927\u962a\u5e02\u5317\u533a","pop":1},"type":"Polygon","arcs":[[-73,63,64,65,66,67]],"id":"feature_026"},{"properties":{"name":"\u5927\u962a\u5e02\u4e2d\u592e\u533a","pop":1},"type":"Polygon","arcs":[[68,69,70,71,72,73,74]],"id":"feature_027"},{"properties":{"name":"\u583a\u5e02\u583a\u533a","pop":1},"type":"Polygon","arcs":[[75,76,-105,-93,-92,91,-91,77]],"id":"feature_028"},{"properties":{"name":"\u583a\u5e02\u4e2d\u533a","pop":1},"type":"Polygon","arcs":[[78,-94,-103,-87]],"id":"feature_029"},{"properties":{"name":"\u583a\u5e02\u4e2d\u533a","pop":2},"type":"Polygon","arcs":[[79,-98,80]],"id":"feature_030"},{"properties":{"name":"\u583a\u5e02\u6771\u533a","pop":1},"type":"Polygon","arcs":[[-109,81,-107,82,83,-291,84,-289,85,86,-102,87]],"id":"feature_031"},{"properties":{"name":"\u583a\u5e02\u897f\u533a","pop":1},"type":"Polygon","arcs":[[-256,88]],"id":"feature_032"},{"properties":{"name":"\u583a\u5e02\u897f\u533a","pop":1},"type":"Polygon","arcs":[[-254,89]],"id":"feature_033"},{"properties":{"name":"\u583a\u5e02\u897f\u533a","pop":1},"type":"Polygon","arcs":[[90,-92,91,92,-104,93,94,-214,-250,95]],"id":"feature_034"},{"properties":{"name":"\u583a\u5e02\u5357\u533a","pop":1},"type":"Polygon","arcs":[[96,97]],"id":"feature_035"},{"properties":{"name":"\u583a\u5e02\u5357\u533a","pop":2},"type":"Polygon","arcs":[[-216,98]],"id":"feature_036"},{"properties":{"name":"\u583a\u5e02\u5317\u533a","pop":1},"type":"Polygon","arcs":[[99,-203,100,101,102,103,104,105,-205]],"id":"feature_037"},{"properties":{"name":"\u583a\u5e02\u7f8e\u539f\u533a","pop":1},"type":"Polygon","arcs":[[106,107,108,109]],"id":"feature_038"},{"properties":{"name":"\u583a\u5e02\u7f8e\u539f\u533a","pop":2},"type":"Polygon","arcs":[[110]],"id":"feature_039"},{"properties":{"name":"\u583a\u5e02\u7f8e\u539f\u533a","pop":3},"type":"Polygon","arcs":[[111]],"id":"feature_040"},{"properties":{"name":"\u583a\u5e02\u7f8e\u539f\u533a","pop":3},"type":"Polygon","arcs":[[-201,112]],"id":"feature_041"},{"properties":{"name":"\u5cb8\u548c\u7530\u5e02","pop":1},"type":"Polygon","arcs":[[-220,113,-218,114,-140,115,-303,116,-301]],"id":"feature_042"},{"properties":{"name":"\u8c4a\u4e2d\u5e02","pop":1},"type":"Polygon","arcs":[[-227,-121]],"id":"feature_043"},{"properties":{"name":"\u8c4a\u4e2d\u5e02","pop":1},"type":"Polygon","arcs":[[117,118,-122,-225,-127]],"id":"feature_044"},{"properties":{"name":"\u6c60\u7530\u5e02","pop":1},"type":"Polygon","arcs":[[119]],"id":"feature_045"},{"properties":{"name":"\u6c60\u7530\u5e02","pop":1},"type":"Polygon","arcs":[[-228,120,-226,121,122]],"id":"feature_046"},{"properties":{"name":"\u5439\u7530\u5e02","pop":1},"type":"Polygon","arcs":[[-165,123,-163,-245,124,125,126,-224],[153],[127]],"id":"feature_047"},{"properties":{"name":"\u6cc9\u5927\u6d25\u5e02","pop":1},"type":"Polygon","arcs":[[-299,128,-248,129,-252,-221],[212]],"id":"feature_048"},{"properties":{"name":"\u9ad8\u69fb\u5e02","pop":1},"type":"Polygon","arcs":[[130]],"id":"feature_049"},{"properties":{"name":"\u9ad8\u69fb\u5e02","pop":1},"type":"Polygon","arcs":[[-161,131,-159,132]],"id":"feature_050"},{"properties":{"name":"\u9ad8\u69fb\u5e02","pop":2},"type":"Polygon","arcs":[[133]],"id":"feature_051"},{"properties":{"name":"\u9ad8\u69fb\u5e02","pop":2},"type":"Polygon","arcs":[[-296,134]],"id":"feature_052"},{"properties":{"name":"\u9ad8\u69fb\u5e02","pop":3},"type":"Polygon","arcs":[[-242,135]],"id":"feature_053"},{"properties":{"name":"\u8c9d\u585a\u5e02","pop":1},"type":"Polygon","arcs":[[136]],"id":"feature_054"},{"properties":{"name":"\u8c9d\u585a\u5e02","pop":1},"type":"Polygon","arcs":[[137]],"id":"feature_055"},{"properties":{"name":"\u8c9d\u585a\u5e02","pop":1},"type":"Polygon","arcs":[[-175,138,139,140]],"id":"feature_056"},{"properties":{"name":"\u5b88\u53e3\u5e02","pop":1},"type":"Polygon","arcs":[[-240,141,142,143,144,-187]],"id":"feature_057"},{"properties":{"name":"\u679a\u65b9\u5e02","pop":1},"type":"Polygon","arcs":[[-283,145,-281,146,-279,147,-189,148],[149],[150],[151]],"id":"feature_058"},{"properties":{"name":"\u8328\u6728\u5e02","pop":1},"type":"Polygon","arcs":[[152]],"id":"feature_059"},{"properties":{"name":"\u8328\u6728\u5e02","pop":1},"type":"Polygon","arcs":[[153]],"id":"feature_060"},{"properties":{"name":"\u8328\u6728\u5e02","pop":1},"type":"Polygon","arcs":[[154]],"id":"feature_061"},{"properties":{"name":"\u8328\u6728\u5e02","pop":1},"type":"Polygon","arcs":[[155]],"id":"feature_062"},{"properties":{"name":"\u8328\u6728\u5e02","pop":1},"type":"Polygon","arcs":[[156]],"id":"feature_063"},{"properties":{"name":"\u8328\u6728\u5e02","pop":1},"type":"Polygon","arcs":[[157]],"id":"feature_064"},{"properties":{"name":"\u8328\u6728\u5e02","pop":1},"type":"Polygon","arcs":[[158,159,160,161,-246,162,163,164,-223,165]],"id":"feature_065"},{"properties":{"name":"\u8328\u6728\u5e02","pop":2},"type":"Polygon","arcs":[[166]],"id":"feature_066"},{"properties":{"name":"\u8328\u6728\u5e02","pop":2},"type":"Polygon","arcs":[[167]],"id":"feature_067"},{"properties":{"name":"\u8328\u6728\u5e02","pop":3},"type":"Polygon","arcs":[[168]],"id":"feature_068"},{"properties":{"name":"\u516b\u5c3e\u5e02","pop":1},"type":"Polygon","arcs":[[169,-231,-258,170,-198,171,-266],[172],[173]],"id":"feature_069"},{"properties":{"name":"\u6cc9\u4f50\u91ce\u5e02","pop":1},"type":"Polygon","arcs":[[174,175,-307,176,-305,177,-310,178,-315,179],[180]],"id":"feature_070"},{"properties":{"name":"\u5bcc\u7530\u6797\u5e02","pop":1},"type":"Polygon","arcs":[[181]],"id":"feature_071"},{"properties":{"name":"\u5bcc\u7530\u6797\u5e02","pop":1},"type":"Polygon","arcs":[[-285,182]],"id":"feature_072"},{"properties":{"name":"\u5bdd\u5c4b\u5ddd\u5e02","pop":1},"type":"Polygon","arcs":[[183,-320,184,-323,-211,185,-241,186,187,188],[275]],"id":"feature_073"},{"properties":{"name":"\u5bdd\u5c4b\u5ddd\u5e02","pop":2},"type":"Polygon","arcs":[[189]],"id":"feature_074"},{"properties":{"name":"\u6cb3\u5185\u9577\u91ce\u5e02","pop":1},"type":"Polygon","arcs":[[190]],"id":"feature_075"},{"properties":{"name":"\u6cb3\u5185\u9577\u91ce\u5e02","pop":1},"type":"Polygon","arcs":[[191]],"id":"feature_076"},{"properties":{"name":"\u6cb3\u5185\u9577\u91ce\u5e02","pop":1},"type":"Polygon","arcs":[[-287,192]],"id":"feature_077"},{"properties":{"name":"\u677e\u539f\u5e02","pop":1},"type":"Polygon","arcs":[[193,194,195,196,197,198,-235,199,200,201,202,203,204,205,206]],"id":"feature_078"},{"properties":{"name":"\u5927\u6771\u5e02","pop":1},"type":"Polygon","arcs":[[207,-272,208,-238,209,210,-322]],"id":"feature_079"},{"properties":{"name":"\u548c\u6cc9\u5e02","pop":1},"type":"Polygon","arcs":[[211]],"id":"feature_080"},{"properties":{"name":"\u548c\u6cc9\u5e02","pop":1},"type":"Polygon","arcs":[[212]],"id":"feature_081"},{"properties":{"name":"\u548c\u6cc9\u5e02","pop":1},"type":"Polygon","arcs":[[-251,213,214,215,216,217,218,219,-300,220]],"id":"feature_082"},{"properties":{"name":"\u548c\u6cc9\u5e02","pop":2},"type":"Polygon","arcs":[[221]],"id":"feature_083"},{"properties":{"name":"\u7b95\u9762\u5e02","pop":1},"type":"Polygon","arcs":[[222,223,224,225,226,227,228],[229]],"id":"feature_084"},{"properties":{"name":"\u67cf\u539f\u5e02","pop":1},"type":"Polygon","arcs":[[-259,230,231]],"id":"feature_085"},{"properties":{"name":"\u67cf\u539f\u5e02","pop":2},"type":"Polygon","arcs":[[-261,232]],"id":"feature_086"},{"properties":{"name":"\u7fbd\u66f3\u91ce\u5e02","pop":1},"type":"Polygon","arcs":[[233,234,235,-263]],"id":"feature_087"},{"properties":{"name":"\u9580\u771f\u5e02","pop":1},"type":"Polygon","arcs":[[236,237,238,239,240]],"id":"feature_088"},{"properties":{"name":"\u6442\u6d25\u5e02","pop":1},"type":"Polygon","arcs":[[241,242,243,244,245,246]],"id":"feature_089"},{"properties":{"name":"\u9ad8\u77f3\u5e02","pop":1},"type":"Polygon","arcs":[[247,248]],"id":"feature_090"},{"properties":{"name":"\u9ad8\u77f3\u5e02","pop":1},"type":"Polygon","arcs":[[249,250,251,252]],"id":"feature_091"},{"properties":{"name":"\u9ad8\u77f3\u5e02","pop":1},"type":"Polygon","arcs":[[253,254,255,256]],"id":"feature_092"},{"properties":{"name":"\u85e4\u4e95\u5bfa\u5e02","pop":1},"type":"Polygon","arcs":[[257,258,259,260,261,262,263]],"id":"feature_093"},{"properties":{"name":"\u6771\u5927\u962a\u5e02","pop":1},"type":"Polygon","arcs":[[264,265,266,267,268,269,270,271]],"id":"feature_094"},{"properties":{"name":"\u6cc9\u5357\u5e02","pop":1},"type":"Polygon","arcs":[[272]],"id":"feature_095"},{"properties":{"name":"\u6cc9\u5357\u5e02","pop":1},"type":"Polygon","arcs":[[-294,273]],"id":"feature_096"},{"properties":{"name":"\u6cc9\u5357\u5e02","pop":1},"type":"Polygon","arcs":[[-313,274]],"id":"feature_097"},{"properties":{"name":"\u56db\u689d\u7577\u5e02","pop":1},"type":"Polygon","arcs":[[275]],"id":"feature_098"},{"properties":{"name":"\u4ea4\u91ce\u5e02","pop":1},"type":"Polygon","arcs":[[276]],"id":"feature_099"},{"properties":{"name":"\u4ea4\u91ce\u5e02","pop":1},"type":"Polygon","arcs":[[277]],"id":"feature_100"},{"properties":{"name":"\u4ea4\u91ce\u5e02","pop":1},"type":"Polygon","arcs":[[278,279,280,281,282,283]],"id":"feature_101"},{"properties":{"name":"\u5927\u962a\u72ed\u5c71\u5e02","pop":1},"type":"Polygon","arcs":[[284,285,286,287,288,289,290,291]],"id":"feature_102"},{"properties":{"name":"\u962a\u5357\u5e02","pop":1},"type":"Polygon","arcs":[[292]],"id":"feature_103"},{"properties":{"name":"\u962a\u5357\u5e02","pop":1},"type":"Polygon","arcs":[[293,294]],"id":"feature_104"},{"properties":{"name":"\u5cf6\u672c\u753a","pop":1},"type":"Polygon","arcs":[[295,296]],"id":"feature_105"},{"properties":{"name":"\u8c4a\u80fd\u753a","pop":1},"type":"Polygon","arcs":[[297]],"id":"feature_106"},{"properties":{"name":"\u5fe0\u5ca1\u753a","pop":1},"type":"Polygon","arcs":[[298,299,300,301,302,303]],"id":"feature_107"},{"properties":{"name":"\u718a\u53d6\u753a","pop":1},"type":"Polygon","arcs":[[304,305,306,307]],"id":"feature_108"},{"properties":{"name":"\u7530\u5c3b\u753a","pop":1},"type":"Polygon","arcs":[[308,309],[310]],"id":"feature_109"},{"properties":{"name":"\u7530\u5c3b\u753a","pop":1},"type":"Polygon","arcs":[[311,312,313,314]],"id":"feature_110"},{"properties":{"name":"\u592a\u5b50\u753a","pop":1},"type":"Polygon","arcs":[[315]],"id":"feature_111"},{"properties":{"name":"\u6cb3\u5357\u753a","pop":1},"type":"Polygon","arcs":[[316]],"id":"feature_112"},{"properties":{"name":"\u6cb3\u5357\u753a","pop":1},"type":"Polygon","arcs":[[317]],"id":"feature_113"},{"properties":{"name":"\u56db\u689d\u7577\u5e02","pop":1},"type":"Polygon","arcs":[[318,319,320,321,322]],"id":"feature_114"}],"type":"GeometryCollection"}},"bbox":[135.2191,34.3326,135.7257,34.9073],"transform":{"scale":[5.066050660506522e-06,5.747057470574706e-06],"translate":[135.2191,34.3326]},"arcs":[[[62810,66678],[79,-70]],[[35708,55072],[-4165,-1027],[-1184,1549],[1382,1392],[3967,-575],[0,-1339]],[[37662,56968],[-19,-174],[-4540,644],[3119,1827],[1440,-2297]],[[46802,59683],[-7264,-3898],[-257,1096],[-711,-1374],[376,1705],[1480,383],[474,730],[-1777,-713],[237,1201],[4106,1566],[-5784,-1549],[-355,192],[-99,69],[2487,1845]],[[47927,63876],[118,-2175],[1895,-1148]],[[47927,60013],[2013,540]],[[49940,60553],[1797,696]],[[48322,56690],[-2093,-1845],[-1026,453],[1421,1409],[-1480,-1392],[-1382,731],[2132,-1201],[-1481,-574],[-1717,609],[1303,783],[-750,470],[-2468,-853],[6021,4403]],[[46802,59683],[1125,330]],[[47927,60013],[2408,-1844]],[[47374,54097],[415,-574],[-138,-539],[-435,87],[158,1026]],[[47236,54289],[987,-2036],[-2981,348],[494,1827],[1500,-139]],[[50256,51661],[-4954,-209],[3789,488],[-1342,2505],[1560,574],[-1915,-69],[928,1740]],[[48322,56690],[2013,1479]],[[50335,58169],[20,0]],[[50355,58169],[1243,209]],[[57560,57403],[-810,-2523]],[[51717,56098],[-119,2280]],[[51598,58378],[3198,156]],[[50296,65094],[-2369,-1218]],[[47927,63876],[-8212,-2940]],[[39715,60936],[1441,2453],[-2566,-1288],[-1243,1236],[7481,3776],[-119,1879]],[[65455,73951],[1935,-627]],[[60560,69740],[-2191,-2227]],[[61507,57925],[553,1619]],[[60284,54967],[1223,2958]],[[61507,57925],[5212,-209]],[[63521,65912],[-632,696]],[[62889,66608],[-79,70]],[[62810,66678],[-2250,3062]],[[60560,69740],[4441,331],[1579,1879]],[[67962,60100],[-5764,644]],[[62317,63145],[1204,2767]],[[63521,65912],[3810,626]],[[57106,54811],[3178,156]],[[60284,54967],[987,-696]],[[54737,50652],[3908,-1322]],[[64054,46667],[-20,-243]],[[59889,45589],[217,2592],[-1895,0],[434,1149]],[[58645,49330],[2626,4941]],[[61271,54271],[3592,-1409]],[[56750,54880],[356,-69]],[[57106,54811],[-2369,-4159]],[[54737,50652],[-711,-52]],[[50434,51522],[-178,139]],[[50256,51661],[1461,4437]],[[51717,56098],[5033,-1218]],[[56770,71706],[-553,-4402]],[[50394,65146],[-98,-52]],[[50296,65094],[-5587,3898]],[[44709,68992],[2902,696]],[[68396,61806],[-1322,-18],[276,4750]],[[67331,66538],[19,0]],[[67350,66538],[1441,488]],[[50434,51522],[3592,-922]],[[54026,50600],[-1145,-4768]],[[48282,47137],[-12041,1497],[-651,1496],[6632,-1340],[20,1810],[-4481,435],[869,1548],[-3218,-609],[0,1201],[7797,1131],[750,-2767],[-1697,-748],[1835,-713],[3909,-18],[2428,1462]],[[44097,50043],[751,-957],[2822,157],[-2467,1078],[-1106,-278]],[[47907,50060],[-217,-730],[118,-105],[158,470],[-59,365]],[[69147,44753],[-1935,1462],[632,1409],[-2073,-1983]],[[65297,45623],[-1243,1044]],[[64054,46667],[-573,4263],[1382,1932]],[[64863,52862],[1323,-540],[-60,1862],[1382,-69]],[[54954,62693],[-3217,-1444]],[[51737,61249],[1875,3132],[-3218,765]],[[50394,65146],[5823,2158]],[[56217,67304],[2152,209]],[[58369,67513],[1322,-1027],[-276,-3967]],[[62198,60744],[-138,-1200]],[[62060,59544],[-2369,226],[-2131,-2367]],[[57560,57403],[-2764,1131]],[[54796,58534],[158,4159]],[[54954,62693],[4461,-174]],[[59415,62519],[2902,626]],[[62317,63145],[-119,-2401]],[[48282,47137],[4599,-1305]],[[52881,45832],[3119,-1705]],[[46229,40699],[-375,1479],[1224,122],[-1480,1392],[3276,-244],[-3434,818],[2842,18],[-612,1357],[-4619,-1062],[-2309,783],[-395,2036],[4185,-1305],[-1402,1497],[5152,-453]],[[61725,31929],[-533,-1740],[-3080,2976],[632,-853],[-1323,-69],[1836,-696],[-276,-1462],[-3020,3654],[-4303,-1670]],[[56888,30224],[0,0]],[[54342,30990],[-1086,609],[2468,1305],[1164,-2680]],[[63718,35705],[-3336,-870],[3613,-365]],[[64843,34557],[1185,-1723]],[[66028,32834],[0,0]],[[66048,32243],[-1047,-35]],[[64133,31320],[-2408,609]],[[61725,31929],[-4659,5568]],[[59731,37950],[4007,348]],[[36754,37341],[830,1253],[1263,-766],[-731,-1131]],[[40880,37323],[2862,1288],[-849,-2071]],[[46229,40699],[987,-644]],[[47236,40055],[-20,0]],[[47216,40055],[1066,-2975],[2606,1827],[1006,-714]],[[53493,36488],[-1954,-609],[375,-1461],[-2803,487],[2547,-2836]],[[51658,32069],[-1224,-2454],[-2152,2088],[-1046,-661]],[[43170,36262],[1539,2784],[-6948,661],[-1638,6821],[2704,-1096],[987,-4176],[1717,174],[-651,3289],[3020,-1166],[691,-2767],[1638,-87]],[[56888,30224],[6416,-1079],[-1718,-3514],[-7027,1322],[2329,-2889],[-572,-2314],[-4836,5916],[987,1375],[1855,-2088],[1303,905],[-1283,3132]],[[54342,30990],[2546,-766]],[[49526,26222],[789,2019],[3692,-4994],[-3751,1392]],[[61685,42161],[1323,-2610],[1737,1026]],[[64922,40595],[-256,-1253],[-3849,139],[-1086,-1531]],[[59731,37950],[-2665,-453]],[[57066,37497],[-3573,-1009]],[[53493,36488],[-1599,1705]],[[51894,38193],[2093,2262],[1796,-678],[-1263,1705],[1480,2645]],[[56000,44127],[3790,1409]],[[64843,34557],[-848,-87]],[[63995,34470],[-277,1235]],[[63718,35705],[20,2593]],[[63738,38298],[4007,-2836],[-2902,-905]],[[70311,35566],[2428,-974],[-493,-783],[-3060,226],[1125,1531]],[[67587,37028],[0,-279],[-434,52],[20,244],[414,-17]],[[67528,39185],[20,-1670],[1993,-366],[-98,-661],[-1481,-226],[-1243,2227]],[[39380,24030],[276,-1497],[2744,870]],[[43565,22638],[-1659,34],[1895,-626],[-1559,-52],[-237,-1845],[-3119,-469],[-473,1061],[454,-1218],[-1461,-696],[-573,1462],[-710,-2036],[-1579,1305],[1460,-1357],[-2033,-296],[1402,-279],[-99,-400],[1026,-748],[-78,-278],[-3435,1044],[-750,1896]],[[27694,22133],[-1086,557],[1738,1618],[157,-1131],[1738,1027],[-1224,1566],[2171,-957],[-1224,4385]],[[30951,28763],[1184,-522]],[[53059,72594],[-3553,-3272],[-1895,366]],[[47611,69688],[-79,3132],[-3000,3028],[-711,4071]],[[40525,86792],[0,139],[473,1131],[474,-156],[-947,-1114]],[[45420,83243],[-118,-209]],[[45203,82790],[-1382,-2871]],[[43821,79919],[-3435,1775],[-1500,3149],[1658,3654],[277,-2227],[5448,1079],[-454,-853]],[[61685,84095],[40,-17]],[[65080,75848],[-4145,-3463],[-4165,-679]],[[56770,71706],[-3711,888]],[[53059,72594],[119,3027],[2250,1636],[-1698,2227],[3356,3689],[-2092,2488]],[[65139,80928],[60,-17],[0,70],[-60,17],[0,-70]],[[33221,29180],[-3948,2923],[2172,2576],[1500,-2506],[-849,-1009],[4126,-661],[-297,1792],[-2526,1009],[1085,1288]],[[35886,33878],[868,-2940],[1007,2175],[1678,-592]],[[82530,86218],[-40,174],[217,35],[79,-174],[-256,-35]],[[71693,89454],[2211,1793],[-2191,-1044],[-316,1392],[-1204,243],[770,-2210]],[[69936,89820],[-1303,1340],[1224,1775],[2428,-1044],[474,1600],[1461,-1426],[868,1131],[-1401,522],[-119,678],[1856,1949],[4658,-1879],[395,-1270],[-1323,139],[1856,-1096],[3237,69],[-1836,-3758],[691,-2071],[-1342,87],[1145,-470],[-612,-1479],[-4126,748],[-1539,-1305],[2053,366],[98,-400],[-316,-696],[-2901,522]],[[86675,93196],[-59,-227],[-178,53],[237,174]],[[88353,93892],[-1125,-1497],[-435,1740]],[[74910,80389],[1639,1201],[-1125,-1253],[1381,243],[-276,-783],[-1698,-191]],[[31524,13259],[-99,-52],[-138,209],[256,69],[-19,-226]],[[32530,13590],[-79,139],[178,52],[0,-87],[-99,-104]],[[22147,17435],[1165,2262],[2310,87],[2072,2349]],[[27694,22133],[4343,-2993]],[[32037,19140],[-1086,627],[750,-1166],[-1618,-1618],[2566,-2384],[-948,-2575],[-1322,1513],[1539,70],[-1954,1201],[336,522],[-79,191],[-434,313],[-4205,-191]],[[72088,67826],[-1974,-2349],[-1323,1549]],[[68791,67026],[-2467,1218],[1184,2592],[-928,1114]],[[66580,71950],[810,1374]],[[67390,73324],[5645,2002]],[[93821,81398],[-1441,-191],[-217,887],[2052,313],[-2822,453],[-415,-1166]],[[88925,79554],[198,-1062]],[[89123,78336],[-3336,-1636]],[[80358,79658],[-1085,2454],[5507,2070],[316,2923],[2092,870],[3751,6439],[2230,-1097],[790,-3619],[2980,-261],[375,-3271],[2389,-818],[-99,-1705],[-3415,261],[-3454,2766],[-2842,296],[2960,-3532],[5133,331],[-1856,-627],[119,-1305],[-1540,261],[1540,-922],[-1501,122]],[[91768,89942],[-1856,-488],[3060,-1026],[20,1009],[-1224,505]],[[93110,88271],[-829,-435],[-987,366],[454,-957],[2685,382],[-1323,644]],[[85649,83504],[473,-2645],[395,-18],[178,888],[39,122],[40,-18],[493,-1044],[-868,-209],[1066,-400],[-573,2175],[-1243,1149]],[[65179,80911],[-59,52],[19,35],[79,-52],[-39,-35]],[[64528,82651],[19,-452],[-533,295],[139,174],[375,-17]],[[61961,87349],[277,-835],[-1185,156],[218,627],[690,52]],[[63323,87262],[-513,-122],[-552,279],[177,208],[277,18],[611,-383]],[[62435,87627],[-197,-261],[-494,122],[316,470],[375,-331]],[[65712,89785],[-158,104],[158,35],[0,-139]],[[69936,89820],[1027,-192]],[[70963,89628],[730,-174]],[[71693,89454],[829,-3984],[3908,-922],[-868,-696]],[[75562,83852],[-1461,34],[770,-1235],[-1954,-1566],[-1244,400],[-829,-1757],[1836,1131],[533,-261],[-1540,-1618]],[[65692,80215],[553,2401],[-4520,1462]],[[61725,84078],[-40,17]],[[61685,84095],[-1500,1792]],[[60343,85992],[5586,-1462],[770,1584],[-1066,1026],[-1954,-852],[868,1200],[-1145,-330],[237,382],[-809,105],[-651,1566],[2052,-1166],[-592,2071],[2823,-888],[2033,1340],[-710,-1827],[3138,-1009],[99,957],[-1639,-261],[553,1392]],[[64646,93283],[-178,-53],[-59,192],[237,17],[0,-156]],[[65455,93648],[2073,-1253],[-434,-1636],[-2685,2176],[1046,713]],[[61468,90759],[-59,-939],[-1441,122],[395,730],[1105,87]],[[78740,54880],[1066,-2001],[414,1427],[2112,-1792],[1047,0],[-770,1531],[1875,-418],[158,-2888],[-3711,-4246]],[[74516,44023],[-3534,1183]],[[70607,45328],[1994,2784],[-4915,1374],[59,1027],[2546,-818],[-98,2436]],[[80852,52183],[434,-1879],[1342,-452],[1047,1670],[-2823,661]],[[78878,48251],[-730,-279],[947,-1531],[908,1618],[-1125,192]],[[22147,17435],[3435,-1792]],[[25582,15643],[1007,-2645]],[[25187,13503],[-98,-157]],[[24852,13102],[-1343,2071],[-256,-1931],[-2507,-70],[2941,-4924],[-1855,1270],[-2231,-974],[-4599,2801]],[[13758,12354],[967,1914],[-5763,3898],[-2468,-1236]],[[4441,18218],[2507,1496],[138,53],[99,17],[99,0],[0,-17],[98,0],[60,-18],[79,-35],[0,-17],[39,-17],[20,-35],[79,-52],[-553,174],[-138,-53],[-513,-313],[8349,-5115],[5508,1270],[-1619,800],[2310,18],[-119,1774],[1263,-713]],[[18259,11745],[-770,-731],[1737,-1618],[1836,-139],[967,731],[-3770,1757]],[[77161,34122],[-138,0],[0,87],[118,0],[20,-87]],[[67350,30311],[1382,-69],[-1283,974],[849,122],[6889,-1357],[-849,800],[2270,174],[375,1148],[-1401,105],[1658,870],[-3909,-174],[1520,417],[-2250,1131],[4658,-330],[1362,-435],[-138,-2941],[-2329,-1357],[2981,-452],[217,-836],[-2073,-17],[-474,-1288],[-1184,1845],[-2152,-1618],[-1263,1061],[-3948,-2158],[-908,1740]],[[85787,76700],[493,-765],[-1914,1009],[-494,-1392],[-1974,17],[1658,-87],[-809,-1096],[2112,-1879]],[[83240,72541],[-1539,1079],[-1244,-2192]],[[81622,69235],[-2290,-34]],[[76430,72663],[-3395,2663]],[[73035,75326],[7323,4332]],[[80358,79658],[4422,-1200],[1007,-1758]],[[86458,74403],[-138,-1670],[-2408,365],[375,731],[2171,574]],[[68870,17974],[-39,87],[138,18],[20,-87],[-119,-18]],[[67153,21733],[-1086,-1079],[494,870],[-1816,609],[1441,800],[967,-1200]],[[66896,25474],[4836,-1810],[-1954,-3984],[2112,-1149],[-3178,-278],[3731,122],[-513,-1010],[-1382,174],[-197,331],[-356,104],[-177,-69],[552,-1062],[1303,261],[1915,-1044],[-1974,453],[197,-957],[-4066,1862],[-434,-957],[-2132,-696],[3889,3549],[-3198,-696],[1776,3080],[40,1514],[-1915,87],[355,1705]],[[64034,46424],[-1480,-1149],[1539,-748],[1204,1096]],[[65297,45623],[474,18]],[[65771,45641],[3376,-888]],[[69147,44753],[1460,575]],[[70607,45328],[375,-122]],[[70982,45206],[79,-1810]],[[69008,40334],[-1480,-1149]],[[67528,39185],[-809,-696]],[[66719,38489],[-711,2628],[-1086,-522]],[[64922,40595],[-177,-18]],[[64745,40577],[-3060,1584]],[[61685,42161],[-1816,313],[-79,3062]],[[59790,45536],[99,53]],[[59889,45589],[1579,-644],[296,1357],[2270,122]],[[84662,69375],[-869,-1897],[1481,-3202]],[[74200,64537],[-928,731],[1777,1218]],[[79293,68992],[1480,-1357],[849,1600]],[[81622,69235],[-138,296]],[[49348,22829],[-59,-191],[276,0],[415,-488],[-1244,609],[-99,453],[711,-383]],[[41966,31094],[-277,-191],[-118,69],[276,209],[119,-87]],[[46506,31755],[730,-713]],[[47236,31042],[-3553,-5290],[4579,-1548],[-335,1444],[1599,574]],[[49526,26222],[730,-1583]],[[50256,24639],[-3454,-1201],[-4343,3358],[-1401,-957],[7402,-3167],[454,-1044],[-1579,505],[1460,-2245],[1185,4229],[671,-331],[-138,-3967],[-1165,296],[-474,-1497],[-3513,835],[-20,2262],[-1776,923]],[[43565,22638],[-1165,765]],[[42400,23403],[-3020,627]],[[39380,24030],[-691,487]],[[38728,25909],[2803,1757],[-1105,1584],[1875,2314]],[[53020,22255],[1263,-783],[217,-1375],[-3336,1897],[1540,-766],[316,1027]],[[60343,85992],[-158,-105]],[[60185,85887],[-3751,818],[-1440,-1044]],[[54994,85661],[-1284,-1427],[-2980,783],[-5527,-2227]],[[45203,82790],[99,244]],[[45302,83034],[118,209]],[[45420,83243],[395,3253]],[[45815,86496],[1717,-69],[632,1809],[7876,662],[2546,2627],[1007,-2001],[-1244,-505],[2250,-1653],[-256,-1374]],[[54342,88115],[-1322,-1514],[671,-366],[2053,1184],[-1402,696]],[[76845,44562],[4086,1931]],[[80931,46493],[1342,-2679],[-809,-1497],[-967,488]],[[80595,42457],[1165,-1323],[4540,-209],[-5231,-2801],[-1441,-18],[-178,2210]],[[78148,40073],[59,-3550],[-1165,-661],[-1184,1218],[-2250,-2158],[-3455,2367],[-1145,3045]],[[69008,40334],[-296,2140],[2349,922]],[[71061,43396],[415,18]],[[79332,69201],[-39,-209]],[[79293,68992],[592,-1305],[-4836,-1201]],[[75049,66486],[-2507,-626],[-454,1966]],[[72088,67826],[-2507,3097],[6849,1740]],[[76430,72663],[2784,-1270],[118,-2192]],[[74910,80389],[-79,-783]],[[74831,79606],[277,-1131],[-4165,-3376],[-5488,-1148]],[[65455,73951],[-375,1897]],[[65080,75848],[-2388,3079],[3000,1288]],[[65692,80215],[2152,-139],[809,-3028],[3020,1932]],[[71673,78980],[3237,1409]],[[35886,33878],[-1402,714]],[[34484,34592],[1402,-714]],[[43170,36262],[2665,-1844],[-1106,-766],[2487,-731],[-710,-1166]],[[46506,31755],[-4205,-191]],[[42301,31564],[-2862,957]],[[39439,32521],[3731,3741]],[[40880,37323],[2013,-783]],[[42893,36540],[-3691,-3184],[-3652,2123],[1204,1862]],[[36754,37341],[1362,-644]],[[38116,36697],[1580,-957],[1184,1583]],[[74516,44023],[2329,539]],[[76845,44562],[3652,-1757]],[[80497,42805],[98,-348]],[[80595,42457],[-1145,-2141]],[[79450,40316],[-1302,-243]],[[78148,40073],[-2093,539],[-1322,-2018],[-3257,4820]],[[71476,43414],[947,1305],[2093,-696]],[[85274,64276],[1914,-3358],[-2230,-2227],[237,-3550],[-3060,-835],[-1875,1879],[-1520,-1305]],[[78740,54880],[-4639,453],[276,-1549],[-2112,-418],[731,-1200],[-2803,-35]],[[70193,52131],[-2685,1984]],[[67508,54115],[553,2557],[-1342,1044]],[[66719,57716],[1243,2384]],[[67962,60100],[434,1706]],[[68396,61806],[5804,2731]],[[74200,64537],[4698,-1305],[1618,1462],[4758,-418]],[[13008,6664],[-631,366],[394,591],[691,-487],[-454,-470]],[[6198,7447],[5290,3011],[1165,-2506],[-1599,870],[-829,-296],[-809,-818],[3099,-1635],[1697,1131],[2053,-749],[-987,1549],[928,261],[1421,-2366],[-3040,-122],[375,-1827],[-2684,522],[237,-1027],[-2724,2071],[-1264,-818],[-276,1235],[-1244,-1235],[-967,1931]],[[4185,15712],[-2487,-1635],[-1698,1514],[2250,1322]],[[80832,69844],[178,-52],[-671,35],[19,35],[474,-18]],[[92676,76665],[-59,-191],[-158,244],[39,34],[178,-87]],[[94294,80215],[474,-157],[671,-52],[-868,-661],[-277,870]],[[89123,78336],[0,156]],[[89123,78492],[-198,1062]],[[88925,79554],[-1066,992],[3119,1148]],[[90978,81694],[2843,-296]],[[93821,81398],[927,-104]],[[94748,81294],[-2645,-2314],[1935,-870],[-2507,-1445],[1678,-1305],[-2685,1027],[1106,-2784],[-1777,1723],[-671,-1567],[-1224,1671],[-809,-592],[770,1131],[2783,836],[-1579,1531]],[[67350,30311],[0,-2645]],[[67350,27666],[60,-1809],[-810,470],[-1401,-401],[1697,-452]],[[66896,25474],[-770,-470]],[[66126,25004],[-3711,592],[987,3271],[869,-1688],[2053,1288],[-2191,2853]],[[64133,31320],[868,888]],[[65001,32208],[750,-905],[297,940]],[[66048,32243],[-20,591]],[[66028,32834],[1441,139],[-119,-2662]],[[8468,1827],[-533,539],[237,1131],[849,-939],[-553,-731]],[[6198,7447],[-158,-818]],[[6040,6629],[-987,-1096],[1875,-3306],[1718,-1113],[-277,661],[869,487],[-434,-2192],[-2053,2053],[-1244,-748],[-1717,3010],[-1915,-1288],[2172,-557],[-1362,-348],[1322,-87],[-829,-1235],[-2171,1862],[5191,4715]],[[88353,93892],[-1560,243]],[[86793,94135],[-394,3498],[1223,-957],[2744,1235],[671,-1079],[-2684,-2940]],[[43525,99895],[-414,-401],[-60,-261],[79,-139],[2764,418],[177,-1236],[-4224,-34],[1145,1670],[533,-17]],[[33221,29180],[5507,-3271]],[[38728,25909],[-39,-1392]],[[38689,24517],[-6554,3724]],[[32135,28241],[-1184,522]],[[30951,28763],[-987,435]],[[29964,29198],[553,1200],[2704,-1218]],[[24852,13102],[237,244]],[[25089,13346],[98,157]],[[25187,13503],[1402,-505]],[[26589,12998],[2151,905],[277,-2401],[868,487],[1658,-870],[-2013,435],[414,-1201],[-1914,226],[0,-1026],[-1402,1374],[731,-1513],[-928,-1288],[-3455,3428],[1876,1548]],[[15002,11345],[-2191,-1201],[-829,783],[1776,1427]],[[13758,12354],[1244,-1009]],[[13324,11658],[-434,-330],[691,-314],[98,383],[-355,261]],[[6494,16930],[-2309,-1218]],[[4185,15712],[-1935,1201]],[[2250,16913],[2191,1305]],[[4441,18218],[2053,-1288]],[[83102,34487],[2586,-1601],[671,-1026],[-592,-818],[-3296,1844],[631,1601]],[[81049,30450],[1935,-243],[138,-1462],[-1678,696],[-395,1009]],[[81049,30450],[-1184,-556],[-178,1635],[968,0],[394,-1079]],[[80457,71428],[1599,-731],[-316,1723],[1500,121]],[[83240,72541],[1619,-34]],[[84859,72507],[1875,-1566],[-2072,-1566]],[[84662,69375],[-3178,156]],[[81484,69531],[-1441,366],[414,1531]]]}