{"type":"Topology","objects":{"data":{"geometries":[{"properties":{"name":"\u9577\u91ce\u5e02","pop":1},"type":"Polygon","arcs":[[0]],"id":"feature_00"},{"properties":{"name":"\u9577\u91ce\u5e02","pop":1},"type":"Polygon","arcs":[[1]],"id":"feature_01"},{"properties":{"name":"\u9577\u91ce\u5e02","pop":1},"type":"Polygon","arcs":[[2]],"id":"feature_02"},{"properties":{"name":"\u9577\u91ce\u5e02","pop":1},"type":"Polygon","arcs":[[3]],"id":"feature_03"},{"properties":{"name":"\u9577\u91ce\u5e02","pop":1},"type":"Polygon","arcs":[[4]],"id":"feature_04"},{"properties":{"name":"\u9577\u91ce\u5e02","pop":1},"type":"Polygon","arcs":[[5]],"id":"feature_05"},{"properties":{"name":"\u9577\u91ce\u5e02","pop":2},"type":"Polygon","arcs":[[6]],"id":"feature_06"},{"properties":{"name":"\u9577\u91ce\u5e02","pop":3},"type":"Polygon","arcs":[[7]],"id":"feature_07"},{"properties":{"name":"\u9577\u91ce\u5e02","pop":3},"type":"Polygon","arcs":[[8]],"id":"feature_08"},{"properties":{"name":"\u9577\u91ce\u5e02","pop":3},"type":"Polygon","arcs":[[9]],"id":"feature_09"},{"properties":{"name":"\u9577\u91ce\u5e02","pop":3},"type":"Polygon","arcs":[[10]],"id":"feature_10"},{"properties":{"name":"\u9577\u91ce\u5e02","pop":4},"type":"Polygon","arcs":[[11]],"id":"feature_11"},{"properties":{"name":"\u677e\u672c\u5e02","pop":1},"type":"Polygon","arcs":[[12]],"id":"feature_12"},{"properties":{"name":"\u677e\u672c\u5e02","pop":1},"type":"Polygon","arcs":[[13]],"id":"feature_13"},{"properties":{"name":"\u677e\u672c\u5e02","pop":1},"type":"Polygon","arcs":[[14]],"id":"feature_14"},{"properties":{"name":"\u677e\u672c\u5e02","pop":2},"type":"Polygon","arcs":[[15]],"id":"feature_15"},{"properties":{"name":"\u4e0a\u7530\u5e02","pop":1},"type":"Polygon","arcs":[[16]],"id":"feature_16"},{"properties":{"name":"\u4e0a\u7530\u5e02","pop":1},"type":"Polygon","arcs":[[17]],"id":"feature_17"},{"properties":{"name":"\u4e0a\u7530\u5e02","pop":2},"type":"Polygon","arcs":[[18]],"id":"feature_18"},{"properties":{"name":"\u4e0a\u7530\u5e02","pop":2},"type":"Polygon","arcs":[[19]],"id":"feature_19"},{"properties":{"name":"\u5ca1\u8c37\u5e02","pop":1},"type":"Polygon","arcs":[[-59,20,-57,21]],"id":"feature_20"},{"properties":{"name":"\u98ef\u7530\u5e02","pop":1},"type":"Polygon","arcs":[[22]],"id":"feature_21"},{"properties":{"name":"\u98ef\u7530\u5e02","pop":1},"type":"Polygon","arcs":[[23]],"id":"feature_22"},{"properties":{"name":"\u98ef\u7530\u5e02","pop":1},"type":"Polygon","arcs":[[24]],"id":"feature_23"},{"properties":{"name":"\u98ef\u7530\u5e02","pop":1},"type":"Polygon","arcs":[[25]],"id":"feature_24"},{"properties":{"name":"\u8acf\u8a2a\u5e02","pop":1},"type":"Polygon","arcs":[[26]],"id":"feature_25"},{"properties":{"name":"\u8acf\u8a2a\u5e02","pop":1},"type":"Polygon","arcs":[[27]],"id":"feature_26"},{"properties":{"name":"\u8acf\u8a2a\u5e02","pop":1},"type":"Polygon","arcs":[[-55,28]],"id":"feature_27"},{"properties":{"name":"\u9808\u5742\u5e02","pop":1},"type":"Polygon","arcs":[[29,-31]],"id":"feature_28"},{"properties":{"name":"\u9808\u5742\u5e02","pop":1},"type":"Polygon","arcs":[[30,31]],"id":"feature_29"},{"properties":{"name":"\u5c0f\u8af8\u5e02","pop":1},"type":"Polygon","arcs":[[32]],"id":"feature_30"},{"properties":{"name":"\u4f0a\u90a3\u5e02","pop":1},"type":"Polygon","arcs":[[33]],"id":"feature_31"},{"properties":{"name":"\u4f0a\u90a3\u5e02","pop":1},"type":"Polygon","arcs":[[34]],"id":"feature_32"},{"properties":{"name":"\u99d2\u30f6\u6839\u5e02","pop":1},"type":"Polygon","arcs":[[35]],"id":"feature_33"},{"properties":{"name":"\u4e2d\u91ce\u5e02","pop":1},"type":"Polygon","arcs":[[36]],"id":"feature_34"},{"properties":{"name":"\u4e2d\u91ce\u5e02","pop":1},"type":"Polygon","arcs":[[37]],"id":"feature_35"},{"properties":{"name":"\u5927\u753a\u5e02","pop":1},"type":"Polygon","arcs":[[38]],"id":"feature_36"},{"properties":{"name":"\u5927\u753a\u5e02","pop":1},"type":"Polygon","arcs":[[39]],"id":"feature_37"},{"properties":{"name":"\u8305\u91ce\u5e02","pop":1},"type":"Polygon","arcs":[[40]],"id":"feature_38"},{"properties":{"name":"\u5869\u5c3b\u5e02","pop":1},"type":"Polygon","arcs":[[41]],"id":"feature_39"},{"properties":{"name":"\u5869\u5c3b\u5e02","pop":2},"type":"Polygon","arcs":[[42]],"id":"feature_40"},{"properties":{"name":"\u5869\u5c3b\u5e02","pop":2},"type":"Polygon","arcs":[[43]],"id":"feature_41"},{"properties":{"name":"\u4f50\u4e45\u5e02","pop":1},"type":"Polygon","arcs":[[44]],"id":"feature_42"},{"properties":{"name":"\u4f50\u4e45\u5e02","pop":1},"type":"Polygon","arcs":[[45]],"id":"feature_43"},{"properties":{"name":"\u4f50\u4e45\u5e02","pop":2},"type":"Polygon","arcs":[[46]],"id":"feature_44"},{"properties":{"name":"\u5343\u66f2\u5e02","pop":1},"type":"Polygon","arcs":[[47]],"id":"feature_45"},{"properties":{"name":"\u5343\u66f2\u5e02","pop":1},"type":"Polygon","arcs":[[48]],"id":"feature_46"},{"properties":{"name":"\u5343\u66f2\u5e02","pop":2},"type":"Polygon","arcs":[[49]],"id":"feature_47"},{"properties":{"name":"\u5343\u66f2\u5e02","pop":3},"type":"Polygon","arcs":[[50]],"id":"feature_48"},{"properties":{"name":"\u6771\u5fa1\u5e02","pop":1},"type":"Polygon","arcs":[[51]],"id":"feature_49"},{"properties":{"name":"\u6771\u5fa1\u5e02","pop":1},"type":"Polygon","arcs":[[52]],"id":"feature_50"},{"properties":{"name":"\u5b89\u66c7\u91ce\u5e02","pop":1},"type":"Polygon","arcs":[[53]],"id":"feature_51"},{"properties":{"name":"\u4e0b\u8acf\u8a2a\u753a","pop":1},"type":"Polygon","arcs":[[54,55,56,57,58,59]],"id":"feature_52"}],"type":"GeometryCollection"}},"bbox":[137.7919,35.4891,138.4951,36.7586],"transform":{"scale":[7.032070320703303e-06,1.269512695126952e-05],"translate":[137.7919,35.4891]},"arcs":[[[49616,89404],[-285,-15],[-28,39],[256,24],[57,-48]],[[49345,89436],[-156,-8],[0,39],[99,48],[57,-79]],[[50952,89452],[427,23],[-1607,-252],[-1266,47],[2446,182]],[[62627,91319],[384,-71],[-99,-402],[-555,268],[270,205]],[[66709,92193],[284,16],[156,-24],[-369,-181],[-71,189]],[[66709,92193],[-5020,-827],[739,-496],[-2801,-32],[2417,-150],[-1280,-212],[868,-103],[-839,-732],[2261,590],[-668,-898],[-2461,449],[-1223,-630],[-4451,686],[-3441,-268],[4309,1591],[-1266,1245],[3228,606],[967,481],[-540,464],[2033,-551],[498,24],[-1351,771],[1749,544],[1508,-1213],[-782,-110],[1237,-189],[682,716],[-1251,205],[370,607],[1692,-307],[-1166,-182],[341,-165],[1564,394],[1110,-110],[-2603,-898],[868,-229],[1706,835],[-611,-1339],[-1280,-307],[3143,362],[-256,-622]],[[52033,87648],[-555,-615],[1252,-401],[-1394,-331],[1252,-292],[-1849,-480],[-142,-654],[-2091,-205],[-824,1670],[2716,150],[-100,709],[1735,449]],[[52133,88239],[213,-48],[-142,-110],[-100,8],[29,150]],[[56911,88278],[-114,-110],[-498,15],[142,111],[470,-16]],[[54365,88333],[114,197],[85,0],[-42,-197],[-157,0]],[[56911,88278],[-2304,315],[-43,-843],[-2631,512],[-1464,575],[1976,-409],[185,472],[-369,-197],[-1067,268],[4707,213],[1493,-268],[-483,-638]],[[58631,85198],[1494,-945],[-1920,-654],[-128,607],[-1877,157],[2431,835]],[[25953,57487],[213,0],[0,-8],[-213,-55],[0,63]],[[28356,57518],[99,-8],[0,-55],[-113,8],[14,55]],[[28356,57518],[-1650,-31],[214,165],[-200,71],[-611,-8],[57,-1111],[640,442],[753,-969],[-1663,417],[-399,-764],[996,-402],[-1252,-527],[413,-48],[-270,-709],[-356,1048],[-1251,-1197],[697,-118],[-2062,-87],[1422,1000],[-669,434],[1550,385],[-768,678],[-2104,-213],[-142,-535],[-1622,606],[2660,2072],[-1579,8],[29,772],[2161,78],[-1152,560],[-1152,-481],[356,662],[-882,47],[2247,347],[455,-717],[2901,2064],[1138,-126],[-555,-126],[526,-71],[-696,-386],[128,-111],[1678,694],[-399,-1796],[2446,-63],[-1635,-780],[1365,-355],[-2005,-86],[242,-733]],[[27830,54478],[1493,-686],[-2773,-220],[-541,780],[1821,126]],[[62784,70822],[-654,-291],[-1565,276],[1650,244],[569,-229]],[[62784,70822],[-285,757],[1280,732],[-2019,867],[4607,-55],[882,-1434],[114,173],[2090,-79],[100,-133],[-1778,-142],[1508,-1946],[-2389,1284],[-1707,252],[-1465,-685],[-938,409]],[[60238,71153],[470,24],[440,-142],[-853,-8],[-199,244],[142,-118]],[[61859,72036],[157,-930],[-1835,165],[953,1009],[725,-244]],[[40102,46222],[-611,-63],[-214,-118],[853,-457]],[[40088,45269],[-2517,-811],[-1237,339],[-2361,-756],[-384,149],[-370,47],[256,-882],[-1209,-315],[839,599],[-810,496],[2944,551],[-15,804],[143,-181],[440,-103],[-568,1773],[1009,141],[-810,213],[1095,189],[270,-835],[668,-102],[-569,331],[370,47],[-71,512],[299,165],[2261,-843]],[[7793,347],[327,307],[427,-16],[-470,-362],[-284,71]],[[7907,2859],[85,205],[398,-165],[-284,-166],[-199,126]],[[6371,2962],[-43,23],[-185,79],[285,-23],[-57,-79]],[[6371,2962],[583,-520],[-57,685],[981,-118],[-270,-1197],[-1038,-40],[1735,-559],[-1692,-1213],[-1394,488],[1962,725],[-2744,-213],[-4437,1379],[2389,-323],[-526,945],[4508,-39]],[[46430,42867],[171,-32],[-157,-149],[-170,39],[156,142]],[[44368,43418],[-156,-102],[-71,16],[184,110],[43,-24]],[[45392,45088],[1095,-31],[825,-1292],[170,394],[285,141],[-270,-1599],[1464,-323],[-1223,-220],[-1237,788],[-1066,-418],[455,520],[-1522,370],[1508,969],[-768,630]],[[72880,92547],[3456,-378],[-1635,-866],[1137,-670],[-1820,559],[-896,-834],[-270,512],[-2645,157],[2673,1528]],[[72880,92547],[0,8]],[[72880,92555],[0,-8]],[[89590,66616],[2289,-457],[-1052,-244],[924,-457],[-3000,307],[-328,497],[1167,354]],[[24843,27089],[214,0],[128,8],[-15,-63],[-327,55]],[[24843,27089],[-2858,-283],[-611,291],[1109,221],[-1522,291],[1678,158],[-540,708],[1422,-551],[1934,882],[213,-1205],[1536,110],[-2361,-622]],[[20591,20149],[86,-559],[1550,32],[-1380,-244],[967,-686],[-1351,489],[-924,-615],[-1052,701],[1251,-94],[853,976]],[[83588,98810],[171,-16],[-28,-79],[-128,8],[-15,87]],[[83588,98810],[-1678,-662],[-1336,858],[1095,843],[2503,134],[-1551,-535],[967,-638]],[[7964,80614],[-697,-16],[0,87],[313,15],[384,-86]],[[7964,80614],[-1423,346],[3101,-157],[654,-1103],[-1621,-126],[-711,1040]],[[49715,40874],[2958,-764],[1834,449],[-924,-599],[768,-701],[-3470,-71],[-1166,1686]],[[23023,51240],[981,-23],[29,-2395],[2872,-181],[256,-536],[-5830,670],[1692,2465]],[[23080,52004],[597,-252],[-853,-157],[-43,291],[299,118]],[[23080,52004],[-654,-16],[256,-433],[-2503,-1016],[1906,2883],[1592,-87],[-597,-1331]],[[96401,56754],[1806,-1205],[526,622],[399,-244],[-214,-796],[-1706,189],[-199,591],[-271,-283],[-483,-40],[142,1166]],[[96401,56754],[-1706,1316],[2517,401],[-1323,804],[142,157],[2361,-1252],[-1735,-473],[-256,-953]],[[95932,62544],[2489,-859],[1493,-55],[-2631,-725],[-85,693],[-1309,-63],[43,1009]],[[50156,77794],[-71,-126],[-157,-16],[-14,71],[242,71]],[[50156,77794],[-683,433],[1010,1441],[1749,-1158],[-142,-701],[-2105,426],[171,-441]],[[47994,83166],[967,-717],[-1080,236],[-100,-937],[-1209,-158],[1863,-874],[-2474,945],[2033,1505]],[[45108,82827],[-939,-1630],[725,-386],[-739,-284],[-270,1709],[-1024,8],[2247,583]],[[76805,68648],[-597,56],[-100,78],[811,158],[-114,-292]],[[76805,68648],[1181,-716],[-1351,70],[-1280,575],[-953,0],[-910,355],[995,-291],[782,1039],[640,-488],[-796,-205],[-299,-244],[1991,-95]],[[15316,64442],[1749,-347],[-612,-1150],[-1777,654],[640,843]],[[45392,45088],[-284,-71]],[[45108,45017],[-1693,528],[-3327,-276]],[[40088,45269],[42,315]],[[40130,45584],[-28,638]],[[40102,46222],[-341,575]],[[39761,46797],[1592,709],[1110,-1480],[256,378],[2673,-1316]]]}