{"type":"Topology","objects":{"data":{"geometries":[{"properties":{"name":"\u90a3\u8987\u5e02","pop":1},"type":"Polygon","arcs":[[-14,0,-12,1,-49,2,-51,3,-28,4,-25,5]],"id":"feature_00"},{"properties":{"name":"\u5b9c\u91ce\u6e7e\u5e02","pop":1},"type":"Polygon","arcs":[[-18,-10,6],[7]],"id":"feature_01"},{"properties":{"name":"\u77f3\u57a3\u5e02","pop":1},"type":"Polygon","arcs":[[8]],"id":"feature_02"},{"properties":{"name":"\u6d66\u6dfb\u5e02","pop":1},"type":"Polygon","arcs":[[9,-17,10,11,12,13,14]],"id":"feature_03"},{"properties":{"name":"\u6d66\u6dfb\u5e02","pop":2},"type":"Polygon","arcs":[[15,16,17]],"id":"feature_04"},{"properties":{"name":"\u540d\u8b77\u5e02","pop":1},"type":"Polygon","arcs":[[18]],"id":"feature_05"},{"properties":{"name":"\u7cf8\u6e80\u5e02","pop":1},"type":"Polygon","arcs":[[19]],"id":"feature_06"},{"properties":{"name":"\u7cf8\u6e80\u5e02","pop":1},"type":"Polygon","arcs":[[20]],"id":"feature_07"},{"properties":{"name":"\u6c96\u7e04\u5e02","pop":1},"type":"Polygon","arcs":[[-30,21,-40,22,23]],"id":"feature_08"},{"properties":{"name":"\u8c4a\u898b\u57ce\u5e02","pop":1},"type":"Polygon","arcs":[[24,25]],"id":"feature_09"},{"properties":{"name":"\u8c4a\u898b\u57ce\u5e02","pop":2},"type":"Polygon","arcs":[[26,27]],"id":"feature_10"},{"properties":{"name":"\u8c4a\u898b\u57ce\u5e02","pop":3},"type":"Polygon","arcs":[[28]],"id":"feature_11"},{"properties":{"name":"\u3046\u308b\u307e\u5e02","pop":1},"type":"Polygon","arcs":[[29,30]],"id":"feature_12"},{"properties":{"name":"\u3046\u308b\u307e\u5e02","pop":2},"type":"Polygon","arcs":[[31]],"id":"feature_13"},{"properties":{"name":"\u3046\u308b\u307e\u5e02","pop":3},"type":"Polygon","arcs":[[32]],"id":"feature_14"},{"properties":{"name":"\u5bae\u53e4\u5cf6\u5e02","pop":1},"type":"Polygon","arcs":[[33]],"id":"feature_15"},{"properties":{"name":"\u91d1\u6b66\u753a","pop":1},"type":"Polygon","arcs":[[34]],"id":"feature_16"},{"properties":{"name":"\u8aad\u8c37\u6751","pop":1},"type":"Polygon","arcs":[[-38,35]],"id":"feature_17"},{"properties":{"name":"\u8aad\u8c37\u6751","pop":2},"type":"Polygon","arcs":[[36]],"id":"feature_18"},{"properties":{"name":"\u5609\u624b\u7d0d\u753a","pop":1},"type":"Polygon","arcs":[[37,38]],"id":"feature_19"},{"properties":{"name":"\u5317\u8c37\u753a","pop":1},"type":"Polygon","arcs":[[39,40]],"id":"feature_20"},{"properties":{"name":"\u5317\u8c37\u753a","pop":2},"type":"Polygon","arcs":[[41]],"id":"feature_21"},{"properties":{"name":"\u897f\u539f\u753a","pop":1},"type":"Polygon","arcs":[[-45,42]],"id":"feature_22"},{"properties":{"name":"\u4e0e\u90a3\u539f\u753a","pop":1},"type":"Polygon","arcs":[[-47,43,44,45]],"id":"feature_23"},{"properties":{"name":"\u5357\u98a8\u539f\u753a","pop":1},"type":"Polygon","arcs":[[46,47,48,49]],"id":"feature_24"},{"properties":{"name":"\u5357\u98a8\u539f\u753a","pop":2},"type":"Polygon","arcs":[[50,51]],"id":"feature_25"},{"properties":{"name":"\u5cf6\u5c3b\u90e1\u516b\u91cd\u702c\u753a","pop":1},"type":"Polygon","arcs":[[52]],"id":"feature_26"}],"type":"GeometryCollection"}},"bbox":[124.1372,24.3311,127.9949,26.6052],"transform":{"scale":[3.857738577385768e-05,2.274122741227413e-05],"translate":[124.1372,24.3311]},"arcs":[[[92622,83672],[36,-9]],[[93350,83777],[-65,-813],[-360,-387],[-86,163],[-72,35],[-81,-49],[127,-83],[0,-260],[-199,172],[137,-330],[187,216]],[[92811,81983],[-114,-9]],[[92554,81755],[-192,206]],[[91878,81719],[-21,-17]],[[91460,81390],[-552,-189],[-199,923],[401,831],[532,-523],[-322,545],[622,339],[-121,633],[-319,-348],[33,599],[433,-146]],[[93010,85299],[127,528],[283,-71],[412,603],[-36,-427],[728,356],[83,-330],[-456,-1398],[-586,31]],[[94237,85936],[-444,-30],[-363,-893],[718,339],[270,646],[-181,-62]],[[192,1064],[772,-387],[104,-677],[-837,268],[116,290],[-347,436],[192,70]],[[93010,85299],[83,-431]],[[93086,84863],[-107,-263],[371,-823]],[[93350,83777],[-692,-114]],[[92658,83663],[339,457],[13,-162],[203,-123],[-34,285],[-485,88],[-72,-536]],[[92622,83672],[-654,382]],[[91968,84054],[654,695],[-96,647],[484,-97]],[[93565,84591],[42,-356],[-249,-132],[-272,760]],[[93086,84863],[7,5]],[[93093,84868],[472,-277]],[[99538,99924],[267,5],[-267,-159],[111,-184],[62,220],[288,-150],[-262,-981],[-132,634],[-550,338],[24,308],[241,-84],[18,-48],[-70,-97],[-8,-149],[278,347]],[[91639,80013],[226,-505],[-151,162],[-80,-373],[283,-132],[-369,-572],[-199,448],[202,225],[-402,70],[119,-325],[-116,-93],[-78,44],[-67,814],[632,237]],[[91639,80013],[-18,115],[101,39],[-44,-53],[-39,-101]],[[95722,88531],[-55,-348],[343,-131],[-226,-462],[228,-136],[-127,-247],[-604,-193],[18,374],[278,-40],[-161,62],[18,39],[-83,53],[-28,75],[334,545],[-925,-836],[-327,124]],[[94389,87889],[0,0]],[[94389,87889],[449,312],[238,739],[86,-510],[130,998],[303,-295]],[[91460,81390],[397,312]],[[91857,81702],[174,-625],[-177,-268],[-394,581]],[[92362,81961],[-23,-417],[-303,70],[179,-286],[15,-255],[-267,132],[-85,514]],[[91878,81719],[39,392],[445,-150]],[[92186,80924],[101,-137],[138,-105],[-262,8],[23,234]],[[95722,88531],[-127,602]],[[95595,89133],[122,286],[65,-330],[331,93],[-189,206],[246,145],[-132,242],[138,290],[464,40],[-156,-268],[135,-440],[-288,277],[-132,-761],[-210,119],[-267,-501]],[[95940,92691],[-50,-185],[190,-136],[-8,-145],[-335,158],[-28,-932],[-226,-101],[-150,518],[607,823]],[[97345,87788],[261,-392],[-93,-250],[-428,681],[260,-39]],[[29580,21213],[448,-313],[-31,-589],[-233,75],[155,-286],[-477,198],[138,915]],[[98358,93539],[-163,-365],[-428,36],[91,202],[500,127]],[[93778,89569],[-353,-115],[153,115],[-150,703],[347,150],[29,-853]],[[93163,91939],[-62,-211],[233,-106],[-103,-541],[-322,686],[254,172]],[[93778,89569],[26,0]],[[93804,89569],[383,-71],[-757,-712],[-18,519],[366,264]],[[94389,87889],[16,-479]],[[94405,87410],[-410,-392],[229,418],[-286,347],[451,106]],[[93625,88034],[168,-449],[-166,-114],[-153,444],[151,119]],[[93853,82744],[-101,255],[456,537],[-231,-871]],[[93560,82326],[293,418]],[[93853,82744],[124,-79]],[[93977,82665],[192,-154],[65,-172],[-306,-48],[233,-114],[197,-400],[-90,-172],[-241,563],[-446,18]],[[93560,82326],[21,-140]],[[93581,82186],[-407,-229],[-78,-435],[-285,461]],[[92811,81983],[127,458]],[[92938,82441],[622,-115]],[[92554,81755],[143,219]],[[92697,81974],[127,-721],[-270,502]],[[92974,80607],[156,-216],[-275,-466],[-93,84],[212,598]]]}