{"type":"Topology","objects":{"data":{"geometries":[{"properties":{"name":"\u5948\u826f\u5e02","pop":1},"type":"Polygon","arcs":[[0]],"id":"feature_00"},{"properties":{"name":"\u5948\u826f\u5e02","pop":1},"type":"Polygon","arcs":[[1]],"id":"feature_01"},{"properties":{"name":"\u5948\u826f\u5e02","pop":1},"type":"Polygon","arcs":[[2]],"id":"feature_02"},{"properties":{"name":"\u5948\u826f\u5e02","pop":1},"type":"Polygon","arcs":[[-10,3,-21,4],[5]],"id":"feature_03"},{"properties":{"name":"\u5927\u548c\u9ad8\u7530\u5e02","pop":1},"type":"Polygon","arcs":[[6,-38]],"id":"feature_04"},{"properties":{"name":"\u5927\u548c\u90e1\u5c71\u5e02","pop":1},"type":"Polygon","arcs":[[7]],"id":"feature_05"},{"properties":{"name":"\u5927\u548c\u90e1\u5c71\u5e02","pop":2},"type":"Polygon","arcs":[[8,9]],"id":"feature_06"},{"properties":{"name":"\u5929\u7406\u5e02","pop":1},"type":"Polygon","arcs":[[10]],"id":"feature_07"},{"properties":{"name":"\u6a7f\u539f\u5e02","pop":1},"type":"Polygon","arcs":[[11]],"id":"feature_08"},{"properties":{"name":"\u6a7f\u539f\u5e02","pop":1},"type":"Polygon","arcs":[[12]],"id":"feature_09"},{"properties":{"name":"\u6a7f\u539f\u5e02","pop":2},"type":"Polygon","arcs":[[13]],"id":"feature_10"},{"properties":{"name":"\u685c\u4e95\u5e02","pop":1},"type":"Polygon","arcs":[[14]],"id":"feature_11"},{"properties":{"name":"\u4e94\u689d\u5e02","pop":1},"type":"Polygon","arcs":[[15]],"id":"feature_12"},{"properties":{"name":"\u5fa1\u6240\u5e02","pop":1},"type":"Polygon","arcs":[[16]],"id":"feature_13"},{"properties":{"name":"\u751f\u99d2\u5e02","pop":1},"type":"Polygon","arcs":[[17]],"id":"feature_14"},{"properties":{"name":"\u751f\u99d2\u5e02","pop":2},"type":"Polygon","arcs":[[18]],"id":"feature_15"},{"properties":{"name":"\u751f\u99d2\u5e02","pop":3},"type":"Polygon","arcs":[[19]],"id":"feature_16"},{"properties":{"name":"\u751f\u99d2\u5e02","pop":4},"type":"Polygon","arcs":[[20,21]],"id":"feature_17"},{"properties":{"name":"\u9999\u829d\u5e02","pop":1},"type":"Polygon","arcs":[[22]],"id":"feature_18"},{"properties":{"name":"\u9999\u829d\u5e02","pop":1},"type":"Polygon","arcs":[[-40,23]],"id":"feature_19"},{"properties":{"name":"\u845b\u57ce\u5e02","pop":1},"type":"Polygon","arcs":[[24]],"id":"feature_20"},{"properties":{"name":"\u845b\u57ce\u5e02","pop":2},"type":"Polygon","arcs":[[25]],"id":"feature_21"},{"properties":{"name":"\u4e09\u90f7\u753a","pop":1},"type":"Polygon","arcs":[[-28,-36,26]],"id":"feature_22"},{"properties":{"name":"\u6591\u9ce9\u753a","pop":1},"type":"Polygon","arcs":[[-33,27,28]],"id":"feature_23"},{"properties":{"name":"\u7530\u539f\u672c\u753a","pop":1},"type":"Polygon","arcs":[[29]],"id":"feature_24"},{"properties":{"name":"\u4e0a\u7267\u753a","pop":1},"type":"Polygon","arcs":[[30]],"id":"feature_25"},{"properties":{"name":"\u4e0a\u7267\u753a","pop":1},"type":"Polygon","arcs":[[-43,31]],"id":"feature_26"},{"properties":{"name":"\u738b\u5bfa\u753a","pop":1},"type":"Polygon","arcs":[[32,33,-45,34,35]],"id":"feature_27"},{"properties":{"name":"\u5e83\u9675\u753a","pop":1},"type":"Polygon","arcs":[[36]],"id":"feature_28"},{"properties":{"name":"\u5e83\u9675\u753a","pop":1},"type":"Polygon","arcs":[[37,38,39,40]],"id":"feature_29"},{"properties":{"name":"\u6cb3\u5408\u753a","pop":1},"type":"Polygon","arcs":[[41,42,43,44]],"id":"feature_30"}],"type":"GeometryCollection"}},"bbox":[135.6745,34.3403,135.8643,34.7423],"transform":{"scale":[1.8980189801897128e-06,4.020040200402014e-06],"translate":[135.6745,34.3403]},"arcs":[[[91200,82785],[264,174],[316,-49],[-474,-150],[-106,25]],[[34246,85273],[422,124],[158,-323],[-158,-25],[-422,224]],[[32350,89999],[0,50],[316,0],[0,-25],[-316,-25]],[[49315,79377],[1738,1269],[-15121,3483],[-474,2960],[-6586,-324],[5374,-1492],[-1159,-2662],[-9273,2562],[949,4751],[1949,-1094],[13224,2736],[-8377,-149],[-1106,1866]],[[32402,94701],[17492,1194],[-3319,-374],[1159,-2338],[4320,2712],[13646,-672],[5163,-1368],[-1422,-2562],[-12013,2537],[53,-2861],[-6849,1667],[4742,-1841],[-4953,-920],[15384,-100],[-632,-1741],[-1370,1219],[-5426,-149],[4689,-3533],[5268,1244],[949,3532],[263,-2214],[7956,-746],[7956,2413],[2265,-1617],[-4004,-4278],[8588,-971],[-5216,-2786],[-9273,-373],[3214,-1219],[-2476,-1517],[-6112,1393],[-3425,-1642],[-5637,747],[-158,2014],[10748,100],[421,2065],[-19072,3258],[316,-1716],[6164,-647],[-4478,-2761]],[[51475,84925],[579,1442],[-10853,647],[4267,-2861],[6007,772]],[[32297,46467],[11433,-1293],[-3846,-6791],[-9220,1069],[-264,398],[1844,871],[738,871],[-4321,1268],[4637,1866],[-7113,846],[2266,1915]],[[39041,76218],[790,-1965],[5954,50],[-2477,-1816],[6481,-3085],[4478,1070],[-3793,1020],[6375,348],[316,-5771],[-4847,-1194],[-4637,4502],[-6954,-845],[158,2736],[-7429,3582],[5585,1368]],[[57323,79850],[2950,-2612],[5058,-124],[2318,-2811],[-5690,646],[2266,1319],[-7640,-1940],[-6164,970],[-1106,4079]],[[49315,79377],[8008,473]],[[82929,67089],[632,-1045],[9062,-298],[3161,-1468],[-7956,-1095],[317,-1791],[-8799,2140],[-1159,-1244],[-3425,-199],[-3056,3408],[11223,1592]],[[57586,34950],[-263,-174],[-211,0],[0,149],[474,25]],[[57586,34950],[-6322,1020],[11907,348],[-2213,4055],[-5479,25],[2055,1567],[-4531,224],[1369,1467],[-4583,125],[-2424,2238],[8219,573],[-2476,-971],[6428,-2064],[2898,1617],[-4321,895],[13699,846],[-5796,-2214],[843,-1890],[6744,1890],[6375,-2239],[-11486,-821],[-4531,-2636],[1581,-4403],[2634,1293],[2845,-472],[-421,-2811],[-9536,-846],[-3478,3184]],[[48208,39502],[3425,-1070],[-949,-3358],[-6375,1891],[3899,199],[0,2338]],[[88461,47089],[5532,-1169],[-1739,-2164],[7745,-697],[-6322,-995],[-527,-3457],[-5269,2388],[-2213,-1020],[-3056,3831],[5533,447],[316,2836]],[[17070,4552],[-1264,-2189],[-3372,921],[5216,-1916],[-3846,-1268],[-2898,2114],[-4004,-771],[1949,-1219],[-6480,497],[7481,3483],[7218,348]],[[29399,33159],[8272,-1468],[1791,-1965],[-9852,-398],[-4795,2463],[4584,1368]],[[14120,93681],[10221,-9602],[-2055,-1766],[-5953,820],[579,-1766],[8536,-497],[-6428,373],[-3846,-1891],[-3056,2165],[3319,248],[685,3160],[-8272,298],[2371,2363],[-4004,1692],[4900,995],[-4057,1791],[7060,1617]],[[18071,97188],[4268,-398],[-105,-3109],[5426,-1891],[-7955,523],[-1634,4875]],[[38250,99949],[5269,-1542],[-2055,-1567],[-5848,398],[2634,2711]],[[32402,94701],[-1949,-1418]],[[30453,93283],[-5216,2263],[3477,1294],[3688,-2139]],[[3056,53557],[-264,49],[158,224],[422,-74],[-316,-199]],[[27713,47985],[-11011,-2438],[1264,1244],[-7113,1940],[3214,1542],[-4004,572],[-4531,-2313],[-5532,3557],[10116,2637],[6428,-3955],[7797,547]],[[19178,43333],[0,-522],[10168,-1269],[-5584,-1717],[-9431,2190],[4847,1318]],[[25079,37885],[1896,-995],[8062,-149],[-14963,-871],[5005,2015]],[[10537,62437],[-7428,-1492],[-53,2811],[4794,74],[2529,423],[-5690,-174],[3530,1194],[-2318,1293],[12750,448]],[[18335,64353],[316,2661]],[[18651,67014],[13751,-74],[-3372,845],[5954,1443],[4847,-1045],[-7165,-4726],[-4373,-274],[1264,1667],[-3530,423],[4689,149],[-1317,1219],[-6480,-771],[-1212,-2537]],[[63856,56691],[4426,-1468],[-4531,-1766],[4057,-4378],[-4900,-249],[158,1866],[-8167,1791],[4321,995],[-3320,746],[3320,498],[-1950,846],[0,870],[6586,249]],[[19336,54477],[-843,-497],[-1054,1044],[843,-522],[1054,-25]],[[26870,58955],[-4057,-4354],[-3477,-124],[-211,1965],[-2739,-1592],[1211,2537],[6165,498],[-3688,2264]],[[18335,64353],[3372,-1020]],[[21707,63333],[-1107,-1095]],[[19231,62263],[-3530,-3905],[-5269,1293],[3425,-199],[948,547],[-8799,-398],[8430,1393],[-3899,1443]],[[10537,62437],[2002,2338],[5796,-422]],[[36143,51442],[421,548],[791,-50],[0,-498],[-1212,0]],[[32297,46467],[-3846,1020]],[[28451,47487],[-738,498]],[[27713,47985],[422,2736],[-3794,597]],[[24341,51318],[158,1741],[6849,1020],[-2318,-3408],[1159,-995],[2108,-99],[2107,3159],[2055,-2562],[-4162,-3707]],[[20600,62238],[10959,-1343],[-4689,-1940]],[[26870,58955],[-6796,1194]],[[20074,60149],[-843,2114]],[[19231,62263],[1369,-25]]]}