{"type":"Topology","objects":{"data":{"geometries":[{"properties":{"name":"\u5e83\u5cf6\u5e02\u4e2d\u533a","pop":1},"type":"Polygon","arcs":[[-6,0,-9,-2]],"id":"feature_00"},{"properties":{"name":"\u5e83\u5cf6\u5e02\u6771\u533a","pop":1},"type":"Polygon","arcs":[[-83,-7,1,-12,-19,2],[3]],"id":"feature_01"},{"properties":{"name":"\u5e83\u5cf6\u5e02\u5357\u533a","pop":1},"type":"Polygon","arcs":[[-82,-92,4,5,6],[7]],"id":"feature_02"},{"properties":{"name":"\u5e83\u5cf6\u5e02\u897f\u533a","pop":1},"type":"Polygon","arcs":[[8,9,-37,10,-20,11]],"id":"feature_03"},{"properties":{"name":"\u5e83\u5cf6\u5e02\u5b89\u4f50\u5357\u533a","pop":1},"type":"Polygon","arcs":[[12]],"id":"feature_04"},{"properties":{"name":"\u5e83\u5cf6\u5e02\u5b89\u4f50\u5357\u533a","pop":1},"type":"Polygon","arcs":[[-15,13]],"id":"feature_05"},{"properties":{"name":"\u5e83\u5cf6\u5e02\u5b89\u4f50\u5357\u533a","pop":1},"type":"Polygon","arcs":[[14,15,-27,16,-25,17,18,19,20]],"id":"feature_06"},{"properties":{"name":"\u5e83\u5cf6\u5e02\u5b89\u4f50\u5317\u533a","pop":1},"type":"Polygon","arcs":[[21]],"id":"feature_07"},{"properties":{"name":"\u5e83\u5cf6\u5e02\u5b89\u4f50\u5317\u533a","pop":1},"type":"Polygon","arcs":[[22]],"id":"feature_08"},{"properties":{"name":"\u5e83\u5cf6\u5e02\u5b89\u4f50\u5317\u533a","pop":1},"type":"Polygon","arcs":[[23]],"id":"feature_09"},{"properties":{"name":"\u5e83\u5cf6\u5e02\u5b89\u4f50\u5317\u533a","pop":2},"type":"Polygon","arcs":[[24,25,26,27]],"id":"feature_10"},{"properties":{"name":"\u5e83\u5cf6\u5e02\u5b89\u4f50\u5317\u533a","pop":3},"type":"Polygon","arcs":[[28]],"id":"feature_11"},{"properties":{"name":"\u5e83\u5cf6\u5e02\u5b89\u4f50\u5317\u533a","pop":4},"type":"Polygon","arcs":[[29]],"id":"feature_12"},{"properties":{"name":"\u5e83\u5cf6\u5e02\u5b89\u82b8\u533a","pop":1},"type":"Polygon","arcs":[[30]],"id":"feature_13"},{"properties":{"name":"\u5e83\u5cf6\u5e02\u5b89\u82b8\u533a","pop":1},"type":"Polygon","arcs":[[-102,31]],"id":"feature_14"},{"properties":{"name":"\u5e83\u5cf6\u5e02\u5b89\u82b8\u533a","pop":2},"type":"Polygon","arcs":[[32]],"id":"feature_15"},{"properties":{"name":"\u5e83\u5cf6\u5e02\u5b89\u82b8\u533a","pop":2},"type":"Polygon","arcs":[[-100,33]],"id":"feature_16"},{"properties":{"name":"\u5e83\u5cf6\u5e02\u5357\u533a","pop":1},"type":"Polygon","arcs":[[-90,34]],"id":"feature_17"},{"properties":{"name":"\u5e83\u5cf6\u5e02\u5b89\u82b8\u533a","pop":3},"type":"Polygon","arcs":[[35]],"id":"feature_18"},{"properties":{"name":"\u5e83\u5cf6\u5e02\u4f50\u4f2f\u533a","pop":1},"type":"Polygon","arcs":[[36,37,-79,38]],"id":"feature_19"},{"properties":{"name":"\u5e83\u5cf6\u5e02\u4f50\u4f2f\u533a","pop":2},"type":"Polygon","arcs":[[39]],"id":"feature_20"},{"properties":{"name":"\u5e83\u5cf6\u5e02\u4f50\u4f2f\u533a","pop":3},"type":"Polygon","arcs":[[40]],"id":"feature_21"},{"properties":{"name":"\u5e83\u5cf6\u5e02\u4f50\u4f2f\u533a","pop":3},"type":"Polygon","arcs":[[41]],"id":"feature_22"},{"properties":{"name":"\u5449\u5e02","pop":1},"type":"Polygon","arcs":[[42]],"id":"feature_23"},{"properties":{"name":"\u5449\u5e02","pop":2},"type":"Polygon","arcs":[[43]],"id":"feature_24"},{"properties":{"name":"\u5449\u5e02","pop":3},"type":"Polygon","arcs":[[44,-47]],"id":"feature_25"},{"properties":{"name":"\u5449\u5e02","pop":3},"type":"Polygon","arcs":[[45]],"id":"feature_26"},{"properties":{"name":"\u5449\u5e02","pop":3},"type":"Polygon","arcs":[[46,47]],"id":"feature_27"},{"properties":{"name":"\u5449\u5e02","pop":4},"type":"Polygon","arcs":[[48]],"id":"feature_28"},{"properties":{"name":"\u5449\u5e02","pop":5},"type":"Polygon","arcs":[[49]],"id":"feature_29"},{"properties":{"name":"\u7af9\u539f\u5e02","pop":1},"type":"Polygon","arcs":[[50]],"id":"feature_30"},{"properties":{"name":"\u4e09\u539f\u5e02","pop":1},"type":"Polygon","arcs":[[51]],"id":"feature_31"},{"properties":{"name":"\u5c3e\u9053\u5e02","pop":1},"type":"Polygon","arcs":[[52]],"id":"feature_32"},{"properties":{"name":"\u5c3e\u9053\u5e02","pop":2},"type":"Polygon","arcs":[[-59,53]],"id":"feature_33"},{"properties":{"name":"\u5c3e\u9053\u5e02","pop":3},"type":"Polygon","arcs":[[54]],"id":"feature_34"},{"properties":{"name":"\u5c3e\u9053\u5e02","pop":4},"type":"Polygon","arcs":[[55]],"id":"feature_35"},{"properties":{"name":"\u5c3e\u9053\u5e02","pop":5},"type":"Polygon","arcs":[[56]],"id":"feature_36"},{"properties":{"name":"\u798f\u5c71\u5e02","pop":1},"type":"Polygon","arcs":[[57]],"id":"feature_37"},{"properties":{"name":"\u798f\u5c71\u5e02","pop":2},"type":"Polygon","arcs":[[58,59]],"id":"feature_38"},{"properties":{"name":"\u798f\u5c71\u5e02","pop":3},"type":"Polygon","arcs":[[60]],"id":"feature_39"},{"properties":{"name":"\u798f\u5c71\u5e02","pop":4},"type":"Polygon","arcs":[[-66,61]],"id":"feature_40"},{"properties":{"name":"\u798f\u5c71\u5e02","pop":4},"type":"Polygon","arcs":[[62]],"id":"feature_41"},{"properties":{"name":"\u798f\u5c71\u5e02","pop":5},"type":"Polygon","arcs":[[63]],"id":"feature_42"},{"properties":{"name":"\u798f\u5c71\u5e02","pop":6},"type":"Polygon","arcs":[[64]],"id":"feature_43"},{"properties":{"name":"\u5e9c\u4e2d\u5e02","pop":1},"type":"Polygon","arcs":[[65,66]],"id":"feature_44"},{"properties":{"name":"\u4e09\u6b21\u5e02","pop":1},"type":"Polygon","arcs":[[67]],"id":"feature_45"},{"properties":{"name":"\u5927\u7af9\u5e02","pop":1},"type":"Polygon","arcs":[[68]],"id":"feature_46"},{"properties":{"name":"\u5927\u7af9\u5e02","pop":1},"type":"Polygon","arcs":[[69]],"id":"feature_47"},{"properties":{"name":"\u5927\u7af9\u5e02","pop":2},"type":"Polygon","arcs":[[70]],"id":"feature_48"},{"properties":{"name":"\u6771\u5e83\u5cf6\u5e02","pop":1},"type":"Polygon","arcs":[[71]],"id":"feature_49"},{"properties":{"name":"\u6771\u5e83\u5cf6\u5e02","pop":1},"type":"Polygon","arcs":[[72]],"id":"feature_50"},{"properties":{"name":"\u6771\u5e83\u5cf6\u5e02","pop":2},"type":"Polygon","arcs":[[73]],"id":"feature_51"},{"properties":{"name":"\u6771\u5e83\u5cf6\u5e02","pop":3},"type":"Polygon","arcs":[[-77,74]],"id":"feature_52"},{"properties":{"name":"\u6771\u5e83\u5cf6\u5e02","pop":3},"type":"Polygon","arcs":[[75,76]],"id":"feature_53"},{"properties":{"name":"\u5eff\u65e5\u5e02\u5e02","pop":1},"type":"Polygon","arcs":[[77,78]],"id":"feature_54"},{"properties":{"name":"\u5eff\u65e5\u5e02\u5e02","pop":2},"type":"Polygon","arcs":[[79]],"id":"feature_55"},{"properties":{"name":"\u5eff\u65e5\u5e02\u5e02","pop":3},"type":"Polygon","arcs":[[80]],"id":"feature_56"},{"properties":{"name":"\u5e9c\u4e2d\u753a","pop":1},"type":"Polygon","arcs":[[-93,81,82,83]],"id":"feature_57"},{"properties":{"name":"\u6d77\u7530\u753a","pop":1},"type":"Polygon","arcs":[[84]],"id":"feature_58"},{"properties":{"name":"\u5e83\u5cf6\u5e02\u5b89\u82b8\u533a","pop":3},"type":"Polygon","arcs":[[-96,85]],"id":"feature_59"},{"properties":{"name":"\u5742\u753a","pop":1},"type":"Polygon","arcs":[[-88,86]],"id":"feature_60"},{"properties":{"name":"\u5742\u753a","pop":1},"type":"Polygon","arcs":[[87,88]],"id":"feature_61"},{"properties":{"name":"\u5e83\u5cf6\u5e02\u5b89\u82b8\u533a","pop":3},"type":"Polygon","arcs":[[89,90,91,92,93,-98,94]],"id":"feature_62"},{"properties":{"name":"\u6d77\u7530\u753a","pop":1},"type":"Polygon","arcs":[[95,96,97,98,99,100,101,102]],"id":"feature_63"},{"properties":{"name":"\u6d77\u7530\u753a","pop":1},"type":"Polygon","arcs":[[-105,103]],"id":"feature_64"},{"properties":{"name":"\u5e83\u5cf6\u5e02\u5b89\u82b8\u533a","pop":3},"type":"Polygon","arcs":[[104,105]],"id":"feature_65"}],"type":"GeometryCollection"}},"bbox":[132.2042,34.1962,133.4534,34.8189],"transform":{"scale":[1.2492124921249231e-05,6.227062270622724e-06],"translate":[132.2042,34.1962]},"arcs":[[[20549,28681],[-336,-1124],[-344,1831],[-105,-48],[105,-2329],[-937,-1156],[48,2682],[-400,-2200],[-417,337],[169,-1413],[-897,803],[712,610],[113,2361]],[[21101,33354],[-480,1831]],[[22854,39682],[1225,-2779],[-352,-2344],[985,2890],[872,-160],[-985,-1076],[-368,-2971]],[[21998,37787],[-953,-1735],[465,-1044],[792,900],[-200,-2778],[600,-65],[777,1783],[-465,2553],[-1016,386]],[[25032,27509],[-1289,-1895],[0,2216],[-704,-2569],[-785,16],[-112,1509],[-416,659],[232,-1670],[-1473,-611],[232,-353],[120,-1413],[-440,1670],[-1681,-1076],[1833,4689]],[[20549,28681],[752,1992],[-200,2681]],[[21101,33354],[2554,-2344]],[[22198,28328],[-88,-289],[496,-305],[-312,-900],[889,97],[-985,1397]],[[20621,35185],[-1249,-1927],[-1112,-4223]],[[18260,29035],[-1529,-3180],[-425,385],[873,3549],[-1249,-3276],[-1825,-96],[-520,1092]],[[13472,29356],[1457,112],[569,2361],[392,-1975],[448,1686],[1369,722],[-648,1269],[128,-1301],[-737,-192],[0,1622],[841,915],[-448,803],[1136,273],[24,-1253],[-664,-257],[-64,-819],[528,643],[585,-1173],[104,1687],[880,273],[-144,513],[-480,-192],[-56,353],[1080,-128],[345,1332]],[[20781,36871],[-160,-1686]],[[18972,39168],[-8,64],[80,-241],[-40,16],[-32,161]],[[20005,46764],[16,16]],[[20005,46764],[16,16]],[[20021,46780],[1016,-611],[-240,-1943],[-176,1863],[-216,-433],[256,-1783],[512,980],[224,-900],[2666,2891],[488,1943],[-336,-2762]],[[24063,45752],[-896,-835],[-8,-1654]],[[22798,40581],[56,-899]],[[22854,39682],[-2073,-2811]],[[20781,36871],[-664,-241]],[[20117,36630],[-1609,2233],[784,16],[152,1284],[553,-947],[312,321],[-112,353],[-96,-96],[-176,434],[960,2296],[-424,1140],[-753,643],[337,-1671],[-361,1044],[-872,-1140],[632,1574],[-640,64],[-809,-1172],[617,1461],[-1225,-963],[-472,-1960],[-601,691],[425,-305],[-105,1879],[601,1670],[-176,-1397],[480,-177],[584,851],[-712,-738],[-48,1236],[2441,1670],[-512,-1574],[681,884],[24,-1446],[240,-32],[-232,2008]],[[25752,50634],[96,32],[24,-80],[-104,-16],[-16,64]],[[25760,55114],[384,0],[-40,-1124],[-480,418],[136,706]],[[25752,50634],[-416,-177],[32,-1188],[-232,289],[-24,-1333],[-296,-1349],[-289,-225],[313,2955],[-1297,1943],[-649,-401],[-488,225],[168,417],[344,-530],[617,321],[8,273],[-769,-176],[-504,1991],[889,-1253],[-104,1863],[1408,-1397],[321,2361],[200,-1638],[200,995],[464,-257],[-808,-1429],[-128,-2393],[1040,113]],[[22798,40581],[361,2682]],[[23159,43263],[680,-241],[-584,947],[408,643],[704,-466],[-304,1606]],[[24063,45752],[152,273]],[[24215,46025],[969,-1044],[88,-1622],[-1209,-112],[569,-1381],[-753,337],[-1081,-1622]],[[25440,47037],[1257,-1173],[-1417,-369],[945,-129],[-161,-1766],[-1505,2296],[881,1141]],[[18828,50441],[128,-1397],[-424,674],[-80,-851],[-393,1317],[769,257]],[[25440,24667],[-48,0],[-48,64],[96,-48],[0,-16]],[[27041,26754],[96,-4368],[-1609,1012],[304,1413],[-616,948],[1129,-498],[-641,867]],[[30011,31588],[0,80],[24,16],[0,-112],[-24,16]],[[28026,30127],[-449,2408],[769,-1381],[1473,1879],[1265,3822],[1865,-530],[400,498],[96,386],[168,208],[96,-1284],[-2810,-241],[-816,-2184],[800,337],[-40,-1012],[-336,-610],[-888,-273],[352,-723],[-657,739],[-832,-2136]],[[25120,26770],[-16,145]],[[26409,29918],[-96,144],[224,177],[-56,-321],[-72,0]],[[13472,29356],[113,-1847]],[[13585,27509],[-8,-1060],[-777,723],[-1369,-1430]],[[10511,28023],[216,3212],[744,-1879],[489,947],[-841,1799],[624,273],[-24,-1172],[152,-97],[665,2152],[760,-321],[-496,-2329],[672,-1252]],[[14337,32632],[712,-1092],[-1048,-707],[424,835],[-568,-690],[-224,931],[704,723]],[[16018,35538],[-48,81],[16,64],[48,-80],[-16,-65]],[[16018,35538],[16,-32],[-72,-48],[0,-80],[-288,-64],[-208,1268],[408,1173],[600,-514],[-456,-1703]],[[25992,11273],[505,-32],[80,-2858],[584,1268],[328,-1332],[833,963],[224,1654],[16,-1301],[1409,1670],[-248,-706],[640,-193],[-416,-385],[-32,-321],[1000,-177],[-2761,-6022],[-545,626],[177,-1622],[-953,-2505],[384,2104],[-1008,2071],[2305,1895],[-1497,1349],[296,81],[-16,513],[-1633,-144],[432,1558],[-664,995],[560,851]],[[34069,10390],[497,-1831],[-561,-2039],[1137,-2473],[-1665,899],[-368,-2650],[-160,2233],[-1041,-691],[232,1028],[-808,739],[48,-306],[-16,-256],[-368,-739],[-32,2906],[600,-513],[-568,2730],[1328,-3260],[-64,1766],[1841,594],[-32,1863]],[[29555,14501],[-8,0]],[[27906,16011],[-64,-113],[-81,-16],[65,145],[80,-16]],[[29555,14501],[-8,0]],[[29547,14501],[-144,-819],[-817,1413],[-1105,-2119],[-488,1846],[592,-257],[505,819],[-32,402],[-945,1397],[977,-1236],[944,562],[521,-2008]],[[28330,19704],[384,-1750],[-568,-1205],[-625,964],[689,289],[120,1702]],[[39497,7435],[1145,-498],[-1273,-658],[72,-594],[-745,-1397],[329,1766],[-489,787],[961,594]],[[56380,24827],[624,-289],[392,-3276],[-576,1799],[-64,-1574],[-905,835],[72,2618],[457,-113]],[[72654,36020],[488,386],[-2217,-2811],[1929,-2152],[88,-1092],[-2770,2120],[881,-1927],[-1441,530],[-16,-466],[1241,-1076],[-2946,803],[-601,-835],[241,1927],[944,-514],[-184,3116],[2313,-659],[1890,2586],[80,1285],[80,-1221]],[[78826,38012],[1104,-3405],[-104,1574],[497,192],[616,-1878],[-3922,-2473],[112,1991],[560,-1076],[961,899],[-56,1799],[-809,787],[1081,546],[-40,1044]],[[82836,39296],[-520,-144],[32,-884],[560,209],[376,-1991],[-840,-1895],[-200,257],[0,-305],[-32,209],[-360,-418],[-441,-161],[-224,65],[969,963],[-873,2698],[513,-193],[496,2184],[512,-562]],[[80010,33563],[409,-690],[152,-2795],[-312,2088],[-729,-1670],[-912,931],[1392,2136]],[[77097,17183],[184,-209],[24,-1140],[952,803],[-544,-835],[528,-2104],[1169,-803],[8,1558],[48,-1654],[-1305,755],[-1473,2537],[409,1092]],[[79426,39971],[432,-1751],[-856,-305],[-304,1333],[728,723]],[[98318,52432],[1225,-899],[-224,-1381],[-2138,-1044],[328,-1413],[-1056,-1493],[1705,-868],[608,1767],[-560,1686],[1785,-594],[-768,-1333],[-81,-6873],[-2257,2248],[64,3099],[-2882,579],[2386,-723],[-1193,-1012],[712,-1686],[-1577,562],[1794,-883],[-513,-964],[-1361,466],[-312,-610],[1593,-1943],[-1161,-627],[-848,4208],[-1041,-257],[321,915],[-1265,3212],[-1529,530],[568,2264],[745,-1750],[-96,674],[-89,0],[-32,64],[8,49],[1409,2248],[104,-1879],[489,1783],[864,-1606],[1073,963],[-280,723],[936,-691],[265,1590],[936,-787],[1345,1686]],[[82836,39296],[-32,32]],[[82804,39328],[96,1542],[2001,1477],[-96,-2697],[921,-803],[-849,-595],[-1064,1125],[24,-3004],[-432,3421],[-569,-498]],[[89817,57619],[1168,-160],[465,-1349],[-2250,-594],[617,2103]],[[85302,57684],[416,1638],[1337,-3212],[-1825,1253]],[[85718,59322],[-400,851],[368,706],[208,-273],[-176,-1284]],[[92867,52416],[1112,65],[577,-514],[-2290,-466],[601,915]],[[91666,55179],[848,-209],[312,-2184],[-1392,1317],[232,1076]],[[85302,57684],[-72,-321]],[[85230,57363],[-1217,1011],[-24,-1011],[-1249,-306],[-384,3148],[-1089,193],[456,2264],[753,-1397],[304,819],[969,-2698],[656,658],[-176,-1220],[1073,-1140]],[[51416,99501],[177,-1397],[576,1140],[1113,-1750],[-2298,-867],[905,835],[-913,594],[440,1445]],[[1145,6520],[40,353],[40,0],[-64,-353],[-16,0]],[[1145,6520],[1609,-1574],[704,-1927],[-3266,-1831],[560,402],[457,3244],[-392,2232],[328,-546]],[[2586,10936],[-1001,-2746],[272,-1895],[-376,64],[-400,2056],[1505,2521]],[[43059,34639],[208,-289],[-16,-241],[-312,402],[120,128]],[[43059,34639],[-1721,2024],[320,1878],[745,-1059],[32,835],[1585,-257],[-425,-2489],[769,-145],[-1305,-787]],[[46918,43825],[568,-1189],[152,-963],[-985,128],[265,2024]],[[39713,40292],[0,32]],[[39713,40324],[744,401],[-632,579],[32,851],[224,241],[841,-2265],[-801,-1108],[-408,1269]],[[39713,40292],[0,32]],[[11431,25742],[-696,-385],[1024,-514],[-1232,-562],[960,-963],[-872,-595],[-393,1446],[-720,-1783],[-2185,787],[1649,2200],[-1465,-723],[-224,-1365],[-777,996],[1969,1831],[1930,-305],[112,2216]],[[10511,28023],[784,-578],[136,-1703]],[[7965,22193],[1137,-353],[-609,-755],[537,-465],[-601,369],[-488,-674],[736,64],[-1432,-3244],[-241,1815],[545,1846],[344,-578],[72,1975]],[[6292,16782],[328,-996],[-392,-1397],[-921,-1478],[-272,241],[8,305],[-56,81],[40,48],[-24,96],[-24,16],[8,-1124],[-512,0],[688,3292],[136,-1397],[257,-369],[736,2682]],[[24976,28713],[-1185,161],[-136,2136]],[[23655,31010],[-312,963],[888,1269]],[[24231,33242],[1177,530],[-672,-1285],[1048,-1172],[-656,-161],[32,-1108]],[[28066,27027],[56,-112],[-72,-129],[-40,97],[56,144]],[[25136,26578],[0,80]],[[25272,22595],[-8,0]],[[25272,22595],[-8,0]],[[25264,22595],[-336,-1670],[-112,1831],[-721,-1253],[-624,1461],[1601,1012],[200,-1381]],[[25120,26770],[-16,145]],[[25104,26915],[-72,594]],[[25032,27509],[-56,1204]],[[24976,28713],[184,1333]],[[25160,30046],[456,-1204],[801,1076],[-289,-1173]],[[25352,27011],[-232,-241]],[[25136,26578],[0,80]],[[25136,26658],[216,353]],[[25352,27011],[776,1734]],[[26128,28745],[1898,1382]],[[28026,30127],[456,-97]],[[28482,30030],[-696,-1429],[280,-1574],[-1025,-273]],[[27041,26754],[-1337,-626]],[[25704,26128],[-568,450]],[[25144,26529],[8,-80]],[[25144,26529],[8,-80]],[[25152,26449],[-8,80]]]}