{"type":"Topology","objects":{"data":{"geometries":[{"properties":{"name":"\u5c90\u961c\u5e02","pop":1},"type":"Polygon","arcs":[[0]],"id":"feature_00"},{"properties":{"name":"\u5c90\u961c\u5e02","pop":1},"type":"Polygon","arcs":[[1]],"id":"feature_01"},{"properties":{"name":"\u5c90\u961c\u5e02","pop":1},"type":"Polygon","arcs":[[2]],"id":"feature_02"},{"properties":{"name":"\u5c90\u961c\u5e02","pop":1},"type":"Polygon","arcs":[[-55,3,-46,4,-51,5]],"id":"feature_03"},{"properties":{"name":"\u5c90\u961c\u5e02","pop":2},"type":"Polygon","arcs":[[6]],"id":"feature_04"},{"properties":{"name":"\u5c90\u961c\u5e02","pop":3},"type":"Polygon","arcs":[[7]],"id":"feature_05"},{"properties":{"name":"\u5c90\u961c\u5e02","pop":3},"type":"Polygon","arcs":[[8]],"id":"feature_06"},{"properties":{"name":"\u5c90\u961c\u5e02","pop":4},"type":"Polygon","arcs":[[9]],"id":"feature_07"},{"properties":{"name":"\u5c90\u961c\u5e02","pop":5},"type":"Polygon","arcs":[[10]],"id":"feature_08"},{"properties":{"name":"\u5927\u57a3\u5e02","pop":1},"type":"Polygon","arcs":[[11]],"id":"feature_09"},{"properties":{"name":"\u5927\u57a3\u5e02","pop":1},"type":"Polygon","arcs":[[12]],"id":"feature_10"},{"properties":{"name":"\u5927\u57a3\u5e02","pop":1},"type":"Polygon","arcs":[[13]],"id":"feature_11"},{"properties":{"name":"\u9ad8\u5c71\u5e02","pop":1},"type":"Polygon","arcs":[[14]],"id":"feature_12"},{"properties":{"name":"\u9ad8\u5c71\u5e02","pop":1},"type":"Polygon","arcs":[[15]],"id":"feature_13"},{"properties":{"name":"\u591a\u6cbb\u898b\u5e02","pop":1},"type":"Polygon","arcs":[[16]],"id":"feature_14"},{"properties":{"name":"\u591a\u6cbb\u898b\u5e02","pop":2},"type":"Polygon","arcs":[[17]],"id":"feature_15"},{"properties":{"name":"\u591a\u6cbb\u898b\u5e02","pop":3},"type":"Polygon","arcs":[[18]],"id":"feature_16"},{"properties":{"name":"\u95a2\u5e02","pop":1},"type":"Polygon","arcs":[[19]],"id":"feature_17"},{"properties":{"name":"\u95a2\u5e02","pop":1},"type":"Polygon","arcs":[[20]],"id":"feature_18"},{"properties":{"name":"\u4e2d\u6d25\u5ddd\u5e02","pop":1},"type":"Polygon","arcs":[[21]],"id":"feature_19"},{"properties":{"name":"\u745e\u6d6a\u5e02","pop":1},"type":"Polygon","arcs":[[22]],"id":"feature_20"},{"properties":{"name":"\u7fbd\u5cf6\u5e02","pop":1},"type":"Polygon","arcs":[[23]],"id":"feature_21"},{"properties":{"name":"\u6075\u90a3\u5e02","pop":1},"type":"Polygon","arcs":[[24]],"id":"feature_22"},{"properties":{"name":"\u7f8e\u6fc3\u52a0\u8302\u5e02","pop":1},"type":"Polygon","arcs":[[25]],"id":"feature_23"},{"properties":{"name":"\u571f\u5c90\u5e02","pop":1},"type":"Polygon","arcs":[[26]],"id":"feature_24"},{"properties":{"name":"\u571f\u5c90\u5e02","pop":1},"type":"Polygon","arcs":[[27]],"id":"feature_25"},{"properties":{"name":"\u571f\u5c90\u5e02","pop":2},"type":"Polygon","arcs":[[28]],"id":"feature_26"},{"properties":{"name":"\u5404\u52d9\u539f\u5e02","pop":1},"type":"Polygon","arcs":[[29]],"id":"feature_27"},{"properties":{"name":"\u5404\u52d9\u539f\u5e02","pop":2},"type":"Polygon","arcs":[[30]],"id":"feature_28"},{"properties":{"name":"\u5404\u52d9\u539f\u5e02","pop":2},"type":"Polygon","arcs":[[31]],"id":"feature_29"},{"properties":{"name":"\u5404\u52d9\u539f\u5e02","pop":2},"type":"Polygon","arcs":[[32]],"id":"feature_30"},{"properties":{"name":"\u5404\u52d9\u539f\u5e02","pop":3},"type":"Polygon","arcs":[[33]],"id":"feature_31"},{"properties":{"name":"\u53ef\u5150\u5e02","pop":1},"type":"Polygon","arcs":[[34]],"id":"feature_32"},{"properties":{"name":"\u53ef\u5150\u5e02","pop":2},"type":"Polygon","arcs":[[35]],"id":"feature_33"},{"properties":{"name":"\u53ef\u5150\u5e02","pop":2},"type":"Polygon","arcs":[[36]],"id":"feature_34"},{"properties":{"name":"\u53ef\u5150\u5e02","pop":3},"type":"Polygon","arcs":[[37]],"id":"feature_35"},{"properties":{"name":"\u745e\u7a42\u5e02","pop":1},"type":"Polygon","arcs":[[38]],"id":"feature_36"},{"properties":{"name":"\u745e\u7a42\u5e02","pop":1},"type":"Polygon","arcs":[[39]],"id":"feature_37"},{"properties":{"name":"\u745e\u7a42\u5e02","pop":1},"type":"Polygon","arcs":[[40]],"id":"feature_38"},{"properties":{"name":"\u745e\u7a42\u5e02","pop":1},"type":"Polygon","arcs":[[41]],"id":"feature_39"},{"properties":{"name":"\u745e\u7a42\u5e02","pop":1},"type":"Polygon","arcs":[[42]],"id":"feature_40"},{"properties":{"name":"\u98db\u9a28\u5e02","pop":1},"type":"Polygon","arcs":[[43]],"id":"feature_41"},{"properties":{"name":"\u5c90\u5357\u753a","pop":1},"type":"Polygon","arcs":[[-49,44]],"id":"feature_42"},{"properties":{"name":"\u5c90\u5357\u753a","pop":1},"type":"Polygon","arcs":[[45,46]],"id":"feature_43"},{"properties":{"name":"\u7b20\u677e\u753a","pop":1},"type":"Polygon","arcs":[[47,48,49,50]],"id":"feature_44"},{"properties":{"name":"\u5782\u4e95\u753a","pop":1},"type":"Polygon","arcs":[[51]],"id":"feature_45"},{"properties":{"name":"\u5782\u4e95\u753a","pop":1},"type":"Polygon","arcs":[[52]],"id":"feature_46"},{"properties":{"name":"\u795e\u6238\u753a","pop":1},"type":"Polygon","arcs":[[53]],"id":"feature_47"},{"properties":{"name":"\u5317\u65b9\u753a","pop":1},"type":"Polygon","arcs":[[54,55]],"id":"feature_48"}],"type":"GeometryCollection"}},"bbox":[136.5129,35.3041,137.5129,36.243],"transform":{"scale":[1.000010000100001e-05,9.389093890938948e-06],"translate":[136.5129,35.3041]},"arcs":[[[19650,9969],[-30,75],[40,0],[-10,-75]],[[22500,12866],[120,-43],[70,-10],[-80,-43],[-110,96]],[[22290,13196],[40,85],[50,-21],[-30,-74],[-60,10]],[[18550,15252],[710,1161],[1130,-2109],[1050,181],[1140,1225],[2130,287],[720,1257],[1120,-43],[340,-1075],[1080,213],[-760,-1012],[1060,117],[270,-990],[-2200,-11],[-1350,-2151],[4410,-171],[720,586],[-730,543],[760,85],[70,-2311],[-3370,160],[-70,-597],[3600,-628],[-180,-692],[-1780,213]],[[25560,8947],[-570,-1023]],[[24430,7700],[-1220,906],[630,586],[-1650,-96],[780,1193],[-2000,10],[550,-820],[-970,-1054],[-350,575],[590,-139],[10,362],[-1280,1055],[600,224],[-1320,-43],[1270,1448],[3420,1034],[-4910,1150]],[[19930,17723],[420,138],[2370,-1800],[-3150,703],[-580,927],[940,32]],[[26220,17393],[60,-107],[-160,-128],[10,245],[90,-10]],[[26220,17393],[-330,2034],[440,-373],[560,873],[620,-202],[-510,-1257],[1820,43],[-2600,-1118]],[[35360,16988],[920,-256],[-560,-820],[-1650,11],[960,532],[-570,490],[900,43]],[[21800,8244],[1000,159],[60,-639],[440,607],[-260,-713],[780,-320],[-2270,-138],[250,1044]],[[7590,7615],[-1680,-138],[-570,1853],[580,-554],[1000,1065],[1800,-234],[-10,-735],[-1170,266],[-290,-767],[-1020,565],[1360,-1321]],[[7590,7615],[1260,1129],[250,-32],[-130,-362],[520,-660],[580,2386],[580,-1481],[920,245],[-180,-2119],[1140,415],[-390,-831],[1560,0],[-620,788],[760,203],[680,-1385],[-1320,85],[-1080,-873],[430,-799],[-1100,373],[140,-628],[-1750,-682],[-1330,607],[800,458],[-780,1214],[-330,-639],[-1300,522],[310,703],[1270,-426],[320,1480],[-1210,309]],[[10070,10076],[-70,202],[140,-202],[-70,0]],[[72199,89370],[-170,458],[150,181],[290,-437],[-270,-202]],[[72199,89370],[1490,766],[-210,671],[-1220,-340],[900,862],[1830,-404],[-60,-1236],[1330,373],[-1090,-778],[1300,-979],[-1430,916],[-620,-789],[760,-202],[380,-2056],[-470,693],[70,-863],[-360,117],[-690,1630],[-610,-639],[-320,1693],[-1760,-458],[-220,1023],[1000,0]],[[58359,7029],[1270,192],[1090,-926],[-1870,-501],[170,-1267],[3430,-352],[-380,-745],[1550,-288],[-380,-1225],[-260,671],[-1310,128],[2190,-1821],[-1690,703],[-500,-714],[-530,-85],[320,1384],[-2500,331],[330,1214],[-900,-277],[1200,628],[-60,224],[-1620,-171],[-190,799],[1170,192],[-540,554],[640,1044],[-940,-160],[150,-650],[-1000,820],[1160,298]],[[64539,1587],[680,-149],[-680,-874],[-990,810],[990,213]],[[60179,2056],[650,-437],[-340,-746],[-1040,118],[730,1065]],[[39450,20268],[-130,-106],[-20,213],[80,-75],[70,-32]],[[39980,20140],[500,-713],[1010,117],[-1430,1022],[3600,-1075],[-1740,-437],[630,-405],[-680,-617],[650,-43],[-840,-352],[-2170,1215],[240,-22],[60,618],[-1640,-21],[130,799],[1680,-86]],[[99189,21301],[790,-1374],[-1910,-639],[-470,629],[1590,1384]],[[74109,7061],[950,-724],[-2040,-543],[-350,767],[1440,500]],[[19520,3760],[120,-1001],[1110,766],[790,-223],[-750,-1396],[-870,501],[210,-1118],[-840,426],[730,-1715],[-1540,224],[340,1235],[-650,565],[-890,-576],[1630,1257],[-930,618],[1540,437]],[[90649,16679],[640,-394],[-830,85],[700,-543],[-700,-458],[-2050,692],[2240,618]],[[51309,15699],[560,-415],[-710,-256],[910,-128],[-590,-820],[-2369,-223],[1129,1267],[-1119,-128],[-80,256],[2269,447]],[[68739,6092],[-10,149],[410,-213],[-300,-191],[-100,255]],[[68739,6092],[-1010,-1289],[-1310,171],[1060,-1172],[-1470,32],[540,1853],[-830,288],[1930,1608],[-360,501],[510,-171],[10,-692],[940,128],[-860,-1299],[850,42]],[[67789,2876],[850,-746],[-720,0],[760,-362],[-440,-703],[700,-138],[-1670,-778],[200,1289],[-970,-288],[1290,1726]],[[35080,12525],[1450,-745],[-490,-852],[630,479],[880,-256],[-730,-362],[560,-554],[2220,490],[1520,-447],[-1440,-32],[0,-1310],[-1610,192],[340,532],[-110,565],[-190,0],[-500,-1119],[-3620,-724],[-600,1363],[-2720,-21],[350,1491],[3020,-351],[-190,692],[1230,969]],[[41900,9351],[-10,-21],[-40,21],[10,11],[40,-11]],[[41860,9362],[-230,74],[60,107],[200,-43],[-30,-138]],[[41900,9351],[840,756],[-220,1215],[1350,862],[-360,-1288],[970,42],[-750,-1257],[-1830,-330]],[[42090,11588],[190,-841],[-1990,255],[30,139],[1770,447]],[[53729,14634],[620,-426],[-1410,-383],[1380,53],[-1590,-213],[-750,-1193],[-550,394],[-820,-809],[660,1310],[-1529,-320],[3989,1587]],[[54399,12642],[-950,-362],[-440,341],[1150,746],[240,-725]],[[54399,12642],[1430,980],[-660,-628],[2770,-874],[-2680,533],[-420,-714],[-440,703]],[[59059,8872],[1580,-639],[140,-639],[-630,-575],[-1430,1289],[340,564]],[[17230,10054],[30,-106],[-190,10],[0,96],[160,0]],[[17230,10054],[550,671],[1110,-628],[-160,-1981],[-560,564],[-310,-788],[-1500,224],[650,458],[-530,373],[1030,85],[140,660],[-1090,21],[670,341]],[[17360,10704],[-380,32],[-90,117],[370,0],[100,-149]],[[17040,11588],[0,-43],[-120,0],[0,43],[120,0]],[[17780,10725],[-920,330],[-400,586],[1570,-192],[-250,-724]],[[66929,99807],[1460,-852],[-140,-639],[-1310,288],[-520,1161],[510,42]],[[25240,7658],[310,628],[-80,-479],[670,-128],[110,-309],[-570,117]],[[25560,8947],[1630,1256],[1230,-713]],[[28420,9490],[-550,-810],[230,916],[-1200,11],[340,-682],[-1450,-735],[-230,757]],[[24990,7924],[250,-266]],[[25240,7658],[440,-171]],[[25680,7487],[-2040,-2396],[-330,1246],[1180,160],[-600,490],[540,713]],[[24430,7700],[560,224]],[[1230,7519],[-190,54],[0,32],[190,-22],[0,-64]],[[1230,7519],[-270,1172],[860,-1342],[1470,501],[-590,-671],[840,-182],[-800,-223],[1190,-724],[-710,-448],[30,309],[-1220,1118],[-520,-308],[860,-128],[-990,-522],[-1350,703],[1200,745]],[[9870,13920],[950,-1363],[-1370,-202],[-210,-980],[-830,692],[1130,1001],[-790,1481],[1120,-629]],[[18550,15252],[30,-1161]],[[18580,14091],[-470,-1161],[-710,-224],[340,831],[-1330,1033],[2140,682]]]}