{"type":"Topology","objects":{"data":{"geometries":[{"properties":{"name":"\u5bae\u5d0e\u5e02","pop":1},"type":"Polygon","arcs":[[0]],"id":"feature_00"},{"properties":{"name":"\u5bae\u5d0e\u5e02","pop":1},"type":"Polygon","arcs":[[1]],"id":"feature_01"},{"properties":{"name":"\u5bae\u5d0e\u5e02","pop":1},"type":"Polygon","arcs":[[2]],"id":"feature_02"},{"properties":{"name":"\u5bae\u5d0e\u5e02","pop":2},"type":"Polygon","arcs":[[3]],"id":"feature_03"},{"properties":{"name":"\u5bae\u5d0e\u5e02","pop":3},"type":"Polygon","arcs":[[4]],"id":"feature_04"},{"properties":{"name":"\u5bae\u5d0e\u5e02","pop":4},"type":"Polygon","arcs":[[5]],"id":"feature_05"},{"properties":{"name":"\u5bae\u5d0e\u5e02","pop":4},"type":"Polygon","arcs":[[6]],"id":"feature_06"},{"properties":{"name":"\u5bae\u5d0e\u5e02","pop":4},"type":"Polygon","arcs":[[7]],"id":"feature_07"},{"properties":{"name":"\u5bae\u5d0e\u5e02","pop":5},"type":"Polygon","arcs":[[8]],"id":"feature_08"},{"properties":{"name":"\u90fd\u57ce\u5e02","pop":1},"type":"Polygon","arcs":[[9]],"id":"feature_09"},{"properties":{"name":"\u5ef6\u5ca1\u5e02","pop":1},"type":"Polygon","arcs":[[10]],"id":"feature_10"},{"properties":{"name":"\u5ef6\u5ca1\u5e02","pop":1},"type":"Polygon","arcs":[[11]],"id":"feature_11"},{"properties":{"name":"\u5ef6\u5ca1\u5e02","pop":1},"type":"Polygon","arcs":[[12]],"id":"feature_12"},{"properties":{"name":"\u65e5\u5357\u5e02","pop":1},"type":"Polygon","arcs":[[13]],"id":"feature_13"},{"properties":{"name":"\u65e5\u5357\u5e02","pop":1},"type":"Polygon","arcs":[[14]],"id":"feature_14"},{"properties":{"name":"\u5c0f\u6797\u5e02","pop":1},"type":"Polygon","arcs":[[15]],"id":"feature_15"},{"properties":{"name":"\u5c0f\u6797\u5e02","pop":1},"type":"Polygon","arcs":[[16]],"id":"feature_16"},{"properties":{"name":"\u65e5\u5411\u5e02","pop":1},"type":"Polygon","arcs":[[17]],"id":"feature_17"},{"properties":{"name":"\u65e5\u5411\u5e02","pop":1},"type":"Polygon","arcs":[[18]],"id":"feature_18"},{"properties":{"name":"\u897f\u90fd\u5e02","pop":1},"type":"Polygon","arcs":[[19]],"id":"feature_19"},{"properties":{"name":"\u897f\u90fd\u5e02","pop":1},"type":"Polygon","arcs":[[20]],"id":"feature_20"},{"properties":{"name":"\u9ad8\u934b\u753a","pop":1},"type":"Polygon","arcs":[[21]],"id":"feature_21"},{"properties":{"name":"\u9ad8\u934b\u753a","pop":1},"type":"Polygon","arcs":[[22]],"id":"feature_22"},{"properties":{"name":"\u9580\u5ddd\u753a","pop":1},"type":"Polygon","arcs":[[23]],"id":"feature_23"}],"type":"GeometryCollection"}},"bbox":[130.9589,31.5772,131.6967,32.6165],"transform":{"scale":[7.378073780737737e-06,1.0393103931039319e-05],"translate":[130.9589,31.5772]},"arcs":[[[60598,29038],[-284,29],[-122,68],[542,48],[-136,-145]],[[64827,34821],[27,202],[177,-58],[-14,-134],[-190,-10]],[[64827,34821],[475,-635],[1667,1164],[-122,-1895],[-1545,250],[1640,-1289],[-719,-635],[1315,471],[122,-847],[-2426,-1068],[1355,-510],[-135,-779],[1924,10],[-4052,-732],[-68,-1991],[-908,-347],[-624,491],[868,510],[-1925,298],[1450,48],[1247,2079],[814,-376],[691,655],[-1830,298],[-474,-1155],[-3606,-721],[-1626,462],[-352,712],[2236,-712],[1098,1886],[-2819,1164],[-3199,-491],[230,741],[1844,-125],[-339,1154],[1843,337],[-610,1251],[2481,231],[555,904],[1722,-481],[2209,2406],[81,-241],[475,-58],[-55,-86],[68,-67],[68,0],[-1288,-1126],[637,-760],[-908,259],[-122,-221],[637,-433]],[[69192,44125],[1585,-587],[-691,-490],[1017,-760],[-1573,-1174],[624,904],[-1654,635],[827,39],[-135,1433]],[[66833,39998],[1721,-58],[-1124,-1097],[-759,558],[-665,-462],[827,1059]],[[61561,23968],[0,-68],[447,58],[502,-144],[-963,-135],[-474,202],[488,87]],[[61561,23968],[0,29],[176,-20],[-14,-19],[-162,10]],[[62510,23843],[-190,616],[1708,336],[-678,-904],[-840,-48]],[[58416,27403],[1640,-587],[-1829,-1020],[-868,1511],[1057,96]],[[18514,16338],[800,-934],[-2263,-77],[2385,-144],[-895,-212],[651,-856],[-867,-1164],[-1546,731],[-3008,-673],[-4649,1000],[1707,1742],[2603,-68],[-2630,-1164],[2521,-385],[1247,2261],[3944,-57]],[[97654,92311],[1152,-1751],[-1274,-645],[-1192,1578],[1314,818]],[[97492,98633],[-122,-116],[-41,10],[13,106],[150,0]],[[97654,92311],[-705,-221],[-460,1260],[-1247,347],[1707,539],[-379,866],[-2453,28],[1558,1097],[-2643,-654],[719,-625],[-2819,250],[406,1308],[5218,260],[-1789,953],[949,952],[1911,-269],[-2006,1328],[339,269],[3538,-1568],[-1749,-212],[1315,-664],[-2399,-1087],[3334,-19],[-2629,-934],[650,-693],[1125,1107],[840,58],[-1612,-1251],[-719,-2425]],[[60463,1116],[217,77],[339,-115],[40,-241],[-596,279]],[[60463,1116],[-759,29],[1138,-558],[163,-568],[-1450,116],[501,615],[-772,-279],[-2562,1444],[-1125,1481],[1234,356],[1992,-1654],[-854,-279],[1057,-636],[217,655],[1247,-96],[-27,-626]],[[3104,39603],[718,-539],[-352,-231],[-204,20],[-162,750]],[[3104,39603],[-2020,96],[-1070,1347],[4066,-548],[474,-943],[-1450,48]],[[91785,79774],[163,-19],[109,-183],[-326,48],[54,154]],[[91785,79774],[-2249,-693],[-41,299],[786,115],[366,491],[-840,-299],[-1193,1444],[1057,1299],[1057,-10],[-366,876],[2223,-164],[-908,-1270],[4812,29],[-2833,-1492],[-1708,472],[-163,-1097]],[[59731,50216],[461,-10],[-569,-519],[-122,404],[230,125]],[[59731,50216],[-542,568],[1938,1395],[-27,-1809],[-1369,-154]],[[73813,53892],[82,-212],[-407,-135],[-41,375],[366,-28]],[[73813,53892],[-488,259],[-13,501],[4622,-2194],[-2711,491],[-637,-645],[-773,1588]],[[93656,87443],[1342,-1626],[-2006,-318],[718,645],[-1437,654],[1383,645]]]}