{"type":"Topology","objects":{"data":{"geometries":[{"properties":{"name":"\u5927\u5206\u5e02","pop":1},"type":"Polygon","arcs":[[0],[1],[2]],"id":"feature_00"},{"properties":{"name":"\u5927\u5206\u5e02","pop":2},"type":"Polygon","arcs":[[3]],"id":"feature_01"},{"properties":{"name":"\u5927\u5206\u5e02","pop":3},"type":"Polygon","arcs":[[4]],"id":"feature_02"},{"properties":{"name":"\u5927\u5206\u5e02","pop":4},"type":"Polygon","arcs":[[5]],"id":"feature_03"},{"properties":{"name":"\u5927\u5206\u5e02","pop":5},"type":"Polygon","arcs":[[6]],"id":"feature_04"},{"properties":{"name":"\u5225\u5e9c\u5e02","pop":1},"type":"Polygon","arcs":[[7]],"id":"feature_05"},{"properties":{"name":"\u5225\u5e9c\u5e02","pop":1},"type":"Polygon","arcs":[[8]],"id":"feature_06"},{"properties":{"name":"\u4e2d\u6d25\u5e02","pop":1},"type":"Polygon","arcs":[[9]],"id":"feature_07"},{"properties":{"name":"\u65e5\u7530\u5e02","pop":1},"type":"Polygon","arcs":[[10]],"id":"feature_08"},{"properties":{"name":"\u65e5\u7530\u5e02","pop":1},"type":"Polygon","arcs":[[11]],"id":"feature_09"},{"properties":{"name":"\u4f50\u4f2f\u5e02","pop":1},"type":"Polygon","arcs":[[12]],"id":"feature_10"},{"properties":{"name":"\u81fc\u6775\u5e02","pop":1},"type":"Polygon","arcs":[[13]],"id":"feature_11"},{"properties":{"name":"\u6d25\u4e45\u898b\u5e02","pop":1},"type":"Polygon","arcs":[[14]],"id":"feature_12"}],"type":"GeometryCollection"}},"bbox":[130.9096,32.9449,131.9272,33.6198],"transform":{"scale":[1.0176101761017483e-05,6.749067490674916e-06],"translate":[130.9096,32.9449]},"arcs":[[[76660,49548],[383,-3675],[855,-533],[-1700,-5542],[-1169,608],[570,-623],[-1435,-533],[-1219,1037],[-39,-1274],[-629,-163],[442,711],[-294,2445],[-246,355],[717,1364],[-1228,-563],[373,-430],[99,-800],[-659,1081],[482,-1822],[-1052,-1437],[433,-460],[-20,-459],[-786,919],[-1425,-934],[29,756],[-756,-1423],[973,-2044],[-128,1644],[1297,-1496],[177,-697],[-1199,0],[619,-1985],[-1759,178],[-29,637],[579,207],[511,1038],[-177,103],[-2142,-2000],[-186,2741],[1267,1156],[-5120,2178],[3754,1408],[-285,1555],[-285,-1052],[-1405,208],[1946,1659],[-953,815],[-718,-1200],[-334,44],[511,1704],[1877,-326],[-128,638],[-452,133],[0,15],[1415,-267],[629,593],[-874,429],[1483,815],[541,-1022],[481,1348],[3391,1926],[550,-4015],[1690,-1052],[-570,1304],[1602,-59],[-1159,4104],[884,30]],[[69388,42332],[-324,-1882],[1552,415],[-560,281],[344,1141],[-1012,45]],[[67560,40761],[1150,267],[-49,741],[-541,504],[-560,-1512]],[[79215,45858],[2801,-1763],[88,-593],[-1769,1319],[777,-1467],[-1897,-385],[658,1200],[-1660,934],[29,889],[973,-134]],[[65624,38613],[993,-534],[-983,-2341],[-1110,-44],[638,652],[-127,266],[-747,-874],[1336,2875]],[[63217,35679],[245,-607],[-1886,-1082],[363,1363],[1278,326]],[[82900,43710],[1091,-726],[-1287,-1260],[-580,1452],[776,534]],[[55964,50348],[40,-30],[-69,-44],[0,59],[29,15]],[[55964,50348],[-1513,755],[-216,2430],[1798,2415],[855,-1363],[413,2060],[-1179,593],[1395,1407],[1700,-11098],[-2584,1097],[-669,1704]],[[27712,99955],[255,-519],[-638,-1126],[1877,637],[-954,-2045],[1927,-1259],[-610,341],[-353,-1230],[117,1319],[-923,148],[157,-2119],[-757,1245],[-737,-1393],[403,-697],[-904,1541],[-265,2652],[1405,2505]],[[491,55489],[0,-133],[-491,222],[334,148],[157,-237]],[[491,55489],[-19,1156],[1238,-326],[1435,2148],[324,-3289],[295,874],[747,237],[-1268,-1733],[1081,-2164],[-1396,1586],[-393,-1023],[-855,934],[276,1126],[-1612,-326],[147,800]],[[97660,5127],[1179,-1571],[256,993],[904,-222],[-413,-2564],[-727,830],[-364,-2000],[-1562,-593],[255,815],[-2525,1556],[540,622],[1337,-1319],[1120,3453]],[[86457,28730],[20,-1615],[1170,444],[-541,-1081],[1258,15],[108,533],[324,15],[-393,-934],[472,549],[216,-401],[-1061,-1496],[-2300,667],[384,918],[-511,-44],[-325,1259],[777,-711],[402,1882]],[[92560,21899],[1631,-1378],[-1297,-696],[1179,-148],[325,-2727],[-708,830],[-1228,-978],[1061,2504],[-747,-385],[-1012,993],[1484,267],[-1160,1259],[472,459]]]}