{"type":"Topology","objects":{"data":{"geometries":[{"properties":{"name":"\u9ad8\u677e\u5e02","pop":1},"type":"Polygon","arcs":[[0]],"id":"feature_00"},{"properties":{"name":"\u9ad8\u677e\u5e02","pop":1},"type":"Polygon","arcs":[[1]],"id":"feature_01"},{"properties":{"name":"\u9ad8\u677e\u5e02","pop":1},"type":"Polygon","arcs":[[2]],"id":"feature_02"},{"properties":{"name":"\u9ad8\u677e\u5e02","pop":1},"type":"Polygon","arcs":[[3]],"id":"feature_03"},{"properties":{"name":"\u4e38\u4e80\u5e02","pop":1},"type":"Polygon","arcs":[[-13,4]],"id":"feature_04"},{"properties":{"name":"\u5742\u51fa\u5e02","pop":1},"type":"Polygon","arcs":[[5]],"id":"feature_05"},{"properties":{"name":"\u5742\u51fa\u5e02","pop":1},"type":"Polygon","arcs":[[6]],"id":"feature_06"},{"properties":{"name":"\u5584\u901a\u5bfa\u5e02","pop":1},"type":"Polygon","arcs":[[7]],"id":"feature_07"},{"properties":{"name":"\u89b3\u97f3\u5bfa\u5e02","pop":1},"type":"Polygon","arcs":[[8]],"id":"feature_08"},{"properties":{"name":"\u89b3\u97f3\u5bfa\u5e02","pop":1},"type":"Polygon","arcs":[[9]],"id":"feature_09"},{"properties":{"name":"\u89b3\u97f3\u5bfa\u5e02","pop":1},"type":"Polygon","arcs":[[10]],"id":"feature_10"},{"properties":{"name":"\u3055\u306c\u304d\u5e02","pop":1},"type":"Polygon","arcs":[[11]],"id":"feature_11"},{"properties":{"name":"\u5b87\u591a\u6d25\u753a","pop":1},"type":"Polygon","arcs":[[12,13]],"id":"feature_12"},{"properties":{"name":"\u591a\u5ea6\u6d25\u753a","pop":1},"type":"Polygon","arcs":[[14]],"id":"feature_13"},{"properties":{"name":"\u591a\u5ea6\u6d25\u753a","pop":1},"type":"Polygon","arcs":[[15]],"id":"feature_14"},{"properties":{"name":"\u591a\u5ea6\u6d25\u753a","pop":1},"type":"Polygon","arcs":[[16]],"id":"feature_15"}],"type":"GeometryCollection"}},"bbox":[133.6316,34.1133,134.1917,34.3626],"transform":{"scale":[5.6010560105601614e-06,2.493024930249283e-06],"translate":[133.6316,34.1133]},"arcs":[[[74200,71520],[625,-281],[-71,-722],[-375,281],[-179,722]],[[81395,78018],[1571,280],[483,-3810],[-1839,963],[-215,2567]],[[71219,82189],[-197,81],[72,361],[178,40],[-53,-482]],[[81395,78018],[-2499,2286],[-1196,-3008],[-215,2487],[-1196,601],[-518,-5816],[-3088,-6338],[3535,1284],[-1339,-5255],[-2732,1805],[339,1966],[-3428,-2407],[233,3369],[3392,-200],[-393,7220],[1357,4533],[-3660,-1204],[-411,1685],[4428,6739],[-1910,-80],[-2357,5254],[-1839,-4974],[-2625,3129],[250,-2206],[-607,-1925],[518,6698],[-1732,1484],[2196,121],[482,3369],[732,-3891],[357,3129],[2161,-1123],[-357,-2567],[696,2808],[2267,-2407],[2786,4974],[-804,-2407],[2232,-3129],[750,2367],[-1429,401],[-178,722],[1553,2487],[1214,-201],[-178,-4332],[928,0],[54,4212],[857,-120],[-875,-5897],[1749,2567],[483,-2406],[785,5254],[2553,-6819],[3910,1605],[-1732,-1324],[1232,-3088],[-1089,-2487],[-5927,1083],[-839,-6458],[1124,-3570]],[[32905,76734],[-929,-4653],[1018,2367],[1053,-5696],[-4088,-2086],[-750,-5576],[-964,5335],[-2232,1886],[-232,-2648],[-2518,9186],[1179,2005],[750,-3209],[-1161,-762],[1946,-2326],[-321,2928],[1535,1524],[-2106,2287],[1892,1925],[1018,-6699],[1785,2006],[-1053,4372],[1660,-3851],[696,4012],[375,-2768]],[[39046,76213],[0,-642],[-214,-321],[107,1003],[107,-40]],[[39046,76213],[-1874,2767],[-2304,11031],[3571,7060],[464,-6218],[-3392,-2607],[679,-3369],[2910,2126],[-500,-1966],[589,-40],[196,-2086],[72,-80],[1267,4693],[3357,-6739],[-5035,-4572]],[[27727,48495],[1303,-5054],[-3178,-2647],[-1535,6739],[2160,-1565],[-500,2768],[1750,-241]],[[3374,3249],[-53,-361],[-304,401],[179,321],[178,-361]],[[2428,3851],[571,441],[161,-321],[-161,-602],[-571,482]],[[3374,3249],[90,2086],[-179,-762],[-536,361],[-35,-161],[-322,241],[-589,0],[0,-160],[197,0],[-36,-883],[464,-120],[18,-1123],[-1928,-2728],[-518,4212],[1964,3329],[4142,1404],[428,-883],[-2642,-3930],[982,-1846],[-232,-1283],[-1268,2246]],[[98856,88046],[1143,-3610],[-2357,-1244],[-285,-3730],[-2107,5575],[2642,-40],[-303,2808],[1267,241]],[[32905,76734],[-1447,-441]],[[31458,76293],[643,4332],[1018,-1244],[1535,4172],[2000,-4894],[-3749,-1925]],[[23174,64500],[179,160],[143,-762],[-143,-120],[-179,722]],[[23085,64861],[-107,281],[160,240],[108,-401],[-161,-120]],[[23085,64861],[-803,-2246],[999,-1685],[-625,-1123],[-2785,3650],[-892,-3089],[-1357,3330],[-36,561],[357,-441],[-143,2527],[911,1564],[696,-4011],[643,-321],[714,1765],[-1339,2287],[1143,1363],[2517,-4131]]]}