{"type":"Topology","objects":{"data":{"geometries":[{"properties":{"depth":13},"type":"Polygon","arcs":[[-57,-135,-134,-133,-53,-124,-123,0,1,-14,2,-28,133,-27,3,-139,4,-149,-148,147,-147]],"id":"feature_000"},{"properties":{"depth":13},"type":"Polygon","arcs":[[-40,-84,5,-9,6,-114]],"id":"feature_001"},{"properties":{"depth":13},"type":"Polygon","arcs":[[-98,7,8,9,-83,-89,-93,10,-38,98]],"id":"feature_002"},{"properties":{"depth":13},"type":"Polygon","arcs":[[-126,128,11,-21]],"id":"feature_003"},{"properties":{"depth":13},"type":"Polygon","arcs":[[12,13,14,-110,15,-19]],"id":"feature_004"},{"properties":{"depth":14},"type":"Polygon","arcs":[[16,-26,17,-24,18,19,-127,20,21,-140]],"id":"feature_005"},{"properties":{"depth":14},"type":"Polygon","arcs":[[22,23,24,25,26,133,-134,27]],"id":"feature_006"},{"properties":{"depth":13},"type":"Polygon","arcs":[[-86,28,29,152,-55,-143,30,-45,-94]],"id":"feature_007"},{"properties":{"depth":13},"type":"Polygon","arcs":[[-184,31,176,-176,32]],"id":"feature_008"},{"properties":{"depth":13},"type":"Polygon","arcs":[[188,33]],"id":"feature_009"},{"properties":{"depth":13},"type":"Polygon","arcs":[[157,-180,-159,-158]],"id":"feature_010"},{"properties":{"depth":11},"type":"Polygon","arcs":[[34,-151]],"id":"feature_011"},{"properties":{"depth":11},"type":"Polygon","arcs":[[92,-92,35]],"id":"feature_012"},{"properties":{"depth":11},"type":"Polygon","arcs":[[-88,36]],"id":"feature_013"},{"properties":{"depth":11},"type":"Polygon","arcs":[[98,-99,37,38]],"id":"feature_014"},{"properties":{"depth":11},"type":"Polygon","arcs":[[-81,39,-113,40]],"id":"feature_015"},{"properties":{"depth":11},"type":"Polygon","arcs":[[-103,41,-118,42,43]],"id":"feature_016"},{"properties":{"depth":11},"type":"Polygon","arcs":[[44,45,-95]],"id":"feature_017"},{"properties":{"depth":11},"type":"Polygon","arcs":[[-105,104,-104,46,47,-106]],"id":"feature_018"},{"properties":{"depth":11},"type":"Polygon","arcs":[[-108,48]],"id":"feature_019"},{"properties":{"depth":11},"type":"Polygon","arcs":[[-96,49]],"id":"feature_020"},{"properties":{"depth":11},"type":"Polygon","arcs":[[50,-111]],"id":"feature_021"},{"properties":{"depth":11},"type":"Polygon","arcs":[[51,-52]],"id":"feature_022"},{"properties":{"depth":11},"type":"Polygon","arcs":[[-125,-124,123,52,-132,53]],"id":"feature_023"},{"properties":{"depth":11},"type":"Polygon","arcs":[[-144,54,-163,55]],"id":"feature_024"},{"properties":{"depth":11},"type":"Polygon","arcs":[[-130,56,-146,57,58]],"id":"feature_025"},{"properties":{"depth":11},"type":"Polygon","arcs":[[-161,59]],"id":"feature_026"},{"properties":{"depth":11},"type":"Polygon","arcs":[[-142,60]],"id":"feature_027"},{"properties":{"depth":11},"type":"Polygon","arcs":[[61]],"id":"feature_028"},{"properties":{"depth":11},"type":"Polygon","arcs":[[62]],"id":"feature_029"},{"properties":{"depth":11},"type":"Polygon","arcs":[[63,-168]],"id":"feature_030"},{"properties":{"depth":11},"type":"Polygon","arcs":[[-164,64]],"id":"feature_031"},{"properties":{"depth":11},"type":"Polygon","arcs":[[-175,-69,65]],"id":"feature_032"},{"properties":{"depth":11},"type":"Polygon","arcs":[[155,-156,66]],"id":"feature_033"},{"properties":{"depth":11},"type":"Polygon","arcs":[[-78,67,68,69]],"id":"feature_034"},{"properties":{"depth":11},"type":"Polygon","arcs":[[-80,70]],"id":"feature_035"},{"properties":{"depth":11},"type":"Polygon","arcs":[[-178,-177,71]],"id":"feature_036"},{"properties":{"depth":11},"type":"Polygon","arcs":[[-187,72]],"id":"feature_037"},{"properties":{"depth":11},"type":"Polygon","arcs":[[73,-182,74,-192]],"id":"feature_038"},{"properties":{"depth":11},"type":"Polygon","arcs":[[-190,75]],"id":"feature_039"},{"properties":{"depth":12},"type":"Polygon","arcs":[[76,77,-173,78,79]],"id":"feature_040"},{"properties":{"depth":12},"type":"Polygon","arcs":[[80,81,-90,82,83]],"id":"feature_041"},{"properties":{"depth":12},"type":"Polygon","arcs":[[84,85,86,87]],"id":"feature_042"},{"properties":{"depth":12},"type":"Polygon","arcs":[[88,89,90,91,-93,92]],"id":"feature_043"},{"properties":{"depth":12},"type":"Polygon","arcs":[[93,94,95,96]],"id":"feature_044"},{"properties":{"depth":12},"type":"Polygon","arcs":[[97,-99,98,99]],"id":"feature_045"},{"properties":{"depth":12},"type":"Polygon","arcs":[[100,-121,101,102,103,-105,104,105,106,107,108,109]],"id":"feature_046"},{"properties":{"depth":12},"type":"Polygon","arcs":[[110,111,112,113,114,115,116,117,118,119,120,121,122,123,124]],"id":"feature_047"},{"properties":{"depth":12},"type":"Polygon","arcs":[[125,126,127]],"id":"feature_048"},{"properties":{"depth":12},"type":"Polygon","arcs":[[128,-129]],"id":"feature_049"},{"properties":{"depth":12},"type":"Polygon","arcs":[[129,130,131,132,133,134]],"id":"feature_050"},{"properties":{"depth":12},"type":"Polygon","arcs":[[135,136,137,138,139,140,141]],"id":"feature_051"},{"properties":{"depth":12},"type":"Polygon","arcs":[[142,143,144]],"id":"feature_052"},{"properties":{"depth":12},"type":"Polygon","arcs":[[145,146,-148,147,148,149,150,151]],"id":"feature_053"},{"properties":{"depth":12},"type":"Polygon","arcs":[[-153,152,153,154,-156,155,156,157,158,159,160,161,162]],"id":"feature_054"},{"properties":{"depth":12},"type":"Polygon","arcs":[[163,164,165,-170,166]],"id":"feature_055"},{"properties":{"depth":12},"type":"Polygon","arcs":[[167,168,169,170]],"id":"feature_056"},{"properties":{"depth":12},"type":"Polygon","arcs":[[171,172,173,174]],"id":"feature_057"},{"properties":{"depth":12},"type":"Polygon","arcs":[[175,-177,176,177,178]],"id":"feature_058"},{"properties":{"depth":12},"type":"Polygon","arcs":[[179,180]],"id":"feature_059"},{"properties":{"depth":12},"type":"Polygon","arcs":[[181,182,183,184]],"id":"feature_060"},{"properties":{"depth":12},"type":"Polygon","arcs":[[-189,185,186,187,188]],"id":"feature_061"},{"properties":{"depth":12},"type":"Polygon","arcs":[[189,190,191,192]],"id":"feature_062"},{"properties":{"depth":11},"type":"Polygon","arcs":[[-195,193]],"id":"feature_063"},{"properties":{"depth":12},"type":"Polygon","arcs":[[194,195]],"id":"feature_064"},{"properties":{"depth":11},"type":"Polygon","arcs":[[-252,196]],"id":"feature_065"},{"properties":{"depth":12},"type":"Polygon","arcs":[[-199,197]],"id":"feature_066"},{"properties":{"depth":11},"type":"Polygon","arcs":[[198,199]],"id":"feature_067"},{"properties":{"depth":12},"type":"Polygon","arcs":[[-262,200]],"id":"feature_068"},{"properties":{"depth":12},"type":"Polygon","arcs":[[258]],"id":"feature_069"},{"properties":{"depth":12},"type":"Polygon","arcs":[[-204,201]],"id":"feature_070"},{"properties":{"depth":13},"type":"Polygon","arcs":[[202,-206]],"id":"feature_071"},{"properties":{"depth":11},"type":"Polygon","arcs":[[203,204,205,206]],"id":"feature_072"},{"properties":{"depth":11},"type":"Polygon","arcs":[[207]],"id":"feature_073"},{"properties":{"depth":11},"type":"Polygon","arcs":[[-218,-217,216,-213,-210,-211,-215,208]],"id":"feature_074"},{"properties":{"depth":12},"type":"Polygon","arcs":[[-212,209]],"id":"feature_075"},{"properties":{"depth":13},"type":"Polygon","arcs":[[-216,210,211,212,-217]],"id":"feature_076"},{"properties":{"depth":12},"type":"Polygon","arcs":[[-221,213,214,215,216,217,218]],"id":"feature_077"},{"properties":{"depth":11},"type":"Polygon","arcs":[[-286,219,220,221]],"id":"feature_078"},{"properties":{"depth":12},"type":"Polygon","arcs":[[-246,222,-256,-255,-254,223,-228,254,-227,224]],"id":"feature_079"},{"properties":{"depth":13},"type":"Polygon","arcs":[[225,226,-255,227]],"id":"feature_080"},{"properties":{"depth":11},"type":"Polygon","arcs":[[-284,228]],"id":"feature_081"},{"properties":{"depth":11},"type":"Polygon","arcs":[[229,-236,-235,234,-234]],"id":"feature_082"},{"properties":{"depth":11},"type":"Polygon","arcs":[[-238,230]],"id":"feature_083"},{"properties":{"depth":12},"type":"Polygon","arcs":[[231,-248,232,233,-235,234,235,236,237,238,-240]],"id":"feature_084"},{"properties":{"depth":11},"type":"Polygon","arcs":[[239,240]],"id":"feature_085"},{"properties":{"depth":12},"type":"Polygon","arcs":[[241,-273,-272,271,-271]],"id":"feature_086"},{"properties":{"depth":12},"type":"Polygon","arcs":[[242,-276]],"id":"feature_087"},{"properties":{"depth":11},"type":"Polygon","arcs":[[243]],"id":"feature_088"},{"properties":{"depth":12},"type":"Polygon","arcs":[[244,-280,-279,278,-278]],"id":"feature_089"},{"properties":{"depth":12},"type":"Polygon","arcs":[[274]],"id":"feature_090"},{"properties":{"depth":11},"type":"Polygon","arcs":[[245,246,247,248]],"id":"feature_091"},{"properties":{"depth":12},"type":"Polygon","arcs":[[249]],"id":"feature_092"},{"properties":{"depth":12},"type":"Polygon","arcs":[[250,251]],"id":"feature_093"},{"properties":{"depth":13},"type":"Polygon","arcs":[[252]],"id":"feature_094"},{"properties":{"depth":11},"type":"Polygon","arcs":[[253,254,255,256]],"id":"feature_095"},{"properties":{"depth":11},"type":"Polygon","arcs":[[-266,257],[258]],"id":"feature_096"},{"properties":{"depth":11},"type":"Polygon","arcs":[[-264,259,-268,260]],"id":"feature_097"},{"properties":{"depth":11},"type":"Polygon","arcs":[[261,262,263,264,265,266,267,268]],"id":"feature_098"},{"properties":{"depth":11},"type":"Polygon","arcs":[[269]],"id":"feature_099"},{"properties":{"depth":11},"type":"Polygon","arcs":[[270,-272,271,272,273],[274]],"id":"feature_100"},{"properties":{"depth":11},"type":"Polygon","arcs":[[275,276,277,-279,278,279,280]],"id":"feature_101"},{"properties":{"depth":11},"type":"Polygon","arcs":[[281]],"id":"feature_102"},{"properties":{"depth":12},"type":"Polygon","arcs":[[282,283,284,285],[286]],"id":"feature_103"},{"properties":{"depth":11},"type":"Polygon","arcs":[[287]],"id":"feature_104"},{"properties":{"depth":11},"type":"Polygon","arcs":[[-300,288]],"id":"feature_105"},{"properties":{"depth":11},"type":"Polygon","arcs":[[289,-306,-305,304,-304,-303,-309,290,291,-312]],"id":"feature_106"},{"properties":{"depth":11},"type":"Polygon","arcs":[[292]],"id":"feature_107"},{"properties":{"depth":11},"type":"Polygon","arcs":[[293]],"id":"feature_108"},{"properties":{"depth":11},"type":"Polygon","arcs":[[294]],"id":"feature_109"},{"properties":{"depth":11},"type":"Polygon","arcs":[[-317,295]],"id":"feature_110"},{"properties":{"depth":11},"type":"Polygon","arcs":[[296]],"id":"feature_111"},{"properties":{"depth":11},"type":"Polygon","arcs":[[297]],"id":"feature_112"},{"properties":{"depth":11},"type":"Polygon","arcs":[[-311,298,299,300]],"id":"feature_113"},{"properties":{"depth":11},"type":"Polygon","arcs":[[-315,301]],"id":"feature_114"},{"properties":{"depth":12},"type":"Polygon","arcs":[[302,303,-305,304,305,306,-319,307,308]],"id":"feature_115"},{"properties":{"depth":12},"type":"Polygon","arcs":[[309,310]],"id":"feature_116"},{"properties":{"depth":12},"type":"Polygon","arcs":[[311,312]],"id":"feature_117"},{"properties":{"depth":12},"type":"Polygon","arcs":[[313,-320,314]],"id":"feature_118"},{"properties":{"depth":12},"type":"Polygon","arcs":[[315,316]],"id":"feature_119"},{"properties":{"depth":13},"type":"Polygon","arcs":[[317,318]],"id":"feature_120"},{"properties":{"depth":13},"type":"Polygon","arcs":[[319,320]],"id":"feature_121"},{"properties":{"depth":11},"type":"Polygon","arcs":[[321],[333],[329],[328],[330],[331],[332]],"id":"feature_122"},{"properties":{"depth":11},"type":"Polygon","arcs":[[322]],"id":"feature_123"},{"properties":{"depth":11},"type":"Polygon","arcs":[[323]],"id":"feature_124"},{"properties":{"depth":11},"type":"Polygon","arcs":[[324]],"id":"feature_125"},{"properties":{"depth":11},"type":"Polygon","arcs":[[325]],"id":"feature_126"},{"properties":{"depth":11},"type":"Polygon","arcs":[[326]],"id":"feature_127"},{"properties":{"depth":11},"type":"Polygon","arcs":[[327]],"id":"feature_128"},{"properties":{"depth":12},"type":"Polygon","arcs":[[328]],"id":"feature_129"},{"properties":{"depth":12},"type":"Polygon","arcs":[[329]],"id":"feature_130"},{"properties":{"depth":12},"type":"Polygon","arcs":[[330]],"id":"feature_131"},{"properties":{"depth":12},"type":"Polygon","arcs":[[331]],"id":"feature_132"},{"properties":{"depth":12},"type":"Polygon","arcs":[[332]],"id":"feature_133"},{"properties":{"depth":12},"type":"Polygon","arcs":[[333]],"id":"feature_134"},{"properties":{"depth":14},"type":"Polygon","arcs":[[-914,915,-949,-948,918,919,-946,923,924,-944,-943,929,930,-941,-940,-536,334,-540,-539,-716,-715,714,-714,-547,743,-743,750,335,-561,336,754,-740,-739,-738,760,761,762,337,-736,-735,-734,-733,-732,769,-427,778,338,629,-630,-629,632,-628,-612,339]],"id":"feature_135"},{"properties":{"depth":14},"type":"Polygon","arcs":[[-699,340,-382,341,689,-694,-463,-601,-479,-478,-577,-480,-393,342,-697,-696,699]],"id":"feature_136"},{"properties":{"depth":14},"type":"Polygon","arcs":[[-583,-582,-464,-578,343]],"id":"feature_137"},{"properties":{"depth":14},"type":"Polygon","arcs":[[-390,344,345]],"id":"feature_138"},{"properties":{"depth":14},"type":"Polygon","arcs":[[-971,-780,-973,781,590,-782,972,779,970]],"id":"feature_139"},{"properties":{"depth":14},"type":"Polygon","arcs":[[-590,-968,787,-970,969]],"id":"feature_140"},{"properties":{"depth":14},"type":"Polygon","arcs":[[-621,346,347,348,349,-594,350,597,351,783,352,-911,786,353,354,810,811,-816,355]],"id":"feature_141"},{"properties":{"depth":14},"type":"Polygon","arcs":[[-573,-477,356,-360,357]],"id":"feature_142"},{"properties":{"depth":14},"type":"Polygon","arcs":[[-897,358,359,360]],"id":"feature_143"},{"properties":{"depth":14},"type":"Polygon","arcs":[[-616,-615,-669,805,806,807,-668,667,-515,-410,-809,-808,-807,-806,-805,-804,-803,-802,-801,361,-406,801,-617]],"id":"feature_144"},{"properties":{"depth":14},"type":"Polygon","arcs":[[362,798,363,364,638,-640,639,640,-664,641,642,-658,643,-654,644,645,-650,646,442,365,702,703,-705,704,705,706,443,773,774,775,776,777,366,-793,367,408,368,369,-806,-805,796]],"id":"feature_145"},{"properties":{"depth":14},"type":"Polygon","arcs":[[-898,370,-881,-866]],"id":"feature_146"},{"properties":{"depth":14},"type":"Polygon","arcs":[[789,790,791,792,793,-794,728,729,-791,730,371]],"id":"feature_147"},{"properties":{"depth":14},"type":"Polygon","arcs":[[-869,-901]],"id":"feature_148"},{"properties":{"depth":14},"type":"Polygon","arcs":[[-870,-903,-868,-637]],"id":"feature_149"},{"properties":{"depth":14},"type":"Polygon","arcs":[[-475,478,-599,372,-883,373,374]],"id":"feature_150"},{"properties":{"depth":14},"type":"Polygon","arcs":[[-875,375,-377]],"id":"feature_151"},{"properties":{"depth":14},"type":"Polygon","arcs":[[376,377,378,379,380,-873,674,-674,-862,-673,677,-672,679,-671]],"id":"feature_152"},{"properties":{"depth":14},"type":"Polygon","arcs":[[381,382]],"id":"feature_153"},{"properties":{"depth":11},"type":"Polygon","arcs":[[-824,383,-474,837,384,-833,-472,-831,-471,-829,-470,-827,385,-825]],"id":"feature_154"},{"properties":{"depth":11},"type":"Polygon","arcs":[[-575,386,-481]],"id":"feature_155"},{"properties":{"depth":11},"type":"Polygon","arcs":[[-467,-580,-466,387,388]],"id":"feature_156"},{"properties":{"depth":11},"type":"Polygon","arcs":[[389,390]],"id":"feature_157"},{"properties":{"depth":11},"type":"Polygon","arcs":[[391,-585,464]],"id":"feature_158"},{"properties":{"depth":11},"type":"Polygon","arcs":[[392,-482,393,394]],"id":"feature_159"},{"properties":{"depth":11},"type":"Polygon","arcs":[[395,-976]],"id":"feature_160"},{"properties":{"depth":11},"type":"Polygon","arcs":[[-840,-483,396]],"id":"feature_161"},{"properties":{"depth":11},"type":"Polygon","arcs":[[-962,-492,397,-953,398,-493]],"id":"feature_162"},{"properties":{"depth":11},"type":"Polygon","arcs":[[-592,-591,399]],"id":"feature_163"},{"properties":{"depth":11},"type":"Polygon","arcs":[[-489,-596,-488,400,401,488]],"id":"feature_164"},{"properties":{"depth":11},"type":"Polygon","arcs":[[-987,989,-986,991,-497,-608,-496,402,-992,403,-989,404]],"id":"feature_165"},{"properties":{"depth":11},"type":"Polygon","arcs":[[-518,-618,-802,405,-498,406]],"id":"feature_166"},{"properties":{"depth":11},"type":"Polygon","arcs":[[-794,-728,549,-726,550,730,407,408,794,409,-514,-667,-513,614,-615,512,666,410,725,411,412]],"id":"feature_167"},{"properties":{"depth":11},"type":"Polygon","arcs":[[615,-616]],"id":"feature_168"},{"properties":{"depth":11},"type":"Polygon","arcs":[[-525,-635,-524,413,414]],"id":"feature_169"},{"properties":{"depth":11},"type":"Polygon","arcs":[[-506,-663,-505,415]],"id":"feature_170"},{"properties":{"depth":11},"type":"Polygon","arcs":[[508,-509]],"id":"feature_171"},{"properties":{"depth":11},"type":"Polygon","arcs":[[416,417,457,691,458]],"id":"feature_172"},{"properties":{"depth":11},"type":"Polygon","arcs":[[-512,418]],"id":"feature_173"},{"properties":{"depth":11},"type":"Polygon","arcs":[[-517,-695,419,420]],"id":"feature_174"},{"properties":{"depth":11},"type":"Polygon","arcs":[[-521,421]],"id":"feature_175"},{"properties":{"depth":11},"type":"Polygon","arcs":[[422,-527]],"id":"feature_176"},{"properties":{"depth":11},"type":"Polygon","arcs":[[525,-526]],"id":"feature_177"},{"properties":{"depth":11},"type":"Polygon","arcs":[[-531,-530,529,-529,423,424]],"id":"feature_178"},{"properties":{"depth":11},"type":"Polygon","arcs":[[630,-631,-630,425,-779,426,427,-770,-769,732,-569,-568,735,-765,-567,-762,-566,-565,-758,738,-756,-755,-564,-752,-563,-749,-562,-747,428,429,430,431,432,759,760,761,433,434,435,767,436,437,651,438,439,655,440,-643,-500,441,-504,-661,-503,-659,-502,-655,-654,-653,-501,-648,442,-702,443,773,-773,-552,444]],"id":"feature_179"},{"properties":{"depth":11},"type":"Polygon","arcs":[[445,-938,-534,533,446]],"id":"feature_180"},{"properties":{"depth":11},"type":"Polygon","arcs":[[-722,-545,-720,-544,-718,-543,-542,447,448,717,449]],"id":"feature_181"},{"properties":{"depth":11},"type":"Polygon","arcs":[[450,-451]],"id":"feature_182"},{"properties":{"depth":11},"type":"Polygon","arcs":[[-549,451]],"id":"feature_183"},{"properties":{"depth":11},"type":"Polygon","arcs":[[-559,-933,-558,-557,-928,927,452,929,930,453,454,-935]],"id":"feature_184"},{"properties":{"depth":11},"type":"Polygon","arcs":[[455,-456]],"id":"feature_185"},{"properties":{"depth":11},"type":"Polygon","arcs":[[555,-556]],"id":"feature_186"},{"properties":{"depth":11},"type":"Polygon","arcs":[[-915,456,-555,-924,-554,-922,-553,-919,947,-570,-917,-916]],"id":"feature_187"},{"properties":{"depth":12},"type":"Polygon","arcs":[[457,691,458,459,-887,460,461,-603,885,-602,462,-693,-692,-691,-690]],"id":"feature_188"},{"properties":{"depth":12},"type":"Polygon","arcs":[[-581,-580,-579,463,581,-582,-587,-586,-585,464,465,579,466,467]],"id":"feature_189"},{"properties":{"depth":12},"type":"Polygon","arcs":[[-825,468,826,469,828,470,830,471,832,472,473,-835,-834,-833,-832,-831,-830,-829,-828,-827,-826]],"id":"feature_190"},{"properties":{"depth":12},"type":"Polygon","arcs":[[-479,474,475,476,-572,571,-571,477,478,-600,599]],"id":"feature_191"},{"properties":{"depth":12},"type":"Polygon","arcs":[[479,-576,480,481]],"id":"feature_192"},{"properties":{"depth":12},"type":"Polygon","arcs":[[-892,-891,-865,891]],"id":"feature_193"},{"properties":{"depth":12},"type":"Polygon","arcs":[[482,839,-840,483]],"id":"feature_194"},{"properties":{"depth":12},"type":"Polygon","arcs":[[-871,-638,-867,-879,-624,484,-848]],"id":"feature_195"},{"properties":{"depth":12},"type":"Polygon","arcs":[[485]],"id":"feature_196"},{"properties":{"depth":12},"type":"Polygon","arcs":[[-598,-597,-596,-595,486,487,595,488,489]],"id":"feature_197"},{"properties":{"depth":12},"type":"Polygon","arcs":[[490,491,-961]],"id":"feature_198"},{"properties":{"depth":12},"type":"Polygon","arcs":[[-963,492,493,-682]],"id":"feature_199"},{"properties":{"depth":12},"type":"Polygon","arcs":[[-681,-680,-679,856,-678,-677,858,-676,860,861,862,-675,-864,-863,-862,-861,-860,-859,-858,-857,-856]],"id":"feature_200"},{"properties":{"depth":12},"type":"Polygon","arcs":[[-609,-608,-607,494,495,607,496]],"id":"feature_201"},{"properties":{"depth":12},"type":"Polygon","arcs":[[497,498,-665,-664,-663,-662,-661,-660,499,642,-658,-657,-656,-655,-654,-653,-652,-651,-650,-649,500,652,653,654,501,658,502,660,503,504,662,505,-622,506,-978]],"id":"feature_202"},{"properties":{"depth":12},"type":"Polygon","arcs":[[507,508,509,-686,-852,510,511]],"id":"feature_203"},{"properties":{"depth":12},"type":"Polygon","arcs":[[-616,-615,512,666,513,514,-668,-667,-807,-666,614,615]],"id":"feature_204"},{"properties":{"depth":12},"type":"Polygon","arcs":[[515,-701,-700,695,-695,694,516]],"id":"feature_205"},{"properties":{"depth":12},"type":"Polygon","arcs":[[517,518,-619,-618,617]],"id":"feature_206"},{"properties":{"depth":12},"type":"Polygon","arcs":[[519,520,521,-688,-687,522,-708]],"id":"feature_207"},{"properties":{"depth":12},"type":"Polygon","arcs":[[-636,-635,-634,-633,-632,523,634,524]],"id":"feature_208"},{"properties":{"depth":12},"type":"Polygon","arcs":[[-711,525,526,527]],"id":"feature_209"},{"properties":{"depth":12},"type":"Polygon","arcs":[[528,-530,529,530,531,-712,532]],"id":"feature_210"},{"properties":{"depth":12},"type":"Polygon","arcs":[[533,534,535,-939,-938,-937]],"id":"feature_211"},{"properties":{"depth":12},"type":"Polygon","arcs":[[536,-537]],"id":"feature_212"},{"properties":{"depth":12},"type":"Polygon","arcs":[[-722,-721,537,-718,-717,538,539,540,541,542,717,543,719,544,721]],"id":"feature_213"},{"properties":{"depth":12},"type":"Polygon","arcs":[[545,-745,546,-724,547,548]],"id":"feature_214"},{"properties":{"depth":12},"type":"Polygon","arcs":[[730,-725,-726,-727,729,-728,793,727,-550,725,-551,-731]],"id":"feature_215"},{"properties":{"depth":12},"type":"Polygon","arcs":[[-771,777,551,-772,775]],"id":"feature_216"},{"properties":{"depth":12},"type":"Polygon","arcs":[[918,552,921,553,923,554,555,926,927,556,557,932,-559,-934,-933,-932,-931,-930,-929,-928,-927,-926,-925,-924,-923,-922,-921,-920,-919]],"id":"feature_217"},{"properties":{"depth":12},"type":"Polygon","arcs":[[-770,-769,-768,-767,-766,-765,-764,-763,-762,-761,-760,-759,-758,-757,-756,-755,559,560,-753,-752,-751,-750,-749,-748,-747,746,561,748,562,751,563,754,755,-739,757,564,565,761,566,764,-736,567,568,-733,768,769]],"id":"feature_218"},{"properties":{"depth":12},"type":"Polygon","arcs":[[914,915,916,569,-948,-918,-917,-916,-915]],"id":"feature_219"},{"properties":{"depth":13},"type":"Polygon","arcs":[[570,-572,571,572,573,574,575,576]],"id":"feature_220"},{"properties":{"depth":13},"type":"Polygon","arcs":[[577,578,579,580]],"id":"feature_221"},{"properties":{"depth":13},"type":"Polygon","arcs":[[581,-582,582,583,-823,584,585,586]],"id":"feature_222"},{"properties":{"depth":13},"type":"Polygon","arcs":[[587,-818]],"id":"feature_223"},{"properties":{"depth":13},"type":"Polygon","arcs":[[-974,-973,-972,588,-969,589,969,970,779,972,-782,590,591]],"id":"feature_224"},{"properties":{"depth":13},"type":"Polygon","arcs":[[592,593,594,595,596,597]],"id":"feature_225"},{"properties":{"depth":13},"type":"Polygon","arcs":[[598,-600,599,600,601,-886,602,603]],"id":"feature_226"},{"properties":{"depth":13},"type":"Polygon","arcs":[[-985,-984,-983,-982,-981,-980,604,-815,605,-811,-810,-909,-913,-908,-907,-906,983,-905,963,-904,-965,-964]],"id":"feature_227"},{"properties":{"depth":13},"type":"Polygon","arcs":[[606,607,608,-992,-991,-990,-989,-988,609,610,611,-627,612,-625,613]],"id":"feature_228"},{"properties":{"depth":13},"type":"Polygon","arcs":[[-616,-615,614,615,616,617,618,619]],"id":"feature_229"},{"properties":{"depth":13},"type":"Polygon","arcs":[[620,621,622]],"id":"feature_230"},{"properties":{"depth":13},"type":"Polygon","arcs":[[-878,623]],"id":"feature_231"},{"properties":{"depth":13},"type":"Polygon","arcs":[[624,625,626,627,-633,628,629,630,631,632,633,634,635]],"id":"feature_232"},{"properties":{"depth":13},"type":"Polygon","arcs":[[636,637]],"id":"feature_233"},{"properties":{"depth":13},"type":"Polygon","arcs":[[638,-640,639,640,-664,641,642,-658,643,-654,644,645,-650,646,647,648,649,650,651,652,653,654,655,656,657,658,659,660,661,662,663,664]],"id":"feature_234"},{"properties":{"depth":13},"type":"Polygon","arcs":[[665,806,666,667,-808,-807,-806,668]],"id":"feature_235"},{"properties":{"depth":13},"type":"Polygon","arcs":[[669,-876,670,-680,671,-678,672,861,673,-675,674,-863,-862,-861,675,-859,676,677,-857,678,679,680]],"id":"feature_236"},{"properties":{"depth":13},"type":"Polygon","arcs":[[681,682,-951,-877,683]],"id":"feature_237"},{"properties":{"depth":13},"type":"Polygon","arcs":[[-960,684,-853,685]],"id":"feature_238"},{"properties":{"depth":13},"type":"Polygon","arcs":[[686,687,688]],"id":"feature_239"},{"properties":{"depth":13},"type":"Polygon","arcs":[[-690,689,690,691,692,693]],"id":"feature_240"},{"properties":{"depth":13},"type":"Polygon","arcs":[[694,-696,695,696]],"id":"feature_241"},{"properties":{"depth":13},"type":"Polygon","arcs":[[697,698,-700,699,700]],"id":"feature_242"},{"properties":{"depth":13},"type":"Polygon","arcs":[[701,702,703,-705,704,705,706]],"id":"feature_243"},{"properties":{"depth":13},"type":"Polygon","arcs":[[707,708]],"id":"feature_244"},{"properties":{"depth":13},"type":"Polygon","arcs":[[709,710]],"id":"feature_245"},{"properties":{"depth":13},"type":"Polygon","arcs":[[711,712]],"id":"feature_246"},{"properties":{"depth":13},"type":"Polygon","arcs":[[713,-715,714,715,716,717,718,719,720,721,722,723]],"id":"feature_247"},{"properties":{"depth":13},"type":"Polygon","arcs":[[-731,724,725,726,-730,727,-794,728,729,-791,730]],"id":"feature_248"},{"properties":{"depth":13},"type":"Polygon","arcs":[[-770,731,732,733,734,735,736,-762,-761,737,738,739,740,741,-751,742,743,744,745,746,747,748,749,750,751,752,753,754,755,756,757,758,759,760,761,762,763,764,765,766,767,768,769]],"id":"feature_249"},{"properties":{"depth":13},"type":"Polygon","arcs":[[-778,770,-776,771,772,-774,773,774,775,776,777]],"id":"feature_250"},{"properties":{"depth":13},"type":"Polygon","arcs":[[778,-779]],"id":"feature_251"},{"properties":{"depth":15},"type":"Polygon","arcs":[[970,779,972,780,781,782,783,784,785,-911,786,906,907,912,909,910,911,966,787,969]],"id":"feature_252"},{"properties":{"depth":15},"type":"Polygon","arcs":[[788,-792,-791,-790,789,790,791,792,793]],"id":"feature_253"},{"properties":{"depth":15},"type":"Polygon","arcs":[[-795,794,795,-807,-806,-805,796,797,798,799,800,801,802,803,804,805,806,807,808]],"id":"feature_254"},{"properties":{"depth":15},"type":"Polygon","arcs":[[809,810,811,812]],"id":"feature_255"},{"properties":{"depth":15},"type":"Polygon","arcs":[[813,814,815]],"id":"feature_256"},{"properties":{"depth":11},"type":"Polygon","arcs":[[816,817,818,819,-846,820,-844,821,822]],"id":"feature_257"},{"properties":{"depth":13},"type":"Polygon","arcs":[[823,824,825,826,827,828,829,830,831,832,833,834,835,836,837,838,839,840,841,842,843,844,845,846]],"id":"feature_258"},{"properties":{"depth":11},"type":"Polygon","arcs":[[-872,847,848,-863,849,-861,-860,-859,850,851,852,853,876,854,855,856,857,858,859,860,861,862,863]],"id":"feature_259"},{"properties":{"depth":13},"type":"Polygon","arcs":[[-957,-956,-893,-892,864,-890,-899,865,-880,866,867,-902,868,-900,869,870,871,872,873,874,875,876]],"id":"feature_260"},{"properties":{"depth":14},"type":"Polygon","arcs":[[877,878,879,880,881,882,883]],"id":"feature_261"},{"properties":{"depth":11},"type":"Polygon","arcs":[[884,885,886,887]],"id":"feature_262"},{"properties":{"depth":11},"type":"Polygon","arcs":[[-955,888,-895,-894,889,890,891,892]],"id":"feature_263"},{"properties":{"depth":12},"type":"Polygon","arcs":[[893,894,895,896,897,898]],"id":"feature_264"},{"properties":{"depth":12},"type":"Polygon","arcs":[[899,900,901,902]],"id":"feature_265"},{"properties":{"depth":14},"type":"Polygon","arcs":[[903,-964,904,-984,905,906,907,912,908,981,909,910,911,-966]],"id":"feature_266"},{"properties":{"depth":14},"type":"Polygon","arcs":[[912,-913]],"id":"feature_267"},{"properties":{"depth":13},"type":"Polygon","arcs":[[-916,913,914,915,916,917,918,919,920,921,922,923,924,925,926,927,928,929,930,931,932,933,934,935,936,937,938,939,940,941,942,943,944,945,946,947,948],[949]],"id":"feature_268"},{"properties":{"depth":12},"type":"Polygon","arcs":[[950,951,952,953,954,955,956],[957]],"id":"feature_269"},{"properties":{"depth":13},"type":"Polygon","arcs":[[958,959,960,961,962]],"id":"feature_270"},{"properties":{"depth":12},"type":"Polygon","arcs":[[963,964,965,966,967,968,969,970,971,972,973,974,975,976,977,978,979,980,981,982,983,984]],"id":"feature_271"},{"properties":{"depth":12},"type":"Polygon","arcs":[[991,-986,989,-987,-988,-989,-990,-991,-992]],"id":"feature_272"},{"properties":{"depth":15},"type":"Polygon","arcs":[[-997,992,993,-1215]],"id":"feature_273"},{"properties":{"depth":14},"type":"Polygon","arcs":[[-1083,-1082,-1081,994,-1105,995]],"id":"feature_274"},{"properties":{"depth":14},"type":"Polygon","arcs":[[996,997,-1054,1207,-1053,-1134,-1133,998,-1007,999]],"id":"feature_275"},{"properties":{"depth":14},"type":"Polygon","arcs":[[-1043,1000,-1046,1001,-1182]],"id":"feature_276"},{"properties":{"depth":14},"type":"Polygon","arcs":[[-1051,-1050,1049,-1049,1002]],"id":"feature_277"},{"properties":{"depth":14},"type":"Polygon","arcs":[[-1058,1003]],"id":"feature_278"},{"properties":{"depth":14},"type":"Polygon","arcs":[[-1047,-1128,-1127,1126,1004,1005,1006,1007,-1132]],"id":"feature_279"},{"properties":{"depth":14},"type":"Polygon","arcs":[[-1107,-1106,-1113,-1060,-1059,1008,-1020,1009,-1018,1010,-1016,1011]],"id":"feature_280"},{"properties":{"depth":14},"type":"Polygon","arcs":[[1012,-1067,1013,-1069,1014,1015,1016,1017,1018,1019,1020,-1126]],"id":"feature_281"},{"properties":{"depth":14},"type":"Polygon","arcs":[[-1139,1021,1022,1063,-1143,1064,-1141]],"id":"feature_282"},{"properties":{"depth":14},"type":"Polygon","arcs":[[1023,-1096]],"id":"feature_283"},{"properties":{"depth":14},"type":"Polygon","arcs":[[-1093,-1092,1091,-1091,1024,-1225,1227,-1079,1081,-1078,1025]],"id":"feature_284"},{"properties":{"depth":14},"type":"Polygon","arcs":[[-1071,1026]],"id":"feature_285"},{"properties":{"depth":14},"type":"Polygon","arcs":[[-1100,-1099,1027,-1034,1028,-1085,1029,1030]],"id":"feature_286"},{"properties":{"depth":14},"type":"Polygon","arcs":[[-1089,1031]],"id":"feature_287"},{"properties":{"depth":14},"type":"Polygon","arcs":[[-1087,1032,1033,1034,-1038,1035]],"id":"feature_288"},{"properties":{"depth":14},"type":"Polygon","arcs":[[1036,1037,1038,-1074]],"id":"feature_289"},{"properties":{"depth":13},"type":"Polygon","arcs":[[1039,-1110]],"id":"feature_290"},{"properties":{"depth":13},"type":"Polygon","arcs":[[-1171,1040]],"id":"feature_291"},{"properties":{"depth":13},"type":"Polygon","arcs":[[-1118,-1178,-1117,-1174,-1116,1041,1042,1181,-1182,-1181,-1180]],"id":"feature_292"},{"properties":{"depth":13},"type":"Polygon","arcs":[[-1192,1043]],"id":"feature_293"},{"properties":{"depth":13},"type":"Polygon","arcs":[[1044,1045]],"id":"feature_294"},{"properties":{"depth":13},"type":"Polygon","arcs":[[-1132,-1131,-1220,-1130,-1218,-1129,-1128,1127,1046,1131]],"id":"feature_295"},{"properties":{"depth":13},"type":"Polygon","arcs":[[-1121,-1189,-1120,-1187,1047,1048,-1050,1049,1050,1051]],"id":"feature_296"},{"properties":{"depth":13},"type":"Polygon","arcs":[[1133,1052,-1208,1053,1054,-1123,1204,-1122,1206,1207,1208,1055,1135,1056]],"id":"feature_297"},{"properties":{"depth":13},"type":"Polygon","arcs":[[1057,1058,1059,-1112,1060,-1195,1061]],"id":"feature_298"},{"properties":{"depth":13},"type":"Polygon","arcs":[[1062]],"id":"feature_299"},{"properties":{"depth":13},"type":"Polygon","arcs":[[-1141,-1142,-1233,-1143,-1144,-1064,1142,-1065,1140]],"id":"feature_300"},{"properties":{"depth":13},"type":"Polygon","arcs":[[1105,-1106]],"id":"feature_301"},{"properties":{"depth":13},"type":"Polygon","arcs":[[1228,-1229]],"id":"feature_302"},{"properties":{"depth":13},"type":"Polygon","arcs":[[1065,1066]],"id":"feature_303"},{"properties":{"depth":13},"type":"Polygon","arcs":[[1067,1068,1069,1070,1071,-1108]],"id":"feature_304"},{"properties":{"depth":13},"type":"Polygon","arcs":[[-1153,1072,1073,1074]],"id":"feature_305"},{"properties":{"depth":13},"type":"Polygon","arcs":[[1075,-1158,1076,1077,-1082,1078,-1228,-1227,1079,1080,1081,1082,1083,1084,1085,1086,1087,1088]],"id":"feature_306"},{"properties":{"depth":13},"type":"Polygon","arcs":[[-1230,-1147,1089,-1164]],"id":"feature_307"},{"properties":{"depth":13},"type":"Polygon","arcs":[[1090,-1092,1091,1092,1093]],"id":"feature_308"},{"properties":{"depth":13},"type":"Polygon","arcs":[[1094,1095,1096,1149,-1240,1097]],"id":"feature_309"},{"properties":{"depth":13},"type":"Polygon","arcs":[[1098,1099,1100,-1159,-1211,-1210,1101]],"id":"feature_310"},{"properties":{"depth":13},"type":"Polygon","arcs":[[-1156,1166,1102]],"id":"feature_311"},{"properties":{"depth":13},"type":"Polygon","arcs":[[1103,1104]],"id":"feature_312"},{"properties":{"depth":12},"type":"Polygon","arcs":[[1105,1106,1107,1108,-1201,1109,1110,1111,1112]],"id":"feature_313"},{"properties":{"depth":12},"type":"Polygon","arcs":[[1113,1114,1115,1173,1116,1177,1117,1179,-1180,-1179,-1178,-1177,-1176,1174,1175,1183,-1174,-1173,-1172]],"id":"feature_314"},{"properties":{"depth":12},"type":"Polygon","arcs":[[1118,-1190,-1189,-1188,1119,1188,1120]],"id":"feature_315"},{"properties":{"depth":12},"type":"Polygon","arcs":[[-1207,1121,-1205,1122,1203,1204,1205,1123,-1208]],"id":"feature_316"},{"properties":{"depth":12},"type":"Polygon","arcs":[[1124,1125]],"id":"feature_317"},{"properties":{"depth":12},"type":"Polygon","arcs":[[-1132,-1221,-1220,-1219,-1218,-1217,1126,1127,1128,1217,1129,1219,1130,1131]],"id":"feature_318"},{"properties":{"depth":12},"type":"Polygon","arcs":[[1132,1133,1134,1135,-1223,1136]],"id":"feature_319"},{"properties":{"depth":12},"type":"Polygon","arcs":[[1137,1138,1139,1140,1141,1232,1142,1143,1144,-1234,-1233,-1232,1145,-1162]],"id":"feature_320"},{"properties":{"depth":12},"type":"Polygon","arcs":[[1146,-1229,-1238,1242,1243,-1237,1147]],"id":"feature_321"},{"properties":{"depth":12},"type":"Polygon","arcs":[[1238,1239,1240,1148,1149,1150,1151]],"id":"feature_322"},{"properties":{"depth":12},"type":"Polygon","arcs":[[1152,1153]],"id":"feature_323"},{"properties":{"depth":12},"type":"Polygon","arcs":[[1154,-1168,-1167,-1166,1165,1155]],"id":"feature_324"},{"properties":{"depth":12},"type":"Polygon","arcs":[[1156,1157]],"id":"feature_325"},{"properties":{"depth":12},"type":"Polygon","arcs":[[1210,1158,1159,1160]],"id":"feature_326"},{"properties":{"depth":11},"type":"Polygon","arcs":[[1161,1162,1163,1164,1165,1166,1167,1168]],"id":"feature_327"},{"properties":{"depth":11},"type":"Polygon","arcs":[[1169,1170]],"id":"feature_328"},{"properties":{"depth":11},"type":"Polygon","arcs":[[1171,1172,1173,-1184,-1176,1174,1175,1176,1177,1178,1179,1180,1181,1182,1183,1184]],"id":"feature_329"},{"properties":{"depth":11},"type":"Polygon","arcs":[[1185]],"id":"feature_330"},{"properties":{"depth":11},"type":"Polygon","arcs":[[1186,1187,1188,1189,1190]],"id":"feature_331"},{"properties":{"depth":11},"type":"Polygon","arcs":[[1191,1192,-1198,1193]],"id":"feature_332"},{"properties":{"depth":11},"type":"Polygon","arcs":[[1194,1195]],"id":"feature_333"},{"properties":{"depth":11},"type":"Polygon","arcs":[[1196,1197,1198,1199]],"id":"feature_334"},{"properties":{"depth":11},"type":"Polygon","arcs":[[1200,1201]],"id":"feature_335"},{"properties":{"depth":11},"type":"Polygon","arcs":[[-1209,1202,1203,1204,1205,1206,1207,1208]],"id":"feature_336"},{"properties":{"depth":11},"type":"Polygon","arcs":[[1209,1210,1211,1212]],"id":"feature_337"},{"properties":{"depth":11},"type":"Polygon","arcs":[[1213,1214,1215,1216,1217,1218,1219,1220,1221]],"id":"feature_338"},{"properties":{"depth":11},"type":"Polygon","arcs":[[1222,1223]],"id":"feature_339"},{"properties":{"depth":11},"type":"Polygon","arcs":[[-1228,1224,1225,1226,1227]],"id":"feature_340"},{"properties":{"depth":11},"type":"Polygon","arcs":[[1228,1229,1230,1231,1232,1233,1234,1235,1236,-1244,-1243,1237]],"id":"feature_341"},{"properties":{"depth":11},"type":"Polygon","arcs":[[1238,1239,1240,1241]],"id":"feature_342"},{"properties":{"depth":13},"type":"Polygon","arcs":[[1242,-1243]],"id":"feature_343"},{"properties":{"depth":13},"type":"Polygon","arcs":[[1243,-1244]],"id":"feature_344"}],"type":"GeometryCollection"}},"bbox":[127.6829,26.1927,127.8594,26.3989],"transform":{"scale":[1.7651765176516662e-05,2.0622062206220884e-05],"translate":[127.6829,26.1927]},"arcs":[[[2436,1925],[0,-5]],[[2436,1920],[-6,-5]],[[2413,1905],[-6,0]],[[2390,1896],[-22,-14]],[[2357,1877],[-6,-5]],[[2521,1969],[-5,-5]],[[2510,1964],[-12,-5]],[[2498,1954],[12,10]],[[2510,1964],[6,0]],[[2516,1964],[5,5]],[[2516,1935],[-18,5]],[[2396,1882],[-6,0]],[[2407,1901],[6,4]],[[2413,1905],[17,10]],[[2430,1915],[6,5]],[[2430,1882],[-11,5]],[[2368,1882],[22,14]],[[2396,1896],[6,5]],[[2407,1901],[12,-14]],[[2419,1887],[-6,0]],[[2407,1887],[-17,-5]],[[2390,1882],[-16,-10]],[[2407,1905],[0,-4]],[[2407,1901],[-5,0]],[[2402,1901],[-6,-5]],[[2396,1896],[-6,0]],[[2390,1896],[0,9]],[[2390,1905],[17,0]],[[1247,1925],[62,-5]],[[1309,1920],[6,0]],[[1292,1915],[-17,5]],[[1609,1736],[23,-10]],[[1626,1717],[-23,9]],[[1360,1891],[5,0]],[[2339,1867],[-11,15]],[[2555,1959],[-39,-24]],[[1241,1915],[0,5]],[[2493,1945],[5,-5]],[[2498,1940],[-5,5]],[[2521,1983],[-28,-19]],[[2487,1964],[56,24]],[[2458,1935],[6,5]],[[2470,1940],[5,5]],[[2475,1945],[-11,-15]],[[1263,1925],[12,-5]],[[1275,1920],[-6,-5]],[[2464,1930],[-6,-5]],[[2458,1925],[-5,-10]],[[2458,1896],[-22,-19]],[[1269,1915],[-6,0]],[[2419,1940],[56,5]],[[2407,1882],[0,0]],[[2413,1935],[-6,-10]],[[2402,1925],[17,15]],[[1309,1920],[6,-5]],[[1309,1901],[-12,9]],[[2368,1905],[-23,-9]],[[2328,1887],[40,18]],[[2368,1905],[6,5]],[[1325,1905],[-5,-4]],[[2351,1862],[-12,0]],[[2271,1833],[6,-4],[-6,0],[0,4]],[[1343,1891],[0,0]],[[2255,1814],[5,-10]],[[2238,1819],[6,5]],[[2215,1779],[-12,-24]],[[1354,1882],[0,0]],[[2164,1751],[51,28]],[[2215,1779],[0,-4]],[[2215,1775],[-6,-5]],[[2153,1722],[-12,9]],[[1632,1726],[5,-14]],[[1371,1887],[-6,-5]],[[1587,1746],[16,-10]],[[1597,1726],[-16,5]],[[1535,1751],[11,4]],[[2141,1731],[23,20]],[[2164,1751],[45,19]],[[2209,1765],[-56,-43]],[[2153,1722],[-12,9]],[[2521,1983],[22,5]],[[2543,1988],[-5,-19]],[[2532,1969],[-11,0]],[[2521,1969],[0,14]],[[1241,1920],[6,5]],[[1247,1925],[5,0]],[[1252,1925],[-11,-10]],[[1241,1915],[0,5]],[[2516,1940],[16,29]],[[2532,1969],[6,0]],[[2538,1969],[17,-10]],[[2555,1959],[-39,-19]],[[2516,1935],[0,5]],[[1252,1925],[11,0]],[[1263,1925],[6,-10]],[[1269,1915],[-6,0]],[[1263,1915],[-11,10]],[[2498,1954],[-5,-5]],[[2493,1945],[0,4]],[[2493,1949],[5,5]],[[2436,1920],[12,10]],[[2453,1930],[5,5]],[[2458,1935],[6,-5]],[[2464,1930],[-6,-5]],[[2453,1925],[5,0]],[[2458,1925],[-5,-10]],[[2453,1915],[5,-19]],[[2458,1896],[-22,-19]],[[2436,1877],[-6,5]],[[2430,1882],[6,38]],[[2419,1940],[56,5]],[[2475,1945],[12,19]],[[2487,1964],[6,0]],[[2493,1964],[5,-5]],[[2498,1959],[0,-5]],[[2498,1954],[-23,-9]],[[2475,1945],[-5,-5]],[[2470,1940],[-6,0]],[[2464,1940],[-6,-5]],[[2458,1935],[-5,-5]],[[2453,1930],[-5,0]],[[2448,1930],[-12,-5]],[[2436,1925],[-17,10]],[[2419,1935],[-6,0]],[[2413,1935],[6,5]],[[2407,1882],[0,5]],[[2407,1887],[6,0]],[[2413,1887],[-6,-5]],[[2407,1882],[-11,0]],[[2368,1905],[6,5]],[[2374,1910],[28,15]],[[2402,1925],[5,0]],[[2407,1925],[-17,-20]],[[2390,1905],[-5,0]],[[2385,1905],[-17,0]],[[2339,1862],[0,5]],[[2339,1867],[12,5]],[[2351,1872],[6,5]],[[2357,1877],[11,5]],[[2368,1882],[6,-10]],[[2374,1872],[-23,-10]],[[2351,1862],[-12,0]],[[1292,1915],[17,5]],[[1309,1920],[-12,-10]],[[1297,1910],[-5,5]],[[2328,1887],[17,9]],[[2345,1896],[0,-14]],[[2339,1882],[6,0]],[[2345,1882],[6,-10]],[[2351,1872],[-12,-5]],[[2339,1867],[-11,15]],[[2328,1882],[0,5]],[[1315,1920],[0,-5]],[[1315,1915],[33,-24]],[[1348,1891],[6,-4]],[[1354,1882],[0,5]],[[1354,1887],[-6,0]],[[1348,1887],[0,4]],[[1348,1891],[-5,5]],[[1343,1896],[-18,9]],[[1325,1905],[-5,-4]],[[1320,1901],[-11,0]],[[1309,1901],[6,14]],[[2238,1819],[6,5]],[[2244,1824],[11,-10]],[[2255,1814],[-6,-5]],[[2238,1804],[0,15]],[[2255,1814],[5,-10]],[[2260,1804],[-22,0]],[[2238,1804],[11,5]],[[2249,1809],[6,5]],[[2203,1755],[6,10]],[[2209,1765],[0,5]],[[2209,1770],[6,5]],[[2215,1775],[-12,-20]],[[1626,1717],[6,5]],[[1632,1726],[0,-4]],[[1632,1722],[5,-10]],[[1637,1712],[-11,5]],[[1343,1896],[5,-5]],[[1348,1891],[-5,5]],[[1597,1726],[6,10]],[[1603,1736],[6,0]],[[1609,1736],[-6,-10]],[[1603,1726],[-6,0]],[[1365,1891],[6,-4]],[[1371,1887],[-6,-5]],[[1365,1882],[0,9]],[[1365,1891],[-5,0]],[[1535,1751],[11,4]],[[1546,1755],[41,-9]],[[1587,1746],[-6,-15]],[[1581,1731],[-46,20]],[[691,1110],[-23,10]],[[691,1110],[-23,10]],[[668,1120],[23,-10]],[[1252,1358],[17,15]],[[1212,1319],[17,14]],[[1212,1319],[17,14]],[[1229,1333],[-17,-14]],[[1252,1163],[-40,0]],[[839,1018],[-40,39]],[[793,1076],[0,5]],[[839,1018],[-40,39]],[[799,1057],[-6,19]],[[793,1076],[0,5]],[[793,1081],[46,-63]],[[680,1043],[-12,5],[12,19],[91,5],[-91,-29]],[[657,1072],[-62,-10]],[[623,1057],[-11,-4]],[[623,1062],[0,-5]],[[623,1057],[-11,-4]],[[612,1053],[-6,4]],[[635,1091],[22,-19]],[[657,1072],[-34,-10]],[[623,1062],[-17,0]],[[606,1062],[0,-5]],[[606,1057],[-11,5]],[[595,1062],[-17,29]],[[657,1115],[-22,-24]],[[635,1091],[-57,0]],[[578,1091],[62,44]],[[651,1213],[29,-10]],[[680,1163],[-29,20]],[[651,1198],[-11,15]],[[651,1183],[0,15]],[[651,1198],[29,0]],[[680,1188],[-29,-5]],[[646,1140],[34,5]],[[493,1275],[6,-29]],[[493,1246],[-45,-10]],[[437,1304],[27,-4]],[[526,1241],[-33,34]],[[493,1275],[-6,-14]],[[487,1256],[0,5]],[[487,1261],[12,-15]],[[499,1246],[-6,0]],[[493,1246],[-45,-10]],[[448,1236],[-17,30]],[[437,1304],[-6,-38]],[[431,1266],[6,38]],[[170,1300],[136,19]],[[306,1353],[6,-29]],[[357,1333],[-136,112],[23,19],[136,-121],[-23,-10]],[[204,1309],[-74,-9]],[[651,1213],[-11,0]],[[640,1213],[-114,28]],[[526,1241],[-62,59]],[[464,1300],[187,-87]],[[1179,1256],[-41,15],[-22,-5],[68,19],[-5,-29]],[[1269,1373],[-17,-15]],[[1252,1358],[17,15]],[[657,1130],[-6,0],[0,10],[17,-5],[-11,-5]],[[680,1163],[0,25]],[[680,1188],[0,10]],[[680,1198],[0,5]],[[680,1203],[0,-40]],[[1162,1154],[-12,0]],[[1037,1154],[-6,-14],[12,0],[5,14],[-11,0]],[[1206,1163],[51,0]],[[1269,1163],[-68,0]],[[1252,1163],[-40,0]],[[1212,1163],[-6,0]],[[1206,1163],[-5,0]],[[1201,1163],[-39,-9]],[[1162,1154],[-12,0]],[[1150,1154],[119,9]],[[1269,1163],[-12,0]],[[1257,1163],[-5,0]],[[1224,1159],[0,0]],[[170,1300],[17,-5]],[[187,1300],[0,-5]],[[187,1295],[119,24]],[[306,1319],[-136,-19]],[[260,1246],[29,15],[-17,29],[-22,-5],[10,-39]],[[306,1353],[6,-29]],[[312,1324],[-108,-15]],[[204,1309],[-68,-5]],[[136,1309],[0,-5]],[[136,1304],[-6,-4]],[[130,1300],[176,53]],[[322,1338],[0,0]],[[640,1135],[6,5]],[[646,1140],[34,5]],[[680,1145],[-23,-30]],[[657,1115],[-17,20]],[[651,1135],[0,-5],[17,0],[-17,10],[0,-5]],[[2442,131],[-193,-5],[-182,34],[272,14],[103,-43]],[[3059,354],[11,0]],[[2436,174],[62,10]],[[2561,165],[-18,-5]],[[2543,160],[-95,-19]],[[3070,597],[-68,-45],[-10,5],[107,83],[-29,-43]],[[2470,184],[-6,10],[29,-5],[-23,-5]],[[2504,194],[0,10],[17,4],[5,-9],[-22,-5]],[[2697,257],[28,24]],[[2798,301],[-39,-58],[-107,-20],[78,58],[68,20]],[[2928,499],[46,35],[12,-54],[-40,-14],[-18,33]],[[3019,349],[40,5]],[[3059,354],[11,0]],[[3070,354],[-78,-15]],[[2986,344],[0,30]],[[2538,160],[5,0]],[[2543,160],[-22,10]],[[2526,170],[-5,0]],[[2521,170],[-23,14]],[[2498,184],[28,10]],[[2561,184],[0,-19]],[[2561,165],[-23,-5]],[[2992,339],[27,10]],[[3019,349],[-27,-10]],[[2436,174],[12,-33]],[[2448,141],[-12,33]],[[2986,374],[6,0]],[[2986,344],[0,30]],[[2725,281],[-28,-24]],[[2697,257],[28,24]],[[2526,194],[35,-10]],[[2561,184],[-35,10]],[[2986,344],[6,30]],[[2992,374],[-6,-30]],[[4323,1445],[-476,277],[1421,-335],[-424,-247],[-521,305]],[[3404,1401],[-27,-33],[-6,0],[11,19],[22,14]],[[3518,1450],[0,-5],[-34,-14],[-23,-5],[57,24]],[[3558,1494],[-6,-20],[-17,-15],[11,25],[12,10]],[[3558,1498],[11,15],[17,0],[-11,-10],[-17,-5]],[[3558,1494],[0,0]],[[3717,1624],[62,73],[62,15],[-40,-48],[-84,-40]],[[4657,1411],[-23,-29],[-29,9],[0,35],[52,-15]],[[4079,1619],[28,0],[-28,-33],[-17,10],[17,23]],[[4527,1358],[-40,33],[5,15],[57,-15],[-22,-33]],[[4492,1459],[86,25],[22,-53],[-34,5],[-74,23]],[[4141,1576],[233,-39],[-12,-58],[-210,5],[-11,92]],[[4119,1610],[6,19],[33,-33],[-17,0],[-22,14]],[[9353,9310],[0,-101]],[[9059,9412],[-17,5]],[[9036,9417],[-23,-10]],[[8945,9432],[-11,14]],[[8837,9510],[0,4]],[[8826,9611],[114,-116]],[[9749,9305],[6,10]],[[9761,9315],[0,-5]],[[9863,9228],[-108,24]],[[8356,9989],[120,-73]],[[8476,9931],[-41,15]],[[8435,9946],[0,0]],[[8752,9364],[-5,0]],[[8747,9364],[-5,-5]],[[8742,9359],[-17,-14]],[[8725,9345],[-6,-15]],[[8690,9310],[0,-23]],[[8690,9277],[-6,5]],[[8690,9310],[23,25]],[[8725,9345],[5,9]],[[8730,9354],[12,5]],[[8758,9368],[6,0]],[[9931,9354],[17,10]],[[9965,9364],[6,-5]],[[9965,9373],[0,-9]],[[9965,9364],[-17,0]],[[9948,9364],[-28,4]],[[8793,9398],[-23,-20]],[[8775,9422],[23,-15]],[[8798,9403],[-5,-5]],[[8793,9398],[-23,-25]],[[8878,9422],[0,0]],[[8832,9510],[-6,4]],[[8820,9514],[-27,-9]],[[8793,9475],[-12,-19]],[[8781,9456],[-6,-5]],[[9920,9368],[-62,-18]],[[8798,9519],[-5,-5]],[[9852,9335],[-35,5]],[[9829,9340],[29,10]],[[9858,9350],[67,0]],[[9835,9373],[-40,87]],[[9795,9470],[0,-10]],[[9795,9460],[-5,-23]],[[9790,9437],[11,-30]],[[9801,9407],[16,-19]],[[9817,9388],[12,-15]],[[9761,9315],[-6,0]],[[9755,9315],[6,0]],[[8538,9829],[187,-164]],[[8684,9688],[-16,15]],[[8538,9781],[-6,14]],[[9982,9295],[-23,-53]],[[8447,9893],[-107,101]],[[8340,9994],[0,0]],[[8476,9931],[-41,15]],[[8435,9946],[41,-15]],[[8447,9893],[11,-5]],[[9863,9228],[17,0]],[[9959,9242],[-79,-14]],[[9880,9228],[-17,0]],[[8668,9315],[84,68]],[[8702,9674],[-34,19]],[[9801,9533],[45,-111]],[[9817,9485],[-5,10]],[[8684,9262],[-10,-5]],[[8725,9330],[-23,-20]],[[8702,9310],[-6,-23]],[[8730,9650],[63,-10]],[[8798,9630],[28,-14]],[[8832,9616],[5,-10]],[[8793,9403],[-23,-25]],[[8758,9383],[12,24]],[[8798,9519],[-5,-14]],[[8793,9505],[0,-30]],[[8787,9470],[-6,-5]],[[8775,9460],[35,63]],[[8815,9523],[5,-4]],[[8820,9519],[12,-5]],[[8832,9519],[-51,68]],[[8781,9587],[-17,19]],[[8872,9340],[-108,24]],[[9795,9267],[-17,-5]],[[9778,9262],[-17,48]],[[9749,9475],[6,44]],[[9755,9252],[-11,10]],[[9744,9262],[-5,43]],[[9659,9572],[131,-19]],[[9710,9533],[-124,30]],[[9580,9577],[74,0]],[[9654,9577],[5,-5]],[[8837,9514],[0,-4]],[[8855,9510],[6,-5]],[[8861,9505],[0,0]],[[9110,9345],[-51,67]],[[9059,9412],[-46,-9]],[[9013,9403],[-16,-10]],[[8997,9393],[-18,5]],[[8979,9398],[-17,14]],[[8945,9427],[-5,10]],[[8940,9437],[-6,9]],[[8934,9446],[-17,39]],[[8911,9495],[-50,10]],[[8861,9505],[39,-93]],[[8900,9407],[-6,-9]],[[8894,9398],[6,-15]],[[8894,9378],[-6,-10]],[[8888,9354],[-16,-14]],[[8888,9427],[-10,-5]],[[8804,9465],[-6,5]],[[8832,9510],[0,4]],[[9353,9310],[-158,73]],[[9189,9383],[164,-73]],[[9347,9209],[0,5]],[[9347,9214],[6,23]],[[9353,9242],[-181,73]],[[9110,9345],[0,0]],[[9133,9315],[-35,15]],[[9059,9427],[6,-5]],[[9076,9422],[5,-5]],[[9081,9417],[46,-10]],[[9042,9437],[0,0]],[[8940,9495],[96,-53]],[[9761,9310],[17,-48]],[[9807,9252],[-12,15]],[[9795,9267],[0,48]],[[9852,9325],[-23,5]],[[9829,9330],[6,5]],[[9846,9305],[-6,-13]],[[8402,9956],[16,-15]],[[8480,9888],[-33,5]],[[8447,9893],[-68,68]],[[8373,9966],[-33,28]],[[8340,9994],[16,-5]],[[8532,9805],[6,-24]],[[8544,9766],[10,-10]],[[8560,9751],[6,-9]],[[8571,9738],[74,-35]],[[8668,9703],[16,-19]],[[8684,9684],[41,-19]],[[9925,9345],[0,5]],[[9925,9350],[6,4]],[[9931,9354],[6,0]],[[9931,9350],[-6,-5]],[[9925,9345],[-22,-5]],[[9880,9228],[17,14]],[[9959,9262],[0,-20]],[[9959,9242],[-79,-14]],[[8702,9674],[-28,19]],[[8674,9693],[28,-19]],[[9829,9345],[-17,-5]],[[9795,9558],[0,0]],[[8719,9330],[6,0]],[[8725,9330],[-23,-20]],[[8696,9287],[0,-5]],[[8696,9282],[-6,-5]],[[9772,9528],[29,5]],[[9801,9533],[-6,-14]],[[9795,9514],[17,-19]],[[9812,9495],[-5,-5]],[[8730,9640],[0,10]],[[8730,9650],[34,0]],[[8770,9650],[23,-10]],[[8758,9383],[12,-5]],[[8770,9378],[0,-5]],[[8888,9354],[0,5]],[[8894,9427],[6,-20]],[[8900,9383],[-12,-15]],[[8888,9354],[-10,-4]],[[8866,9340],[6,0]],[[8872,9340],[-17,14]],[[8849,9359],[-85,5]],[[8764,9368],[-6,10]],[[9755,9519],[6,4]],[[9761,9523],[6,5]],[[9767,9528],[5,0]],[[9761,9475],[-12,0]],[[9749,9475],[6,44]],[[8770,9442],[5,14]],[[8775,9460],[6,5]],[[8781,9465],[0,-5]],[[9739,9305],[5,0]],[[9744,9262],[-5,43]],[[8781,9407],[-11,0]],[[8770,9407],[-12,10]],[[9659,9568],[0,4]],[[9659,9572],[131,-19]],[[9790,9553],[11,0]],[[9755,9543],[-68,10]],[[8832,9519],[-34,58]],[[8781,9587],[-17,19]],[[9744,9543],[-34,-10]],[[9710,9533],[-124,30]],[[9586,9563],[39,0]],[[9580,9577],[74,0]],[[9654,9572],[0,5]],[[9654,9577],[5,-5]],[[9659,9572],[-5,-4]],[[9603,9568],[-23,9]],[[9178,9383],[11,0]],[[9189,9383],[164,-73]],[[9353,9310],[-11,10]],[[9353,9310],[0,0]],[[9342,9247],[11,-5]],[[9347,9218],[0,-4]],[[9347,9214],[6,-5]],[[9353,9209],[-6,0]],[[9347,9209],[0,9]],[[9347,9218],[6,19]],[[9353,9242],[-6,5]],[[9342,9247],[-114,88]],[[9098,9330],[12,10]],[[9144,9364],[11,-24]],[[9160,9320],[-27,-5]],[[9133,9315],[-35,15]],[[8820,9519],[-5,4]],[[8810,9523],[-6,-4]],[[8832,9510],[-28,-15]],[[8945,9460],[17,-23]],[[8974,9427],[34,0]],[[9018,9427],[18,15]],[[9036,9442],[6,-5]],[[9059,9427],[11,-5]],[[9070,9422],[11,-5]],[[9086,9417],[41,-14]],[[9013,9407],[23,10]],[[9036,9417],[6,0]],[[9104,9350],[-28,43]],[[9076,9398],[-17,14]],[[9047,9412],[-34,-5]],[[8979,9398],[-17,14]],[[8962,9412],[-11,10]],[[8945,9427],[-5,10]],[[8934,9451],[-17,34]],[[8917,9485],[0,5]],[[8940,9480],[5,-10]],[[9931,9350],[6,4]],[[9943,9354],[-6,0]],[[9937,9354],[34,5]],[[9971,9359],[11,-64]],[[9982,9295],[-23,-33]],[[9959,9262],[-62,-20]],[[9897,9242],[34,108]],[[8356,9989],[46,-33]],[[8402,9956],[-23,5]],[[8379,9961],[-6,5]],[[8373,9966],[-17,23]],[[8418,9941],[6,0]],[[8424,9941],[52,-25]],[[8476,9916],[4,-5]],[[8480,9888],[-22,0]],[[8458,9888],[-11,5]],[[8447,9893],[-29,48]],[[8492,9911],[11,-23]],[[8679,9295],[0,10]],[[8684,9315],[-5,-10]],[[8684,9262],[-5,0]],[[8679,9262],[-5,-5]],[[8690,9277],[0,33]],[[8690,9310],[29,20]],[[8719,9330],[-17,-20]],[[8702,9310],[-6,-23]],[[8696,9287],[-6,0]],[[8690,9287],[0,-10]],[[9852,9335],[51,5]],[[9891,9335],[12,5]],[[9903,9340],[-57,-35]],[[9846,9305],[6,20]],[[9846,9325],[-11,10]],[[9835,9335],[17,0]],[[8758,9373],[0,-5]],[[8752,9368],[-10,-4]],[[8730,9640],[34,10]],[[8764,9650],[6,0]],[[8770,9650],[23,-10]],[[8837,9606],[0,0]],[[8837,9606],[-11,5]],[[8826,9611],[-6,0]],[[8815,9611],[-34,-5]],[[8764,9606],[-34,34]],[[8770,9442],[0,-10]],[[8770,9432],[-12,0]],[[8758,9432],[29,-25]],[[8787,9407],[-6,0]],[[8781,9407],[-23,10]],[[8758,9417],[0,15]],[[8752,9364],[12,4]],[[8764,9368],[0,-4]],[[8764,9364],[-12,0]],[[9829,9345],[6,5]],[[8764,9606],[17,0]],[[8781,9606],[34,5]],[[8815,9611],[5,0]],[[8820,9611],[41,-97]],[[8855,9514],[-18,0]],[[8837,9514],[-5,0]],[[8832,9514],[0,5]],[[8832,9519],[23,-5]],[[8855,9514],[6,0]],[[8861,9514],[-63,63]],[[8798,9577],[-17,10]],[[8781,9587],[-17,19]],[[9829,9368],[6,-9]],[[9835,9359],[-6,9]],[[8770,9373],[50,49]],[[8826,9422],[-6,0]],[[8820,9422],[29,-49]],[[8849,9359],[39,0]],[[8888,9359],[0,9]],[[8888,9373],[6,25]],[[8894,9403],[6,9]],[[8900,9412],[0,10]],[[8894,9422],[-6,5]],[[8888,9427],[6,0]],[[8894,9427],[0,-5]],[[8894,9422],[6,0]],[[8900,9422],[0,-10]],[[8900,9412],[0,-5]],[[8900,9407],[-6,-4]],[[8894,9403],[0,-5]],[[8894,9398],[6,-15]],[[8900,9383],[-6,-5]],[[8894,9378],[-6,-5]],[[8888,9373],[0,-5]],[[8888,9368],[0,-14]],[[8888,9354],[-10,-4]],[[8878,9350],[-12,-10]],[[8866,9340],[-11,14]],[[8855,9354],[-6,5]],[[8849,9359],[0,14]],[[8849,9373],[-79,0]],[[8770,9442],[5,9]],[[8775,9456],[0,4]],[[8775,9460],[6,0]],[[8775,9446],[-5,-4]],[[9790,9470],[5,5]],[[9795,9470],[-5,-5]],[[9790,9460],[0,-14]],[[9790,9437],[11,-30]],[[9807,9398],[5,-5]],[[9817,9388],[-5,5]],[[9795,9407],[-11,20]],[[9784,9432],[6,5]],[[9790,9437],[0,9]],[[9790,9456],[0,4]],[[9790,9460],[0,5]],[[9790,9465],[0,5]],[[9778,9510],[29,-20]],[[9807,9490],[5,-5]],[[9795,9475],[-17,35]],[[9772,9523],[18,-48]],[[9772,9480],[0,48]],[[9755,9543],[35,10]],[[9790,9553],[11,0]],[[9801,9553],[-46,-10]],[[9761,9310],[-12,-33]],[[9749,9277],[29,-15]],[[9778,9262],[29,-10]],[[9807,9252],[33,40]],[[9840,9292],[-91,-15]],[[9755,9252],[-11,10]],[[9739,9267],[5,-5]],[[9744,9262],[11,-10]],[[9744,9305],[5,0]],[[9749,9305],[-16,-28]],[[9739,9267],[-6,10]],[[9733,9277],[11,28]],[[8804,9465],[74,-43]],[[8878,9422],[-85,29]],[[8793,9451],[-6,5]],[[8781,9456],[6,0]],[[8787,9456],[6,-5]],[[8793,9451],[11,14]],[[9659,9568],[28,-15]],[[9687,9553],[-28,15]],[[9625,9563],[119,-20]],[[9744,9543],[-119,20]],[[9603,9568],[51,0]],[[9654,9568],[-51,0]],[[9155,9340],[136,-25]],[[9291,9320],[0,-5]],[[9291,9315],[56,-97]],[[9347,9218],[6,19]],[[9353,9237],[0,5]],[[9353,9242],[-6,5]],[[9347,9247],[-5,0]],[[9342,9247],[-114,88]],[[9228,9335],[-56,-20]],[[9172,9315],[-12,5]],[[9160,9320],[-5,20]],[[8804,9519],[6,4]],[[8810,9523],[5,0]],[[8815,9523],[0,-4]],[[8820,9519],[6,-5]],[[8826,9514],[-6,5]],[[8820,9519],[-5,0]],[[8804,9519],[-6,0]],[[8906,9505],[5,-10]],[[8911,9495],[6,-5]],[[8917,9490],[12,-20]],[[8929,9470],[5,-19]],[[8934,9451],[0,-5]],[[8934,9446],[11,-19]],[[8956,9417],[29,-19]],[[8985,9398],[12,-5]],[[8997,9393],[16,10]],[[9013,9403],[23,14]],[[9036,9417],[23,-5]],[[9070,9407],[74,-43]],[[9144,9364],[0,0]],[[9144,9364],[-34,-24]],[[9110,9340],[0,5]],[[9110,9345],[-6,5]],[[9104,9350],[-28,43]],[[9076,9393],[0,5]],[[9076,9398],[-6,9]],[[9070,9407],[-11,5]],[[9059,9412],[-12,0]],[[9047,9412],[-5,5]],[[9042,9417],[-29,-10]],[[9013,9407],[0,-4]],[[9013,9403],[-16,-10]],[[8997,9393],[-12,5]],[[8985,9398],[-6,0]],[[8979,9398],[-17,14]],[[8962,9412],[-6,5]],[[8956,9417],[-5,5]],[[8951,9422],[-6,5]],[[8945,9427],[0,5]],[[8945,9432],[-5,5]],[[8940,9437],[-6,9]],[[8934,9446],[-5,24]],[[8929,9470],[-12,15]],[[8917,9485],[-6,10]],[[8911,9495],[-5,10]],[[8906,9505],[-45,0]],[[8815,9510],[-11,0]],[[8798,9500],[6,-5]],[[8804,9495],[-6,-15]],[[8798,9470],[0,10]],[[8798,9480],[0,20]],[[8798,9500],[6,10]],[[8804,9510],[11,0]],[[8815,9510],[17,0]],[[8855,9510],[-18,0]],[[8679,9295],[0,-23]],[[8679,9267],[5,-5]],[[8684,9262],[-5,5]],[[8679,9267],[5,15]],[[8684,9282],[6,28]],[[8690,9310],[0,5]],[[8690,9315],[23,20]],[[8719,9340],[6,5]],[[8690,9315],[-11,-10]],[[8832,9514],[-12,0]],[[8793,9514],[11,5]],[[8804,9519],[11,0]],[[8815,9519],[5,-5]],[[8820,9514],[6,0]],[[8826,9514],[6,0]],[[8793,9475],[-6,-5]],[[8787,9470],[-12,-14]],[[8775,9437],[0,-15]],[[8775,9422],[23,-15]],[[8798,9407],[0,-4]],[[8798,9403],[-5,-5]],[[8793,9398],[0,5]],[[8793,9403],[-6,4]],[[8787,9407],[-17,25]],[[8770,9432],[5,5]],[[8775,9437],[0,9]],[[8775,9446],[0,5]],[[8775,9451],[0,5]],[[8775,9456],[6,4]],[[8781,9460],[6,10]],[[8736,9359],[6,0]],[[8742,9359],[0,5]],[[8742,9364],[5,0]],[[8747,9364],[-11,-5]],[[8747,9364],[5,4]],[[8752,9368],[6,0]],[[8758,9368],[-11,-4]],[[8480,9911],[12,0]],[[8492,9911],[11,-23]],[[8503,9888],[0,0]],[[8503,9888],[23,-59]],[[8526,9815],[-5,-10]],[[8521,9786],[-41,102]],[[8480,9888],[0,23]],[[8538,9829],[-6,-24]],[[8532,9805],[0,-10]],[[8532,9795],[6,-14]],[[8538,9781],[6,-15]],[[8544,9766],[10,-10]],[[8554,9756],[6,-5]],[[8560,9751],[6,-9]],[[8566,9742],[5,-4]],[[8571,9738],[74,-35]],[[8645,9703],[23,0]],[[8668,9703],[16,-15]],[[8684,9688],[41,-23]],[[8725,9665],[-23,9]],[[8702,9674],[-18,10]],[[8684,9684],[0,4]],[[8684,9688],[-10,5]],[[8674,9693],[-6,0]],[[8668,9693],[-102,49]],[[8566,9742],[-22,24]],[[8544,9766],[-23,20]],[[8521,9786],[0,19]],[[8521,9805],[5,10]],[[8526,9815],[0,14]],[[8526,9829],[12,0]],[[9829,9373],[-17,-33]],[[9812,9340],[0,53]],[[9807,9398],[-6,9]],[[9784,9432],[-23,43]],[[9761,9475],[11,5]],[[9772,9480],[18,-5]],[[9790,9475],[5,0]],[[9807,9480],[-17,-10]],[[9790,9470],[0,-14]],[[9790,9456],[0,-10]],[[9790,9446],[-6,-14]],[[9784,9432],[0,-5]],[[9784,9427],[11,-20]],[[9795,9407],[6,0]],[[9801,9407],[6,-9]],[[9807,9398],[5,-5]],[[9812,9393],[5,-5]],[[9875,9388],[10,-5]],[[9891,9359],[-39,-5]],[[9840,9354],[-5,5]],[[9835,9359],[5,5]],[[9846,9364],[-11,9]],[[9835,9368],[-6,0]],[[9829,9368],[0,5]],[[9829,9373],[-12,15]],[[9817,9388],[12,-15]],[[9829,9373],[6,0]],[[9835,9373],[-40,97]],[[9795,9470],[0,5]],[[9795,9475],[12,5]],[[9829,9345],[6,5]],[[9835,9350],[5,4]],[[9840,9354],[12,0]],[[9852,9354],[6,-4]],[[9858,9350],[-29,-10]],[[9829,9340],[-12,0]],[[9817,9340],[12,5]],[[9829,9330],[17,-5]],[[9846,9325],[6,0]],[[9852,9325],[-57,-10]],[[9795,9315],[34,15]],[[9840,9412],[113,-34]],[[9885,9373],[0,10]],[[9885,9383],[-10,5]],[[9875,9388],[-6,0]],[[9869,9388],[-29,19]],[[9885,9373],[35,-5]],[[9920,9368],[33,10]],[[9953,9378],[12,-5]],[[9965,9373],[-45,-5]],[[9920,9368],[-29,-9]],[[9891,9359],[-6,14]],[[9835,9368],[0,5]],[[9835,9373],[11,-9]],[[9846,9364],[-6,0]],[[9840,9364],[-5,4]],[[8690,9325],[6,5]],[[8702,9335],[11,5]],[[8719,9345],[6,0]],[[8725,9345],[0,2]],[[8725,9347],[0,3]],[[8730,9354],[6,5]],[[8730,9354],[-11,-14]],[[8719,9340],[-6,-5]],[[8713,9335],[-23,-15]],[[8725,9350],[5,4]],[[8934,9490],[6,5]],[[8940,9495],[-6,-5]],[[8934,9490],[0,-5]],[[8934,9485],[6,-5]],[[8940,9480],[5,-15]],[[8945,9465],[0,-5]],[[8945,9460],[0,-4]],[[8945,9456],[17,-19]],[[8962,9437],[12,-10]],[[8974,9427],[34,0]],[[9008,9427],[10,0]],[[9018,9427],[6,0]],[[9024,9427],[18,10]],[[9042,9437],[5,-5]],[[9047,9432],[12,-5]],[[9059,9427],[6,-5]],[[9065,9422],[5,0]],[[9070,9422],[6,0]],[[9076,9422],[5,-5]],[[9081,9417],[5,0]],[[9086,9417],[41,-14]],[[9127,9403],[0,4]],[[9127,9407],[51,-24]],[[9178,9383],[11,0]],[[9189,9383],[6,0]],[[9195,9383],[147,-63]],[[9342,9320],[-256,97]],[[9086,9417],[-10,5]],[[9076,9422],[-11,0]],[[9065,9422],[-18,10]],[[9047,9432],[-23,-5]],[[9024,9427],[-16,0]],[[9008,9427],[-63,29]],[[8945,9456],[0,9]],[[8945,9465],[0,5]],[[8945,9470],[-11,15]],[[9160,9378],[0,0]],[[9807,9480],[5,5]],[[9812,9485],[5,0]],[[9817,9485],[29,-63]],[[9846,9422],[-6,-10]],[[9840,9412],[0,-5]],[[9840,9407],[0,5]],[[9840,9412],[-33,68]],[[9846,9422],[0,0]],[[9778,9510],[-6,13]],[[9772,9523],[0,5]],[[9772,9528],[23,-9]],[[9795,9519],[0,-5]],[[9795,9514],[-17,-4]],[[8702,9335],[-6,-5]],[[8696,9330],[-6,-5]],[[8690,9325],[0,-5]],[[8690,9320],[0,-5]],[[8690,9315],[-6,0]],[[8684,9315],[-5,-10]],[[8679,9305],[0,-5]],[[8679,9300],[0,-5]],[[8679,9295],[0,-23]],[[8679,9272],[0,-5]],[[8679,9267],[-5,-10]],[[8674,9257],[-6,58]],[[8668,9315],[84,68]],[[8752,9383],[6,0]],[[8758,9383],[0,-5]],[[8758,9378],[0,-5]],[[8758,9373],[-6,-5]],[[8752,9368],[-16,-9]],[[8736,9359],[-6,-5]],[[8730,9354],[-11,-9]],[[8719,9345],[-6,-5]],[[8713,9340],[-11,-5]],[[8798,9630],[6,-4]],[[8826,9616],[11,-10]],[[8837,9606],[-5,10]],[[8832,9616],[-6,0]],[[8826,9616],[-22,10]],[[8804,9626],[-6,4]],[[8798,9630],[-5,10]],[[6929,8350],[6,20]],[[6935,8370],[4,0]],[[6543,8486],[-84,-106]],[[6424,8307],[-74,38]],[[6929,8350],[16,20]],[[6945,8370],[6,-5]],[[6736,8321],[147,19]],[[6917,8340],[12,10]],[[4855,8631],[17,-10]],[[4912,8608],[-85,-5]],[[5637,8617],[-68,0]],[[5654,8613],[170,-20]],[[6929,8365],[-6,-5]],[[6923,8360],[-6,-20]],[[6917,8340],[-34,0]],[[6883,8340],[-39,25]],[[5824,8593],[17,-30]],[[5852,8554],[17,-73]],[[5869,8476],[28,-10]],[[5903,8466],[80,-63]],[[5988,8535],[-5,-64]],[[6005,8403],[23,-18]],[[6022,8389],[-119,77]],[[5903,8466],[-6,0]],[[5897,8466],[-28,10]],[[5869,8476],[0,5]],[[5869,8481],[-17,73]],[[5852,8554],[-11,9]],[[5841,8563],[79,50]],[[6719,8316],[6,0]],[[6725,8316],[11,5]],[[6486,8253],[86,15]],[[6492,8646],[6,-53]],[[6436,8530],[0,78]],[[6039,8380],[45,-30]],[[6277,8278],[23,58]],[[6300,8340],[34,10]],[[6339,8350],[11,-5]],[[6350,8345],[68,-43]],[[6214,8370],[-68,33]],[[6300,8345],[0,-5]],[[6300,8340],[0,-4]],[[6300,8336],[-63,-20]],[[6237,8321],[-11,34]],[[6203,8355],[34,-34]],[[6237,8321],[0,-5]],[[6237,8316],[-39,10]],[[5977,8248],[-97,127]],[[7201,8215],[-12,5]],[[4850,8656],[5,-25]],[[4855,8631],[-28,-14]],[[7042,7633],[-23,-15]],[[4872,8621],[40,-13]],[[4912,8608],[-40,13]],[[6923,8360],[-74,5]],[[5654,8651],[-17,-34]],[[5637,8617],[-57,0]],[[5580,8621],[0,-4]],[[5580,8617],[-11,0]],[[5569,8617],[-6,19]],[[6764,8321],[165,10]],[[6939,8331],[12,34]],[[6951,8365],[0,5]],[[6923,8331],[-142,-10]],[[6776,8321],[-23,0]],[[5654,8613],[170,-20]],[[5824,8593],[45,-117]],[[5869,8476],[79,-58]],[[5869,8462],[-11,14]],[[5806,8573],[-152,40]],[[6731,8331],[-6,24],[84,5],[-73,-34],[-5,5]],[[6736,8321],[-11,-5]],[[6719,8312],[-11,-5]],[[5983,8471],[22,-68]],[[6005,8403],[-22,68]],[[5983,8403],[39,-14]],[[6022,8389],[6,-4]],[[6028,8385],[11,-5]],[[6039,8380],[45,-30]],[[6084,8350],[0,-10]],[[6198,8355],[5,0]],[[6203,8355],[-5,-29]],[[6198,8326],[-34,24]],[[6146,8403],[91,20]],[[6277,8385],[159,145]],[[6436,8530],[5,0]],[[6447,8530],[6,0]],[[6504,8535],[39,-49]],[[6543,8486],[-96,44]],[[6447,8530],[-6,0]],[[6441,8530],[-91,-185]],[[6350,8345],[-11,5]],[[6339,8350],[-5,0]],[[6334,8350],[-34,-5]],[[6300,8345],[-74,10]],[[6226,8355],[-12,15]],[[6214,8370],[-68,33]],[[6622,8238],[0,40]],[[6492,8646],[12,30]],[[6504,8680],[0,-4]],[[6504,8676],[-68,-68]],[[6436,8608],[56,38]],[[6481,8253],[5,0]],[[6486,8253],[86,15]],[[6572,8268],[5,-10]],[[6566,8258],[-85,-5]],[[6277,8278],[11,4]],[[6288,8282],[130,20]],[[6418,8302],[-5,-10]],[[6282,8278],[-5,0]],[[6492,8258],[-56,20]],[[6459,8380],[-35,-73]],[[6424,8307],[35,73]],[[5954,8418],[0,-5]],[[5954,8413],[29,-10]],[[5983,8403],[101,-63]],[[6084,8340],[0,-19]],[[5977,8248],[-97,127]],[[5880,8375],[-11,87]],[[5869,8462],[79,-44]],[[5948,8418],[6,0]],[[4866,8666],[6,0],[0,5],[5,0],[-5,-5],[-6,0]],[[4866,8666],[-16,-10]],[[4850,8656],[-6,-5]],[[4838,8651],[0,-5]],[[4838,8636],[-11,-5]],[[5563,8636],[12,-5]],[[5631,8636],[-29,-19]],[[5592,8621],[-29,15]],[[6957,8336],[5,4]],[[6962,8345],[-11,25]],[[6957,8336],[-28,-5]],[[5920,8613],[68,-78]],[[5988,8535],[-68,78]],[[6935,8370],[-6,-5]],[[6929,8365],[-6,-5]],[[6923,8360],[-11,-5]],[[6889,8355],[-22,10]],[[6861,8365],[-12,0]],[[6849,8365],[-5,0]],[[6736,8321],[17,0]],[[6753,8321],[11,0]],[[6764,8321],[17,0]],[[6781,8321],[-5,0]],[[6741,8316],[-5,5]],[[6731,8331],[-12,-15]],[[6719,8316],[-23,-9]],[[6696,8307],[0,0]],[[6696,8307],[12,0]],[[6708,8307],[5,0]],[[6719,8312],[6,4]],[[6725,8316],[11,5]],[[6736,8321],[0,-5]],[[6685,8302],[-22,-10]],[[6622,8238],[57,20]],[[6634,8215],[-12,23]],[[6577,8253],[0,5]],[[6577,8258],[-5,0]],[[6572,8258],[-91,-5]],[[6481,8253],[-6,0]],[[6198,8355],[-34,-5]],[[6164,8350],[34,5]],[[6436,8278],[-6,19]],[[6498,8258],[-62,20]],[[6237,8423],[40,-38]],[[6277,8385],[-40,38]],[[6294,8282],[119,10]],[[6413,8292],[-6,-5]],[[6407,8287],[-119,-5]],[[6731,8331],[-68,-39]],[[6663,8292],[-29,-14]],[[6634,8278],[-12,0]],[[6622,8278],[-118,-20]],[[6504,8258],[-6,0]],[[6498,8258],[-6,0]],[[6492,8258],[-62,39]],[[6430,8297],[301,34]],[[7189,8220],[12,-5]],[[7201,8215],[-12,5]],[[4866,8666],[-16,-10]],[[4850,8656],[-6,-5]],[[4844,8651],[-6,0]],[[4827,8651],[0,5],[-6,0],[0,-5],[6,0]],[[4827,8651],[5,0]],[[4832,8651],[6,-5]],[[4838,8646],[0,-10]],[[4838,8636],[-11,-5]],[[4827,8631],[-6,-10]],[[4821,8621],[6,-4]],[[4827,8617],[0,-14]],[[4827,8603],[5,48]],[[4832,8651],[6,0]],[[4838,8651],[28,15]],[[7036,7647],[0,29],[6,5],[11,-44],[-17,10]],[[5654,8651],[-23,-15]],[[5631,8636],[-29,-19]],[[5602,8617],[-10,4]],[[5592,8621],[-17,10]],[[5575,8631],[79,20]],[[7042,7633],[-23,-15]],[[7019,7618],[6,5]],[[7030,7628],[12,5]],[[5806,8573],[52,-97]],[[5858,8476],[-52,97]],[[7042,7633],[-12,-5]],[[7030,7628],[-5,-5]],[[7025,7623],[-6,-5]],[[7019,7618],[23,15]],[[5977,8248],[107,73]],[[6084,8321],[-107,-73]],[[6929,8331],[22,39]],[[6951,8370],[11,-25]],[[6962,8345],[0,-5]],[[6962,8340],[-5,-4]],[[6957,8336],[-18,-5]],[[6939,8331],[-10,0]],[[6929,8331],[-6,0]],[[6282,8278],[6,4]],[[6288,8282],[6,0]],[[6294,8282],[113,5]],[[6407,8287],[-125,-9]],[[6951,8370],[-6,0]],[[6945,8370],[-6,0]],[[6939,8370],[-4,0]],[[6935,8370],[-23,-15]],[[6912,8355],[-23,0]],[[6889,8355],[-22,10]],[[6867,8365],[-6,0]],[[6861,8365],[-12,0]],[[6849,8365],[102,5]],[[6741,8316],[35,5]],[[6776,8321],[-35,-5]],[[6459,8530],[39,63]],[[6498,8593],[6,-58]],[[6504,8535],[-45,-5]],[[6459,8530],[-6,0]],[[6679,8248],[0,10]],[[6679,8258],[-45,20]],[[6634,8278],[51,24]],[[6685,8302],[28,5]],[[6713,8307],[6,5]],[[6719,8312],[17,4]],[[6736,8316],[-23,-9]],[[6713,8307],[-79,-92]],[[6634,8215],[6,33]],[[6663,8253],[16,-5]],[[6475,8253],[91,5]],[[6566,8258],[6,0]],[[6572,8258],[5,-5]],[[6577,8253],[-102,0]],[[6663,8253],[-18,-5]],[[6645,8248],[-5,0]]]}