{"type":"Topology","objects":{"data":{"geometries":[{"properties":{"price":48300,"use":"\u548c\u6b4c\u5c71","zone":"","station":"\u4f4f\u5b85"},"type":"Point","coordinates":[12313,88914],"id":"feature_000"},{"properties":{"price":70100,"use":"\u548c\u6b4c\u5c71","zone":"","station":"\u4f4f\u5b85"},"type":"Point","coordinates":[8999,89679],"id":"feature_001"},{"properties":{"price":71000,"use":"\u548c\u6b4c\u5c71","zone":"","station":"\u4f4f\u5b85"},"type":"Point","coordinates":[11833,80447],"id":"feature_002"},{"properties":{"price":155000,"use":"\u548c\u6b4c\u5c71","zone":"","station":"\u4f4f\u5b85"},"type":"Point","coordinates":[10142,83987],"id":"feature_003"},{"properties":{"price":96700,"use":"\u548c\u6b4c\u5c71","zone":"","station":"\u4f4f\u5b85"},"type":"Point","coordinates":[11086,83931],"id":"feature_004"},{"properties":{"price":66500,"use":"\u548c\u6b4c\u5c71","zone":"","station":"\u4f4f\u5b85"},"type":"Point","coordinates":[10863,80948],"id":"feature_005"},{"properties":{"price":21100,"use":"\u548c\u6b4c\u5c71","zone":"","station":"\u4f4f\u5b85"},"type":"Point","coordinates":[0,90004],"id":"feature_006"},{"properties":{"price":47200,"use":"\u548c\u6b4c\u5c71","zone":"","station":"\u4f4f\u5b85"},"type":"Point","coordinates":[6483,87661],"id":"feature_007"},{"properties":{"price":55700,"use":"\u548c\u6b4c\u5c71","zone":"","station":"\u4f4f\u5b85"},"type":"Point","coordinates":[15373,84861],"id":"feature_008"},{"properties":{"price":34500,"use":"\u548c\u6b4c\u5c71","zone":"","station":"\u4f4f\u5b85"},"type":"Point","coordinates":[22669,87190],"id":"feature_009"},{"properties":{"price":35000,"use":"\u548c\u6b4c\u5c71","zone":"","station":"\u4f4f\u5b85"},"type":"Point","coordinates":[3850,87767],"id":"feature_010"},{"properties":{"price":42900,"use":"\u548c\u6b4c\u5c71","zone":"","station":"\u4f4f\u5b85"},"type":"Point","coordinates":[12126,77791],"id":"feature_011"},{"properties":{"price":44900,"use":"\u548c\u6b4c\u5c71","zone":"","station":"\u4f4f\u5b85"},"type":"Point","coordinates":[4955,88254],"id":"feature_012"},{"properties":{"price":29100,"use":"\u548c\u6b4c\u5c71","zone":"","station":"\u4f4f\u5b85"},"type":"Point","coordinates":[6754,86511],"id":"feature_013"},{"properties":{"price":46300,"use":"\u548c\u6b4c\u5c71","zone":"","station":"\u4f4f\u5b85"},"type":"Point","coordinates":[8044,87981],"id":"feature_014"},{"properties":{"price":43000,"use":"\u548c\u6b4c\u5c71","zone":"","station":"\u4f4f\u5b85"},"type":"Point","coordinates":[13308,86944],"id":"feature_015"},{"properties":{"price":37900,"use":"\u548c\u6b4c\u5c71","zone":"","station":"\u4f4f\u5b85"},"type":"Point","coordinates":[5178,88800],"id":"feature_016"},{"properties":{"price":39000,"use":"\u548c\u6b4c\u5c71","zone":"","station":"\u4f4f\u5b85"},"type":"Point","coordinates":[8731,81505],"id":"feature_017"},{"properties":{"price":49700,"use":"\u548c\u6b4c\u5c71","zone":"","station":"\u4f4f\u5b85"},"type":"Point","coordinates":[8871,86049],"id":"feature_018"},{"properties":{"price":125000,"use":"\u548c\u6b4c\u5c71","zone":"","station":"\u4f4f\u5b85"},"type":"Point","coordinates":[9480,84455],"id":"feature_019"},{"properties":{"price":64800,"use":"\u548c\u6b4c\u5c71","zone":"","station":"\u4f4f\u5b85"},"type":"Point","coordinates":[14556,83543],"id":"feature_020"},{"properties":{"price":90500,"use":"\u548c\u6b4c\u5c71","zone":"","station":"\u4f4f\u5b85"},"type":"Point","coordinates":[12175,86220],"id":"feature_021"},{"properties":{"price":51000,"use":"\u548c\u6b4c\u5c71","zone":"","station":"\u4f4f\u5b85"},"type":"Point","coordinates":[13279,82207],"id":"feature_022"},{"properties":{"price":50400,"use":"\u548c\u6b4c\u5c71","zone":"","station":"\u4f4f\u5b85"},"type":"Point","coordinates":[11648,82150],"id":"feature_023"},{"properties":{"price":65200,"use":"\u548c\u6b4c\u5c71","zone":"","station":"\u4f4f\u5b85"},"type":"Point","coordinates":[12741,78305],"id":"feature_024"},{"properties":{"price":44000,"use":"\u548c\u6b4c\u5c71","zone":"","station":"\u4f4f\u5b85"},"type":"Point","coordinates":[12226,87644],"id":"feature_025"},{"properties":{"price":137000,"use":"\u548c\u6b4c\u5c71","zone":"","station":"\u4f4f\u5b85"},"type":"Point","coordinates":[13375,84696],"id":"feature_026"},{"properties":{"price":36500,"use":"\u548c\u6b4c\u5c71","zone":"","station":"\u4f4f\u5b85"},"type":"Point","coordinates":[17552,81379],"id":"feature_027"},{"properties":{"price":58900,"use":"\u548c\u6b4c\u5c71","zone":"","station":"\u4f4f\u5b85"},"type":"Point","coordinates":[9673,82275],"id":"feature_028"},{"properties":{"price":88300,"use":"\u548c\u6b4c\u5c71","zone":"","station":"\u4f4f\u5b85"},"type":"Point","coordinates":[9360,83658],"id":"feature_029"},{"properties":{"price":64300,"use":"\u548c\u6b4c\u5c71","zone":"","station":"\u7a7a\u5730"},"type":"Point","coordinates":[13276,83396],"id":"feature_030"},{"properties":{"price":43500,"use":"\u548c\u6b4c\u5c71","zone":"","station":"\u4f4f\u5b85"},"type":"Point","coordinates":[8054,85565],"id":"feature_031"},{"properties":{"price":69000,"use":"\u548c\u6b4c\u5c71","zone":"","station":"\u4f4f\u5b85"},"type":"Point","coordinates":[14509,85826],"id":"feature_032"},{"properties":{"price":55900,"use":"\u548c\u6b4c\u5c71","zone":"","station":"\u4f4f\u5b85"},"type":"Point","coordinates":[10534,79904],"id":"feature_033"},{"properties":{"price":42100,"use":"\u548c\u6b4c\u5c71","zone":"","station":"\u4f4f\u5b85"},"type":"Point","coordinates":[17933,89182],"id":"feature_034"},{"properties":{"price":51700,"use":"\u548c\u6b4c\u5c71","zone":"","station":"\u4f4f\u5b85"},"type":"Point","coordinates":[10729,88057],"id":"feature_035"},{"properties":{"price":120000,"use":"\u548c\u6b4c\u5c71","zone":"","station":"\u4f4f\u5b85"},"type":"Point","coordinates":[10867,82227],"id":"feature_036"},{"properties":{"price":40000,"use":"\u548c\u6b4c\u5c71","zone":"","station":"\u4f4f\u5b85"},"type":"Point","coordinates":[13583,88769],"id":"feature_037"},{"properties":{"price":19600,"use":"\u548c\u6b4c\u5c71","zone":"","station":"\u4f4f\u5b85"},"type":"Point","coordinates":[20261,89546],"id":"feature_038"},{"properties":{"price":28100,"use":"\u548c\u6b4c\u5c71","zone":"","station":"\u4f4f\u5b85"},"type":"Point","coordinates":[18170,89704],"id":"feature_039"},{"properties":{"price":20000,"use":"\u548c\u6b4c\u5c71","zone":"","station":"\u4f4f\u5b85"},"type":"Point","coordinates":[16136,85658],"id":"feature_040"},{"properties":{"price":32500,"use":"\u548c\u6b4c\u5c71","zone":"","station":"\u4f4f\u5b85"},"type":"Point","coordinates":[15864,83114],"id":"feature_041"},{"properties":{"price":23900,"use":"\u548c\u6b4c\u5c71","zone":"","station":"\u4f4f\u5b85"},"type":"Point","coordinates":[20081,82028],"id":"feature_042"},{"properties":{"price":17300,"use":"\u548c\u6b4c\u5c71","zone":"","station":"\u4f4f\u5b85"},"type":"Point","coordinates":[14792,79965],"id":"feature_043"},{"properties":{"price":175000,"use":"\u548c\u6b4c\u5c71","zone":"","station":"\u5171\u540c\u4f4f\u5b85"},"type":"Point","coordinates":[12168,85061],"id":"feature_044"},{"properties":{"price":12700,"use":"\u548c\u6b4c\u5c71","zone":"","station":"\u7530"},"type":"Point","coordinates":[7415,87331],"id":"feature_045"},{"properties":{"price":450000,"use":"\u548c\u6b4c\u5c71","zone":"","station":"\u5e97\u8217\u517c\u4e8b\u52d9\u6240"},"type":"Point","coordinates":[12496,85226],"id":"feature_046"},{"properties":{"price":81500,"use":"\u548c\u6b4c\u5c71","zone":"","station":"\u55b6\u696d\u6240"},"type":"Point","coordinates":[9136,81378],"id":"feature_047"},{"properties":{"price":144000,"use":"\u548c\u6b4c\u5c71","zone":"","station":"\u8a3a\u7642\u6240"},"type":"Point","coordinates":[12415,84730],"id":"feature_048"},{"properties":{"price":140000,"use":"\u548c\u6b4c\u5c71","zone":"","station":"\u8a3a\u7642\u6240\u517c\u4f4f\u5b85"},"type":"Point","coordinates":[12823,85563],"id":"feature_049"},{"properties":{"price":138000,"use":"\u548c\u6b4c\u5c71","zone":"","station":"\u5e97\u8217"},"type":"Point","coordinates":[13179,85705],"id":"feature_050"},{"properties":{"price":113000,"use":"\u548c\u6b4c\u5c71","zone":"","station":"\u5e97\u8217\u517c\u4f4f\u5b85"},"type":"Point","coordinates":[13473,83290],"id":"feature_051"},{"properties":{"price":136000,"use":"\u548c\u6b4c\u5c71","zone":"","station":"\u4e8b\u52d9\u6240"},"type":"Point","coordinates":[10251,85202],"id":"feature_052"},{"properties":{"price":172000,"use":"\u548c\u6b4c\u5c71","zone":"","station":"\u5e97\u8217\u517c\u4f4f\u5b85"},"type":"Point","coordinates":[11097,85425],"id":"feature_053"},{"properties":{"price":97500,"use":"\u548c\u6b4c\u5c71","zone":"","station":"\u5e97\u8217"},"type":"Point","coordinates":[10450,82138],"id":"feature_054"},{"properties":{"price":81800,"use":"\u548c\u6b4c\u5c71","zone":"","station":"\u4e8b\u52d9\u6240"},"type":"Point","coordinates":[11020,80701],"id":"feature_055"},{"properties":{"price":54000,"use":"\u548c\u6b4c\u5c71","zone":"","station":"\u5e97\u8217\u517c\u4f4f\u5b85"},"type":"Point","coordinates":[5540,87460],"id":"feature_056"},{"properties":{"price":248000,"use":"\u548c\u6b4c\u5c71","zone":"","station":"\u4e8b\u52d9\u6240\u517c\u5e97\u8217"},"type":"Point","coordinates":[10840,85082],"id":"feature_057"},{"properties":{"price":66400,"use":"\u548c\u6b4c\u5c71","zone":"","station":"\u5e97\u8217"},"type":"Point","coordinates":[10108,80491],"id":"feature_058"},{"properties":{"price":147000,"use":"\u548c\u6b4c\u5c71","zone":"","station":"\u5e97\u8217\u517c\u4e8b\u52d9\u6240"},"type":"Point","coordinates":[13376,84933],"id":"feature_059"},{"properties":{"price":58800,"use":"\u548c\u6b4c\u5c71","zone":"","station":"\u5e97\u8217\u517c\u4f4f\u5b85"},"type":"Point","coordinates":[8369,83913],"id":"feature_060"},{"properties":{"price":148000,"use":"\u548c\u6b4c\u5c71","zone":"","station":"\u5e97\u8217"},"type":"Point","coordinates":[12504,84126],"id":"feature_061"},{"properties":{"price":178000,"use":"\u548c\u6b4c\u5c71","zone":"","station":"\u5e97\u8217\u517c\u4e8b\u52d9\u6240"},"type":"Point","coordinates":[10265,83986],"id":"feature_062"},{"properties":{"price":121000,"use":"\u548c\u6b4c\u5c71","zone":"","station":"\u5e97\u8217\u517c\u5171\u540c\u4f4f\u5b85"},"type":"Point","coordinates":[11547,85540],"id":"feature_063"},{"properties":{"price":136000,"use":"\u548c\u6b4c\u5c71","zone":"","station":"\u4e8b\u52d9\u6240\u517c\u4f4f\u5b85"},"type":"Point","coordinates":[11132,84703],"id":"feature_064"},{"properties":{"price":199000,"use":"\u548c\u6b4c\u5c71","zone":"","station":"\u4e8b\u52d9\u6240\u517c\u4f4f\u5b85"},"type":"Point","coordinates":[11168,84911],"id":"feature_065"},{"properties":{"price":110000,"use":"\u548c\u6b4c\u5c71","zone":"","station":"\u5e97\u8217\u517c\u4e8b\u52d9\u6240"},"type":"Point","coordinates":[12068,79572],"id":"feature_066"},{"properties":{"price":62500,"use":"\u548c\u6b4c\u5c71","zone":"","station":"\u6559\u7fd2\u6240"},"type":"Point","coordinates":[7639,88096],"id":"feature_067"},{"properties":{"price":72200,"use":"\u548c\u6b4c\u5c71","zone":"","station":"\u5de5\u5834"},"type":"Point","coordinates":[14461,86604],"id":"feature_068"},{"properties":{"price":105000,"use":"\u548c\u6b4c\u5c71","zone":"","station":"\u4e8b\u52d9\u6240\u517c\u5009\u5eab"},"type":"Point","coordinates":[9280,83910],"id":"feature_069"},{"properties":{"price":93500,"use":"\u548c\u6b4c\u5c71","zone":"","station":"\u5e97\u8217"},"type":"Point","coordinates":[11413,81652],"id":"feature_070"},{"properties":{"price":74500,"use":"\u548c\u6b4c\u5c71","zone":"","station":"\u8a3a\u7642\u6240"},"type":"Point","coordinates":[12181,88506],"id":"feature_071"},{"properties":{"price":98600,"use":"\u548c\u6b4c\u5c71","zone":"","station":"\u4e8b\u52d9\u6240\u517c\u5009\u5eab"},"type":"Point","coordinates":[14337,84746],"id":"feature_072"},{"properties":{"price":83600,"use":"\u548c\u6b4c\u5c71","zone":"","station":"\u5e97\u8217\u517c\u4f4f\u5b85"},"type":"Point","coordinates":[14079,88495],"id":"feature_073"},{"properties":{"price":23000,"use":"\u548c\u6b4c\u5c71","zone":"","station":"\u5de5\u5834"},"type":"Point","coordinates":[8795,84261],"id":"feature_074"},{"properties":{"price":18200,"use":"\u548c\u6b4c\u5c71","zone":"","station":"\u5de5\u5834"},"type":"Point","coordinates":[24039,87239],"id":"feature_075"},{"properties":{"price":20000,"use":"\u548c\u6b4c\u5c71","zone":"","station":"\u5de5\u5834"},"type":"Point","coordinates":[7386,81375],"id":"feature_076"},{"properties":{"price":35000,"use":"\u548c\u6b4c\u5c71","zone":"","station":"\u4e8b\u52d9\u6240\u3001\u5009\u5eab\u517c\u4f5c\u696d\u6240"},"type":"Point","coordinates":[15394,88128],"id":"feature_077"},{"properties":{"price":69500,"use":"\u6d77\u5357","zone":"","station":"\u4f4f\u5b85"},"type":"Point","coordinates":[18866,76656],"id":"feature_078"},{"properties":{"price":45000,"use":"\u6d77\u5357","zone":"","station":"\u4f4f\u5b85"},"type":"Point","coordinates":[13923,77041],"id":"feature_079"},{"properties":{"price":18100,"use":"\u6d77\u5357","zone":"","station":"\u4f4f\u5b85"},"type":"Point","coordinates":[8105,73101],"id":"feature_080"},{"properties":{"price":69000,"use":"\u6d77\u5357","zone":"","station":"\u4f4f\u5b85"},"type":"Point","coordinates":[15937,76428],"id":"feature_081"},{"properties":{"price":48800,"use":"\u6d77\u5357","zone":"","station":"\u4f4f\u5b85"},"type":"Point","coordinates":[15368,76837],"id":"feature_082"},{"properties":{"price":39800,"use":"\u6d77\u5357","zone":"","station":"\u4f4f\u5b85"},"type":"Point","coordinates":[16807,76039],"id":"feature_083"},{"properties":{"price":23600,"use":"\u6d77\u5357","zone":"","station":"\u4f4f\u5b85"},"type":"Point","coordinates":[15585,78141],"id":"feature_084"},{"properties":{"price":21400,"use":"\u6d77\u5357","zone":"","station":"\u4f4f\u5b85"},"type":"Point","coordinates":[23532,77150],"id":"feature_085"},{"properties":{"price":40700,"use":"\u6d77\u5357","zone":"","station":"\u4f4f\u5b85"},"type":"Point","coordinates":[8343,71314],"id":"feature_086"},{"properties":{"price":87500,"use":"\u6d77\u5357","zone":"","station":"\u5e97\u8217"},"type":"Point","coordinates":[14850,76502],"id":"feature_087"},{"properties":{"price":40200,"use":"\u6d77\u5357","zone":"","station":"\u5e97\u8217\u517c\u4f4f\u5b85"},"type":"Point","coordinates":[9173,73324],"id":"feature_088"},{"properties":{"price":72800,"use":"\u6d77\u5357","zone":"","station":"\u5e97\u8217"},"type":"Point","coordinates":[16054,76365],"id":"feature_089"},{"properties":{"price":32500,"use":"\u6a4b\u672c","zone":"","station":"\u4f4f\u5b85"},"type":"Point","coordinates":[58308,95096],"id":"feature_090"},{"properties":{"price":33200,"use":"\u6a4b\u672c","zone":"","station":"\u4f4f\u5b85"},"type":"Point","coordinates":[57764,99999],"id":"feature_091"},{"properties":{"price":27000,"use":"\u6a4b\u672c","zone":"","station":"\u4f4f\u5b85"},"type":"Point","coordinates":[59437,94975],"id":"feature_092"},{"properties":{"price":21200,"use":"\u6a4b\u672c","zone":"","station":"\u4f4f\u5b85"},"type":"Point","coordinates":[53872,93436],"id":"feature_093"},{"properties":{"price":28800,"use":"\u6a4b\u672c","zone":"","station":"\u4f4f\u5b85"},"type":"Point","coordinates":[52006,92624],"id":"feature_094"},{"properties":{"price":49500,"use":"\u6a4b\u672c","zone":"","station":"\u5e97\u8217\u517c\u4f4f\u5b85"},"type":"Point","coordinates":[57706,94639],"id":"feature_095"},{"properties":{"price":41300,"use":"\u6a4b\u672c","zone":"","station":"\u8a3a\u7642\u6240"},"type":"Point","coordinates":[57210,96946],"id":"feature_096"},{"properties":{"price":40300,"use":"\u6a4b\u672c","zone":"","station":"\u5e97\u8217"},"type":"Point","coordinates":[53894,93720],"id":"feature_097"},{"properties":{"price":39800,"use":"\u6709\u7530","zone":"","station":"\u4f4f\u5b85"},"type":"Point","coordinates":[5045,68943],"id":"feature_098"},{"properties":{"price":25500,"use":"\u6709\u7530","zone":"","station":"\u4f4f\u5b85"},"type":"Point","coordinates":[4592,70241],"id":"feature_099"},{"properties":{"price":31900,"use":"\u6709\u7530","zone":"","station":"\u4f4f\u5b85"},"type":"Point","coordinates":[3756,68007],"id":"feature_100"},{"properties":{"price":46500,"use":"\u6709\u7530","zone":"","station":"\u5e97\u8217\u517c\u4f4f\u5b85"},"type":"Point","coordinates":[5485,68717],"id":"feature_101"},{"properties":{"price":55300,"use":"\u6709\u7530","zone":"","station":"\u5e97\u8217\u517c\u5de5\u5834"},"type":"Point","coordinates":[5306,68060],"id":"feature_102"},{"properties":{"price":27300,"use":"\u5fa1\u574a","zone":"","station":"\u4f4f\u5b85"},"type":"Point","coordinates":[9054,47356],"id":"feature_103"},{"properties":{"price":18100,"use":"\u5fa1\u574a","zone":"","station":"\u7a7a\u5730"},"type":"Point","coordinates":[9406,49260],"id":"feature_104"},{"properties":{"price":28400,"use":"\u5fa1\u574a","zone":"","station":"\u4f4f\u5b85"},"type":"Point","coordinates":[9599,48497],"id":"feature_105"},{"properties":{"price":62700,"use":"\u5fa1\u574a","zone":"","station":"\u5e97\u8217"},"type":"Point","coordinates":[8393,47173],"id":"feature_106"},{"properties":{"price":59500,"use":"\u5fa1\u574a","zone":"","station":"\u5e97\u8217"},"type":"Point","coordinates":[9232,47993],"id":"feature_107"},{"properties":{"price":109000,"use":"\u7530\u8fba","zone":"","station":"\u4f4f\u5b85"},"type":"Point","coordinates":[34348,28977],"id":"feature_108"},{"properties":{"price":27700,"use":"\u7530\u8fba","zone":"","station":"\u4f4f\u5b85"},"type":"Point","coordinates":[32160,29561],"id":"feature_109"},{"properties":{"price":74100,"use":"\u7530\u8fba","zone":"","station":"\u4f4f\u5b85"},"type":"Point","coordinates":[35362,26250],"id":"feature_110"},{"properties":{"price":39500,"use":"\u7530\u8fba","zone":"","station":"\u4f4f\u5b85"},"type":"Point","coordinates":[33401,27866],"id":"feature_111"},{"properties":{"price":65500,"use":"\u7530\u8fba","zone":"","station":"\u5e97\u8217\u517c\u4e8b\u52d9\u6240"},"type":"Point","coordinates":[33182,28892],"id":"feature_112"},{"properties":{"price":83000,"use":"\u7530\u8fba","zone":"","station":"\u5e97\u8217\u517c\u4f4f\u5b85"},"type":"Point","coordinates":[33258,29117],"id":"feature_113"},{"properties":{"price":40800,"use":"\u65b0\u5bae","zone":"","station":"\u4f4f\u5b85"},"type":"Point","coordinates":[97715,27770],"id":"feature_114"},{"properties":{"price":28000,"use":"\u65b0\u5bae","zone":"","station":"\u4f4f\u5b85"},"type":"Point","coordinates":[99999,28015],"id":"feature_115"},{"properties":{"price":28900,"use":"\u65b0\u5bae","zone":"","station":"\u4f4f\u5b85"},"type":"Point","coordinates":[97281,24236],"id":"feature_116"},{"properties":{"price":59000,"use":"\u65b0\u5bae","zone":"","station":"\u5e97\u8217\u517c\u4f4f\u5b85"},"type":"Point","coordinates":[98273,28692],"id":"feature_117"},{"properties":{"price":72800,"use":"\u65b0\u5bae","zone":"","station":"\u8a3a\u7642\u6240\u517c\u4f4f\u5b85"},"type":"Point","coordinates":[98726,28120],"id":"feature_118"},{"properties":{"price":28500,"use":"\u7d00\u306e\u5ddd","zone":"","station":"\u4f4f\u5b85"},"type":"Point","coordinates":[31275,88751],"id":"feature_119"},{"properties":{"price":19800,"use":"\u7d00\u306e\u5ddd","zone":"","station":"\u4f4f\u5b85"},"type":"Point","coordinates":[30855,90103],"id":"feature_120"},{"properties":{"price":21800,"use":"\u7d00\u306e\u5ddd","zone":"","station":"\u4f4f\u5b85"},"type":"Point","coordinates":[35912,90382],"id":"feature_121"},{"properties":{"price":22700,"use":"\u7d00\u306e\u5ddd","zone":"","station":"\u4f4f\u5b85"},"type":"Point","coordinates":[25101,83467],"id":"feature_122"},{"properties":{"price":21000,"use":"\u7d00\u306e\u5ddd","zone":"","station":"\u4f4f\u5b85"},"type":"Point","coordinates":[37071,89322],"id":"feature_123"},{"properties":{"price":13800,"use":"\u7d00\u306e\u5ddd","zone":"","station":"\u4f4f\u5b85"},"type":"Point","coordinates":[39217,91791],"id":"feature_124"},{"properties":{"price":21500,"use":"\u7d00\u306e\u5ddd","zone":"","station":"\u4f4f\u5b85"},"type":"Point","coordinates":[29748,85945],"id":"feature_125"},{"properties":{"price":20600,"use":"\u7d00\u306e\u5ddd","zone":"","station":"\u4f4f\u5b85"},"type":"Point","coordinates":[25687,81921],"id":"feature_126"},{"properties":{"price":37200,"use":"\u7d00\u306e\u5ddd","zone":"","station":"\u5e97\u8217\u517c\u5de5\u5834"},"type":"Point","coordinates":[30776,88512],"id":"feature_127"},{"properties":{"price":35200,"use":"\u7d00\u306e\u5ddd","zone":"","station":"\u5e97\u8217\u517c\u4f4f\u5b85"},"type":"Point","coordinates":[35496,90090],"id":"feature_128"},{"properties":{"price":29200,"use":"\u7d00\u306e\u5ddd","zone":"","station":"\u5e97\u8217"},"type":"Point","coordinates":[38788,89712],"id":"feature_129"},{"properties":{"price":23200,"use":"\u7d00\u306e\u5ddd","zone":"","station":"\u5e97\u8217"},"type":"Point","coordinates":[28976,85883],"id":"feature_130"},{"properties":{"price":34100,"use":"\u7d00\u306e\u5ddd","zone":"","station":"\u5e97\u8217"},"type":"Point","coordinates":[25773,83236],"id":"feature_131"},{"properties":{"price":44800,"use":"\u5ca9\u51fa","zone":"","station":"\u4f4f\u5b85"},"type":"Point","coordinates":[25859,88131],"id":"feature_132"},{"properties":{"price":23400,"use":"\u5ca9\u51fa","zone":"","station":"\u4f4f\u5b85"},"type":"Point","coordinates":[25194,90647],"id":"feature_133"},{"properties":{"price":37300,"use":"\u5ca9\u51fa","zone":"","station":"\u4f4f\u5b85"},"type":"Point","coordinates":[23704,90054],"id":"feature_134"},{"properties":{"price":94800,"use":"\u5ca9\u51fa","zone":"","station":"\u5e97\u8217"},"type":"Point","coordinates":[25931,88372],"id":"feature_135"},{"properties":{"price":31000,"use":"\u304b\u3064\u3089\u304e","zone":"","station":"\u4f4f\u5b85"},"type":"Point","coordinates":[47776,92381],"id":"feature_136"},{"properties":{"price":17300,"use":"\u304b\u3064\u3089\u304e","zone":"","station":"\u4f4f\u5b85"},"type":"Point","coordinates":[43816,90380],"id":"feature_137"},{"properties":{"price":31000,"use":"\u304b\u3064\u3089\u304e","zone":"","station":"\u5e97\u8217\u517c\u4f4f\u5b85"},"type":"Point","coordinates":[43911,91636],"id":"feature_138"},{"properties":{"price":21500,"use":"\u4e5d\u5ea6\u5c71","zone":"","station":"\u4f4f\u5b85"},"type":"Point","coordinates":[52454,91698],"id":"feature_139"},{"properties":{"price":20400,"use":"\u4e5d\u5ea6\u5c71","zone":"","station":"\u4f4f\u5b85"},"type":"Point","coordinates":[51084,92406],"id":"feature_140"},{"properties":{"price":24500,"use":"\u4e5d\u5ea6\u5c71","zone":"","station":"\u5e97\u8217\u517c\u4f4f\u5b85"},"type":"Point","coordinates":[52793,91577],"id":"feature_141"},{"properties":{"price":25500,"use":"\u9ad8\u91ce","zone":"","station":"\u4f4f\u5b85"},"type":"Point","coordinates":[54004,82959],"id":"feature_142"},{"properties":{"price":16700,"use":"\u9ad8\u91ce","zone":"","station":"\u4f4f\u5b85"},"type":"Point","coordinates":[57539,83501],"id":"feature_143"},{"properties":{"price":27700,"use":"\u6e6f\u6d45","zone":"","station":"\u4f4f\u5b85"},"type":"Point","coordinates":[11763,63344],"id":"feature_144"},{"properties":{"price":32100,"use":"\u6e6f\u6d45","zone":"","station":"\u4f4f\u5b85"},"type":"Point","coordinates":[12401,63141],"id":"feature_145"},{"properties":{"price":31500,"use":"\u6e6f\u6d45","zone":"","station":"\u5e97\u8217\u3001\u4f4f\u5b85\u517c\u5009\u5eab"},"type":"Point","coordinates":[11577,63348],"id":"feature_146"},{"properties":{"price":46600,"use":"\u6709\u7530\u5ddd","zone":"","station":"\u4f4f\u5b85"},"type":"Point","coordinates":[14852,65808],"id":"feature_147"},{"properties":{"price":22100,"use":"\u6709\u7530\u5ddd","zone":"","station":"\u4f4f\u5b85"},"type":"Point","coordinates":[15644,67511],"id":"feature_148"},{"properties":{"price":59500,"use":"\u6709\u7530\u5ddd","zone":"","station":"\u5e97\u8217"},"type":"Point","coordinates":[12751,64912],"id":"feature_149"},{"properties":{"price":24900,"use":"\u548c\u6b4c\u5c71\u7f8e\u6d5c","zone":"","station":"\u4f4f\u5b85"},"type":"Point","coordinates":[8007,47293],"id":"feature_150"},{"properties":{"price":20200,"use":"\u548c\u6b4c\u5c71\u7f8e\u6d5c","zone":"","station":"\u4f4f\u5b85"},"type":"Point","coordinates":[8012,46255],"id":"feature_151"},{"properties":{"price":31300,"use":"\u548c\u6b4c\u5c71\u7f8e\u6d5c","zone":"","station":"\u5e97\u8217\u517c\u4f4f\u5b85"},"type":"Point","coordinates":[8310,46414],"id":"feature_152"},{"properties":{"price":18700,"use":"\u7531\u826f","zone":"","station":"\u4f4f\u5b85"},"type":"Point","coordinates":[4332,54213],"id":"feature_153"},{"properties":{"price":17100,"use":"\u7531\u826f","zone":"","station":"\u4f4f\u5b85"},"type":"Point","coordinates":[5580,54880],"id":"feature_154"},{"properties":{"price":25500,"use":"\u7531\u826f","zone":"","station":"\u5e97\u8217\u517c\u4f4f\u5b85"},"type":"Point","coordinates":[5711,55568],"id":"feature_155"},{"properties":{"price":32300,"use":"\u307f\u306a\u3079","zone":"","station":"\u4f4f\u5b85"},"type":"Point","coordinates":[26650,33137],"id":"feature_156"},{"properties":{"price":31000,"use":"\u307f\u306a\u3079","zone":"","station":"\u4f4f\u5b85"},"type":"Point","coordinates":[26919,33511],"id":"feature_157"},{"properties":{"price":40700,"use":"\u307f\u306a\u3079","zone":"","station":"\u5e97\u8217\u517c\u4e8b\u52d9\u6240"},"type":"Point","coordinates":[26831,32884],"id":"feature_158"},{"properties":{"price":38400,"use":"\u767d\u6d5c","zone":"","station":"\u4f4f\u5b85"},"type":"Point","coordinates":[29601,24072],"id":"feature_159"},{"properties":{"price":34700,"use":"\u767d\u6d5c","zone":"","station":"\u4f4f\u5b85"},"type":"Point","coordinates":[33778,21539],"id":"feature_160"},{"properties":{"price":13000,"use":"\u767d\u6d5c","zone":"","station":"\u4f4f\u5b85"},"type":"Point","coordinates":[39945,10843],"id":"feature_161"},{"properties":{"price":63900,"use":"\u767d\u6d5c","zone":"","station":"\u5e97\u8217"},"type":"Point","coordinates":[28994,23099],"id":"feature_162"},{"properties":{"price":21400,"use":"\u767d\u6d5c","zone":"","station":"\u5e97\u8217\u517c\u4f4f\u5b85"},"type":"Point","coordinates":[38544,10969],"id":"feature_163"},{"properties":{"price":36000,"use":"\u4e0a\u5bcc\u7530","zone":"","station":"\u4f4f\u5b85"},"type":"Point","coordinates":[38008,24936],"id":"feature_164"},{"properties":{"price":34800,"use":"\u4e0a\u5bcc\u7530","zone":"","station":"\u4f4f\u5b85"},"type":"Point","coordinates":[35496,25531],"id":"feature_165"},{"properties":{"price":27100,"use":"\u4e0a\u5bcc\u7530","zone":"","station":"\u4f4f\u5b85"},"type":"Point","coordinates":[39422,25785],"id":"feature_166"},{"properties":{"price":39000,"use":"\u4e0a\u5bcc\u7530","zone":"","station":"\u5e97\u8217\u517c\u4f4f\u5b85"},"type":"Point","coordinates":[37075,24946],"id":"feature_167"},{"properties":{"price":17500,"use":"\u3059\u3055\u307f","zone":"","station":"\u4f4f\u5b85"},"type":"Point","coordinates":[45238,8454],"id":"feature_168"},{"properties":{"price":10200,"use":"\u3059\u3055\u307f","zone":"","station":"\u4f4f\u5b85"},"type":"Point","coordinates":[44881,9485],"id":"feature_169"},{"properties":{"price":25500,"use":"\u3059\u3055\u307f","zone":"","station":"\u9280\u884c"},"type":"Point","coordinates":[45534,8698],"id":"feature_170"},{"properties":{"price":24700,"use":"\u90a3\u667a\u52dd\u6d66","zone":"","station":"\u4f4f\u5b85"},"type":"Point","coordinates":[92841,18094],"id":"feature_171"},{"properties":{"price":23000,"use":"\u90a3\u667a\u52dd\u6d66","zone":"","station":"\u4f4f\u5b85"},"type":"Point","coordinates":[95404,20960],"id":"feature_172"},{"properties":{"price":38800,"use":"\u90a3\u667a\u52dd\u6d66","zone":"","station":"\u5e97\u8217\u517c\u4f4f\u5b85"},"type":"Point","coordinates":[93422,17458],"id":"feature_173"},{"properties":{"price":14200,"use":"\u592a\u5730","zone":"","station":"\u4f4f\u5b85"},"type":"Point","coordinates":[92456,13339],"id":"feature_174"},{"properties":{"price":18900,"use":"\u592a\u5730","zone":"","station":"\u4f4f\u5b85"},"type":"Point","coordinates":[93689,13009],"id":"feature_175"},{"properties":{"price":20400,"use":"\u4e32\u672c","zone":"","station":"\u4f4f\u5b85"},"type":"Point","coordinates":[75915,0],"id":"feature_176"},{"properties":{"price":13000,"use":"\u4e32\u672c","zone":"","station":"\u4f4f\u5b85"},"type":"Point","coordinates":[79962,4184],"id":"feature_177"},{"properties":{"price":52000,"use":"\u4e32\u672c","zone":"","station":"\u4f4f\u5b85"},"type":"Point","coordinates":[76604,1209],"id":"feature_178"},{"properties":{"price":30000,"use":"\u4e32\u672c","zone":"","station":"\u5e97\u8217\u517c\u4f4f\u5b85"},"type":"Point","coordinates":[76132,232],"id":"feature_179"}],"type":"GeometryCollection"}},"bbox":[135.07347,33.47266,136.00355,34.36413],"transform":{"scale":[9.300893008930128e-06,8.914789147891532e-06],"translate":[135.07347,33.47266]},"arcs":[]}