{"type":"Topology","objects":{"data":{"geometries":[{"properties":{"price":105000,"use":"\u5c90\u961c","zone":"","station":"\u4f4f\u5b85"},"type":"Point","coordinates":[28000,21704],"id":"feature_000"},{"properties":{"price":88200,"use":"\u5c90\u961c","zone":"","station":"\u4f4f\u5b85"},"type":"Point","coordinates":[30220,23547],"id":"feature_001"},{"properties":{"price":60000,"use":"\u5c90\u961c","zone":"","station":"\u4f4f\u5b85"},"type":"Point","coordinates":[26314,18060],"id":"feature_002"},{"properties":{"price":137000,"use":"\u5c90\u961c","zone":"","station":"\u4f4f\u5b85"},"type":"Point","coordinates":[28062,20073],"id":"feature_003"},{"properties":{"price":132000,"use":"\u5c90\u961c","zone":"","station":"\u4f4f\u5b85"},"type":"Point","coordinates":[28915,20775],"id":"feature_004"},{"properties":{"price":68600,"use":"\u5c90\u961c","zone":"","station":"\u4f4f\u5b85"},"type":"Point","coordinates":[23469,20082],"id":"feature_005"},{"properties":{"price":73200,"use":"\u5c90\u961c","zone":"","station":"\u4f4f\u5b85"},"type":"Point","coordinates":[27395,18997],"id":"feature_006"},{"properties":{"price":63500,"use":"\u5c90\u961c","zone":"","station":"\u4f4f\u5b85"},"type":"Point","coordinates":[31216,20640],"id":"feature_007"},{"properties":{"price":78500,"use":"\u5c90\u961c","zone":"","station":"\u4f4f\u5b85"},"type":"Point","coordinates":[27511,22844],"id":"feature_008"},{"properties":{"price":13300,"use":"\u5c90\u961c","zone":"","station":"\u4f4f\u5b85"},"type":"Point","coordinates":[27403,28002],"id":"feature_009"},{"properties":{"price":94900,"use":"\u5c90\u961c","zone":"","station":"\u4f4f\u5b85"},"type":"Point","coordinates":[26886,20801],"id":"feature_010"},{"properties":{"price":23600,"use":"\u5c90\u961c","zone":"","station":"\u4f4f\u5b85"},"type":"Point","coordinates":[37336,23067],"id":"feature_011"},{"properties":{"price":62500,"use":"\u5c90\u961c","zone":"","station":"\u4f4f\u5b85"},"type":"Point","coordinates":[32917,20792],"id":"feature_012"},{"properties":{"price":68400,"use":"\u5c90\u961c","zone":"","station":"\u4f4f\u5b85"},"type":"Point","coordinates":[25761,21700],"id":"feature_013"},{"properties":{"price":45000,"use":"\u5c90\u961c","zone":"","station":"\u4f4f\u5b85"},"type":"Point","coordinates":[31037,24497],"id":"feature_014"},{"properties":{"price":14100,"use":"\u5c90\u961c","zone":"","station":"\u4f4f\u5b85"},"type":"Point","coordinates":[35306,28907],"id":"feature_015"},{"properties":{"price":68900,"use":"\u5c90\u961c","zone":"","station":"\u4f4f\u5b85"},"type":"Point","coordinates":[26620,22832],"id":"feature_016"},{"properties":{"price":47600,"use":"\u5c90\u961c","zone":"","station":"\u4f4f\u5b85"},"type":"Point","coordinates":[33660,19339],"id":"feature_017"},{"properties":{"price":87200,"use":"\u5c90\u961c","zone":"","station":"\u4f4f\u5b85"},"type":"Point","coordinates":[29508,22572],"id":"feature_018"},{"properties":{"price":58300,"use":"\u5c90\u961c","zone":"","station":"\u4f4f\u5b85"},"type":"Point","coordinates":[24270,18605],"id":"feature_019"},{"properties":{"price":36800,"use":"\u5c90\u961c","zone":"","station":"\u4f4f\u5b85"},"type":"Point","coordinates":[23343,23708],"id":"feature_020"},{"properties":{"price":42900,"use":"\u5c90\u961c","zone":"","station":"\u4f4f\u5b85"},"type":"Point","coordinates":[22871,20639],"id":"feature_021"},{"properties":{"price":37900,"use":"\u5c90\u961c","zone":"","station":"\u4f4f\u5b85"},"type":"Point","coordinates":[29696,26897],"id":"feature_022"},{"properties":{"price":27800,"use":"\u5c90\u961c","zone":"","station":"\u4f4f\u5b85"},"type":"Point","coordinates":[31980,26106],"id":"feature_023"},{"properties":{"price":74100,"use":"\u5c90\u961c","zone":"","station":"\u4f4f\u5b85"},"type":"Point","coordinates":[29227,24470],"id":"feature_024"},{"properties":{"price":45400,"use":"\u5c90\u961c","zone":"","station":"\u4f4f\u5b85"},"type":"Point","coordinates":[27317,16700],"id":"feature_025"},{"properties":{"price":82600,"use":"\u5c90\u961c","zone":"","station":"\u4f4f\u5b85"},"type":"Point","coordinates":[26505,21083],"id":"feature_026"},{"properties":{"price":59100,"use":"\u5c90\u961c","zone":"","station":"\u4f4f\u5b85"},"type":"Point","coordinates":[27296,24191],"id":"feature_027"},{"properties":{"price":102000,"use":"\u5c90\u961c","zone":"","station":"\u4f4f\u5b85"},"type":"Point","coordinates":[27382,21718],"id":"feature_028"},{"properties":{"price":80900,"use":"\u5c90\u961c","zone":"","station":"\u4f4f\u5b85"},"type":"Point","coordinates":[25914,20772],"id":"feature_029"},{"properties":{"price":53000,"use":"\u5c90\u961c","zone":"","station":"\u4f4f\u5b85"},"type":"Point","coordinates":[30576,21434],"id":"feature_030"},{"properties":{"price":21800,"use":"\u5c90\u961c","zone":"","station":"\u4f4f\u5b85"},"type":"Point","coordinates":[34044,27027],"id":"feature_031"},{"properties":{"price":64800,"use":"\u5c90\u961c","zone":"","station":"\u4f4f\u5b85"},"type":"Point","coordinates":[23937,19333],"id":"feature_032"},{"properties":{"price":113000,"use":"\u5c90\u961c","zone":"","station":"\u4f4f\u5b85"},"type":"Point","coordinates":[27514,19624],"id":"feature_033"},{"properties":{"price":64300,"use":"\u5c90\u961c","zone":"","station":"\u4f4f\u5b85"},"type":"Point","coordinates":[28064,18868],"id":"feature_034"},{"properties":{"price":24200,"use":"\u5c90\u961c","zone":"","station":"\u4f4f\u5b85"},"type":"Point","coordinates":[35785,27214],"id":"feature_035"},{"properties":{"price":42000,"use":"\u5c90\u961c","zone":"","station":"\u4f4f\u5b85"},"type":"Point","coordinates":[32550,22334],"id":"feature_036"},{"properties":{"price":43700,"use":"\u5c90\u961c","zone":"","station":"\u4f4f\u5b85"},"type":"Point","coordinates":[31622,23809],"id":"feature_037"},{"properties":{"price":56500,"use":"\u5c90\u961c","zone":"","station":"\u4f4f\u5b85"},"type":"Point","coordinates":[33374,21143],"id":"feature_038"},{"properties":{"price":52300,"use":"\u5c90\u961c","zone":"","station":"\u4f4f\u5b85"},"type":"Point","coordinates":[24577,22621],"id":"feature_039"},{"properties":{"price":57400,"use":"\u5c90\u961c","zone":"","station":"\u4f4f\u5b85"},"type":"Point","coordinates":[29223,25015],"id":"feature_040"},{"properties":{"price":67000,"use":"\u5c90\u961c","zone":"","station":"\u4f4f\u5b85"},"type":"Point","coordinates":[26347,22287],"id":"feature_041"},{"properties":{"price":107000,"use":"\u5c90\u961c","zone":"","station":"\u4f4f\u5b85"},"type":"Point","coordinates":[24784,20188],"id":"feature_042"},{"properties":{"price":34500,"use":"\u5c90\u961c","zone":"","station":"\u4f4f\u5b85"},"type":"Point","coordinates":[24150,23129],"id":"feature_043"},{"properties":{"price":99700,"use":"\u5c90\u961c","zone":"","station":"\u4f4f\u5b85"},"type":"Point","coordinates":[28798,20140],"id":"feature_044"},{"properties":{"price":74900,"use":"\u5c90\u961c","zone":"","station":"\u4f4f\u5b85"},"type":"Point","coordinates":[28767,23728],"id":"feature_045"},{"properties":{"price":72800,"use":"\u5c90\u961c","zone":"","station":"\u4f4f\u5b85"},"type":"Point","coordinates":[30131,23935],"id":"feature_046"},{"properties":{"price":73200,"use":"\u5c90\u961c","zone":"","station":"\u4f4f\u5b85"},"type":"Point","coordinates":[28210,22972],"id":"feature_047"},{"properties":{"price":37900,"use":"\u5c90\u961c","zone":"","station":"\u4f4f\u5b85"},"type":"Point","coordinates":[32500,19801],"id":"feature_048"},{"properties":{"price":80100,"use":"\u5c90\u961c","zone":"","station":"\u4f4f\u5b85"},"type":"Point","coordinates":[29717,20368],"id":"feature_049"},{"properties":{"price":51500,"use":"\u5c90\u961c","zone":"","station":"\u4f4f\u5b85"},"type":"Point","coordinates":[24896,21167],"id":"feature_050"},{"properties":{"price":84400,"use":"\u5c90\u961c","zone":"","station":"\u4f4f\u5b85"},"type":"Point","coordinates":[26764,19657],"id":"feature_051"},{"properties":{"price":31200,"use":"\u5c90\u961c","zone":"","station":"\u4f4f\u5b85"},"type":"Point","coordinates":[22405,17053],"id":"feature_052"},{"properties":{"price":29800,"use":"\u5c90\u961c","zone":"","station":"\u4f4f\u5b85"},"type":"Point","coordinates":[23234,24382],"id":"feature_053"},{"properties":{"price":27700,"use":"\u5c90\u961c","zone":"","station":"\u4f4f\u5b85"},"type":"Point","coordinates":[22026,25586],"id":"feature_054"},{"properties":{"price":123000,"use":"\u5c90\u961c","zone":"","station":"\u4f4f\u5b85"},"type":"Point","coordinates":[28521,21820],"id":"feature_055"},{"properties":{"price":29600,"use":"\u5c90\u961c","zone":"","station":"\u4f4f\u5b85"},"type":"Point","coordinates":[36670,24331],"id":"feature_056"},{"properties":{"price":30000,"use":"\u5c90\u961c","zone":"","station":"\u4f4f\u5b85"},"type":"Point","coordinates":[23603,25640],"id":"feature_057"},{"properties":{"price":33800,"use":"\u5c90\u961c","zone":"","station":"\u4f4f\u5b85"},"type":"Point","coordinates":[24923,17526],"id":"feature_058"},{"properties":{"price":39700,"use":"\u5c90\u961c","zone":"","station":"\u4f4f\u5b85"},"type":"Point","coordinates":[30539,27233],"id":"feature_059"},{"properties":{"price":177000,"use":"\u5c90\u961c","zone":"","station":"\u4f4f\u5b85"},"type":"Point","coordinates":[28276,20194],"id":"feature_060"},{"properties":{"price":51300,"use":"\u5c90\u961c","zone":"","station":"\u4f4f\u5b85"},"type":"Point","coordinates":[26320,17494],"id":"feature_061"},{"properties":{"price":32100,"use":"\u5c90\u961c","zone":"","station":"\u4f4f\u5b85"},"type":"Point","coordinates":[23671,15788],"id":"feature_062"},{"properties":{"price":36000,"use":"\u5c90\u961c","zone":"","station":"\u4f4f\u5b85"},"type":"Point","coordinates":[35916,23020],"id":"feature_063"},{"properties":{"price":58400,"use":"\u5c90\u961c","zone":"","station":"\u4f4f\u5b85"},"type":"Point","coordinates":[28651,19195],"id":"feature_064"},{"properties":{"price":93100,"use":"\u5c90\u961c","zone":"","station":"\u4f4f\u5b85"},"type":"Point","coordinates":[27167,20261],"id":"feature_065"},{"properties":{"price":33300,"use":"\u5c90\u961c","zone":"","station":"\u4f4f\u5b85"},"type":"Point","coordinates":[23754,17372],"id":"feature_066"},{"properties":{"price":54100,"use":"\u5c90\u961c","zone":"","station":"\u4f4f\u5b85"},"type":"Point","coordinates":[26509,16658],"id":"feature_067"},{"properties":{"price":28400,"use":"\u5c90\u961c","zone":"","station":"\u4f4f\u5b85"},"type":"Point","coordinates":[25597,23917],"id":"feature_068"},{"properties":{"price":321000,"use":"\u5c90\u961c","zone":"","station":"\u5171\u540c\u4f4f\u5b85"},"type":"Point","coordinates":[28107,20917],"id":"feature_069"},{"properties":{"price":13200,"use":"\u5c90\u961c","zone":"","station":"\u7530"},"type":"Point","coordinates":[24366,23538],"id":"feature_070"},{"properties":{"price":175000,"use":"\u5c90\u961c","zone":"","station":"\u5e97\u8217\u517c\u4f4f\u5b85"},"type":"Point","coordinates":[28415,21348],"id":"feature_071"},{"properties":{"price":120000,"use":"\u5c90\u961c","zone":"","station":"\u4e8b\u52d9\u6240\u517c\u4f4f\u5b85"},"type":"Point","coordinates":[28032,20916],"id":"feature_072"},{"properties":{"price":128000,"use":"\u5c90\u961c","zone":"","station":"\u30db\u30c6\u30eb"},"type":"Point","coordinates":[28573,21161],"id":"feature_073"},{"properties":{"price":73200,"use":"\u5c90\u961c","zone":"","station":"\u5e97\u8217\u517c\u5171\u540c\u4f4f\u5b85"},"type":"Point","coordinates":[27277,22569],"id":"feature_074"},{"properties":{"price":674000,"use":"\u5c90\u961c","zone":"","station":"\u4e8b\u52d9\u6240\u517c\u5e97\u8217"},"type":"Point","coordinates":[28259,20634],"id":"feature_075"},{"properties":{"price":77000,"use":"\u5c90\u961c","zone":"","station":"\u5e97\u8217"},"type":"Point","coordinates":[26702,24130],"id":"feature_076"},{"properties":{"price":89300,"use":"\u5c90\u961c","zone":"","station":"\u5e97\u8217"},"type":"Point","coordinates":[30280,24196],"id":"feature_077"},{"properties":{"price":96600,"use":"\u5c90\u961c","zone":"","station":"\u5e97\u8217"},"type":"Point","coordinates":[24505,20533],"id":"feature_078"},{"properties":{"price":67900,"use":"\u5c90\u961c","zone":"","station":"\u5e97\u8217"},"type":"Point","coordinates":[24731,19201],"id":"feature_079"},{"properties":{"price":58900,"use":"\u5c90\u961c","zone":"","station":"\u5e97\u8217\u517c\u4f4f\u5b85"},"type":"Point","coordinates":[32462,20327],"id":"feature_080"},{"properties":{"price":96900,"use":"\u5c90\u961c","zone":"","station":"\u5e97\u8217\u517c\u4f4f\u5b85"},"type":"Point","coordinates":[27650,21646],"id":"feature_081"},{"properties":{"price":88900,"use":"\u5c90\u961c","zone":"","station":"\u5e97\u8217"},"type":"Point","coordinates":[25742,20838],"id":"feature_082"},{"properties":{"price":118000,"use":"\u5c90\u961c","zone":"","station":"\u5e97\u8217\u517c\u4f4f\u5b85"},"type":"Point","coordinates":[28226,19934],"id":"feature_083"},{"properties":{"price":152000,"use":"\u5c90\u961c","zone":"","station":"\u5e97\u8217\u517c\u4f4f\u5b85"},"type":"Point","coordinates":[28641,20834],"id":"feature_084"},{"properties":{"price":70700,"use":"\u5c90\u961c","zone":"","station":"\u4e8b\u52d9\u6240"},"type":"Point","coordinates":[30859,20678],"id":"feature_085"},{"properties":{"price":156000,"use":"\u5c90\u961c","zone":"","station":"\u4e8b\u52d9\u6240"},"type":"Point","coordinates":[28597,21823],"id":"feature_086"},{"properties":{"price":111000,"use":"\u5c90\u961c","zone":"","station":"\u5e97\u8217"},"type":"Point","coordinates":[27229,21113],"id":"feature_087"},{"properties":{"price":221000,"use":"\u5c90\u961c","zone":"","station":"\u4e8b\u52d9\u6240"},"type":"Point","coordinates":[28099,21070],"id":"feature_088"},{"properties":{"price":39700,"use":"\u5c90\u961c","zone":"","station":"\u4e8b\u52d9\u6240\u517c\u4f4f\u5b85"},"type":"Point","coordinates":[36652,24121],"id":"feature_089"},{"properties":{"price":76400,"use":"\u5c90\u961c","zone":"","station":"\u5e97\u8217\u517c\u5009\u5eab"},"type":"Point","coordinates":[27936,18630],"id":"feature_090"},{"properties":{"price":77100,"use":"\u5c90\u961c","zone":"","station":"\u4e8b\u52d9\u6240"},"type":"Point","coordinates":[27228,19251],"id":"feature_091"},{"properties":{"price":109000,"use":"\u5c90\u961c","zone":"","station":"\u4e8b\u52d9\u6240\u3001\u4f5c\u696d\u5834\u517c\u4f4f\u5b85\u7b49"},"type":"Point","coordinates":[27397,20765],"id":"feature_092"},{"properties":{"price":111000,"use":"\u5c90\u961c","zone":"","station":"\u4e8b\u52d9\u6240"},"type":"Point","coordinates":[27905,21473],"id":"feature_093"},{"properties":{"price":47000,"use":"\u5c90\u961c","zone":"","station":"\u5e97\u8217\u517c\u4f4f\u5b85"},"type":"Point","coordinates":[30649,26528],"id":"feature_094"},{"properties":{"price":96000,"use":"\u5c90\u961c","zone":"","station":"\u4e8b\u52d9\u6240"},"type":"Point","coordinates":[25022,19184],"id":"feature_095"},{"properties":{"price":87500,"use":"\u5c90\u961c","zone":"","station":"\u5e97\u8217\u3001\u4f4f\u5b85\u517c\u5009\u5eab"},"type":"Point","coordinates":[28953,21184],"id":"feature_096"},{"properties":{"price":41900,"use":"\u5c90\u961c","zone":"","station":"\u5e97\u8217\u517c\u5171\u540c\u4f4f\u5b85"},"type":"Point","coordinates":[23339,17191],"id":"feature_097"},{"properties":{"price":56300,"use":"\u5c90\u961c","zone":"","station":"\u5e97\u8217"},"type":"Point","coordinates":[25734,24766],"id":"feature_098"},{"properties":{"price":247000,"use":"\u5c90\u961c","zone":"","station":"\u5e97\u8217\u3001\u4e8b\u52d9\u6240\u517c\u5171\u540c\u4f4f\u5b85\u7b49"},"type":"Point","coordinates":[28254,20445],"id":"feature_099"},{"properties":{"price":74600,"use":"\u5c90\u961c","zone":"","station":"\u4e8b\u52d9\u6240\u517c\u5009\u5eab"},"type":"Point","coordinates":[27371,18231],"id":"feature_100"},{"properties":{"price":235000,"use":"\u5c90\u961c","zone":"","station":"\u5e97\u8217"},"type":"Point","coordinates":[28234,20819],"id":"feature_101"},{"properties":{"price":32200,"use":"\u5c90\u961c","zone":"","station":"\u5de5\u5834"},"type":"Point","coordinates":[25501,16717],"id":"feature_102"},{"properties":{"price":42700,"use":"\u5c90\u961c","zone":"","station":"\u5de5\u5834"},"type":"Point","coordinates":[25905,20156],"id":"feature_103"},{"properties":{"price":42100,"use":"\u5c90\u961c","zone":"","station":"\u4e8b\u52d9\u6240\u517c\u5009\u5eab"},"type":"Point","coordinates":[26191,18767],"id":"feature_104"},{"properties":{"price":31500,"use":"\u5c90\u961c","zone":"","station":"\u5de5\u5834"},"type":"Point","coordinates":[22703,16589],"id":"feature_105"},{"properties":{"price":52400,"use":"\u5c90\u961c","zone":"","station":"\u5de5\u5834\u517c\u4f4f\u5b85"},"type":"Point","coordinates":[30087,21277],"id":"feature_106"},{"properties":{"price":22500,"use":"\u5c90\u961c","zone":"","station":"\u5de5\u5834"},"type":"Point","coordinates":[22594,24569],"id":"feature_107"},{"properties":{"price":87800,"use":"\u5927\u57a3","zone":"","station":"\u4f4f\u5b85"},"type":"Point","coordinates":[14008,16442],"id":"feature_108"},{"properties":{"price":37900,"use":"\u5927\u57a3","zone":"","station":"\u4f4f\u5b85"},"type":"Point","coordinates":[9961,16838],"id":"feature_109"},{"properties":{"price":83200,"use":"\u5927\u57a3","zone":"","station":"\u4f4f\u5b85"},"type":"Point","coordinates":[15306,16780],"id":"feature_110"},{"properties":{"price":68200,"use":"\u5927\u57a3","zone":"","station":"\u4f4f\u5b85"},"type":"Point","coordinates":[15974,16127],"id":"feature_111"},{"properties":{"price":60400,"use":"\u5927\u57a3","zone":"","station":"\u4f4f\u5b85"},"type":"Point","coordinates":[16278,15346],"id":"feature_112"},{"properties":{"price":24200,"use":"\u5927\u57a3","zone":"","station":"\u4f4f\u5b85"},"type":"Point","coordinates":[13285,18813],"id":"feature_113"},{"properties":{"price":54300,"use":"\u5927\u57a3","zone":"","station":"\u4f4f\u5b85"},"type":"Point","coordinates":[13593,15597],"id":"feature_114"},{"properties":{"price":41900,"use":"\u5927\u57a3","zone":"","station":"\u4f4f\u5b85"},"type":"Point","coordinates":[16918,18302],"id":"feature_115"},{"properties":{"price":58600,"use":"\u5927\u57a3","zone":"","station":"\u4f4f\u5b85"},"type":"Point","coordinates":[14437,18273],"id":"feature_116"},{"properties":{"price":45800,"use":"\u5927\u57a3","zone":"","station":"\u4f4f\u5b85"},"type":"Point","coordinates":[12963,18012],"id":"feature_117"},{"properties":{"price":40100,"use":"\u5927\u57a3","zone":"","station":"\u4f4f\u5b85"},"type":"Point","coordinates":[11696,19262],"id":"feature_118"},{"properties":{"price":53800,"use":"\u5927\u57a3","zone":"","station":"\u4f4f\u5b85"},"type":"Point","coordinates":[17844,16417],"id":"feature_119"},{"properties":{"price":43400,"use":"\u5927\u57a3","zone":"","station":"\u4f4f\u5b85"},"type":"Point","coordinates":[15121,13155],"id":"feature_120"},{"properties":{"price":52800,"use":"\u5927\u57a3","zone":"","station":"\u4f4f\u5b85"},"type":"Point","coordinates":[15035,15036],"id":"feature_121"},{"properties":{"price":38000,"use":"\u5927\u57a3","zone":"","station":"\u4f4f\u5b85"},"type":"Point","coordinates":[11806,14664],"id":"feature_122"},{"properties":{"price":20000,"use":"\u5927\u57a3","zone":"","station":"\u4f4f\u5b85"},"type":"Point","coordinates":[16276,13347],"id":"feature_123"},{"properties":{"price":52200,"use":"\u5927\u57a3","zone":"","station":"\u4f4f\u5b85"},"type":"Point","coordinates":[14438,18925],"id":"feature_124"},{"properties":{"price":66400,"use":"\u5927\u57a3","zone":"","station":"\u4f4f\u5b85"},"type":"Point","coordinates":[16843,16355],"id":"feature_125"},{"properties":{"price":38100,"use":"\u5927\u57a3","zone":"","station":"\u4f4f\u5b85"},"type":"Point","coordinates":[20937,16620],"id":"feature_126"},{"properties":{"price":39900,"use":"\u5927\u57a3","zone":"","station":"\u4f4f\u5b85"},"type":"Point","coordinates":[10569,17747],"id":"feature_127"},{"properties":{"price":55300,"use":"\u5927\u57a3","zone":"","station":"\u4f4f\u5b85"},"type":"Point","coordinates":[11915,17719],"id":"feature_128"},{"properties":{"price":43000,"use":"\u5927\u57a3","zone":"","station":"\u4f4f\u5b85"},"type":"Point","coordinates":[12208,15888],"id":"feature_129"},{"properties":{"price":52100,"use":"\u5927\u57a3","zone":"","station":"\u4f4f\u5b85"},"type":"Point","coordinates":[13047,16790],"id":"feature_130"},{"properties":{"price":40800,"use":"\u5927\u57a3","zone":"","station":"\u4f4f\u5b85"},"type":"Point","coordinates":[13230,14586],"id":"feature_131"},{"properties":{"price":59800,"use":"\u5927\u57a3","zone":"","station":"\u4f4f\u5b85"},"type":"Point","coordinates":[17175,17162],"id":"feature_132"},{"properties":{"price":37300,"use":"\u5927\u57a3","zone":"","station":"\u4f4f\u5b85"},"type":"Point","coordinates":[20357,16125],"id":"feature_133"},{"properties":{"price":74800,"use":"\u5927\u57a3","zone":"","station":"\u4f4f\u5b85"},"type":"Point","coordinates":[15123,17314],"id":"feature_134"},{"properties":{"price":67000,"use":"\u5927\u57a3","zone":"","station":"\u4f4f\u5b85"},"type":"Point","coordinates":[14672,15642],"id":"feature_135"},{"properties":{"price":94200,"use":"\u5927\u57a3","zone":"","station":"\u4f4f\u5b85"},"type":"Point","coordinates":[14518,17072],"id":"feature_136"},{"properties":{"price":133000,"use":"\u5927\u57a3","zone":"","station":"\u6559\u7fd2\u6240"},"type":"Point","coordinates":[14835,16683],"id":"feature_137"},{"properties":{"price":92800,"use":"\u5927\u57a3","zone":"","station":"\u5e97\u8217\u517c\u4f4f\u5b85"},"type":"Point","coordinates":[14169,16619],"id":"feature_138"},{"properties":{"price":93600,"use":"\u5927\u57a3","zone":"","station":"\u5e97\u8217\u517c\u4f4f\u5b85"},"type":"Point","coordinates":[15317,16555],"id":"feature_139"},{"properties":{"price":86600,"use":"\u5927\u57a3","zone":"","station":"\u5e97\u8217\u3001\u4f4f\u5b85\u517c\u5009\u5eab"},"type":"Point","coordinates":[14995,16403],"id":"feature_140"},{"properties":{"price":80400,"use":"\u5927\u57a3","zone":"","station":"\u5e97\u8217\u517c\u4e8b\u52d9\u6240"},"type":"Point","coordinates":[15121,15821],"id":"feature_141"},{"properties":{"price":52200,"use":"\u5927\u57a3","zone":"","station":"\u4e8b\u52d9\u6240"},"type":"Point","coordinates":[10911,16324],"id":"feature_142"},{"properties":{"price":72600,"use":"\u5927\u57a3","zone":"","station":"\u5e97\u8217\u517c\u5009\u5eab"},"type":"Point","coordinates":[14636,17804],"id":"feature_143"},{"properties":{"price":73100,"use":"\u5927\u57a3","zone":"","station":"\u5e97\u8217"},"type":"Point","coordinates":[15088,13884],"id":"feature_144"},{"properties":{"price":123000,"use":"\u5927\u57a3","zone":"","station":"\u5e97\u8217\u3001\u4e8b\u52d9\u6240\u517c\u4f4f\u5b85"},"type":"Point","coordinates":[15026,16695],"id":"feature_145"},{"properties":{"price":68600,"use":"\u5927\u57a3","zone":"","station":"\u5e97\u8217"},"type":"Point","coordinates":[17339,16274],"id":"feature_146"},{"properties":{"price":43300,"use":"\u5927\u57a3","zone":"","station":"\u5e97\u8217\u517c\u4f4f\u5b85"},"type":"Point","coordinates":[11497,18865],"id":"feature_147"},{"properties":{"price":113000,"use":"\u5927\u57a3","zone":"","station":"\u4e8b\u52d9\u6240\u517c\u4f4f\u5b85"},"type":"Point","coordinates":[14969,16979],"id":"feature_148"},{"properties":{"price":28600,"use":"\u5927\u57a3","zone":"","station":"\u5de5\u5834"},"type":"Point","coordinates":[14805,11362],"id":"feature_149"},{"properties":{"price":27400,"use":"\u5927\u57a3","zone":"","station":"\u5de5\u5834"},"type":"Point","coordinates":[11485,16202],"id":"feature_150"},{"properties":{"price":51500,"use":"\u9ad8\u5c71","zone":"","station":"\u4f4f\u5b85"},"type":"Point","coordinates":[76381,82411],"id":"feature_151"},{"properties":{"price":90800,"use":"\u9ad8\u5c71","zone":"","station":"\u4f4f\u5b85"},"type":"Point","coordinates":[74852,83390],"id":"feature_152"},{"properties":{"price":60800,"use":"\u9ad8\u5c71","zone":"","station":"\u4f4f\u5b85"},"type":"Point","coordinates":[75281,84468],"id":"feature_153"},{"properties":{"price":28800,"use":"\u9ad8\u5c71","zone":"","station":"\u4f4f\u5b85"},"type":"Point","coordinates":[72146,82915],"id":"feature_154"},{"properties":{"price":50600,"use":"\u9ad8\u5c71","zone":"","station":"\u4f4f\u5b85"},"type":"Point","coordinates":[73693,84251],"id":"feature_155"},{"properties":{"price":330000,"use":"\u9ad8\u5c71","zone":"","station":"\u5e97\u8217\u517c\u5009\u5eab"},"type":"Point","coordinates":[76113,83479],"id":"feature_156"},{"properties":{"price":283000,"use":"\u9ad8\u5c71","zone":"","station":"\u4e8b\u52d9\u6240"},"type":"Point","coordinates":[75463,83414],"id":"feature_157"},{"properties":{"price":70000,"use":"\u9ad8\u5c71","zone":"","station":"\u5e97\u8217"},"type":"Point","coordinates":[76630,84111],"id":"feature_158"},{"properties":{"price":35500,"use":"\u591a\u6cbb\u898b","zone":"","station":"\u4f4f\u5b85"},"type":"Point","coordinates":[64341,13839],"id":"feature_159"},{"properties":{"price":63100,"use":"\u591a\u6cbb\u898b","zone":"","station":"\u4f4f\u5b85"},"type":"Point","coordinates":[61811,14428],"id":"feature_160"},{"properties":{"price":35700,"use":"\u591a\u6cbb\u898b","zone":"","station":"\u4f4f\u5b85"},"type":"Point","coordinates":[60249,15505],"id":"feature_161"},{"properties":{"price":19400,"use":"\u591a\u6cbb\u898b","zone":"","station":"\u4f4f\u5b85"},"type":"Point","coordinates":[62866,11249],"id":"feature_162"},{"properties":{"price":54100,"use":"\u591a\u6cbb\u898b","zone":"","station":"\u4f4f\u5b85"},"type":"Point","coordinates":[62538,15116],"id":"feature_163"},{"properties":{"price":90300,"use":"\u591a\u6cbb\u898b","zone":"","station":"\u4f4f\u5b85"},"type":"Point","coordinates":[62725,14354],"id":"feature_164"},{"properties":{"price":25000,"use":"\u591a\u6cbb\u898b","zone":"","station":"\u4f4f\u5b85"},"type":"Point","coordinates":[59364,16157],"id":"feature_165"},{"properties":{"price":17600,"use":"\u591a\u6cbb\u898b","zone":"","station":"\u4f4f\u5b85"},"type":"Point","coordinates":[64437,15345],"id":"feature_166"},{"properties":{"price":22700,"use":"\u591a\u6cbb\u898b","zone":"","station":"\u4f4f\u5b85"},"type":"Point","coordinates":[58581,16594],"id":"feature_167"},{"properties":{"price":27700,"use":"\u591a\u6cbb\u898b","zone":"","station":"\u4f4f\u5b85"},"type":"Point","coordinates":[62006,12373],"id":"feature_168"},{"properties":{"price":63000,"use":"\u591a\u6cbb\u898b","zone":"","station":"\u4f4f\u5b85"},"type":"Point","coordinates":[63719,14296],"id":"feature_169"},{"properties":{"price":22600,"use":"\u591a\u6cbb\u898b","zone":"","station":"\u4f4f\u5b85"},"type":"Point","coordinates":[66100,11230],"id":"feature_170"},{"properties":{"price":32100,"use":"\u591a\u6cbb\u898b","zone":"","station":"\u4f4f\u5b85"},"type":"Point","coordinates":[60119,14871],"id":"feature_171"},{"properties":{"price":46500,"use":"\u591a\u6cbb\u898b","zone":"","station":"\u4f4f\u5b85"},"type":"Point","coordinates":[63598,13606],"id":"feature_172"},{"properties":{"price":33200,"use":"\u591a\u6cbb\u898b","zone":"","station":"\u4f4f\u5b85"},"type":"Point","coordinates":[61260,16393],"id":"feature_173"},{"properties":{"price":24800,"use":"\u591a\u6cbb\u898b","zone":"","station":"\u4f4f\u5b85"},"type":"Point","coordinates":[60803,17030],"id":"feature_174"},{"properties":{"price":129000,"use":"\u591a\u6cbb\u898b","zone":"","station":"\u5e97\u8217\u517c\u4e8b\u52d9\u6240"},"type":"Point","coordinates":[63003,13970],"id":"feature_175"},{"properties":{"price":67900,"use":"\u591a\u6cbb\u898b","zone":"","station":"\u4e8b\u52d9\u6240"},"type":"Point","coordinates":[63589,14229],"id":"feature_176"},{"properties":{"price":49200,"use":"\u591a\u6cbb\u898b","zone":"","station":"\u5e97\u8217"},"type":"Point","coordinates":[63412,13341],"id":"feature_177"},{"properties":{"price":80000,"use":"\u591a\u6cbb\u898b","zone":"","station":"\u5e97\u8217\u517c\u4e8b\u52d9\u6240"},"type":"Point","coordinates":[61615,14944],"id":"feature_178"},{"properties":{"price":28500,"use":"\u591a\u6cbb\u898b","zone":"","station":"\u5e97\u8217"},"type":"Point","coordinates":[66143,11516],"id":"feature_179"},{"properties":{"price":152000,"use":"\u591a\u6cbb\u898b","zone":"","station":"\u5e97\u8217\u517c\u5171\u540c\u4f4f\u5b85"},"type":"Point","coordinates":[62870,14260],"id":"feature_180"},{"properties":{"price":30600,"use":"\u591a\u6cbb\u898b","zone":"","station":"\u4e8b\u52d9\u6240\u517c\u5009\u5eab"},"type":"Point","coordinates":[62225,16613],"id":"feature_181"},{"properties":{"price":40000,"use":"\u95a2","zone":"","station":"\u4f4f\u5b85"},"type":"Point","coordinates":[44675,26480],"id":"feature_182"},{"properties":{"price":41800,"use":"\u95a2","zone":"","station":"\u4f4f\u5b85"},"type":"Point","coordinates":[41786,27221],"id":"feature_183"},{"properties":{"price":33000,"use":"\u95a2","zone":"","station":"\u4f4f\u5b85"},"type":"Point","coordinates":[40178,26933],"id":"feature_184"},{"properties":{"price":39300,"use":"\u95a2","zone":"","station":"\u4f4f\u5b85"},"type":"Point","coordinates":[43767,27591],"id":"feature_185"},{"properties":{"price":38700,"use":"\u95a2","zone":"","station":"\u4f4f\u5b85"},"type":"Point","coordinates":[45250,25953],"id":"feature_186"},{"properties":{"price":17900,"use":"\u95a2","zone":"","station":"\u4f4f\u5b85"},"type":"Point","coordinates":[37103,30953],"id":"feature_187"},{"properties":{"price":44600,"use":"\u95a2","zone":"","station":"\u8a3a\u7642\u6240\u517c\u4f4f\u5b85"},"type":"Point","coordinates":[44058,27421],"id":"feature_188"},{"properties":{"price":25100,"use":"\u95a2","zone":"","station":"\u8a3a\u7642\u6240\u517c\u4f4f\u5b85"},"type":"Point","coordinates":[37303,30148],"id":"feature_189"},{"properties":{"price":44800,"use":"\u95a2","zone":"","station":"\u8a3a\u7642\u6240\u517c\u4f4f\u5b85"},"type":"Point","coordinates":[43026,27198],"id":"feature_190"},{"properties":{"price":38500,"use":"\u4e2d\u6d25\u5ddd","zone":"","station":"\u4f4f\u5b85"},"type":"Point","coordinates":[99655,27612],"id":"feature_191"},{"properties":{"price":24500,"use":"\u4e2d\u6d25\u5ddd","zone":"","station":"\u4f4f\u5b85"},"type":"Point","coordinates":[97986,26865],"id":"feature_192"},{"properties":{"price":26800,"use":"\u4e2d\u6d25\u5ddd","zone":"","station":"\u4f4f\u5b85"},"type":"Point","coordinates":[97869,27842],"id":"feature_193"},{"properties":{"price":29900,"use":"\u4e2d\u6d25\u5ddd","zone":"","station":"\u4f4f\u5b85"},"type":"Point","coordinates":[94383,26201],"id":"feature_194"},{"properties":{"price":53900,"use":"\u4e2d\u6d25\u5ddd","zone":"","station":"\u5e97\u8217\u517c\u4f4f\u5b85"},"type":"Point","coordinates":[99999,28558],"id":"feature_195"},{"properties":{"price":69900,"use":"\u4e2d\u6d25\u5ddd","zone":"","station":"\u5e97\u8217\u517c\u4f4f\u5b85"},"type":"Point","coordinates":[99579,28267],"id":"feature_196"},{"properties":{"price":30000,"use":"\u7f8e\u6fc3","zone":"","station":"\u4f4f\u5b85"},"type":"Point","coordinates":[42759,31706],"id":"feature_197"},{"properties":{"price":36400,"use":"\u7f8e\u6fc3","zone":"","station":"\u4f4f\u5b85"},"type":"Point","coordinates":[42781,31016],"id":"feature_198"},{"properties":{"price":17200,"use":"\u7f8e\u6fc3","zone":"","station":"\u4f4f\u5b85"},"type":"Point","coordinates":[39119,31487],"id":"feature_199"},{"properties":{"price":44400,"use":"\u7f8e\u6fc3","zone":"","station":"\u4e8b\u52d9\u6240"},"type":"Point","coordinates":[42019,30874],"id":"feature_200"},{"properties":{"price":40800,"use":"\u745e\u6d6a","zone":"","station":"\u4f4f\u5b85"},"type":"Point","coordinates":[75015,16427],"id":"feature_201"},{"properties":{"price":25600,"use":"\u745e\u6d6a","zone":"","station":"\u4f4f\u5b85"},"type":"Point","coordinates":[75941,17390],"id":"feature_202"},{"properties":{"price":31700,"use":"\u745e\u6d6a","zone":"","station":"\u4f4f\u5b85"},"type":"Point","coordinates":[73507,16168],"id":"feature_203"},{"properties":{"price":57300,"use":"\u745e\u6d6a","zone":"","station":"\u5e97\u8217\u517c\u4f4f\u5b85"},"type":"Point","coordinates":[75591,16969],"id":"feature_204"},{"properties":{"price":49300,"use":"\u745e\u6d6a","zone":"","station":"\u5e97\u8217\u517c\u4f4f\u5b85"},"type":"Point","coordinates":[75789,16785],"id":"feature_205"},{"properties":{"price":45300,"use":"\u7fbd\u5cf6","zone":"","station":"\u4f4f\u5b85"},"type":"Point","coordinates":[21858,12384],"id":"feature_206"},{"properties":{"price":46200,"use":"\u7fbd\u5cf6","zone":"","station":"\u4f4f\u5b85"},"type":"Point","coordinates":[22539,13638],"id":"feature_207"},{"properties":{"price":30800,"use":"\u7fbd\u5cf6","zone":"","station":"\u4f4f\u5b85"},"type":"Point","coordinates":[20255,11849],"id":"feature_208"},{"properties":{"price":41400,"use":"\u7fbd\u5cf6","zone":"","station":"\u4f4f\u5b85"},"type":"Point","coordinates":[22297,12917],"id":"feature_209"},{"properties":{"price":35900,"use":"\u7fbd\u5cf6","zone":"","station":"\u4f4f\u5b85"},"type":"Point","coordinates":[23193,12198],"id":"feature_210"},{"properties":{"price":36000,"use":"\u7fbd\u5cf6","zone":"","station":"\u4f4f\u5b85"},"type":"Point","coordinates":[25041,14177],"id":"feature_211"},{"properties":{"price":42000,"use":"\u7fbd\u5cf6","zone":"","station":"\u4f4f\u5b85"},"type":"Point","coordinates":[23281,14084],"id":"feature_212"},{"properties":{"price":38200,"use":"\u7fbd\u5cf6","zone":"","station":"\u4f4f\u5b85"},"type":"Point","coordinates":[23748,13531],"id":"feature_213"},{"properties":{"price":35100,"use":"\u7fbd\u5cf6","zone":"","station":"\u4f4f\u5b85"},"type":"Point","coordinates":[22399,12419],"id":"feature_214"},{"properties":{"price":26700,"use":"\u7fbd\u5cf6","zone":"","station":"\u4f4f\u5b85"},"type":"Point","coordinates":[26203,13433],"id":"feature_215"},{"properties":{"price":38000,"use":"\u7fbd\u5cf6","zone":"","station":"\u4f4f\u5b85"},"type":"Point","coordinates":[20777,12256],"id":"feature_216"},{"properties":{"price":44200,"use":"\u7fbd\u5cf6","zone":"","station":"\u4f4f\u5b85"},"type":"Point","coordinates":[21461,12928],"id":"feature_217"},{"properties":{"price":41800,"use":"\u7fbd\u5cf6","zone":"","station":"\u5e97\u8217"},"type":"Point","coordinates":[21150,12090],"id":"feature_218"},{"properties":{"price":44800,"use":"\u7fbd\u5cf6","zone":"","station":"\u5e97\u8217\u517c\u4f4f\u5b85"},"type":"Point","coordinates":[23265,13187],"id":"feature_219"},{"properties":{"price":60800,"use":"\u7fbd\u5cf6","zone":"","station":"\u4e8b\u52d9\u6240"},"type":"Point","coordinates":[21640,12658],"id":"feature_220"},{"properties":{"price":53100,"use":"\u7fbd\u5cf6","zone":"","station":"\u5e97\u8217\u517c\u4f4f\u5b85"},"type":"Point","coordinates":[21529,12764],"id":"feature_221"},{"properties":{"price":44300,"use":"\u7fbd\u5cf6","zone":"","station":"\u5e97\u8217\u3001\u5de5\u5834\u517c\u4e8b\u52d9\u6240\u7b49"},"type":"Point","coordinates":[24144,13050],"id":"feature_222"},{"properties":{"price":51000,"use":"\u7fbd\u5cf6","zone":"","station":"\u4e8b\u52d9\u6240\u517c\u4f4f\u5b85"},"type":"Point","coordinates":[22945,12716],"id":"feature_223"},{"properties":{"price":30400,"use":"\u7fbd\u5cf6","zone":"","station":"\u5009\u5eab"},"type":"Point","coordinates":[22740,11410],"id":"feature_224"},{"properties":{"price":38300,"use":"\u6075\u90a3","zone":"","station":"\u4f4f\u5b85"},"type":"Point","coordinates":[90956,24349],"id":"feature_225"},{"properties":{"price":19100,"use":"\u6075\u90a3","zone":"","station":"\u4f4f\u5b85"},"type":"Point","coordinates":[89496,24698],"id":"feature_226"},{"properties":{"price":21900,"use":"\u6075\u90a3","zone":"","station":"\u4f4f\u5b85"},"type":"Point","coordinates":[91725,24814],"id":"feature_227"},{"properties":{"price":69500,"use":"\u6075\u90a3","zone":"","station":"\u5e97\u8217\u517c\u4f4f\u5b85"},"type":"Point","coordinates":[90398,24355],"id":"feature_228"},{"properties":{"price":73700,"use":"\u6075\u90a3","zone":"","station":"\u5e97\u8217"},"type":"Point","coordinates":[90661,23775],"id":"feature_229"},{"properties":{"price":41000,"use":"\u7f8e\u6fc3\u52a0\u8302","zone":"","station":"\u4f4f\u5b85"},"type":"Point","coordinates":[52987,23557],"id":"feature_230"},{"properties":{"price":36400,"use":"\u7f8e\u6fc3\u52a0\u8302","zone":"","station":"\u4f4f\u5b85"},"type":"Point","coordinates":[54978,24452],"id":"feature_231"},{"properties":{"price":39500,"use":"\u7f8e\u6fc3\u52a0\u8302","zone":"","station":"\u4f4f\u5b85"},"type":"Point","coordinates":[55308,23755],"id":"feature_232"},{"properties":{"price":38600,"use":"\u7f8e\u6fc3\u52a0\u8302","zone":"","station":"\u4f4f\u5b85"},"type":"Point","coordinates":[53151,25180],"id":"feature_233"},{"properties":{"price":46000,"use":"\u7f8e\u6fc3\u52a0\u8302","zone":"","station":"\u5e97\u8217\u517c\u4f4f\u5b85"},"type":"Point","coordinates":[53186,23382],"id":"feature_234"},{"properties":{"price":39600,"use":"\u7f8e\u6fc3\u52a0\u8302","zone":"","station":"\u5e97\u8217\u517c\u4f4f\u5b85"},"type":"Point","coordinates":[55531,24670],"id":"feature_235"},{"properties":{"price":46400,"use":"\u571f\u5c90","zone":"","station":"\u4f4f\u5b85"},"type":"Point","coordinates":[69585,16301],"id":"feature_236"},{"properties":{"price":27800,"use":"\u571f\u5c90","zone":"","station":"\u4f4f\u5b85"},"type":"Point","coordinates":[69512,12364],"id":"feature_237"},{"properties":{"price":53900,"use":"\u571f\u5c90","zone":"","station":"\u4f4f\u5b85"},"type":"Point","coordinates":[69320,16583],"id":"feature_238"},{"properties":{"price":63600,"use":"\u571f\u5c90","zone":"","station":"\u5e97\u8217"},"type":"Point","coordinates":[68696,16478],"id":"feature_239"},{"properties":{"price":46900,"use":"\u571f\u5c90","zone":"","station":"\u5e97\u8217\u517c\u4f5c\u696d\u6240"},"type":"Point","coordinates":[69052,15793],"id":"feature_240"},{"properties":{"price":25200,"use":"\u571f\u5c90","zone":"","station":"\u5de5\u5834\u3001\u5009\u5eab\u517c\u4e8b\u52d9\u6240"},"type":"Point","coordinates":[67476,13971],"id":"feature_241"},{"properties":{"price":25000,"use":"\u5404\u52d9\u539f","zone":"","station":"\u4f4f\u5b85"},"type":"Point","coordinates":[43283,21490],"id":"feature_242"},{"properties":{"price":52800,"use":"\u5404\u52d9\u539f","zone":"","station":"\u4f4f\u5b85"},"type":"Point","coordinates":[35972,20657],"id":"feature_243"},{"properties":{"price":63600,"use":"\u5404\u52d9\u539f","zone":"","station":"\u4f4f\u5b85"},"type":"Point","coordinates":[36698,19470],"id":"feature_244"},{"properties":{"price":68000,"use":"\u5404\u52d9\u539f","zone":"","station":"\u4f4f\u5b85"},"type":"Point","coordinates":[38002,20247],"id":"feature_245"},{"properties":{"price":44500,"use":"\u5404\u52d9\u539f","zone":"","station":"\u4f4f\u5b85"},"type":"Point","coordinates":[44790,19109],"id":"feature_246"},{"properties":{"price":24700,"use":"\u5404\u52d9\u539f","zone":"","station":"\u4f4f\u5b85"},"type":"Point","coordinates":[34155,17289],"id":"feature_247"},{"properties":{"price":54000,"use":"\u5404\u52d9\u539f","zone":"","station":"\u4f4f\u5b85"},"type":"Point","coordinates":[39011,20819],"id":"feature_248"},{"properties":{"price":55700,"use":"\u5404\u52d9\u539f","zone":"","station":"\u4f4f\u5b85"},"type":"Point","coordinates":[42761,19290],"id":"feature_249"},{"properties":{"price":61900,"use":"\u5404\u52d9\u539f","zone":"","station":"\u4f4f\u5b85"},"type":"Point","coordinates":[46007,19671],"id":"feature_250"},{"properties":{"price":37000,"use":"\u5404\u52d9\u539f","zone":"","station":"\u4f4f\u5b85"},"type":"Point","coordinates":[36540,21077],"id":"feature_251"},{"properties":{"price":56400,"use":"\u5404\u52d9\u539f","zone":"","station":"\u4f4f\u5b85"},"type":"Point","coordinates":[41197,19835],"id":"feature_252"},{"properties":{"price":63200,"use":"\u5404\u52d9\u539f","zone":"","station":"\u4f4f\u5b85"},"type":"Point","coordinates":[37039,20184],"id":"feature_253"},{"properties":{"price":42600,"use":"\u5404\u52d9\u539f","zone":"","station":"\u4f4f\u5b85"},"type":"Point","coordinates":[44994,20553],"id":"feature_254"},{"properties":{"price":60300,"use":"\u5404\u52d9\u539f","zone":"","station":"\u4f4f\u5b85"},"type":"Point","coordinates":[35094,19592],"id":"feature_255"},{"properties":{"price":30500,"use":"\u5404\u52d9\u539f","zone":"","station":"\u4f4f\u5b85"},"type":"Point","coordinates":[37644,17023],"id":"feature_256"},{"properties":{"price":54100,"use":"\u5404\u52d9\u539f","zone":"","station":"\u4f4f\u5b85"},"type":"Point","coordinates":[35049,20433],"id":"feature_257"},{"properties":{"price":52100,"use":"\u5404\u52d9\u539f","zone":"","station":"\u4f4f\u5b85"},"type":"Point","coordinates":[38321,20916],"id":"feature_258"},{"properties":{"price":68000,"use":"\u5404\u52d9\u539f","zone":"","station":"\u4f4f\u5b85"},"type":"Point","coordinates":[38869,19993],"id":"feature_259"},{"properties":{"price":50400,"use":"\u5404\u52d9\u539f","zone":"","station":"\u4f4f\u5b85"},"type":"Point","coordinates":[43755,19800],"id":"feature_260"},{"properties":{"price":75800,"use":"\u5404\u52d9\u539f","zone":"","station":"\u4f4f\u5b85"},"type":"Point","coordinates":[36999,19681],"id":"feature_261"},{"properties":{"price":80900,"use":"\u5404\u52d9\u539f","zone":"","station":"\u4e8b\u52d9\u6240\u517c\u8eca\u5eab"},"type":"Point","coordinates":[37018,19552],"id":"feature_262"},{"properties":{"price":78400,"use":"\u5404\u52d9\u539f","zone":"","station":"\u5e97\u8217"},"type":"Point","coordinates":[38353,20519],"id":"feature_263"},{"properties":{"price":61000,"use":"\u5404\u52d9\u539f","zone":"","station":"\u5b66\u7fd2\u587e"},"type":"Point","coordinates":[41987,19741],"id":"feature_264"},{"properties":{"price":69200,"use":"\u5404\u52d9\u539f","zone":"","station":"\u5e97\u8217"},"type":"Point","coordinates":[35861,20274],"id":"feature_265"},{"properties":{"price":64000,"use":"\u5404\u52d9\u539f","zone":"","station":"\u5e97\u8217"},"type":"Point","coordinates":[36919,20676],"id":"feature_266"},{"properties":{"price":31700,"use":"\u5404\u52d9\u539f","zone":"","station":"\u5de5\u5834"},"type":"Point","coordinates":[36975,18551],"id":"feature_267"},{"properties":{"price":48300,"use":"\u53ef\u5150","zone":"","station":"\u4f4f\u5b85"},"type":"Point","coordinates":[57604,21814],"id":"feature_268"},{"properties":{"price":30900,"use":"\u53ef\u5150","zone":"","station":"\u4f4f\u5b85"},"type":"Point","coordinates":[54008,22578],"id":"feature_269"},{"properties":{"price":26300,"use":"\u53ef\u5150","zone":"","station":"\u4f4f\u5b85"},"type":"Point","coordinates":[53120,19837],"id":"feature_270"},{"properties":{"price":38400,"use":"\u53ef\u5150","zone":"","station":"\u4f4f\u5b85"},"type":"Point","coordinates":[56818,22293],"id":"feature_271"},{"properties":{"price":17400,"use":"\u53ef\u5150","zone":"","station":"\u4f4f\u5b85"},"type":"Point","coordinates":[58502,18690],"id":"feature_272"},{"properties":{"price":28500,"use":"\u53ef\u5150","zone":"","station":"\u4f4f\u5b85"},"type":"Point","coordinates":[58284,21674],"id":"feature_273"},{"properties":{"price":69900,"use":"\u53ef\u5150","zone":"","station":"\u4e8b\u52d9\u6240"},"type":"Point","coordinates":[57396,21805],"id":"feature_274"},{"properties":{"price":55800,"use":"\u53ef\u5150","zone":"","station":"\u5e97\u8217"},"type":"Point","coordinates":[52522,19975],"id":"feature_275"},{"properties":{"price":53700,"use":"\u53ef\u5150","zone":"","station":"\u5e97\u8217"},"type":"Point","coordinates":[54457,21135],"id":"feature_276"},{"properties":{"price":40000,"use":"\u53ef\u5150","zone":"","station":"\u5e97\u8217"},"type":"Point","coordinates":[59716,22245],"id":"feature_277"},{"properties":{"price":33500,"use":"\u5c71\u770c","zone":"","station":"\u4f4f\u5b85"},"type":"Point","coordinates":[31651,28546],"id":"feature_278"},{"properties":{"price":10000,"use":"\u5c71\u770c","zone":"","station":"\u4f4f\u5b85"},"type":"Point","coordinates":[29609,31483],"id":"feature_279"},{"properties":{"price":50400,"use":"\u5c71\u770c","zone":"","station":"\u5e97\u8217"},"type":"Point","coordinates":[30989,27736],"id":"feature_280"},{"properties":{"price":21400,"use":"\u5c71\u770c","zone":"","station":"\u5de5\u5834"},"type":"Point","coordinates":[32654,28126],"id":"feature_281"},{"properties":{"price":67800,"use":"\u745e\u7a42","zone":"","station":"\u4f4f\u5b85"},"type":"Point","coordinates":[21943,19649],"id":"feature_282"},{"properties":{"price":29500,"use":"\u745e\u7a42","zone":"","station":"\u4f4f\u5b85"},"type":"Point","coordinates":[22163,17684],"id":"feature_283"},{"properties":{"price":39600,"use":"\u745e\u7a42","zone":"","station":"\u4f4f\u5b85"},"type":"Point","coordinates":[18437,18511],"id":"feature_284"},{"properties":{"price":57000,"use":"\u745e\u7a42","zone":"","station":"\u4f4f\u5b85"},"type":"Point","coordinates":[21175,20859],"id":"feature_285"},{"properties":{"price":39200,"use":"\u745e\u7a42","zone":"","station":"\u4f4f\u5b85"},"type":"Point","coordinates":[19095,18993],"id":"feature_286"},{"properties":{"price":46100,"use":"\u745e\u7a42","zone":"","station":"\u4f4f\u5b85"},"type":"Point","coordinates":[20976,18078],"id":"feature_287"},{"properties":{"price":44800,"use":"\u745e\u7a42","zone":"","station":"\u4f4f\u5b85"},"type":"Point","coordinates":[20767,19919],"id":"feature_288"},{"properties":{"price":54900,"use":"\u745e\u7a42","zone":"","station":"\u4f4f\u5b85"},"type":"Point","coordinates":[21176,18729],"id":"feature_289"},{"properties":{"price":44600,"use":"\u745e\u7a42","zone":"","station":"\u4f4f\u5b85"},"type":"Point","coordinates":[22543,18088],"id":"feature_290"},{"properties":{"price":69600,"use":"\u745e\u7a42","zone":"","station":"\u5e97\u8217\u517c\u4f4f\u5b85"},"type":"Point","coordinates":[22131,19075],"id":"feature_291"},{"properties":{"price":64900,"use":"\u745e\u7a42","zone":"","station":"\u4e8b\u52d9\u6240"},"type":"Point","coordinates":[21564,20643],"id":"feature_292"},{"properties":{"price":34500,"use":"\u745e\u7a42","zone":"","station":"\u5de5\u5834"},"type":"Point","coordinates":[20721,17905],"id":"feature_293"},{"properties":{"price":38800,"use":"\u98db\u9a28","zone":"","station":"\u4f4f\u5b85"},"type":"Point","coordinates":[69325,91383],"id":"feature_294"},{"properties":{"price":29500,"use":"\u98db\u9a28","zone":"","station":"\u4f4f\u5b85"},"type":"Point","coordinates":[69233,90859],"id":"feature_295"},{"properties":{"price":20900,"use":"\u98db\u9a28","zone":"","station":"\u4f4f\u5b85"},"type":"Point","coordinates":[79717,99999],"id":"feature_296"},{"properties":{"price":35500,"use":"\u672c\u5de3","zone":"","station":"\u4f4f\u5b85"},"type":"Point","coordinates":[20835,23312],"id":"feature_297"},{"properties":{"price":33300,"use":"\u672c\u5de3","zone":"","station":"\u4f4f\u5b85"},"type":"Point","coordinates":[19317,22460],"id":"feature_298"},{"properties":{"price":27300,"use":"\u672c\u5de3","zone":"","station":"\u4f4f\u5b85"},"type":"Point","coordinates":[20299,25764],"id":"feature_299"},{"properties":{"price":22400,"use":"\u672c\u5de3","zone":"","station":"\u4f4f\u5b85"},"type":"Point","coordinates":[19871,27510],"id":"feature_300"},{"properties":{"price":50100,"use":"\u672c\u5de3","zone":"","station":"\u5e97\u8217\u517c\u4f4f\u5b85"},"type":"Point","coordinates":[20400,24485],"id":"feature_301"},{"properties":{"price":49500,"use":"\u672c\u5de3","zone":"","station":"\u5e97\u8217"},"type":"Point","coordinates":[17110,22260],"id":"feature_302"},{"properties":{"price":26200,"use":"\u672c\u5de3","zone":"","station":"\u5de5\u5834"},"type":"Point","coordinates":[20284,25253],"id":"feature_303"},{"properties":{"price":50900,"use":"\u90e1\u4e0a","zone":"","station":"\u4f4f\u5b85"},"type":"Point","coordinates":[47151,49973],"id":"feature_304"},{"properties":{"price":50200,"use":"\u90e1\u4e0a","zone":"","station":"\u4f4f\u5b85"},"type":"Point","coordinates":[46588,49426],"id":"feature_305"},{"properties":{"price":74200,"use":"\u90e1\u4e0a","zone":"","station":"\u5e97\u8217\u517c\u4f4f\u5b85"},"type":"Point","coordinates":[47248,49756],"id":"feature_306"},{"properties":{"price":28600,"use":"\u4e0b\u5442","zone":"","station":"\u4f4f\u5b85"},"type":"Point","coordinates":[75808,53760],"id":"feature_307"},{"properties":{"price":22600,"use":"\u4e0b\u5442","zone":"","station":"\u4f4f\u5b85"},"type":"Point","coordinates":[75314,55034],"id":"feature_308"},{"properties":{"price":71200,"use":"\u4e0b\u5442","zone":"","station":"\u5e97\u8217\u517c\u4e8b\u52d9\u6240"},"type":"Point","coordinates":[74574,54767],"id":"feature_309"},{"properties":{"price":23800,"use":"\u6d77\u6d25","zone":"","station":"\u4f4f\u5b85"},"type":"Point","coordinates":[15982,4242],"id":"feature_310"},{"properties":{"price":16800,"use":"\u6d77\u6d25","zone":"","station":"\u4f4f\u5b85"},"type":"Point","coordinates":[19512,2491],"id":"feature_311"},{"properties":{"price":22200,"use":"\u6d77\u6d25","zone":"","station":"\u4f4f\u5b85"},"type":"Point","coordinates":[15955,7066],"id":"feature_312"},{"properties":{"price":16300,"use":"\u6d77\u6d25","zone":"","station":"\u4f4f\u5b85"},"type":"Point","coordinates":[12053,5446],"id":"feature_313"},{"properties":{"price":30200,"use":"\u6d77\u6d25","zone":"","station":"\u5e97\u8217\u517c\u4f4f\u5b85"},"type":"Point","coordinates":[16355,4648],"id":"feature_314"},{"properties":{"price":30000,"use":"\u6d77\u6d25","zone":"","station":"\u5e97\u8217"},"type":"Point","coordinates":[16148,6969],"id":"feature_315"},{"properties":{"price":28600,"use":"\u6d77\u6d25","zone":"","station":"\u5e97\u8217\u517c\u4f4f\u5b85"},"type":"Point","coordinates":[15783,0],"id":"feature_316"},{"properties":{"price":54800,"use":"\u5c90\u5357","zone":"","station":"\u4f4f\u5b85"},"type":"Point","coordinates":[29511,19084],"id":"feature_317"},{"properties":{"price":55700,"use":"\u5c90\u5357","zone":"","station":"\u4f4f\u5b85"},"type":"Point","coordinates":[29097,17662],"id":"feature_318"},{"properties":{"price":62600,"use":"\u5c90\u5357","zone":"","station":"\u4f4f\u5b85"},"type":"Point","coordinates":[30634,19285],"id":"feature_319"},{"properties":{"price":88500,"use":"\u5c90\u5357","zone":"","station":"\u4e8b\u52d9\u6240\u517c\u5009\u5eab"},"type":"Point","coordinates":[30791,18966],"id":"feature_320"},{"properties":{"price":68300,"use":"\u5c90\u5357","zone":"","station":"\u5e97\u8217"},"type":"Point","coordinates":[29791,18262],"id":"feature_321"},{"properties":{"price":51000,"use":"\u5c90\u5357","zone":"","station":"\u4e8b\u52d9\u6240\u517c\u5009\u5eab"},"type":"Point","coordinates":[29934,18134],"id":"feature_322"},{"properties":{"price":43300,"use":"\u5c90\u5357","zone":"","station":"\u5de5\u5834"},"type":"Point","coordinates":[31706,17925],"id":"feature_323"},{"properties":{"price":52400,"use":"\u7b20\u677e","zone":"","station":"\u4f4f\u5b85"},"type":"Point","coordinates":[28685,17222],"id":"feature_324"},{"properties":{"price":38300,"use":"\u7b20\u677e","zone":"","station":"\u4f4f\u5b85"},"type":"Point","coordinates":[33532,18070],"id":"feature_325"},{"properties":{"price":41300,"use":"\u7b20\u677e","zone":"","station":"\u4f4f\u5b85"},"type":"Point","coordinates":[30907,17805],"id":"feature_326"},{"properties":{"price":58000,"use":"\u7b20\u677e","zone":"","station":"\u5e97\u8217"},"type":"Point","coordinates":[28720,17481],"id":"feature_327"},{"properties":{"price":20300,"use":"\u990a\u8001","zone":"","station":"\u4f4f\u5b85"},"type":"Point","coordinates":[10541,13991],"id":"feature_328"},{"properties":{"price":23000,"use":"\u990a\u8001","zone":"","station":"\u4f4f\u5b85"},"type":"Point","coordinates":[9882,11575],"id":"feature_329"},{"properties":{"price":30600,"use":"\u990a\u8001","zone":"","station":"\u8a3a\u7642\u6240\u517c\u4f4f\u5b85"},"type":"Point","coordinates":[8832,11374],"id":"feature_330"},{"properties":{"price":24000,"use":"\u990a\u8001","zone":"","station":"\u5009\u5eab"},"type":"Point","coordinates":[13202,9483],"id":"feature_331"},{"properties":{"price":36300,"use":"\u5782\u4e95","zone":"","station":"\u4f4f\u5b85"},"type":"Point","coordinates":[6103,17554],"id":"feature_332"},{"properties":{"price":35400,"use":"\u5782\u4e95","zone":"","station":"\u4f4f\u5b85"},"type":"Point","coordinates":[6314,16453],"id":"feature_333"},{"properties":{"price":52800,"use":"\u5782\u4e95","zone":"","station":"\u4f4f\u5b85"},"type":"Point","coordinates":[6572,16874],"id":"feature_334"},{"properties":{"price":34900,"use":"\u5782\u4e95","zone":"","station":"\u4f4f\u5b85"},"type":"Point","coordinates":[5557,17236],"id":"feature_335"},{"properties":{"price":28500,"use":"\u5782\u4e95","zone":"","station":"\u4f4f\u5b85"},"type":"Point","coordinates":[5951,18265],"id":"feature_336"},{"properties":{"price":15000,"use":"\u5782\u4e95","zone":"","station":"\u4f4f\u5b85"},"type":"Point","coordinates":[3631,18254],"id":"feature_337"},{"properties":{"price":51900,"use":"\u5782\u4e95","zone":"","station":"\u5e97\u8217\u3001\u4f5c\u696d\u6240\u517c\u5009\u5eab"},"type":"Point","coordinates":[6875,16708],"id":"feature_338"},{"properties":{"price":22000,"use":"\u95a2\u30b1\u539f","zone":"","station":"\u4f4f\u5b85"},"type":"Point","coordinates":[1034,16326],"id":"feature_339"},{"properties":{"price":17100,"use":"\u95a2\u30b1\u539f","zone":"","station":"\u4f4f\u5b85"},"type":"Point","coordinates":[0,16139],"id":"feature_340"},{"properties":{"price":35000,"use":"\u95a2\u30b1\u539f","zone":"","station":"\u5e97\u8217\u517c\u4f4f\u5b85"},"type":"Point","coordinates":[826,16500],"id":"feature_341"},{"properties":{"price":29500,"use":"\u795e\u6238","zone":"","station":"\u4f4f\u5b85"},"type":"Point","coordinates":[13247,23003],"id":"feature_342"},{"properties":{"price":31200,"use":"\u795e\u6238","zone":"","station":"\u4f4f\u5b85"},"type":"Point","coordinates":[14580,21529],"id":"feature_343"},{"properties":{"price":37700,"use":"\u795e\u6238","zone":"","station":"\u4f4f\u5b85"},"type":"Point","coordinates":[13814,21172],"id":"feature_344"},{"properties":{"price":23500,"use":"\u795e\u6238","zone":"","station":"\u4f4f\u5b85"},"type":"Point","coordinates":[12290,22661],"id":"feature_345"},{"properties":{"price":33400,"use":"\u795e\u6238","zone":"","station":"\u5e97\u8217\u517c\u4f4f\u5b85"},"type":"Point","coordinates":[13598,21355],"id":"feature_346"},{"properties":{"price":23100,"use":"\u8f2a\u4e4b\u5185","zone":"","station":"\u4f4f\u5b85"},"type":"Point","coordinates":[18772,11054],"id":"feature_347"},{"properties":{"price":18700,"use":"\u8f2a\u4e4b\u5185","zone":"","station":"\u4f4f\u5b85"},"type":"Point","coordinates":[15016,8547],"id":"feature_348"},{"properties":{"price":39500,"use":"\u5b89\u516b","zone":"","station":"\u4f4f\u5b85"},"type":"Point","coordinates":[19689,14301],"id":"feature_349"},{"properties":{"price":36300,"use":"\u5b89\u516b","zone":"","station":"\u4f4f\u5b85"},"type":"Point","coordinates":[18735,14007],"id":"feature_350"},{"properties":{"price":40000,"use":"\u5b89\u516b","zone":"","station":"\u4f4f\u5b85"},"type":"Point","coordinates":[19623,16344],"id":"feature_351"},{"properties":{"price":21600,"use":"\u5b89\u516b","zone":"","station":"\u5de5\u5834"},"type":"Point","coordinates":[17373,12291],"id":"feature_352"},{"properties":{"price":21400,"use":"\u63d6\u6590\u5ddd","zone":"","station":"\u4f4f\u5b85"},"type":"Point","coordinates":[10942,27211],"id":"feature_353"},{"properties":{"price":15900,"use":"\u63d6\u6590\u5ddd","zone":"","station":"\u4f4f\u5b85"},"type":"Point","coordinates":[8317,26710],"id":"feature_354"},{"properties":{"price":24900,"use":"\u63d6\u6590\u5ddd","zone":"","station":"\u5e97\u8217\u517c\u4f4f\u5b85"},"type":"Point","coordinates":[10417,26956],"id":"feature_355"},{"properties":{"price":24200,"use":"\u5c90\u961c\u5927\u91ce","zone":"","station":"\u4f4f\u5b85"},"type":"Point","coordinates":[14090,25619],"id":"feature_356"},{"properties":{"price":21100,"use":"\u5c90\u961c\u5927\u91ce","zone":"","station":"\u4f4f\u5b85"},"type":"Point","coordinates":[13132,24565],"id":"feature_357"},{"properties":{"price":31900,"use":"\u5c90\u961c\u5927\u91ce","zone":"","station":"\u5e97\u8217"},"type":"Point","coordinates":[15579,25543],"id":"feature_358"},{"properties":{"price":20200,"use":"\u5c90\u961c\u5927\u91ce","zone":"","station":"\u5009\u5eab"},"type":"Point","coordinates":[15574,24053],"id":"feature_359"},{"properties":{"price":26800,"use":"\u5c90\u961c\u6c60\u7530","zone":"","station":"\u4f4f\u5b85"},"type":"Point","coordinates":[10372,22693],"id":"feature_360"},{"properties":{"price":20000,"use":"\u5c90\u961c\u6c60\u7530","zone":"","station":"\u4f4f\u5b85"},"type":"Point","coordinates":[9217,24076],"id":"feature_361"},{"properties":{"price":47100,"use":"\u5317\u65b9","zone":"","station":"\u4f4f\u5b85"},"type":"Point","coordinates":[22309,22503],"id":"feature_362"},{"properties":{"price":39700,"use":"\u5317\u65b9","zone":"","station":"\u4f4f\u5b85"},"type":"Point","coordinates":[22408,23449],"id":"feature_363"},{"properties":{"price":47400,"use":"\u5317\u65b9","zone":"","station":"\u4f4f\u5b85"},"type":"Point","coordinates":[21651,21941],"id":"feature_364"},{"properties":{"price":48100,"use":"\u5317\u65b9","zone":"","station":"\u4f4f\u5b85"},"type":"Point","coordinates":[21407,21348],"id":"feature_365"},{"properties":{"price":49600,"use":"\u5317\u65b9","zone":"","station":"\u5e97\u8217"},"type":"Point","coordinates":[21730,23146],"id":"feature_366"},{"properties":{"price":27400,"use":"\u5742\u795d","zone":"","station":"\u4f4f\u5b85"},"type":"Point","coordinates":[48889,21920],"id":"feature_367"},{"properties":{"price":23400,"use":"\u5742\u795d","zone":"","station":"\u4f4f\u5b85"},"type":"Point","coordinates":[50929,23034],"id":"feature_368"},{"properties":{"price":24500,"use":"\u5742\u795d","zone":"","station":"\u8a3a\u7642\u6240\u517c\u4f4f\u5b85"},"type":"Point","coordinates":[48833,23245],"id":"feature_369"},{"properties":{"price":22000,"use":"\u5bcc\u52a0","zone":"","station":"\u4f4f\u5b85"},"type":"Point","coordinates":[48924,26462],"id":"feature_370"},{"properties":{"price":16600,"use":"\u5bcc\u52a0","zone":"","station":"\u4f4f\u5b85"},"type":"Point","coordinates":[48273,27706],"id":"feature_371"},{"properties":{"price":24000,"use":"\u5bcc\u52a0","zone":"","station":"\u5e97\u8217\u517c\u4f4f\u5b85"},"type":"Point","coordinates":[48504,26421],"id":"feature_372"},{"properties":{"price":26600,"use":"\u5c90\u961c\u5ddd\u8fba","zone":"","station":"\u4f4f\u5b85"},"type":"Point","coordinates":[58023,27128],"id":"feature_373"},{"properties":{"price":23200,"use":"\u5c90\u961c\u5ddd\u8fba","zone":"","station":"\u4f4f\u5b85"},"type":"Point","coordinates":[57913,26800],"id":"feature_374"},{"properties":{"price":26700,"use":"\u5c90\u961c\u5ddd\u8fba","zone":"","station":"\u5e97\u8217"},"type":"Point","coordinates":[57895,27061],"id":"feature_375"},{"properties":{"price":13500,"use":"\u516b\u767e\u6d25","zone":"","station":"\u4f4f\u5b85"},"type":"Point","coordinates":[65061,26862],"id":"feature_376"},{"properties":{"price":15800,"use":"\u516b\u767e\u6d25","zone":"","station":"\u4f4f\u5b85"},"type":"Point","coordinates":[62126,26139],"id":"feature_377"},{"properties":{"price":19800,"use":"\u516b\u767e\u6d25","zone":"","station":"\u5e97\u8217\u3001\u4f5c\u696d\u5834\u517c\u4f4f\u5b85\u7b49"},"type":"Point","coordinates":[64744,26119],"id":"feature_378"},{"properties":{"price":21300,"use":"\u5fa1\u5d69","zone":"","station":"\u4f4f\u5b85"},"type":"Point","coordinates":[63473,22319],"id":"feature_379"},{"properties":{"price":13700,"use":"\u5fa1\u5d69","zone":"","station":"\u4f4f\u5b85"},"type":"Point","coordinates":[63883,21856],"id":"feature_380"},{"properties":{"price":31400,"use":"\u5fa1\u5d69","zone":"","station":"\u5e97\u8217\u3001\u4f4f\u5b85\u517c\u5de5\u5834"},"type":"Point","coordinates":[58740,22806],"id":"feature_381"}],"type":"GeometryCollection"}},"bbox":[136.46243,35.17054,137.50887,36.3354],"transform":{"scale":[1.0464504645046349e-05,1.1648716487164845e-05],"translate":[136.46243,35.17054]},"arcs":[]}