{"type":"Topology","objects":{"data":{"geometries":[{"properties":{"price":106000,"use":"\u5927\u5206","zone":"","station":"\u4f4f\u5b85"},"type":"Point","coordinates":[68230,43418],"id":"feature_000"},{"properties":{"price":86900,"use":"\u5927\u5206","zone":"","station":"\u4f4f\u5b85"},"type":"Point","coordinates":[68724,44008],"id":"feature_001"},{"properties":{"price":13500,"use":"\u5927\u5206","zone":"","station":"\u4f4f\u5b85"},"type":"Point","coordinates":[65012,44297],"id":"feature_002"},{"properties":{"price":62700,"use":"\u5927\u5206","zone":"","station":"\u4f4f\u5b85"},"type":"Point","coordinates":[73072,43547],"id":"feature_003"},{"properties":{"price":102000,"use":"\u5927\u5206","zone":"","station":"\u5171\u540c\u4f4f\u5b85"},"type":"Point","coordinates":[68385,43970],"id":"feature_004"},{"properties":{"price":120000,"use":"\u5927\u5206","zone":"","station":"\u4f4f\u5b85"},"type":"Point","coordinates":[70104,44496],"id":"feature_005"},{"properties":{"price":99300,"use":"\u5927\u5206","zone":"","station":"\u4f4f\u5b85"},"type":"Point","coordinates":[70722,43970],"id":"feature_006"},{"properties":{"price":94300,"use":"\u5927\u5206","zone":"","station":"\u4f4f\u5b85"},"type":"Point","coordinates":[70679,42823],"id":"feature_007"},{"properties":{"price":160000,"use":"\u5927\u5206","zone":"","station":"\u4f4f\u5b85"},"type":"Point","coordinates":[69526,42131],"id":"feature_008"},{"properties":{"price":95500,"use":"\u5927\u5206","zone":"","station":"\u4f4f\u5b85"},"type":"Point","coordinates":[70209,41619],"id":"feature_009"},{"properties":{"price":32000,"use":"\u5927\u5206","zone":"","station":"\u4f4f\u5b85"},"type":"Point","coordinates":[71976,31768],"id":"feature_010"},{"properties":{"price":86700,"use":"\u5927\u5206","zone":"","station":"\u4f4f\u5b85"},"type":"Point","coordinates":[68133,41910],"id":"feature_011"},{"properties":{"price":90000,"use":"\u5927\u5206","zone":"","station":"\u7a7a\u5730"},"type":"Point","coordinates":[68370,42816],"id":"feature_012"},{"properties":{"price":48700,"use":"\u5927\u5206","zone":"","station":"\u4f4f\u5b85"},"type":"Point","coordinates":[75589,44211],"id":"feature_013"},{"properties":{"price":50400,"use":"\u5927\u5206","zone":"","station":"\u4f4f\u5b85"},"type":"Point","coordinates":[67391,40983],"id":"feature_014"},{"properties":{"price":16400,"use":"\u5927\u5206","zone":"","station":"\u4f4f\u5b85"},"type":"Point","coordinates":[65319,33915],"id":"feature_015"},{"properties":{"price":68400,"use":"\u5927\u5206","zone":"","station":"\u4f4f\u5b85"},"type":"Point","coordinates":[68193,39174],"id":"feature_016"},{"properties":{"price":69400,"use":"\u5927\u5206","zone":"","station":"\u4f4f\u5b85"},"type":"Point","coordinates":[68144,39724],"id":"feature_017"},{"properties":{"price":81500,"use":"\u5927\u5206","zone":"","station":"\u4f4f\u5b85"},"type":"Point","coordinates":[69438,39822],"id":"feature_018"},{"properties":{"price":66900,"use":"\u5927\u5206","zone":"","station":"\u4f4f\u5b85"},"type":"Point","coordinates":[69196,44904],"id":"feature_019"},{"properties":{"price":48600,"use":"\u5927\u5206","zone":"","station":"\u4f4f\u5b85"},"type":"Point","coordinates":[66994,37224],"id":"feature_020"},{"properties":{"price":44000,"use":"\u5927\u5206","zone":"","station":"\u4f4f\u5b85"},"type":"Point","coordinates":[70579,39162],"id":"feature_021"},{"properties":{"price":60300,"use":"\u5927\u5206","zone":"","station":"\u4f4f\u5b85"},"type":"Point","coordinates":[72170,40204],"id":"feature_022"},{"properties":{"price":90800,"use":"\u5927\u5206","zone":"","station":"\u4f4f\u5b85"},"type":"Point","coordinates":[72334,41583],"id":"feature_023"},{"properties":{"price":86300,"use":"\u5927\u5206","zone":"","station":"\u4f4f\u5b85"},"type":"Point","coordinates":[71735,43567],"id":"feature_024"},{"properties":{"price":362000,"use":"\u5927\u5206","zone":"","station":"\u5171\u540c\u4f4f\u5b85"},"type":"Point","coordinates":[69306,42156],"id":"feature_025"},{"properties":{"price":63500,"use":"\u5927\u5206","zone":"","station":"\u4f4f\u5b85"},"type":"Point","coordinates":[71943,44892],"id":"feature_026"},{"properties":{"price":69500,"use":"\u5927\u5206","zone":"","station":"\u4f4f\u5b85"},"type":"Point","coordinates":[72994,44487],"id":"feature_027"},{"properties":{"price":48100,"use":"\u5927\u5206","zone":"","station":"\u5171\u540c\u4f4f\u5b85"},"type":"Point","coordinates":[75246,45575],"id":"feature_028"},{"properties":{"price":155000,"use":"\u5927\u5206","zone":"","station":"\u4f4f\u5b85"},"type":"Point","coordinates":[69916,42035],"id":"feature_029"},{"properties":{"price":43300,"use":"\u5927\u5206","zone":"","station":"\u4f4f\u5b85"},"type":"Point","coordinates":[76122,43055],"id":"feature_030"},{"properties":{"price":38500,"use":"\u5927\u5206","zone":"","station":"\u4f4f\u5b85"},"type":"Point","coordinates":[75315,42191],"id":"feature_031"},{"properties":{"price":78500,"use":"\u5927\u5206","zone":"","station":"\u4f4f\u5b85"},"type":"Point","coordinates":[74641,40336],"id":"feature_032"},{"properties":{"price":43000,"use":"\u5927\u5206","zone":"","station":"\u4f4f\u5b85"},"type":"Point","coordinates":[74180,43320],"id":"feature_033"},{"properties":{"price":65200,"use":"\u5927\u5206","zone":"","station":"\u4f4f\u5b85"},"type":"Point","coordinates":[70267,45368],"id":"feature_034"},{"properties":{"price":29500,"use":"\u5927\u5206","zone":"","station":"\u4f4f\u5b85"},"type":"Point","coordinates":[74985,30104],"id":"feature_035"},{"properties":{"price":45700,"use":"\u5927\u5206","zone":"","station":"\u4f4f\u5b85"},"type":"Point","coordinates":[76309,39970],"id":"feature_036"},{"properties":{"price":49300,"use":"\u5927\u5206","zone":"","station":"\u4f4f\u5b85"},"type":"Point","coordinates":[76803,42108],"id":"feature_037"},{"properties":{"price":55000,"use":"\u5927\u5206","zone":"","station":"\u4f4f\u5b85"},"type":"Point","coordinates":[76024,39198],"id":"feature_038"},{"properties":{"price":43000,"use":"\u5927\u5206","zone":"","station":"\u4f4f\u5b85"},"type":"Point","coordinates":[77992,43601],"id":"feature_039"},{"properties":{"price":39000,"use":"\u5927\u5206","zone":"","station":"\u4f4f\u5b85"},"type":"Point","coordinates":[76613,45363],"id":"feature_040"},{"properties":{"price":23700,"use":"\u5927\u5206","zone":"","station":"\u4f4f\u5b85"},"type":"Point","coordinates":[78228,46201],"id":"feature_041"},{"properties":{"price":80400,"use":"\u5927\u5206","zone":"","station":"\u4f4f\u5b85"},"type":"Point","coordinates":[66828,43156],"id":"feature_042"},{"properties":{"price":79800,"use":"\u5927\u5206","zone":"","station":"\u4f4f\u5b85"},"type":"Point","coordinates":[73772,42017],"id":"feature_043"},{"properties":{"price":33300,"use":"\u5927\u5206","zone":"","station":"\u4f4f\u5b85"},"type":"Point","coordinates":[81053,43749],"id":"feature_044"},{"properties":{"price":41400,"use":"\u5927\u5206","zone":"","station":"\u4f4f\u5b85"},"type":"Point","coordinates":[81745,44959],"id":"feature_045"},{"properties":{"price":38800,"use":"\u5927\u5206","zone":"","station":"\u4f4f\u5b85"},"type":"Point","coordinates":[77285,42349],"id":"feature_046"},{"properties":{"price":11800,"use":"\u5927\u5206","zone":"","station":"\u7a7a\u5730"},"type":"Point","coordinates":[78706,36576],"id":"feature_047"},{"properties":{"price":61800,"use":"\u5927\u5206","zone":"","station":"\u4f4f\u5b85"},"type":"Point","coordinates":[67140,39820],"id":"feature_048"},{"properties":{"price":18100,"use":"\u5927\u5206","zone":"","station":"\u4f4f\u5b85"},"type":"Point","coordinates":[86140,43499],"id":"feature_049"},{"properties":{"price":39000,"use":"\u5927\u5206","zone":"","station":"\u4f4f\u5b85"},"type":"Point","coordinates":[84343,42015],"id":"feature_050"},{"properties":{"price":55400,"use":"\u5927\u5206","zone":"","station":"\u4f4f\u5b85"},"type":"Point","coordinates":[66368,39409],"id":"feature_051"},{"properties":{"price":29200,"use":"\u5927\u5206","zone":"","station":"\u4f4f\u5b85"},"type":"Point","coordinates":[64661,35685],"id":"feature_052"},{"properties":{"price":46300,"use":"\u5927\u5206","zone":"","station":"\u4f4f\u5b85"},"type":"Point","coordinates":[65765,35889],"id":"feature_053"},{"properties":{"price":26200,"use":"\u5927\u5206","zone":"","station":"\u4f4f\u5b85"},"type":"Point","coordinates":[83071,42136],"id":"feature_054"},{"properties":{"price":60300,"use":"\u5927\u5206","zone":"","station":"\u4f4f\u5b85"},"type":"Point","coordinates":[66470,37814],"id":"feature_055"},{"properties":{"price":43000,"use":"\u5927\u5206","zone":"","station":"\u4f4f\u5b85"},"type":"Point","coordinates":[80197,43930],"id":"feature_056"},{"properties":{"price":51000,"use":"\u5927\u5206","zone":"","station":"\u4f4f\u5b85"},"type":"Point","coordinates":[70187,35846],"id":"feature_057"},{"properties":{"price":29100,"use":"\u5927\u5206","zone":"","station":"\u4f4f\u5b85"},"type":"Point","coordinates":[75861,35294],"id":"feature_058"},{"properties":{"price":27500,"use":"\u5927\u5206","zone":"","station":"\u4f4f\u5b85"},"type":"Point","coordinates":[76317,30682],"id":"feature_059"},{"properties":{"price":34900,"use":"\u5927\u5206","zone":"","station":"\u4f4f\u5b85"},"type":"Point","coordinates":[61636,35252],"id":"feature_060"},{"properties":{"price":44700,"use":"\u5927\u5206","zone":"","station":"\u4f4f\u5b85"},"type":"Point","coordinates":[67471,34799],"id":"feature_061"},{"properties":{"price":47600,"use":"\u5927\u5206","zone":"","station":"\u4f4f\u5b85"},"type":"Point","coordinates":[70906,36499],"id":"feature_062"},{"properties":{"price":13200,"use":"\u5927\u5206","zone":"","station":"\u4f4f\u5b85"},"type":"Point","coordinates":[74341,32336],"id":"feature_063"},{"properties":{"price":30200,"use":"\u5927\u5206","zone":"","station":"\u4f4f\u5b85"},"type":"Point","coordinates":[78156,39895],"id":"feature_064"},{"properties":{"price":36400,"use":"\u5927\u5206","zone":"","station":"\u4f4f\u5b85"},"type":"Point","coordinates":[85216,43261],"id":"feature_065"},{"properties":{"price":33700,"use":"\u5927\u5206","zone":"","station":"\u4f4f\u5b85"},"type":"Point","coordinates":[81680,43020],"id":"feature_066"},{"properties":{"price":47900,"use":"\u5927\u5206","zone":"","station":"\u4f4f\u5b85"},"type":"Point","coordinates":[68921,37064],"id":"feature_067"},{"properties":{"price":41000,"use":"\u5927\u5206","zone":"","station":"\u4f4f\u5b85"},"type":"Point","coordinates":[68246,35506],"id":"feature_068"},{"properties":{"price":66100,"use":"\u5927\u5206","zone":"","station":"\u4f4f\u5b85"},"type":"Point","coordinates":[69292,41224],"id":"feature_069"},{"properties":{"price":70100,"use":"\u5927\u5206","zone":"","station":"\u5171\u540c\u4f4f\u5b85"},"type":"Point","coordinates":[65668,39866],"id":"feature_070"},{"properties":{"price":31800,"use":"\u5927\u5206","zone":"","station":"\u4f4f\u5b85"},"type":"Point","coordinates":[66200,43714],"id":"feature_071"},{"properties":{"price":14300,"use":"\u5927\u5206","zone":"","station":"\u4f4f\u5b85"},"type":"Point","coordinates":[81145,42023],"id":"feature_072"},{"properties":{"price":39600,"use":"\u5927\u5206","zone":"","station":"\u4f4f\u5b85"},"type":"Point","coordinates":[65397,35054],"id":"feature_073"},{"properties":{"price":61000,"use":"\u5927\u5206","zone":"","station":"\u4f4f\u5b85"},"type":"Point","coordinates":[67146,39358],"id":"feature_074"},{"properties":{"price":45300,"use":"\u5927\u5206","zone":"","station":"\u4f4f\u5b85"},"type":"Point","coordinates":[80708,45118],"id":"feature_075"},{"properties":{"price":72600,"use":"\u5927\u5206","zone":"","station":"\u4f4f\u5b85"},"type":"Point","coordinates":[69286,39163],"id":"feature_076"},{"properties":{"price":76700,"use":"\u5927\u5206","zone":"","station":"\u4f4f\u5b85"},"type":"Point","coordinates":[71774,40500],"id":"feature_077"},{"properties":{"price":73600,"use":"\u5927\u5206","zone":"","station":"\u5171\u540c\u4f4f\u5b85"},"type":"Point","coordinates":[71629,41817],"id":"feature_078"},{"properties":{"price":6870,"use":"\u5927\u5206","zone":"","station":"\u7530"},"type":"Point","coordinates":[78754,41724],"id":"feature_079"},{"properties":{"price":7230,"use":"\u5927\u5206","zone":"","station":"\u7530"},"type":"Point","coordinates":[71859,32990],"id":"feature_080"},{"properties":{"price":599000,"use":"\u5927\u5206","zone":"","station":"\u9280\u884c"},"type":"Point","coordinates":[69550,43290],"id":"feature_081"},{"properties":{"price":374000,"use":"\u5927\u5206","zone":"","station":"\u5e97\u8217"},"type":"Point","coordinates":[69430,43703],"id":"feature_082"},{"properties":{"price":185000,"use":"\u5927\u5206","zone":"","station":"\u5e97\u8217\u517c\u5171\u540c\u4f4f\u5b85"},"type":"Point","coordinates":[69097,43894],"id":"feature_083"},{"properties":{"price":215000,"use":"\u5927\u5206","zone":"","station":"\u5e97\u8217\u3001\u4e8b\u52d9\u6240\u517c\u4f4f\u5b85"},"type":"Point","coordinates":[69821,43221],"id":"feature_084"},{"properties":{"price":138000,"use":"\u5927\u5206","zone":"","station":"\u4e8b\u52d9\u6240"},"type":"Point","coordinates":[70227,44791],"id":"feature_085"},{"properties":{"price":189000,"use":"\u5927\u5206","zone":"","station":"\u4e8b\u52d9\u6240"},"type":"Point","coordinates":[70124,42644],"id":"feature_086"},{"properties":{"price":50900,"use":"\u5927\u5206","zone":"","station":"\u4e8b\u52d9\u6240"},"type":"Point","coordinates":[77003,45968],"id":"feature_087"},{"properties":{"price":139000,"use":"\u5927\u5206","zone":"","station":"\u5e97\u8217\u517c\u4f4f\u5b85"},"type":"Point","coordinates":[68876,42461],"id":"feature_088"},{"properties":{"price":76200,"use":"\u5927\u5206","zone":"","station":"\u5e97\u8217"},"type":"Point","coordinates":[65749,39639],"id":"feature_089"},{"properties":{"price":106000,"use":"\u5927\u5206","zone":"","station":"\u5e97\u8217"},"type":"Point","coordinates":[71449,43907],"id":"feature_090"},{"properties":{"price":108000,"use":"\u5927\u5206","zone":"","station":"\u9280\u884c"},"type":"Point","coordinates":[73956,44386],"id":"feature_091"},{"properties":{"price":56000,"use":"\u5927\u5206","zone":"","station":"\u5e97\u8217\u517c\u4f4f\u5b85"},"type":"Point","coordinates":[77799,43935],"id":"feature_092"},{"properties":{"price":180000,"use":"\u5927\u5206","zone":"","station":"\u5e97\u8217"},"type":"Point","coordinates":[68418,41942],"id":"feature_093"},{"properties":{"price":55000,"use":"\u5927\u5206","zone":"","station":"\u5e97\u8217"},"type":"Point","coordinates":[80129,44683],"id":"feature_094"},{"properties":{"price":52000,"use":"\u5927\u5206","zone":"","station":"\u5e97\u8217\u517c\u4e8b\u52d9\u6240"},"type":"Point","coordinates":[81027,44644],"id":"feature_095"},{"properties":{"price":47000,"use":"\u5927\u5206","zone":"","station":"\u5e97\u8217\u517c\u4f4f\u5b85"},"type":"Point","coordinates":[83904,43035],"id":"feature_096"},{"properties":{"price":98000,"use":"\u5927\u5206","zone":"","station":"\u5e97\u8217\u517c\u4f5c\u696d\u5834"},"type":"Point","coordinates":[69519,40073],"id":"feature_097"},{"properties":{"price":126000,"use":"\u5927\u5206","zone":"","station":"\u4e8b\u52d9\u6240"},"type":"Point","coordinates":[67860,44244],"id":"feature_098"},{"properties":{"price":177000,"use":"\u5927\u5206","zone":"","station":"\u5e97\u8217\u517c\u5171\u540c\u4f4f\u5b85"},"type":"Point","coordinates":[69217,43005],"id":"feature_099"},{"properties":{"price":162000,"use":"\u5927\u5206","zone":"","station":"\u5e97\u8217\u517c\u5171\u540c\u4f4f\u5b85"},"type":"Point","coordinates":[70074,43137],"id":"feature_100"},{"properties":{"price":86700,"use":"\u5927\u5206","zone":"","station":"\u9280\u884c"},"type":"Point","coordinates":[77027,41962],"id":"feature_101"},{"properties":{"price":100000,"use":"\u5927\u5206","zone":"","station":"\u5e97\u8217\u517c\u5171\u540c\u4f4f\u5b85"},"type":"Point","coordinates":[68824,44845],"id":"feature_102"},{"properties":{"price":77400,"use":"\u5927\u5206","zone":"","station":"\u5e97\u8217\u517c\u5171\u540c\u4f4f\u5b85"},"type":"Point","coordinates":[66704,36909],"id":"feature_103"},{"properties":{"price":70000,"use":"\u5927\u5206","zone":"","station":"\u9280\u884c"},"type":"Point","coordinates":[67952,39964],"id":"feature_104"},{"properties":{"price":85700,"use":"\u5927\u5206","zone":"","station":"\u5e97\u8217\u517c\u5171\u540c\u4f4f\u5b85"},"type":"Point","coordinates":[74809,41686],"id":"feature_105"},{"properties":{"price":105000,"use":"\u5927\u5206","zone":"","station":"\u5e97\u8217"},"type":"Point","coordinates":[72385,42086],"id":"feature_106"},{"properties":{"price":298000,"use":"\u5927\u5206","zone":"","station":"\u8a3a\u7642\u6240\u517c\u4f4f\u5b85"},"type":"Point","coordinates":[69282,43243],"id":"feature_107"},{"properties":{"price":69000,"use":"\u5927\u5206","zone":"","station":"\u5e97\u8217\u3001\u4e8b\u52d9\u6240\u517c\u5171\u540c\u4f4f\u5b85"},"type":"Point","coordinates":[74310,44767],"id":"feature_108"},{"properties":{"price":73000,"use":"\u5927\u5206","zone":"","station":"\u5e97\u8217"},"type":"Point","coordinates":[70720,39746],"id":"feature_109"},{"properties":{"price":117000,"use":"\u5927\u5206","zone":"","station":"\u8a3a\u7642\u6240\u517c\u4f4f\u5b85"},"type":"Point","coordinates":[67932,42639],"id":"feature_110"},{"properties":{"price":91300,"use":"\u5927\u5206","zone":"","station":"\u4e8b\u52d9\u6240"},"type":"Point","coordinates":[69683,39486],"id":"feature_111"},{"properties":{"price":69400,"use":"\u5927\u5206","zone":"","station":"\u4e8b\u52d9\u6240\u517c\u4f4f\u5b85"},"type":"Point","coordinates":[67091,44755],"id":"feature_112"},{"properties":{"price":112000,"use":"\u5927\u5206","zone":"","station":"\u8a3a\u7642\u6240"},"type":"Point","coordinates":[68493,39787],"id":"feature_113"},{"properties":{"price":101000,"use":"\u5927\u5206","zone":"","station":"\u5e97\u8217"},"type":"Point","coordinates":[68230,36275],"id":"feature_114"},{"properties":{"price":239000,"use":"\u5927\u5206","zone":"","station":"\u4e8b\u52d9\u6240"},"type":"Point","coordinates":[69115,41982],"id":"feature_115"},{"properties":{"price":180000,"use":"\u5927\u5206","zone":"","station":"\u5e97\u8217"},"type":"Point","coordinates":[69428,43976],"id":"feature_116"},{"properties":{"price":697000,"use":"\u5927\u5206","zone":"","station":"\u4e8b\u52d9\u6240\u3001\u5e97\u8217\u517c\u4f4f\u5b85"},"type":"Point","coordinates":[69457,42894],"id":"feature_117"},{"properties":{"price":28300,"use":"\u5927\u5206","zone":"","station":"\u5de5\u5834"},"type":"Point","coordinates":[69664,46526],"id":"feature_118"},{"properties":{"price":19400,"use":"\u5927\u5206","zone":"","station":"\u4e8b\u52d9\u6240\u517c\u5009\u5eab"},"type":"Point","coordinates":[76710,46409],"id":"feature_119"},{"properties":{"price":16000,"use":"\u5927\u5206","zone":"","station":"\u5de5\u5834"},"type":"Point","coordinates":[86354,44465],"id":"feature_120"},{"properties":{"price":23300,"use":"\u5927\u5206","zone":"","station":"\u4e8b\u52d9\u6240\u517c\u5009\u5eab"},"type":"Point","coordinates":[79371,46583],"id":"feature_121"},{"properties":{"price":25500,"use":"\u5927\u5206","zone":"","station":"\u5de5\u5834"},"type":"Point","coordinates":[68465,45418],"id":"feature_122"},{"properties":{"price":40500,"use":"\u5927\u5206","zone":"","station":"\u5de5\u5834"},"type":"Point","coordinates":[69872,45858],"id":"feature_123"},{"properties":{"price":32900,"use":"\u5927\u5206","zone":"","station":"\u4e8b\u52d9\u6240\u517c\u5009\u5eab"},"type":"Point","coordinates":[75057,46165],"id":"feature_124"},{"properties":{"price":25700,"use":"\u5927\u5206","zone":"","station":"\u4e8b\u52d9\u6240\u517c\u5009\u5eab"},"type":"Point","coordinates":[79012,42299],"id":"feature_125"},{"properties":{"price":16400,"use":"\u5927\u5206","zone":"","station":"\u5de5\u5834"},"type":"Point","coordinates":[81105,43476],"id":"feature_126"},{"properties":{"price":71100,"use":"\u5225\u5e9c","zone":"","station":"\u4f4f\u5b85"},"type":"Point","coordinates":[58223,49435],"id":"feature_127"},{"properties":{"price":56300,"use":"\u5225\u5e9c","zone":"","station":"\u4f4f\u5b85"},"type":"Point","coordinates":[56664,51389],"id":"feature_128"},{"properties":{"price":53500,"use":"\u5225\u5e9c","zone":"","station":"\u4f4f\u5b85"},"type":"Point","coordinates":[56813,50241],"id":"feature_129"},{"properties":{"price":65100,"use":"\u5225\u5e9c","zone":"","station":"\u4f4f\u5b85"},"type":"Point","coordinates":[57298,51948],"id":"feature_130"},{"properties":{"price":34900,"use":"\u5225\u5e9c","zone":"","station":"\u4f4f\u5b85"},"type":"Point","coordinates":[55511,51557],"id":"feature_131"},{"properties":{"price":43100,"use":"\u5225\u5e9c","zone":"","station":"\u4f4f\u5b85"},"type":"Point","coordinates":[58399,56045],"id":"feature_132"},{"properties":{"price":32300,"use":"\u5225\u5e9c","zone":"","station":"\u4f4f\u5b85"},"type":"Point","coordinates":[58672,48482],"id":"feature_133"},{"properties":{"price":52900,"use":"\u5225\u5e9c","zone":"","station":"\u4f4f\u5b85"},"type":"Point","coordinates":[57813,54061],"id":"feature_134"},{"properties":{"price":67500,"use":"\u5225\u5e9c","zone":"","station":"\u4f4f\u5b85"},"type":"Point","coordinates":[58235,51820],"id":"feature_135"},{"properties":{"price":30000,"use":"\u5225\u5e9c","zone":"","station":"\u4f4f\u5b85"},"type":"Point","coordinates":[57098,57471],"id":"feature_136"},{"properties":{"price":37200,"use":"\u5225\u5e9c","zone":"","station":"\u4f4f\u5b85"},"type":"Point","coordinates":[55992,54939],"id":"feature_137"},{"properties":{"price":64900,"use":"\u5225\u5e9c","zone":"","station":"\u4f4f\u5b85"},"type":"Point","coordinates":[57535,50122],"id":"feature_138"},{"properties":{"price":25000,"use":"\u5225\u5e9c","zone":"","station":"\u5efa\u7bc9\u4e2d"},"type":"Point","coordinates":[54768,51348],"id":"feature_139"},{"properties":{"price":37600,"use":"\u5225\u5e9c","zone":"","station":"\u4f4f\u5b85"},"type":"Point","coordinates":[55875,52730],"id":"feature_140"},{"properties":{"price":27200,"use":"\u5225\u5e9c","zone":"","station":"\u4f4f\u5b85"},"type":"Point","coordinates":[59627,48041],"id":"feature_141"},{"properties":{"price":35000,"use":"\u5225\u5e9c","zone":"","station":"\u4f4f\u5b85"},"type":"Point","coordinates":[55139,53730],"id":"feature_142"},{"properties":{"price":53300,"use":"\u5225\u5e9c","zone":"","station":"\u4f4f\u5b85"},"type":"Point","coordinates":[58151,50903],"id":"feature_143"},{"properties":{"price":44800,"use":"\u5225\u5e9c","zone":"","station":"\u4f4f\u5b85"},"type":"Point","coordinates":[57622,53331],"id":"feature_144"},{"properties":{"price":26100,"use":"\u5225\u5e9c","zone":"","station":"\u4f4f\u5b85"},"type":"Point","coordinates":[57606,55790],"id":"feature_145"},{"properties":{"price":47100,"use":"\u5225\u5e9c","zone":"","station":"\u4f4f\u5b85"},"type":"Point","coordinates":[57685,54650],"id":"feature_146"},{"properties":{"price":52500,"use":"\u5225\u5e9c","zone":"","station":"\u4f4f\u5b85"},"type":"Point","coordinates":[56855,54259],"id":"feature_147"},{"properties":{"price":6770,"use":"\u5225\u5e9c","zone":"","station":"\u4f4f\u5b85"},"type":"Point","coordinates":[54067,57150],"id":"feature_148"},{"properties":{"price":3220,"use":"\u5225\u5e9c","zone":"","station":"\u4f4f\u5b85"},"type":"Point","coordinates":[54351,44904],"id":"feature_149"},{"properties":{"price":5970,"use":"\u5225\u5e9c","zone":"","station":"\u4f4f\u5b85"},"type":"Point","coordinates":[56244,49869],"id":"feature_150"},{"properties":{"price":65300,"use":"\u5225\u5e9c","zone":"","station":"\u5171\u540c\u4f4f\u5b85"},"type":"Point","coordinates":[58736,52418],"id":"feature_151"},{"properties":{"price":9560,"use":"\u5225\u5e9c","zone":"","station":"\u7530"},"type":"Point","coordinates":[57271,56288],"id":"feature_152"},{"properties":{"price":135000,"use":"\u5225\u5e9c","zone":"","station":"\u5e97\u8217\u517c\u4f4f\u5b85"},"type":"Point","coordinates":[59110,49814],"id":"feature_153"},{"properties":{"price":60700,"use":"\u5225\u5e9c","zone":"","station":"\u5e97\u8217"},"type":"Point","coordinates":[59155,49593],"id":"feature_154"},{"properties":{"price":88500,"use":"\u5225\u5e9c","zone":"","station":"\u65c5\u9928"},"type":"Point","coordinates":[59425,50139],"id":"feature_155"},{"properties":{"price":67000,"use":"\u5225\u5e9c","zone":"","station":"\u5e97\u8217\u517c\u4f4f\u5b85"},"type":"Point","coordinates":[57684,49761],"id":"feature_156"},{"properties":{"price":57100,"use":"\u5225\u5e9c","zone":"","station":"\u5e97\u8217"},"type":"Point","coordinates":[56239,54113],"id":"feature_157"},{"properties":{"price":74500,"use":"\u5225\u5e9c","zone":"","station":"\u5e97\u8217\u517c\u5171\u540c\u4f4f\u5b85"},"type":"Point","coordinates":[58280,53261],"id":"feature_158"},{"properties":{"price":67800,"use":"\u5225\u5e9c","zone":"","station":"\u5e97\u8217\u517c\u4f4f\u5b85"},"type":"Point","coordinates":[58853,52968],"id":"feature_159"},{"properties":{"price":68000,"use":"\u5225\u5e9c","zone":"","station":"\u5e97\u8217"},"type":"Point","coordinates":[56789,54948],"id":"feature_160"},{"properties":{"price":53000,"use":"\u5225\u5e9c","zone":"","station":"\u65c5\u9928"},"type":"Point","coordinates":[56585,55369],"id":"feature_161"},{"properties":{"price":50200,"use":"\u5225\u5e9c","zone":"","station":"\u4e8b\u52d9\u6240\u517c\u5009\u5eab"},"type":"Point","coordinates":[58442,56456],"id":"feature_162"},{"properties":{"price":48400,"use":"\u5225\u5e9c","zone":"","station":"\u5e97\u8217\u517c\u4f4f\u5b85"},"type":"Point","coordinates":[58103,56503],"id":"feature_163"},{"properties":{"price":63000,"use":"\u5225\u5e9c","zone":"","station":"\u5e97\u8217"},"type":"Point","coordinates":[58589,54894],"id":"feature_164"},{"properties":{"price":59200,"use":"\u5225\u5e9c","zone":"","station":"\u4e8b\u52d9\u6240"},"type":"Point","coordinates":[56405,50549],"id":"feature_165"},{"properties":{"price":53600,"use":"\u5225\u5e9c","zone":"","station":"\u5e97\u8217\u517c\u5171\u540c\u4f4f\u5b85"},"type":"Point","coordinates":[59784,48326],"id":"feature_166"},{"properties":{"price":75400,"use":"\u5225\u5e9c","zone":"","station":"\u5e97\u8217\u517c\u4f4f\u5b85"},"type":"Point","coordinates":[58455,50467],"id":"feature_167"},{"properties":{"price":31600,"use":"\u5225\u5e9c","zone":"","station":"\u5de5\u5834\u517c\u4f4f\u5b85"},"type":"Point","coordinates":[58379,58638],"id":"feature_168"},{"properties":{"price":39000,"use":"\u4e2d\u6d25","zone":"","station":"\u4f4f\u5b85"},"type":"Point","coordinates":[28438,98139],"id":"feature_169"},{"properties":{"price":17000,"use":"\u4e2d\u6d25","zone":"","station":"\u4f4f\u5b85"},"type":"Point","coordinates":[30817,95950],"id":"feature_170"},{"properties":{"price":24500,"use":"\u4e2d\u6d25","zone":"","station":"\u4f4f\u5b85"},"type":"Point","coordinates":[27934,94924],"id":"feature_171"},{"properties":{"price":22000,"use":"\u4e2d\u6d25","zone":"","station":"\u4f4f\u5b85"},"type":"Point","coordinates":[27657,99999],"id":"feature_172"},{"properties":{"price":14000,"use":"\u4e2d\u6d25","zone":"","station":"\u30a2\u30d1\u30fc\u30c8"},"type":"Point","coordinates":[32288,96914],"id":"feature_173"},{"properties":{"price":72500,"use":"\u4e2d\u6d25","zone":"","station":"\u5e97\u8217\u517c\u4e8b\u52d9\u6240"},"type":"Point","coordinates":[27457,98436],"id":"feature_174"},{"properties":{"price":46400,"use":"\u4e2d\u6d25","zone":"","station":"\u5e97\u8217\u517c\u5de5\u5834"},"type":"Point","coordinates":[29584,97121],"id":"feature_175"},{"properties":{"price":25800,"use":"\u4e2d\u6d25","zone":"","station":"\u5e97\u8217"},"type":"Point","coordinates":[31388,98400],"id":"feature_176"},{"properties":{"price":12100,"use":"\u4e2d\u6d25","zone":"","station":"\u5009\u5eab\u517c\u4e8b\u52d9\u6240"},"type":"Point","coordinates":[32962,99880],"id":"feature_177"},{"properties":{"price":37400,"use":"\u65e5\u7530","zone":"","station":"\u4f4f\u5b85"},"type":"Point","coordinates":[1362,56420],"id":"feature_178"},{"properties":{"price":29100,"use":"\u65e5\u7530","zone":"","station":"\u4f4f\u5b85"},"type":"Point","coordinates":[0,56099],"id":"feature_179"},{"properties":{"price":26100,"use":"\u65e5\u7530","zone":"","station":"\u4f4f\u5b85"},"type":"Point","coordinates":[2394,60448],"id":"feature_180"},{"properties":{"price":38200,"use":"\u65e5\u7530","zone":"","station":"\u4f4f\u5b85"},"type":"Point","coordinates":[2042,57691],"id":"feature_181"},{"properties":{"price":46000,"use":"\u65e5\u7530","zone":"","station":"\u5171\u540c\u4f4f\u5b85"},"type":"Point","coordinates":[2312,54952],"id":"feature_182"},{"properties":{"price":65000,"use":"\u65e5\u7530","zone":"","station":"\u7a7a\u5730"},"type":"Point","coordinates":[2030,55633],"id":"feature_183"},{"properties":{"price":38300,"use":"\u65e5\u7530","zone":"","station":"\u5e97\u8217"},"type":"Point","coordinates":[1093,54409],"id":"feature_184"},{"properties":{"price":53200,"use":"\u65e5\u7530","zone":"","station":"\u55b6\u696d\u6240\u517c\u5009\u5eab"},"type":"Point","coordinates":[2505,59189],"id":"feature_185"},{"properties":{"price":58000,"use":"\u65e5\u7530","zone":"","station":"\u5e97\u8217"},"type":"Point","coordinates":[652,56418],"id":"feature_186"},{"properties":{"price":45200,"use":"\u4f50\u4f2f","zone":"","station":"\u4f4f\u5b85"},"type":"Point","coordinates":[98730,1255],"id":"feature_187"},{"properties":{"price":36000,"use":"\u4f50\u4f2f","zone":"","station":"\u4f4f\u5b85"},"type":"Point","coordinates":[97679,296],"id":"feature_188"},{"properties":{"price":27300,"use":"\u4f50\u4f2f","zone":"","station":"\u4f4f\u5b85"},"type":"Point","coordinates":[99553,3457],"id":"feature_189"},{"properties":{"price":27200,"use":"\u4f50\u4f2f","zone":"","station":"\u4f4f\u5b85"},"type":"Point","coordinates":[99999,0],"id":"feature_190"},{"properties":{"price":49000,"use":"\u4f50\u4f2f","zone":"","station":"\u5e97\u8217"},"type":"Point","coordinates":[98574,823],"id":"feature_191"},{"properties":{"price":46500,"use":"\u4f50\u4f2f","zone":"","station":"\u5e97\u8217"},"type":"Point","coordinates":[99485,2995],"id":"feature_192"},{"properties":{"price":49900,"use":"\u4f50\u4f2f","zone":"","station":"\u5e97\u8217"},"type":"Point","coordinates":[95822,1332],"id":"feature_193"},{"properties":{"price":40500,"use":"\u81fc\u6775","zone":"","station":"\u4f4f\u5b85"},"type":"Point","coordinates":[89219,26053],"id":"feature_194"},{"properties":{"price":20500,"use":"\u81fc\u6775","zone":"","station":"\u4f4f\u5b85"},"type":"Point","coordinates":[89291,27243],"id":"feature_195"},{"properties":{"price":32300,"use":"\u81fc\u6775","zone":"","station":"\u4f4f\u5b85"},"type":"Point","coordinates":[88226,25898],"id":"feature_196"},{"properties":{"price":52900,"use":"\u81fc\u6775","zone":"","station":"\u5e97\u8217"},"type":"Point","coordinates":[88996,25537],"id":"feature_197"},{"properties":{"price":45200,"use":"\u81fc\u6775","zone":"","station":"\u5e97\u8217"},"type":"Point","coordinates":[88256,26342],"id":"feature_198"},{"properties":{"price":47900,"use":"\u81fc\u6775","zone":"","station":"\u5e97\u8217\u517c\u4e8b\u52d9\u6240"},"type":"Point","coordinates":[87112,24116],"id":"feature_199"},{"properties":{"price":33400,"use":"\u6d25\u4e45\u898b","zone":"","station":"\u4f4f\u5b85"},"type":"Point","coordinates":[95318,18287],"id":"feature_200"},{"properties":{"price":15500,"use":"\u6d25\u4e45\u898b","zone":"","station":"\u4f4f\u5b85"},"type":"Point","coordinates":[92831,19735],"id":"feature_201"},{"properties":{"price":16200,"use":"\u6d25\u4e45\u898b","zone":"","station":"\u4f4f\u5b85"},"type":"Point","coordinates":[94179,21303],"id":"feature_202"},{"properties":{"price":38000,"use":"\u6d25\u4e45\u898b","zone":"","station":"\u8a3a\u7642\u6240\u517c\u4f4f\u5b85"},"type":"Point","coordinates":[95442,18438],"id":"feature_203"},{"properties":{"price":44800,"use":"\u6d25\u4e45\u898b","zone":"","station":"\u5e97\u8217"},"type":"Point","coordinates":[95474,18727],"id":"feature_204"},{"properties":{"price":25100,"use":"\u7af9\u7530","zone":"","station":"\u5e97\u8217\u517c\u4f4f\u5b85"},"type":"Point","coordinates":[48231,2328],"id":"feature_205"},{"properties":{"price":12400,"use":"\u7af9\u7530","zone":"","station":"\u4f4f\u5b85"},"type":"Point","coordinates":[47185,3358],"id":"feature_206"},{"properties":{"price":24000,"use":"\u7af9\u7530","zone":"","station":"\u4f4f\u5b85"},"type":"Point","coordinates":[48572,3570],"id":"feature_207"},{"properties":{"price":37000,"use":"\u7af9\u7530","zone":"","station":"\u7a7a\u5730"},"type":"Point","coordinates":[47905,2188],"id":"feature_208"},{"properties":{"price":30500,"use":"\u7af9\u7530","zone":"","station":"\u5e97\u8217"},"type":"Point","coordinates":[46858,1204],"id":"feature_209"},{"properties":{"price":16300,"use":"\u8c4a\u5f8c\u9ad8\u7530","zone":"","station":"\u4f4f\u5b85"},"type":"Point","coordinates":[53355,92540],"id":"feature_210"},{"properties":{"price":11400,"use":"\u8c4a\u5f8c\u9ad8\u7530","zone":"","station":"\u4f4f\u5b85"},"type":"Point","coordinates":[53467,93371],"id":"feature_211"},{"properties":{"price":9130,"use":"\u8c4a\u5f8c\u9ad8\u7530","zone":"","station":"\u4f4f\u5b85"},"type":"Point","coordinates":[53280,90718],"id":"feature_212"},{"properties":{"price":32000,"use":"\u8c4a\u5f8c\u9ad8\u7530","zone":"","station":"\u8a3a\u7642\u6240"},"type":"Point","coordinates":[52306,92354],"id":"feature_213"},{"properties":{"price":22600,"use":"\u6775\u7bc9","zone":"","station":"\u4f4f\u5b85"},"type":"Point","coordinates":[69941,71183],"id":"feature_214"},{"properties":{"price":19700,"use":"\u6775\u7bc9","zone":"","station":"\u4f4f\u5b85"},"type":"Point","coordinates":[69292,70752],"id":"feature_215"},{"properties":{"price":12300,"use":"\u6775\u7bc9","zone":"","station":"\u4f4f\u5b85"},"type":"Point","coordinates":[67618,69901],"id":"feature_216"},{"properties":{"price":37700,"use":"\u6775\u7bc9","zone":"","station":"\u5e97\u8217"},"type":"Point","coordinates":[71321,70955],"id":"feature_217"},{"properties":{"price":44100,"use":"\u6775\u7bc9","zone":"","station":"\u5e97\u8217"},"type":"Point","coordinates":[71721,70686],"id":"feature_218"},{"properties":{"price":20800,"use":"\u5b87\u4f50","zone":"","station":"\u4f4f\u5b85"},"type":"Point","coordinates":[41722,88257],"id":"feature_219"},{"properties":{"price":12000,"use":"\u5b87\u4f50","zone":"","station":"\u4f4f\u5b85"},"type":"Point","coordinates":[44111,90110],"id":"feature_220"},{"properties":{"price":11400,"use":"\u5b87\u4f50","zone":"","station":"\u4f4f\u5b85"},"type":"Point","coordinates":[46213,93122],"id":"feature_221"},{"properties":{"price":32400,"use":"\u5b87\u4f50","zone":"","station":"\u5e97\u8217\u517c\u4f4f\u5b85"},"type":"Point","coordinates":[41326,88168],"id":"feature_222"},{"properties":{"price":46600,"use":"\u5b87\u4f50","zone":"","station":"\u5e97\u8217"},"type":"Point","coordinates":[41570,88590],"id":"feature_223"},{"properties":{"price":28300,"use":"\u5b87\u4f50","zone":"","station":"\u5e97\u8217"},"type":"Point","coordinates":[42631,88715],"id":"feature_224"},{"properties":{"price":28000,"use":"\u8c4a\u5f8c\u5927\u91ce","zone":"","station":"\u4f4f\u5b85"},"type":"Point","coordinates":[68657,4909],"id":"feature_225"},{"properties":{"price":16900,"use":"\u8c4a\u5f8c\u5927\u91ce","zone":"","station":"\u4f4f\u5b85"},"type":"Point","coordinates":[66355,4020],"id":"feature_226"},{"properties":{"price":51100,"use":"\u8c4a\u5f8c\u5927\u91ce","zone":"","station":"\u5e97\u8217"},"type":"Point","coordinates":[67252,3957],"id":"feature_227"},{"properties":{"price":52100,"use":"\u8c4a\u5f8c\u5927\u91ce","zone":"","station":"\u5e97\u8217\u3001\u4e8b\u52d9\u6240\u517c\u5171\u540c\u4f4f\u5b85"},"type":"Point","coordinates":[68180,4823],"id":"feature_228"},{"properties":{"price":31000,"use":"\u7531\u5e03","zone":"","station":"\u4f4f\u5b85"},"type":"Point","coordinates":[60578,37439],"id":"feature_229"},{"properties":{"price":34400,"use":"\u7531\u5e03","zone":"","station":"\u4f4f\u5b85"},"type":"Point","coordinates":[60483,38255],"id":"feature_230"},{"properties":{"price":33200,"use":"\u7531\u5e03","zone":"","station":"\u4f4f\u5b85"},"type":"Point","coordinates":[44050,47330],"id":"feature_231"},{"properties":{"price":37400,"use":"\u7531\u5e03","zone":"","station":"\u4f4f\u5b85"},"type":"Point","coordinates":[44463,46645],"id":"feature_232"},{"properties":{"price":11600,"use":"\u7531\u5e03","zone":"","station":"\u5225\u8358"},"type":"Point","coordinates":[41274,48118],"id":"feature_233"},{"properties":{"price":43300,"use":"\u7531\u5e03","zone":"","station":"\u5e97\u8217"},"type":"Point","coordinates":[60578,37724],"id":"feature_234"},{"properties":{"price":128000,"use":"\u7531\u5e03","zone":"","station":"\u5e97\u8217\u517c\u4e8b\u52d9\u6240"},"type":"Point","coordinates":[44378,47502],"id":"feature_235"},{"properties":{"price":202000,"use":"\u7531\u5e03","zone":"","station":"\u5e97\u8217"},"type":"Point","coordinates":[45093,47964],"id":"feature_236"},{"properties":{"price":12700,"use":"\u56fd\u6771","zone":"","station":"\u4f4f\u5b85"},"type":"Point","coordinates":[82625,93036],"id":"feature_237"},{"properties":{"price":9750,"use":"\u56fd\u6771","zone":"","station":"\u4f4f\u5b85"},"type":"Point","coordinates":[81445,92760],"id":"feature_238"},{"properties":{"price":24700,"use":"\u56fd\u6771","zone":"","station":"\u5e97\u8217"},"type":"Point","coordinates":[82197,93138],"id":"feature_239"},{"properties":{"price":36500,"use":"\u65e5\u51fa","zone":"","station":"\u4f4f\u5b85"},"type":"Point","coordinates":[62292,63098],"id":"feature_240"},{"properties":{"price":19600,"use":"\u65e5\u51fa","zone":"","station":"\u4f4f\u5b85"},"type":"Point","coordinates":[63981,63915],"id":"feature_241"},{"properties":{"price":40800,"use":"\u65e5\u51fa","zone":"","station":"\u4e8b\u52d9\u6240"},"type":"Point","coordinates":[61957,63444],"id":"feature_242"},{"properties":{"price":53300,"use":"\u65e5\u51fa","zone":"","station":"\u5e97\u8217\u517c\u5171\u540c\u4f4f\u5b85"},"type":"Point","coordinates":[61977,64288],"id":"feature_243"},{"properties":{"price":24000,"use":"\u7396\u73e0","zone":"","station":"\u4f4f\u5b85"},"type":"Point","coordinates":[23964,49522],"id":"feature_244"},{"properties":{"price":16700,"use":"\u7396\u73e0","zone":"","station":"\u4f4f\u5b85"},"type":"Point","coordinates":[24474,52977],"id":"feature_245"},{"properties":{"price":43800,"use":"\u7396\u73e0","zone":"","station":"\u9280\u884c"},"type":"Point","coordinates":[23663,49320],"id":"feature_246"}],"type":"GeometryCollection"}},"bbox":[130.91742,32.95265,131.90892,33.60864],"transform":{"scale":[9.91509915099153e-06,6.559965599656024e-06],"translate":[130.91742,32.95265]},"arcs":[]}