{"type":"Topology","objects":{"data":{"geometries":[{"properties":{"price":35400,"use":"\u65b0\u6f5f\u5317","zone":"","station":"\u4f4f\u5b85"},"type":"Point","coordinates":[79593,79786],"id":"feature_000"},{"properties":{"price":28000,"use":"\u65b0\u6f5f\u5317","zone":"","station":"\u4f4f\u5b85"},"type":"Point","coordinates":[82100,78820],"id":"feature_001"},{"properties":{"price":34500,"use":"\u65b0\u6f5f\u5317","zone":"","station":"\u4f4f\u5b85"},"type":"Point","coordinates":[79667,79190],"id":"feature_002"},{"properties":{"price":44400,"use":"\u65b0\u6f5f\u5317","zone":"","station":"\u4f4f\u5b85"},"type":"Point","coordinates":[84436,77258],"id":"feature_003"},{"properties":{"price":29200,"use":"\u65b0\u6f5f\u5317","zone":"","station":"\u4f4f\u5b85"},"type":"Point","coordinates":[83480,76675],"id":"feature_004"},{"properties":{"price":40300,"use":"\u65b0\u6f5f\u5317","zone":"","station":"\u4f4f\u5b85"},"type":"Point","coordinates":[81722,77325],"id":"feature_005"},{"properties":{"price":31100,"use":"\u65b0\u6f5f\u5317","zone":"","station":"\u4f4f\u5b85"},"type":"Point","coordinates":[84277,76458],"id":"feature_006"},{"properties":{"price":12300,"use":"\u65b0\u6f5f\u5317","zone":"","station":"\u4f4f\u5b85"},"type":"Point","coordinates":[83033,80492],"id":"feature_007"},{"properties":{"price":6650,"use":"\u65b0\u6f5f\u5317","zone":"","station":"\u4f4f\u5b85"},"type":"Point","coordinates":[84244,73501],"id":"feature_008"},{"properties":{"price":45900,"use":"\u65b0\u6f5f\u5317","zone":"","station":"\u4f4f\u5b85"},"type":"Point","coordinates":[84169,77984],"id":"feature_009"},{"properties":{"price":40000,"use":"\u65b0\u6f5f\u5317","zone":"","station":"\u5e97\u8217\u517c\u4f4f\u5b85"},"type":"Point","coordinates":[84013,76973],"id":"feature_010"},{"properties":{"price":15200,"use":"\u65b0\u6f5f\u5317","zone":"","station":"\u4e8b\u52d9\u6240"},"type":"Point","coordinates":[82787,78854],"id":"feature_011"},{"properties":{"price":11300,"use":"\u65b0\u6f5f\u5317","zone":"","station":"\u5de5\u5834"},"type":"Point","coordinates":[79558,80506],"id":"feature_012"},{"properties":{"price":71500,"use":"\u65b0\u6f5f\u6771","zone":"","station":"\u4f4f\u5b85"},"type":"Point","coordinates":[77649,76180],"id":"feature_013"},{"properties":{"price":77200,"use":"\u65b0\u6f5f\u6771","zone":"","station":"\u4f4f\u5b85"},"type":"Point","coordinates":[76680,78896],"id":"feature_014"},{"properties":{"price":58900,"use":"\u65b0\u6f5f\u6771","zone":"","station":"\u4f4f\u5b85"},"type":"Point","coordinates":[76445,78537],"id":"feature_015"},{"properties":{"price":67100,"use":"\u65b0\u6f5f\u6771","zone":"","station":"\u4f4f\u5b85"},"type":"Point","coordinates":[77874,77294],"id":"feature_016"},{"properties":{"price":72000,"use":"\u65b0\u6f5f\u6771","zone":"","station":"\u4f4f\u5b85"},"type":"Point","coordinates":[77235,78809],"id":"feature_017"},{"properties":{"price":69200,"use":"\u65b0\u6f5f\u6771","zone":"","station":"\u4f4f\u5b85"},"type":"Point","coordinates":[76780,79207],"id":"feature_018"},{"properties":{"price":78500,"use":"\u65b0\u6f5f\u6771","zone":"","station":"\u4f4f\u5b85"},"type":"Point","coordinates":[76783,76052],"id":"feature_019"},{"properties":{"price":71000,"use":"\u65b0\u6f5f\u6771","zone":"","station":"\u4f4f\u5b85"},"type":"Point","coordinates":[76037,76705],"id":"feature_020"},{"properties":{"price":79500,"use":"\u65b0\u6f5f\u6771","zone":"","station":"\u4f4f\u5b85"},"type":"Point","coordinates":[76849,75637],"id":"feature_021"},{"properties":{"price":83500,"use":"\u65b0\u6f5f\u6771","zone":"","station":"\u4f4f\u5b85"},"type":"Point","coordinates":[76154,75878],"id":"feature_022"},{"properties":{"price":76800,"use":"\u65b0\u6f5f\u6771","zone":"","station":"\u4f4f\u5b85"},"type":"Point","coordinates":[76129,77372],"id":"feature_023"},{"properties":{"price":15400,"use":"\u65b0\u6f5f\u6771","zone":"","station":"\u4f4f\u5b85"},"type":"Point","coordinates":[78907,78933],"id":"feature_024"},{"properties":{"price":79400,"use":"\u65b0\u6f5f\u6771","zone":"","station":"\u4f4f\u5b85"},"type":"Point","coordinates":[78035,78260],"id":"feature_025"},{"properties":{"price":61600,"use":"\u65b0\u6f5f\u6771","zone":"","station":"\u5e97\u8217"},"type":"Point","coordinates":[75371,78737],"id":"feature_026"},{"properties":{"price":65000,"use":"\u65b0\u6f5f\u6771","zone":"","station":"\u4e8b\u52d9\u6240"},"type":"Point","coordinates":[76354,77649],"id":"feature_027"},{"properties":{"price":68800,"use":"\u65b0\u6f5f\u6771","zone":"","station":"\u5e97\u8217"},"type":"Point","coordinates":[76572,77170],"id":"feature_028"},{"properties":{"price":70500,"use":"\u65b0\u6f5f\u6771","zone":"","station":"\u4e8b\u52d9\u6240\u517c\u5009\u5eab"},"type":"Point","coordinates":[77676,77674],"id":"feature_029"},{"properties":{"price":62500,"use":"\u65b0\u6f5f\u6771","zone":"","station":"\u4e8b\u52d9\u6240\u517c\u5009\u5eab"},"type":"Point","coordinates":[75486,75940],"id":"feature_030"},{"properties":{"price":34100,"use":"\u65b0\u6f5f\u6771","zone":"","station":"\u5de5\u5834\u517c\u5009\u5eab"},"type":"Point","coordinates":[75885,77622],"id":"feature_031"},{"properties":{"price":21300,"use":"\u65b0\u6f5f\u6771","zone":"","station":"\u5de5\u5834\u517c\u4e8b\u52d9\u6240"},"type":"Point","coordinates":[75751,78004],"id":"feature_032"},{"properties":{"price":27200,"use":"\u65b0\u6f5f\u6771","zone":"","station":"\u5de5\u5834"},"type":"Point","coordinates":[75471,78288],"id":"feature_033"},{"properties":{"price":28700,"use":"\u65b0\u6f5f\u6771","zone":"","station":"\u4e8b\u52d9\u6240\u517c\u5009\u5eab"},"type":"Point","coordinates":[76752,79847],"id":"feature_034"},{"properties":{"price":128000,"use":"\u65b0\u6f5f\u4e2d\u592e","zone":"","station":"\u4f4f\u5b85"},"type":"Point","coordinates":[71971,76699],"id":"feature_035"},{"properties":{"price":64400,"use":"\u65b0\u6f5f\u4e2d\u592e","zone":"","station":"\u4f4f\u5b85"},"type":"Point","coordinates":[73671,78445],"id":"feature_036"},{"properties":{"price":96600,"use":"\u65b0\u6f5f\u4e2d\u592e","zone":"","station":"\u4f4f\u5b85"},"type":"Point","coordinates":[73807,75802],"id":"feature_037"},{"properties":{"price":137000,"use":"\u65b0\u6f5f\u4e2d\u592e","zone":"","station":"\u5171\u540c\u4f4f\u5b85"},"type":"Point","coordinates":[73576,76981],"id":"feature_038"},{"properties":{"price":106000,"use":"\u65b0\u6f5f\u4e2d\u592e","zone":"","station":"\u4f4f\u5b85"},"type":"Point","coordinates":[74154,76092],"id":"feature_039"},{"properties":{"price":168000,"use":"\u65b0\u6f5f\u4e2d\u592e","zone":"","station":"\u4f4f\u5b85"},"type":"Point","coordinates":[73381,77805],"id":"feature_040"},{"properties":{"price":108000,"use":"\u65b0\u6f5f\u4e2d\u592e","zone":"","station":"\u4f4f\u5b85"},"type":"Point","coordinates":[73192,78009],"id":"feature_041"},{"properties":{"price":172000,"use":"\u65b0\u6f5f\u4e2d\u592e","zone":"","station":"\u4f4f\u5b85"},"type":"Point","coordinates":[72839,77584],"id":"feature_042"},{"properties":{"price":76100,"use":"\u65b0\u6f5f\u4e2d\u592e","zone":"","station":"\u4f4f\u5b85"},"type":"Point","coordinates":[74082,78626],"id":"feature_043"},{"properties":{"price":91500,"use":"\u65b0\u6f5f\u4e2d\u592e","zone":"","station":"\u4f4f\u5b85"},"type":"Point","coordinates":[72465,75005],"id":"feature_044"},{"properties":{"price":117000,"use":"\u65b0\u6f5f\u4e2d\u592e","zone":"","station":"\u4f4f\u5b85"},"type":"Point","coordinates":[73263,75895],"id":"feature_045"},{"properties":{"price":96600,"use":"\u65b0\u6f5f\u4e2d\u592e","zone":"","station":"\u4f4f\u5b85"},"type":"Point","coordinates":[75338,75261],"id":"feature_046"},{"properties":{"price":84600,"use":"\u65b0\u6f5f\u4e2d\u592e","zone":"","station":"\u4f4f\u5b85"},"type":"Point","coordinates":[74432,75654],"id":"feature_047"},{"properties":{"price":135000,"use":"\u65b0\u6f5f\u4e2d\u592e","zone":"","station":"\u4f4f\u5b85"},"type":"Point","coordinates":[74975,76387],"id":"feature_048"},{"properties":{"price":102000,"use":"\u65b0\u6f5f\u4e2d\u592e","zone":"","station":"\u4f4f\u5b85"},"type":"Point","coordinates":[72249,75563],"id":"feature_049"},{"properties":{"price":80100,"use":"\u65b0\u6f5f\u4e2d\u592e","zone":"","station":"\u4f4f\u5b85"},"type":"Point","coordinates":[73749,74997],"id":"feature_050"},{"properties":{"price":126000,"use":"\u65b0\u6f5f\u4e2d\u592e","zone":"","station":"\u4f4f\u5b85"},"type":"Point","coordinates":[74012,76494],"id":"feature_051"},{"properties":{"price":71500,"use":"\u65b0\u6f5f\u4e2d\u592e","zone":"","station":"\u4f4f\u5b85"},"type":"Point","coordinates":[75925,75253],"id":"feature_052"},{"properties":{"price":115000,"use":"\u65b0\u6f5f\u4e2d\u592e","zone":"","station":"\u4f4f\u5b85"},"type":"Point","coordinates":[72575,77278],"id":"feature_053"},{"properties":{"price":78500,"use":"\u65b0\u6f5f\u4e2d\u592e","zone":"","station":"\u4f4f\u5b85"},"type":"Point","coordinates":[71699,76136],"id":"feature_054"},{"properties":{"price":95500,"use":"\u65b0\u6f5f\u4e2d\u592e","zone":"","station":"\u4f4f\u5b85"},"type":"Point","coordinates":[73139,75185],"id":"feature_055"},{"properties":{"price":71300,"use":"\u65b0\u6f5f\u4e2d\u592e","zone":"","station":"\u4f4f\u5b85"},"type":"Point","coordinates":[74399,78408],"id":"feature_056"},{"properties":{"price":245000,"use":"\u65b0\u6f5f\u4e2d\u592e","zone":"","station":"\u5e97\u8217"},"type":"Point","coordinates":[73590,77453],"id":"feature_057"},{"properties":{"price":584000,"use":"\u65b0\u6f5f\u4e2d\u592e","zone":"","station":"\u4e8b\u52d9\u6240"},"type":"Point","coordinates":[74525,76962],"id":"feature_058"},{"properties":{"price":105000,"use":"\u65b0\u6f5f\u4e2d\u592e","zone":"","station":"\u5e97\u8217\u517c\u4f4f\u5b85"},"type":"Point","coordinates":[73757,78039],"id":"feature_059"},{"properties":{"price":91100,"use":"\u65b0\u6f5f\u4e2d\u592e","zone":"","station":"\u5e97\u8217\u517c\u4f4f\u5b85"},"type":"Point","coordinates":[73833,78253],"id":"feature_060"},{"properties":{"price":130000,"use":"\u65b0\u6f5f\u4e2d\u592e","zone":"","station":"\u4e8b\u52d9\u6240\u517c\u4f4f\u5b85"},"type":"Point","coordinates":[74605,77218],"id":"feature_061"},{"properties":{"price":139000,"use":"\u65b0\u6f5f\u4e2d\u592e","zone":"","station":"\u4e8b\u52d9\u6240\u517c\u5171\u540c\u4f4f\u5b85"},"type":"Point","coordinates":[74980,77217],"id":"feature_062"},{"properties":{"price":88200,"use":"\u65b0\u6f5f\u4e2d\u592e","zone":"","station":"\u5e97\u8217\u517c\u4f4f\u5b85"},"type":"Point","coordinates":[75020,77457],"id":"feature_063"},{"properties":{"price":229000,"use":"\u65b0\u6f5f\u4e2d\u592e","zone":"","station":"\u4e8b\u52d9\u6240"},"type":"Point","coordinates":[74737,76421],"id":"feature_064"},{"properties":{"price":116000,"use":"\u65b0\u6f5f\u4e2d\u592e","zone":"","station":"\u4e8b\u52d9\u6240\u517c\u4f4f\u5b85"},"type":"Point","coordinates":[72766,77170],"id":"feature_065"},{"properties":{"price":229000,"use":"\u65b0\u6f5f\u4e2d\u592e","zone":"","station":"\u5e97\u8217"},"type":"Point","coordinates":[74629,77033],"id":"feature_066"},{"properties":{"price":151000,"use":"\u65b0\u6f5f\u4e2d\u592e","zone":"","station":"\u4e8b\u52d9\u6240\u517c\u4f4f\u5b85"},"type":"Point","coordinates":[73802,77396],"id":"feature_067"},{"properties":{"price":125000,"use":"\u65b0\u6f5f\u4e2d\u592e","zone":"","station":"\u4e8b\u52d9\u6240\u517c\u5009\u5eab"},"type":"Point","coordinates":[73913,76147],"id":"feature_068"},{"properties":{"price":328000,"use":"\u65b0\u6f5f\u4e2d\u592e","zone":"","station":"\u4e8b\u52d9\u6240"},"type":"Point","coordinates":[74157,77189],"id":"feature_069"},{"properties":{"price":226000,"use":"\u65b0\u6f5f\u4e2d\u592e","zone":"","station":"\u4e8b\u52d9\u6240"},"type":"Point","coordinates":[73891,77495],"id":"feature_070"},{"properties":{"price":304000,"use":"\u65b0\u6f5f\u4e2d\u592e","zone":"","station":"\u6821\u820e"},"type":"Point","coordinates":[74619,76534],"id":"feature_071"},{"properties":{"price":91800,"use":"\u65b0\u6f5f\u4e2d\u592e","zone":"","station":"\u5e97\u8217"},"type":"Point","coordinates":[72904,76976],"id":"feature_072"},{"properties":{"price":126000,"use":"\u65b0\u6f5f\u4e2d\u592e","zone":"","station":"\u5e97\u8217\u517c\u4f4f\u5b85"},"type":"Point","coordinates":[73363,77131],"id":"feature_073"},{"properties":{"price":122000,"use":"\u65b0\u6f5f\u4e2d\u592e","zone":"","station":"\u5e97\u8217"},"type":"Point","coordinates":[72501,75803],"id":"feature_074"},{"properties":{"price":114000,"use":"\u65b0\u6f5f\u4e2d\u592e","zone":"","station":"\u4e8b\u52d9\u6240"},"type":"Point","coordinates":[75174,75122],"id":"feature_075"},{"properties":{"price":49200,"use":"\u65b0\u6f5f\u6c5f\u5357","zone":"","station":"\u4f4f\u5b85"},"type":"Point","coordinates":[73081,72743],"id":"feature_076"},{"properties":{"price":53000,"use":"\u65b0\u6f5f\u6c5f\u5357","zone":"","station":"\u4f4f\u5b85"},"type":"Point","coordinates":[73206,73241],"id":"feature_077"},{"properties":{"price":22100,"use":"\u65b0\u6f5f\u6c5f\u5357","zone":"","station":"\u4f4f\u5b85"},"type":"Point","coordinates":[79996,72360],"id":"feature_078"},{"properties":{"price":45000,"use":"\u65b0\u6f5f\u6c5f\u5357","zone":"","station":"\u4f4f\u5b85"},"type":"Point","coordinates":[79765,72813],"id":"feature_079"},{"properties":{"price":33200,"use":"\u65b0\u6f5f\u6c5f\u5357","zone":"","station":"\u4f4f\u5b85"},"type":"Point","coordinates":[77706,72052],"id":"feature_080"},{"properties":{"price":91500,"use":"\u65b0\u6f5f\u6c5f\u5357","zone":"","station":"\u4f4f\u5b85"},"type":"Point","coordinates":[77030,73964],"id":"feature_081"},{"properties":{"price":42100,"use":"\u65b0\u6f5f\u6c5f\u5357","zone":"","station":"\u4f4f\u5b85"},"type":"Point","coordinates":[78010,73407],"id":"feature_082"},{"properties":{"price":55700,"use":"\u65b0\u6f5f\u6c5f\u5357","zone":"","station":"\u4f4f\u5b85"},"type":"Point","coordinates":[77687,74088],"id":"feature_083"},{"properties":{"price":53900,"use":"\u65b0\u6f5f\u6c5f\u5357","zone":"","station":"\u4f4f\u5b85"},"type":"Point","coordinates":[77151,74637],"id":"feature_084"},{"properties":{"price":47200,"use":"\u65b0\u6f5f\u6c5f\u5357","zone":"","station":"\u4f4f\u5b85"},"type":"Point","coordinates":[77186,73656],"id":"feature_085"},{"properties":{"price":17600,"use":"\u65b0\u6f5f\u6c5f\u5357","zone":"","station":"\u4f4f\u5b85"},"type":"Point","coordinates":[79160,75847],"id":"feature_086"},{"properties":{"price":22300,"use":"\u65b0\u6f5f\u6c5f\u5357","zone":"","station":"\u4f4f\u5b85"},"type":"Point","coordinates":[76114,72836],"id":"feature_087"},{"properties":{"price":11700,"use":"\u65b0\u6f5f\u6c5f\u5357","zone":"","station":"\u4f4f\u5b85"},"type":"Point","coordinates":[80702,73769],"id":"feature_088"},{"properties":{"price":25500,"use":"\u65b0\u6f5f\u6c5f\u5357","zone":"","station":"\u4e8b\u52d9\u6240\u517c\u5009\u5eab"},"type":"Point","coordinates":[78291,72973],"id":"feature_089"},{"properties":{"price":30000,"use":"\u65b0\u6f5f\u6c5f\u5357","zone":"","station":"\u4e8b\u52d9\u6240\u517c\u5009\u5eab"},"type":"Point","coordinates":[76993,74639],"id":"feature_090"},{"properties":{"price":32000,"use":"\u65b0\u6f5f\u79cb\u8449","zone":"","station":"\u4f4f\u5b85"},"type":"Point","coordinates":[78144,66937],"id":"feature_091"},{"properties":{"price":50500,"use":"\u65b0\u6f5f\u79cb\u8449","zone":"","station":"\u4f4f\u5b85"},"type":"Point","coordinates":[77840,70959],"id":"feature_092"},{"properties":{"price":8100,"use":"\u65b0\u6f5f\u79cb\u8449","zone":"","station":"\u4f4f\u5b85"},"type":"Point","coordinates":[74966,64270],"id":"feature_093"},{"properties":{"price":38000,"use":"\u65b0\u6f5f\u79cb\u8449","zone":"","station":"\u4f4f\u5b85"},"type":"Point","coordinates":[78078,68321],"id":"feature_094"},{"properties":{"price":38200,"use":"\u65b0\u6f5f\u79cb\u8449","zone":"","station":"\u4f4f\u5b85"},"type":"Point","coordinates":[78294,68949],"id":"feature_095"},{"properties":{"price":18400,"use":"\u65b0\u6f5f\u79cb\u8449","zone":"","station":"\u4f4f\u5b85"},"type":"Point","coordinates":[75093,65826],"id":"feature_096"},{"properties":{"price":34200,"use":"\u65b0\u6f5f\u79cb\u8449","zone":"","station":"\u4f4f\u5b85"},"type":"Point","coordinates":[79002,68656],"id":"feature_097"},{"properties":{"price":35500,"use":"\u65b0\u6f5f\u79cb\u8449","zone":"","station":"\u4f4f\u5b85"},"type":"Point","coordinates":[77696,66663],"id":"feature_098"},{"properties":{"price":21500,"use":"\u65b0\u6f5f\u79cb\u8449","zone":"","station":"\u4f4f\u5b85"},"type":"Point","coordinates":[79399,67677],"id":"feature_099"},{"properties":{"price":38700,"use":"\u65b0\u6f5f\u79cb\u8449","zone":"","station":"\u4f4f\u5b85"},"type":"Point","coordinates":[78296,68195],"id":"feature_100"},{"properties":{"price":26500,"use":"\u65b0\u6f5f\u79cb\u8449","zone":"","station":"\u4f4f\u5b85"},"type":"Point","coordinates":[78062,70597],"id":"feature_101"},{"properties":{"price":24100,"use":"\u65b0\u6f5f\u79cb\u8449","zone":"","station":"\u4f4f\u5b85"},"type":"Point","coordinates":[75373,65241],"id":"feature_102"},{"properties":{"price":17700,"use":"\u65b0\u6f5f\u79cb\u8449","zone":"","station":"\u4f4f\u5b85"},"type":"Point","coordinates":[76737,64184],"id":"feature_103"},{"properties":{"price":9530,"use":"\u65b0\u6f5f\u79cb\u8449","zone":"","station":"\u4f4f\u5b85"},"type":"Point","coordinates":[79572,70451],"id":"feature_104"},{"properties":{"price":12900,"use":"\u65b0\u6f5f\u79cb\u8449","zone":"","station":"\u4f4f\u5b85"},"type":"Point","coordinates":[79859,67797],"id":"feature_105"},{"properties":{"price":17300,"use":"\u65b0\u6f5f\u79cb\u8449","zone":"","station":"\u4f4f\u5b85"},"type":"Point","coordinates":[78702,67688],"id":"feature_106"},{"properties":{"price":52100,"use":"\u65b0\u6f5f\u79cb\u8449","zone":"","station":"\u9280\u884c"},"type":"Point","coordinates":[78366,68434],"id":"feature_107"},{"properties":{"price":23100,"use":"\u65b0\u6f5f\u79cb\u8449","zone":"","station":"\u5e97\u8217\u517c\u4f4f\u5b85"},"type":"Point","coordinates":[74942,65426],"id":"feature_108"},{"properties":{"price":29100,"use":"\u65b0\u6f5f\u79cb\u8449","zone":"","station":"\u5e97\u8217"},"type":"Point","coordinates":[77061,69711],"id":"feature_109"},{"properties":{"price":16200,"use":"\u65b0\u6f5f\u79cb\u8449","zone":"","station":"\u4e8b\u52d9\u6240\u517c\u4f4f\u5b85"},"type":"Point","coordinates":[79429,67874],"id":"feature_110"},{"properties":{"price":42000,"use":"\u65b0\u6f5f\u5357","zone":"","station":"\u4f4f\u5b85"},"type":"Point","coordinates":[72079,65628],"id":"feature_111"},{"properties":{"price":26800,"use":"\u65b0\u6f5f\u5357","zone":"","station":"\u4f4f\u5b85"},"type":"Point","coordinates":[71766,66523],"id":"feature_112"},{"properties":{"price":17900,"use":"\u65b0\u6f5f\u5357","zone":"","station":"\u4f4f\u5b85"},"type":"Point","coordinates":[74296,65000],"id":"feature_113"},{"properties":{"price":63800,"use":"\u65b0\u6f5f\u897f","zone":"","station":"\u4f4f\u5b85"},"type":"Point","coordinates":[68075,73829],"id":"feature_114"},{"properties":{"price":53800,"use":"\u65b0\u6f5f\u897f","zone":"","station":"\u4f4f\u5b85"},"type":"Point","coordinates":[71612,72446],"id":"feature_115"},{"properties":{"price":73500,"use":"\u65b0\u6f5f\u897f","zone":"","station":"\u4f4f\u5b85"},"type":"Point","coordinates":[69305,73947],"id":"feature_116"},{"properties":{"price":116000,"use":"\u65b0\u6f5f\u897f","zone":"","station":"\u4f4f\u5b85"},"type":"Point","coordinates":[71187,75471],"id":"feature_117"},{"properties":{"price":58300,"use":"\u65b0\u6f5f\u897f","zone":"","station":"\u4f4f\u5b85"},"type":"Point","coordinates":[71778,73295],"id":"feature_118"},{"properties":{"price":28600,"use":"\u65b0\u6f5f\u897f","zone":"","station":"\u4f4f\u5b85"},"type":"Point","coordinates":[65646,71964],"id":"feature_119"},{"properties":{"price":38900,"use":"\u65b0\u6f5f\u897f","zone":"","station":"\u4f4f\u5b85"},"type":"Point","coordinates":[67522,73358],"id":"feature_120"},{"properties":{"price":94200,"use":"\u65b0\u6f5f\u897f","zone":"","station":"\u4f4f\u5b85"},"type":"Point","coordinates":[70742,75630],"id":"feature_121"},{"properties":{"price":54400,"use":"\u65b0\u6f5f\u897f","zone":"","station":"\u4f4f\u5b85"},"type":"Point","coordinates":[69970,74761],"id":"feature_122"},{"properties":{"price":90900,"use":"\u65b0\u6f5f\u897f","zone":"","station":"\u4f4f\u5b85"},"type":"Point","coordinates":[70390,74826],"id":"feature_123"},{"properties":{"price":66000,"use":"\u65b0\u6f5f\u897f","zone":"","station":"\u4f4f\u5b85"},"type":"Point","coordinates":[68907,74007],"id":"feature_124"},{"properties":{"price":54300,"use":"\u65b0\u6f5f\u897f","zone":"","station":"\u4f4f\u5b85"},"type":"Point","coordinates":[69955,75451],"id":"feature_125"},{"properties":{"price":71800,"use":"\u65b0\u6f5f\u897f","zone":"","station":"\u4f4f\u5b85"},"type":"Point","coordinates":[69603,74849],"id":"feature_126"},{"properties":{"price":47700,"use":"\u65b0\u6f5f\u897f","zone":"","station":"\u4f4f\u5b85"},"type":"Point","coordinates":[68911,74151],"id":"feature_127"},{"properties":{"price":49100,"use":"\u65b0\u6f5f\u897f","zone":"","station":"\u4f4f\u5b85"},"type":"Point","coordinates":[71052,76101],"id":"feature_128"},{"properties":{"price":58300,"use":"\u65b0\u6f5f\u897f","zone":"","station":"\u4f4f\u5b85"},"type":"Point","coordinates":[70633,74279],"id":"feature_129"},{"properties":{"price":39400,"use":"\u65b0\u6f5f\u897f","zone":"","station":"\u4f4f\u5b85"},"type":"Point","coordinates":[66748,73035],"id":"feature_130"},{"properties":{"price":59200,"use":"\u65b0\u6f5f\u897f","zone":"","station":"\u4f4f\u5b85"},"type":"Point","coordinates":[68372,73288],"id":"feature_131"},{"properties":{"price":124000,"use":"\u65b0\u6f5f\u897f","zone":"","station":"\u4f4f\u5b85"},"type":"Point","coordinates":[70954,75746],"id":"feature_132"},{"properties":{"price":46600,"use":"\u65b0\u6f5f\u897f","zone":"","station":"\u4f4f\u5b85"},"type":"Point","coordinates":[71560,72082],"id":"feature_133"},{"properties":{"price":96800,"use":"\u65b0\u6f5f\u897f","zone":"","station":"\u4f4f\u5b85"},"type":"Point","coordinates":[71061,75152],"id":"feature_134"},{"properties":{"price":65500,"use":"\u65b0\u6f5f\u897f","zone":"","station":"\u4f4f\u5b85"},"type":"Point","coordinates":[71432,74659],"id":"feature_135"},{"properties":{"price":10800,"use":"\u65b0\u6f5f\u897f","zone":"","station":"\u4f4f\u5b85"},"type":"Point","coordinates":[67415,71315],"id":"feature_136"},{"properties":{"price":9570,"use":"\u65b0\u6f5f\u897f","zone":"","station":"\u4f4f\u5b85"},"type":"Point","coordinates":[64004,70497],"id":"feature_137"},{"properties":{"price":13600,"use":"\u65b0\u6f5f\u897f","zone":"","station":"\u4f4f\u5b85"},"type":"Point","coordinates":[70623,72554],"id":"feature_138"},{"properties":{"price":76700,"use":"\u65b0\u6f5f\u897f","zone":"","station":"\u9280\u884c"},"type":"Point","coordinates":[70408,75338],"id":"feature_139"},{"properties":{"price":90800,"use":"\u65b0\u6f5f\u897f","zone":"","station":"\u7a7a\u5730"},"type":"Point","coordinates":[70707,74966],"id":"feature_140"},{"properties":{"price":20400,"use":"\u65b0\u6f5f\u897f\u84b2","zone":"","station":"\u4f4f\u5b85"},"type":"Point","coordinates":[63432,62780],"id":"feature_141"},{"properties":{"price":25300,"use":"\u65b0\u6f5f\u897f\u84b2","zone":"","station":"\u4f4f\u5b85"},"type":"Point","coordinates":[65624,68290],"id":"feature_142"},{"properties":{"price":24500,"use":"\u65b0\u6f5f\u897f\u84b2","zone":"","station":"\u4f4f\u5b85"},"type":"Point","coordinates":[65391,67634],"id":"feature_143"},{"properties":{"price":28800,"use":"\u65b0\u6f5f\u897f\u84b2","zone":"","station":"\u4f4f\u5b85"},"type":"Point","coordinates":[64084,66006],"id":"feature_144"},{"properties":{"price":25300,"use":"\u65b0\u6f5f\u897f\u84b2","zone":"","station":"\u4f4f\u5b85"},"type":"Point","coordinates":[63989,65103],"id":"feature_145"},{"properties":{"price":24600,"use":"\u65b0\u6f5f\u897f\u84b2","zone":"","station":"\u4f4f\u5b85"},"type":"Point","coordinates":[63907,63242],"id":"feature_146"},{"properties":{"price":34300,"use":"\u65b0\u6f5f\u897f\u84b2","zone":"","station":"\u5e97\u8217"},"type":"Point","coordinates":[64106,65594],"id":"feature_147"},{"properties":{"price":22900,"use":"\u65b0\u6f5f\u897f\u84b2","zone":"","station":"\u5e97\u8217"},"type":"Point","coordinates":[65972,68195],"id":"feature_148"},{"properties":{"price":27200,"use":"\u65b0\u6f5f\u897f\u84b2","zone":"","station":"\u65c5\u9928"},"type":"Point","coordinates":[61243,64013],"id":"feature_149"},{"properties":{"price":69600,"use":"\u9577\u5ca1","zone":"","station":"\u4f4f\u5b85"},"type":"Point","coordinates":[62466,42941],"id":"feature_150"},{"properties":{"price":52900,"use":"\u9577\u5ca1","zone":"","station":"\u4f4f\u5b85"},"type":"Point","coordinates":[60006,42155],"id":"feature_151"},{"properties":{"price":72900,"use":"\u9577\u5ca1","zone":"","station":"\u4f4f\u5b85"},"type":"Point","coordinates":[61867,42374],"id":"feature_152"},{"properties":{"price":62100,"use":"\u9577\u5ca1","zone":"","station":"\u4f4f\u5b85"},"type":"Point","coordinates":[61471,42421],"id":"feature_153"},{"properties":{"price":57200,"use":"\u9577\u5ca1","zone":"","station":"\u4f4f\u5b85"},"type":"Point","coordinates":[62554,41907],"id":"feature_154"},{"properties":{"price":55800,"use":"\u9577\u5ca1","zone":"","station":"\u4f4f\u5b85"},"type":"Point","coordinates":[61686,43622],"id":"feature_155"},{"properties":{"price":42500,"use":"\u9577\u5ca1","zone":"","station":"\u4f4f\u5b85"},"type":"Point","coordinates":[61577,40810],"id":"feature_156"},{"properties":{"price":44500,"use":"\u9577\u5ca1","zone":"","station":"\u4f4f\u5b85"},"type":"Point","coordinates":[63536,42415],"id":"feature_157"},{"properties":{"price":59400,"use":"\u9577\u5ca1","zone":"","station":"\u4f4f\u5b85"},"type":"Point","coordinates":[62791,43134],"id":"feature_158"},{"properties":{"price":50600,"use":"\u9577\u5ca1","zone":"","station":"\u4f4f\u5b85"},"type":"Point","coordinates":[60547,44175],"id":"feature_159"},{"properties":{"price":54100,"use":"\u9577\u5ca1","zone":"","station":"\u4f4f\u5b85"},"type":"Point","coordinates":[63087,44140],"id":"feature_160"},{"properties":{"price":41000,"use":"\u9577\u5ca1","zone":"","station":"\u4f4f\u5b85"},"type":"Point","coordinates":[58877,43093],"id":"feature_161"},{"properties":{"price":36900,"use":"\u9577\u5ca1","zone":"","station":"\u4f4f\u5b85"},"type":"Point","coordinates":[63033,41701],"id":"feature_162"},{"properties":{"price":34200,"use":"\u9577\u5ca1","zone":"","station":"\u4f4f\u5b85"},"type":"Point","coordinates":[62761,46533],"id":"feature_163"},{"properties":{"price":64100,"use":"\u9577\u5ca1","zone":"","station":"\u4f4f\u5b85"},"type":"Point","coordinates":[60428,42741],"id":"feature_164"},{"properties":{"price":46500,"use":"\u9577\u5ca1","zone":"","station":"\u4f4f\u5b85"},"type":"Point","coordinates":[61109,44923],"id":"feature_165"},{"properties":{"price":48400,"use":"\u9577\u5ca1","zone":"","station":"\u4f4f\u5b85"},"type":"Point","coordinates":[60662,41060],"id":"feature_166"},{"properties":{"price":28000,"use":"\u9577\u5ca1","zone":"","station":"\u4f4f\u5b85"},"type":"Point","coordinates":[57832,43321],"id":"feature_167"},{"properties":{"price":63300,"use":"\u9577\u5ca1","zone":"","station":"\u4f4f\u5b85"},"type":"Point","coordinates":[61274,42916],"id":"feature_168"},{"properties":{"price":68200,"use":"\u9577\u5ca1","zone":"","station":"\u4f4f\u5b85"},"type":"Point","coordinates":[62601,42510],"id":"feature_169"},{"properties":{"price":47800,"use":"\u9577\u5ca1","zone":"","station":"\u4f4f\u5b85"},"type":"Point","coordinates":[58944,42755],"id":"feature_170"},{"properties":{"price":56500,"use":"\u9577\u5ca1","zone":"","station":"\u4f4f\u5b85"},"type":"Point","coordinates":[61388,41805],"id":"feature_171"},{"properties":{"price":57300,"use":"\u9577\u5ca1","zone":"","station":"\u4f4f\u5b85"},"type":"Point","coordinates":[62072,41793],"id":"feature_172"},{"properties":{"price":14600,"use":"\u9577\u5ca1","zone":"","station":"\u4f4f\u5b85"},"type":"Point","coordinates":[59276,49270],"id":"feature_173"},{"properties":{"price":57400,"use":"\u9577\u5ca1","zone":"","station":"\u4f4f\u5b85"},"type":"Point","coordinates":[62645,43742],"id":"feature_174"},{"properties":{"price":44400,"use":"\u9577\u5ca1","zone":"","station":"\u4f4f\u5b85"},"type":"Point","coordinates":[61672,41621],"id":"feature_175"},{"properties":{"price":57300,"use":"\u9577\u5ca1","zone":"","station":"\u4f4f\u5b85"},"type":"Point","coordinates":[60174,42976],"id":"feature_176"},{"properties":{"price":19300,"use":"\u9577\u5ca1","zone":"","station":"\u7a7a\u5730"},"type":"Point","coordinates":[70610,45172],"id":"feature_177"},{"properties":{"price":57400,"use":"\u9577\u5ca1","zone":"","station":"\u4f4f\u5b85"},"type":"Point","coordinates":[62433,43900],"id":"feature_178"},{"properties":{"price":24800,"use":"\u9577\u5ca1","zone":"","station":"\u4f4f\u5b85"},"type":"Point","coordinates":[63552,49713],"id":"feature_179"},{"properties":{"price":10500,"use":"\u9577\u5ca1","zone":"","station":"\u4f4f\u5b85"},"type":"Point","coordinates":[70527,44486],"id":"feature_180"},{"properties":{"price":16700,"use":"\u9577\u5ca1","zone":"","station":"\u4f4f\u5b85"},"type":"Point","coordinates":[59664,49915],"id":"feature_181"},{"properties":{"price":29600,"use":"\u9577\u5ca1","zone":"","station":"\u4f4f\u5b85"},"type":"Point","coordinates":[58011,38870],"id":"feature_182"},{"properties":{"price":24800,"use":"\u9577\u5ca1","zone":"","station":"\u4f4f\u5b85"},"type":"Point","coordinates":[59074,38932],"id":"feature_183"},{"properties":{"price":9500,"use":"\u9577\u5ca1","zone":"","station":"\u4f4f\u5b85"},"type":"Point","coordinates":[57707,38315],"id":"feature_184"},{"properties":{"price":6750,"use":"\u9577\u5ca1","zone":"","station":"\u4f4f\u5b85"},"type":"Point","coordinates":[58646,48072],"id":"feature_185"},{"properties":{"price":3900,"use":"\u9577\u5ca1","zone":"","station":"\u4f4f\u5b85"},"type":"Point","coordinates":[62327,31087],"id":"feature_186"},{"properties":{"price":18300,"use":"\u9577\u5ca1","zone":"","station":"\u4f4f\u5b85"},"type":"Point","coordinates":[63185,41274],"id":"feature_187"},{"properties":{"price":11200,"use":"\u9577\u5ca1","zone":"","station":"\u4f4f\u5b85"},"type":"Point","coordinates":[55703,43083],"id":"feature_188"},{"properties":{"price":34600,"use":"\u9577\u5ca1","zone":"","station":"\u4f4f\u5b85"},"type":"Point","coordinates":[63722,43267],"id":"feature_189"},{"properties":{"price":21100,"use":"\u9577\u5ca1","zone":"","station":"\u4f4f\u5b85"},"type":"Point","coordinates":[61281,39702],"id":"feature_190"},{"properties":{"price":14800,"use":"\u9577\u5ca1","zone":"","station":"\u4f4f\u5b85"},"type":"Point","coordinates":[58824,41739],"id":"feature_191"},{"properties":{"price":10700,"use":"\u9577\u5ca1","zone":"","station":"\u4f4f\u5b85"},"type":"Point","coordinates":[61703,45977],"id":"feature_192"},{"properties":{"price":17000,"use":"\u9577\u5ca1","zone":"","station":"\u4f4f\u5b85"},"type":"Point","coordinates":[64145,44683],"id":"feature_193"},{"properties":{"price":7670,"use":"\u9577\u5ca1","zone":"","station":"\u4f4f\u5b85"},"type":"Point","coordinates":[60933,52327],"id":"feature_194"},{"properties":{"price":15100,"use":"\u9577\u5ca1","zone":"","station":"\u4f4f\u5b85"},"type":"Point","coordinates":[57947,46464],"id":"feature_195"},{"properties":{"price":6090,"use":"\u9577\u5ca1","zone":"","station":"\u4f4f\u5b85"},"type":"Point","coordinates":[62236,29470],"id":"feature_196"},{"properties":{"price":228000,"use":"\u9577\u5ca1","zone":"","station":"\u5e97\u8217\u517c\u4e8b\u52d9\u6240"},"type":"Point","coordinates":[62072,42786],"id":"feature_197"},{"properties":{"price":67000,"use":"\u9577\u5ca1","zone":"","station":"\u4e8b\u52d9\u6240"},"type":"Point","coordinates":[62201,43522],"id":"feature_198"},{"properties":{"price":101000,"use":"\u9577\u5ca1","zone":"","station":"\u5e97\u8217\u517c\u4f4f\u5b85"},"type":"Point","coordinates":[62239,42683],"id":"feature_199"},{"properties":{"price":89200,"use":"\u9577\u5ca1","zone":"","station":"\u5e97\u8217\u517c\u4f4f\u5b85"},"type":"Point","coordinates":[61965,42688],"id":"feature_200"},{"properties":{"price":50400,"use":"\u9577\u5ca1","zone":"","station":"\u5e97\u8217\u517c\u4f4f\u5b85"},"type":"Point","coordinates":[61440,40918],"id":"feature_201"},{"properties":{"price":25400,"use":"\u9577\u5ca1","zone":"","station":"\u5e97\u8217"},"type":"Point","coordinates":[70620,44831],"id":"feature_202"},{"properties":{"price":82400,"use":"\u9577\u5ca1","zone":"","station":"\u5e97\u8217\u517c\u4f4f\u5b85"},"type":"Point","coordinates":[62361,43056],"id":"feature_203"},{"properties":{"price":100000,"use":"\u9577\u5ca1","zone":"","station":"\u5e97\u8217\u517c\u4e8b\u52d9\u6240"},"type":"Point","coordinates":[61785,42839],"id":"feature_204"},{"properties":{"price":80900,"use":"\u9577\u5ca1","zone":"","station":"\u4e8b\u52d9\u6240"},"type":"Point","coordinates":[61787,42483],"id":"feature_205"},{"properties":{"price":77100,"use":"\u9577\u5ca1","zone":"","station":"\u4e8b\u52d9\u6240"},"type":"Point","coordinates":[62374,42534],"id":"feature_206"},{"properties":{"price":52500,"use":"\u9577\u5ca1","zone":"","station":"\u5de5\u5834\u3001\u5e97\u8217\u517c\u4e8b\u52d9\u6240"},"type":"Point","coordinates":[61198,41117],"id":"feature_207"},{"properties":{"price":20800,"use":"\u9577\u5ca1","zone":"","station":"\u5e97\u8217\u517c\u4f4f\u5b85"},"type":"Point","coordinates":[62637,29918],"id":"feature_208"},{"properties":{"price":69600,"use":"\u9577\u5ca1","zone":"","station":"\u5e97\u8217\u517c\u4f4f\u5b85"},"type":"Point","coordinates":[61570,42672],"id":"feature_209"},{"properties":{"price":34900,"use":"\u9577\u5ca1","zone":"","station":"\u4e8b\u52d9\u6240\u517c\u5009\u5eab"},"type":"Point","coordinates":[62388,45282],"id":"feature_210"},{"properties":{"price":75400,"use":"\u9577\u5ca1","zone":"","station":"\u5e97\u8217\u3001\u4e8b\u52d9\u6240\u517c\u5009\u5eab"},"type":"Point","coordinates":[60436,43527],"id":"feature_211"},{"properties":{"price":16800,"use":"\u9577\u5ca1","zone":"","station":"\u5de5\u5834"},"type":"Point","coordinates":[62695,44586],"id":"feature_212"},{"properties":{"price":23500,"use":"\u9577\u5ca1","zone":"","station":"\u5de5\u5834"},"type":"Point","coordinates":[60665,44671],"id":"feature_213"},{"properties":{"price":23600,"use":"\u9577\u5ca1","zone":"","station":"\u4e8b\u52d9\u6240\u517c\u5009\u5eab"},"type":"Point","coordinates":[62625,46357],"id":"feature_214"},{"properties":{"price":30800,"use":"\u9577\u5ca1","zone":"","station":"\u5009\u5eab\u517c\u4e8b\u52d9\u6240"},"type":"Point","coordinates":[58448,42995],"id":"feature_215"},{"properties":{"price":44800,"use":"\u4e09\u6761","zone":"","station":"\u4f4f\u5b85"},"type":"Point","coordinates":[69144,56746],"id":"feature_216"},{"properties":{"price":37800,"use":"\u4e09\u6761","zone":"","station":"\u4f4f\u5b85"},"type":"Point","coordinates":[68648,55862],"id":"feature_217"},{"properties":{"price":44500,"use":"\u4e09\u6761","zone":"","station":"\u4f4f\u5b85"},"type":"Point","coordinates":[68155,57263],"id":"feature_218"},{"properties":{"price":29100,"use":"\u4e09\u6761","zone":"","station":"\u4f4f\u5b85"},"type":"Point","coordinates":[69328,55954],"id":"feature_219"},{"properties":{"price":33900,"use":"\u4e09\u6761","zone":"","station":"\u4f4f\u5b85"},"type":"Point","coordinates":[67515,55846],"id":"feature_220"},{"properties":{"price":13000,"use":"\u4e09\u6761","zone":"","station":"\u4f4f\u5b85"},"type":"Point","coordinates":[66288,51914],"id":"feature_221"},{"properties":{"price":11600,"use":"\u4e09\u6761","zone":"","station":"\u4f4f\u5b85"},"type":"Point","coordinates":[66214,55683],"id":"feature_222"},{"properties":{"price":49400,"use":"\u4e09\u6761","zone":"","station":"\u5e97\u8217\u517c\u4f4f\u5b85"},"type":"Point","coordinates":[68307,56112],"id":"feature_223"},{"properties":{"price":45200,"use":"\u4e09\u6761","zone":"","station":"\u5e97\u8217"},"type":"Point","coordinates":[68273,56332],"id":"feature_224"},{"properties":{"price":42700,"use":"\u67cf\u5d0e","zone":"","station":"\u4f4f\u5b85"},"type":"Point","coordinates":[44621,37366],"id":"feature_225"},{"properties":{"price":34400,"use":"\u67cf\u5d0e","zone":"","station":"\u4f4f\u5b85"},"type":"Point","coordinates":[45589,37473],"id":"feature_226"},{"properties":{"price":19600,"use":"\u67cf\u5d0e","zone":"","station":"\u4f4f\u5b85"},"type":"Point","coordinates":[43312,36688],"id":"feature_227"},{"properties":{"price":28700,"use":"\u67cf\u5d0e","zone":"","station":"\u4f4f\u5b85"},"type":"Point","coordinates":[45075,37956],"id":"feature_228"},{"properties":{"price":19600,"use":"\u67cf\u5d0e","zone":"","station":"\u4f4f\u5b85"},"type":"Point","coordinates":[42830,36201],"id":"feature_229"},{"properties":{"price":55100,"use":"\u67cf\u5d0e","zone":"","station":"\u5e97\u8217\u517c\u4f4f\u5b85"},"type":"Point","coordinates":[44248,36975],"id":"feature_230"},{"properties":{"price":42900,"use":"\u67cf\u5d0e","zone":"","station":"\u5e97\u8217\u517c\u4f4f\u5b85"},"type":"Point","coordinates":[45612,37147],"id":"feature_231"},{"properties":{"price":35200,"use":"\u65b0\u767a\u7530","zone":"","station":"\u4f4f\u5b85"},"type":"Point","coordinates":[90051,79747],"id":"feature_232"},{"properties":{"price":31500,"use":"\u65b0\u767a\u7530","zone":"","station":"\u4f4f\u5b85"},"type":"Point","coordinates":[90837,79774],"id":"feature_233"},{"properties":{"price":16200,"use":"\u65b0\u767a\u7530","zone":"","station":"\u4f4f\u5b85"},"type":"Point","coordinates":[89549,74602],"id":"feature_234"},{"properties":{"price":41100,"use":"\u65b0\u767a\u7530","zone":"","station":"\u4f4f\u5b85"},"type":"Point","coordinates":[90795,80291],"id":"feature_235"},{"properties":{"price":18200,"use":"\u65b0\u767a\u7530","zone":"","station":"\u4f4f\u5b85"},"type":"Point","coordinates":[92505,77366],"id":"feature_236"},{"properties":{"price":12400,"use":"\u65b0\u767a\u7530","zone":"","station":"\u4f4f\u5b85"},"type":"Point","coordinates":[90331,84489],"id":"feature_237"},{"properties":{"price":12400,"use":"\u65b0\u767a\u7530","zone":"","station":"\u4f4f\u5b85"},"type":"Point","coordinates":[86960,75322],"id":"feature_238"},{"properties":{"price":25700,"use":"\u65b0\u767a\u7530","zone":"","station":"\u4f4f\u5b85"},"type":"Point","coordinates":[91762,78268],"id":"feature_239"},{"properties":{"price":40600,"use":"\u65b0\u767a\u7530","zone":"","station":"\u4f4f\u5b85"},"type":"Point","coordinates":[89720,79279],"id":"feature_240"},{"properties":{"price":39100,"use":"\u65b0\u767a\u7530","zone":"","station":"\u4f4f\u5b85"},"type":"Point","coordinates":[89468,80167],"id":"feature_241"},{"properties":{"price":12400,"use":"\u65b0\u767a\u7530","zone":"","station":"\u4f4f\u5b85"},"type":"Point","coordinates":[88091,79595],"id":"feature_242"},{"properties":{"price":22700,"use":"\u65b0\u767a\u7530","zone":"","station":"\u4f4f\u5b85"},"type":"Point","coordinates":[89993,80709],"id":"feature_243"},{"properties":{"price":6800,"use":"\u65b0\u767a\u7530","zone":"","station":"\u4f4f\u5b85"},"type":"Point","coordinates":[89065,77523],"id":"feature_244"},{"properties":{"price":35700,"use":"\u65b0\u767a\u7530","zone":"","station":"\u4f4f\u5b85"},"type":"Point","coordinates":[90296,80321],"id":"feature_245"},{"properties":{"price":47600,"use":"\u65b0\u767a\u7530","zone":"","station":"\u5e97\u8217"},"type":"Point","coordinates":[90541,79394],"id":"feature_246"},{"properties":{"price":31300,"use":"\u65b0\u767a\u7530","zone":"","station":"\u5e97\u8217\u517c\u4f4f\u5b85"},"type":"Point","coordinates":[89421,74508],"id":"feature_247"},{"properties":{"price":32100,"use":"\u65b0\u767a\u7530","zone":"","station":"\u5e97\u8217\u517c\u4f4f\u5b85"},"type":"Point","coordinates":[90644,79148],"id":"feature_248"},{"properties":{"price":34800,"use":"\u65b0\u767a\u7530","zone":"","station":"\u5e97\u8217\u517c\u4f4f\u5b85"},"type":"Point","coordinates":[91369,79478],"id":"feature_249"},{"properties":{"price":12500,"use":"\u65b0\u767a\u7530","zone":"","station":"\u5de5\u5834"},"type":"Point","coordinates":[85609,79377],"id":"feature_250"},{"properties":{"price":25800,"use":"\u5c0f\u5343\u8c37","zone":"","station":"\u4f4f\u5b85"},"type":"Point","coordinates":[59588,32760],"id":"feature_251"},{"properties":{"price":34400,"use":"\u5c0f\u5343\u8c37","zone":"","station":"\u4f4f\u5b85"},"type":"Point","coordinates":[58161,32826],"id":"feature_252"},{"properties":{"price":41800,"use":"\u5c0f\u5343\u8c37","zone":"","station":"\u5e97\u8217\u517c\u4f4f\u5b85"},"type":"Point","coordinates":[58838,32742],"id":"feature_253"},{"properties":{"price":31700,"use":"\u52a0\u8302","zone":"","station":"\u4f4f\u5b85"},"type":"Point","coordinates":[73302,58414],"id":"feature_254"},{"properties":{"price":23700,"use":"\u52a0\u8302","zone":"","station":"\u4f4f\u5b85"},"type":"Point","coordinates":[74351,58604],"id":"feature_255"},{"properties":{"price":24100,"use":"\u52a0\u8302","zone":"","station":"\u4f4f\u5b85"},"type":"Point","coordinates":[72959,57839],"id":"feature_256"},{"properties":{"price":42300,"use":"\u52a0\u8302","zone":"","station":"\u5e97\u8217\u517c\u4f4f\u5b85"},"type":"Point","coordinates":[73481,58637],"id":"feature_257"},{"properties":{"price":39300,"use":"\u52a0\u8302","zone":"","station":"\u5e97\u8217"},"type":"Point","coordinates":[74052,58313],"id":"feature_258"},{"properties":{"price":26100,"use":"\u5341\u65e5\u753a","zone":"","station":"\u4f4f\u5b85"},"type":"Point","coordinates":[56592,19968],"id":"feature_259"},{"properties":{"price":20400,"use":"\u5341\u65e5\u753a","zone":"","station":"\u4f4f\u5b85"},"type":"Point","coordinates":[56967,20764],"id":"feature_260"},{"properties":{"price":34500,"use":"\u5341\u65e5\u753a","zone":"","station":"\u4f4f\u5b85"},"type":"Point","coordinates":[56178,19373],"id":"feature_261"},{"properties":{"price":11500,"use":"\u5341\u65e5\u753a","zone":"","station":"\u4f4f\u5b85"},"type":"Point","coordinates":[55896,23298],"id":"feature_262"},{"properties":{"price":42000,"use":"\u5341\u65e5\u753a","zone":"","station":"\u5e97\u8217\u517c\u4f4f\u5b85"},"type":"Point","coordinates":[56616,19847],"id":"feature_263"},{"properties":{"price":30400,"use":"\u5341\u65e5\u753a","zone":"","station":"\u5e97\u8217\u517c\u4f4f\u5b85"},"type":"Point","coordinates":[56543,19442],"id":"feature_264"},{"properties":{"price":20700,"use":"\u5341\u65e5\u753a","zone":"","station":"\u5e97\u8217\u517c\u4f4f\u5b85"},"type":"Point","coordinates":[55279,21944],"id":"feature_265"},{"properties":{"price":20600,"use":"\u898b\u9644","zone":"","station":"\u4f4f\u5b85"},"type":"Point","coordinates":[66500,48220],"id":"feature_266"},{"properties":{"price":35200,"use":"\u898b\u9644","zone":"","station":"\u4f4f\u5b85"},"type":"Point","coordinates":[65631,49069],"id":"feature_267"},{"properties":{"price":34800,"use":"\u898b\u9644","zone":"","station":"\u4f4f\u5b85"},"type":"Point","coordinates":[64132,49698],"id":"feature_268"},{"properties":{"price":25000,"use":"\u898b\u9644","zone":"","station":"\u4f4f\u5b85"},"type":"Point","coordinates":[66549,48837],"id":"feature_269"},{"properties":{"price":9000,"use":"\u898b\u9644","zone":"","station":"\u4f4f\u5b85"},"type":"Point","coordinates":[66633,46202],"id":"feature_270"},{"properties":{"price":42200,"use":"\u898b\u9644","zone":"","station":"\u5e97\u8217\u517c\u4f4f\u5b85"},"type":"Point","coordinates":[66328,48635],"id":"feature_271"},{"properties":{"price":34800,"use":"\u898b\u9644","zone":"","station":"\u4e8b\u52d9\u6240\u517c\u4f5c\u696d\u6240"},"type":"Point","coordinates":[65342,49192],"id":"feature_272"},{"properties":{"price":38400,"use":"\u898b\u9644","zone":"","station":"\u4e8b\u52d9\u6240"},"type":"Point","coordinates":[65353,49539],"id":"feature_273"},{"properties":{"price":17000,"use":"\u898b\u9644","zone":"","station":"\u5009\u5eab"},"type":"Point","coordinates":[64708,49356],"id":"feature_274"},{"properties":{"price":27000,"use":"\u6751\u4e0a","zone":"","station":"\u4f4f\u5b85"},"type":"Point","coordinates":[99999,99827],"id":"feature_275"},{"properties":{"price":32300,"use":"\u6751\u4e0a","zone":"","station":"\u4f4f\u5b85"},"type":"Point","coordinates":[98965,99111],"id":"feature_276"},{"properties":{"price":22100,"use":"\u6751\u4e0a","zone":"","station":"\u4f4f\u5b85"},"type":"Point","coordinates":[98326,99999],"id":"feature_277"},{"properties":{"price":19300,"use":"\u6751\u4e0a","zone":"","station":"\u4f4f\u5b85"},"type":"Point","coordinates":[97645,91724],"id":"feature_278"},{"properties":{"price":10000,"use":"\u6751\u4e0a","zone":"","station":"\u4f4f\u5b85"},"type":"Point","coordinates":[97368,96427],"id":"feature_279"},{"properties":{"price":13900,"use":"\u6751\u4e0a","zone":"","station":"\u4f4f\u5b85"},"type":"Point","coordinates":[98314,96713],"id":"feature_280"},{"properties":{"price":15500,"use":"\u6751\u4e0a","zone":"","station":"\u4f4f\u5b85"},"type":"Point","coordinates":[97181,91279],"id":"feature_281"},{"properties":{"price":41800,"use":"\u6751\u4e0a","zone":"","station":"\u30db\u30c6\u30eb\u517c\u5e97\u8217"},"type":"Point","coordinates":[98726,99352],"id":"feature_282"},{"properties":{"price":29100,"use":"\u6751\u4e0a","zone":"","station":"\u5e97\u8217\u517c\u4f4f\u5b85"},"type":"Point","coordinates":[97291,98909],"id":"feature_283"},{"properties":{"price":29700,"use":"\u6751\u4e0a","zone":"","station":"\u5e97\u8217\u517c\u4f4f\u5b85"},"type":"Point","coordinates":[97765,92027],"id":"feature_284"},{"properties":{"price":12200,"use":"\u6751\u4e0a","zone":"","station":"\u4e8b\u52d9\u6240"},"type":"Point","coordinates":[98433,96413],"id":"feature_285"},{"properties":{"price":35600,"use":"\u71d5","zone":"","station":"\u4f4f\u5b85"},"type":"Point","coordinates":[66374,58138],"id":"feature_286"},{"properties":{"price":27400,"use":"\u71d5","zone":"","station":"\u4f4f\u5b85"},"type":"Point","coordinates":[66976,59212],"id":"feature_287"},{"properties":{"price":34200,"use":"\u71d5","zone":"","station":"\u4f4f\u5b85"},"type":"Point","coordinates":[65847,58981],"id":"feature_288"},{"properties":{"price":22700,"use":"\u71d5","zone":"","station":"\u4f4f\u5b85"},"type":"Point","coordinates":[61757,55491],"id":"feature_289"},{"properties":{"price":13900,"use":"\u71d5","zone":"","station":"\u4f4f\u5b85"},"type":"Point","coordinates":[61009,57294],"id":"feature_290"},{"properties":{"price":40700,"use":"\u71d5","zone":"","station":"\u4f4f\u5b85"},"type":"Point","coordinates":[63822,60643],"id":"feature_291"},{"properties":{"price":34500,"use":"\u71d5","zone":"","station":"\u4f4f\u5b85"},"type":"Point","coordinates":[64110,60295],"id":"feature_292"},{"properties":{"price":32800,"use":"\u71d5","zone":"","station":"\u5e97\u8217\u517c\u4f4f\u5b85"},"type":"Point","coordinates":[66503,58678],"id":"feature_293"},{"properties":{"price":108000,"use":"\u71d5","zone":"","station":"\u30db\u30c6\u30eb"},"type":"Point","coordinates":[67139,57577],"id":"feature_294"},{"properties":{"price":48500,"use":"\u71d5","zone":"","station":"\u5e97\u8217"},"type":"Point","coordinates":[65871,59107],"id":"feature_295"},{"properties":{"price":28100,"use":"\u71d5","zone":"","station":"\u5e97\u8217"},"type":"Point","coordinates":[61471,56026],"id":"feature_296"},{"properties":{"price":34700,"use":"\u71d5","zone":"","station":"\u5e97\u8217\u517c\u4f4f\u5b85"},"type":"Point","coordinates":[63615,60401],"id":"feature_297"},{"properties":{"price":43400,"use":"\u7cf8\u9b5a\u5ddd","zone":"","station":"\u4f4f\u5b85"},"type":"Point","coordinates":[2685,13043],"id":"feature_298"},{"properties":{"price":23800,"use":"\u7cf8\u9b5a\u5ddd","zone":"","station":"\u4f4f\u5b85"},"type":"Point","coordinates":[3602,13035],"id":"feature_299"},{"properties":{"price":28000,"use":"\u7cf8\u9b5a\u5ddd","zone":"","station":"\u4f4f\u5b85"},"type":"Point","coordinates":[4517,13530],"id":"feature_300"},{"properties":{"price":23700,"use":"\u7cf8\u9b5a\u5ddd","zone":"","station":"\u4f4f\u5b85"},"type":"Point","coordinates":[10396,17488],"id":"feature_301"},{"properties":{"price":22700,"use":"\u7cf8\u9b5a\u5ddd","zone":"","station":"\u4f4f\u5b85"},"type":"Point","coordinates":[10431,16914],"id":"feature_302"},{"properties":{"price":22300,"use":"\u7cf8\u9b5a\u5ddd","zone":"","station":"\u4f4f\u5b85"},"type":"Point","coordinates":[0,12177],"id":"feature_303"},{"properties":{"price":27800,"use":"\u7cf8\u9b5a\u5ddd","zone":"","station":"\u4f4f\u5b85"},"type":"Point","coordinates":[939,12481],"id":"feature_304"},{"properties":{"price":52200,"use":"\u7cf8\u9b5a\u5ddd","zone":"","station":"\u5e97\u8217\u517c\u4f4f\u5b85"},"type":"Point","coordinates":[2764,13350],"id":"feature_305"},{"properties":{"price":30800,"use":"\u7cf8\u9b5a\u5ddd","zone":"","station":"\u4e8b\u52d9\u6240"},"type":"Point","coordinates":[680,12353],"id":"feature_306"},{"properties":{"price":34900,"use":"\u7cf8\u9b5a\u5ddd","zone":"","station":"\u5e97\u8217"},"type":"Point","coordinates":[10425,17206],"id":"feature_307"},{"properties":{"price":59300,"use":"\u7cf8\u9b5a\u5ddd","zone":"","station":"\u5e97\u8217"},"type":"Point","coordinates":[3203,13163],"id":"feature_308"},{"properties":{"price":21400,"use":"\u5999\u9ad8","zone":"","station":"\u4f4f\u5b85"},"type":"Point","coordinates":[26847,12279],"id":"feature_309"},{"properties":{"price":21900,"use":"\u5999\u9ad8","zone":"","station":"\u4f4f\u5b85"},"type":"Point","coordinates":[25887,11427],"id":"feature_310"},{"properties":{"price":23300,"use":"\u5999\u9ad8","zone":"","station":"\u4f4f\u5b85"},"type":"Point","coordinates":[26829,14199],"id":"feature_311"},{"properties":{"price":9070,"use":"\u5999\u9ad8","zone":"","station":"\u4f4f\u5b85"},"type":"Point","coordinates":[23063,0],"id":"feature_312"},{"properties":{"price":7910,"use":"\u5999\u9ad8","zone":"","station":"\u4f4f\u5b85"},"type":"Point","coordinates":[23985,5276],"id":"feature_313"},{"properties":{"price":38300,"use":"\u5999\u9ad8","zone":"","station":"\u4e8b\u52d9\u6240\u517c\u4f4f\u5b85"},"type":"Point","coordinates":[26286,12089],"id":"feature_314"},{"properties":{"price":12300,"use":"\u5999\u9ad8","zone":"","station":"\u5e97\u8217\u517c\u4f4f\u5b85"},"type":"Point","coordinates":[24585,5228],"id":"feature_315"},{"properties":{"price":17600,"use":"\u5999\u9ad8","zone":"","station":"\u5e97\u8217"},"type":"Point","coordinates":[21732,2316],"id":"feature_316"},{"properties":{"price":29700,"use":"\u5999\u9ad8","zone":"","station":"\u5e97\u8217"},"type":"Point","coordinates":[26660,14204],"id":"feature_317"},{"properties":{"price":24800,"use":"\u4e94\u6cc9","zone":"","station":"\u4f4f\u5b85"},"type":"Point","coordinates":[81282,64193],"id":"feature_318"},{"properties":{"price":15700,"use":"\u4e94\u6cc9","zone":"","station":"\u4f4f\u5b85"},"type":"Point","coordinates":[81078,60595],"id":"feature_319"},{"properties":{"price":22000,"use":"\u4e94\u6cc9","zone":"","station":"\u4f4f\u5b85"},"type":"Point","coordinates":[81701,63541],"id":"feature_320"},{"properties":{"price":18100,"use":"\u4e94\u6cc9","zone":"","station":"\u4f4f\u5b85"},"type":"Point","coordinates":[82061,61054],"id":"feature_321"},{"properties":{"price":27300,"use":"\u4e94\u6cc9","zone":"","station":"\u5e97\u8217\u517c\u4f4f\u5b85"},"type":"Point","coordinates":[81488,64132],"id":"feature_322"},{"properties":{"price":24700,"use":"\u4e94\u6cc9","zone":"","station":"\u5e97\u8217"},"type":"Point","coordinates":[81591,60852],"id":"feature_323"},{"properties":{"price":50500,"use":"\u4e0a\u8d8a","zone":"","station":"\u4f4f\u5b85"},"type":"Point","coordinates":[25998,18294],"id":"feature_324"},{"properties":{"price":33100,"use":"\u4e0a\u8d8a","zone":"","station":"\u4f4f\u5b85"},"type":"Point","coordinates":[26673,22865],"id":"feature_325"},{"properties":{"price":30200,"use":"\u4e0a\u8d8a","zone":"","station":"\u4f4f\u5b85"},"type":"Point","coordinates":[26128,16421],"id":"feature_326"},{"properties":{"price":31000,"use":"\u4e0a\u8d8a","zone":"","station":"\u4f4f\u5b85"},"type":"Point","coordinates":[27157,18462],"id":"feature_327"},{"properties":{"price":8720,"use":"\u4e0a\u8d8a","zone":"","station":"\u4f4f\u5b85"},"type":"Point","coordinates":[24537,8782],"id":"feature_328"},{"properties":{"price":26300,"use":"\u4e0a\u8d8a","zone":"","station":"\u4f4f\u5b85"},"type":"Point","coordinates":[25811,19345],"id":"feature_329"},{"properties":{"price":29100,"use":"\u4e0a\u8d8a","zone":"","station":"\u4f4f\u5b85"},"type":"Point","coordinates":[24775,20215],"id":"feature_330"},{"properties":{"price":43500,"use":"\u4e0a\u8d8a","zone":"","station":"\u4f4f\u5b85"},"type":"Point","coordinates":[24832,21317],"id":"feature_331"},{"properties":{"price":5280,"use":"\u4e0a\u8d8a","zone":"","station":"\u4f4f\u5b85"},"type":"Point","coordinates":[24979,8212],"id":"feature_332"},{"properties":{"price":21800,"use":"\u4e0a\u8d8a","zone":"","station":"\u4f4f\u5b85"},"type":"Point","coordinates":[25498,23076],"id":"feature_333"},{"properties":{"price":22000,"use":"\u4e0a\u8d8a","zone":"","station":"\u4f4f\u5b85"},"type":"Point","coordinates":[24660,22375],"id":"feature_334"},{"properties":{"price":34600,"use":"\u4e0a\u8d8a","zone":"","station":"\u4f4f\u5b85"},"type":"Point","coordinates":[26260,17669],"id":"feature_335"},{"properties":{"price":30000,"use":"\u4e0a\u8d8a","zone":"","station":"\u4f4f\u5b85"},"type":"Point","coordinates":[27893,18957],"id":"feature_336"},{"properties":{"price":31600,"use":"\u4e0a\u8d8a","zone":"","station":"\u4f4f\u5b85"},"type":"Point","coordinates":[25483,21190],"id":"feature_337"},{"properties":{"price":29200,"use":"\u4e0a\u8d8a","zone":"","station":"\u4f4f\u5b85"},"type":"Point","coordinates":[25412,18705],"id":"feature_338"},{"properties":{"price":18200,"use":"\u4e0a\u8d8a","zone":"","station":"\u4f4f\u5b85"},"type":"Point","coordinates":[24727,18930],"id":"feature_339"},{"properties":{"price":39900,"use":"\u4e0a\u8d8a","zone":"","station":"\u4f4f\u5b85"},"type":"Point","coordinates":[26736,21783],"id":"feature_340"},{"properties":{"price":30500,"use":"\u4e0a\u8d8a","zone":"","station":"\u4f4f\u5b85"},"type":"Point","coordinates":[25066,17029],"id":"feature_341"},{"properties":{"price":44000,"use":"\u4e0a\u8d8a","zone":"","station":"\u4f4f\u5b85"},"type":"Point","coordinates":[26186,21835],"id":"feature_342"},{"properties":{"price":46900,"use":"\u4e0a\u8d8a","zone":"","station":"\u4f4f\u5b85"},"type":"Point","coordinates":[25470,22306],"id":"feature_343"},{"properties":{"price":31000,"use":"\u4e0a\u8d8a","zone":"","station":"\u4f4f\u5b85"},"type":"Point","coordinates":[25454,16121],"id":"feature_344"},{"properties":{"price":25000,"use":"\u4e0a\u8d8a","zone":"","station":"\u4f4f\u5b85"},"type":"Point","coordinates":[27952,23393],"id":"feature_345"},{"properties":{"price":25900,"use":"\u4e0a\u8d8a","zone":"","station":"\u4f4f\u5b85"},"type":"Point","coordinates":[24287,20567],"id":"feature_346"},{"properties":{"price":19300,"use":"\u4e0a\u8d8a","zone":"","station":"\u4f4f\u5b85"},"type":"Point","coordinates":[34631,30666],"id":"feature_347"},{"properties":{"price":15600,"use":"\u4e0a\u8d8a","zone":"","station":"\u4f4f\u5b85"},"type":"Point","coordinates":[33554,29491],"id":"feature_348"},{"properties":{"price":17400,"use":"\u4e0a\u8d8a","zone":"","station":"\u4f4f\u5b85"},"type":"Point","coordinates":[31572,27059],"id":"feature_349"},{"properties":{"price":19100,"use":"\u4e0a\u8d8a","zone":"","station":"\u4f4f\u5b85"},"type":"Point","coordinates":[30360,26497],"id":"feature_350"},{"properties":{"price":22500,"use":"\u4e0a\u8d8a","zone":"","station":"\u4f4f\u5b85"},"type":"Point","coordinates":[26157,23307],"id":"feature_351"},{"properties":{"price":35200,"use":"\u4e0a\u8d8a","zone":"","station":"\u4f4f\u5b85"},"type":"Point","coordinates":[25062,21942],"id":"feature_352"},{"properties":{"price":8750,"use":"\u4e0a\u8d8a","zone":"","station":"\u4f4f\u5b85"},"type":"Point","coordinates":[19780,21986],"id":"feature_353"},{"properties":{"price":7850,"use":"\u4e0a\u8d8a","zone":"","station":"\u4f4f\u5b85"},"type":"Point","coordinates":[30266,22362],"id":"feature_354"},{"properties":{"price":9280,"use":"\u4e0a\u8d8a","zone":"","station":"\u4f4f\u5b85"},"type":"Point","coordinates":[28683,17947],"id":"feature_355"},{"properties":{"price":8400,"use":"\u4e0a\u8d8a","zone":"","station":"\u4f4f\u5b85"},"type":"Point","coordinates":[29075,23041],"id":"feature_356"},{"properties":{"price":12300,"use":"\u4e0a\u8d8a","zone":"","station":"\u4f4f\u5b85"},"type":"Point","coordinates":[24833,16048],"id":"feature_357"},{"properties":{"price":4590,"use":"\u4e0a\u8d8a","zone":"","station":"\u4f4f\u5b85"},"type":"Point","coordinates":[32912,25815],"id":"feature_358"},{"properties":{"price":66900,"use":"\u4e0a\u8d8a","zone":"","station":"\u6821\u820e"},"type":"Point","coordinates":[25778,18449],"id":"feature_359"},{"properties":{"price":44300,"use":"\u4e0a\u8d8a","zone":"","station":"\u4e8b\u52d9\u6240\u517c\u5e97\u8217"},"type":"Point","coordinates":[25315,22508],"id":"feature_360"},{"properties":{"price":31900,"use":"\u4e0a\u8d8a","zone":"","station":"\u5e97\u8217"},"type":"Point","coordinates":[27095,18827],"id":"feature_361"},{"properties":{"price":47200,"use":"\u4e0a\u8d8a","zone":"","station":"\u4e8b\u52d9\u6240"},"type":"Point","coordinates":[26136,18538],"id":"feature_362"},{"properties":{"price":31000,"use":"\u4e0a\u8d8a","zone":"","station":"\u5e97\u8217\u517c\u4f4f\u5b85"},"type":"Point","coordinates":[25653,18239],"id":"feature_363"},{"properties":{"price":51500,"use":"\u4e0a\u8d8a","zone":"","station":"\u5e97\u8217"},"type":"Point","coordinates":[24762,21150],"id":"feature_364"},{"properties":{"price":23400,"use":"\u4e0a\u8d8a","zone":"","station":"\u5e97\u8217\u517c\u4f4f\u5b85"},"type":"Point","coordinates":[34406,30472],"id":"feature_365"},{"properties":{"price":21300,"use":"\u4e0a\u8d8a","zone":"","station":"\u4e8b\u52d9\u6240\u517c\u8eca\u5eab"},"type":"Point","coordinates":[30446,26382],"id":"feature_366"},{"properties":{"price":70900,"use":"\u4e0a\u8d8a","zone":"","station":"\u5e97\u8217"},"type":"Point","coordinates":[26448,21224],"id":"feature_367"},{"properties":{"price":9900,"use":"\u4e0a\u8d8a","zone":"","station":"\u5e97\u8217"},"type":"Point","coordinates":[25065,9290],"id":"feature_368"},{"properties":{"price":55000,"use":"\u4e0a\u8d8a","zone":"","station":"\u4e8b\u52d9\u6240\u517c\u5171\u540c\u4f4f\u5b85"},"type":"Point","coordinates":[25923,15952],"id":"feature_369"},{"properties":{"price":22000,"use":"\u4e0a\u8d8a","zone":"","station":"\u4e8b\u52d9\u6240"},"type":"Point","coordinates":[25664,20096],"id":"feature_370"},{"properties":{"price":11800,"use":"\u4e0a\u8d8a","zone":"","station":"\u5de5\u5834\u517c\u4e8b\u52d9\u6240"},"type":"Point","coordinates":[26414,15869],"id":"feature_371"},{"properties":{"price":10000,"use":"\u4e0a\u8d8a","zone":"","station":"\u5de5\u5834\u517c\u4e8b\u52d9\u6240"},"type":"Point","coordinates":[27994,22813],"id":"feature_372"},{"properties":{"price":17700,"use":"\u963f\u8cc0\u91ce","zone":"","station":"\u4f4f\u5b85"},"type":"Point","coordinates":[84882,66925],"id":"feature_373"},{"properties":{"price":17500,"use":"\u963f\u8cc0\u91ce","zone":"","station":"\u4f4f\u5b85"},"type":"Point","coordinates":[85103,66352],"id":"feature_374"},{"properties":{"price":5790,"use":"\u963f\u8cc0\u91ce","zone":"","station":"\u4f4f\u5b85"},"type":"Point","coordinates":[83322,72478],"id":"feature_375"},{"properties":{"price":27000,"use":"\u963f\u8cc0\u91ce","zone":"","station":"\u4f4f\u5b85"},"type":"Point","coordinates":[82302,71724],"id":"feature_376"},{"properties":{"price":27800,"use":"\u963f\u8cc0\u91ce","zone":"","station":"\u4f4f\u5b85"},"type":"Point","coordinates":[84332,71302],"id":"feature_377"},{"properties":{"price":25700,"use":"\u963f\u8cc0\u91ce","zone":"","station":"\u4f4f\u5b85"},"type":"Point","coordinates":[84657,70730],"id":"feature_378"},{"properties":{"price":5000,"use":"\u963f\u8cc0\u91ce","zone":"","station":"\u5225\u8358"},"type":"Point","coordinates":[88180,70572],"id":"feature_379"},{"properties":{"price":21500,"use":"\u963f\u8cc0\u91ce","zone":"","station":"\u9280\u884c"},"type":"Point","coordinates":[84884,66668],"id":"feature_380"},{"properties":{"price":28200,"use":"\u963f\u8cc0\u91ce","zone":"","station":"\u5e97\u8217\u517c\u4f4f\u5b85"},"type":"Point","coordinates":[84500,71521],"id":"feature_381"},{"properties":{"price":18600,"use":"\u4f50\u6e21","zone":"","station":"\u4f4f\u5b85"},"type":"Point","coordinates":[36929,89913],"id":"feature_382"},{"properties":{"price":16200,"use":"\u4f50\u6e21","zone":"","station":"\u4f4f\u5b85"},"type":"Point","coordinates":[37383,88860],"id":"feature_383"},{"properties":{"price":12500,"use":"\u4f50\u6e21","zone":"","station":"\u4f4f\u5b85"},"type":"Point","coordinates":[25326,85090],"id":"feature_384"},{"properties":{"price":12000,"use":"\u4f50\u6e21","zone":"","station":"\u4f4f\u5b85"},"type":"Point","coordinates":[31733,80811],"id":"feature_385"},{"properties":{"price":15100,"use":"\u4f50\u6e21","zone":"","station":"\u4f4f\u5b85"},"type":"Point","coordinates":[30815,83014],"id":"feature_386"},{"properties":{"price":21000,"use":"\u4f50\u6e21","zone":"","station":"\u4f4f\u5b85"},"type":"Point","coordinates":[30049,83371],"id":"feature_387"},{"properties":{"price":16700,"use":"\u4f50\u6e21","zone":"","station":"\u4f4f\u5b85"},"type":"Point","coordinates":[32922,85165],"id":"feature_388"},{"properties":{"price":9300,"use":"\u4f50\u6e21","zone":"","station":"\u4f4f\u5b85"},"type":"Point","coordinates":[34236,86465],"id":"feature_389"},{"properties":{"price":3650,"use":"\u4f50\u6e21","zone":"","station":"\u4f4f\u5b85"},"type":"Point","coordinates":[37055,86459],"id":"feature_390"},{"properties":{"price":8790,"use":"\u4f50\u6e21","zone":"","station":"\u4f4f\u5b85"},"type":"Point","coordinates":[33855,81695],"id":"feature_391"},{"properties":{"price":12500,"use":"\u4f50\u6e21","zone":"","station":"\u4f4f\u5b85"},"type":"Point","coordinates":[35060,82842],"id":"feature_392"},{"properties":{"price":8700,"use":"\u4f50\u6e21","zone":"","station":"\u4f4f\u5b85"},"type":"Point","coordinates":[31884,81615],"id":"feature_393"},{"properties":{"price":24600,"use":"\u4f50\u6e21","zone":"","station":"\u4e8b\u52d9\u6240"},"type":"Point","coordinates":[36997,89595],"id":"feature_394"},{"properties":{"price":29400,"use":"\u4f50\u6e21","zone":"","station":"\u5e97\u8217"},"type":"Point","coordinates":[32797,84718],"id":"feature_395"},{"properties":{"price":26300,"use":"\u4f50\u6e21","zone":"","station":"\u5e97\u8217"},"type":"Point","coordinates":[30279,83374],"id":"feature_396"},{"properties":{"price":22900,"use":"\u9b5a\u6cbc","zone":"","station":"\u4f4f\u5b85"},"type":"Point","coordinates":[66520,27780],"id":"feature_397"},{"properties":{"price":5480,"use":"\u9b5a\u6cbc","zone":"","station":"\u4f4f\u5b85"},"type":"Point","coordinates":[71079,32384],"id":"feature_398"},{"properties":{"price":30500,"use":"\u9b5a\u6cbc","zone":"","station":"\u4f4f\u5b85"},"type":"Point","coordinates":[68838,26894],"id":"feature_399"},{"properties":{"price":20400,"use":"\u9b5a\u6cbc","zone":"","station":"\u4f4f\u5b85"},"type":"Point","coordinates":[68792,26475],"id":"feature_400"},{"properties":{"price":21400,"use":"\u9b5a\u6cbc","zone":"","station":"\u4f4f\u5b85"},"type":"Point","coordinates":[69102,27132],"id":"feature_401"},{"properties":{"price":4670,"use":"\u9b5a\u6cbc","zone":"","station":"\u4f4f\u5b85"},"type":"Point","coordinates":[73247,25726],"id":"feature_402"},{"properties":{"price":9340,"use":"\u9b5a\u6cbc","zone":"","station":"\u4f4f\u5b85"},"type":"Point","coordinates":[69812,28796],"id":"feature_403"},{"properties":{"price":3300,"use":"\u9b5a\u6cbc","zone":"","station":"\u4f4f\u5b85"},"type":"Point","coordinates":[74829,36179],"id":"feature_404"},{"properties":{"price":7510,"use":"\u9b5a\u6cbc","zone":"","station":"\u4f4f\u5b85"},"type":"Point","coordinates":[71990,33639],"id":"feature_405"},{"properties":{"price":28700,"use":"\u9b5a\u6cbc","zone":"","station":"\u5e97\u8217\u517c\u4f4f\u5b85"},"type":"Point","coordinates":[66605,27666],"id":"feature_406"},{"properties":{"price":34200,"use":"\u9b5a\u6cbc","zone":"","station":"\u5e97\u8217\u517c\u4f4f\u5b85"},"type":"Point","coordinates":[68516,27038],"id":"feature_407"},{"properties":{"price":10800,"use":"\u9b5a\u6cbc","zone":"","station":"\u5e97\u8217\u517c\u4f4f\u5b85"},"type":"Point","coordinates":[72066,33614],"id":"feature_408"},{"properties":{"price":12800,"use":"\u9b5a\u6cbc","zone":"","station":"\u4e8b\u52d9\u6240"},"type":"Point","coordinates":[69392,28849],"id":"feature_409"},{"properties":{"price":16400,"use":"\u5357\u9b5a\u6cbc","zone":"","station":"\u4f4f\u5b85"},"type":"Point","coordinates":[59347,9038],"id":"feature_410"},{"properties":{"price":20100,"use":"\u5357\u9b5a\u6cbc","zone":"","station":"\u4f4f\u5b85"},"type":"Point","coordinates":[64014,14458],"id":"feature_411"},{"properties":{"price":22800,"use":"\u5357\u9b5a\u6cbc","zone":"","station":"\u4f4f\u5b85"},"type":"Point","coordinates":[66214,22062],"id":"feature_412"},{"properties":{"price":12200,"use":"\u5357\u9b5a\u6cbc","zone":"","station":"\u4f4f\u5b85"},"type":"Point","coordinates":[65546,20960],"id":"feature_413"},{"properties":{"price":23900,"use":"\u5357\u9b5a\u6cbc","zone":"","station":"\u4f4f\u5b85"},"type":"Point","coordinates":[61794,12923],"id":"feature_414"},{"properties":{"price":35900,"use":"\u5357\u9b5a\u6cbc","zone":"","station":"\u5e97\u8217"},"type":"Point","coordinates":[63569,14921],"id":"feature_415"},{"properties":{"price":30100,"use":"\u5357\u9b5a\u6cbc","zone":"","station":"\u5e97\u8217"},"type":"Point","coordinates":[66380,22350],"id":"feature_416"},{"properties":{"price":29900,"use":"\u5357\u9b5a\u6cbc","zone":"","station":"\u5e97\u8217\u517c\u4f4f\u5b85"},"type":"Point","coordinates":[62079,13056],"id":"feature_417"},{"properties":{"price":17000,"use":"\u80ce\u5185","zone":"","station":"\u4f4f\u5b85"},"type":"Point","coordinates":[94897,87616],"id":"feature_418"},{"properties":{"price":18400,"use":"\u80ce\u5185","zone":"","station":"\u4f4f\u5b85"},"type":"Point","coordinates":[95587,87907],"id":"feature_419"},{"properties":{"price":33400,"use":"\u80ce\u5185","zone":"","station":"\u5e97\u8217\u517c\u4f4f\u5b85"},"type":"Point","coordinates":[95044,86970],"id":"feature_420"},{"properties":{"price":10200,"use":"\u8056\u7c60","zone":"","station":"\u4f4f\u5b85"},"type":"Point","coordinates":[86113,83464],"id":"feature_421"},{"properties":{"price":19600,"use":"\u8056\u7c60","zone":"","station":"\u4f4f\u5b85"},"type":"Point","coordinates":[87533,80911],"id":"feature_422"},{"properties":{"price":20300,"use":"\u5f25\u5f66","zone":"","station":"\u4f4f\u5b85"},"type":"Point","coordinates":[60920,61196],"id":"feature_423"},{"properties":{"price":22200,"use":"\u5f25\u5f66","zone":"","station":"\u4f4f\u5b85"},"type":"Point","coordinates":[62882,60117],"id":"feature_424"},{"properties":{"price":34600,"use":"\u5f25\u5f66","zone":"","station":"\u65c5\u9928"},"type":"Point","coordinates":[60588,61583],"id":"feature_425"},{"properties":{"price":17700,"use":"\u7530\u4e0a","zone":"","station":"\u4f4f\u5b85"},"type":"Point","coordinates":[74426,60668],"id":"feature_426"},{"properties":{"price":14500,"use":"\u7530\u4e0a","zone":"","station":"\u4f4f\u5b85"},"type":"Point","coordinates":[74693,60153],"id":"feature_427"},{"properties":{"price":7400,"use":"\u963f\u8cc0","zone":"","station":"\u4f4f\u5b85"},"type":"Point","coordinates":[98894,60125],"id":"feature_428"},{"properties":{"price":11500,"use":"\u963f\u8cc0","zone":"","station":"\u4f4f\u5b85"},"type":"Point","coordinates":[97926,60059],"id":"feature_429"},{"properties":{"price":17700,"use":"\u963f\u8cc0","zone":"","station":"\u9280\u884c"},"type":"Point","coordinates":[98140,59997],"id":"feature_430"},{"properties":{"price":20600,"use":"\u65b0\u6f5f\u6e6f\u6ca2","zone":"","station":"\u4f4f\u5b85"},"type":"Point","coordinates":[60248,5234],"id":"feature_431"},{"properties":{"price":21200,"use":"\u65b0\u6f5f\u6e6f\u6ca2","zone":"","station":"\u4f4f\u5b85"},"type":"Point","coordinates":[59269,6051],"id":"feature_432"},{"properties":{"price":42500,"use":"\u65b0\u6f5f\u6e6f\u6ca2","zone":"","station":"\u5e97\u8217\u517c\u4f4f\u5b85"},"type":"Point","coordinates":[59627,5430],"id":"feature_433"}],"type":"GeometryCollection"}},"bbox":[137.81436,36.86212,139.48597,38.22893],"transform":{"scale":[1.671626716267178e-05,1.3668236682366833e-05],"translate":[137.81436,36.86212]},"arcs":[]}