{"type":"Topology","objects":{"data":{"geometries":[{"properties":{"price":190000,"use":"\u5ca1\u5c71\u5317","zone":"","station":"\u4f4f\u5b85"},"type":"Point","coordinates":[55428,31170],"id":"feature_000"},{"properties":{"price":150000,"use":"\u5ca1\u5c71\u5317","zone":"","station":"\u4f4f\u5b85"},"type":"Point","coordinates":[57463,30831],"id":"feature_001"},{"properties":{"price":185000,"use":"\u5ca1\u5c71\u5317","zone":"","station":"\u4f4f\u5b85"},"type":"Point","coordinates":[56273,32204],"id":"feature_002"},{"properties":{"price":102000,"use":"\u5ca1\u5c71\u5317","zone":"","station":"\u4f4f\u5b85"},"type":"Point","coordinates":[53886,29589],"id":"feature_003"},{"properties":{"price":180000,"use":"\u5ca1\u5c71\u5317","zone":"","station":"\u5171\u540c\u4f4f\u5b85"},"type":"Point","coordinates":[54516,27115],"id":"feature_004"},{"properties":{"price":99000,"use":"\u5ca1\u5c71\u5317","zone":"","station":"\u5171\u540c\u4f4f\u5b85"},"type":"Point","coordinates":[56275,25940],"id":"feature_005"},{"properties":{"price":45200,"use":"\u5ca1\u5c71\u5317","zone":"","station":"\u4f4f\u5b85"},"type":"Point","coordinates":[55011,36238],"id":"feature_006"},{"properties":{"price":67100,"use":"\u5ca1\u5c71\u5317","zone":"","station":"\u4f4f\u5b85"},"type":"Point","coordinates":[54519,33813],"id":"feature_007"},{"properties":{"price":69000,"use":"\u5ca1\u5c71\u5317","zone":"","station":"\u4f4f\u5b85"},"type":"Point","coordinates":[50772,26791],"id":"feature_008"},{"properties":{"price":52900,"use":"\u5ca1\u5c71\u5317","zone":"","station":"\u4f4f\u5b85"},"type":"Point","coordinates":[50218,29431],"id":"feature_009"},{"properties":{"price":46900,"use":"\u5ca1\u5c71\u5317","zone":"","station":"\u4f4f\u5b85"},"type":"Point","coordinates":[47301,30646],"id":"feature_010"},{"properties":{"price":36400,"use":"\u5ca1\u5c71\u5317","zone":"","station":"\u4f4f\u5b85"},"type":"Point","coordinates":[43956,33280],"id":"feature_011"},{"properties":{"price":66900,"use":"\u5ca1\u5c71\u5317","zone":"","station":"\u4f4f\u5b85"},"type":"Point","coordinates":[48441,26830],"id":"feature_012"},{"properties":{"price":25800,"use":"\u5ca1\u5c71\u5317","zone":"","station":"\u4f4f\u5b85"},"type":"Point","coordinates":[60283,36489],"id":"feature_013"},{"properties":{"price":123000,"use":"\u5ca1\u5c71\u5317","zone":"","station":"\u4f4f\u5b85"},"type":"Point","coordinates":[52327,26858],"id":"feature_014"},{"properties":{"price":115000,"use":"\u5ca1\u5c71\u5317","zone":"","station":"\u4f4f\u5b85"},"type":"Point","coordinates":[52686,25445],"id":"feature_015"},{"properties":{"price":147000,"use":"\u5ca1\u5c71\u5317","zone":"","station":"\u4f4f\u5b85"},"type":"Point","coordinates":[53666,26189],"id":"feature_016"},{"properties":{"price":88800,"use":"\u5ca1\u5c71\u5317","zone":"","station":"\u4f4f\u5b85"},"type":"Point","coordinates":[55623,26622],"id":"feature_017"},{"properties":{"price":101000,"use":"\u5ca1\u5c71\u5317","zone":"","station":"\u4f4f\u5b85"},"type":"Point","coordinates":[54740,29714],"id":"feature_018"},{"properties":{"price":66400,"use":"\u5ca1\u5c71\u5317","zone":"","station":"\u4f4f\u5b85"},"type":"Point","coordinates":[50683,31373],"id":"feature_019"},{"properties":{"price":71600,"use":"\u5ca1\u5c71\u5317","zone":"","station":"\u4f4f\u5b85"},"type":"Point","coordinates":[56607,25368],"id":"feature_020"},{"properties":{"price":159000,"use":"\u5ca1\u5c71\u5317","zone":"","station":"\u4f4f\u5b85"},"type":"Point","coordinates":[55245,32408],"id":"feature_021"},{"properties":{"price":35500,"use":"\u5ca1\u5c71\u5317","zone":"","station":"\u4f4f\u5b85"},"type":"Point","coordinates":[59005,34748],"id":"feature_022"},{"properties":{"price":27800,"use":"\u5ca1\u5c71\u5317","zone":"","station":"\u4f4f\u5b85"},"type":"Point","coordinates":[63567,37441],"id":"feature_023"},{"properties":{"price":85700,"use":"\u5ca1\u5c71\u5317","zone":"","station":"\u4f4f\u5b85"},"type":"Point","coordinates":[58472,33192],"id":"feature_024"},{"properties":{"price":114000,"use":"\u5ca1\u5c71\u5317","zone":"","station":"\u4f4f\u5b85"},"type":"Point","coordinates":[57230,31779],"id":"feature_025"},{"properties":{"price":96500,"use":"\u5ca1\u5c71\u5317","zone":"","station":"\u5171\u540c\u4f4f\u5b85"},"type":"Point","coordinates":[56935,27153],"id":"feature_026"},{"properties":{"price":95500,"use":"\u5ca1\u5c71\u5317","zone":"","station":"\u4f4f\u5b85"},"type":"Point","coordinates":[55299,29479],"id":"feature_027"},{"properties":{"price":77900,"use":"\u5ca1\u5c71\u5317","zone":"","station":"\u4f4f\u5b85"},"type":"Point","coordinates":[49521,27721],"id":"feature_028"},{"properties":{"price":73900,"use":"\u5ca1\u5c71\u5317","zone":"","station":"\u4f4f\u5b85"},"type":"Point","coordinates":[52586,28467],"id":"feature_029"},{"properties":{"price":18900,"use":"\u5ca1\u5c71\u5317","zone":"","station":"\u4f4f\u5b85"},"type":"Point","coordinates":[54657,38763],"id":"feature_030"},{"properties":{"price":35200,"use":"\u5ca1\u5c71\u5317","zone":"","station":"\u4f4f\u5b85"},"type":"Point","coordinates":[50964,32749],"id":"feature_031"},{"properties":{"price":33800,"use":"\u5ca1\u5c71\u5317","zone":"","station":"\u4f4f\u5b85"},"type":"Point","coordinates":[46155,31410],"id":"feature_032"},{"properties":{"price":27800,"use":"\u5ca1\u5c71\u5317","zone":"","station":"\u4f4f\u5b85"},"type":"Point","coordinates":[47259,29063],"id":"feature_033"},{"properties":{"price":144000,"use":"\u5ca1\u5c71\u5317","zone":"","station":"\u5e97\u8217\u517c\u65c5\u9928"},"type":"Point","coordinates":[57537,29151],"id":"feature_034"},{"properties":{"price":286000,"use":"\u5ca1\u5c71\u5317","zone":"","station":"\u5e97\u8217\u517c\u4f4f\u5b85"},"type":"Point","coordinates":[57413,29643],"id":"feature_035"},{"properties":{"price":80300,"use":"\u5ca1\u5c71\u5317","zone":"","station":"\u5e97\u8217"},"type":"Point","coordinates":[51077,31449],"id":"feature_036"},{"properties":{"price":192000,"use":"\u5ca1\u5c71\u5317","zone":"","station":"\u5e97\u8217\u517c\u5171\u540c\u4f4f\u5b85"},"type":"Point","coordinates":[56534,28166],"id":"feature_037"},{"properties":{"price":89500,"use":"\u5ca1\u5c71\u5317","zone":"","station":"\u4e8b\u52d9\u6240\u517c\u4f5c\u696d\u6240"},"type":"Point","coordinates":[49153,27335],"id":"feature_038"},{"properties":{"price":205000,"use":"\u5ca1\u5c71\u5317","zone":"","station":"\u5e97\u8217"},"type":"Point","coordinates":[54480,28506],"id":"feature_039"},{"properties":{"price":1780000,"use":"\u5ca1\u5c71\u5317","zone":"","station":"\u5e97\u8217\u517c\u4e8b\u52d9\u6240"},"type":"Point","coordinates":[56521,29811],"id":"feature_040"},{"properties":{"price":551000,"use":"\u5ca1\u5c71\u5317","zone":"","station":"\u5e97\u8217\u517c\u4e8b\u52d9\u6240"},"type":"Point","coordinates":[57384,29825],"id":"feature_041"},{"properties":{"price":285000,"use":"\u5ca1\u5c71\u5317","zone":"","station":"\u4e8b\u52d9\u6240\u517c\u4f4f\u5b85"},"type":"Point","coordinates":[56281,29033],"id":"feature_042"},{"properties":{"price":369000,"use":"\u5ca1\u5c71\u5317","zone":"","station":"\u4e8b\u52d9\u6240"},"type":"Point","coordinates":[56618,28684],"id":"feature_043"},{"properties":{"price":151000,"use":"\u5ca1\u5c71\u5317","zone":"","station":"\u5e97\u8217\u517c\u4e8b\u52d9\u6240"},"type":"Point","coordinates":[54728,26978],"id":"feature_044"},{"properties":{"price":305000,"use":"\u5ca1\u5c71\u5317","zone":"","station":"\u5e97\u8217"},"type":"Point","coordinates":[57670,29241],"id":"feature_045"},{"properties":{"price":174000,"use":"\u5ca1\u5c71\u5317","zone":"","station":"\u5e97\u8217"},"type":"Point","coordinates":[56598,25910],"id":"feature_046"},{"properties":{"price":85600,"use":"\u5ca1\u5c71\u5317","zone":"","station":"\u5e97\u8217"},"type":"Point","coordinates":[51082,28830],"id":"feature_047"},{"properties":{"price":106000,"use":"\u5ca1\u5c71\u5317","zone":"","station":"\u4e8b\u52d9\u6240\u517c\u4f4f\u5b85"},"type":"Point","coordinates":[57580,28275],"id":"feature_048"},{"properties":{"price":244000,"use":"\u5ca1\u5c71\u5317","zone":"","station":"\u5e97\u8217\u3001\u4e8b\u52d9\u6240\u517c\u5171\u540c\u4f4f\u5b85"},"type":"Point","coordinates":[58037,29403],"id":"feature_049"},{"properties":{"price":199000,"use":"\u5ca1\u5c71\u5317","zone":"","station":"\u4e8b\u52d9\u6240"},"type":"Point","coordinates":[57488,30372],"id":"feature_050"},{"properties":{"price":339000,"use":"\u5ca1\u5c71\u5317","zone":"","station":"\u4e8b\u52d9\u6240"},"type":"Point","coordinates":[57259,30157],"id":"feature_051"},{"properties":{"price":236000,"use":"\u5ca1\u5c71\u5317","zone":"","station":"\u4e8b\u52d9\u6240"},"type":"Point","coordinates":[57124,30574],"id":"feature_052"},{"properties":{"price":196000,"use":"\u5ca1\u5c71\u5317","zone":"","station":"\u5e97\u8217\u3001\u4e8b\u52d9\u6240\u517c\u5171\u540c\u4f4f\u5b85"},"type":"Point","coordinates":[55835,30586],"id":"feature_053"},{"properties":{"price":169000,"use":"\u5ca1\u5c71\u5317","zone":"","station":"\u5e97\u8217"},"type":"Point","coordinates":[56159,30300],"id":"feature_054"},{"properties":{"price":353000,"use":"\u5ca1\u5c71\u5317","zone":"","station":"\u4e8b\u52d9\u6240"},"type":"Point","coordinates":[56026,29755],"id":"feature_055"},{"properties":{"price":748000,"use":"\u5ca1\u5c71\u5317","zone":"","station":"\u4e8b\u52d9\u6240"},"type":"Point","coordinates":[56454,28796],"id":"feature_056"},{"properties":{"price":143000,"use":"\u5ca1\u5c71\u5317","zone":"","station":"\u4e8b\u52d9\u6240\u517c\u5171\u540c\u4f4f\u5b85"},"type":"Point","coordinates":[57508,32453],"id":"feature_057"},{"properties":{"price":454000,"use":"\u5ca1\u5c71\u5317","zone":"","station":"\u5e97\u8217\u517c\u4e8b\u52d9\u6240"},"type":"Point","coordinates":[56694,29482],"id":"feature_058"},{"properties":{"price":260000,"use":"\u5ca1\u5c71\u5317","zone":"","station":"\u5e97\u8217\u517c\u5171\u540c\u4f4f\u5b85"},"type":"Point","coordinates":[56892,29614],"id":"feature_059"},{"properties":{"price":160000,"use":"\u5ca1\u5c71\u5317","zone":"","station":"\u4e8b\u52d9\u6240"},"type":"Point","coordinates":[53151,27515],"id":"feature_060"},{"properties":{"price":176000,"use":"\u5ca1\u5c71\u5317","zone":"","station":"\u5e97\u8217\u517c\u5171\u540c\u4f4f\u5b85"},"type":"Point","coordinates":[54808,27865],"id":"feature_061"},{"properties":{"price":145000,"use":"\u5ca1\u5c71\u5317","zone":"","station":"\u5e97\u8217\u517c\u8a3a\u7642\u6240"},"type":"Point","coordinates":[55978,26244],"id":"feature_062"},{"properties":{"price":92500,"use":"\u5ca1\u5c71\u5317","zone":"","station":"\u5e97\u8217\u3001\u4e8b\u52d9\u6240\u517c\u4f5c\u696d\u5834"},"type":"Point","coordinates":[50740,27419],"id":"feature_063"},{"properties":{"price":131000,"use":"\u5ca1\u5c71\u5317","zone":"","station":"\u4e8b\u52d9\u6240"},"type":"Point","coordinates":[52081,26885],"id":"feature_064"},{"properties":{"price":121000,"use":"\u5ca1\u5c71\u5317","zone":"","station":"\u5e97\u8217\u517c\u4f4f\u5b85"},"type":"Point","coordinates":[57032,27062],"id":"feature_065"},{"properties":{"price":37500,"use":"\u5ca1\u5c71\u5317","zone":"","station":"\u5de5\u5834"},"type":"Point","coordinates":[50508,26873],"id":"feature_066"},{"properties":{"price":60100,"use":"\u5ca1\u5c71\u5317","zone":"","station":"\u7a7a\u5730"},"type":"Point","coordinates":[46400,24778],"id":"feature_067"},{"properties":{"price":111000,"use":"\u5ca1\u5c71\u4e2d","zone":"","station":"\u4f4f\u5b85"},"type":"Point","coordinates":[58817,28269],"id":"feature_068"},{"properties":{"price":89400,"use":"\u5ca1\u5c71\u4e2d","zone":"","station":"\u4f4f\u5b85"},"type":"Point","coordinates":[58953,27972],"id":"feature_069"},{"properties":{"price":180000,"use":"\u5ca1\u5c71\u4e2d","zone":"","station":"\u4f4f\u5b85"},"type":"Point","coordinates":[58865,29937],"id":"feature_070"},{"properties":{"price":105000,"use":"\u5ca1\u5c71\u4e2d","zone":"","station":"\u4f4f\u5b85"},"type":"Point","coordinates":[59803,31046],"id":"feature_071"},{"properties":{"price":74500,"use":"\u5ca1\u5c71\u4e2d","zone":"","station":"\u4f4f\u5b85"},"type":"Point","coordinates":[62020,31584],"id":"feature_072"},{"properties":{"price":92800,"use":"\u5ca1\u5c71\u4e2d","zone":"","station":"\u5171\u540c\u4f4f\u5b85"},"type":"Point","coordinates":[58627,31278],"id":"feature_073"},{"properties":{"price":65000,"use":"\u5ca1\u5c71\u4e2d","zone":"","station":"\u4f4f\u5b85"},"type":"Point","coordinates":[60049,33392],"id":"feature_074"},{"properties":{"price":83000,"use":"\u5ca1\u5c71\u4e2d","zone":"","station":"\u4f4f\u5b85"},"type":"Point","coordinates":[61099,31216],"id":"feature_075"},{"properties":{"price":63100,"use":"\u5ca1\u5c71\u4e2d","zone":"","station":"\u4f4f\u5b85"},"type":"Point","coordinates":[60117,26258],"id":"feature_076"},{"properties":{"price":58600,"use":"\u5ca1\u5c71\u4e2d","zone":"","station":"\u5efa\u7bc9\u4e2d"},"type":"Point","coordinates":[62240,27911],"id":"feature_077"},{"properties":{"price":40000,"use":"\u5ca1\u5c71\u4e2d","zone":"","station":"\u4f4f\u5b85"},"type":"Point","coordinates":[64100,31438],"id":"feature_078"},{"properties":{"price":52500,"use":"\u5ca1\u5c71\u4e2d","zone":"","station":"\u4f4f\u5b85"},"type":"Point","coordinates":[63854,28475],"id":"feature_079"},{"properties":{"price":49000,"use":"\u5ca1\u5c71\u4e2d","zone":"","station":"\u4f4f\u5b85"},"type":"Point","coordinates":[61611,28367],"id":"feature_080"},{"properties":{"price":74600,"use":"\u5ca1\u5c71\u4e2d","zone":"","station":"\u4f4f\u5b85"},"type":"Point","coordinates":[59929,32013],"id":"feature_081"},{"properties":{"price":76100,"use":"\u5ca1\u5c71\u4e2d","zone":"","station":"\u4f4f\u5b85"},"type":"Point","coordinates":[60591,32463],"id":"feature_082"},{"properties":{"price":60500,"use":"\u5ca1\u5c71\u4e2d","zone":"","station":"\u4f4f\u5b85"},"type":"Point","coordinates":[63358,32619],"id":"feature_083"},{"properties":{"price":43800,"use":"\u5ca1\u5c71\u4e2d","zone":"","station":"\u4f4f\u5b85"},"type":"Point","coordinates":[62649,23402],"id":"feature_084"},{"properties":{"price":21200,"use":"\u5ca1\u5c71\u4e2d","zone":"","station":"\u4f4f\u5b85"},"type":"Point","coordinates":[62794,25083],"id":"feature_085"},{"properties":{"price":15100,"use":"\u5ca1\u5c71\u4e2d","zone":"","station":"\u7530"},"type":"Point","coordinates":[64783,31335],"id":"feature_086"},{"properties":{"price":121000,"use":"\u5ca1\u5c71\u4e2d","zone":"","station":"\u5e97\u8217\u517c\u4e8b\u52d9\u6240"},"type":"Point","coordinates":[59826,30144],"id":"feature_087"},{"properties":{"price":171000,"use":"\u5ca1\u5c71\u4e2d","zone":"","station":"\u5e97\u8217\u517c\u533b\u9662"},"type":"Point","coordinates":[58816,30610],"id":"feature_088"},{"properties":{"price":156000,"use":"\u5ca1\u5c71\u4e2d","zone":"","station":"\u5e97\u8217\u517c\u5171\u540c\u4f4f\u5b85"},"type":"Point","coordinates":[58947,28606],"id":"feature_089"},{"properties":{"price":90700,"use":"\u5ca1\u5c71\u4e2d","zone":"","station":"\u5e97\u8217"},"type":"Point","coordinates":[62529,30965],"id":"feature_090"},{"properties":{"price":50700,"use":"\u5ca1\u5c71\u4e2d","zone":"","station":"\u8a3a\u7642\u6240\u517c\u4f4f\u5b85"},"type":"Point","coordinates":[62798,22923],"id":"feature_091"},{"properties":{"price":28000,"use":"\u5ca1\u5c71\u6771","zone":"","station":"\u4f4f\u5b85"},"type":"Point","coordinates":[75095,42551],"id":"feature_092"},{"properties":{"price":43900,"use":"\u5ca1\u5c71\u6771","zone":"","station":"\u4f4f\u5b85"},"type":"Point","coordinates":[68884,27784],"id":"feature_093"},{"properties":{"price":34600,"use":"\u5ca1\u5c71\u6771","zone":"","station":"\u4f4f\u5b85"},"type":"Point","coordinates":[71772,34717],"id":"feature_094"},{"properties":{"price":43500,"use":"\u5ca1\u5c71\u6771","zone":"","station":"\u4f4f\u5b85"},"type":"Point","coordinates":[70710,38460],"id":"feature_095"},{"properties":{"price":30200,"use":"\u5ca1\u5c71\u6771","zone":"","station":"\u4f4f\u5b85"},"type":"Point","coordinates":[71224,29309],"id":"feature_096"},{"properties":{"price":50900,"use":"\u5ca1\u5c71\u6771","zone":"","station":"\u4f4f\u5b85"},"type":"Point","coordinates":[69819,29171],"id":"feature_097"},{"properties":{"price":30600,"use":"\u5ca1\u5c71\u6771","zone":"","station":"\u4f4f\u5b85"},"type":"Point","coordinates":[70693,27555],"id":"feature_098"},{"properties":{"price":50300,"use":"\u5ca1\u5c71\u6771","zone":"","station":"\u4f4f\u5b85"},"type":"Point","coordinates":[66285,29218],"id":"feature_099"},{"properties":{"price":22700,"use":"\u5ca1\u5c71\u6771","zone":"","station":"\u4f4f\u5b85"},"type":"Point","coordinates":[72355,24721],"id":"feature_100"},{"properties":{"price":42500,"use":"\u5ca1\u5c71\u6771","zone":"","station":"\u4f4f\u5b85"},"type":"Point","coordinates":[70238,39359],"id":"feature_101"},{"properties":{"price":36600,"use":"\u5ca1\u5c71\u6771","zone":"","station":"\u4f4f\u5b85"},"type":"Point","coordinates":[68523,33518],"id":"feature_102"},{"properties":{"price":19000,"use":"\u5ca1\u5c71\u6771","zone":"","station":"\u4f4f\u5b85"},"type":"Point","coordinates":[69083,32859],"id":"feature_103"},{"properties":{"price":16900,"use":"\u5ca1\u5c71\u6771","zone":"","station":"\u4f4f\u5b85"},"type":"Point","coordinates":[66787,25060],"id":"feature_104"},{"properties":{"price":11200,"use":"\u5ca1\u5c71\u6771","zone":"","station":"\u4f4f\u5b85"},"type":"Point","coordinates":[73427,23237],"id":"feature_105"},{"properties":{"price":23800,"use":"\u5ca1\u5c71\u6771","zone":"","station":"\u4f4f\u5b85"},"type":"Point","coordinates":[69105,29735],"id":"feature_106"},{"properties":{"price":17000,"use":"\u5ca1\u5c71\u6771","zone":"","station":"\u4f4f\u5b85"},"type":"Point","coordinates":[73058,34798],"id":"feature_107"},{"properties":{"price":7850,"use":"\u5ca1\u5c71\u6771","zone":"","station":"\u4f4f\u5b85"},"type":"Point","coordinates":[77382,39589],"id":"feature_108"},{"properties":{"price":11700,"use":"\u5ca1\u5c71\u6771","zone":"","station":"\u4f4f\u5b85"},"type":"Point","coordinates":[68673,38571],"id":"feature_109"},{"properties":{"price":47300,"use":"\u5ca1\u5c71\u6771","zone":"","station":"\u4f4f\u5b85"},"type":"Point","coordinates":[67203,28505],"id":"feature_110"},{"properties":{"price":71700,"use":"\u5ca1\u5c71\u6771","zone":"","station":"\u5e97\u8217"},"type":"Point","coordinates":[69464,28207],"id":"feature_111"},{"properties":{"price":54100,"use":"\u5ca1\u5c71\u6771","zone":"","station":"\u5e97\u8217"},"type":"Point","coordinates":[70323,39181],"id":"feature_112"},{"properties":{"price":55900,"use":"\u5ca1\u5c71\u6771","zone":"","station":"\u4e8b\u52d9\u6240"},"type":"Point","coordinates":[68304,34229],"id":"feature_113"},{"properties":{"price":46600,"use":"\u5ca1\u5c71\u6771","zone":"","station":"\u5e97\u8217\u517c\u4f4f\u5b85"},"type":"Point","coordinates":[71141,37151],"id":"feature_114"},{"properties":{"price":19400,"use":"\u5ca1\u5c71\u6771","zone":"","station":"\u5de5\u5834"},"type":"Point","coordinates":[68780,22441],"id":"feature_115"},{"properties":{"price":74000,"use":"\u5ca1\u5c71\u5357","zone":"","station":"\u4f4f\u5b85"},"type":"Point","coordinates":[58970,22087],"id":"feature_116"},{"properties":{"price":24800,"use":"\u5ca1\u5c71\u5357","zone":"","station":"\u4f4f\u5b85"},"type":"Point","coordinates":[51484,12605],"id":"feature_117"},{"properties":{"price":60000,"use":"\u5ca1\u5c71\u5357","zone":"","station":"\u4f4f\u5b85"},"type":"Point","coordinates":[52255,23979],"id":"feature_118"},{"properties":{"price":59500,"use":"\u5ca1\u5c71\u5357","zone":"","station":"\u4f4f\u5b85"},"type":"Point","coordinates":[50512,23700],"id":"feature_119"},{"properties":{"price":56100,"use":"\u5ca1\u5c71\u5357","zone":"","station":"\u4f4f\u5b85"},"type":"Point","coordinates":[51364,22082],"id":"feature_120"},{"properties":{"price":62000,"use":"\u5ca1\u5c71\u5357","zone":"","station":"\u4f4f\u5b85"},"type":"Point","coordinates":[57934,24026],"id":"feature_121"},{"properties":{"price":63100,"use":"\u5ca1\u5c71\u5357","zone":"","station":"\u4f4f\u5b85"},"type":"Point","coordinates":[58466,22655],"id":"feature_122"},{"properties":{"price":70500,"use":"\u5ca1\u5c71\u5357","zone":"","station":"\u4f4f\u5b85"},"type":"Point","coordinates":[58047,25120],"id":"feature_123"},{"properties":{"price":34000,"use":"\u5ca1\u5c71\u5357","zone":"","station":"\u4f4f\u5b85"},"type":"Point","coordinates":[60799,18699],"id":"feature_124"},{"properties":{"price":25200,"use":"\u5ca1\u5c71\u5357","zone":"","station":"\u4f4f\u5b85"},"type":"Point","coordinates":[61330,18932],"id":"feature_125"},{"properties":{"price":89000,"use":"\u5ca1\u5c71\u5357","zone":"","station":"\u4f4f\u5b85"},"type":"Point","coordinates":[55969,24336],"id":"feature_126"},{"properties":{"price":83000,"use":"\u5ca1\u5c71\u5357","zone":"","station":"\u4f4f\u5b85"},"type":"Point","coordinates":[55766,25979],"id":"feature_127"},{"properties":{"price":62800,"use":"\u5ca1\u5c71\u5357","zone":"","station":"\u4f4f\u5b85"},"type":"Point","coordinates":[55247,23760],"id":"feature_128"},{"properties":{"price":51100,"use":"\u5ca1\u5c71\u5357","zone":"","station":"\u4f4f\u5b85"},"type":"Point","coordinates":[49271,22162],"id":"feature_129"},{"properties":{"price":36500,"use":"\u5ca1\u5c71\u5357","zone":"","station":"\u4f4f\u5b85"},"type":"Point","coordinates":[46630,14827],"id":"feature_130"},{"properties":{"price":35100,"use":"\u5ca1\u5c71\u5357","zone":"","station":"\u4f4f\u5b85"},"type":"Point","coordinates":[51047,19693],"id":"feature_131"},{"properties":{"price":53800,"use":"\u5ca1\u5c71\u5357","zone":"","station":"\u4f4f\u5b85"},"type":"Point","coordinates":[50340,22729],"id":"feature_132"},{"properties":{"price":53700,"use":"\u5ca1\u5c71\u5357","zone":"","station":"\u4f4f\u5b85"},"type":"Point","coordinates":[54492,22744],"id":"feature_133"},{"properties":{"price":39400,"use":"\u5ca1\u5c71\u5357","zone":"","station":"\u4f4f\u5b85"},"type":"Point","coordinates":[50923,24648],"id":"feature_134"},{"properties":{"price":31800,"use":"\u5ca1\u5c71\u5357","zone":"","station":"\u4f4f\u5b85"},"type":"Point","coordinates":[47890,22270],"id":"feature_135"},{"properties":{"price":15700,"use":"\u5ca1\u5c71\u5357","zone":"","station":"\u4f4f\u5b85"},"type":"Point","coordinates":[54101,15673],"id":"feature_136"},{"properties":{"price":55000,"use":"\u5ca1\u5c71\u5357","zone":"","station":"\u4f4f\u5b85"},"type":"Point","coordinates":[56893,21936],"id":"feature_137"},{"properties":{"price":20900,"use":"\u5ca1\u5c71\u5357","zone":"","station":"\u4f4f\u5b85"},"type":"Point","coordinates":[62593,19949],"id":"feature_138"},{"properties":{"price":35500,"use":"\u5ca1\u5c71\u5357","zone":"","station":"\u4f4f\u5b85"},"type":"Point","coordinates":[44706,14393],"id":"feature_139"},{"properties":{"price":72900,"use":"\u5ca1\u5c71\u5357","zone":"","station":"\u5e97\u8217"},"type":"Point","coordinates":[50603,23612],"id":"feature_140"},{"properties":{"price":85000,"use":"\u5ca1\u5c71\u5357","zone":"","station":"\u5e97\u8217\u517c\u4e8b\u52d9\u6240"},"type":"Point","coordinates":[59071,22076],"id":"feature_141"},{"properties":{"price":73900,"use":"\u5ca1\u5c71\u5357","zone":"","station":"\u4e8b\u52d9\u6240\u517c\u5009\u5eab"},"type":"Point","coordinates":[56498,24923],"id":"feature_142"},{"properties":{"price":118000,"use":"\u5ca1\u5c71\u5357","zone":"","station":"\u5e97\u8217"},"type":"Point","coordinates":[53971,25684],"id":"feature_143"},{"properties":{"price":81900,"use":"\u5ca1\u5c71\u5357","zone":"","station":"\u5e97\u8217"},"type":"Point","coordinates":[58520,24909],"id":"feature_144"},{"properties":{"price":70300,"use":"\u5ca1\u5c71\u5357","zone":"","station":"\u8a3a\u7642\u6240"},"type":"Point","coordinates":[57515,23921],"id":"feature_145"},{"properties":{"price":41000,"use":"\u5ca1\u5c71\u5357","zone":"","station":"\u5e97\u8217\u517c\u4f4f\u5b85"},"type":"Point","coordinates":[45668,14784],"id":"feature_146"},{"properties":{"price":19000,"use":"\u5ca1\u5c71\u5357","zone":"","station":"\u5de5\u5834"},"type":"Point","coordinates":[60831,21661],"id":"feature_147"},{"properties":{"price":62500,"use":"\u5009\u6577","zone":"","station":"\u4f4f\u5b85"},"type":"Point","coordinates":[44969,27224],"id":"feature_148"},{"properties":{"price":46300,"use":"\u5009\u6577","zone":"","station":"\u4f4f\u5b85"},"type":"Point","coordinates":[43624,24509],"id":"feature_149"},{"properties":{"price":48500,"use":"\u5009\u6577","zone":"","station":"\u4f4f\u5b85"},"type":"Point","coordinates":[41570,23398],"id":"feature_150"},{"properties":{"price":74000,"use":"\u5009\u6577","zone":"","station":"\u5efa\u7bc9\u4e2d"},"type":"Point","coordinates":[39625,23024],"id":"feature_151"},{"properties":{"price":102000,"use":"\u5009\u6577","zone":"","station":"\u4f4f\u5b85"},"type":"Point","coordinates":[37757,21767],"id":"feature_152"},{"properties":{"price":62200,"use":"\u5009\u6577","zone":"","station":"\u4f4f\u5b85"},"type":"Point","coordinates":[37293,22867],"id":"feature_153"},{"properties":{"price":41700,"use":"\u5009\u6577","zone":"","station":"\u4f4f\u5b85"},"type":"Point","coordinates":[36818,16252],"id":"feature_154"},{"properties":{"price":32300,"use":"\u5009\u6577","zone":"","station":"\u4f4f\u5b85"},"type":"Point","coordinates":[31422,18057],"id":"feature_155"},{"properties":{"price":46200,"use":"\u5009\u6577","zone":"","station":"\u4f4f\u5b85"},"type":"Point","coordinates":[32839,18580],"id":"feature_156"},{"properties":{"price":63200,"use":"\u5009\u6577","zone":"","station":"\u4f4f\u5b85"},"type":"Point","coordinates":[34512,19102],"id":"feature_157"},{"properties":{"price":60100,"use":"\u5009\u6577","zone":"","station":"\u4f4f\u5b85"},"type":"Point","coordinates":[34893,17775],"id":"feature_158"},{"properties":{"price":10300,"use":"\u5009\u6577","zone":"","station":"\u4f4f\u5b85"},"type":"Point","coordinates":[28067,27903],"id":"feature_159"},{"properties":{"price":62300,"use":"\u5009\u6577","zone":"","station":"\u4f4f\u5b85"},"type":"Point","coordinates":[36084,18450],"id":"feature_160"},{"properties":{"price":98300,"use":"\u5009\u6577","zone":"","station":"\u4f4f\u5b85"},"type":"Point","coordinates":[38103,20045],"id":"feature_161"},{"properties":{"price":34000,"use":"\u5009\u6577","zone":"","station":"\u4f4f\u5b85"},"type":"Point","coordinates":[41342,2475],"id":"feature_162"},{"properties":{"price":81700,"use":"\u5009\u6577","zone":"","station":"\u4f4f\u5b85"},"type":"Point","coordinates":[39175,18145],"id":"feature_163"},{"properties":{"price":111000,"use":"\u5009\u6577","zone":"","station":"\u4f4f\u5b85"},"type":"Point","coordinates":[38865,20399],"id":"feature_164"},{"properties":{"price":80400,"use":"\u5009\u6577","zone":"","station":"\u4f4f\u5b85"},"type":"Point","coordinates":[40049,20621],"id":"feature_165"},{"properties":{"price":40800,"use":"\u5009\u6577","zone":"","station":"\u4f4f\u5b85"},"type":"Point","coordinates":[43528,16617],"id":"feature_166"},{"properties":{"price":67500,"use":"\u5009\u6577","zone":"","station":"\u4f4f\u5b85"},"type":"Point","coordinates":[46172,18560],"id":"feature_167"},{"properties":{"price":38700,"use":"\u5009\u6577","zone":"","station":"\u4f4f\u5b85"},"type":"Point","coordinates":[35649,16129],"id":"feature_168"},{"properties":{"price":36500,"use":"\u5009\u6577","zone":"","station":"\u4f4f\u5b85"},"type":"Point","coordinates":[32834,14014],"id":"feature_169"},{"properties":{"price":49600,"use":"\u5009\u6577","zone":"","station":"\u4f4f\u5b85"},"type":"Point","coordinates":[35409,14896],"id":"feature_170"},{"properties":{"price":57000,"use":"\u5009\u6577","zone":"","station":"\u4f4f\u5b85"},"type":"Point","coordinates":[28220,17360],"id":"feature_171"},{"properties":{"price":52100,"use":"\u5009\u6577","zone":"","station":"\u4f4f\u5b85"},"type":"Point","coordinates":[34693,13810],"id":"feature_172"},{"properties":{"price":73800,"use":"\u5009\u6577","zone":"","station":"\u4f4f\u5b85"},"type":"Point","coordinates":[37122,18631],"id":"feature_173"},{"properties":{"price":38400,"use":"\u5009\u6577","zone":"","station":"\u4f4f\u5b85"},"type":"Point","coordinates":[32100,19640],"id":"feature_174"},{"properties":{"price":42500,"use":"\u5009\u6577","zone":"","station":"\u4f4f\u5b85"},"type":"Point","coordinates":[38903,13292],"id":"feature_175"},{"properties":{"price":43000,"use":"\u5009\u6577","zone":"","station":"\u4f4f\u5b85"},"type":"Point","coordinates":[36531,12280],"id":"feature_176"},{"properties":{"price":22600,"use":"\u5009\u6577","zone":"","station":"\u4f4f\u5b85"},"type":"Point","coordinates":[38973,9266],"id":"feature_177"},{"properties":{"price":22000,"use":"\u5009\u6577","zone":"","station":"\u4f4f\u5b85"},"type":"Point","coordinates":[39506,4316],"id":"feature_178"},{"properties":{"price":31800,"use":"\u5009\u6577","zone":"","station":"\u4f4f\u5b85"},"type":"Point","coordinates":[42114,0],"id":"feature_179"},{"properties":{"price":19700,"use":"\u5009\u6577","zone":"","station":"\u4f4f\u5b85"},"type":"Point","coordinates":[39692,3124],"id":"feature_180"},{"properties":{"price":41800,"use":"\u5009\u6577","zone":"","station":"\u4f4f\u5b85"},"type":"Point","coordinates":[42416,4336],"id":"feature_181"},{"properties":{"price":31100,"use":"\u5009\u6577","zone":"","station":"\u4f4f\u5b85"},"type":"Point","coordinates":[42192,5677],"id":"feature_182"},{"properties":{"price":27800,"use":"\u5009\u6577","zone":"","station":"\u4f4f\u5b85"},"type":"Point","coordinates":[44255,8031],"id":"feature_183"},{"properties":{"price":29600,"use":"\u5009\u6577","zone":"","station":"\u4f4f\u5b85"},"type":"Point","coordinates":[24655,13046],"id":"feature_184"},{"properties":{"price":24300,"use":"\u5009\u6577","zone":"","station":"\u4f4f\u5b85"},"type":"Point","coordinates":[42011,11707],"id":"feature_185"},{"properties":{"price":36700,"use":"\u5009\u6577","zone":"","station":"\u7a7a\u5730"},"type":"Point","coordinates":[43036,5154],"id":"feature_186"},{"properties":{"price":30500,"use":"\u5009\u6577","zone":"","station":"\u4f4f\u5b85"},"type":"Point","coordinates":[44444,12803],"id":"feature_187"},{"properties":{"price":36800,"use":"\u5009\u6577","zone":"","station":"\u4f4f\u5b85"},"type":"Point","coordinates":[29852,15097],"id":"feature_188"},{"properties":{"price":27900,"use":"\u5009\u6577","zone":"","station":"\u4f4f\u5b85"},"type":"Point","coordinates":[27935,12916],"id":"feature_189"},{"properties":{"price":39600,"use":"\u5009\u6577","zone":"","station":"\u4f4f\u5b85"},"type":"Point","coordinates":[27437,13226],"id":"feature_190"},{"properties":{"price":53100,"use":"\u5009\u6577","zone":"","station":"\u4f4f\u5b85"},"type":"Point","coordinates":[30106,16366],"id":"feature_191"},{"properties":{"price":24700,"use":"\u5009\u6577","zone":"","station":"\u4f4f\u5b85"},"type":"Point","coordinates":[26139,11484],"id":"feature_192"},{"properties":{"price":31400,"use":"\u5009\u6577","zone":"","station":"\u4f4f\u5b85"},"type":"Point","coordinates":[26163,13885],"id":"feature_193"},{"properties":{"price":52200,"use":"\u5009\u6577","zone":"","station":"\u4f4f\u5b85"},"type":"Point","coordinates":[27480,14709],"id":"feature_194"},{"properties":{"price":54800,"use":"\u5009\u6577","zone":"","station":"\u4f4f\u5b85"},"type":"Point","coordinates":[28965,14766],"id":"feature_195"},{"properties":{"price":34200,"use":"\u5009\u6577","zone":"","station":"\u7a7a\u5730"},"type":"Point","coordinates":[31856,26177],"id":"feature_196"},{"properties":{"price":27300,"use":"\u5009\u6577","zone":"","station":"\u4f4f\u5b85"},"type":"Point","coordinates":[29134,24613],"id":"feature_197"},{"properties":{"price":74300,"use":"\u5009\u6577","zone":"","station":"\u4f4f\u5b85"},"type":"Point","coordinates":[41003,23001],"id":"feature_198"},{"properties":{"price":71300,"use":"\u5009\u6577","zone":"","station":"\u4f4f\u5b85"},"type":"Point","coordinates":[36317,20939],"id":"feature_199"},{"properties":{"price":56900,"use":"\u5009\u6577","zone":"","station":"\u4f4f\u5b85"},"type":"Point","coordinates":[29650,17042],"id":"feature_200"},{"properties":{"price":83400,"use":"\u5009\u6577","zone":"","station":"\u4f4f\u5b85"},"type":"Point","coordinates":[37104,19318],"id":"feature_201"},{"properties":{"price":108000,"use":"\u5009\u6577","zone":"","station":"\u4f4f\u5b85"},"type":"Point","coordinates":[40129,21561],"id":"feature_202"},{"properties":{"price":60500,"use":"\u5009\u6577","zone":"","station":"\u4f4f\u5b85"},"type":"Point","coordinates":[41226,22034],"id":"feature_203"},{"properties":{"price":63100,"use":"\u5009\u6577","zone":"","station":"\u4f4f\u5b85"},"type":"Point","coordinates":[34603,20601],"id":"feature_204"},{"properties":{"price":25300,"use":"\u5009\u6577","zone":"","station":"\u4f4f\u5b85"},"type":"Point","coordinates":[31926,27537],"id":"feature_205"},{"properties":{"price":72300,"use":"\u5009\u6577","zone":"","station":"\u4f4f\u5b85"},"type":"Point","coordinates":[38997,17215],"id":"feature_206"},{"properties":{"price":84300,"use":"\u5009\u6577","zone":"","station":"\u4f4f\u5b85"},"type":"Point","coordinates":[40105,20935],"id":"feature_207"},{"properties":{"price":61000,"use":"\u5009\u6577","zone":"","station":"\u4f4f\u5b85"},"type":"Point","coordinates":[36429,17712],"id":"feature_208"},{"properties":{"price":61000,"use":"\u5009\u6577","zone":"","station":"\u4f4f\u5b85"},"type":"Point","coordinates":[44854,17304],"id":"feature_209"},{"properties":{"price":48000,"use":"\u5009\u6577","zone":"","station":"\u4f4f\u5b85"},"type":"Point","coordinates":[37005,14323],"id":"feature_210"},{"properties":{"price":33600,"use":"\u5009\u6577","zone":"","station":"\u4f4f\u5b85"},"type":"Point","coordinates":[36327,11178],"id":"feature_211"},{"properties":{"price":41200,"use":"\u5009\u6577","zone":"","station":"\u4f4f\u5b85"},"type":"Point","coordinates":[45195,5145],"id":"feature_212"},{"properties":{"price":34700,"use":"\u5009\u6577","zone":"","station":"\u4f4f\u5b85"},"type":"Point","coordinates":[33157,12416],"id":"feature_213"},{"properties":{"price":41800,"use":"\u5009\u6577","zone":"","station":"\u4f4f\u5b85"},"type":"Point","coordinates":[38804,11594],"id":"feature_214"},{"properties":{"price":24400,"use":"\u5009\u6577","zone":"","station":"\u4f4f\u5b85"},"type":"Point","coordinates":[50145,4090],"id":"feature_215"},{"properties":{"price":48100,"use":"\u5009\u6577","zone":"","station":"\u4f4f\u5b85"},"type":"Point","coordinates":[45590,4499],"id":"feature_216"},{"properties":{"price":28100,"use":"\u5009\u6577","zone":"","station":"\u4f4f\u5b85"},"type":"Point","coordinates":[25416,10723],"id":"feature_217"},{"properties":{"price":83700,"use":"\u5009\u6577","zone":"","station":"\u4f4f\u5b85"},"type":"Point","coordinates":[39718,19370],"id":"feature_218"},{"properties":{"price":34600,"use":"\u5009\u6577","zone":"","station":"\u4f4f\u5b85"},"type":"Point","coordinates":[39779,25491],"id":"feature_219"},{"properties":{"price":22800,"use":"\u5009\u6577","zone":"","station":"\u4f4f\u5b85"},"type":"Point","coordinates":[44965,28494],"id":"feature_220"},{"properties":{"price":23500,"use":"\u5009\u6577","zone":"","station":"\u4f4f\u5b85"},"type":"Point","coordinates":[46971,19520],"id":"feature_221"},{"properties":{"price":15300,"use":"\u5009\u6577","zone":"","station":"\u4f4f\u5b85"},"type":"Point","coordinates":[22789,8704],"id":"feature_222"},{"properties":{"price":21900,"use":"\u5009\u6577","zone":"","station":"\u4f4f\u5b85"},"type":"Point","coordinates":[41148,16480],"id":"feature_223"},{"properties":{"price":19400,"use":"\u5009\u6577","zone":"","station":"\u4f4f\u5b85"},"type":"Point","coordinates":[41532,7071],"id":"feature_224"},{"properties":{"price":20300,"use":"\u5009\u6577","zone":"","station":"\u4f4f\u5b85"},"type":"Point","coordinates":[32213,16620],"id":"feature_225"},{"properties":{"price":12000,"use":"\u5009\u6577","zone":"","station":"\u4f4f\u5b85"},"type":"Point","coordinates":[28264,20897],"id":"feature_226"},{"properties":{"price":20400,"use":"\u5009\u6577","zone":"","station":"\u4f4f\u5b85"},"type":"Point","coordinates":[30990,19860],"id":"feature_227"},{"properties":{"price":146000,"use":"\u5009\u6577","zone":"","station":"\u5171\u540c\u4f4f\u5b85"},"type":"Point","coordinates":[38490,20406],"id":"feature_228"},{"properties":{"price":42500,"use":"\u5009\u6577","zone":"","station":"\u4f4f\u5b85"},"type":"Point","coordinates":[31791,14444],"id":"feature_229"},{"properties":{"price":122000,"use":"\u5009\u6577","zone":"","station":"\u4f4f\u5b85"},"type":"Point","coordinates":[39747,21084],"id":"feature_230"},{"properties":{"price":10600,"use":"\u5009\u6577","zone":"","station":"\u7530"},"type":"Point","coordinates":[25444,13946],"id":"feature_231"},{"properties":{"price":203000,"use":"\u5009\u6577","zone":"","station":"\u5e97\u8217\u517c\u4f4f\u5b85"},"type":"Point","coordinates":[38833,21372],"id":"feature_232"},{"properties":{"price":185000,"use":"\u5009\u6577","zone":"","station":"\u4e8b\u52d9\u6240\u517c\u4f4f\u5b85"},"type":"Point","coordinates":[39357,21360],"id":"feature_233"},{"properties":{"price":115000,"use":"\u5009\u6577","zone":"","station":"\u5e97\u8217"},"type":"Point","coordinates":[38052,22571],"id":"feature_234"},{"properties":{"price":132000,"use":"\u5009\u6577","zone":"","station":"\u5e97\u8217"},"type":"Point","coordinates":[38917,19865],"id":"feature_235"},{"properties":{"price":67500,"use":"\u5009\u6577","zone":"","station":"\u5e97\u8217\u517c\u4f4f\u5b85"},"type":"Point","coordinates":[35690,19400],"id":"feature_236"},{"properties":{"price":104000,"use":"\u5009\u6577","zone":"","station":"\u5e97\u8217\u517c\u4f4f\u5b85"},"type":"Point","coordinates":[38460,20907],"id":"feature_237"},{"properties":{"price":56300,"use":"\u5009\u6577","zone":"","station":"\u4e8b\u52d9\u6240"},"type":"Point","coordinates":[35303,13443],"id":"feature_238"},{"properties":{"price":39600,"use":"\u5009\u6577","zone":"","station":"\u7a7a\u5730"},"type":"Point","coordinates":[31595,19359],"id":"feature_239"},{"properties":{"price":65800,"use":"\u5009\u6577","zone":"","station":"\u5e97\u8217"},"type":"Point","coordinates":[42807,3390],"id":"feature_240"},{"properties":{"price":41800,"use":"\u5009\u6577","zone":"","station":"\u5e97\u8217\u517c\u4f4f\u5b85"},"type":"Point","coordinates":[45520,4899],"id":"feature_241"},{"properties":{"price":55100,"use":"\u5009\u6577","zone":"","station":"\u5e97\u8217"},"type":"Point","coordinates":[27412,13898],"id":"feature_242"},{"properties":{"price":82600,"use":"\u5009\u6577","zone":"","station":"\u5e97\u8217"},"type":"Point","coordinates":[28539,15420],"id":"feature_243"},{"properties":{"price":130000,"use":"\u5009\u6577","zone":"","station":"\u5e97\u8217\u517c\u5171\u540c\u4f4f\u5b85"},"type":"Point","coordinates":[28641,16272],"id":"feature_244"},{"properties":{"price":77700,"use":"\u5009\u6577","zone":"","station":"\u5e97\u8217"},"type":"Point","coordinates":[42215,24603],"id":"feature_245"},{"properties":{"price":77000,"use":"\u5009\u6577","zone":"","station":"\u533b\u9662"},"type":"Point","coordinates":[43008,3583],"id":"feature_246"},{"properties":{"price":148000,"use":"\u5009\u6577","zone":"","station":"\u5e97\u8217"},"type":"Point","coordinates":[38438,21310],"id":"feature_247"},{"properties":{"price":110000,"use":"\u5009\u6577","zone":"","station":"\u4e8b\u52d9\u6240"},"type":"Point","coordinates":[37267,20352],"id":"feature_248"},{"properties":{"price":71400,"use":"\u5009\u6577","zone":"","station":"\u5e97\u8217\u517c\u4e8b\u52d9\u6240"},"type":"Point","coordinates":[45347,18221],"id":"feature_249"},{"properties":{"price":52300,"use":"\u5009\u6577","zone":"","station":"\u5e97\u8217"},"type":"Point","coordinates":[36435,15517],"id":"feature_250"},{"properties":{"price":40500,"use":"\u5009\u6577","zone":"","station":"\u5de5\u5834\u3001\u4f4f\u5b85\u517c\u4e8b\u52d9\u6240"},"type":"Point","coordinates":[42609,6952],"id":"feature_251"},{"properties":{"price":44100,"use":"\u5009\u6577","zone":"","station":"\u5e97\u8217\u517c\u4f4f\u5b85"},"type":"Point","coordinates":[43187,2606],"id":"feature_252"},{"properties":{"price":53200,"use":"\u5009\u6577","zone":"","station":"\u5e97\u8217\u517c\u4f4f\u5b85"},"type":"Point","coordinates":[28793,12279],"id":"feature_253"},{"properties":{"price":44200,"use":"\u5009\u6577","zone":"","station":"\u5e97\u8217\u517c\u4f4f\u5b85"},"type":"Point","coordinates":[35996,13337],"id":"feature_254"},{"properties":{"price":78100,"use":"\u5009\u6577","zone":"","station":"\u5e97\u8217"},"type":"Point","coordinates":[34883,20538],"id":"feature_255"},{"properties":{"price":30300,"use":"\u5009\u6577","zone":"","station":"\u5009\u5eab"},"type":"Point","coordinates":[36299,10615],"id":"feature_256"},{"properties":{"price":20000,"use":"\u5009\u6577","zone":"","station":"\u5de5\u5834"},"type":"Point","coordinates":[34472,9763],"id":"feature_257"},{"properties":{"price":20000,"use":"\u5009\u6577","zone":"","station":"\u5de5\u5834"},"type":"Point","coordinates":[27827,9568],"id":"feature_258"},{"properties":{"price":35600,"use":"\u5009\u6577","zone":"","station":"\u4e8b\u52d9\u6240\u517c\u5009\u5eab"},"type":"Point","coordinates":[34776,12430],"id":"feature_259"},{"properties":{"price":25000,"use":"\u5009\u6577","zone":"","station":"\u5de5\u5834\u517c\u4e8b\u52d9\u6240"},"type":"Point","coordinates":[30766,18393],"id":"feature_260"},{"properties":{"price":30600,"use":"\u6d25\u5c71","zone":"","station":"\u4f4f\u5b85"},"type":"Point","coordinates":[66451,85175],"id":"feature_261"},{"properties":{"price":43600,"use":"\u6d25\u5c71","zone":"","station":"\u4f4f\u5b85"},"type":"Point","coordinates":[65839,84241],"id":"feature_262"},{"properties":{"price":30800,"use":"\u6d25\u5c71","zone":"","station":"\u4f4f\u5b85"},"type":"Point","coordinates":[68249,84308],"id":"feature_263"},{"properties":{"price":18300,"use":"\u6d25\u5c71","zone":"","station":"\u4f4f\u5b85"},"type":"Point","coordinates":[61454,81980],"id":"feature_264"},{"properties":{"price":20800,"use":"\u6d25\u5c71","zone":"","station":"\u4f4f\u5b85"},"type":"Point","coordinates":[70113,82711],"id":"feature_265"},{"properties":{"price":9700,"use":"\u6d25\u5c71","zone":"","station":"\u4f4f\u5b85"},"type":"Point","coordinates":[81094,88338],"id":"feature_266"},{"properties":{"price":5670,"use":"\u6d25\u5c71","zone":"","station":"\u4f4f\u5b85"},"type":"Point","coordinates":[78946,87000],"id":"feature_267"},{"properties":{"price":7650,"use":"\u6d25\u5c71","zone":"","station":"\u4f4f\u5b85"},"type":"Point","coordinates":[53680,81744],"id":"feature_268"},{"properties":{"price":3060,"use":"\u6d25\u5c71","zone":"","station":"\u4f4f\u5b85"},"type":"Point","coordinates":[54726,78055],"id":"feature_269"},{"properties":{"price":58900,"use":"\u6d25\u5c71","zone":"","station":"\u5e97\u8217\u517c\u4f4f\u5b85"},"type":"Point","coordinates":[66024,81408],"id":"feature_270"},{"properties":{"price":48500,"use":"\u6d25\u5c71","zone":"","station":"\u5e97\u8217\u517c\u4f4f\u5b85"},"type":"Point","coordinates":[65666,81883],"id":"feature_271"},{"properties":{"price":15400,"use":"\u6d25\u5c71","zone":"","station":"\u5e97\u8217\u3001\u5009\u5eab\u517c\u4f4f\u5b85"},"type":"Point","coordinates":[81145,88402],"id":"feature_272"},{"properties":{"price":65100,"use":"\u6d25\u5c71","zone":"","station":"\u5e97\u8217"},"type":"Point","coordinates":[70489,81471],"id":"feature_273"},{"properties":{"price":32100,"use":"\u7389\u91ce","zone":"","station":"\u4f4f\u5b85"},"type":"Point","coordinates":[59484,11088],"id":"feature_274"},{"properties":{"price":47500,"use":"\u7389\u91ce","zone":"","station":"\u4f4f\u5b85"},"type":"Point","coordinates":[59196,10376],"id":"feature_275"},{"properties":{"price":36100,"use":"\u7389\u91ce","zone":"","station":"\u4f4f\u5b85"},"type":"Point","coordinates":[60860,8507],"id":"feature_276"},{"properties":{"price":31000,"use":"\u7389\u91ce","zone":"","station":"\u4f4f\u5b85"},"type":"Point","coordinates":[56552,3705],"id":"feature_277"},{"properties":{"price":32000,"use":"\u7389\u91ce","zone":"","station":"\u4f4f\u5b85"},"type":"Point","coordinates":[57073,2749],"id":"feature_278"},{"properties":{"price":21600,"use":"\u7389\u91ce","zone":"","station":"\u4f4f\u5b85"},"type":"Point","coordinates":[64501,14161],"id":"feature_279"},{"properties":{"price":41000,"use":"\u7389\u91ce","zone":"","station":"\u4f4f\u5b85"},"type":"Point","coordinates":[53541,13428],"id":"feature_280"},{"properties":{"price":36600,"use":"\u7389\u91ce","zone":"","station":"\u4f4f\u5b85"},"type":"Point","coordinates":[53256,8266],"id":"feature_281"},{"properties":{"price":31000,"use":"\u7389\u91ce","zone":"","station":"\u4f4f\u5b85"},"type":"Point","coordinates":[55480,5934],"id":"feature_282"},{"properties":{"price":32100,"use":"\u7389\u91ce","zone":"","station":"\u4f4f\u5b85"},"type":"Point","coordinates":[59495,15031],"id":"feature_283"},{"properties":{"price":39900,"use":"\u7389\u91ce","zone":"","station":"\u4f4f\u5b85"},"type":"Point","coordinates":[60857,10688],"id":"feature_284"},{"properties":{"price":16400,"use":"\u7389\u91ce","zone":"","station":"\u4f4f\u5b85"},"type":"Point","coordinates":[52254,7421],"id":"feature_285"},{"properties":{"price":10600,"use":"\u7389\u91ce","zone":"","station":"\u4f4f\u5b85"},"type":"Point","coordinates":[61840,12386],"id":"feature_286"},{"properties":{"price":55300,"use":"\u7389\u91ce","zone":"","station":"\u5e97\u8217\u517c\u4f4f\u5b85"},"type":"Point","coordinates":[60187,7526],"id":"feature_287"},{"properties":{"price":62700,"use":"\u7389\u91ce","zone":"","station":"\u5e97\u8217\u517c\u4e8b\u52d9\u6240"},"type":"Point","coordinates":[59643,7246],"id":"feature_288"},{"properties":{"price":37900,"use":"\u7389\u91ce","zone":"","station":"\u5e97\u8217\u517c\u4f4f\u5b85"},"type":"Point","coordinates":[58858,6729],"id":"feature_289"},{"properties":{"price":38600,"use":"\u7389\u91ce","zone":"","station":"\u5e97\u8217\u517c\u4e8b\u52d9\u6240"},"type":"Point","coordinates":[57972,5466],"id":"feature_290"},{"properties":{"price":61400,"use":"\u7389\u91ce","zone":"","station":"\u5e97\u8217\u517c\u4f4f\u5b85"},"type":"Point","coordinates":[59485,6747],"id":"feature_291"},{"properties":{"price":17300,"use":"\u7389\u91ce","zone":"","station":"\u5009\u5eab\u517c\u4e8b\u52d9\u6240"},"type":"Point","coordinates":[54882,5766],"id":"feature_292"},{"properties":{"price":42000,"use":"\u7b20\u5ca1","zone":"","station":"\u4f4f\u5b85"},"type":"Point","coordinates":[7192,8824],"id":"feature_293"},{"properties":{"price":31900,"use":"\u7b20\u5ca1","zone":"","station":"\u4f4f\u5b85"},"type":"Point","coordinates":[10330,8167],"id":"feature_294"},{"properties":{"price":50300,"use":"\u7b20\u5ca1","zone":"","station":"\u4f4f\u5b85"},"type":"Point","coordinates":[10162,7747],"id":"feature_295"},{"properties":{"price":36400,"use":"\u7b20\u5ca1","zone":"","station":"\u4f4f\u5b85"},"type":"Point","coordinates":[9941,6436],"id":"feature_296"},{"properties":{"price":25700,"use":"\u7b20\u5ca1","zone":"","station":"\u4f4f\u5b85"},"type":"Point","coordinates":[6506,9565],"id":"feature_297"},{"properties":{"price":29700,"use":"\u7b20\u5ca1","zone":"","station":"\u4f4f\u5b85"},"type":"Point","coordinates":[5405,9681],"id":"feature_298"},{"properties":{"price":31800,"use":"\u7b20\u5ca1","zone":"","station":"\u4f4f\u5b85"},"type":"Point","coordinates":[8933,10577],"id":"feature_299"},{"properties":{"price":27500,"use":"\u7b20\u5ca1","zone":"","station":"\u4f4f\u5b85"},"type":"Point","coordinates":[2597,8101],"id":"feature_300"},{"properties":{"price":14700,"use":"\u7b20\u5ca1","zone":"","station":"\u4f4f\u5b85"},"type":"Point","coordinates":[7104,12439],"id":"feature_301"},{"properties":{"price":10200,"use":"\u7b20\u5ca1","zone":"","station":"\u4f4f\u5b85"},"type":"Point","coordinates":[11195,17737],"id":"feature_302"},{"properties":{"price":17200,"use":"\u7b20\u5ca1","zone":"","station":"\u4f4f\u5b85"},"type":"Point","coordinates":[11173,10988],"id":"feature_303"},{"properties":{"price":14000,"use":"\u7b20\u5ca1","zone":"","station":"\u4f4f\u5b85"},"type":"Point","coordinates":[8922,4652],"id":"feature_304"},{"properties":{"price":68900,"use":"\u7b20\u5ca1","zone":"","station":"\u5e97\u8217\u517c\u4e8b\u52d9\u6240"},"type":"Point","coordinates":[9201,7933],"id":"feature_305"},{"properties":{"price":43000,"use":"\u7b20\u5ca1","zone":"","station":"\u5e97\u8217\u517c\u4f4f\u5b85"},"type":"Point","coordinates":[8370,8696],"id":"feature_306"},{"properties":{"price":72500,"use":"\u7b20\u5ca1","zone":"","station":"\u5e97\u8217\u517c\u4f4f\u5b85"},"type":"Point","coordinates":[8249,8902],"id":"feature_307"},{"properties":{"price":33100,"use":"\u4e95\u539f","zone":"","station":"\u4f4f\u5b85"},"type":"Point","coordinates":[3164,21220],"id":"feature_308"},{"properties":{"price":19400,"use":"\u4e95\u539f","zone":"","station":"\u4f4f\u5b85"},"type":"Point","coordinates":[7334,20033],"id":"feature_309"},{"properties":{"price":32700,"use":"\u4e95\u539f","zone":"","station":"\u4f4f\u5b85"},"type":"Point","coordinates":[0,18837],"id":"feature_310"},{"properties":{"price":50300,"use":"\u4e95\u539f","zone":"","station":"\u4e8b\u52d9\u6240"},"type":"Point","coordinates":[3620,20909],"id":"feature_311"},{"properties":{"price":41800,"use":"\u4e95\u539f","zone":"","station":"\u4e8b\u52d9\u6240\u517c\u4f4f\u5b85"},"type":"Point","coordinates":[3478,20391],"id":"feature_312"},{"properties":{"price":11500,"use":"\u4e95\u539f","zone":"","station":"\u5009\u5eab"},"type":"Point","coordinates":[6986,18361],"id":"feature_313"},{"properties":{"price":60900,"use":"\u7dcf\u793e","zone":"","station":"\u4f4f\u5b85"},"type":"Point","coordinates":[35774,30249],"id":"feature_314"},{"properties":{"price":62800,"use":"\u7dcf\u793e","zone":"","station":"\u4f4f\u5b85"},"type":"Point","coordinates":[36461,30277],"id":"feature_315"},{"properties":{"price":49000,"use":"\u7dcf\u793e","zone":"","station":"\u4f4f\u5b85"},"type":"Point","coordinates":[38591,31753],"id":"feature_316"},{"properties":{"price":32100,"use":"\u7dcf\u793e","zone":"","station":"\u4f4f\u5b85"},"type":"Point","coordinates":[34267,30284],"id":"feature_317"},{"properties":{"price":41700,"use":"\u7dcf\u793e","zone":"","station":"\u4f4f\u5b85"},"type":"Point","coordinates":[38487,29222],"id":"feature_318"},{"properties":{"price":24800,"use":"\u7dcf\u793e","zone":"","station":"\u4f4f\u5b85"},"type":"Point","coordinates":[37861,28872],"id":"feature_319"},{"properties":{"price":45400,"use":"\u7dcf\u793e","zone":"","station":"\u4f4f\u5b85"},"type":"Point","coordinates":[34707,27226],"id":"feature_320"},{"properties":{"price":17000,"use":"\u7dcf\u793e","zone":"","station":"\u4f4f\u5b85"},"type":"Point","coordinates":[33032,35121],"id":"feature_321"},{"properties":{"price":28300,"use":"\u7dcf\u793e","zone":"","station":"\u4f4f\u5b85"},"type":"Point","coordinates":[37890,32459],"id":"feature_322"},{"properties":{"price":16100,"use":"\u7dcf\u793e","zone":"","station":"\u4f4f\u5b85"},"type":"Point","coordinates":[33236,28737],"id":"feature_323"},{"properties":{"price":9780,"use":"\u7dcf\u793e","zone":"","station":"\u4f4f\u5b85"},"type":"Point","coordinates":[25523,29803],"id":"feature_324"},{"properties":{"price":15700,"use":"\u7dcf\u793e","zone":"","station":"\u4f4f\u5b85"},"type":"Point","coordinates":[39369,28265],"id":"feature_325"},{"properties":{"price":23300,"use":"\u7dcf\u793e","zone":"","station":"\u4f4f\u5b85"},"type":"Point","coordinates":[35561,27284],"id":"feature_326"},{"properties":{"price":39100,"use":"\u7dcf\u793e","zone":"","station":"\u4f4f\u5b85"},"type":"Point","coordinates":[38563,31331],"id":"feature_327"},{"properties":{"price":65100,"use":"\u7dcf\u793e","zone":"","station":"\u5e97\u8217"},"type":"Point","coordinates":[37059,30353],"id":"feature_328"},{"properties":{"price":73600,"use":"\u7dcf\u793e","zone":"","station":"\u5e97\u8217\u517c\u4f4f\u5b85"},"type":"Point","coordinates":[35413,30846],"id":"feature_329"},{"properties":{"price":45700,"use":"\u7dcf\u793e","zone":"","station":"\u5e97\u8217\u517c\u4f5c\u696d\u6240"},"type":"Point","coordinates":[34299,30737],"id":"feature_330"},{"properties":{"price":18900,"use":"\u7dcf\u793e","zone":"","station":"\u5de5\u5834"},"type":"Point","coordinates":[34814,29237],"id":"feature_331"},{"properties":{"price":34900,"use":"\u9ad8\u6881","zone":"","station":"\u4f4f\u5b85"},"type":"Point","coordinates":[21479,45552],"id":"feature_332"},{"properties":{"price":42600,"use":"\u9ad8\u6881","zone":"","station":"\u4f4f\u5b85"},"type":"Point","coordinates":[21217,47168],"id":"feature_333"},{"properties":{"price":24000,"use":"\u9ad8\u6881","zone":"","station":"\u4f4f\u5b85"},"type":"Point","coordinates":[18592,44939],"id":"feature_334"},{"properties":{"price":21700,"use":"\u9ad8\u6881","zone":"","station":"\u4f4f\u5b85"},"type":"Point","coordinates":[13131,45413],"id":"feature_335"},{"properties":{"price":15200,"use":"\u9ad8\u6881","zone":"","station":"\u4f4f\u5b85"},"type":"Point","coordinates":[11075,45126],"id":"feature_336"},{"properties":{"price":70800,"use":"\u9ad8\u6881","zone":"","station":"\u5e97\u8217"},"type":"Point","coordinates":[20976,46038],"id":"feature_337"},{"properties":{"price":46700,"use":"\u9ad8\u6881","zone":"","station":"\u5e97\u8217"},"type":"Point","coordinates":[21025,46525],"id":"feature_338"},{"properties":{"price":28900,"use":"\u9ad8\u6881","zone":"","station":"\u4e8b\u52d9\u6240\u517c\u4f4f\u5b85"},"type":"Point","coordinates":[12956,45151],"id":"feature_339"},{"properties":{"price":37700,"use":"\u65b0\u898b","zone":"","station":"\u4f4f\u5b85"},"type":"Point","coordinates":[2181,72429],"id":"feature_340"},{"properties":{"price":30300,"use":"\u65b0\u898b","zone":"","station":"\u4f4f\u5b85"},"type":"Point","coordinates":[4415,71036],"id":"feature_341"},{"properties":{"price":24200,"use":"\u65b0\u898b","zone":"","station":"\u4f4f\u5b85"},"type":"Point","coordinates":[521,73149],"id":"feature_342"},{"properties":{"price":43800,"use":"\u65b0\u898b","zone":"","station":"\u5e97\u8217\u517c\u4e8b\u52d9\u6240"},"type":"Point","coordinates":[2892,72284],"id":"feature_343"},{"properties":{"price":26000,"use":"\u5099\u524d","zone":"","station":"\u4f4f\u5b85"},"type":"Point","coordinates":[85358,39994],"id":"feature_344"},{"properties":{"price":11100,"use":"\u5099\u524d","zone":"","station":"\u4f4f\u5b85"},"type":"Point","coordinates":[97966,47379],"id":"feature_345"},{"properties":{"price":15300,"use":"\u5099\u524d","zone":"","station":"\u4f4f\u5b85"},"type":"Point","coordinates":[93320,38343],"id":"feature_346"},{"properties":{"price":25000,"use":"\u5099\u524d","zone":"","station":"\u4f4f\u5b85"},"type":"Point","coordinates":[99999,39837],"id":"feature_347"},{"properties":{"price":35500,"use":"\u5099\u524d","zone":"","station":"\u4f4f\u5b85"},"type":"Point","coordinates":[97398,38774],"id":"feature_348"},{"properties":{"price":43600,"use":"\u5099\u524d","zone":"","station":"\u4e8b\u52d9\u6240"},"type":"Point","coordinates":[87607,40178],"id":"feature_349"},{"properties":{"price":39100,"use":"\u5099\u524d","zone":"","station":"\u5e97\u8217\u517c\u4f4f\u5b85"},"type":"Point","coordinates":[84627,39751],"id":"feature_350"},{"properties":{"price":47500,"use":"\u5099\u524d","zone":"","station":"\u5e97\u8217"},"type":"Point","coordinates":[97700,38844],"id":"feature_351"},{"properties":{"price":25300,"use":"\u8d64\u78d0","zone":"","station":"\u4f4f\u5b85"},"type":"Point","coordinates":[68991,41814],"id":"feature_352"},{"properties":{"price":26500,"use":"\u8d64\u78d0","zone":"","station":"\u4f4f\u5b85"},"type":"Point","coordinates":[67396,40785],"id":"feature_353"},{"properties":{"price":19200,"use":"\u8d64\u78d0","zone":"","station":"\u4f4f\u5b85"},"type":"Point","coordinates":[69998,44522],"id":"feature_354"},{"properties":{"price":15400,"use":"\u8d64\u78d0","zone":"","station":"\u4f4f\u5b85"},"type":"Point","coordinates":[70492,45835],"id":"feature_355"},{"properties":{"price":10700,"use":"\u8d64\u78d0","zone":"","station":"\u4f4f\u5b85"},"type":"Point","coordinates":[66676,42440],"id":"feature_356"},{"properties":{"price":22900,"use":"\u771f\u5ead","zone":"","station":"\u4f4f\u5b85"},"type":"Point","coordinates":[29890,84612],"id":"feature_357"},{"properties":{"price":16000,"use":"\u771f\u5ead","zone":"","station":"\u4f4f\u5b85"},"type":"Point","coordinates":[29031,84776],"id":"feature_358"},{"properties":{"price":20300,"use":"\u771f\u5ead","zone":"","station":"\u4f4f\u5b85"},"type":"Point","coordinates":[36532,75654],"id":"feature_359"},{"properties":{"price":11900,"use":"\u771f\u5ead","zone":"","station":"\u4f4f\u5b85"},"type":"Point","coordinates":[36600,80462],"id":"feature_360"},{"properties":{"price":18400,"use":"\u771f\u5ead","zone":"","station":"\u4f4f\u5b85"},"type":"Point","coordinates":[34589,99520],"id":"feature_361"},{"properties":{"price":10300,"use":"\u771f\u5ead","zone":"","station":"\u4f4f\u5b85"},"type":"Point","coordinates":[34621,98909],"id":"feature_362"},{"properties":{"price":29800,"use":"\u771f\u5ead","zone":"","station":"\u4f4f\u5b85"},"type":"Point","coordinates":[36113,84488],"id":"feature_363"},{"properties":{"price":16700,"use":"\u771f\u5ead","zone":"","station":"\u4f4f\u5b85"},"type":"Point","coordinates":[37755,83888],"id":"feature_364"},{"properties":{"price":28400,"use":"\u771f\u5ead","zone":"","station":"\u5e97\u8217\u517c\u4f4f\u5b85"},"type":"Point","coordinates":[29951,84304],"id":"feature_365"},{"properties":{"price":27600,"use":"\u771f\u5ead","zone":"","station":"\u5e97\u8217\u517c\u4f4f\u5b85"},"type":"Point","coordinates":[36723,76163],"id":"feature_366"},{"properties":{"price":26200,"use":"\u771f\u5ead","zone":"","station":"\u5e97\u8217"},"type":"Point","coordinates":[34563,99999],"id":"feature_367"},{"properties":{"price":41800,"use":"\u771f\u5ead","zone":"","station":"\u5e97\u8217"},"type":"Point","coordinates":[36328,83461],"id":"feature_368"},{"properties":{"price":23000,"use":"\u7f8e\u4f5c","zone":"","station":"\u4f4f\u5b85"},"type":"Point","coordinates":[81877,73301],"id":"feature_369"},{"properties":{"price":14200,"use":"\u7f8e\u4f5c","zone":"","station":"\u4f4f\u5b85"},"type":"Point","coordinates":[84001,74066],"id":"feature_370"},{"properties":{"price":44000,"use":"\u7f8e\u4f5c","zone":"","station":"\u5e97\u8217"},"type":"Point","coordinates":[84197,76230],"id":"feature_371"},{"properties":{"price":43500,"use":"\u6d45\u53e3","zone":"","station":"\u4f4f\u5b85"},"type":"Point","coordinates":[22231,13813],"id":"feature_372"},{"properties":{"price":34800,"use":"\u6d45\u53e3","zone":"","station":"\u4f4f\u5b85"},"type":"Point","coordinates":[16577,10260],"id":"feature_373"},{"properties":{"price":29600,"use":"\u6d45\u53e3","zone":"","station":"\u4f4f\u5b85"},"type":"Point","coordinates":[22212,12680],"id":"feature_374"},{"properties":{"price":31900,"use":"\u6d45\u53e3","zone":"","station":"\u4f4f\u5b85"},"type":"Point","coordinates":[17550,13589],"id":"feature_375"},{"properties":{"price":15600,"use":"\u6d45\u53e3","zone":"","station":"\u4f4f\u5b85"},"type":"Point","coordinates":[19322,13805],"id":"feature_376"},{"properties":{"price":42900,"use":"\u6d45\u53e3","zone":"","station":"\u5e97\u8217\u517c\u4f4f\u5b85"},"type":"Point","coordinates":[21996,13369],"id":"feature_377"},{"properties":{"price":50300,"use":"\u6d45\u53e3","zone":"","station":"\u5e97\u8217\u517c\u533b\u9662"},"type":"Point","coordinates":[17668,13191],"id":"feature_378"},{"properties":{"price":18200,"use":"\u548c\u6c17","zone":"","station":"\u4f4f\u5b85"},"type":"Point","coordinates":[82669,47971],"id":"feature_379"},{"properties":{"price":10300,"use":"\u548c\u6c17","zone":"","station":"\u4f4f\u5b85"},"type":"Point","coordinates":[79654,47286],"id":"feature_380"},{"properties":{"price":33400,"use":"\u548c\u6c17","zone":"","station":"\u5e97\u8217"},"type":"Point","coordinates":[83534,47164],"id":"feature_381"},{"properties":{"price":66000,"use":"\u65e9\u5cf6","zone":"","station":"\u4f4f\u5b85"},"type":"Point","coordinates":[45424,21490],"id":"feature_382"},{"properties":{"price":48600,"use":"\u65e9\u5cf6","zone":"","station":"\u4f4f\u5b85"},"type":"Point","coordinates":[46254,23169],"id":"feature_383"},{"properties":{"price":52600,"use":"\u65e9\u5cf6","zone":"","station":"\u4f4f\u5b85"},"type":"Point","coordinates":[44366,21226],"id":"feature_384"},{"properties":{"price":67100,"use":"\u65e9\u5cf6","zone":"","station":"\u5e97\u8217\u517c\u4f4f\u5b85"},"type":"Point","coordinates":[45646,21726],"id":"feature_385"},{"properties":{"price":44100,"use":"\u91cc\u5e84","zone":"","station":"\u4f4f\u5b85"},"type":"Point","coordinates":[13150,9567],"id":"feature_386"},{"properties":{"price":27800,"use":"\u91cc\u5e84","zone":"","station":"\u4f4f\u5b85"},"type":"Point","coordinates":[15374,10702],"id":"feature_387"},{"properties":{"price":43900,"use":"\u91cc\u5e84","zone":"","station":"\u5e97\u8217"},"type":"Point","coordinates":[13462,9106],"id":"feature_388"},{"properties":{"price":22600,"use":"\u77e2\u639b","zone":"","station":"\u4f4f\u5b85"},"type":"Point","coordinates":[18353,24847],"id":"feature_389"},{"properties":{"price":14200,"use":"\u77e2\u639b","zone":"","station":"\u4f4f\u5b85"},"type":"Point","coordinates":[12327,22004],"id":"feature_390"},{"properties":{"price":31400,"use":"\u77e2\u639b","zone":"","station":"\u5e97\u8217\u517c\u4f4f\u5b85"},"type":"Point","coordinates":[18092,24400],"id":"feature_391"},{"properties":{"price":19200,"use":"\u93e1\u91ce","zone":"","station":"\u4f4f\u5b85"},"type":"Point","coordinates":[58033,85087],"id":"feature_392"},{"properties":{"price":5140,"use":"\u93e1\u91ce","zone":"","station":"\u4f4f\u5b85"},"type":"Point","coordinates":[56340,85103],"id":"feature_393"},{"properties":{"price":24500,"use":"\u93e1\u91ce","zone":"","station":"\u5e97\u8217"},"type":"Point","coordinates":[58679,86035],"id":"feature_394"},{"properties":{"price":33800,"use":"\u52dd\u592e","zone":"","station":"\u4f4f\u5b85"},"type":"Point","coordinates":[79696,78952],"id":"feature_395"},{"properties":{"price":21100,"use":"\u52dd\u592e","zone":"","station":"\u4f4f\u5b85"},"type":"Point","coordinates":[79493,80366],"id":"feature_396"},{"properties":{"price":12300,"use":"\u52dd\u592e","zone":"","station":"\u5de5\u5834"},"type":"Point","coordinates":[78298,80087],"id":"feature_397"},{"properties":{"price":9230,"use":"\u5409\u5099\u4e2d\u592e","zone":"","station":"\u4f4f\u5b85"},"type":"Point","coordinates":[38391,52479],"id":"feature_398"},{"properties":{"price":3500,"use":"\u5409\u5099\u4e2d\u592e","zone":"","station":"\u4f4f\u5b85"},"type":"Point","coordinates":[37637,56199],"id":"feature_399"},{"properties":{"price":6910,"use":"\u5409\u5099\u4e2d\u592e","zone":"","station":"\u5e97\u8217\u517c\u4f4f\u5b85"},"type":"Point","coordinates":[35287,55167],"id":"feature_400"}],"type":"GeometryCollection"}},"bbox":[133.43546,34.4379,134.29325,35.20043],"transform":{"scale":[8.577985779857741e-06,7.625376253762519e-06],"translate":[133.43546,34.4379]},"arcs":[]}