{"type":"Topology","objects":{"data":{"geometries":[{"properties":{"price":19700,"use":"\u798f\u4e95","zone":"","station":"\u4f4f\u5b85"},"type":"Point","coordinates":[74886,78407],"id":"feature_000"},{"properties":{"price":55000,"use":"\u798f\u4e95","zone":"","station":"\u4f4f\u5b85"},"type":"Point","coordinates":[71473,83102],"id":"feature_001"},{"properties":{"price":51800,"use":"\u798f\u4e95","zone":"","station":"\u4f4f\u5b85"},"type":"Point","coordinates":[73069,80715],"id":"feature_002"},{"properties":{"price":64500,"use":"\u798f\u4e95","zone":"","station":"\u4f4f\u5b85"},"type":"Point","coordinates":[69037,79393],"id":"feature_003"},{"properties":{"price":57200,"use":"\u798f\u4e95","zone":"","station":"\u4f4f\u5b85"},"type":"Point","coordinates":[68259,80398],"id":"feature_004"},{"properties":{"price":82100,"use":"\u798f\u4e95","zone":"","station":"\u4f4f\u5b85"},"type":"Point","coordinates":[70457,79736],"id":"feature_005"},{"properties":{"price":67400,"use":"\u798f\u4e95","zone":"","station":"\u4f4f\u5b85"},"type":"Point","coordinates":[72128,79229],"id":"feature_006"},{"properties":{"price":69000,"use":"\u798f\u4e95","zone":"","station":"\u4f4f\u5b85"},"type":"Point","coordinates":[71723,77312],"id":"feature_007"},{"properties":{"price":43800,"use":"\u798f\u4e95","zone":"","station":"\u4f4f\u5b85"},"type":"Point","coordinates":[68245,77837],"id":"feature_008"},{"properties":{"price":51600,"use":"\u798f\u4e95","zone":"","station":"\u4f4f\u5b85"},"type":"Point","coordinates":[66976,78903],"id":"feature_009"},{"properties":{"price":30400,"use":"\u798f\u4e95","zone":"","station":"\u4f4f\u5b85"},"type":"Point","coordinates":[66184,74299],"id":"feature_010"},{"properties":{"price":63800,"use":"\u798f\u4e95","zone":"","station":"\u4f4f\u5b85"},"type":"Point","coordinates":[70732,77676],"id":"feature_011"},{"properties":{"price":59000,"use":"\u798f\u4e95","zone":"","station":"\u4f4f\u5b85"},"type":"Point","coordinates":[66647,75672],"id":"feature_012"},{"properties":{"price":58300,"use":"\u798f\u4e95","zone":"","station":"\u4f4f\u5b85"},"type":"Point","coordinates":[66892,76705],"id":"feature_013"},{"properties":{"price":12800,"use":"\u798f\u4e95","zone":"","station":"\u4f4f\u5b85"},"type":"Point","coordinates":[62404,73366],"id":"feature_014"},{"properties":{"price":24800,"use":"\u798f\u4e95","zone":"","station":"\u4f4f\u5b85"},"type":"Point","coordinates":[67762,70510],"id":"feature_015"},{"properties":{"price":83200,"use":"\u798f\u4e95","zone":"","station":"\u4f4f\u5b85"},"type":"Point","coordinates":[69324,80605],"id":"feature_016"},{"properties":{"price":94100,"use":"\u798f\u4e95","zone":"","station":"\u4f4f\u5b85"},"type":"Point","coordinates":[70327,79329],"id":"feature_017"},{"properties":{"price":72500,"use":"\u798f\u4e95","zone":"","station":"\u4f4f\u5b85"},"type":"Point","coordinates":[71175,79523],"id":"feature_018"},{"properties":{"price":58600,"use":"\u798f\u4e95","zone":"","station":"\u4f4f\u5b85"},"type":"Point","coordinates":[71000,80841],"id":"feature_019"},{"properties":{"price":23600,"use":"\u798f\u4e95","zone":"","station":"\u4f4f\u5b85"},"type":"Point","coordinates":[66755,70598],"id":"feature_020"},{"properties":{"price":52800,"use":"\u798f\u4e95","zone":"","station":"\u4f4f\u5b85"},"type":"Point","coordinates":[68358,75197],"id":"feature_021"},{"properties":{"price":83000,"use":"\u798f\u4e95","zone":"","station":"\u4f4f\u5b85"},"type":"Point","coordinates":[69818,81454],"id":"feature_022"},{"properties":{"price":76400,"use":"\u798f\u4e95","zone":"","station":"\u4f4f\u5b85"},"type":"Point","coordinates":[72716,79054],"id":"feature_023"},{"properties":{"price":47100,"use":"\u798f\u4e95","zone":"","station":"\u4f4f\u5b85"},"type":"Point","coordinates":[67135,79360],"id":"feature_024"},{"properties":{"price":58900,"use":"\u798f\u4e95","zone":"","station":"\u4f4f\u5b85"},"type":"Point","coordinates":[72832,76915],"id":"feature_025"},{"properties":{"price":31100,"use":"\u798f\u4e95","zone":"","station":"\u4f4f\u5b85"},"type":"Point","coordinates":[68431,76353],"id":"feature_026"},{"properties":{"price":53000,"use":"\u798f\u4e95","zone":"","station":"\u4f4f\u5b85"},"type":"Point","coordinates":[68336,82611],"id":"feature_027"},{"properties":{"price":73300,"use":"\u798f\u4e95","zone":"","station":"\u4f4f\u5b85"},"type":"Point","coordinates":[70553,76692],"id":"feature_028"},{"properties":{"price":56800,"use":"\u798f\u4e95","zone":"","station":"\u4f4f\u5b85"},"type":"Point","coordinates":[69409,77653],"id":"feature_029"},{"properties":{"price":50100,"use":"\u798f\u4e95","zone":"","station":"\u7a7a\u5730"},"type":"Point","coordinates":[68049,79932],"id":"feature_030"},{"properties":{"price":54700,"use":"\u798f\u4e95","zone":"","station":"\u4f4f\u5b85"},"type":"Point","coordinates":[73423,78402],"id":"feature_031"},{"properties":{"price":17600,"use":"\u798f\u4e95","zone":"","station":"\u4f4f\u5b85"},"type":"Point","coordinates":[67114,74323],"id":"feature_032"},{"properties":{"price":12400,"use":"\u798f\u4e95","zone":"","station":"\u4f4f\u5b85"},"type":"Point","coordinates":[60626,77247],"id":"feature_033"},{"properties":{"price":15400,"use":"\u798f\u4e95","zone":"","station":"\u4f4f\u5b85"},"type":"Point","coordinates":[71401,71633],"id":"feature_034"},{"properties":{"price":67100,"use":"\u798f\u4e95","zone":"","station":"\u4f4f\u5b85"},"type":"Point","coordinates":[71306,78369],"id":"feature_035"},{"properties":{"price":67300,"use":"\u798f\u4e95","zone":"","station":"\u4f4f\u5b85"},"type":"Point","coordinates":[70458,80660],"id":"feature_036"},{"properties":{"price":13800,"use":"\u798f\u4e95","zone":"","station":"\u4f4f\u5b85"},"type":"Point","coordinates":[66478,86062],"id":"feature_037"},{"properties":{"price":42000,"use":"\u798f\u4e95","zone":"","station":"\u4f4f\u5b85"},"type":"Point","coordinates":[71914,84772],"id":"feature_038"},{"properties":{"price":360000,"use":"\u798f\u4e95","zone":"","station":"\u5e97\u8217\u517c\u4f4f\u5b85"},"type":"Point","coordinates":[70405,78591],"id":"feature_039"},{"properties":{"price":395000,"use":"\u798f\u4e95","zone":"","station":"\u5e97\u8217\u517c\u4e8b\u52d9\u6240"},"type":"Point","coordinates":[70163,78440],"id":"feature_040"},{"properties":{"price":406000,"use":"\u798f\u4e95","zone":"","station":"\u5e97\u8217\u517c\u4f4f\u5b85"},"type":"Point","coordinates":[70273,78416],"id":"feature_041"},{"properties":{"price":150000,"use":"\u798f\u4e95","zone":"","station":"\u4e8b\u52d9\u6240"},"type":"Point","coordinates":[69524,78621],"id":"feature_042"},{"properties":{"price":218000,"use":"\u798f\u4e95","zone":"","station":"\u5e97\u8217"},"type":"Point","coordinates":[69913,78722],"id":"feature_043"},{"properties":{"price":122000,"use":"\u798f\u4e95","zone":"","station":"\u5e97\u8217\u517c\u4e8b\u52d9\u6240"},"type":"Point","coordinates":[70331,79094],"id":"feature_044"},{"properties":{"price":81800,"use":"\u798f\u4e95","zone":"","station":"\u4e8b\u52d9\u6240\u517c\u4f4f\u5b85"},"type":"Point","coordinates":[69659,77958],"id":"feature_045"},{"properties":{"price":64400,"use":"\u798f\u4e95","zone":"","station":"\u5e97\u8217"},"type":"Point","coordinates":[66803,75807],"id":"feature_046"},{"properties":{"price":63600,"use":"\u798f\u4e95","zone":"","station":"\u4e8b\u52d9\u6240"},"type":"Point","coordinates":[69249,78323],"id":"feature_047"},{"properties":{"price":127000,"use":"\u798f\u4e95","zone":"","station":"\u8a3a\u7642\u6240\u517c\u4f4f\u5b85"},"type":"Point","coordinates":[70806,78386],"id":"feature_048"},{"properties":{"price":102000,"use":"\u798f\u4e95","zone":"","station":"\u5e97\u8217\u517c\u4f4f\u5b85"},"type":"Point","coordinates":[69986,79831],"id":"feature_049"},{"properties":{"price":62400,"use":"\u798f\u4e95","zone":"","station":"\u5e97\u8217\u517c\u4f4f\u5b85"},"type":"Point","coordinates":[71449,82378],"id":"feature_050"},{"properties":{"price":85000,"use":"\u798f\u4e95","zone":"","station":"\u5e97\u8217"},"type":"Point","coordinates":[72531,79338],"id":"feature_051"},{"properties":{"price":69800,"use":"\u798f\u4e95","zone":"","station":"\u5e97\u8217"},"type":"Point","coordinates":[71470,75906],"id":"feature_052"},{"properties":{"price":195000,"use":"\u798f\u4e95","zone":"","station":"\u5e97\u8217\u517c\u5171\u540c\u4f4f\u5b85"},"type":"Point","coordinates":[70604,78729],"id":"feature_053"},{"properties":{"price":75000,"use":"\u798f\u4e95","zone":"","station":"\u5e97\u8217\u517c\u4e8b\u52d9\u6240"},"type":"Point","coordinates":[72460,82455],"id":"feature_054"},{"properties":{"price":39000,"use":"\u798f\u4e95","zone":"","station":"\u5e97\u8217"},"type":"Point","coordinates":[72586,85773],"id":"feature_055"},{"properties":{"price":16700,"use":"\u798f\u4e95","zone":"","station":"\u5de5\u5834"},"type":"Point","coordinates":[70650,85305],"id":"feature_056"},{"properties":{"price":10300,"use":"\u798f\u4e95","zone":"","station":"\u4e8b\u52d9\u6240\u3001\u4f5c\u696d\u6240\u517c\u5009\u5eab"},"type":"Point","coordinates":[57755,90546],"id":"feature_057"},{"properties":{"price":47700,"use":"\u798f\u4e95","zone":"","station":"\u4e8b\u52d9\u6240\u517c\u5009\u5eab"},"type":"Point","coordinates":[73118,77381],"id":"feature_058"},{"properties":{"price":47000,"use":"\u798f\u4e95","zone":"","station":"\u4e8b\u52d9\u6240\u517c\u5009\u5eab"},"type":"Point","coordinates":[71727,81125],"id":"feature_059"},{"properties":{"price":22000,"use":"\u798f\u4e95","zone":"","station":"\u5009\u5eab"},"type":"Point","coordinates":[74251,81110],"id":"feature_060"},{"properties":{"price":22900,"use":"\u798f\u4e95","zone":"","station":"\u5009\u5eab"},"type":"Point","coordinates":[76615,81014],"id":"feature_061"},{"properties":{"price":68100,"use":"\u6566\u8cc0","zone":"","station":"\u4f4f\u5b85"},"type":"Point","coordinates":[55033,24460],"id":"feature_062"},{"properties":{"price":46400,"use":"\u6566\u8cc0","zone":"","station":"\u4f4f\u5b85"},"type":"Point","coordinates":[53343,24401],"id":"feature_063"},{"properties":{"price":40800,"use":"\u6566\u8cc0","zone":"","station":"\u4f4f\u5b85"},"type":"Point","coordinates":[51661,22229],"id":"feature_064"},{"properties":{"price":26200,"use":"\u6566\u8cc0","zone":"","station":"\u4f4f\u5b85"},"type":"Point","coordinates":[50465,20868],"id":"feature_065"},{"properties":{"price":38400,"use":"\u6566\u8cc0","zone":"","station":"\u4f4f\u5b85"},"type":"Point","coordinates":[55125,26070],"id":"feature_066"},{"properties":{"price":79500,"use":"\u6566\u8cc0","zone":"","station":"\u5e97\u8217\u3001\u4e8b\u52d9\u6240\u517c\u4f4f\u5b85"},"type":"Point","coordinates":[54681,24562],"id":"feature_067"},{"properties":{"price":68200,"use":"\u6566\u8cc0","zone":"","station":"\u4e8b\u52d9\u6240"},"type":"Point","coordinates":[52971,24197],"id":"feature_068"},{"properties":{"price":49900,"use":"\u5c0f\u6d5c","zone":"","station":"\u4f4f\u5b85"},"type":"Point","coordinates":[21359,4092],"id":"feature_069"},{"properties":{"price":36200,"use":"\u5c0f\u6d5c","zone":"","station":"\u4f4f\u5b85"},"type":"Point","coordinates":[21223,5760],"id":"feature_070"},{"properties":{"price":31100,"use":"\u5c0f\u6d5c","zone":"","station":"\u4f4f\u5b85"},"type":"Point","coordinates":[22889,2903],"id":"feature_071"},{"properties":{"price":55800,"use":"\u5c0f\u6d5c","zone":"","station":"\u5e97\u8217\u517c\u4f4f\u5b85"},"type":"Point","coordinates":[20332,4285],"id":"feature_072"},{"properties":{"price":53600,"use":"\u5c0f\u6d5c","zone":"","station":"\u5e97\u8217\u517c\u5009\u5eab"},"type":"Point","coordinates":[22078,4337],"id":"feature_073"},{"properties":{"price":17000,"use":"\u5927\u91ce","zone":"","station":"\u4f4f\u5b85"},"type":"Point","coordinates":[99182,68318],"id":"feature_074"},{"properties":{"price":17500,"use":"\u5927\u91ce","zone":"","station":"\u4f4f\u5b85"},"type":"Point","coordinates":[98043,68688],"id":"feature_075"},{"properties":{"price":18100,"use":"\u5927\u91ce","zone":"","station":"\u4f4f\u5b85"},"type":"Point","coordinates":[99685,67047],"id":"feature_076"},{"properties":{"price":31400,"use":"\u5927\u91ce","zone":"","station":"\u5e97\u8217"},"type":"Point","coordinates":[98310,68465],"id":"feature_077"},{"properties":{"price":14400,"use":"\u52dd\u5c71","zone":"","station":"\u4f4f\u5b85"},"type":"Point","coordinates":[99397,79146],"id":"feature_078"},{"properties":{"price":15500,"use":"\u52dd\u5c71","zone":"","station":"\u4f4f\u5b85"},"type":"Point","coordinates":[99999,78753],"id":"feature_079"},{"properties":{"price":13500,"use":"\u52dd\u5c71","zone":"","station":"\u4f4f\u5b85"},"type":"Point","coordinates":[99899,77241],"id":"feature_080"},{"properties":{"price":27600,"use":"\u52dd\u5c71","zone":"","station":"\u5e97\u8217\u517c\u4f4f\u5b85"},"type":"Point","coordinates":[99574,78206],"id":"feature_081"},{"properties":{"price":19600,"use":"\u52dd\u5c71","zone":"","station":"\u8001\u4eba\u30db\u30fc\u30e0"},"type":"Point","coordinates":[97183,80187],"id":"feature_082"},{"properties":{"price":32500,"use":"\u9bd6\u6c5f","zone":"","station":"\u4f4f\u5b85"},"type":"Point","coordinates":[66366,62617],"id":"feature_083"},{"properties":{"price":34100,"use":"\u9bd6\u6c5f","zone":"","station":"\u4f4f\u5b85"},"type":"Point","coordinates":[66347,63725],"id":"feature_084"},{"properties":{"price":41100,"use":"\u9bd6\u6c5f","zone":"","station":"\u4f4f\u5b85"},"type":"Point","coordinates":[66652,66222],"id":"feature_085"},{"properties":{"price":37500,"use":"\u9bd6\u6c5f","zone":"","station":"\u4f4f\u5b85"},"type":"Point","coordinates":[66130,68001],"id":"feature_086"},{"properties":{"price":43000,"use":"\u9bd6\u6c5f","zone":"","station":"\u5e97\u8217\u517c\u4f4f\u5b85"},"type":"Point","coordinates":[66491,63283],"id":"feature_087"},{"properties":{"price":35700,"use":"\u9bd6\u6c5f","zone":"","station":"\u5e97\u8217\u517c\u4e8b\u52d9\u6240"},"type":"Point","coordinates":[65980,66819],"id":"feature_088"},{"properties":{"price":39800,"use":"\u9bd6\u6c5f","zone":"","station":"\u5e97\u8217\u517c\u4e8b\u52d9\u6240"},"type":"Point","coordinates":[65581,63963],"id":"feature_089"},{"properties":{"price":19400,"use":"\u3042\u308f\u3089","zone":"","station":"\u4f4f\u5b85"},"type":"Point","coordinates":[67856,99999],"id":"feature_090"},{"properties":{"price":15900,"use":"\u3042\u308f\u3089","zone":"","station":"\u4f4f\u5b85"},"type":"Point","coordinates":[66313,99293],"id":"feature_091"},{"properties":{"price":23100,"use":"\u3042\u308f\u3089","zone":"","station":"\u4f4f\u5b85"},"type":"Point","coordinates":[71351,98083],"id":"feature_092"},{"properties":{"price":23900,"use":"\u3042\u308f\u3089","zone":"","station":"\u4f4f\u5b85"},"type":"Point","coordinates":[70349,98647],"id":"feature_093"},{"properties":{"price":23000,"use":"\u3042\u308f\u3089","zone":"","station":"\u4f4f\u5b85"},"type":"Point","coordinates":[72084,98908],"id":"feature_094"},{"properties":{"price":41100,"use":"\u3042\u308f\u3089","zone":"","station":"\u5e97\u8217\u517c\u4f4f\u5b85"},"type":"Point","coordinates":[67233,99700],"id":"feature_095"},{"properties":{"price":37100,"use":"\u3042\u308f\u3089","zone":"","station":"\u5e97\u8217\u517c\u4f4f\u5b85"},"type":"Point","coordinates":[71543,98405],"id":"feature_096"},{"properties":{"price":38200,"use":"\u798f\u4e95\u8d8a\u524d","zone":"","station":"\u4f4f\u5b85"},"type":"Point","coordinates":[64065,56327],"id":"feature_097"},{"properties":{"price":36200,"use":"\u798f\u4e95\u8d8a\u524d","zone":"","station":"\u4f4f\u5b85"},"type":"Point","coordinates":[63783,57848],"id":"feature_098"},{"properties":{"price":15000,"use":"\u798f\u4e95\u8d8a\u524d","zone":"","station":"\u4f4f\u5b85"},"type":"Point","coordinates":[72790,60518],"id":"feature_099"},{"properties":{"price":36500,"use":"\u798f\u4e95\u8d8a\u524d","zone":"","station":"\u4f4f\u5b85"},"type":"Point","coordinates":[64145,59008],"id":"feature_100"},{"properties":{"price":35600,"use":"\u798f\u4e95\u8d8a\u524d","zone":"","station":"\u4f4f\u5b85"},"type":"Point","coordinates":[62887,57119],"id":"feature_101"},{"properties":{"price":22700,"use":"\u798f\u4e95\u8d8a\u524d","zone":"","station":"\u4f4f\u5b85"},"type":"Point","coordinates":[72550,58590],"id":"feature_102"},{"properties":{"price":59700,"use":"\u798f\u4e95\u8d8a\u524d","zone":"","station":"\u5e97\u8217"},"type":"Point","coordinates":[64902,57846],"id":"feature_103"},{"properties":{"price":37900,"use":"\u798f\u4e95\u8d8a\u524d","zone":"","station":"\u5e97\u8217\u517c\u4f4f\u5b85"},"type":"Point","coordinates":[64471,57974],"id":"feature_104"},{"properties":{"price":25200,"use":"\u798f\u4e95\u8d8a\u524d","zone":"","station":"\u5e97\u8217\u517c\u4f4f\u5b85"},"type":"Point","coordinates":[72144,59573],"id":"feature_105"},{"properties":{"price":45000,"use":"\u798f\u4e95\u8d8a\u524d","zone":"","station":"\u5e97\u8217"},"type":"Point","coordinates":[67192,57652],"id":"feature_106"},{"properties":{"price":17300,"use":"\u5742\u4e95","zone":"","station":"\u4f4f\u5b85"},"type":"Point","coordinates":[62297,98814],"id":"feature_107"},{"properties":{"price":21800,"use":"\u5742\u4e95","zone":"","station":"\u4f4f\u5b85"},"type":"Point","coordinates":[62009,99587],"id":"feature_108"},{"properties":{"price":24800,"use":"\u5742\u4e95","zone":"","station":"\u4f4f\u5b85"},"type":"Point","coordinates":[76081,90947],"id":"feature_109"},{"properties":{"price":30700,"use":"\u5742\u4e95","zone":"","station":"\u4f4f\u5b85"},"type":"Point","coordinates":[75101,89177],"id":"feature_110"},{"properties":{"price":34700,"use":"\u5742\u4e95","zone":"","station":"\u4f4f\u5b85"},"type":"Point","coordinates":[70313,87266],"id":"feature_111"},{"properties":{"price":32900,"use":"\u5742\u4e95","zone":"","station":"\u4f4f\u5b85"},"type":"Point","coordinates":[70524,86595],"id":"feature_112"},{"properties":{"price":28900,"use":"\u5742\u4e95","zone":"","station":"\u4f4f\u5b85"},"type":"Point","coordinates":[71956,91273],"id":"feature_113"},{"properties":{"price":28400,"use":"\u5742\u4e95","zone":"","station":"\u5e97\u8217\u517c\u4f4f\u5b85"},"type":"Point","coordinates":[62782,98645],"id":"feature_114"},{"properties":{"price":29000,"use":"\u5742\u4e95","zone":"","station":"\u5e97\u8217\u517c\u4f4f\u5b85"},"type":"Point","coordinates":[75358,89982],"id":"feature_115"},{"properties":{"price":33800,"use":"\u5742\u4e95","zone":"","station":"\u4e8b\u52d9\u6240\u517c\u4f4f\u5b85"},"type":"Point","coordinates":[70923,87023],"id":"feature_116"},{"properties":{"price":29000,"use":"\u5742\u4e95","zone":"","station":"\u5e97\u8217\u517c\u4f4f\u5b85"},"type":"Point","coordinates":[71698,91601],"id":"feature_117"},{"properties":{"price":43900,"use":"\u6c38\u5e73\u5bfa","zone":"","station":"\u4f4f\u5b85"},"type":"Point","coordinates":[77526,82661],"id":"feature_118"},{"properties":{"price":34200,"use":"\u6c38\u5e73\u5bfa","zone":"","station":"\u4f4f\u5b85"},"type":"Point","coordinates":[77758,82286],"id":"feature_119"},{"properties":{"price":34200,"use":"\u6c38\u5e73\u5bfa","zone":"","station":"\u5e97\u8217\u517c\u4f4f\u5b85"},"type":"Point","coordinates":[78633,82588],"id":"feature_120"},{"properties":{"price":27400,"use":"\u8d8a\u524d","zone":"","station":"\u4f4f\u5b85"},"type":"Point","coordinates":[61219,67189],"id":"feature_121"},{"properties":{"price":14800,"use":"\u8d8a\u524d","zone":"","station":"\u4f4f\u5b85"},"type":"Point","coordinates":[52807,64649],"id":"feature_122"},{"properties":{"price":8500,"use":"\u8d8a\u524d","zone":"","station":"\u4f4f\u5b85"},"type":"Point","coordinates":[54855,63084],"id":"feature_123"},{"properties":{"price":27100,"use":"\u8d8a\u524d","zone":"","station":"\u5e97\u8217\u517c\u4f4f\u5b85"},"type":"Point","coordinates":[60950,67341],"id":"feature_124"},{"properties":{"price":14300,"use":"\u798f\u4e95\u7f8e\u6d5c","zone":"","station":"\u4f4f\u5b85"},"type":"Point","coordinates":[41289,18436],"id":"feature_125"},{"properties":{"price":15600,"use":"\u798f\u4e95\u7f8e\u6d5c","zone":"","station":"\u4f4f\u5b85"},"type":"Point","coordinates":[38600,19252],"id":"feature_126"},{"properties":{"price":24000,"use":"\u798f\u4e95\u7f8e\u6d5c","zone":"","station":"\u5e97\u8217\u517c\u4f4f\u5b85"},"type":"Point","coordinates":[40592,18762],"id":"feature_127"},{"properties":{"price":41500,"use":"\u798f\u4e95\u9ad8\u6d5c","zone":"","station":"\u4f4f\u5b85"},"type":"Point","coordinates":[139,3852],"id":"feature_128"},{"properties":{"price":27500,"use":"\u798f\u4e95\u9ad8\u6d5c","zone":"","station":"\u4f4f\u5b85"},"type":"Point","coordinates":[2709,3759],"id":"feature_129"},{"properties":{"price":46300,"use":"\u798f\u4e95\u9ad8\u6d5c","zone":"","station":"\u5e97\u8217"},"type":"Point","coordinates":[0,3770],"id":"feature_130"},{"properties":{"price":22600,"use":"\u82e5\u72ed","zone":"","station":"\u4f4f\u5b85"},"type":"Point","coordinates":[37579,12375],"id":"feature_131"},{"properties":{"price":17700,"use":"\u82e5\u72ed","zone":"","station":"\u4f4f\u5b85"},"type":"Point","coordinates":[32374,0],"id":"feature_132"},{"properties":{"price":22400,"use":"\u82e5\u72ed","zone":"","station":"\u4e8b\u52d9\u6240"},"type":"Point","coordinates":[37503,11718],"id":"feature_133"},{"properties":{"price":22600,"use":"\u82e5\u72ed","zone":"","station":"\u5e97\u8217\u517c\u4f4f\u5b85"},"type":"Point","coordinates":[32052,333],"id":"feature_134"}],"type":"GeometryCollection"}},"bbox":[135.5486,35.46077,136.50587,36.22688],"transform":{"scale":[9.57279572795722e-06,7.661176611766165e-06],"translate":[135.5486,35.46077]},"arcs":[]}