{"type":"Topology","objects":{"data":{"geometries":[{"properties":{"price":62400,"use":"\u5927\u6d25","zone":"","station":"\u4f4f\u5b85"},"type":"Point","coordinates":[14334,37661],"id":"feature_000"},{"properties":{"price":97000,"use":"\u5927\u6d25","zone":"","station":"\u4f4f\u5b85"},"type":"Point","coordinates":[14960,39848],"id":"feature_001"},{"properties":{"price":41400,"use":"\u5927\u6d25","zone":"","station":"\u4f4f\u5b85"},"type":"Point","coordinates":[12338,35851],"id":"feature_002"},{"properties":{"price":77300,"use":"\u5927\u6d25","zone":"","station":"\u4f4f\u5b85"},"type":"Point","coordinates":[8163,32371],"id":"feature_003"},{"properties":{"price":16100,"use":"\u5927\u6d25","zone":"","station":"\u4f4f\u5b85"},"type":"Point","coordinates":[25002,59873],"id":"feature_004"},{"properties":{"price":86200,"use":"\u5927\u6d25","zone":"","station":"\u4f4f\u5b85"},"type":"Point","coordinates":[7629,28953],"id":"feature_005"},{"properties":{"price":96400,"use":"\u5927\u6d25","zone":"","station":"\u4f4f\u5b85"},"type":"Point","coordinates":[4541,25861],"id":"feature_006"},{"properties":{"price":97500,"use":"\u5927\u6d25","zone":"","station":"\u4f4f\u5b85"},"type":"Point","coordinates":[5678,26094],"id":"feature_007"},{"properties":{"price":72500,"use":"\u5927\u6d25","zone":"","station":"\u4f4f\u5b85"},"type":"Point","coordinates":[5167,23879],"id":"feature_008"},{"properties":{"price":116000,"use":"\u5927\u6d25","zone":"","station":"\u4f4f\u5b85"},"type":"Point","coordinates":[18869,17927],"id":"feature_009"},{"properties":{"price":98900,"use":"\u5927\u6d25","zone":"","station":"\u4f4f\u5b85"},"type":"Point","coordinates":[0,19479],"id":"feature_010"},{"properties":{"price":49000,"use":"\u5927\u6d25","zone":"","station":"\u4f4f\u5b85"},"type":"Point","coordinates":[15614,37923],"id":"feature_011"},{"properties":{"price":119000,"use":"\u5927\u6d25","zone":"","station":"\u4f4f\u5b85"},"type":"Point","coordinates":[7841,19985],"id":"feature_012"},{"properties":{"price":175000,"use":"\u5927\u6d25","zone":"","station":"\u4f4f\u5b85"},"type":"Point","coordinates":[6926,21257],"id":"feature_013"},{"properties":{"price":104000,"use":"\u5927\u6d25","zone":"","station":"\u7a7a\u5730"},"type":"Point","coordinates":[4585,22146],"id":"feature_014"},{"properties":{"price":153000,"use":"\u5927\u6d25","zone":"","station":"\u4f4f\u5b85"},"type":"Point","coordinates":[6793,20923],"id":"feature_015"},{"properties":{"price":84400,"use":"\u5927\u6d25","zone":"","station":"\u4f4f\u5b85"},"type":"Point","coordinates":[8699,19081],"id":"feature_016"},{"properties":{"price":118000,"use":"\u5927\u6d25","zone":"","station":"\u4f4f\u5b85"},"type":"Point","coordinates":[14494,18305],"id":"feature_017"},{"properties":{"price":45700,"use":"\u5927\u6d25","zone":"","station":"\u4f4f\u5b85"},"type":"Point","coordinates":[15301,43297],"id":"feature_018"},{"properties":{"price":52000,"use":"\u5927\u6d25","zone":"","station":"\u4f4f\u5b85"},"type":"Point","coordinates":[10742,14154],"id":"feature_019"},{"properties":{"price":61600,"use":"\u5927\u6d25","zone":"","station":"\u4f4f\u5b85"},"type":"Point","coordinates":[12935,11624],"id":"feature_020"},{"properties":{"price":56600,"use":"\u5927\u6d25","zone":"","station":"\u4f4f\u5b85"},"type":"Point","coordinates":[12886,12497],"id":"feature_021"},{"properties":{"price":85400,"use":"\u5927\u6d25","zone":"","station":"\u4f4f\u5b85"},"type":"Point","coordinates":[13599,16230],"id":"feature_022"},{"properties":{"price":93100,"use":"\u5927\u6d25","zone":"","station":"\u4f4f\u5b85"},"type":"Point","coordinates":[14227,15472],"id":"feature_023"},{"properties":{"price":107000,"use":"\u5927\u6d25","zone":"","station":"\u4f4f\u5b85"},"type":"Point","coordinates":[17262,18241],"id":"feature_024"},{"properties":{"price":45400,"use":"\u5927\u6d25","zone":"","station":"\u4f4f\u5b85"},"type":"Point","coordinates":[15108,12078],"id":"feature_025"},{"properties":{"price":123000,"use":"\u5927\u6d25","zone":"","station":"\u4f4f\u5b85"},"type":"Point","coordinates":[15166,18921],"id":"feature_026"},{"properties":{"price":44200,"use":"\u5927\u6d25","zone":"","station":"\u4f4f\u5b85"},"type":"Point","coordinates":[18198,10529],"id":"feature_027"},{"properties":{"price":89500,"use":"\u5927\u6d25","zone":"","station":"\u4f4f\u5b85"},"type":"Point","coordinates":[11443,15723],"id":"feature_028"},{"properties":{"price":99100,"use":"\u5927\u6d25","zone":"","station":"\u4f4f\u5b85"},"type":"Point","coordinates":[14180,17009],"id":"feature_029"},{"properties":{"price":98000,"use":"\u5927\u6d25","zone":"","station":"\u4f4f\u5b85"},"type":"Point","coordinates":[25019,16938],"id":"feature_030"},{"properties":{"price":96400,"use":"\u5927\u6d25","zone":"","station":"\u4f4f\u5b85"},"type":"Point","coordinates":[10789,18208],"id":"feature_031"},{"properties":{"price":81500,"use":"\u5927\u6d25","zone":"","station":"\u4f4f\u5b85"},"type":"Point","coordinates":[11361,36282],"id":"feature_032"},{"properties":{"price":19600,"use":"\u5927\u6d25","zone":"","station":"\u4f4f\u5b85"},"type":"Point","coordinates":[16007,52135],"id":"feature_033"},{"properties":{"price":50500,"use":"\u5927\u6d25","zone":"","station":"\u4f4f\u5b85"},"type":"Point","coordinates":[8003,29350],"id":"feature_034"},{"properties":{"price":61500,"use":"\u5927\u6d25","zone":"","station":"\u4f4f\u5b85"},"type":"Point","coordinates":[1464,20231],"id":"feature_035"},{"properties":{"price":74900,"use":"\u5927\u6d25","zone":"","station":"\u4f4f\u5b85"},"type":"Point","coordinates":[12803,15939],"id":"feature_036"},{"properties":{"price":70300,"use":"\u5927\u6d25","zone":"","station":"\u4f4f\u5b85"},"type":"Point","coordinates":[10990,37861],"id":"feature_037"},{"properties":{"price":23800,"use":"\u5927\u6d25","zone":"","station":"\u4f4f\u5b85"},"type":"Point","coordinates":[616,25310],"id":"feature_038"},{"properties":{"price":154000,"use":"\u5927\u6d25","zone":"","station":"\u4f4f\u5b85"},"type":"Point","coordinates":[7986,21177],"id":"feature_039"},{"properties":{"price":69300,"use":"\u5927\u6d25","zone":"","station":"\u4f4f\u5b85"},"type":"Point","coordinates":[3188,24809],"id":"feature_040"},{"properties":{"price":65700,"use":"\u5927\u6d25","zone":"","station":"\u4f4f\u5b85"},"type":"Point","coordinates":[14332,14557],"id":"feature_041"},{"properties":{"price":87200,"use":"\u5927\u6d25","zone":"","station":"\u4f4f\u5b85"},"type":"Point","coordinates":[14897,16111],"id":"feature_042"},{"properties":{"price":155000,"use":"\u5927\u6d25","zone":"","station":"\u4f4f\u5b85"},"type":"Point","coordinates":[6237,21747],"id":"feature_043"},{"properties":{"price":31500,"use":"\u5927\u6d25","zone":"","station":"\u4f4f\u5b85"},"type":"Point","coordinates":[12963,10399],"id":"feature_044"},{"properties":{"price":35800,"use":"\u5927\u6d25","zone":"","station":"\u4f4f\u5b85"},"type":"Point","coordinates":[15769,45523],"id":"feature_045"},{"properties":{"price":253000,"use":"\u5927\u6d25","zone":"","station":"\u5171\u540c\u4f4f\u5b85"},"type":"Point","coordinates":[5826,21871],"id":"feature_046"},{"properties":{"price":115000,"use":"\u5927\u6d25","zone":"","station":"\u4f4f\u5b85"},"type":"Point","coordinates":[18345,16554],"id":"feature_047"},{"properties":{"price":17800,"use":"\u5927\u6d25","zone":"","station":"\u4f4f\u5b85"},"type":"Point","coordinates":[8217,42923],"id":"feature_048"},{"properties":{"price":19800,"use":"\u5927\u6d25","zone":"","station":"\u4f4f\u5b85"},"type":"Point","coordinates":[9381,34790],"id":"feature_049"},{"properties":{"price":27000,"use":"\u5927\u6d25","zone":"","station":"\u4f4f\u5b85"},"type":"Point","coordinates":[11251,41794],"id":"feature_050"},{"properties":{"price":23300,"use":"\u5927\u6d25","zone":"","station":"\u4f4f\u5b85"},"type":"Point","coordinates":[10845,12230],"id":"feature_051"},{"properties":{"price":22400,"use":"\u5927\u6d25","zone":"","station":"\u4f4f\u5b85"},"type":"Point","coordinates":[16357,10096],"id":"feature_052"},{"properties":{"price":23100,"use":"\u5927\u6d25","zone":"","station":"\u4f4f\u5b85"},"type":"Point","coordinates":[22591,14572],"id":"feature_053"},{"properties":{"price":41900,"use":"\u5927\u6d25","zone":"","station":"\u4f4f\u5b85"},"type":"Point","coordinates":[4102,19881],"id":"feature_054"},{"properties":{"price":31100,"use":"\u5927\u6d25","zone":"","station":"\u4f4f\u5b85"},"type":"Point","coordinates":[15391,45949],"id":"feature_055"},{"properties":{"price":99700,"use":"\u5927\u6d25","zone":"","station":"\u4f4f\u5b85"},"type":"Point","coordinates":[6264,28464],"id":"feature_056"},{"properties":{"price":93100,"use":"\u5927\u6d25","zone":"","station":"\u4f4f\u5b85"},"type":"Point","coordinates":[14087,38903],"id":"feature_057"},{"properties":{"price":91800,"use":"\u5927\u6d25","zone":"","station":"\u5e97\u8217"},"type":"Point","coordinates":[15622,39326],"id":"feature_058"},{"properties":{"price":227000,"use":"\u5927\u6d25","zone":"","station":"\u4e8b\u52d9\u6240\u517c\u4f4f\u5b85"},"type":"Point","coordinates":[6592,21883],"id":"feature_059"},{"properties":{"price":128000,"use":"\u5927\u6d25","zone":"","station":"\u5e97\u8217"},"type":"Point","coordinates":[6001,24924],"id":"feature_060"},{"properties":{"price":107000,"use":"\u5927\u6d25","zone":"","station":"\u5e97\u8217\u517c\u4f4f\u5b85"},"type":"Point","coordinates":[6181,28340],"id":"feature_061"},{"properties":{"price":68500,"use":"\u5927\u6d25","zone":"","station":"\u5e97\u8217"},"type":"Point","coordinates":[16483,41637],"id":"feature_062"},{"properties":{"price":366000,"use":"\u5927\u6d25","zone":"","station":"\u4e8b\u52d9\u6240"},"type":"Point","coordinates":[6279,21327],"id":"feature_063"},{"properties":{"price":270000,"use":"\u5927\u6d25","zone":"","station":"\u9280\u884c"},"type":"Point","coordinates":[16633,18590],"id":"feature_064"},{"properties":{"price":112000,"use":"\u5927\u6d25","zone":"","station":"\u55b6\u696d\u6240"},"type":"Point","coordinates":[9252,20097],"id":"feature_065"},{"properties":{"price":209000,"use":"\u5927\u6d25","zone":"","station":"\u4e8b\u52d9\u6240"},"type":"Point","coordinates":[7152,21456],"id":"feature_066"},{"properties":{"price":183000,"use":"\u5927\u6d25","zone":"","station":"\u4e8b\u52d9\u6240"},"type":"Point","coordinates":[4852,24373],"id":"feature_067"},{"properties":{"price":270000,"use":"\u5927\u6d25","zone":"","station":"\u5e97\u8217\u517c\u5171\u540c\u4f4f\u5b85"},"type":"Point","coordinates":[8906,21579],"id":"feature_068"},{"properties":{"price":59900,"use":"\u5927\u6d25","zone":"","station":"\u5e97\u8217\u517c\u5171\u540c\u4f4f\u5b85"},"type":"Point","coordinates":[16283,45911],"id":"feature_069"},{"properties":{"price":62000,"use":"\u5927\u6d25","zone":"","station":"\u5e97\u8217"},"type":"Point","coordinates":[12889,36657],"id":"feature_070"},{"properties":{"price":265000,"use":"\u5927\u6d25","zone":"","station":"\u5e97\u8217\u517c\u4f4f\u5b85"},"type":"Point","coordinates":[12504,17511],"id":"feature_071"},{"properties":{"price":160000,"use":"\u5927\u6d25","zone":"","station":"\u9280\u884c"},"type":"Point","coordinates":[16551,18303],"id":"feature_072"},{"properties":{"price":98500,"use":"\u5927\u6d25","zone":"","station":"\u9280\u884c"},"type":"Point","coordinates":[13916,16511],"id":"feature_073"},{"properties":{"price":158000,"use":"\u5927\u6d25","zone":"","station":"\u5e97\u8217\u517c\u5171\u540c\u4f4f\u5b85"},"type":"Point","coordinates":[13052,17503],"id":"feature_074"},{"properties":{"price":264000,"use":"\u5927\u6d25","zone":"","station":"\u5e97\u8217\u517c\u4f4f\u5b85"},"type":"Point","coordinates":[8932,20754],"id":"feature_075"},{"properties":{"price":107000,"use":"\u5927\u6d25","zone":"","station":"\u5e97\u8217\u517c\u5de5\u5834"},"type":"Point","coordinates":[15825,19876],"id":"feature_076"},{"properties":{"price":121000,"use":"\u5927\u6d25","zone":"","station":"\u5e97\u8217"},"type":"Point","coordinates":[5405,22185],"id":"feature_077"},{"properties":{"price":169000,"use":"\u5927\u6d25","zone":"","station":"\u5e97\u8217\u517c\u5171\u540c\u4f4f\u5b85"},"type":"Point","coordinates":[12566,17160],"id":"feature_078"},{"properties":{"price":137000,"use":"\u5927\u6d25","zone":"","station":"\u5e97\u8217"},"type":"Point","coordinates":[13833,18589],"id":"feature_079"},{"properties":{"price":55100,"use":"\u5927\u6d25","zone":"","station":"\u5de5\u5834"},"type":"Point","coordinates":[11760,17876],"id":"feature_080"},{"properties":{"price":29800,"use":"\u5927\u6d25","zone":"","station":"\u5de5\u5834"},"type":"Point","coordinates":[16771,10150],"id":"feature_081"},{"properties":{"price":49700,"use":"\u5f66\u6839","zone":"","station":"\u4f4f\u5b85"},"type":"Point","coordinates":[64813,52718],"id":"feature_082"},{"properties":{"price":52500,"use":"\u5f66\u6839","zone":"","station":"\u4f4f\u5b85"},"type":"Point","coordinates":[68121,56231],"id":"feature_083"},{"properties":{"price":54300,"use":"\u5f66\u6839","zone":"","station":"\u4f4f\u5b85"},"type":"Point","coordinates":[73327,63158],"id":"feature_084"},{"properties":{"price":33700,"use":"\u5f66\u6839","zone":"","station":"\u4f4f\u5b85"},"type":"Point","coordinates":[77849,59384],"id":"feature_085"},{"properties":{"price":43600,"use":"\u5f66\u6839","zone":"","station":"\u4f4f\u5b85"},"type":"Point","coordinates":[73241,64854],"id":"feature_086"},{"properties":{"price":70900,"use":"\u5f66\u6839","zone":"","station":"\u4f4f\u5b85"},"type":"Point","coordinates":[72813,59035],"id":"feature_087"},{"properties":{"price":34700,"use":"\u5f66\u6839","zone":"","station":"\u4f4f\u5b85"},"type":"Point","coordinates":[74556,56876],"id":"feature_088"},{"properties":{"price":37800,"use":"\u5f66\u6839","zone":"","station":"\u4f4f\u5b85"},"type":"Point","coordinates":[75415,59872],"id":"feature_089"},{"properties":{"price":53400,"use":"\u5f66\u6839","zone":"","station":"\u4f4f\u5b85"},"type":"Point","coordinates":[69270,55374],"id":"feature_090"},{"properties":{"price":32500,"use":"\u5f66\u6839","zone":"","station":"\u4f4f\u5b85"},"type":"Point","coordinates":[79912,64196],"id":"feature_091"},{"properties":{"price":43200,"use":"\u5f66\u6839","zone":"","station":"\u4f4f\u5b85"},"type":"Point","coordinates":[73238,59561],"id":"feature_092"},{"properties":{"price":22400,"use":"\u5f66\u6839","zone":"","station":"\u4f4f\u5b85"},"type":"Point","coordinates":[79272,64367],"id":"feature_093"},{"properties":{"price":53400,"use":"\u5f66\u6839","zone":"","station":"\u4f4f\u5b85"},"type":"Point","coordinates":[72166,60487],"id":"feature_094"},{"properties":{"price":27700,"use":"\u5f66\u6839","zone":"","station":"\u4f4f\u5b85"},"type":"Point","coordinates":[70585,55683],"id":"feature_095"},{"properties":{"price":54400,"use":"\u5f66\u6839","zone":"","station":"\u4f4f\u5b85"},"type":"Point","coordinates":[71449,61961],"id":"feature_096"},{"properties":{"price":13500,"use":"\u5f66\u6839","zone":"","station":"\u4f4f\u5b85"},"type":"Point","coordinates":[59824,55919],"id":"feature_097"},{"properties":{"price":12300,"use":"\u5f66\u6839","zone":"","station":"\u4f4f\u5b85"},"type":"Point","coordinates":[78344,65881],"id":"feature_098"},{"properties":{"price":30400,"use":"\u5f66\u6839","zone":"","station":"\u4f4f\u5b85"},"type":"Point","coordinates":[69020,60462],"id":"feature_099"},{"properties":{"price":74400,"use":"\u5f66\u6839","zone":"","station":"\u4e8b\u52d9\u6240"},"type":"Point","coordinates":[75613,63304],"id":"feature_100"},{"properties":{"price":68700,"use":"\u5f66\u6839","zone":"","station":"\u5e97\u8217\u517c\u4e8b\u52d9\u6240"},"type":"Point","coordinates":[73082,59212],"id":"feature_101"},{"properties":{"price":125000,"use":"\u5f66\u6839","zone":"","station":"\u5e97\u8217"},"type":"Point","coordinates":[75588,63011],"id":"feature_102"},{"properties":{"price":89500,"use":"\u5f66\u6839","zone":"","station":"\u5e97\u8217"},"type":"Point","coordinates":[73747,62843],"id":"feature_103"},{"properties":{"price":90500,"use":"\u5f66\u6839","zone":"","station":"\u5e97\u8217"},"type":"Point","coordinates":[71804,61448],"id":"feature_104"},{"properties":{"price":64100,"use":"\u5f66\u6839","zone":"","station":"\u5e97\u8217"},"type":"Point","coordinates":[74329,62727],"id":"feature_105"},{"properties":{"price":57900,"use":"\u5f66\u6839","zone":"","station":"\u5e97\u8217\u517c\u4f4f\u5b85"},"type":"Point","coordinates":[64051,52430],"id":"feature_106"},{"properties":{"price":64300,"use":"\u5f66\u6839","zone":"","station":"\u5e97\u8217"},"type":"Point","coordinates":[76263,61148],"id":"feature_107"},{"properties":{"price":48800,"use":"\u5f66\u6839","zone":"","station":"\u4e8b\u52d9\u6240\u517c\u4f4f\u5b85"},"type":"Point","coordinates":[74205,57758],"id":"feature_108"},{"properties":{"price":120000,"use":"\u5f66\u6839","zone":"","station":"\u30db\u30c6\u30eb\u517c\u5e97\u8217"},"type":"Point","coordinates":[76107,63011],"id":"feature_109"},{"properties":{"price":21000,"use":"\u5f66\u6839","zone":"","station":"\u5de5\u5834"},"type":"Point","coordinates":[68452,54923],"id":"feature_110"},{"properties":{"price":27900,"use":"\u5f66\u6839","zone":"","station":"\u5de5\u5834"},"type":"Point","coordinates":[77391,56099],"id":"feature_111"},{"properties":{"price":38100,"use":"\u5f66\u6839","zone":"","station":"\u5de5\u5834"},"type":"Point","coordinates":[71211,61332],"id":"feature_112"},{"properties":{"price":54300,"use":"\u9577\u6d5c","zone":"","station":"\u4f4f\u5b85"},"type":"Point","coordinates":[77384,82660],"id":"feature_113"},{"properties":{"price":19500,"use":"\u9577\u6d5c","zone":"","station":"\u4f4f\u5b85"},"type":"Point","coordinates":[69207,98951],"id":"feature_114"},{"properties":{"price":38000,"use":"\u9577\u6d5c","zone":"","station":"\u4f4f\u5b85"},"type":"Point","coordinates":[77791,77748],"id":"feature_115"},{"properties":{"price":59500,"use":"\u9577\u6d5c","zone":"","station":"\u4f4f\u5b85"},"type":"Point","coordinates":[80185,80090],"id":"feature_116"},{"properties":{"price":66700,"use":"\u9577\u6d5c","zone":"","station":"\u4f4f\u5b85"},"type":"Point","coordinates":[77164,79340],"id":"feature_117"},{"properties":{"price":46000,"use":"\u9577\u6d5c","zone":"","station":"\u4f4f\u5b85"},"type":"Point","coordinates":[73532,80921],"id":"feature_118"},{"properties":{"price":51800,"use":"\u9577\u6d5c","zone":"","station":"\u4f4f\u5b85"},"type":"Point","coordinates":[75044,80798],"id":"feature_119"},{"properties":{"price":29800,"use":"\u9577\u6d5c","zone":"","station":"\u4f4f\u5b85"},"type":"Point","coordinates":[82208,88227],"id":"feature_120"},{"properties":{"price":11400,"use":"\u9577\u6d5c","zone":"","station":"\u4f4f\u5b85"},"type":"Point","coordinates":[74403,85661],"id":"feature_121"},{"properties":{"price":13600,"use":"\u9577\u6d5c","zone":"","station":"\u4f4f\u5b85"},"type":"Point","coordinates":[77204,87246],"id":"feature_122"},{"properties":{"price":11400,"use":"\u9577\u6d5c","zone":"","station":"\u4f4f\u5b85"},"type":"Point","coordinates":[67078,99999],"id":"feature_123"},{"properties":{"price":13300,"use":"\u9577\u6d5c","zone":"","station":"\u4f4f\u5b85"},"type":"Point","coordinates":[73778,90069],"id":"feature_124"},{"properties":{"price":24900,"use":"\u9577\u6d5c","zone":"","station":"\u4f4f\u5b85"},"type":"Point","coordinates":[71143,93006],"id":"feature_125"},{"properties":{"price":10200,"use":"\u9577\u6d5c","zone":"","station":"\u4f4f\u5b85"},"type":"Point","coordinates":[73478,93592],"id":"feature_126"},{"properties":{"price":13800,"use":"\u9577\u6d5c","zone":"","station":"\u4f4f\u5b85"},"type":"Point","coordinates":[76454,83602],"id":"feature_127"},{"properties":{"price":19500,"use":"\u9577\u6d5c","zone":"","station":"\u4f4f\u5b85"},"type":"Point","coordinates":[84018,80876],"id":"feature_128"},{"properties":{"price":10000,"use":"\u9577\u6d5c","zone":"","station":"\u4f4f\u5b85"},"type":"Point","coordinates":[68483,85132],"id":"feature_129"},{"properties":{"price":24900,"use":"\u9577\u6d5c","zone":"","station":"\u4f4f\u5b85"},"type":"Point","coordinates":[73357,83415],"id":"feature_130"},{"properties":{"price":10200,"use":"\u9577\u6d5c","zone":"","station":"\u4f4f\u5b85"},"type":"Point","coordinates":[76057,84888],"id":"feature_131"},{"properties":{"price":120000,"use":"\u9577\u6d5c","zone":"","station":"\u5e97\u8217"},"type":"Point","coordinates":[76246,79692],"id":"feature_132"},{"properties":{"price":79000,"use":"\u9577\u6d5c","zone":"","station":"\u5e97\u8217\u517c\u4f4f\u5b85"},"type":"Point","coordinates":[76947,79854],"id":"feature_133"},{"properties":{"price":87200,"use":"\u9577\u6d5c","zone":"","station":"\u5e97\u8217\u517c\u4f4f\u5b85"},"type":"Point","coordinates":[77597,79896],"id":"feature_134"},{"properties":{"price":30800,"use":"\u9577\u6d5c","zone":"","station":"\u5e97\u8217"},"type":"Point","coordinates":[68457,99097],"id":"feature_135"},{"properties":{"price":30000,"use":"\u9577\u6d5c","zone":"","station":"\u9280\u884c"},"type":"Point","coordinates":[81761,87244],"id":"feature_136"},{"properties":{"price":23800,"use":"\u9577\u6d5c","zone":"","station":"\u5e97\u8217\u517c\u4f4f\u5b85"},"type":"Point","coordinates":[74903,86634],"id":"feature_137"},{"properties":{"price":60500,"use":"\u9577\u6d5c","zone":"","station":"\u5e97\u8217"},"type":"Point","coordinates":[76800,81603],"id":"feature_138"},{"properties":{"price":31500,"use":"\u9577\u6d5c","zone":"","station":"\u5e97\u8217\u517c\u4f4f\u5b85"},"type":"Point","coordinates":[70655,93553],"id":"feature_139"},{"properties":{"price":52400,"use":"\u9577\u6d5c","zone":"","station":"\u5e97\u8217\u517c\u4f4f\u5b85"},"type":"Point","coordinates":[76929,80461],"id":"feature_140"},{"properties":{"price":15700,"use":"\u9577\u6d5c","zone":"","station":"\u5009\u5eab"},"type":"Point","coordinates":[71496,92851],"id":"feature_141"},{"properties":{"price":93500,"use":"\u8fd1\u6c5f\u516b\u5e61","zone":"","station":"\u4f4f\u5b85\u517c\u4e8b\u52d9\u6240"},"type":"Point","coordinates":[46340,40320],"id":"feature_142"},{"properties":{"price":54300,"use":"\u8fd1\u6c5f\u516b\u5e61","zone":"","station":"\u4f4f\u5b85"},"type":"Point","coordinates":[42530,37710],"id":"feature_143"},{"properties":{"price":71600,"use":"\u8fd1\u6c5f\u516b\u5e61","zone":"","station":"\u4f4f\u5b85"},"type":"Point","coordinates":[45283,38658],"id":"feature_144"},{"properties":{"price":30700,"use":"\u8fd1\u6c5f\u516b\u5e61","zone":"","station":"\u4f4f\u5b85"},"type":"Point","coordinates":[39951,38941],"id":"feature_145"},{"properties":{"price":38200,"use":"\u8fd1\u6c5f\u516b\u5e61","zone":"","station":"\u4f4f\u5b85"},"type":"Point","coordinates":[46225,42328],"id":"feature_146"},{"properties":{"price":42600,"use":"\u8fd1\u6c5f\u516b\u5e61","zone":"","station":"\u4f4f\u5b85"},"type":"Point","coordinates":[45375,42957],"id":"feature_147"},{"properties":{"price":99900,"use":"\u8fd1\u6c5f\u516b\u5e61","zone":"","station":"\u4f4f\u5b85"},"type":"Point","coordinates":[47143,40621],"id":"feature_148"},{"properties":{"price":54100,"use":"\u8fd1\u6c5f\u516b\u5e61","zone":"","station":"\u4f4f\u5b85"},"type":"Point","coordinates":[52597,43771],"id":"feature_149"},{"properties":{"price":25800,"use":"\u8fd1\u6c5f\u516b\u5e61","zone":"","station":"\u4f4f\u5b85"},"type":"Point","coordinates":[52623,44431],"id":"feature_150"},{"properties":{"price":37600,"use":"\u8fd1\u6c5f\u516b\u5e61","zone":"","station":"\u4f4f\u5b85"},"type":"Point","coordinates":[43163,42699],"id":"feature_151"},{"properties":{"price":15800,"use":"\u8fd1\u6c5f\u516b\u5e61","zone":"","station":"\u4f4f\u5b85"},"type":"Point","coordinates":[53260,41722],"id":"feature_152"},{"properties":{"price":164000,"use":"\u8fd1\u6c5f\u516b\u5e61","zone":"","station":"\u5e97\u8217\u517c\u4e8b\u52d9\u6240"},"type":"Point","coordinates":[47678,39953],"id":"feature_153"},{"properties":{"price":125000,"use":"\u8fd1\u6c5f\u516b\u5e61","zone":"","station":"\u5e97\u8217\u517c\u4e8b\u52d9\u6240"},"type":"Point","coordinates":[47064,39782],"id":"feature_154"},{"properties":{"price":21700,"use":"\u8fd1\u6c5f\u516b\u5e61","zone":"","station":"\u5de5\u5834"},"type":"Point","coordinates":[50964,37881],"id":"feature_155"},{"properties":{"price":198000,"use":"\u8349\u6d25","zone":"","station":"\u4f4f\u5b85"},"type":"Point","coordinates":[22274,24839],"id":"feature_156"},{"properties":{"price":62500,"use":"\u8349\u6d25","zone":"","station":"\u4f4f\u5b85"},"type":"Point","coordinates":[19370,25101],"id":"feature_157"},{"properties":{"price":108000,"use":"\u8349\u6d25","zone":"","station":"\u4f4f\u5b85"},"type":"Point","coordinates":[21678,23469],"id":"feature_158"},{"properties":{"price":137000,"use":"\u8349\u6d25","zone":"","station":"\u4f4f\u5b85"},"type":"Point","coordinates":[24105,24423],"id":"feature_159"},{"properties":{"price":136000,"use":"\u8349\u6d25","zone":"","station":"\u4f4f\u5b85"},"type":"Point","coordinates":[20513,22009],"id":"feature_160"},{"properties":{"price":97500,"use":"\u8349\u6d25","zone":"","station":"\u4f4f\u5b85"},"type":"Point","coordinates":[23176,21798],"id":"feature_161"},{"properties":{"price":325000,"use":"\u8349\u6d25","zone":"","station":"\u4e8b\u52d9\u6240\u517c\u5171\u540c\u4f4f\u5b85"},"type":"Point","coordinates":[20179,21136],"id":"feature_162"},{"properties":{"price":93700,"use":"\u8349\u6d25","zone":"","station":"\u4f4f\u5b85"},"type":"Point","coordinates":[24668,18850],"id":"feature_163"},{"properties":{"price":147000,"use":"\u8349\u6d25","zone":"","station":"\u4f4f\u5b85"},"type":"Point","coordinates":[22493,25622],"id":"feature_164"},{"properties":{"price":92300,"use":"\u8349\u6d25","zone":"","station":"\u4f4f\u5b85"},"type":"Point","coordinates":[22232,22753],"id":"feature_165"},{"properties":{"price":112000,"use":"\u8349\u6d25","zone":"","station":"\u4f4f\u5b85"},"type":"Point","coordinates":[23470,22671],"id":"feature_166"},{"properties":{"price":30300,"use":"\u8349\u6d25","zone":"","station":"\u4f4f\u5b85"},"type":"Point","coordinates":[17936,24710],"id":"feature_167"},{"properties":{"price":85500,"use":"\u8349\u6d25","zone":"","station":"\u4f4f\u5b85"},"type":"Point","coordinates":[23881,20728],"id":"feature_168"},{"properties":{"price":172000,"use":"\u8349\u6d25","zone":"","station":"\u4f4f\u5b85"},"type":"Point","coordinates":[19151,20968],"id":"feature_169"},{"properties":{"price":436000,"use":"\u8349\u6d25","zone":"","station":"\u5e97\u8217\u517c\u4e8b\u52d9\u6240"},"type":"Point","coordinates":[23134,24092],"id":"feature_170"},{"properties":{"price":99000,"use":"\u8349\u6d25","zone":"","station":"\u5e97\u8217\u517c\u4f4f\u5b85"},"type":"Point","coordinates":[22554,23154],"id":"feature_171"},{"properties":{"price":161000,"use":"\u8349\u6d25","zone":"","station":"\u5e97\u8217"},"type":"Point","coordinates":[21001,25018],"id":"feature_172"},{"properties":{"price":379000,"use":"\u8349\u6d25","zone":"","station":"\u5e97\u8217\u517c\u5171\u540c\u4f4f\u5b85"},"type":"Point","coordinates":[20693,21267],"id":"feature_173"},{"properties":{"price":346000,"use":"\u8349\u6d25","zone":"","station":"\u5e97\u8217\u517c\u4e8b\u52d9\u6240"},"type":"Point","coordinates":[23005,24328],"id":"feature_174"},{"properties":{"price":106000,"use":"\u8349\u6d25","zone":"","station":"\u4e8b\u52d9\u6240"},"type":"Point","coordinates":[19551,23635],"id":"feature_175"},{"properties":{"price":160000,"use":"\u8349\u6d25","zone":"","station":"\u5e97\u8217\u517c\u5de5\u5834"},"type":"Point","coordinates":[20221,21565],"id":"feature_176"},{"properties":{"price":126000,"use":"\u8349\u6d25","zone":"","station":"\u5e97\u8217\u517c\u5de5\u5834"},"type":"Point","coordinates":[21916,21858],"id":"feature_177"},{"properties":{"price":79500,"use":"\u8349\u6d25","zone":"","station":"\u5e97\u8217\u517c\u4f4f\u5b85"},"type":"Point","coordinates":[24376,21984],"id":"feature_178"},{"properties":{"price":61200,"use":"\u8349\u6d25","zone":"","station":"\u4e8b\u52d9\u6240\u517c\u5009\u5eab"},"type":"Point","coordinates":[20977,19257],"id":"feature_179"},{"properties":{"price":54000,"use":"\u5b88\u5c71","zone":"","station":"\u4f4f\u5b85"},"type":"Point","coordinates":[21363,37521],"id":"feature_180"},{"properties":{"price":87100,"use":"\u5b88\u5c71","zone":"","station":"\u4f4f\u5b85"},"type":"Point","coordinates":[28669,30808],"id":"feature_181"},{"properties":{"price":97400,"use":"\u5b88\u5c71","zone":"","station":"\u4f4f\u5b85"},"type":"Point","coordinates":[30912,28807],"id":"feature_182"},{"properties":{"price":134000,"use":"\u5b88\u5c71","zone":"","station":"\u4f4f\u5b85"},"type":"Point","coordinates":[27413,29061],"id":"feature_183"},{"properties":{"price":96800,"use":"\u5b88\u5c71","zone":"","station":"\u4f4f\u5b85"},"type":"Point","coordinates":[29466,31743],"id":"feature_184"},{"properties":{"price":122000,"use":"\u5b88\u5c71","zone":"","station":"\u4f4f\u5b85"},"type":"Point","coordinates":[28174,29937],"id":"feature_185"},{"properties":{"price":104000,"use":"\u5b88\u5c71","zone":"","station":"\u4f4f\u5b85"},"type":"Point","coordinates":[26974,30177],"id":"feature_186"},{"properties":{"price":96300,"use":"\u5b88\u5c71","zone":"","station":"\u4f4f\u5b85"},"type":"Point","coordinates":[28073,32305],"id":"feature_187"},{"properties":{"price":27500,"use":"\u5b88\u5c71","zone":"","station":"\u4f4f\u5b85"},"type":"Point","coordinates":[24467,33407],"id":"feature_188"},{"properties":{"price":106000,"use":"\u5b88\u5c71","zone":"","station":"\u5e97\u8217"},"type":"Point","coordinates":[28706,31735],"id":"feature_189"},{"properties":{"price":104000,"use":"\u5b88\u5c71","zone":"","station":"\u5e97\u8217"},"type":"Point","coordinates":[26689,28584],"id":"feature_190"},{"properties":{"price":141000,"use":"\u5b88\u5c71","zone":"","station":"\u5e97\u8217\u517c\u4e8b\u52d9\u6240"},"type":"Point","coordinates":[29393,28638],"id":"feature_191"},{"properties":{"price":200000,"use":"\u5b88\u5c71","zone":"","station":"\u5e97\u8217\u517c\u4e8b\u52d9\u6240"},"type":"Point","coordinates":[28824,28547],"id":"feature_192"},{"properties":{"price":118000,"use":"\u5b88\u5c71","zone":"","station":"\u5e97\u8217\u517c\u4e8b\u52d9\u6240"},"type":"Point","coordinates":[28704,30045],"id":"feature_193"},{"properties":{"price":55100,"use":"\u5b88\u5c71","zone":"","station":"\u4e8b\u52d9\u6240"},"type":"Point","coordinates":[21234,38131],"id":"feature_194"},{"properties":{"price":38000,"use":"\u5b88\u5c71","zone":"","station":"\u5de5\u5834"},"type":"Point","coordinates":[24887,28239],"id":"feature_195"},{"properties":{"price":103000,"use":"\u6817\u6771","zone":"","station":"\u4f4f\u5b85"},"type":"Point","coordinates":[24977,23180],"id":"feature_196"},{"properties":{"price":70200,"use":"\u6817\u6771","zone":"","station":"\u4f4f\u5b85"},"type":"Point","coordinates":[32789,26013],"id":"feature_197"},{"properties":{"price":85000,"use":"\u6817\u6771","zone":"","station":"\u4f4f\u5b85"},"type":"Point","coordinates":[29735,23947],"id":"feature_198"},{"properties":{"price":56900,"use":"\u6817\u6771","zone":"","station":"\u4f4f\u5b85"},"type":"Point","coordinates":[33798,20437],"id":"feature_199"},{"properties":{"price":142000,"use":"\u6817\u6771","zone":"","station":"\u4f4f\u5b85"},"type":"Point","coordinates":[25969,26487],"id":"feature_200"},{"properties":{"price":101000,"use":"\u6817\u6771","zone":"","station":"\u4f4f\u5b85"},"type":"Point","coordinates":[25418,25473],"id":"feature_201"},{"properties":{"price":110000,"use":"\u6817\u6771","zone":"","station":"\u4f4f\u5b85"},"type":"Point","coordinates":[24560,26482],"id":"feature_202"},{"properties":{"price":75700,"use":"\u6817\u6771","zone":"","station":"\u4f4f\u5b85"},"type":"Point","coordinates":[30874,25906],"id":"feature_203"},{"properties":{"price":83900,"use":"\u6817\u6771","zone":"","station":"\u4f4f\u5b85"},"type":"Point","coordinates":[26642,23888],"id":"feature_204"},{"properties":{"price":18000,"use":"\u6817\u6771","zone":"","station":"\u4f4f\u5b85"},"type":"Point","coordinates":[34731,19373],"id":"feature_205"},{"properties":{"price":83000,"use":"\u6817\u6771","zone":"","station":"\u5e97\u8217\u3001\u4e8b\u52d9\u6240\u517c\u4f4f\u5b85"},"type":"Point","coordinates":[29099,23957],"id":"feature_206"},{"properties":{"price":113000,"use":"\u6817\u6771","zone":"","station":"\u5e97\u8217\u517c\u5de5\u5834"},"type":"Point","coordinates":[27933,24576],"id":"feature_207"},{"properties":{"price":115000,"use":"\u6817\u6771","zone":"","station":"\u5e97\u8217\u517c\u4f4f\u5b85"},"type":"Point","coordinates":[24894,26515],"id":"feature_208"},{"properties":{"price":59500,"use":"\u6817\u6771","zone":"","station":"\u9280\u884c"},"type":"Point","coordinates":[33754,20967],"id":"feature_209"},{"properties":{"price":44000,"use":"\u6817\u6771","zone":"","station":"\u5de5\u5834"},"type":"Point","coordinates":[26494,25404],"id":"feature_210"},{"properties":{"price":55300,"use":"\u7532\u8cc0","zone":"","station":"\u4f4f\u5b85"},"type":"Point","coordinates":[59791,17531],"id":"feature_211"},{"properties":{"price":32200,"use":"\u7532\u8cc0","zone":"","station":"\u4f4f\u5b85"},"type":"Point","coordinates":[58660,18083],"id":"feature_212"},{"properties":{"price":38500,"use":"\u7532\u8cc0","zone":"","station":"\u4f4f\u5b85"},"type":"Point","coordinates":[59422,16400],"id":"feature_213"},{"properties":{"price":35000,"use":"\u7532\u8cc0","zone":"","station":"\u4f4f\u5b85"},"type":"Point","coordinates":[58210,10225],"id":"feature_214"},{"properties":{"price":27400,"use":"\u7532\u8cc0","zone":"","station":"\u4f4f\u5b85"},"type":"Point","coordinates":[63984,15203],"id":"feature_215"},{"properties":{"price":13800,"use":"\u7532\u8cc0","zone":"","station":"\u4f4f\u5b85"},"type":"Point","coordinates":[80213,10012],"id":"feature_216"},{"properties":{"price":15100,"use":"\u7532\u8cc0","zone":"","station":"\u4f4f\u5b85"},"type":"Point","coordinates":[78449,10882],"id":"feature_217"},{"properties":{"price":15600,"use":"\u7532\u8cc0","zone":"","station":"\u4f4f\u5b85"},"type":"Point","coordinates":[38659,385],"id":"feature_218"},{"properties":{"price":12200,"use":"\u7532\u8cc0","zone":"","station":"\u4f4f\u5b85"},"type":"Point","coordinates":[69302,3785],"id":"feature_219"},{"properties":{"price":15600,"use":"\u7532\u8cc0","zone":"","station":"\u4f4f\u5b85"},"type":"Point","coordinates":[66142,5843],"id":"feature_220"},{"properties":{"price":16500,"use":"\u7532\u8cc0","zone":"","station":"\u4f4f\u5b85"},"type":"Point","coordinates":[38480,2647],"id":"feature_221"},{"properties":{"price":20500,"use":"\u7532\u8cc0","zone":"","station":"\u4f4f\u5b85"},"type":"Point","coordinates":[61965,7884],"id":"feature_222"},{"properties":{"price":16400,"use":"\u7532\u8cc0","zone":"","station":"\u4f4f\u5b85"},"type":"Point","coordinates":[61538,21641],"id":"feature_223"},{"properties":{"price":14000,"use":"\u7532\u8cc0","zone":"","station":"\u4f4f\u5b85"},"type":"Point","coordinates":[53454,17138],"id":"feature_224"},{"properties":{"price":10600,"use":"\u7532\u8cc0","zone":"","station":"\u4f4f\u5b85"},"type":"Point","coordinates":[68378,6823],"id":"feature_225"},{"properties":{"price":7150,"use":"\u7532\u8cc0","zone":"","station":"\u4f4f\u5b85"},"type":"Point","coordinates":[68349,0],"id":"feature_226"},{"properties":{"price":11000,"use":"\u7532\u8cc0","zone":"","station":"\u4f4f\u5b85"},"type":"Point","coordinates":[58864,8100],"id":"feature_227"},{"properties":{"price":20900,"use":"\u7532\u8cc0","zone":"","station":"\u4f4f\u5b85"},"type":"Point","coordinates":[60272,11840],"id":"feature_228"},{"properties":{"price":24400,"use":"\u7532\u8cc0","zone":"","station":"\u4f4f\u5b85"},"type":"Point","coordinates":[58679,9779],"id":"feature_229"},{"properties":{"price":67400,"use":"\u7532\u8cc0","zone":"","station":"\u5e97\u8217\u517c\u4f4f\u5b85"},"type":"Point","coordinates":[59520,15551],"id":"feature_230"},{"properties":{"price":77000,"use":"\u7532\u8cc0","zone":"","station":"\u5e97\u8217"},"type":"Point","coordinates":[58527,15515],"id":"feature_231"},{"properties":{"price":30600,"use":"\u7532\u8cc0","zone":"","station":"\u5e97\u8217\u517c\u4f4f\u5b85"},"type":"Point","coordinates":[39407,1665],"id":"feature_232"},{"properties":{"price":31900,"use":"\u7532\u8cc0","zone":"","station":"\u4e8b\u52d9\u6240"},"type":"Point","coordinates":[66948,5567],"id":"feature_233"},{"properties":{"price":19200,"use":"\u7532\u8cc0","zone":"","station":"\u5de5\u5834"},"type":"Point","coordinates":[60382,3678],"id":"feature_234"},{"properties":{"price":69700,"use":"\u91ce\u6d32","zone":"","station":"\u4f4f\u5b85"},"type":"Point","coordinates":[32320,29906],"id":"feature_235"},{"properties":{"price":102000,"use":"\u91ce\u6d32","zone":"","station":"\u4f4f\u5b85"},"type":"Point","coordinates":[32738,30656],"id":"feature_236"},{"properties":{"price":102000,"use":"\u91ce\u6d32","zone":"","station":"\u4f4f\u5b85"},"type":"Point","coordinates":[35076,31617],"id":"feature_237"},{"properties":{"price":102000,"use":"\u91ce\u6d32","zone":"","station":"\u4f4f\u5b85"},"type":"Point","coordinates":[34843,32450],"id":"feature_238"},{"properties":{"price":57600,"use":"\u91ce\u6d32","zone":"","station":"\u4f4f\u5b85"},"type":"Point","coordinates":[31568,36140],"id":"feature_239"},{"properties":{"price":32000,"use":"\u91ce\u6d32","zone":"","station":"\u4f4f\u5b85"},"type":"Point","coordinates":[32240,36605],"id":"feature_240"},{"properties":{"price":22000,"use":"\u91ce\u6d32","zone":"","station":"\u4f4f\u5b85"},"type":"Point","coordinates":[37127,34415],"id":"feature_241"},{"properties":{"price":19600,"use":"\u91ce\u6d32","zone":"","station":"\u4f4f\u5b85"},"type":"Point","coordinates":[34967,29732],"id":"feature_242"},{"properties":{"price":17600,"use":"\u91ce\u6d32","zone":"","station":"\u4f4f\u5b85"},"type":"Point","coordinates":[29795,38187],"id":"feature_243"},{"properties":{"price":165000,"use":"\u91ce\u6d32","zone":"","station":"\u5e97\u8217\u517c\u4f4f\u5b85"},"type":"Point","coordinates":[33777,31324],"id":"feature_244"},{"properties":{"price":72900,"use":"\u91ce\u6d32","zone":"","station":"\u5e97\u8217"},"type":"Point","coordinates":[35676,31558],"id":"feature_245"},{"properties":{"price":26500,"use":"\u91ce\u6d32","zone":"","station":"\u5009\u5eab\u517c\u4e8b\u52d9\u6240"},"type":"Point","coordinates":[37966,33419],"id":"feature_246"},{"properties":{"price":43000,"use":"\u6e56\u5357","zone":"","station":"\u4f4f\u5b85"},"type":"Point","coordinates":[40691,21302],"id":"feature_247"},{"properties":{"price":50300,"use":"\u6e56\u5357","zone":"","station":"\u4f4f\u5b85"},"type":"Point","coordinates":[41060,22035],"id":"feature_248"},{"properties":{"price":34300,"use":"\u6e56\u5357","zone":"","station":"\u4f4f\u5b85"},"type":"Point","coordinates":[38790,23062],"id":"feature_249"},{"properties":{"price":31500,"use":"\u6e56\u5357","zone":"","station":"\u4f4f\u5b85"},"type":"Point","coordinates":[52947,23873],"id":"feature_250"},{"properties":{"price":63700,"use":"\u6e56\u5357","zone":"","station":"\u4f4f\u5b85"},"type":"Point","coordinates":[45146,21417],"id":"feature_251"},{"properties":{"price":29400,"use":"\u6e56\u5357","zone":"","station":"\u4f4f\u5b85"},"type":"Point","coordinates":[47995,17589],"id":"feature_252"},{"properties":{"price":34800,"use":"\u6e56\u5357","zone":"","station":"\u4f4f\u5b85"},"type":"Point","coordinates":[50443,21450],"id":"feature_253"},{"properties":{"price":41300,"use":"\u6e56\u5357","zone":"","station":"\u4f4f\u5b85"},"type":"Point","coordinates":[49415,18059],"id":"feature_254"},{"properties":{"price":34500,"use":"\u6e56\u5357","zone":"","station":"\u4f4f\u5b85"},"type":"Point","coordinates":[39409,26597],"id":"feature_255"},{"properties":{"price":28300,"use":"\u6e56\u5357","zone":"","station":"\u4f4f\u5b85"},"type":"Point","coordinates":[40435,22964],"id":"feature_256"},{"properties":{"price":23900,"use":"\u6e56\u5357","zone":"","station":"\u4f4f\u5b85"},"type":"Point","coordinates":[47498,16914],"id":"feature_257"},{"properties":{"price":17100,"use":"\u6e56\u5357","zone":"","station":"\u4f4f\u5b85"},"type":"Point","coordinates":[50329,19645],"id":"feature_258"},{"properties":{"price":57000,"use":"\u6e56\u5357","zone":"","station":"\u533b\u9662"},"type":"Point","coordinates":[40096,22509],"id":"feature_259"},{"properties":{"price":52100,"use":"\u6e56\u5357","zone":"","station":"\u5e97\u8217\u517c\u4f4f\u5b85"},"type":"Point","coordinates":[50593,21048],"id":"feature_260"},{"properties":{"price":50800,"use":"\u6e56\u5357","zone":"","station":"\u4e8b\u52d9\u6240"},"type":"Point","coordinates":[49619,18418],"id":"feature_261"},{"properties":{"price":23500,"use":"\u6e56\u5357","zone":"","station":"\u5de5\u5834"},"type":"Point","coordinates":[43478,22217],"id":"feature_262"},{"properties":{"price":30900,"use":"\u6e56\u5357","zone":"","station":"\u5009\u5eab"},"type":"Point","coordinates":[42751,22034],"id":"feature_263"},{"properties":{"price":20100,"use":"\u6ecb\u8cc0\u9ad8\u5cf6","zone":"","station":"\u4f4f\u5b85"},"type":"Point","coordinates":[31808,66950],"id":"feature_264"},{"properties":{"price":12400,"use":"\u6ecb\u8cc0\u9ad8\u5cf6","zone":"","station":"\u4f4f\u5b85"},"type":"Point","coordinates":[29994,69033],"id":"feature_265"},{"properties":{"price":11600,"use":"\u6ecb\u8cc0\u9ad8\u5cf6","zone":"","station":"\u4f4f\u5b85"},"type":"Point","coordinates":[35758,89184],"id":"feature_266"},{"properties":{"price":13500,"use":"\u6ecb\u8cc0\u9ad8\u5cf6","zone":"","station":"\u4f4f\u5b85"},"type":"Point","coordinates":[39759,90792],"id":"feature_267"},{"properties":{"price":26300,"use":"\u6ecb\u8cc0\u9ad8\u5cf6","zone":"","station":"\u4f4f\u5b85"},"type":"Point","coordinates":[35182,83681],"id":"feature_268"},{"properties":{"price":17400,"use":"\u6ecb\u8cc0\u9ad8\u5cf6","zone":"","station":"\u4f4f\u5b85"},"type":"Point","coordinates":[33271,84364],"id":"feature_269"},{"properties":{"price":22300,"use":"\u6ecb\u8cc0\u9ad8\u5cf6","zone":"","station":"\u4f4f\u5b85"},"type":"Point","coordinates":[32857,72701],"id":"feature_270"},{"properties":{"price":13600,"use":"\u6ecb\u8cc0\u9ad8\u5cf6","zone":"","station":"\u4f4f\u5b85"},"type":"Point","coordinates":[30550,72805],"id":"feature_271"},{"properties":{"price":14600,"use":"\u6ecb\u8cc0\u9ad8\u5cf6","zone":"","station":"\u4f4f\u5b85"},"type":"Point","coordinates":[35985,74194],"id":"feature_272"},{"properties":{"price":13000,"use":"\u6ecb\u8cc0\u9ad8\u5cf6","zone":"","station":"\u4f4f\u5b85"},"type":"Point","coordinates":[38676,76052],"id":"feature_273"},{"properties":{"price":32900,"use":"\u6ecb\u8cc0\u9ad8\u5cf6","zone":"","station":"\u5e97\u8217"},"type":"Point","coordinates":[31545,66307],"id":"feature_274"},{"properties":{"price":29500,"use":"\u6ecb\u8cc0\u9ad8\u5cf6","zone":"","station":"\u5e97\u8217"},"type":"Point","coordinates":[33871,71077],"id":"feature_275"},{"properties":{"price":35400,"use":"\u6ecb\u8cc0\u9ad8\u5cf6","zone":"","station":"\u55b6\u696d\u6240"},"type":"Point","coordinates":[35644,83086],"id":"feature_276"},{"properties":{"price":50800,"use":"\u6771\u8fd1\u6c5f","zone":"","station":"\u4f4f\u5b85"},"type":"Point","coordinates":[64570,39031],"id":"feature_277"},{"properties":{"price":48300,"use":"\u6771\u8fd1\u6c5f","zone":"","station":"\u4f4f\u5b85"},"type":"Point","coordinates":[66417,36713],"id":"feature_278"},{"properties":{"price":44500,"use":"\u6771\u8fd1\u6c5f","zone":"","station":"\u4f4f\u5b85"},"type":"Point","coordinates":[69909,35903],"id":"feature_279"},{"properties":{"price":49800,"use":"\u6771\u8fd1\u6c5f","zone":"","station":"\u4f4f\u5b85"},"type":"Point","coordinates":[64817,38237],"id":"feature_280"},{"properties":{"price":53900,"use":"\u6771\u8fd1\u6c5f","zone":"","station":"\u4f4f\u5b85"},"type":"Point","coordinates":[62844,36954],"id":"feature_281"},{"properties":{"price":59800,"use":"\u6771\u8fd1\u6c5f","zone":"","station":"\u4f4f\u5b85"},"type":"Point","coordinates":[66077,38520],"id":"feature_282"},{"properties":{"price":42000,"use":"\u6771\u8fd1\u6c5f","zone":"","station":"\u4f4f\u5b85"},"type":"Point","coordinates":[62529,43813],"id":"feature_283"},{"properties":{"price":43200,"use":"\u6771\u8fd1\u6c5f","zone":"","station":"\u4f4f\u5b85"},"type":"Point","coordinates":[61057,43290],"id":"feature_284"},{"properties":{"price":23600,"use":"\u6771\u8fd1\u6c5f","zone":"","station":"\u4f4f\u5b85"},"type":"Point","coordinates":[57413,50107],"id":"feature_285"},{"properties":{"price":9700,"use":"\u6771\u8fd1\u6c5f","zone":"","station":"\u4f4f\u5b85"},"type":"Point","coordinates":[78192,37384],"id":"feature_286"},{"properties":{"price":9700,"use":"\u6771\u8fd1\u6c5f","zone":"","station":"\u4f4f\u5b85"},"type":"Point","coordinates":[78124,42193],"id":"feature_287"},{"properties":{"price":12600,"use":"\u6771\u8fd1\u6c5f","zone":"","station":"\u4f4f\u5b85"},"type":"Point","coordinates":[67793,42945],"id":"feature_288"},{"properties":{"price":11900,"use":"\u6771\u8fd1\u6c5f","zone":"","station":"\u4f4f\u5b85"},"type":"Point","coordinates":[70180,44590],"id":"feature_289"},{"properties":{"price":12500,"use":"\u6771\u8fd1\u6c5f","zone":"","station":"\u4f4f\u5b85"},"type":"Point","coordinates":[53094,51348],"id":"feature_290"},{"properties":{"price":15900,"use":"\u6771\u8fd1\u6c5f","zone":"","station":"\u4f4f\u5b85"},"type":"Point","coordinates":[60518,29948],"id":"feature_291"},{"properties":{"price":32300,"use":"\u6771\u8fd1\u6c5f","zone":"","station":"\u4f4f\u5b85"},"type":"Point","coordinates":[62438,30258],"id":"feature_292"},{"properties":{"price":61400,"use":"\u6771\u8fd1\u6c5f","zone":"","station":"\u4f4f\u5b85"},"type":"Point","coordinates":[61017,48858],"id":"feature_293"},{"properties":{"price":59600,"use":"\u6771\u8fd1\u6c5f","zone":"","station":"\u4f4f\u5b85"},"type":"Point","coordinates":[57262,48717],"id":"feature_294"},{"properties":{"price":18500,"use":"\u6771\u8fd1\u6c5f","zone":"","station":"\u4f4f\u5b85"},"type":"Point","coordinates":[60636,38840],"id":"feature_295"},{"properties":{"price":14700,"use":"\u6771\u8fd1\u6c5f","zone":"","station":"\u4f4f\u5b85"},"type":"Point","coordinates":[54349,35898],"id":"feature_296"},{"properties":{"price":11900,"use":"\u6771\u8fd1\u6c5f","zone":"","station":"\u4f4f\u5b85"},"type":"Point","coordinates":[64803,42967],"id":"feature_297"},{"properties":{"price":10000,"use":"\u6771\u8fd1\u6c5f","zone":"","station":"\u4f4f\u5b85"},"type":"Point","coordinates":[63084,26788],"id":"feature_298"},{"properties":{"price":76700,"use":"\u6771\u8fd1\u6c5f","zone":"","station":"\u5e97\u8217\u517c\u5171\u540c\u4f4f\u5b85"},"type":"Point","coordinates":[64364,38532],"id":"feature_299"},{"properties":{"price":63800,"use":"\u6771\u8fd1\u6c5f","zone":"","station":"\u5e97\u8217"},"type":"Point","coordinates":[65831,37442],"id":"feature_300"},{"properties":{"price":83500,"use":"\u6771\u8fd1\u6c5f","zone":"","station":"\u5e97\u8217"},"type":"Point","coordinates":[64005,38490],"id":"feature_301"},{"properties":{"price":59500,"use":"\u6771\u8fd1\u6c5f","zone":"","station":"\u5e97\u8217"},"type":"Point","coordinates":[64091,37187],"id":"feature_302"},{"properties":{"price":39800,"use":"\u6771\u8fd1\u6c5f","zone":"","station":"\u9280\u884c"},"type":"Point","coordinates":[61596,43383],"id":"feature_303"},{"properties":{"price":69500,"use":"\u6771\u8fd1\u6c5f","zone":"","station":"\u5e97\u8217\u517c\u4f4f\u5b85"},"type":"Point","coordinates":[59399,48726],"id":"feature_304"},{"properties":{"price":24700,"use":"\u6771\u8fd1\u6c5f","zone":"","station":"\u5de5\u5834"},"type":"Point","coordinates":[68300,35840],"id":"feature_305"},{"properties":{"price":23300,"use":"\u6771\u8fd1\u6c5f","zone":"","station":"\u4e8b\u52d9\u6240\u517c\u5009\u5eab"},"type":"Point","coordinates":[60772,43296],"id":"feature_306"},{"properties":{"price":59700,"use":"\u7c73\u539f","zone":"","station":"\u4f4f\u5b85"},"type":"Point","coordinates":[80147,70182],"id":"feature_307"},{"properties":{"price":12900,"use":"\u7c73\u539f","zone":"","station":"\u4f4f\u5b85"},"type":"Point","coordinates":[92415,72829],"id":"feature_308"},{"properties":{"price":52800,"use":"\u7c73\u539f","zone":"","station":"\u4f4f\u5b85"},"type":"Point","coordinates":[80778,69028],"id":"feature_309"},{"properties":{"price":17700,"use":"\u7c73\u539f","zone":"","station":"\u4f4f\u5b85"},"type":"Point","coordinates":[98883,73697],"id":"feature_310"},{"properties":{"price":22900,"use":"\u7c73\u539f","zone":"","station":"\u4f4f\u5b85"},"type":"Point","coordinates":[91735,80025],"id":"feature_311"},{"properties":{"price":10600,"use":"\u7c73\u539f","zone":"","station":"\u4f4f\u5b85"},"type":"Point","coordinates":[95330,81137],"id":"feature_312"},{"properties":{"price":10000,"use":"\u7c73\u539f","zone":"","station":"\u4f4f\u5b85"},"type":"Point","coordinates":[97530,77726],"id":"feature_313"},{"properties":{"price":39400,"use":"\u7c73\u539f","zone":"","station":"\u4f4f\u5b85"},"type":"Point","coordinates":[81163,70033],"id":"feature_314"},{"properties":{"price":14200,"use":"\u7c73\u539f","zone":"","station":"\u4f4f\u5b85"},"type":"Point","coordinates":[75088,68121],"id":"feature_315"},{"properties":{"price":55100,"use":"\u7c73\u539f","zone":"","station":"\u4f4f\u5b85"},"type":"Point","coordinates":[79169,69234],"id":"feature_316"},{"properties":{"price":16000,"use":"\u7c73\u539f","zone":"","station":"\u4f4f\u5b85"},"type":"Point","coordinates":[79498,73397],"id":"feature_317"},{"properties":{"price":17300,"use":"\u7c73\u539f","zone":"","station":"\u5e97\u8217\u517c\u4f4f\u5b85"},"type":"Point","coordinates":[99999,74065],"id":"feature_318"},{"properties":{"price":36300,"use":"\u7c73\u539f","zone":"","station":"\u5e97\u8217\u517c\u5de5\u5834"},"type":"Point","coordinates":[81296,74621],"id":"feature_319"},{"properties":{"price":13200,"use":"\u7c73\u539f","zone":"","station":"\u9280\u884c"},"type":"Point","coordinates":[96005,80495],"id":"feature_320"},{"properties":{"price":9580,"use":"\u6ecb\u8cc0\u65e5\u91ce","zone":"","station":"\u4f4f\u5b85"},"type":"Point","coordinates":[70075,26105],"id":"feature_321"},{"properties":{"price":20000,"use":"\u6ecb\u8cc0\u65e5\u91ce","zone":"","station":"\u4f4f\u5b85"},"type":"Point","coordinates":[70150,22977],"id":"feature_322"},{"properties":{"price":24800,"use":"\u6ecb\u8cc0\u65e5\u91ce","zone":"","station":"\u4f4f\u5b85"},"type":"Point","coordinates":[74369,23116],"id":"feature_323"},{"properties":{"price":10300,"use":"\u6ecb\u8cc0\u65e5\u91ce","zone":"","station":"\u4f4f\u5b85"},"type":"Point","coordinates":[71304,28815],"id":"feature_324"},{"properties":{"price":9780,"use":"\u6ecb\u8cc0\u65e5\u91ce","zone":"","station":"\u4f4f\u5b85"},"type":"Point","coordinates":[66413,20939],"id":"feature_325"},{"properties":{"price":26700,"use":"\u6ecb\u8cc0\u65e5\u91ce","zone":"","station":"\u5e97\u8217\u517c\u4f4f\u5b85"},"type":"Point","coordinates":[68242,22730],"id":"feature_326"},{"properties":{"price":15000,"use":"\u6ecb\u8cc0\u65e5\u91ce","zone":"","station":"\u5de5\u5834"},"type":"Point","coordinates":[71510,25738],"id":"feature_327"},{"properties":{"price":13500,"use":"\u6ecb\u8cc0\u7adc\u738b","zone":"","station":"\u4f4f\u5b85"},"type":"Point","coordinates":[52244,30657],"id":"feature_328"},{"properties":{"price":24100,"use":"\u6ecb\u8cc0\u7adc\u738b","zone":"","station":"\u4f4f\u5b85"},"type":"Point","coordinates":[48757,29696],"id":"feature_329"},{"properties":{"price":26000,"use":"\u6ecb\u8cc0\u7adc\u738b","zone":"","station":"\u4e8b\u52d9\u6240\u517c\u5009\u5eab"},"type":"Point","coordinates":[48873,29227],"id":"feature_330"},{"properties":{"price":11500,"use":"\u611b\u8358","zone":"","station":"\u4f4f\u5b85"},"type":"Point","coordinates":[71603,46457],"id":"feature_331"},{"properties":{"price":36900,"use":"\u611b\u8358","zone":"","station":"\u4f4f\u5b85"},"type":"Point","coordinates":[65213,47671],"id":"feature_332"},{"properties":{"price":41400,"use":"\u611b\u8358","zone":"","station":"\u4f4f\u5b85"},"type":"Point","coordinates":[66980,46724],"id":"feature_333"},{"properties":{"price":36900,"use":"\u611b\u8358","zone":"","station":"\u55b6\u696d\u6240"},"type":"Point","coordinates":[66892,49485],"id":"feature_334"},{"properties":{"price":23900,"use":"\u611b\u8358","zone":"","station":"\u9280\u884c"},"type":"Point","coordinates":[72306,47575],"id":"feature_335"},{"properties":{"price":12000,"use":"\u8c4a\u90f7","zone":"","station":"\u4f4f\u5b85"},"type":"Point","coordinates":[69989,49621],"id":"feature_336"},{"properties":{"price":12400,"use":"\u8c4a\u90f7","zone":"","station":"\u4f4f\u5b85"},"type":"Point","coordinates":[67525,51528],"id":"feature_337"},{"properties":{"price":23500,"use":"\u8c4a\u90f7","zone":"","station":"\u9280\u884c"},"type":"Point","coordinates":[69723,51579],"id":"feature_338"},{"properties":{"price":8520,"use":"\u7532\u826f","zone":"","station":"\u4f4f\u5b85"},"type":"Point","coordinates":[77080,52763],"id":"feature_339"},{"properties":{"price":9650,"use":"\u7532\u826f","zone":"","station":"\u4f4f\u5b85"},"type":"Point","coordinates":[71937,54002],"id":"feature_340"},{"properties":{"price":13100,"use":"\u7532\u826f","zone":"","station":"\u4f4f\u5b85"},"type":"Point","coordinates":[74207,53229],"id":"feature_341"},{"properties":{"price":21500,"use":"\u591a\u8cc0","zone":"","station":"\u4f4f\u5b85"},"type":"Point","coordinates":[80017,55687],"id":"feature_342"},{"properties":{"price":14400,"use":"\u591a\u8cc0","zone":"","station":"\u4f4f\u5b85"},"type":"Point","coordinates":[81399,56737],"id":"feature_343"},{"properties":{"price":7980,"use":"\u591a\u8cc0","zone":"","station":"\u4f4f\u5b85"},"type":"Point","coordinates":[82607,57191],"id":"feature_344"},{"properties":{"price":30200,"use":"\u591a\u8cc0","zone":"","station":"\u5e97\u8217\u517c\u4f4f\u5b85"},"type":"Point","coordinates":[80544,55576],"id":"feature_345"}],"type":"GeometryCollection"}},"bbox":[135.83001,34.8664,136.40188,35.51022],"transform":{"scale":[5.718757187572059e-06,6.438264382643807e-06],"translate":[135.83001,34.8664]},"arcs":[]}