{"type":"Topology","objects":{"data":{"geometries":[{"properties":{"price":62900,"use":"\u76db\u5ca1","zone":"","station":"\u4f4f\u5b85"},"type":"Point","coordinates":[14177,59287],"id":"feature_000"},{"properties":{"price":45600,"use":"\u76db\u5ca1","zone":"","station":"\u4f4f\u5b85"},"type":"Point","coordinates":[13636,58454],"id":"feature_001"},{"properties":{"price":41500,"use":"\u76db\u5ca1","zone":"","station":"\u4f4f\u5b85"},"type":"Point","coordinates":[13827,57565],"id":"feature_002"},{"properties":{"price":48500,"use":"\u76db\u5ca1","zone":"","station":"\u4f4f\u5b85"},"type":"Point","coordinates":[15570,58407],"id":"feature_003"},{"properties":{"price":53500,"use":"\u76db\u5ca1","zone":"","station":"\u4f4f\u5b85"},"type":"Point","coordinates":[14432,58174],"id":"feature_004"},{"properties":{"price":40700,"use":"\u76db\u5ca1","zone":"","station":"\u4f4f\u5b85"},"type":"Point","coordinates":[20225,57155],"id":"feature_005"},{"properties":{"price":52800,"use":"\u76db\u5ca1","zone":"","station":"\u4f4f\u5b85"},"type":"Point","coordinates":[19707,57899],"id":"feature_006"},{"properties":{"price":55900,"use":"\u76db\u5ca1","zone":"","station":"\u4f4f\u5b85"},"type":"Point","coordinates":[17304,59653],"id":"feature_007"},{"properties":{"price":41800,"use":"\u76db\u5ca1","zone":"","station":"\u4f4f\u5b85"},"type":"Point","coordinates":[20108,54886],"id":"feature_008"},{"properties":{"price":45600,"use":"\u76db\u5ca1","zone":"","station":"\u4f4f\u5b85"},"type":"Point","coordinates":[18307,59045],"id":"feature_009"},{"properties":{"price":63100,"use":"\u76db\u5ca1","zone":"","station":"\u4f4f\u5b85"},"type":"Point","coordinates":[16498,58835],"id":"feature_010"},{"properties":{"price":41700,"use":"\u76db\u5ca1","zone":"","station":"\u4f4f\u5b85"},"type":"Point","coordinates":[15766,59316],"id":"feature_011"},{"properties":{"price":73500,"use":"\u76db\u5ca1","zone":"","station":"\u4f4f\u5b85"},"type":"Point","coordinates":[17455,58178],"id":"feature_012"},{"properties":{"price":78800,"use":"\u76db\u5ca1","zone":"","station":"\u4f4f\u5b85"},"type":"Point","coordinates":[17174,57565],"id":"feature_013"},{"properties":{"price":71300,"use":"\u76db\u5ca1","zone":"","station":"\u4f4f\u5b85"},"type":"Point","coordinates":[19077,57748],"id":"feature_014"},{"properties":{"price":44000,"use":"\u76db\u5ca1","zone":"","station":"\u4f4f\u5b85"},"type":"Point","coordinates":[19815,59048],"id":"feature_015"},{"properties":{"price":96100,"use":"\u76db\u5ca1","zone":"","station":"\u4f4f\u5b85"},"type":"Point","coordinates":[19407,57450],"id":"feature_016"},{"properties":{"price":55100,"use":"\u76db\u5ca1","zone":"","station":"\u4f4f\u5b85"},"type":"Point","coordinates":[20574,57871],"id":"feature_017"},{"properties":{"price":73900,"use":"\u76db\u5ca1","zone":"","station":"\u4f4f\u5b85"},"type":"Point","coordinates":[19605,56546],"id":"feature_018"},{"properties":{"price":44700,"use":"\u76db\u5ca1","zone":"","station":"\u4f4f\u5b85"},"type":"Point","coordinates":[20783,56408],"id":"feature_019"},{"properties":{"price":70100,"use":"\u76db\u5ca1","zone":"","station":"\u4f4f\u5b85"},"type":"Point","coordinates":[15364,56664],"id":"feature_020"},{"properties":{"price":29700,"use":"\u76db\u5ca1","zone":"","station":"\u4f4f\u5b85"},"type":"Point","coordinates":[21682,51042],"id":"feature_021"},{"properties":{"price":62700,"use":"\u76db\u5ca1","zone":"","station":"\u4f4f\u5b85"},"type":"Point","coordinates":[17990,56297],"id":"feature_022"},{"properties":{"price":68600,"use":"\u76db\u5ca1","zone":"","station":"\u4f4f\u5b85"},"type":"Point","coordinates":[18184,55209],"id":"feature_023"},{"properties":{"price":70300,"use":"\u76db\u5ca1","zone":"","station":"\u4f4f\u5b85"},"type":"Point","coordinates":[18240,53454],"id":"feature_024"},{"properties":{"price":69400,"use":"\u76db\u5ca1","zone":"","station":"\u4f4f\u5b85"},"type":"Point","coordinates":[18390,54765],"id":"feature_025"},{"properties":{"price":72400,"use":"\u76db\u5ca1","zone":"","station":"\u4f4f\u5b85"},"type":"Point","coordinates":[16559,58540],"id":"feature_026"},{"properties":{"price":45700,"use":"\u76db\u5ca1","zone":"","station":"\u4f4f\u5b85"},"type":"Point","coordinates":[19735,58140],"id":"feature_027"},{"properties":{"price":50000,"use":"\u76db\u5ca1","zone":"","station":"\u4f4f\u5b85"},"type":"Point","coordinates":[19954,55429],"id":"feature_028"},{"properties":{"price":13800,"use":"\u76db\u5ca1","zone":"","station":"\u4f4f\u5b85"},"type":"Point","coordinates":[21834,61193],"id":"feature_029"},{"properties":{"price":44100,"use":"\u76db\u5ca1","zone":"","station":"\u4f4f\u5b85"},"type":"Point","coordinates":[18325,60238],"id":"feature_030"},{"properties":{"price":38900,"use":"\u76db\u5ca1","zone":"","station":"\u4f4f\u5b85"},"type":"Point","coordinates":[16480,60954],"id":"feature_031"},{"properties":{"price":30800,"use":"\u76db\u5ca1","zone":"","station":"\u4f4f\u5b85"},"type":"Point","coordinates":[19788,60346],"id":"feature_032"},{"properties":{"price":18000,"use":"\u76db\u5ca1","zone":"","station":"\u4f4f\u5b85"},"type":"Point","coordinates":[19817,67585],"id":"feature_033"},{"properties":{"price":40100,"use":"\u76db\u5ca1","zone":"","station":"\u4f4f\u5b85"},"type":"Point","coordinates":[16495,59476],"id":"feature_034"},{"properties":{"price":62800,"use":"\u76db\u5ca1","zone":"","station":"\u4f4f\u5b85"},"type":"Point","coordinates":[18466,55617],"id":"feature_035"},{"properties":{"price":80300,"use":"\u76db\u5ca1","zone":"","station":"\u4f4f\u5b85"},"type":"Point","coordinates":[18418,57653],"id":"feature_036"},{"properties":{"price":12200,"use":"\u76db\u5ca1","zone":"","station":"\u4f4f\u5b85"},"type":"Point","coordinates":[18275,66868],"id":"feature_037"},{"properties":{"price":46200,"use":"\u76db\u5ca1","zone":"","station":"\u4f4f\u5b85"},"type":"Point","coordinates":[14550,57716],"id":"feature_038"},{"properties":{"price":22500,"use":"\u76db\u5ca1","zone":"","station":"\u4f4f\u5b85"},"type":"Point","coordinates":[11766,58004],"id":"feature_039"},{"properties":{"price":28900,"use":"\u76db\u5ca1","zone":"","station":"\u4f4f\u5b85"},"type":"Point","coordinates":[17121,54082],"id":"feature_040"},{"properties":{"price":47400,"use":"\u76db\u5ca1","zone":"","station":"\u4f4f\u5b85"},"type":"Point","coordinates":[18776,58040],"id":"feature_041"},{"properties":{"price":27100,"use":"\u76db\u5ca1","zone":"","station":"\u4f4f\u5b85"},"type":"Point","coordinates":[13835,55658],"id":"feature_042"},{"properties":{"price":92600,"use":"\u76db\u5ca1","zone":"","station":"\u4f4f\u5b85"},"type":"Point","coordinates":[17282,55396],"id":"feature_043"},{"properties":{"price":37100,"use":"\u76db\u5ca1","zone":"","station":"\u4f4f\u5b85"},"type":"Point","coordinates":[21585,53577],"id":"feature_044"},{"properties":{"price":84400,"use":"\u76db\u5ca1","zone":"","station":"\u4f4f\u5b85"},"type":"Point","coordinates":[16242,55049],"id":"feature_045"},{"properties":{"price":19400,"use":"\u76db\u5ca1","zone":"","station":"\u7530"},"type":"Point","coordinates":[17417,53531],"id":"feature_046"},{"properties":{"price":283000,"use":"\u76db\u5ca1","zone":"","station":"\u5e97\u8217"},"type":"Point","coordinates":[17799,57210],"id":"feature_047"},{"properties":{"price":281000,"use":"\u76db\u5ca1","zone":"","station":"\u5e97\u8217\u517c\u4e8b\u52d9\u6240"},"type":"Point","coordinates":[16975,57104],"id":"feature_048"},{"properties":{"price":119000,"use":"\u76db\u5ca1","zone":"","station":"\u5e97\u8217\u517c\u5171\u540c\u4f4f\u5b85"},"type":"Point","coordinates":[16887,57439],"id":"feature_049"},{"properties":{"price":59100,"use":"\u76db\u5ca1","zone":"","station":"\u5e97\u8217\u517c\u4f4f\u5b85"},"type":"Point","coordinates":[14538,59034],"id":"feature_050"},{"properties":{"price":188000,"use":"\u76db\u5ca1","zone":"","station":"\u5e97\u8217\u517c\u4e8b\u52d9\u6240"},"type":"Point","coordinates":[18687,56973],"id":"feature_051"},{"properties":{"price":63500,"use":"\u76db\u5ca1","zone":"","station":"\u5e97\u8217"},"type":"Point","coordinates":[14343,57594],"id":"feature_052"},{"properties":{"price":213000,"use":"\u76db\u5ca1","zone":"","station":"\u4e8b\u52d9\u6240"},"type":"Point","coordinates":[18094,57255],"id":"feature_053"},{"properties":{"price":75000,"use":"\u76db\u5ca1","zone":"","station":"\u5e97\u8217"},"type":"Point","coordinates":[19094,56778],"id":"feature_054"},{"properties":{"price":65600,"use":"\u76db\u5ca1","zone":"","station":"\u5e97\u8217\u517c\u4e8b\u52d9\u6240"},"type":"Point","coordinates":[19308,53992],"id":"feature_055"},{"properties":{"price":139000,"use":"\u76db\u5ca1","zone":"","station":"\u4e8b\u52d9\u6240\u517c\u5c02\u9580\u5b66\u6821"},"type":"Point","coordinates":[17311,57404],"id":"feature_056"},{"properties":{"price":69800,"use":"\u76db\u5ca1","zone":"","station":"\u5e97\u8217"},"type":"Point","coordinates":[20165,56449],"id":"feature_057"},{"properties":{"price":116000,"use":"\u76db\u5ca1","zone":"","station":"\u4e8b\u52d9\u6240"},"type":"Point","coordinates":[18511,56863],"id":"feature_058"},{"properties":{"price":198000,"use":"\u76db\u5ca1","zone":"","station":"\u5e97\u8217\u517c\u4e8b\u52d9\u6240"},"type":"Point","coordinates":[17560,57164],"id":"feature_059"},{"properties":{"price":107000,"use":"\u76db\u5ca1","zone":"","station":"\u5e97\u8217"},"type":"Point","coordinates":[16375,55850],"id":"feature_060"},{"properties":{"price":88800,"use":"\u76db\u5ca1","zone":"","station":"\u5e97\u8217\u517c\u4f4f\u5b85"},"type":"Point","coordinates":[18432,56540],"id":"feature_061"},{"properties":{"price":67800,"use":"\u76db\u5ca1","zone":"","station":"\u5e97\u8217"},"type":"Point","coordinates":[16605,58671],"id":"feature_062"},{"properties":{"price":43300,"use":"\u76db\u5ca1","zone":"","station":"\u5e97\u8217\u517c\u5de5\u5834"},"type":"Point","coordinates":[16355,60534],"id":"feature_063"},{"properties":{"price":70500,"use":"\u76db\u5ca1","zone":"","station":"\u5e97\u8217"},"type":"Point","coordinates":[18766,55489],"id":"feature_064"},{"properties":{"price":127000,"use":"\u76db\u5ca1","zone":"","station":"\u5e97\u8217\u4e8b\u52d9\u6240\u517c\u5171\u540c\u4f4f\u5b85"},"type":"Point","coordinates":[16386,56922],"id":"feature_065"},{"properties":{"price":41300,"use":"\u76db\u5ca1","zone":"","station":"\u4e8b\u52d9\u6240\u517c\u5009\u5eab"},"type":"Point","coordinates":[17916,55285],"id":"feature_066"},{"properties":{"price":57100,"use":"\u5bae\u53e4","zone":"","station":"\u4f4f\u5b85"},"type":"Point","coordinates":[97009,53046],"id":"feature_067"},{"properties":{"price":40000,"use":"\u5bae\u53e4","zone":"","station":"\u4f4f\u5b85"},"type":"Point","coordinates":[99010,51733],"id":"feature_068"},{"properties":{"price":39700,"use":"\u5bae\u53e4","zone":"","station":"\u4f4f\u5b85"},"type":"Point","coordinates":[93882,52793],"id":"feature_069"},{"properties":{"price":41100,"use":"\u5bae\u53e4","zone":"","station":"\u4f4f\u5b85"},"type":"Point","coordinates":[96122,53165],"id":"feature_070"},{"properties":{"price":60000,"use":"\u5bae\u53e4","zone":"","station":"\u5e97\u8217"},"type":"Point","coordinates":[97529,52734],"id":"feature_071"},{"properties":{"price":39300,"use":"\u5927\u8239\u6e21","zone":"","station":"\u4f4f\u5b85"},"type":"Point","coordinates":[74321,10462],"id":"feature_072"},{"properties":{"price":32000,"use":"\u5927\u8239\u6e21","zone":"","station":"\u4f4f\u5b85"},"type":"Point","coordinates":[74412,14110],"id":"feature_073"},{"properties":{"price":23700,"use":"\u5927\u8239\u6e21","zone":"","station":"\u4f4f\u5b85"},"type":"Point","coordinates":[74758,9115],"id":"feature_074"},{"properties":{"price":52100,"use":"\u5927\u8239\u6e21","zone":"","station":"\u5e97\u8217"},"type":"Point","coordinates":[75048,10376],"id":"feature_075"},{"properties":{"price":31300,"use":"\u5927\u8239\u6e21","zone":"","station":"\u5e97\u8217"},"type":"Point","coordinates":[74829,12213],"id":"feature_076"},{"properties":{"price":29000,"use":"\u82b1\u5dfb","zone":"","station":"\u4f4f\u5b85"},"type":"Point","coordinates":[13647,34018],"id":"feature_077"},{"properties":{"price":25500,"use":"\u82b1\u5dfb","zone":"","station":"\u4f4f\u5b85"},"type":"Point","coordinates":[15100,35244],"id":"feature_078"},{"properties":{"price":14800,"use":"\u82b1\u5dfb","zone":"","station":"\u4f4f\u5b85"},"type":"Point","coordinates":[26561,33882],"id":"feature_079"},{"properties":{"price":32500,"use":"\u82b1\u5dfb","zone":"","station":"\u4f4f\u5b85"},"type":"Point","coordinates":[13413,35345],"id":"feature_080"},{"properties":{"price":16700,"use":"\u82b1\u5dfb","zone":"","station":"\u4f4f\u5b85"},"type":"Point","coordinates":[15971,36745],"id":"feature_081"},{"properties":{"price":18000,"use":"\u82b1\u5dfb","zone":"","station":"\u4f4f\u5b85"},"type":"Point","coordinates":[18702,42268],"id":"feature_082"},{"properties":{"price":14500,"use":"\u82b1\u5dfb","zone":"","station":"\u4f4f\u5b85"},"type":"Point","coordinates":[17143,41357],"id":"feature_083"},{"properties":{"price":38800,"use":"\u82b1\u5dfb","zone":"","station":"\u5e97\u8217\u517c\u4f4f\u5b85"},"type":"Point","coordinates":[14763,34118],"id":"feature_084"},{"properties":{"price":37600,"use":"\u82b1\u5dfb","zone":"","station":"\u5e97\u8217"},"type":"Point","coordinates":[13865,34647],"id":"feature_085"},{"properties":{"price":22600,"use":"\u82b1\u5dfb","zone":"","station":"\u5e97\u8217\u517c\u4f4f\u5b85"},"type":"Point","coordinates":[18354,41954],"id":"feature_086"},{"properties":{"price":17700,"use":"\u82b1\u5dfb","zone":"","station":"\u5e97\u8217\u517c\u4f4f\u5b85"},"type":"Point","coordinates":[25993,34216],"id":"feature_087"},{"properties":{"price":9210,"use":"\u82b1\u5dfb","zone":"","station":"\u5de5\u5834"},"type":"Point","coordinates":[14835,38408],"id":"feature_088"},{"properties":{"price":37100,"use":"\u5317\u4e0a","zone":"","station":"\u4f4f\u5b85"},"type":"Point","coordinates":[13878,27078],"id":"feature_089"},{"properties":{"price":24800,"use":"\u5317\u4e0a","zone":"","station":"\u4f4f\u5b85"},"type":"Point","coordinates":[14694,29324],"id":"feature_090"},{"properties":{"price":32100,"use":"\u5317\u4e0a","zone":"","station":"\u4f4f\u5b85"},"type":"Point","coordinates":[14459,28414],"id":"feature_091"},{"properties":{"price":34700,"use":"\u5317\u4e0a","zone":"","station":"\u4f4f\u5b85"},"type":"Point","coordinates":[16177,27140],"id":"feature_092"},{"properties":{"price":29600,"use":"\u5317\u4e0a","zone":"","station":"\u4f4f\u5b85"},"type":"Point","coordinates":[15807,28197],"id":"feature_093"},{"properties":{"price":56200,"use":"\u5317\u4e0a","zone":"","station":"\u4e8b\u52d9\u6240"},"type":"Point","coordinates":[15053,26533],"id":"feature_094"},{"properties":{"price":44500,"use":"\u5317\u4e0a","zone":"","station":"\u5e97\u8217"},"type":"Point","coordinates":[14021,27298],"id":"feature_095"},{"properties":{"price":46400,"use":"\u5317\u4e0a","zone":"","station":"\u5e97\u8217\u517c\u4f4f\u5b85"},"type":"Point","coordinates":[14084,26821],"id":"feature_096"},{"properties":{"price":14400,"use":"\u5317\u4e0a","zone":"","station":"\u5009\u5eab\u517c\u4e8b\u52d9\u6240"},"type":"Point","coordinates":[12978,28803],"id":"feature_097"},{"properties":{"price":27100,"use":"\u4e45\u6148","zone":"","station":"\u4f4f\u5b85"},"type":"Point","coordinates":[79222,92704],"id":"feature_098"},{"properties":{"price":17000,"use":"\u4e45\u6148","zone":"","station":"\u4f4f\u5b85"},"type":"Point","coordinates":[77283,92903],"id":"feature_099"},{"properties":{"price":20500,"use":"\u4e45\u6148","zone":"","station":"\u4f4f\u5b85"},"type":"Point","coordinates":[78400,92774],"id":"feature_100"},{"properties":{"price":31800,"use":"\u4e45\u6148","zone":"","station":"\u5e97\u8217\u517c\u4f4f\u5b85"},"type":"Point","coordinates":[79564,92663],"id":"feature_101"},{"properties":{"price":13600,"use":"\u9060\u91ce","zone":"","station":"\u4f4f\u5b85"},"type":"Point","coordinates":[54916,29716],"id":"feature_102"},{"properties":{"price":21500,"use":"\u9060\u91ce","zone":"","station":"\u4f4f\u5b85"},"type":"Point","coordinates":[55324,30502],"id":"feature_103"},{"properties":{"price":23400,"use":"\u9060\u91ce","zone":"","station":"\u4f4f\u5b85"},"type":"Point","coordinates":[56641,29980],"id":"feature_104"},{"properties":{"price":32000,"use":"\u9060\u91ce","zone":"","station":"\u5e97\u8217"},"type":"Point","coordinates":[55922,30012],"id":"feature_105"},{"properties":{"price":11400,"use":"\u4e00\u95a2","zone":"","station":"\u4f4f\u5b85"},"type":"Point","coordinates":[28813,5842],"id":"feature_106"},{"properties":{"price":7700,"use":"\u4e00\u95a2","zone":"","station":"\u4f4f\u5b85"},"type":"Point","coordinates":[27888,5641],"id":"feature_107"},{"properties":{"price":39200,"use":"\u4e00\u95a2","zone":"","station":"\u4f4f\u5b85"},"type":"Point","coordinates":[15348,816],"id":"feature_108"},{"properties":{"price":36600,"use":"\u4e00\u95a2","zone":"","station":"\u5efa\u7bc9\u4e2d"},"type":"Point","coordinates":[16462,1830],"id":"feature_109"},{"properties":{"price":18400,"use":"\u4e00\u95a2","zone":"","station":"\u4f4f\u5b85"},"type":"Point","coordinates":[36032,130],"id":"feature_110"},{"properties":{"price":15500,"use":"\u4e00\u95a2","zone":"","station":"\u4f4f\u5b85"},"type":"Point","coordinates":[37304,318],"id":"feature_111"},{"properties":{"price":44900,"use":"\u4e00\u95a2","zone":"","station":"\u5e97\u8217"},"type":"Point","coordinates":[16720,699],"id":"feature_112"},{"properties":{"price":54200,"use":"\u4e00\u95a2","zone":"","station":"\u5e97\u8217"},"type":"Point","coordinates":[14728,1448],"id":"feature_113"},{"properties":{"price":26200,"use":"\u4e00\u95a2","zone":"","station":"\u5e97\u8217"},"type":"Point","coordinates":[36605,0],"id":"feature_114"},{"properties":{"price":18200,"use":"\u4e00\u95a2","zone":"","station":"\u5e97\u8217\u517c\u4f4f\u5b85"},"type":"Point","coordinates":[28197,5431],"id":"feature_115"},{"properties":{"price":22300,"use":"\u9678\u524d\u9ad8\u7530","zone":"","station":"\u4f4f\u5b85"},"type":"Point","coordinates":[66025,7849],"id":"feature_116"},{"properties":{"price":22400,"use":"\u9678\u524d\u9ad8\u7530","zone":"","station":"\u4f4f\u5b85"},"type":"Point","coordinates":[66263,7559],"id":"feature_117"},{"properties":{"price":13900,"use":"\u9678\u524d\u9ad8\u7530","zone":"","station":"\u4f4f\u5b85"},"type":"Point","coordinates":[67796,7213],"id":"feature_118"},{"properties":{"price":35400,"use":"\u9678\u524d\u9ad8\u7530","zone":"","station":"\u5e97\u8217\u517c\u4e8b\u52d9\u6240"},"type":"Point","coordinates":[65754,7136],"id":"feature_119"},{"properties":{"price":58200,"use":"\u91dc\u77f3","zone":"","station":"\u4f4f\u5b85"},"type":"Point","coordinates":[88516,25766],"id":"feature_120"},{"properties":{"price":22900,"use":"\u91dc\u77f3","zone":"","station":"\u4f4f\u5b85"},"type":"Point","coordinates":[91910,24884],"id":"feature_121"},{"properties":{"price":40500,"use":"\u91dc\u77f3","zone":"","station":"\u4f4f\u5b85"},"type":"Point","coordinates":[86503,24952],"id":"feature_122"},{"properties":{"price":60700,"use":"\u91dc\u77f3","zone":"","station":"\u5e97\u8217\u517c\u4f4f\u5b85"},"type":"Point","coordinates":[90708,25915],"id":"feature_123"},{"properties":{"price":47100,"use":"\u91dc\u77f3","zone":"","station":"\u5e97\u8217"},"type":"Point","coordinates":[85051,24744],"id":"feature_124"},{"properties":{"price":22900,"use":"\u4e8c\u6238","zone":"","station":"\u4f4f\u5b85"},"type":"Point","coordinates":[32785,99999],"id":"feature_125"},{"properties":{"price":17700,"use":"\u4e8c\u6238","zone":"","station":"\u4f4f\u5b85"},"type":"Point","coordinates":[32569,98148],"id":"feature_126"},{"properties":{"price":23000,"use":"\u4e8c\u6238","zone":"","station":"\u4f4f\u5b85"},"type":"Point","coordinates":[32907,98697],"id":"feature_127"},{"properties":{"price":31200,"use":"\u4e8c\u6238","zone":"","station":"\u5e97\u8217\u517c\u4f4f\u5b85"},"type":"Point","coordinates":[33176,98593],"id":"feature_128"},{"properties":{"price":10900,"use":"\u516b\u5e61\u5e73","zone":"","station":"\u4f4f\u5b85"},"type":"Point","coordinates":[13161,72085],"id":"feature_129"},{"properties":{"price":15200,"use":"\u516b\u5e61\u5e73","zone":"","station":"\u4f4f\u5b85"},"type":"Point","coordinates":[12188,75148],"id":"feature_130"},{"properties":{"price":22800,"use":"\u516b\u5e61\u5e73","zone":"","station":"\u5e97\u8217"},"type":"Point","coordinates":[12781,72412],"id":"feature_131"},{"properties":{"price":27500,"use":"\u5965\u5dde","zone":"","station":"\u4f4f\u5b85"},"type":"Point","coordinates":[18404,16137],"id":"feature_132"},{"properties":{"price":20200,"use":"\u5965\u5dde","zone":"","station":"\u4f4f\u5b85"},"type":"Point","coordinates":[15649,17822],"id":"feature_133"},{"properties":{"price":28500,"use":"\u5965\u5dde","zone":"","station":"\u4f4f\u5b85"},"type":"Point","coordinates":[18362,16907],"id":"feature_134"},{"properties":{"price":16400,"use":"\u5965\u5dde","zone":"","station":"\u4f4f\u5b85"},"type":"Point","coordinates":[19086,18648],"id":"feature_135"},{"properties":{"price":9830,"use":"\u5965\u5dde","zone":"","station":"\u4f4f\u5b85"},"type":"Point","coordinates":[13909,14682],"id":"feature_136"},{"properties":{"price":19200,"use":"\u5965\u5dde","zone":"","station":"\u4f4f\u5b85"},"type":"Point","coordinates":[20087,19683],"id":"feature_137"},{"properties":{"price":13000,"use":"\u5965\u5dde","zone":"","station":"\u4f4f\u5b85"},"type":"Point","coordinates":[15593,10429],"id":"feature_138"},{"properties":{"price":17900,"use":"\u5965\u5dde","zone":"","station":"\u4f4f\u5b85"},"type":"Point","coordinates":[15369,8750],"id":"feature_139"},{"properties":{"price":11800,"use":"\u5965\u5dde","zone":"","station":"\u4f4f\u5b85"},"type":"Point","coordinates":[14512,15812],"id":"feature_140"},{"properties":{"price":36300,"use":"\u5965\u5dde","zone":"","station":"\u5e97\u8217"},"type":"Point","coordinates":[17574,16168],"id":"feature_141"},{"properties":{"price":33200,"use":"\u5965\u5dde","zone":"","station":"\u4e8b\u52d9\u6240"},"type":"Point","coordinates":[18092,15989],"id":"feature_142"},{"properties":{"price":24700,"use":"\u5965\u5dde","zone":"","station":"\u5e97\u8217"},"type":"Point","coordinates":[21050,19894],"id":"feature_143"},{"properties":{"price":19800,"use":"\u5965\u5dde","zone":"","station":"\u5e97\u8217\u517c\u4f4f\u5b85"},"type":"Point","coordinates":[15410,9587],"id":"feature_144"},{"properties":{"price":16700,"use":"\u6edd\u6ca2","zone":"","station":"\u4f4f\u5b85"},"type":"Point","coordinates":[5529,57926],"id":"feature_145"},{"properties":{"price":34900,"use":"\u6edd\u6ca2","zone":"","station":"\u4f4f\u5b85"},"type":"Point","coordinates":[17341,62602],"id":"feature_146"},{"properties":{"price":46500,"use":"\u6edd\u6ca2","zone":"","station":"\u4f4f\u5b85"},"type":"Point","coordinates":[14616,60438],"id":"feature_147"},{"properties":{"price":26300,"use":"\u6edd\u6ca2","zone":"","station":"\u4f4f\u5b85"},"type":"Point","coordinates":[10291,59650],"id":"feature_148"},{"properties":{"price":39300,"use":"\u6edd\u6ca2","zone":"","station":"\u4f4f\u5b85"},"type":"Point","coordinates":[10526,57762],"id":"feature_149"},{"properties":{"price":20800,"use":"\u6edd\u6ca2","zone":"","station":"\u4f4f\u5b85"},"type":"Point","coordinates":[11895,60151],"id":"feature_150"},{"properties":{"price":15100,"use":"\u96eb\u77f3","zone":"","station":"\u4f4f\u5b85"},"type":"Point","coordinates":[63,56949],"id":"feature_151"},{"properties":{"price":14400,"use":"\u96eb\u77f3","zone":"","station":"\u4f4f\u5b85"},"type":"Point","coordinates":[0,56479],"id":"feature_152"},{"properties":{"price":23600,"use":"\u96eb\u77f3","zone":"","station":"\u5e97\u8217"},"type":"Point","coordinates":[412,56540],"id":"feature_153"},{"properties":{"price":15900,"use":"\u5ca9\u624b","zone":"","station":"\u4f4f\u5b85"},"type":"Point","coordinates":[25826,77017],"id":"feature_154"},{"properties":{"price":11200,"use":"\u5ca9\u624b","zone":"","station":"\u4f4f\u5b85"},"type":"Point","coordinates":[24504,75573],"id":"feature_155"},{"properties":{"price":23000,"use":"\u5ca9\u624b","zone":"","station":"\u9280\u884c"},"type":"Point","coordinates":[25449,76799],"id":"feature_156"},{"properties":{"price":35300,"use":"\u7d2b\u6ce2","zone":"","station":"\u4f4f\u5b85"},"type":"Point","coordinates":[19976,47538],"id":"feature_157"},{"properties":{"price":30700,"use":"\u7d2b\u6ce2","zone":"","station":"\u4f4f\u5b85"},"type":"Point","coordinates":[18958,46068],"id":"feature_158"},{"properties":{"price":31500,"use":"\u7d2b\u6ce2","zone":"","station":"\u5e97\u8217"},"type":"Point","coordinates":[20067,46342],"id":"feature_159"},{"properties":{"price":45000,"use":"\u77e2\u5dfe","zone":"","station":"\u4f4f\u5b85"},"type":"Point","coordinates":[17464,49825],"id":"feature_160"},{"properties":{"price":55300,"use":"\u77e2\u5dfe","zone":"","station":"\u4f4f\u5b85"},"type":"Point","coordinates":[20154,50740],"id":"feature_161"},{"properties":{"price":65500,"use":"\u77e2\u5dfe","zone":"","station":"\u4f4f\u5b85"},"type":"Point","coordinates":[19086,50528],"id":"feature_162"},{"properties":{"price":14300,"use":"\u77e2\u5dfe","zone":"","station":"\u4f4f\u5b85"},"type":"Point","coordinates":[17124,51159],"id":"feature_163"},{"properties":{"price":75200,"use":"\u77e2\u5dfe","zone":"","station":"\u5e97\u8217"},"type":"Point","coordinates":[18260,50681],"id":"feature_164"},{"properties":{"price":25500,"use":"\u77e2\u5dfe","zone":"","station":"\u4e8b\u52d9\u6240\u517c\u5009\u5eab"},"type":"Point","coordinates":[14107,52626],"id":"feature_165"},{"properties":{"price":14600,"use":"\u91d1\u30b1\u5d0e","zone":"","station":"\u4f4f\u5b85"},"type":"Point","coordinates":[15689,20175],"id":"feature_166"},{"properties":{"price":21100,"use":"\u91d1\u30b1\u5d0e","zone":"","station":"\u4f4f\u5b85"},"type":"Point","coordinates":[12968,21782],"id":"feature_167"},{"properties":{"price":17800,"use":"\u91d1\u30b1\u5d0e","zone":"","station":"\u5e97\u8217"},"type":"Point","coordinates":[14995,20250],"id":"feature_168"},{"properties":{"price":17800,"use":"\u5e73\u6cc9","zone":"","station":"\u4f4f\u5b85"},"type":"Point","coordinates":[14037,5743],"id":"feature_169"},{"properties":{"price":15900,"use":"\u5e73\u6cc9","zone":"","station":"\u4f4f\u5b85"},"type":"Point","coordinates":[14970,5352],"id":"feature_170"},{"properties":{"price":25200,"use":"\u5e73\u6cc9","zone":"","station":"\u5e97\u8217\u517c\u4f4f\u5b85"},"type":"Point","coordinates":[14801,5183],"id":"feature_171"},{"properties":{"price":27200,"use":"\u5927\u69cc","zone":"","station":"\u4f4f\u5b85"},"type":"Point","coordinates":[92749,31992],"id":"feature_172"},{"properties":{"price":24600,"use":"\u5927\u69cc","zone":"","station":"\u4f4f\u5b85"},"type":"Point","coordinates":[92569,32770],"id":"feature_173"},{"properties":{"price":33700,"use":"\u5927\u69cc","zone":"","station":"\u5e97\u8217"},"type":"Point","coordinates":[93174,32158],"id":"feature_174"},{"properties":{"price":18600,"use":"\u5ca9\u624b\u5c71\u7530","zone":"","station":"\u4f4f\u5b85"},"type":"Point","coordinates":[99835,41354],"id":"feature_175"},{"properties":{"price":19600,"use":"\u5ca9\u624b\u5c71\u7530","zone":"","station":"\u4f4f\u5b85"},"type":"Point","coordinates":[99999,37525],"id":"feature_176"},{"properties":{"price":36500,"use":"\u5ca9\u624b\u5c71\u7530","zone":"","station":"\u5e97\u8217"},"type":"Point","coordinates":[97746,39844],"id":"feature_177"},{"properties":{"price":15500,"use":"\u5ca9\u6cc9","zone":"","station":"\u4f4f\u5b85"},"type":"Point","coordinates":[81664,67764],"id":"feature_178"},{"properties":{"price":17100,"use":"\u5ca9\u6cc9","zone":"","station":"\u4f4f\u5b85"},"type":"Point","coordinates":[82469,67506],"id":"feature_179"},{"properties":{"price":21100,"use":"\u5ca9\u6cc9","zone":"","station":"\u5e97\u8217\u517c\u4f4f\u5b85"},"type":"Point","coordinates":[81960,67618],"id":"feature_180"},{"properties":{"price":12800,"use":"\u5ca9\u624b\u91ce\u7530","zone":"","station":"\u4f4f\u5b85"},"type":"Point","coordinates":[84387,87149],"id":"feature_181"},{"properties":{"price":13300,"use":"\u5ca9\u624b\u91ce\u7530","zone":"","station":"\u4f4f\u5b85"},"type":"Point","coordinates":[84288,86850],"id":"feature_182"},{"properties":{"price":16000,"use":"\u4e00\u6238","zone":"","station":"\u4f4f\u5b85"},"type":"Point","coordinates":[33268,94708],"id":"feature_183"},{"properties":{"price":17100,"use":"\u4e00\u6238","zone":"","station":"\u4f4f\u5b85"},"type":"Point","coordinates":[32481,94254],"id":"feature_184"},{"properties":{"price":18300,"use":"\u4e00\u6238","zone":"","station":"\u5e97\u8217\u517c\u4f4f\u5b85"},"type":"Point","coordinates":[32852,94220],"id":"feature_185"}],"type":"GeometryCollection"}},"bbox":[140.96775,38.91743,141.97302,40.29102],"transform":{"scale":[1.005280052800524e-05,1.3736037360373604e-05],"translate":[140.96775,38.91743]},"arcs":[]}