{"type":"Topology","objects":{"data":{"geometries":[{"properties":{"price":45600,"use":"\u677e\u6c5f","zone":"","station":"\u4f4f\u5b85"},"type":"Point","coordinates":[84078,59129],"id":"feature_000"},{"properties":{"price":84900,"use":"\u677e\u6c5f","zone":"","station":"\u4f4f\u5b85"},"type":"Point","coordinates":[81475,60072],"id":"feature_001"},{"properties":{"price":75200,"use":"\u677e\u6c5f","zone":"","station":"\u4f4f\u5b85"},"type":"Point","coordinates":[82268,60381],"id":"feature_002"},{"properties":{"price":84300,"use":"\u677e\u6c5f","zone":"","station":"\u4f4f\u5b85"},"type":"Point","coordinates":[82385,60229],"id":"feature_003"},{"properties":{"price":73300,"use":"\u677e\u6c5f","zone":"","station":"\u4f4f\u5b85"},"type":"Point","coordinates":[82703,60074],"id":"feature_004"},{"properties":{"price":45600,"use":"\u677e\u6c5f","zone":"","station":"\u4f4f\u5b85"},"type":"Point","coordinates":[82382,61224],"id":"feature_005"},{"properties":{"price":56200,"use":"\u677e\u6c5f","zone":"","station":"\u7a7a\u5730"},"type":"Point","coordinates":[83634,59283],"id":"feature_006"},{"properties":{"price":68600,"use":"\u677e\u6c5f","zone":"","station":"\u4f4f\u5b85"},"type":"Point","coordinates":[83459,59530],"id":"feature_007"},{"properties":{"price":60500,"use":"\u677e\u6c5f","zone":"","station":"\u4f4f\u5b85"},"type":"Point","coordinates":[82947,58819],"id":"feature_008"},{"properties":{"price":45600,"use":"\u677e\u6c5f","zone":"","station":"\u4f4f\u5b85"},"type":"Point","coordinates":[82283,58902],"id":"feature_009"},{"properties":{"price":18000,"use":"\u677e\u6c5f","zone":"","station":"\u4f4f\u5b85"},"type":"Point","coordinates":[72754,56084],"id":"feature_010"},{"properties":{"price":51500,"use":"\u677e\u6c5f","zone":"","station":"\u4f4f\u5b85"},"type":"Point","coordinates":[83955,58560],"id":"feature_011"},{"properties":{"price":35100,"use":"\u677e\u6c5f","zone":"","station":"\u4f4f\u5b85"},"type":"Point","coordinates":[86300,58349],"id":"feature_012"},{"properties":{"price":37000,"use":"\u677e\u6c5f","zone":"","station":"\u4f4f\u5b85"},"type":"Point","coordinates":[79475,57934],"id":"feature_013"},{"properties":{"price":55200,"use":"\u677e\u6c5f","zone":"","station":"\u4f4f\u5b85"},"type":"Point","coordinates":[83401,61190],"id":"feature_014"},{"properties":{"price":68300,"use":"\u677e\u6c5f","zone":"","station":"\u4f4f\u5b85"},"type":"Point","coordinates":[81790,58492],"id":"feature_015"},{"properties":{"price":32100,"use":"\u677e\u6c5f","zone":"","station":"\u4f4f\u5b85"},"type":"Point","coordinates":[85487,58701],"id":"feature_016"},{"properties":{"price":56000,"use":"\u677e\u6c5f","zone":"","station":"\u4f4f\u5b85"},"type":"Point","coordinates":[82518,59314],"id":"feature_017"},{"properties":{"price":87500,"use":"\u677e\u6c5f","zone":"","station":"\u4f4f\u5b85"},"type":"Point","coordinates":[81807,60061],"id":"feature_018"},{"properties":{"price":61600,"use":"\u677e\u6c5f","zone":"","station":"\u4f4f\u5b85"},"type":"Point","coordinates":[82127,60676],"id":"feature_019"},{"properties":{"price":51900,"use":"\u677e\u6c5f","zone":"","station":"\u4f4f\u5b85"},"type":"Point","coordinates":[84365,58110],"id":"feature_020"},{"properties":{"price":51600,"use":"\u677e\u6c5f","zone":"","station":"\u5efa\u7bc9\u4e2d"},"type":"Point","coordinates":[84669,59343],"id":"feature_021"},{"properties":{"price":54500,"use":"\u677e\u6c5f","zone":"","station":"\u4f4f\u5b85"},"type":"Point","coordinates":[81348,60848],"id":"feature_022"},{"properties":{"price":46300,"use":"\u677e\u6c5f","zone":"","station":"\u4f4f\u5b85"},"type":"Point","coordinates":[81138,60075],"id":"feature_023"},{"properties":{"price":29100,"use":"\u677e\u6c5f","zone":"","station":"\u4f4f\u5b85"},"type":"Point","coordinates":[79216,57039],"id":"feature_024"},{"properties":{"price":15800,"use":"\u677e\u6c5f","zone":"","station":"\u4f4f\u5b85"},"type":"Point","coordinates":[89057,57851],"id":"feature_025"},{"properties":{"price":78000,"use":"\u677e\u6c5f","zone":"","station":"\u4f4f\u5b85"},"type":"Point","coordinates":[82321,58624],"id":"feature_026"},{"properties":{"price":45400,"use":"\u677e\u6c5f","zone":"","station":"\u4f4f\u5b85"},"type":"Point","coordinates":[81824,57986],"id":"feature_027"},{"properties":{"price":28100,"use":"\u677e\u6c5f","zone":"","station":"\u4f4f\u5b85"},"type":"Point","coordinates":[72795,56693],"id":"feature_028"},{"properties":{"price":88800,"use":"\u677e\u6c5f","zone":"","station":"\u5171\u540c\u4f4f\u5b85"},"type":"Point","coordinates":[83063,60549],"id":"feature_029"},{"properties":{"price":83900,"use":"\u677e\u6c5f","zone":"","station":"\u4f4f\u5b85"},"type":"Point","coordinates":[83190,60035],"id":"feature_030"},{"properties":{"price":33700,"use":"\u677e\u6c5f","zone":"","station":"\u4f4f\u5b85"},"type":"Point","coordinates":[88375,57851],"id":"feature_031"},{"properties":{"price":35700,"use":"\u677e\u6c5f","zone":"","station":"\u4f4f\u5b85"},"type":"Point","coordinates":[86998,58008],"id":"feature_032"},{"properties":{"price":42200,"use":"\u677e\u6c5f","zone":"","station":"\u4f4f\u5b85"},"type":"Point","coordinates":[87728,57854],"id":"feature_033"},{"properties":{"price":28000,"use":"\u677e\u6c5f","zone":"","station":"\u4f4f\u5b85"},"type":"Point","coordinates":[84634,59875],"id":"feature_034"},{"properties":{"price":21000,"use":"\u677e\u6c5f","zone":"","station":"\u4f4f\u5b85"},"type":"Point","coordinates":[85541,58225],"id":"feature_035"},{"properties":{"price":11000,"use":"\u677e\u6c5f","zone":"","station":"\u4f4f\u5b85"},"type":"Point","coordinates":[77257,60752],"id":"feature_036"},{"properties":{"price":41000,"use":"\u677e\u6c5f","zone":"","station":"\u4f4f\u5b85"},"type":"Point","coordinates":[83438,57978],"id":"feature_037"},{"properties":{"price":18200,"use":"\u677e\u6c5f","zone":"","station":"\u4f4f\u5b85"},"type":"Point","coordinates":[80781,57948],"id":"feature_038"},{"properties":{"price":22100,"use":"\u677e\u6c5f","zone":"","station":"\u7530"},"type":"Point","coordinates":[81485,60410],"id":"feature_039"},{"properties":{"price":62400,"use":"\u677e\u6c5f","zone":"","station":"\u533b\u9662\u517c\u4f4f\u5b85"},"type":"Point","coordinates":[82388,59448],"id":"feature_040"},{"properties":{"price":75000,"use":"\u677e\u6c5f","zone":"","station":"\u5e97\u8217\u517c\u4f4f\u5b85"},"type":"Point","coordinates":[81918,59957],"id":"feature_041"},{"properties":{"price":171000,"use":"\u677e\u6c5f","zone":"","station":"\u5e97\u8217\u517c\u533b\u9662"},"type":"Point","coordinates":[82733,59706],"id":"feature_042"},{"properties":{"price":83500,"use":"\u677e\u6c5f","zone":"","station":"\u5e97\u8217\u517c\u4f4f\u5b85"},"type":"Point","coordinates":[82320,59681],"id":"feature_043"},{"properties":{"price":116000,"use":"\u677e\u6c5f","zone":"","station":"\u7a7a\u5730"},"type":"Point","coordinates":[82766,59616],"id":"feature_044"},{"properties":{"price":60800,"use":"\u677e\u6c5f","zone":"","station":"\u5e97\u8217\u517c\u4f4f\u5b85"},"type":"Point","coordinates":[79380,57068],"id":"feature_045"},{"properties":{"price":79700,"use":"\u677e\u6c5f","zone":"","station":"\u533b\u9662\u517c\u4f4f\u5b85"},"type":"Point","coordinates":[82470,60081],"id":"feature_046"},{"properties":{"price":86800,"use":"\u677e\u6c5f","zone":"","station":"\u5e97\u8217"},"type":"Point","coordinates":[82302,59931],"id":"feature_047"},{"properties":{"price":80500,"use":"\u677e\u6c5f","zone":"","station":"\u4e8b\u52d9\u6240"},"type":"Point","coordinates":[82622,59586],"id":"feature_048"},{"properties":{"price":91400,"use":"\u677e\u6c5f","zone":"","station":"\u4e8b\u52d9\u6240"},"type":"Point","coordinates":[83673,59420],"id":"feature_049"},{"properties":{"price":62700,"use":"\u677e\u6c5f","zone":"","station":"\u4e8b\u52d9\u6240\u517c\u5009\u5eab"},"type":"Point","coordinates":[81806,58621],"id":"feature_050"},{"properties":{"price":98900,"use":"\u677e\u6c5f","zone":"","station":"\u5e97\u8217"},"type":"Point","coordinates":[82162,58384],"id":"feature_051"},{"properties":{"price":71600,"use":"\u677e\u6c5f","zone":"","station":"\u5e97\u8217"},"type":"Point","coordinates":[84149,58095],"id":"feature_052"},{"properties":{"price":22500,"use":"\u677e\u6c5f","zone":"","station":"\u5de5\u5834"},"type":"Point","coordinates":[84967,58580],"id":"feature_053"},{"properties":{"price":14000,"use":"\u677e\u6c5f","zone":"","station":"\u5de5\u5834"},"type":"Point","coordinates":[87498,58908],"id":"feature_054"},{"properties":{"price":48300,"use":"\u6d5c\u7530","zone":"","station":"\u4f4f\u5b85"},"type":"Point","coordinates":[21028,29095],"id":"feature_055"},{"properties":{"price":20700,"use":"\u6d5c\u7530","zone":"","station":"\u4f4f\u5b85"},"type":"Point","coordinates":[22207,31623],"id":"feature_056"},{"properties":{"price":38100,"use":"\u6d5c\u7530","zone":"","station":"\u4f4f\u5b85"},"type":"Point","coordinates":[19075,28359],"id":"feature_057"},{"properties":{"price":10500,"use":"\u6d5c\u7530","zone":"","station":"\u4f4f\u5b85"},"type":"Point","coordinates":[10887,23278],"id":"feature_058"},{"properties":{"price":9480,"use":"\u6d5c\u7530","zone":"","station":"\u4f4f\u5b85"},"type":"Point","coordinates":[31415,27199],"id":"feature_059"},{"properties":{"price":26200,"use":"\u6d5c\u7530","zone":"","station":"\u4f4f\u5b85"},"type":"Point","coordinates":[12742,22821],"id":"feature_060"},{"properties":{"price":90000,"use":"\u6d5c\u7530","zone":"","station":"\u5e97\u8217\u517c\u4e8b\u52d9\u6240"},"type":"Point","coordinates":[20798,29477],"id":"feature_061"},{"properties":{"price":46800,"use":"\u6d5c\u7530","zone":"","station":"\u5e97\u8217\u517c\u4f4f\u5b85"},"type":"Point","coordinates":[19662,29253],"id":"feature_062"},{"properties":{"price":19200,"use":"\u6d5c\u7530","zone":"","station":"\u5e97\u8217\u517c\u4f4f\u5b85"},"type":"Point","coordinates":[12330,23795],"id":"feature_063"},{"properties":{"price":41700,"use":"\u51fa\u96f2","zone":"","station":"\u4f4f\u5b85"},"type":"Point","coordinates":[62694,54827],"id":"feature_064"},{"properties":{"price":46000,"use":"\u51fa\u96f2","zone":"","station":"\u4f4f\u5b85"},"type":"Point","coordinates":[63162,53746],"id":"feature_065"},{"properties":{"price":16100,"use":"\u51fa\u96f2","zone":"","station":"\u4f4f\u5b85"},"type":"Point","coordinates":[58974,56256],"id":"feature_066"},{"properties":{"price":21400,"use":"\u51fa\u96f2","zone":"","station":"\u4f4f\u5b85"},"type":"Point","coordinates":[58657,55579],"id":"feature_067"},{"properties":{"price":44400,"use":"\u51fa\u96f2","zone":"","station":"\u4f4f\u5b85"},"type":"Point","coordinates":[62602,54244],"id":"feature_068"},{"properties":{"price":30200,"use":"\u51fa\u96f2","zone":"","station":"\u4f4f\u5b85"},"type":"Point","coordinates":[67228,57990],"id":"feature_069"},{"properties":{"price":24200,"use":"\u51fa\u96f2","zone":"","station":"\u4f4f\u5b85"},"type":"Point","coordinates":[67895,58294],"id":"feature_070"},{"properties":{"price":8490,"use":"\u51fa\u96f2","zone":"","station":"\u4f4f\u5b85"},"type":"Point","coordinates":[57323,51834],"id":"feature_071"},{"properties":{"price":27900,"use":"\u51fa\u96f2","zone":"","station":"\u4f4f\u5b85"},"type":"Point","coordinates":[66679,55379],"id":"feature_072"},{"properties":{"price":17900,"use":"\u51fa\u96f2","zone":"","station":"\u4f4f\u5b85"},"type":"Point","coordinates":[67643,55545],"id":"feature_073"},{"properties":{"price":97200,"use":"\u51fa\u96f2","zone":"","station":"\u5e97\u8217"},"type":"Point","coordinates":[63252,54200],"id":"feature_074"},{"properties":{"price":61200,"use":"\u51fa\u96f2","zone":"","station":"\u4e8b\u52d9\u6240"},"type":"Point","coordinates":[62875,54482],"id":"feature_075"},{"properties":{"price":24600,"use":"\u51fa\u96f2","zone":"","station":"\u5e97\u8217\u517c\u4f4f\u5b85"},"type":"Point","coordinates":[67387,55656],"id":"feature_076"},{"properties":{"price":35500,"use":"\u51fa\u96f2","zone":"","station":"\u5e97\u8217\u517c\u4f4f\u5b85"},"type":"Point","coordinates":[67340,58047],"id":"feature_077"},{"properties":{"price":48700,"use":"\u51fa\u96f2","zone":"","station":"\u4e8b\u52d9\u6240"},"type":"Point","coordinates":[63310,55338],"id":"feature_078"},{"properties":{"price":21600,"use":"\u51fa\u96f2","zone":"","station":"\u5e97\u8217"},"type":"Point","coordinates":[58140,52517],"id":"feature_079"},{"properties":{"price":28400,"use":"\u51fa\u96f2","zone":"","station":"\u5e97\u8217\u517c\u4f4f\u5b85"},"type":"Point","coordinates":[58435,56040],"id":"feature_080"},{"properties":{"price":47600,"use":"\u51fa\u96f2","zone":"","station":"\u5e97\u8217"},"type":"Point","coordinates":[63448,54306],"id":"feature_081"},{"properties":{"price":62300,"use":"\u51fa\u96f2","zone":"","station":"\u5e97\u8217"},"type":"Point","coordinates":[58797,56016],"id":"feature_082"},{"properties":{"price":30000,"use":"\u76ca\u7530","zone":"","station":"\u4f4f\u5b85"},"type":"Point","coordinates":[5170,17244],"id":"feature_083"},{"properties":{"price":32000,"use":"\u76ca\u7530","zone":"","station":"\u4f4f\u5b85"},"type":"Point","coordinates":[5778,17163],"id":"feature_084"},{"properties":{"price":27700,"use":"\u76ca\u7530","zone":"","station":"\u4f4f\u5b85"},"type":"Point","coordinates":[5752,17388],"id":"feature_085"},{"properties":{"price":30500,"use":"\u76ca\u7530","zone":"","station":"\u4f4f\u5b85"},"type":"Point","coordinates":[3466,18080],"id":"feature_086"},{"properties":{"price":3100,"use":"\u76ca\u7530","zone":"","station":"\u4f4f\u5b85"},"type":"Point","coordinates":[16495,11620],"id":"feature_087"},{"properties":{"price":60000,"use":"\u76ca\u7530","zone":"","station":"\u5e97\u8217"},"type":"Point","coordinates":[4801,17485],"id":"feature_088"},{"properties":{"price":49500,"use":"\u76ca\u7530","zone":"","station":"\u4e8b\u52d9\u6240"},"type":"Point","coordinates":[5025,17799],"id":"feature_089"},{"properties":{"price":50500,"use":"\u76ca\u7530","zone":"","station":"\u5e97\u8217"},"type":"Point","coordinates":[3356,18112],"id":"feature_090"},{"properties":{"price":25900,"use":"\u5cf6\u6839\u5927\u7530","zone":"","station":"\u4f4f\u5b85"},"type":"Point","coordinates":[46813,45374],"id":"feature_091"},{"properties":{"price":13400,"use":"\u5cf6\u6839\u5927\u7530","zone":"","station":"\u4f4f\u5b85"},"type":"Point","coordinates":[47363,47228],"id":"feature_092"},{"properties":{"price":12600,"use":"\u5cf6\u6839\u5927\u7530","zone":"","station":"\u4f4f\u5b85"},"type":"Point","coordinates":[40796,42550],"id":"feature_093"},{"properties":{"price":13300,"use":"\u5cf6\u6839\u5927\u7530","zone":"","station":"\u4f4f\u5b85"},"type":"Point","coordinates":[37127,39623],"id":"feature_094"},{"properties":{"price":13700,"use":"\u5cf6\u6839\u5927\u7530","zone":"","station":"\u4f4f\u5b85"},"type":"Point","coordinates":[40733,43134],"id":"feature_095"},{"properties":{"price":36800,"use":"\u5cf6\u6839\u5927\u7530","zone":"","station":"\u5e97\u8217\u3001\u4e8b\u52d9\u6240\u517c\u5171\u540c\u4f4f\u5b85"},"type":"Point","coordinates":[46900,45500],"id":"feature_096"},{"properties":{"price":15700,"use":"\u5cf6\u6839\u5927\u7530","zone":"","station":"\u5e97\u8217"},"type":"Point","coordinates":[40862,42961],"id":"feature_097"},{"properties":{"price":17400,"use":"\u5cf6\u6839\u5927\u7530","zone":"","station":"\u65c5\u9928"},"type":"Point","coordinates":[37327,39946],"id":"feature_098"},{"properties":{"price":34600,"use":"\u5b89\u6765","zone":"","station":"\u4f4f\u5b85"},"type":"Point","coordinates":[94954,57920],"id":"feature_099"},{"properties":{"price":30100,"use":"\u5b89\u6765","zone":"","station":"\u4f4f\u5b85"},"type":"Point","coordinates":[94356,57061],"id":"feature_100"},{"properties":{"price":22800,"use":"\u5b89\u6765","zone":"","station":"\u4f4f\u5b85"},"type":"Point","coordinates":[89743,54435],"id":"feature_101"},{"properties":{"price":18300,"use":"\u5b89\u6765","zone":"","station":"\u4f4f\u5b85"},"type":"Point","coordinates":[93011,57865],"id":"feature_102"},{"properties":{"price":28900,"use":"\u5b89\u6765","zone":"","station":"\u4f4f\u5b85"},"type":"Point","coordinates":[93793,57865],"id":"feature_103"},{"properties":{"price":45800,"use":"\u5b89\u6765","zone":"","station":"\u5e97\u8217"},"type":"Point","coordinates":[95040,57816],"id":"feature_104"},{"properties":{"price":25500,"use":"\u5b89\u6765","zone":"","station":"\u5e97\u8217\u517c\u4f4f\u5b85"},"type":"Point","coordinates":[89867,54428],"id":"feature_105"},{"properties":{"price":27500,"use":"\u5b89\u6765","zone":"","station":"\u4e8b\u52d9\u6240\u517c\u5009\u5eab"},"type":"Point","coordinates":[95641,57746],"id":"feature_106"},{"properties":{"price":29600,"use":"\u6c5f\u6d25","zone":"","station":"\u4f4f\u5b85"},"type":"Point","coordinates":[29247,35265],"id":"feature_107"},{"properties":{"price":16800,"use":"\u6c5f\u6d25","zone":"","station":"\u4f4f\u5b85"},"type":"Point","coordinates":[29973,35390],"id":"feature_108"},{"properties":{"price":18300,"use":"\u6c5f\u6d25","zone":"","station":"\u4f4f\u5b85"},"type":"Point","coordinates":[27980,34908],"id":"feature_109"},{"properties":{"price":7930,"use":"\u6c5f\u6d25","zone":"","station":"\u4f4f\u5b85"},"type":"Point","coordinates":[36652,32989],"id":"feature_110"},{"properties":{"price":43300,"use":"\u6c5f\u6d25","zone":"","station":"\u9280\u884c"},"type":"Point","coordinates":[29240,35474],"id":"feature_111"},{"properties":{"price":13300,"use":"\u96f2\u5357","zone":"","station":"\u4f4f\u5b85"},"type":"Point","coordinates":[77247,51957],"id":"feature_112"},{"properties":{"price":19200,"use":"\u96f2\u5357","zone":"","station":"\u4f4f\u5b85"},"type":"Point","coordinates":[76712,52244],"id":"feature_113"},{"properties":{"price":27300,"use":"\u96f2\u5357","zone":"","station":"\u4f4f\u5b85"},"type":"Point","coordinates":[71383,50585],"id":"feature_114"},{"properties":{"price":17000,"use":"\u96f2\u5357","zone":"","station":"\u4f4f\u5b85"},"type":"Point","coordinates":[72348,53264],"id":"feature_115"},{"properties":{"price":22000,"use":"\u96f2\u5357","zone":"","station":"\u4f4f\u5b85"},"type":"Point","coordinates":[71001,50650],"id":"feature_116"},{"properties":{"price":21200,"use":"\u96f2\u5357","zone":"","station":"\u4f4f\u5b85"},"type":"Point","coordinates":[72488,51111],"id":"feature_117"},{"properties":{"price":23700,"use":"\u96f2\u5357","zone":"","station":"\u5e97\u8217\u517c\u4f4f\u5b85"},"type":"Point","coordinates":[76289,52214],"id":"feature_118"},{"properties":{"price":21900,"use":"\u96f2\u5357","zone":"","station":"\u5e97\u8217"},"type":"Point","coordinates":[70472,50199],"id":"feature_119"},{"properties":{"price":21500,"use":"\u96f2\u5357","zone":"","station":"\u5e97\u8217\u517c\u4f4f\u5b85"},"type":"Point","coordinates":[72402,50260],"id":"feature_120"},{"properties":{"price":20200,"use":"\u5965\u51fa\u96f2","zone":"","station":"\u4f4f\u5b85"},"type":"Point","coordinates":[78896,45449],"id":"feature_121"},{"properties":{"price":11100,"use":"\u5965\u51fa\u96f2","zone":"","station":"\u4f4f\u5b85"},"type":"Point","coordinates":[78857,45746],"id":"feature_122"},{"properties":{"price":14500,"use":"\u5965\u51fa\u96f2","zone":"","station":"\u4f4f\u5b85"},"type":"Point","coordinates":[84468,44361],"id":"feature_123"},{"properties":{"price":12700,"use":"\u5965\u51fa\u96f2","zone":"","station":"\u4f4f\u5b85"},"type":"Point","coordinates":[84933,44289],"id":"feature_124"},{"properties":{"price":21300,"use":"\u5965\u51fa\u96f2","zone":"","station":"\u5e97\u8217\u517c\u4f4f\u5b85"},"type":"Point","coordinates":[79061,45329],"id":"feature_125"},{"properties":{"price":19700,"use":"\u5965\u51fa\u96f2","zone":"","station":"\u5e97\u8217\u517c\u4f4f\u5b85"},"type":"Point","coordinates":[84505,44385],"id":"feature_126"},{"properties":{"price":14200,"use":"\u5cf6\u6839\u5ddd\u672c","zone":"","station":"\u4f4f\u5b85"},"type":"Point","coordinates":[46622,34556],"id":"feature_127"},{"properties":{"price":9480,"use":"\u5cf6\u6839\u5ddd\u672c","zone":"","station":"\u4f4f\u5b85"},"type":"Point","coordinates":[46117,33847],"id":"feature_128"},{"properties":{"price":16000,"use":"\u5cf6\u6839\u5ddd\u672c","zone":"","station":"\u5e97\u8217\u517c\u4f4f\u5b85"},"type":"Point","coordinates":[46586,34397],"id":"feature_129"},{"properties":{"price":28800,"use":"\u6d25\u548c\u91ce","zone":"","station":"\u4f4f\u5b85"},"type":"Point","coordinates":[769,6459],"id":"feature_130"},{"properties":{"price":19800,"use":"\u6d25\u548c\u91ce","zone":"","station":"\u4f4f\u5b85"},"type":"Point","coordinates":[0,5383],"id":"feature_131"},{"properties":{"price":36900,"use":"\u6d25\u548c\u91ce","zone":"","station":"\u5e97\u8217"},"type":"Point","coordinates":[703,6265],"id":"feature_132"},{"properties":{"price":8150,"use":"\u5409\u8cc0","zone":"","station":"\u4f4f\u5b85"},"type":"Point","coordinates":[11626,138],"id":"feature_133"},{"properties":{"price":16200,"use":"\u5409\u8cc0","zone":"","station":"\u533b\u9662"},"type":"Point","coordinates":[11051,0],"id":"feature_134"},{"properties":{"price":26500,"use":"\u96a0\u5c90\u306e\u5cf6","zone":"","station":"\u4f4f\u5b85"},"type":"Point","coordinates":[99975,99526],"id":"feature_135"},{"properties":{"price":20800,"use":"\u96a0\u5c90\u306e\u5cf6","zone":"","station":"\u4f4f\u5b85"},"type":"Point","coordinates":[99189,99999],"id":"feature_136"},{"properties":{"price":48600,"use":"\u96a0\u5c90\u306e\u5cf6","zone":"","station":"\u5e97\u8217"},"type":"Point","coordinates":[99999,99335],"id":"feature_137"}],"type":"GeometryCollection"}},"bbox":[131.76331,34.35196,133.33381,36.21599],"transform":{"scale":[1.5705157051570614e-05,1.8640486404864046e-05],"translate":[131.76331,34.35196]},"arcs":[]}