{"type":"Topology","objects":{"data":{"geometries":[{"properties":{"price":129000,"use":"\u9ad8\u77e5","zone":"","station":"\u4f4f\u5b85"},"type":"Point","coordinates":[51586,79285],"id":"feature_000"},{"properties":{"price":84400,"use":"\u9ad8\u77e5","zone":"","station":"\u4f4f\u5b85"},"type":"Point","coordinates":[52609,78611],"id":"feature_001"},{"properties":{"price":24000,"use":"\u9ad8\u77e5","zone":"","station":"\u4f4f\u5b85"},"type":"Point","coordinates":[52964,73458],"id":"feature_002"},{"properties":{"price":43700,"use":"\u9ad8\u77e5","zone":"","station":"\u4f4f\u5b85"},"type":"Point","coordinates":[56993,81027],"id":"feature_003"},{"properties":{"price":92100,"use":"\u9ad8\u77e5","zone":"","station":"\u4f4f\u5b85"},"type":"Point","coordinates":[51257,80229],"id":"feature_004"},{"properties":{"price":57100,"use":"\u9ad8\u77e5","zone":"","station":"\u4f4f\u5b85"},"type":"Point","coordinates":[48753,77807],"id":"feature_005"},{"properties":{"price":83000,"use":"\u9ad8\u77e5","zone":"","station":"\u4f4f\u5b85"},"type":"Point","coordinates":[50415,79854],"id":"feature_006"},{"properties":{"price":68000,"use":"\u9ad8\u77e5","zone":"","station":"\u4f4f\u5b85"},"type":"Point","coordinates":[49338,80276],"id":"feature_007"},{"properties":{"price":81400,"use":"\u9ad8\u77e5","zone":"","station":"\u4f4f\u5b85"},"type":"Point","coordinates":[51323,78983],"id":"feature_008"},{"properties":{"price":91800,"use":"\u9ad8\u77e5","zone":"","station":"\u4f4f\u5b85"},"type":"Point","coordinates":[53042,78884],"id":"feature_009"},{"properties":{"price":39000,"use":"\u9ad8\u77e5","zone":"","station":"\u4f4f\u5b85"},"type":"Point","coordinates":[48418,79169],"id":"feature_010"},{"properties":{"price":68800,"use":"\u9ad8\u77e5","zone":"","station":"\u4f4f\u5b85"},"type":"Point","coordinates":[49176,78115],"id":"feature_011"},{"properties":{"price":23100,"use":"\u9ad8\u77e5","zone":"","station":"\u4f4f\u5b85"},"type":"Point","coordinates":[54383,74560],"id":"feature_012"},{"properties":{"price":37300,"use":"\u9ad8\u77e5","zone":"","station":"\u4f4f\u5b85"},"type":"Point","coordinates":[55480,78186],"id":"feature_013"},{"properties":{"price":81800,"use":"\u9ad8\u77e5","zone":"","station":"\u4f4f\u5b85"},"type":"Point","coordinates":[50481,80416],"id":"feature_014"},{"properties":{"price":126000,"use":"\u9ad8\u77e5","zone":"","station":"\u4f4f\u5b85"},"type":"Point","coordinates":[53115,80552],"id":"feature_015"},{"properties":{"price":99600,"use":"\u9ad8\u77e5","zone":"","station":"\u4f4f\u5b85"},"type":"Point","coordinates":[53249,81562],"id":"feature_016"},{"properties":{"price":69200,"use":"\u9ad8\u77e5","zone":"","station":"\u4f4f\u5b85"},"type":"Point","coordinates":[51643,81746],"id":"feature_017"},{"properties":{"price":124000,"use":"\u9ad8\u77e5","zone":"","station":"\u4f4f\u5b85"},"type":"Point","coordinates":[51382,81024],"id":"feature_018"},{"properties":{"price":115000,"use":"\u9ad8\u77e5","zone":"","station":"\u4f4f\u5b85"},"type":"Point","coordinates":[52076,80762],"id":"feature_019"},{"properties":{"price":97900,"use":"\u9ad8\u77e5","zone":"","station":"\u4f4f\u5b85"},"type":"Point","coordinates":[52501,81173],"id":"feature_020"},{"properties":{"price":50000,"use":"\u9ad8\u77e5","zone":"","station":"\u4f4f\u5b85"},"type":"Point","coordinates":[50072,77424],"id":"feature_021"},{"properties":{"price":86300,"use":"\u9ad8\u77e5","zone":"","station":"\u4f4f\u5b85"},"type":"Point","coordinates":[50002,78806],"id":"feature_022"},{"properties":{"price":81500,"use":"\u9ad8\u77e5","zone":"","station":"\u4f4f\u5b85"},"type":"Point","coordinates":[50506,78144],"id":"feature_023"},{"properties":{"price":51900,"use":"\u9ad8\u77e5","zone":"","station":"\u4f4f\u5b85"},"type":"Point","coordinates":[49028,77060],"id":"feature_024"},{"properties":{"price":47600,"use":"\u9ad8\u77e5","zone":"","station":"\u4f4f\u5b85"},"type":"Point","coordinates":[52667,74644],"id":"feature_025"},{"properties":{"price":58000,"use":"\u9ad8\u77e5","zone":"","station":"\u4f4f\u5b85"},"type":"Point","coordinates":[56354,81188],"id":"feature_026"},{"properties":{"price":94600,"use":"\u9ad8\u77e5","zone":"","station":"\u4f4f\u5b85"},"type":"Point","coordinates":[51472,80523],"id":"feature_027"},{"properties":{"price":62600,"use":"\u9ad8\u77e5","zone":"","station":"\u4f4f\u5b85"},"type":"Point","coordinates":[56381,80528],"id":"feature_028"},{"properties":{"price":89200,"use":"\u9ad8\u77e5","zone":"","station":"\u4f4f\u5b85"},"type":"Point","coordinates":[54942,79626],"id":"feature_029"},{"properties":{"price":87400,"use":"\u9ad8\u77e5","zone":"","station":"\u4f4f\u5b85"},"type":"Point","coordinates":[50737,79515],"id":"feature_030"},{"properties":{"price":70700,"use":"\u9ad8\u77e5","zone":"","station":"\u4f4f\u5b85"},"type":"Point","coordinates":[49592,78834],"id":"feature_031"},{"properties":{"price":96300,"use":"\u9ad8\u77e5","zone":"","station":"\u4f4f\u5b85"},"type":"Point","coordinates":[53250,79795],"id":"feature_032"},{"properties":{"price":141000,"use":"\u9ad8\u77e5","zone":"","station":"\u4f4f\u5b85"},"type":"Point","coordinates":[51663,79942],"id":"feature_033"},{"properties":{"price":47600,"use":"\u9ad8\u77e5","zone":"","station":"\u4f4f\u5b85"},"type":"Point","coordinates":[56810,79655],"id":"feature_034"},{"properties":{"price":70500,"use":"\u9ad8\u77e5","zone":"","station":"\u4f4f\u5b85"},"type":"Point","coordinates":[52502,78088],"id":"feature_035"},{"properties":{"price":81100,"use":"\u9ad8\u77e5","zone":"","station":"\u4f4f\u5b85"},"type":"Point","coordinates":[53231,78467],"id":"feature_036"},{"properties":{"price":41400,"use":"\u9ad8\u77e5","zone":"","station":"\u4f4f\u5b85"},"type":"Point","coordinates":[55265,79036],"id":"feature_037"},{"properties":{"price":30000,"use":"\u9ad8\u77e5","zone":"","station":"\u4f4f\u5b85"},"type":"Point","coordinates":[56512,82358],"id":"feature_038"},{"properties":{"price":25600,"use":"\u9ad8\u77e5","zone":"","station":"\u4f4f\u5b85"},"type":"Point","coordinates":[50420,83026],"id":"feature_039"},{"properties":{"price":15000,"use":"\u9ad8\u77e5","zone":"","station":"\u4f4f\u5b85"},"type":"Point","coordinates":[53240,73014],"id":"feature_040"},{"properties":{"price":27000,"use":"\u9ad8\u77e5","zone":"","station":"\u4f4f\u5b85"},"type":"Point","coordinates":[49492,73407],"id":"feature_041"},{"properties":{"price":18400,"use":"\u9ad8\u77e5","zone":"","station":"\u4f4f\u5b85"},"type":"Point","coordinates":[50622,72722],"id":"feature_042"},{"properties":{"price":66200,"use":"\u9ad8\u77e5","zone":"","station":"\u4f4f\u5b85"},"type":"Point","coordinates":[57078,79961],"id":"feature_043"},{"properties":{"price":83800,"use":"\u9ad8\u77e5","zone":"","station":"\u4f4f\u5b85"},"type":"Point","coordinates":[53991,82036],"id":"feature_044"},{"properties":{"price":157000,"use":"\u9ad8\u77e5","zone":"","station":"\u5171\u540c\u4f4f\u5b85"},"type":"Point","coordinates":[52321,79382],"id":"feature_045"},{"properties":{"price":110000,"use":"\u9ad8\u77e5","zone":"","station":"\u4f4f\u5b85"},"type":"Point","coordinates":[53678,80470],"id":"feature_046"},{"properties":{"price":162000,"use":"\u9ad8\u77e5","zone":"","station":"\u4f4f\u5b85"},"type":"Point","coordinates":[52256,80149],"id":"feature_047"},{"properties":{"price":29200,"use":"\u9ad8\u77e5","zone":"","station":"\u7530"},"type":"Point","coordinates":[49174,79068],"id":"feature_048"},{"properties":{"price":254000,"use":"\u9ad8\u77e5","zone":"","station":"\u53d6\u58ca\u4e2d"},"type":"Point","coordinates":[52456,79743],"id":"feature_049"},{"properties":{"price":133000,"use":"\u9ad8\u77e5","zone":"","station":"\u5e97\u8217\u517c\u4f4f\u5b85"},"type":"Point","coordinates":[52400,80096],"id":"feature_050"},{"properties":{"price":140000,"use":"\u9ad8\u77e5","zone":"","station":"\u5e97\u8217\u517c\u4f4f\u5b85"},"type":"Point","coordinates":[51745,79551],"id":"feature_051"},{"properties":{"price":160000,"use":"\u9ad8\u77e5","zone":"","station":"\u7a7a\u5730"},"type":"Point","coordinates":[52377,79597],"id":"feature_052"},{"properties":{"price":130000,"use":"\u9ad8\u77e5","zone":"","station":"\u8a3a\u7642\u6240"},"type":"Point","coordinates":[53350,79670],"id":"feature_053"},{"properties":{"price":217000,"use":"\u9ad8\u77e5","zone":"","station":"\u5e97\u8217"},"type":"Point","coordinates":[52709,79843],"id":"feature_054"},{"properties":{"price":130000,"use":"\u9ad8\u77e5","zone":"","station":"\u5e97\u8217\u517c\u4f4f\u5b85"},"type":"Point","coordinates":[52859,79530],"id":"feature_055"},{"properties":{"price":116000,"use":"\u9ad8\u77e5","zone":"","station":"\u5e97\u8217"},"type":"Point","coordinates":[52327,80433],"id":"feature_056"},{"properties":{"price":148000,"use":"\u9ad8\u77e5","zone":"","station":"\u5e97\u8217\u517c\u4e8b\u52d9\u6240"},"type":"Point","coordinates":[53088,81668],"id":"feature_057"},{"properties":{"price":127000,"use":"\u9ad8\u77e5","zone":"","station":"\u5e97\u8217\u517c\u4e8b\u52d9\u6240"},"type":"Point","coordinates":[52777,79083],"id":"feature_058"},{"properties":{"price":131000,"use":"\u9ad8\u77e5","zone":"","station":"\u4e8b\u52d9\u6240"},"type":"Point","coordinates":[53703,79567],"id":"feature_059"},{"properties":{"price":265000,"use":"\u9ad8\u77e5","zone":"","station":"\u5e97\u8217\u517c\u4f4f\u5b85"},"type":"Point","coordinates":[52512,79857],"id":"feature_060"},{"properties":{"price":181000,"use":"\u9ad8\u77e5","zone":"","station":"\u5e97\u8217\u517c\u5171\u540c\u4f4f\u5b85"},"type":"Point","coordinates":[52873,79827],"id":"feature_061"},{"properties":{"price":168000,"use":"\u9ad8\u77e5","zone":"","station":"\u4e8b\u52d9\u6240\u517c\u5e97\u8217"},"type":"Point","coordinates":[51884,79649],"id":"feature_062"},{"properties":{"price":154000,"use":"\u9ad8\u77e5","zone":"","station":"\u5e97\u8217"},"type":"Point","coordinates":[53540,80910],"id":"feature_063"},{"properties":{"price":97900,"use":"\u9ad8\u77e5","zone":"","station":"\u5e97\u8217\u517c\u5171\u540c\u4f4f\u5b85"},"type":"Point","coordinates":[50551,78787],"id":"feature_064"},{"properties":{"price":102000,"use":"\u9ad8\u77e5","zone":"","station":"\u4e8b\u52d9\u6240"},"type":"Point","coordinates":[55450,79548],"id":"feature_065"},{"properties":{"price":128000,"use":"\u9ad8\u77e5","zone":"","station":"\u5e97\u8217"},"type":"Point","coordinates":[54152,80513],"id":"feature_066"},{"properties":{"price":10800,"use":"\u9ad8\u77e5","zone":"","station":"\u5de5\u5834"},"type":"Point","coordinates":[54285,76244],"id":"feature_067"},{"properties":{"price":18200,"use":"\u9ad8\u77e5","zone":"","station":"\u5de5\u5834"},"type":"Point","coordinates":[54478,81124],"id":"feature_068"},{"properties":{"price":21200,"use":"\u5ba4\u6238","zone":"","station":"\u4f4f\u5b85"},"type":"Point","coordinates":[91094,52130],"id":"feature_069"},{"properties":{"price":13300,"use":"\u5ba4\u6238","zone":"","station":"\u4f4f\u5b85"},"type":"Point","coordinates":[91966,49498],"id":"feature_070"},{"properties":{"price":25100,"use":"\u5ba4\u6238","zone":"","station":"\u5e97\u8217\u517c\u4f4f\u5b85"},"type":"Point","coordinates":[90843,52194],"id":"feature_071"},{"properties":{"price":35200,"use":"\u5ba4\u6238","zone":"","station":"\u4e8b\u52d9\u6240"},"type":"Point","coordinates":[91076,52328],"id":"feature_072"},{"properties":{"price":27600,"use":"\u5b89\u82b8","zone":"","station":"\u4f4f\u5b85"},"type":"Point","coordinates":[75911,73570],"id":"feature_073"},{"properties":{"price":31500,"use":"\u5b89\u82b8","zone":"","station":"\u4f4f\u5b85"},"type":"Point","coordinates":[75159,73815],"id":"feature_074"},{"properties":{"price":41800,"use":"\u5b89\u82b8","zone":"","station":"\u5e97\u8217\u517c\u4f4f\u5b85"},"type":"Point","coordinates":[75728,73605],"id":"feature_075"},{"properties":{"price":34400,"use":"\u5b89\u82b8","zone":"","station":"\u5e97\u8217\u517c\u4f4f\u5b85"},"type":"Point","coordinates":[75257,73737],"id":"feature_076"},{"properties":{"price":70000,"use":"\u5357\u56fd","zone":"","station":"\u4f4f\u5b85"},"type":"Point","coordinates":[58791,81092],"id":"feature_077"},{"properties":{"price":63500,"use":"\u5357\u56fd","zone":"","station":"\u4f4f\u5b85"},"type":"Point","coordinates":[58358,81277],"id":"feature_078"},{"properties":{"price":68600,"use":"\u5357\u56fd","zone":"","station":"\u4f4f\u5b85"},"type":"Point","coordinates":[59415,81392],"id":"feature_079"},{"properties":{"price":25500,"use":"\u5357\u56fd","zone":"","station":"\u4f4f\u5b85"},"type":"Point","coordinates":[58863,78535],"id":"feature_080"},{"properties":{"price":26600,"use":"\u5357\u56fd","zone":"","station":"\u4f4f\u5b85"},"type":"Point","coordinates":[59151,84240],"id":"feature_081"},{"properties":{"price":84900,"use":"\u5357\u56fd","zone":"","station":"\u5e97\u8217"},"type":"Point","coordinates":[59500,80456],"id":"feature_082"},{"properties":{"price":73600,"use":"\u5357\u56fd","zone":"","station":"\u5e97\u8217"},"type":"Point","coordinates":[59401,81232],"id":"feature_083"},{"properties":{"price":25600,"use":"\u5357\u56fd","zone":"","station":"\u4e8b\u52d9\u6240\u517c\u8377\u634c\u6240"},"type":"Point","coordinates":[57842,82058],"id":"feature_084"},{"properties":{"price":41100,"use":"\u571f\u4f50","zone":"","station":"\u4f4f\u5b85"},"type":"Point","coordinates":[45006,73054],"id":"feature_085"},{"properties":{"price":17800,"use":"\u571f\u4f50","zone":"","station":"\u4f4f\u5b85"},"type":"Point","coordinates":[41177,70978],"id":"feature_086"},{"properties":{"price":27900,"use":"\u571f\u4f50","zone":"","station":"\u4f4f\u5b85"},"type":"Point","coordinates":[45385,74410],"id":"feature_087"},{"properties":{"price":41600,"use":"\u571f\u4f50","zone":"","station":"\u5e97\u8217\u517c\u4f4f\u5b85"},"type":"Point","coordinates":[45225,73334],"id":"feature_088"},{"properties":{"price":56400,"use":"\u571f\u4f50","zone":"","station":"\u5e97\u8217"},"type":"Point","coordinates":[45745,73277],"id":"feature_089"},{"properties":{"price":33000,"use":"\u9808\u5d0e","zone":"","station":"\u4f4f\u5b85"},"type":"Point","coordinates":[36287,65215],"id":"feature_090"},{"properties":{"price":30900,"use":"\u9808\u5d0e","zone":"","station":"\u4f4f\u5b85"},"type":"Point","coordinates":[36561,62553],"id":"feature_091"},{"properties":{"price":23400,"use":"\u9808\u5d0e","zone":"","station":"\u4f4f\u5b85"},"type":"Point","coordinates":[35696,62661],"id":"feature_092"},{"properties":{"price":43100,"use":"\u9808\u5d0e","zone":"","station":"\u5e97\u8217\u517c\u4f4f\u5b85"},"type":"Point","coordinates":[36883,62488],"id":"feature_093"},{"properties":{"price":40300,"use":"\u9808\u5d0e","zone":"","station":"\u5e97\u8217"},"type":"Point","coordinates":[36664,64235],"id":"feature_094"},{"properties":{"price":23800,"use":"\u5bbf\u6bdb","zone":"","station":"\u4f4f\u5b85"},"type":"Point","coordinates":[0,15118],"id":"feature_095"},{"properties":{"price":25400,"use":"\u5bbf\u6bdb","zone":"","station":"\u4f4f\u5b85"},"type":"Point","coordinates":[1249,16097],"id":"feature_096"},{"properties":{"price":26500,"use":"\u5bbf\u6bdb","zone":"","station":"\u4f4f\u5b85"},"type":"Point","coordinates":[288,15946],"id":"feature_097"},{"properties":{"price":28000,"use":"\u5bbf\u6bdb","zone":"","station":"\u5e97\u8217\u517c\u4f4f\u5b85"},"type":"Point","coordinates":[1242,16127],"id":"feature_098"},{"properties":{"price":25100,"use":"\u5bbf\u6bdb","zone":"","station":"\u5e97\u8217\u517c\u4f4f\u5b85"},"type":"Point","coordinates":[540,15332],"id":"feature_099"},{"properties":{"price":23600,"use":"\u571f\u4f50\u6e05\u6c34","zone":"","station":"\u4f4f\u5b85"},"type":"Point","coordinates":[16090,173],"id":"feature_100"},{"properties":{"price":14200,"use":"\u571f\u4f50\u6e05\u6c34","zone":"","station":"\u4f4f\u5b85"},"type":"Point","coordinates":[10787,1265],"id":"feature_101"},{"properties":{"price":32800,"use":"\u571f\u4f50\u6e05\u6c34","zone":"","station":"\u5e97\u8217\u517c\u4f4f\u5b85"},"type":"Point","coordinates":[15670,88],"id":"feature_102"},{"properties":{"price":25000,"use":"\u571f\u4f50\u6e05\u6c34","zone":"","station":"\u5e97\u8217\u517c\u4f4f\u5b85"},"type":"Point","coordinates":[15569,0],"id":"feature_103"},{"properties":{"price":42000,"use":"\u56db\u4e07\u5341","zone":"","station":"\u4f4f\u5b85"},"type":"Point","coordinates":[14355,22130],"id":"feature_104"},{"properties":{"price":21900,"use":"\u56db\u4e07\u5341","zone":"","station":"\u4f4f\u5b85"},"type":"Point","coordinates":[16516,21330],"id":"feature_105"},{"properties":{"price":35000,"use":"\u56db\u4e07\u5341","zone":"","station":"\u4f4f\u5b85"},"type":"Point","coordinates":[13103,21232],"id":"feature_106"},{"properties":{"price":47500,"use":"\u56db\u4e07\u5341","zone":"","station":"\u5e97\u8217\u517c\u4f4f\u5b85"},"type":"Point","coordinates":[14396,21841],"id":"feature_107"},{"properties":{"price":58400,"use":"\u56db\u4e07\u5341","zone":"","station":"\u5e97\u8217"},"type":"Point","coordinates":[15654,20910],"id":"feature_108"},{"properties":{"price":20700,"use":"\u9ad8\u77e5\u9999\u5357","zone":"","station":"\u4f4f\u5b85"},"type":"Point","coordinates":[66177,77207],"id":"feature_109"},{"properties":{"price":13200,"use":"\u9ad8\u77e5\u9999\u5357","zone":"","station":"\u4f4f\u5b85"},"type":"Point","coordinates":[65134,82054],"id":"feature_110"},{"properties":{"price":45000,"use":"\u9ad8\u77e5\u9999\u5357","zone":"","station":"\u4f4f\u5b85"},"type":"Point","coordinates":[62093,80485],"id":"feature_111"},{"properties":{"price":79700,"use":"\u9ad8\u77e5\u9999\u5357","zone":"","station":"\u5e97\u8217\u517c\u99d0\u8eca\u5834"},"type":"Point","coordinates":[62456,79873],"id":"feature_112"},{"properties":{"price":34300,"use":"\u9ad8\u77e5\u9999\u5357","zone":"","station":"\u5e97\u8217\u517c\u4f4f\u5b85"},"type":"Point","coordinates":[65967,77260],"id":"feature_113"},{"properties":{"price":61800,"use":"\u9ad8\u77e5\u9999\u7f8e","zone":"","station":"\u4f4f\u5b85"},"type":"Point","coordinates":[61865,84285],"id":"feature_114"},{"properties":{"price":57500,"use":"\u9ad8\u77e5\u9999\u7f8e","zone":"","station":"\u4f4f\u5b85"},"type":"Point","coordinates":[62258,84850],"id":"feature_115"},{"properties":{"price":53800,"use":"\u9ad8\u77e5\u9999\u7f8e","zone":"","station":"\u4f4f\u5b85"},"type":"Point","coordinates":[61283,84349],"id":"feature_116"},{"properties":{"price":23400,"use":"\u9ad8\u77e5\u9999\u7f8e","zone":"","station":"\u4f4f\u5b85"},"type":"Point","coordinates":[62268,83913],"id":"feature_117"},{"properties":{"price":59500,"use":"\u9ad8\u77e5\u9999\u7f8e","zone":"","station":"\u5e97\u8217\u517c\u4f4f\u5b85"},"type":"Point","coordinates":[61648,84420],"id":"feature_118"},{"properties":{"price":13400,"use":"\u6771\u6d0b","zone":"","station":"\u4f4f\u5b85"},"type":"Point","coordinates":[99935,78466],"id":"feature_119"},{"properties":{"price":8750,"use":"\u6771\u6d0b","zone":"","station":"\u4f4f\u5b85"},"type":"Point","coordinates":[99101,76204],"id":"feature_120"},{"properties":{"price":16000,"use":"\u6771\u6d0b","zone":"","station":"\u5e97\u8217\u517c\u4f4f\u5b85"},"type":"Point","coordinates":[99999,78315],"id":"feature_121"},{"properties":{"price":20300,"use":"\u672c\u5c71","zone":"","station":"\u4f4f\u5b85"},"type":"Point","coordinates":[55785,99999],"id":"feature_122"},{"properties":{"price":13200,"use":"\u672c\u5c71","zone":"","station":"\u4f4f\u5b85"},"type":"Point","coordinates":[55423,99823],"id":"feature_123"},{"properties":{"price":24600,"use":"\u672c\u5c71","zone":"","station":"\u4e8b\u52d9\u6240"},"type":"Point","coordinates":[55828,99942],"id":"feature_124"},{"properties":{"price":16000,"use":"\u3068\u3055","zone":"","station":"\u4f4f\u5b85"},"type":"Point","coordinates":[53436,98931],"id":"feature_125"},{"properties":{"price":15000,"use":"\u3068\u3055","zone":"","station":"\u4f4f\u5b85"},"type":"Point","coordinates":[53708,99201],"id":"feature_126"},{"properties":{"price":25700,"use":"\u3068\u3055","zone":"","station":"\u5e97\u8217\u517c\u4f4f\u5b85"},"type":"Point","coordinates":[53414,99026],"id":"feature_127"},{"properties":{"price":62900,"use":"\u3044\u306e","zone":"","station":"\u4f4f\u5b85"},"type":"Point","coordinates":[45857,78681],"id":"feature_128"},{"properties":{"price":60500,"use":"\u3044\u306e","zone":"","station":"\u4f4f\u5b85"},"type":"Point","coordinates":[47000,79091],"id":"feature_129"},{"properties":{"price":24300,"use":"\u3044\u306e","zone":"","station":"\u4f4f\u5b85"},"type":"Point","coordinates":[45899,75740],"id":"feature_130"},{"properties":{"price":69000,"use":"\u3044\u306e","zone":"","station":"\u5e97\u8217\u517c\u4f4f\u5b85"},"type":"Point","coordinates":[45455,78570],"id":"feature_131"},{"properties":{"price":25700,"use":"\u4e2d\u571f\u4f50","zone":"","station":"\u4f4f\u5b85"},"type":"Point","coordinates":[33015,55890],"id":"feature_132"},{"properties":{"price":17900,"use":"\u4e2d\u571f\u4f50","zone":"","station":"\u4f4f\u5b85"},"type":"Point","coordinates":[32682,56817],"id":"feature_133"},{"properties":{"price":29000,"use":"\u4e2d\u571f\u4f50","zone":"","station":"\u5e97\u8217\u517c\u4f4f\u5b85"},"type":"Point","coordinates":[32927,56310],"id":"feature_134"},{"properties":{"price":29900,"use":"\u4f50\u5ddd","zone":"","station":"\u4f4f\u5b85"},"type":"Point","coordinates":[36845,73644],"id":"feature_135"},{"properties":{"price":24600,"use":"\u4f50\u5ddd","zone":"","station":"\u4f4f\u5b85"},"type":"Point","coordinates":[36776,74764],"id":"feature_136"},{"properties":{"price":31800,"use":"\u4f50\u5ddd","zone":"","station":"\u5e97\u8217\u517c\u4f4f\u5b85"},"type":"Point","coordinates":[36939,73577],"id":"feature_137"},{"properties":{"price":28700,"use":"\u8d8a\u77e5","zone":"","station":"\u4f4f\u5b85"},"type":"Point","coordinates":[34572,76891],"id":"feature_138"},{"properties":{"price":25300,"use":"\u8d8a\u77e5","zone":"","station":"\u4f4f\u5b85"},"type":"Point","coordinates":[34338,76641],"id":"feature_139"},{"properties":{"price":34600,"use":"\u8d8a\u77e5","zone":"","station":"\u5e97\u8217\u517c\u4f4f\u5b85"},"type":"Point","coordinates":[34513,76881],"id":"feature_140"},{"properties":{"price":23300,"use":"\u9ad8\u77e5\u56db\u4e07\u5341","zone":"","station":"\u4f4f\u5b85"},"type":"Point","coordinates":[26784,44669],"id":"feature_141"},{"properties":{"price":20700,"use":"\u9ad8\u77e5\u56db\u4e07\u5341","zone":"","station":"\u4f4f\u5b85"},"type":"Point","coordinates":[27612,43242],"id":"feature_142"},{"properties":{"price":30700,"use":"\u9ad8\u77e5\u56db\u4e07\u5341","zone":"","station":"\u5e97\u8217\u517c\u4f4f\u5b85"},"type":"Point","coordinates":[26955,44085],"id":"feature_143"},{"properties":{"price":21700,"use":"\u9ed2\u6f6e","zone":"","station":"\u4f4f\u5b85"},"type":"Point","coordinates":[25146,30708],"id":"feature_144"},{"properties":{"price":21100,"use":"\u9ed2\u6f6e","zone":"","station":"\u4f4f\u5b85"},"type":"Point","coordinates":[18331,24422],"id":"feature_145"},{"properties":{"price":23100,"use":"\u9ed2\u6f6e","zone":"","station":"\u5e97\u8217\u517c\u4f4f\u5b85"},"type":"Point","coordinates":[25165,30657],"id":"feature_146"}],"type":"GeometryCollection"}},"bbox":[132.70492,32.77898,134.29438,33.758],"transform":{"scale":[1.58947589475895e-05,9.790297902979086e-06],"translate":[132.70492,32.77898]},"arcs":[]}