{"type":"Topology","objects":{"data":{"geometries":[{"properties":{"price":93500,"use":"\u9ce5\u53d6","zone":"","station":"\u4f4f\u5b85"},"type":"Point","coordinates":[86431,78002],"id":"feature_000"},{"properties":{"price":55600,"use":"\u9ce5\u53d6","zone":"","station":"\u4f4f\u5b85"},"type":"Point","coordinates":[82022,82391],"id":"feature_001"},{"properties":{"price":45300,"use":"\u9ce5\u53d6","zone":"","station":"\u4f4f\u5b85"},"type":"Point","coordinates":[85280,76346],"id":"feature_002"},{"properties":{"price":19500,"use":"\u9ce5\u53d6","zone":"","station":"\u4f4f\u5b85"},"type":"Point","coordinates":[85458,63863],"id":"feature_003"},{"properties":{"price":65000,"use":"\u9ce5\u53d6","zone":"","station":"\u4f4f\u5b85"},"type":"Point","coordinates":[85135,72207],"id":"feature_004"},{"properties":{"price":41600,"use":"\u9ce5\u53d6","zone":"","station":"\u4f4f\u5b85"},"type":"Point","coordinates":[84639,85741],"id":"feature_005"},{"properties":{"price":20500,"use":"\u9ce5\u53d6","zone":"","station":"\u4f4f\u5b85"},"type":"Point","coordinates":[84366,70834],"id":"feature_006"},{"properties":{"price":38700,"use":"\u9ce5\u53d6","zone":"","station":"\u4f4f\u5b85"},"type":"Point","coordinates":[87111,73426],"id":"feature_007"},{"properties":{"price":58500,"use":"\u9ce5\u53d6","zone":"","station":"\u4f4f\u5b85"},"type":"Point","coordinates":[85099,79979],"id":"feature_008"},{"properties":{"price":42600,"use":"\u9ce5\u53d6","zone":"","station":"\u4f4f\u5b85"},"type":"Point","coordinates":[87868,72728],"id":"feature_009"},{"properties":{"price":75600,"use":"\u9ce5\u53d6","zone":"","station":"\u4f4f\u5b85"},"type":"Point","coordinates":[86777,75056],"id":"feature_010"},{"properties":{"price":69500,"use":"\u9ce5\u53d6","zone":"","station":"\u4f4f\u5b85"},"type":"Point","coordinates":[86063,78236],"id":"feature_011"},{"properties":{"price":84000,"use":"\u9ce5\u53d6","zone":"","station":"\u4f4f\u5b85"},"type":"Point","coordinates":[86221,77513],"id":"feature_012"},{"properties":{"price":13800,"use":"\u9ce5\u53d6","zone":"","station":"\u4f4f\u5b85"},"type":"Point","coordinates":[66326,82806],"id":"feature_013"},{"properties":{"price":51000,"use":"\u9ce5\u53d6","zone":"","station":"\u4f4f\u5b85"},"type":"Point","coordinates":[88300,70969],"id":"feature_014"},{"properties":{"price":46000,"use":"\u9ce5\u53d6","zone":"","station":"\u4f4f\u5b85"},"type":"Point","coordinates":[83946,77825],"id":"feature_015"},{"properties":{"price":19300,"use":"\u9ce5\u53d6","zone":"","station":"\u4f4f\u5b85"},"type":"Point","coordinates":[88370,62091],"id":"feature_016"},{"properties":{"price":49800,"use":"\u9ce5\u53d6","zone":"","station":"\u4f4f\u5b85"},"type":"Point","coordinates":[87648,69886],"id":"feature_017"},{"properties":{"price":66000,"use":"\u9ce5\u53d6","zone":"","station":"\u4f4f\u5b85"},"type":"Point","coordinates":[85235,68011],"id":"feature_018"},{"properties":{"price":11900,"use":"\u9ce5\u53d6","zone":"","station":"\u4f4f\u5b85"},"type":"Point","coordinates":[83090,40448],"id":"feature_019"},{"properties":{"price":28300,"use":"\u9ce5\u53d6","zone":"","station":"\u4f4f\u5b85"},"type":"Point","coordinates":[82470,86381],"id":"feature_020"},{"properties":{"price":48700,"use":"\u9ce5\u53d6","zone":"","station":"\u4f4f\u5b85"},"type":"Point","coordinates":[85584,82738],"id":"feature_021"},{"properties":{"price":62800,"use":"\u9ce5\u53d6","zone":"","station":"\u4f4f\u5b85"},"type":"Point","coordinates":[86489,69738],"id":"feature_022"},{"properties":{"price":19600,"use":"\u9ce5\u53d6","zone":"","station":"\u4f4f\u5b85"},"type":"Point","coordinates":[71017,80693],"id":"feature_023"},{"properties":{"price":29000,"use":"\u9ce5\u53d6","zone":"","station":"\u4f4f\u5b85"},"type":"Point","coordinates":[89192,68950],"id":"feature_024"},{"properties":{"price":8300,"use":"\u9ce5\u53d6","zone":"","station":"\u4f4f\u5b85"},"type":"Point","coordinates":[65550,79857],"id":"feature_025"},{"properties":{"price":23000,"use":"\u9ce5\u53d6","zone":"","station":"\u4f4f\u5b85"},"type":"Point","coordinates":[90517,89899],"id":"feature_026"},{"properties":{"price":12700,"use":"\u9ce5\u53d6","zone":"","station":"\u4f4f\u5b85"},"type":"Point","coordinates":[90022,94282],"id":"feature_027"},{"properties":{"price":16500,"use":"\u9ce5\u53d6","zone":"","station":"\u7a7a\u5730"},"type":"Point","coordinates":[71894,63545],"id":"feature_028"},{"properties":{"price":3980,"use":"\u9ce5\u53d6","zone":"","station":"\u4f4f\u5b85"},"type":"Point","coordinates":[72982,61050],"id":"feature_029"},{"properties":{"price":15800,"use":"\u9ce5\u53d6","zone":"","station":"\u4f4f\u5b85"},"type":"Point","coordinates":[77479,84301],"id":"feature_030"},{"properties":{"price":9300,"use":"\u9ce5\u53d6","zone":"","station":"\u4f4f\u5b85"},"type":"Point","coordinates":[81126,63098],"id":"feature_031"},{"properties":{"price":21700,"use":"\u9ce5\u53d6","zone":"","station":"\u4f4f\u5b85"},"type":"Point","coordinates":[77984,74314],"id":"feature_032"},{"properties":{"price":49000,"use":"\u9ce5\u53d6","zone":"","station":"\u4f4f\u5b85"},"type":"Point","coordinates":[88058,67985],"id":"feature_033"},{"properties":{"price":57900,"use":"\u9ce5\u53d6","zone":"","station":"\u4f4f\u5b85"},"type":"Point","coordinates":[82026,80703],"id":"feature_034"},{"properties":{"price":39000,"use":"\u9ce5\u53d6","zone":"","station":"\u4f4f\u5b85"},"type":"Point","coordinates":[85034,78304],"id":"feature_035"},{"properties":{"price":15300,"use":"\u9ce5\u53d6","zone":"","station":"\u7530"},"type":"Point","coordinates":[85553,83944],"id":"feature_036"},{"properties":{"price":72800,"use":"\u9ce5\u53d6","zone":"","station":"\u5e97\u8217"},"type":"Point","coordinates":[86025,74661],"id":"feature_037"},{"properties":{"price":56100,"use":"\u9ce5\u53d6","zone":"","station":"\u65c5\u9928"},"type":"Point","coordinates":[85691,75339],"id":"feature_038"},{"properties":{"price":117000,"use":"\u9ce5\u53d6","zone":"","station":"\u5e97\u8217\u517c\u4e8b\u52d9\u6240"},"type":"Point","coordinates":[85689,74085],"id":"feature_039"},{"properties":{"price":76500,"use":"\u9ce5\u53d6","zone":"","station":"\u5e97\u8217\u517c\u4f4f\u5b85"},"type":"Point","coordinates":[85886,74635],"id":"feature_040"},{"properties":{"price":78500,"use":"\u9ce5\u53d6","zone":"","station":"\u5e97\u8217\u517c\u4e8b\u52d9\u6240"},"type":"Point","coordinates":[86432,76519],"id":"feature_041"},{"properties":{"price":64600,"use":"\u9ce5\u53d6","zone":"","station":"\u5e97\u8217\u517c\u4f4f\u5b85"},"type":"Point","coordinates":[85457,74339],"id":"feature_042"},{"properties":{"price":70800,"use":"\u9ce5\u53d6","zone":"","station":"\u5e97\u8217"},"type":"Point","coordinates":[84001,79777],"id":"feature_043"},{"properties":{"price":78100,"use":"\u9ce5\u53d6","zone":"","station":"\u5e97\u8217"},"type":"Point","coordinates":[85872,72117],"id":"feature_044"},{"properties":{"price":66000,"use":"\u9ce5\u53d6","zone":"","station":"\u5e97\u8217\u517c\u5171\u540c\u4f4f\u5b85"},"type":"Point","coordinates":[86401,71767],"id":"feature_045"},{"properties":{"price":58300,"use":"\u9ce5\u53d6","zone":"","station":"\u5e97\u8217"},"type":"Point","coordinates":[83485,82893],"id":"feature_046"},{"properties":{"price":25700,"use":"\u9ce5\u53d6","zone":"","station":"\u9280\u884c"},"type":"Point","coordinates":[83458,46268],"id":"feature_047"},{"properties":{"price":52900,"use":"\u9ce5\u53d6","zone":"","station":"\u5e97\u8217\u517c\u4f4f\u5b85"},"type":"Point","coordinates":[85272,75391],"id":"feature_048"},{"properties":{"price":17400,"use":"\u9ce5\u53d6","zone":"","station":"\u4f4f\u5b85"},"type":"Point","coordinates":[70955,79082],"id":"feature_049"},{"properties":{"price":52500,"use":"\u9ce5\u53d6","zone":"","station":"\u4e8b\u52d9\u6240"},"type":"Point","coordinates":[87637,70461],"id":"feature_050"},{"properties":{"price":22800,"use":"\u9ce5\u53d6","zone":"","station":"\u5de5\u5834"},"type":"Point","coordinates":[83192,81436],"id":"feature_051"},{"properties":{"price":20300,"use":"\u9ce5\u53d6","zone":"","station":"\u5de5\u5834\u517c\u4e8b\u52d9\u6240"},"type":"Point","coordinates":[85307,67223],"id":"feature_052"},{"properties":{"price":17600,"use":"\u9ce5\u53d6","zone":"","station":"\u5009\u5eab\u517c\u4e8b\u52d9\u6240"},"type":"Point","coordinates":[87128,61937],"id":"feature_053"},{"properties":{"price":51700,"use":"\u7c73\u5b50","zone":"","station":"\u7a7a\u5730"},"type":"Point","coordinates":[9988,53313],"id":"feature_054"},{"properties":{"price":39000,"use":"\u7c73\u5b50","zone":"","station":"\u4f4f\u5b85"},"type":"Point","coordinates":[9933,57844],"id":"feature_055"},{"properties":{"price":24000,"use":"\u7c73\u5b50","zone":"","station":"\u4f4f\u5b85"},"type":"Point","coordinates":[9830,54567],"id":"feature_056"},{"properties":{"price":50200,"use":"\u7c73\u5b50","zone":"","station":"\u4f4f\u5b85"},"type":"Point","coordinates":[12639,51516],"id":"feature_057"},{"properties":{"price":50600,"use":"\u7c73\u5b50","zone":"","station":"\u4f4f\u5b85"},"type":"Point","coordinates":[11200,57419],"id":"feature_058"},{"properties":{"price":36900,"use":"\u7c73\u5b50","zone":"","station":"\u4f4f\u5b85"},"type":"Point","coordinates":[8612,57570],"id":"feature_059"},{"properties":{"price":15600,"use":"\u7c73\u5b50","zone":"","station":"\u4f4f\u5b85"},"type":"Point","coordinates":[18684,63471],"id":"feature_060"},{"properties":{"price":35000,"use":"\u7c73\u5b50","zone":"","station":"\u4f4f\u5b85"},"type":"Point","coordinates":[12170,54902],"id":"feature_061"},{"properties":{"price":35500,"use":"\u7c73\u5b50","zone":"","station":"\u4f4f\u5b85"},"type":"Point","coordinates":[11427,52574],"id":"feature_062"},{"properties":{"price":39800,"use":"\u7c73\u5b50","zone":"","station":"\u4f4f\u5b85"},"type":"Point","coordinates":[12090,61731],"id":"feature_063"},{"properties":{"price":27600,"use":"\u7c73\u5b50","zone":"","station":"\u4f4f\u5b85"},"type":"Point","coordinates":[12838,58162],"id":"feature_064"},{"properties":{"price":39700,"use":"\u7c73\u5b50","zone":"","station":"\u4f4f\u5b85"},"type":"Point","coordinates":[13347,60786],"id":"feature_065"},{"properties":{"price":11000,"use":"\u7c73\u5b50","zone":"","station":"\u4f4f\u5b85"},"type":"Point","coordinates":[17119,55834],"id":"feature_066"},{"properties":{"price":37500,"use":"\u7c73\u5b50","zone":"","station":"\u4f4f\u5b85"},"type":"Point","coordinates":[10498,55699],"id":"feature_067"},{"properties":{"price":16700,"use":"\u7c73\u5b50","zone":"","station":"\u4f4f\u5b85"},"type":"Point","coordinates":[15674,51866],"id":"feature_068"},{"properties":{"price":27900,"use":"\u7c73\u5b50","zone":"","station":"\u4f4f\u5b85"},"type":"Point","coordinates":[7888,59998],"id":"feature_069"},{"properties":{"price":13300,"use":"\u7c73\u5b50","zone":"","station":"\u4f4f\u5b85"},"type":"Point","coordinates":[11342,43821],"id":"feature_070"},{"properties":{"price":24300,"use":"\u7c73\u5b50","zone":"","station":"\u4f4f\u5b85"},"type":"Point","coordinates":[7240,67516],"id":"feature_071"},{"properties":{"price":14600,"use":"\u7c73\u5b50","zone":"","station":"\u7551"},"type":"Point","coordinates":[11601,60165],"id":"feature_072"},{"properties":{"price":65700,"use":"\u7c73\u5b50","zone":"","station":"\u8a3a\u7642\u6240\u517c\u4f4f\u5b85"},"type":"Point","coordinates":[10162,55873],"id":"feature_073"},{"properties":{"price":44000,"use":"\u7c73\u5b50","zone":"","station":"\u5e97\u8217"},"type":"Point","coordinates":[10516,54130],"id":"feature_074"},{"properties":{"price":81000,"use":"\u7c73\u5b50","zone":"","station":"\u4e8b\u52d9\u6240"},"type":"Point","coordinates":[10349,52541],"id":"feature_075"},{"properties":{"price":41000,"use":"\u7c73\u5b50","zone":"","station":"\u5e97\u8217\u517c\u4f4f\u5b85"},"type":"Point","coordinates":[10879,53239],"id":"feature_076"},{"properties":{"price":66100,"use":"\u7c73\u5b50","zone":"","station":"\u5e97\u8217"},"type":"Point","coordinates":[11691,60902],"id":"feature_077"},{"properties":{"price":19200,"use":"\u7c73\u5b50","zone":"","station":"\u5e97\u8217"},"type":"Point","coordinates":[17994,60940],"id":"feature_078"},{"properties":{"price":50800,"use":"\u7c73\u5b50","zone":"","station":"\u4e8b\u52d9\u6240"},"type":"Point","coordinates":[11809,57487],"id":"feature_079"},{"properties":{"price":29900,"use":"\u7c73\u5b50","zone":"","station":"\u4f4f\u5b85"},"type":"Point","coordinates":[10004,49332],"id":"feature_080"},{"properties":{"price":10000,"use":"\u7c73\u5b50","zone":"","station":"\u5de5\u5834"},"type":"Point","coordinates":[6733,69178],"id":"feature_081"},{"properties":{"price":43700,"use":"\u5009\u5409","zone":"","station":"\u4f4f\u5b85"},"type":"Point","coordinates":[54156,60336],"id":"feature_082"},{"properties":{"price":20100,"use":"\u5009\u5409","zone":"","station":"\u4f4f\u5b85"},"type":"Point","coordinates":[50083,54242],"id":"feature_083"},{"properties":{"price":4900,"use":"\u5009\u5409","zone":"","station":"\u4f4f\u5b85"},"type":"Point","coordinates":[46598,34891],"id":"feature_084"},{"properties":{"price":30400,"use":"\u5009\u5409","zone":"","station":"\u4f4f\u5b85"},"type":"Point","coordinates":[54058,68095],"id":"feature_085"},{"properties":{"price":12600,"use":"\u5009\u5409","zone":"","station":"\u4f4f\u5b85"},"type":"Point","coordinates":[46284,34380],"id":"feature_086"},{"properties":{"price":58000,"use":"\u5009\u5409","zone":"","station":"\u4e8b\u52d9\u6240"},"type":"Point","coordinates":[53987,60760],"id":"feature_087"},{"properties":{"price":28200,"use":"\u5009\u5409","zone":"","station":"\u5e97\u8217\u517c\u4f4f\u5b85"},"type":"Point","coordinates":[51828,54905],"id":"feature_088"},{"properties":{"price":24900,"use":"\u5883\u6e2f","zone":"","station":"\u4f4f\u5b85"},"type":"Point","coordinates":[2299,88233],"id":"feature_089"},{"properties":{"price":12500,"use":"\u5883\u6e2f","zone":"","station":"\u4f4f\u5b85"},"type":"Point","coordinates":[3007,81838],"id":"feature_090"},{"properties":{"price":14800,"use":"\u5883\u6e2f","zone":"","station":"\u4f4f\u5b85"},"type":"Point","coordinates":[2903,90307],"id":"feature_091"},{"properties":{"price":15700,"use":"\u5883\u6e2f","zone":"","station":"\u4f4f\u5b85"},"type":"Point","coordinates":[0,82790],"id":"feature_092"},{"properties":{"price":11600,"use":"\u5883\u6e2f","zone":"","station":"\u4f4f\u5b85"},"type":"Point","coordinates":[155,81822],"id":"feature_093"},{"properties":{"price":51900,"use":"\u5883\u6e2f","zone":"","station":"\u5e97\u8217\u517c\u4f4f\u5b85"},"type":"Point","coordinates":[1508,90134],"id":"feature_094"},{"properties":{"price":23700,"use":"\u5883\u6e2f","zone":"","station":"\u4e8b\u52d9\u6240\u517c\u5009\u5eab"},"type":"Point","coordinates":[1446,89102],"id":"feature_095"},{"properties":{"price":21700,"use":"\u5ca9\u7f8e","zone":"","station":"\u4f4f\u5b85"},"type":"Point","coordinates":[94653,98948],"id":"feature_096"},{"properties":{"price":15000,"use":"\u5ca9\u7f8e","zone":"","station":"\u4f4f\u5b85"},"type":"Point","coordinates":[91558,99549],"id":"feature_097"},{"properties":{"price":25100,"use":"\u5ca9\u7f8e","zone":"","station":"\u5e97\u8217\u517c\u4f4f\u5b85"},"type":"Point","coordinates":[94607,99999],"id":"feature_098"},{"properties":{"price":11000,"use":"\u82e5\u685c","zone":"","station":"\u4f4f\u5b85"},"type":"Point","coordinates":[99902,25576],"id":"feature_099"},{"properties":{"price":4750,"use":"\u82e5\u685c","zone":"","station":"\u4f4f\u5b85"},"type":"Point","coordinates":[98609,28470],"id":"feature_100"},{"properties":{"price":13500,"use":"\u82e5\u685c","zone":"","station":"\u5e97\u8217\u517c\u4f4f\u5b85"},"type":"Point","coordinates":[99999,25795],"id":"feature_101"},{"properties":{"price":20700,"use":"\u667a\u982d","zone":"","station":"\u4f4f\u5b85"},"type":"Point","coordinates":[86019,1556],"id":"feature_102"},{"properties":{"price":17700,"use":"\u667a\u982d","zone":"","station":"\u4f4f\u5b85"},"type":"Point","coordinates":[85345,0],"id":"feature_103"},{"properties":{"price":23900,"use":"\u667a\u982d","zone":"","station":"\u5e97\u8217\u517c\u4f4f\u5b85"},"type":"Point","coordinates":[85770,495],"id":"feature_104"},{"properties":{"price":28200,"use":"\u516b\u982d","zone":"","station":"\u4f4f\u5b85"},"type":"Point","coordinates":[87651,46409],"id":"feature_105"},{"properties":{"price":30600,"use":"\u516b\u982d","zone":"","station":"\u4f4f\u5b85"},"type":"Point","coordinates":[88672,52133],"id":"feature_106"},{"properties":{"price":14900,"use":"\u516b\u982d","zone":"","station":"\u4f4f\u5b85"},"type":"Point","coordinates":[87550,41200],"id":"feature_107"},{"properties":{"price":15900,"use":"\u516b\u982d","zone":"","station":"\u4f4f\u5b85"},"type":"Point","coordinates":[86921,40522],"id":"feature_108"},{"properties":{"price":31700,"use":"\u516b\u982d","zone":"","station":"\u5e97\u8217\u517c\u4f4f\u5b85"},"type":"Point","coordinates":[87712,47522],"id":"feature_109"},{"properties":{"price":14400,"use":"\u4e09\u671d","zone":"","station":"\u4f4f\u5b85"},"type":"Point","coordinates":[56911,48252],"id":"feature_110"},{"properties":{"price":13000,"use":"\u4e09\u671d","zone":"","station":"\u4f4f\u5b85"},"type":"Point","coordinates":[55065,43946],"id":"feature_111"},{"properties":{"price":20200,"use":"\u4e09\u671d","zone":"","station":"\u5e97\u8217\u517c\u4f4f\u5b85"},"type":"Point","coordinates":[55164,46024],"id":"feature_112"},{"properties":{"price":27500,"use":"\u6e6f\u68a8\u6d5c","zone":"","station":"\u4f4f\u5b85"},"type":"Point","coordinates":[55439,72121],"id":"feature_113"},{"properties":{"price":6000,"use":"\u6e6f\u68a8\u6d5c","zone":"","station":"\u4f4f\u5b85"},"type":"Point","coordinates":[57821,77857],"id":"feature_114"},{"properties":{"price":22900,"use":"\u6e6f\u68a8\u6d5c","zone":"","station":"\u4f4f\u5b85"},"type":"Point","coordinates":[58058,65381],"id":"feature_115"},{"properties":{"price":5050,"use":"\u6e6f\u68a8\u6d5c","zone":"","station":"\u4f4f\u5b85"},"type":"Point","coordinates":[59990,69606],"id":"feature_116"},{"properties":{"price":26800,"use":"\u6e6f\u68a8\u6d5c","zone":"","station":"\u5e97\u8217"},"type":"Point","coordinates":[54440,69641],"id":"feature_117"},{"properties":{"price":20300,"use":"\u7434\u6d66","zone":"","station":"\u4f4f\u5b85"},"type":"Point","coordinates":[41180,75587],"id":"feature_118"},{"properties":{"price":13500,"use":"\u7434\u6d66","zone":"","station":"\u4f4f\u5b85"},"type":"Point","coordinates":[41857,77384],"id":"feature_119"},{"properties":{"price":17700,"use":"\u7434\u6d66","zone":"","station":"\u4f4f\u5b85"},"type":"Point","coordinates":[36018,80983],"id":"feature_120"},{"properties":{"price":25000,"use":"\u7434\u6d66","zone":"","station":"\u5e97\u8217\u517c\u4e8b\u52d9\u6240"},"type":"Point","coordinates":[40891,76867],"id":"feature_121"},{"properties":{"price":18700,"use":"\u5317\u6804","zone":"","station":"\u4f4f\u5b85"},"type":"Point","coordinates":[51840,69352],"id":"feature_122"},{"properties":{"price":8800,"use":"\u5317\u6804","zone":"","station":"\u4f4f\u5b85"},"type":"Point","coordinates":[44510,75166],"id":"feature_123"},{"properties":{"price":15300,"use":"\u5317\u6804","zone":"","station":"\u4f4f\u5b85"},"type":"Point","coordinates":[46013,73789],"id":"feature_124"},{"properties":{"price":19100,"use":"\u5317\u6804","zone":"","station":"\u5e97\u8217"},"type":"Point","coordinates":[46183,73069],"id":"feature_125"},{"properties":{"price":28500,"use":"\u65e5\u5409\u6d25","zone":"","station":"\u4f4f\u5b85"},"type":"Point","coordinates":[14683,56049],"id":"feature_126"},{"properties":{"price":19800,"use":"\u65e5\u5409\u6d25","zone":"","station":"\u4f4f\u5b85"},"type":"Point","coordinates":[14581,60236],"id":"feature_127"}],"type":"GeometryCollection"}},"bbox":[133.20603,35.26454,134.39739,35.57553],"transform":{"scale":[1.1913719137191403e-05,3.1099310993110317e-06],"translate":[133.20603,35.26454]},"arcs":[]}