{"type":"Topology","objects":{"data":{"geometries":[{"properties":{"price":134000,"use":"\u5948\u826f","zone":"","station":"\u5efa\u7bc9\u4e2d"},"type":"Point","coordinates":[38823,85050],"id":"feature_000"},{"properties":{"price":107000,"use":"\u5948\u826f","zone":"","station":"\u4f4f\u5b85"},"type":"Point","coordinates":[27915,91468],"id":"feature_001"},{"properties":{"price":45500,"use":"\u5948\u826f","zone":"","station":"\u4f4f\u5b85"},"type":"Point","coordinates":[53418,88201],"id":"feature_002"},{"properties":{"price":308000,"use":"\u5948\u826f","zone":"","station":"\u4f4f\u5b85"},"type":"Point","coordinates":[26527,87069],"id":"feature_003"},{"properties":{"price":108000,"use":"\u5948\u826f","zone":"","station":"\u4f4f\u5b85"},"type":"Point","coordinates":[24306,90471],"id":"feature_004"},{"properties":{"price":85100,"use":"\u5948\u826f","zone":"","station":"\u4f4f\u5b85"},"type":"Point","coordinates":[26926,82956],"id":"feature_005"},{"properties":{"price":134000,"use":"\u5948\u826f","zone":"","station":"\u4f4f\u5b85"},"type":"Point","coordinates":[48512,84067],"id":"feature_006"},{"properties":{"price":121000,"use":"\u5948\u826f","zone":"","station":"\u4f4f\u5b85"},"type":"Point","coordinates":[49547,85186],"id":"feature_007"},{"properties":{"price":118000,"use":"\u5948\u826f","zone":"","station":"\u4f4f\u5b85"},"type":"Point","coordinates":[52642,81715],"id":"feature_008"},{"properties":{"price":93000,"use":"\u5948\u826f","zone":"","station":"\u4f4f\u5b85"},"type":"Point","coordinates":[28813,82095],"id":"feature_009"},{"properties":{"price":87100,"use":"\u5948\u826f","zone":"","station":"\u4f4f\u5b85"},"type":"Point","coordinates":[45352,81183],"id":"feature_010"},{"properties":{"price":74900,"use":"\u5948\u826f","zone":"","station":"\u4f4f\u5b85"},"type":"Point","coordinates":[31287,80604],"id":"feature_011"},{"properties":{"price":163000,"use":"\u5948\u826f","zone":"","station":"\u4f4f\u5b85"},"type":"Point","coordinates":[38839,92418],"id":"feature_012"},{"properties":{"price":93100,"use":"\u5948\u826f","zone":"","station":"\u4f4f\u5b85"},"type":"Point","coordinates":[31383,88126],"id":"feature_013"},{"properties":{"price":58000,"use":"\u5948\u826f","zone":"","station":"\u4f4f\u5b85"},"type":"Point","coordinates":[55689,78245],"id":"feature_014"},{"properties":{"price":88800,"use":"\u5948\u826f","zone":"","station":"\u4f4f\u5b85"},"type":"Point","coordinates":[19898,85022],"id":"feature_015"},{"properties":{"price":92400,"use":"\u5948\u826f","zone":"","station":"\u4f4f\u5b85"},"type":"Point","coordinates":[22671,87360],"id":"feature_016"},{"properties":{"price":89600,"use":"\u5948\u826f","zone":"","station":"\u4f4f\u5b85"},"type":"Point","coordinates":[20737,83052],"id":"feature_017"},{"properties":{"price":100000,"use":"\u5948\u826f","zone":"","station":"\u4f4f\u5b85"},"type":"Point","coordinates":[55820,80759],"id":"feature_018"},{"properties":{"price":85800,"use":"\u5948\u826f","zone":"","station":"\u4f4f\u5b85"},"type":"Point","coordinates":[28985,89442],"id":"feature_019"},{"properties":{"price":204000,"use":"\u5948\u826f","zone":"","station":"\u4f4f\u5b85"},"type":"Point","coordinates":[37787,84522],"id":"feature_020"},{"properties":{"price":69900,"use":"\u5948\u826f","zone":"","station":"\u4f4f\u5b85"},"type":"Point","coordinates":[35504,80456],"id":"feature_021"},{"properties":{"price":113000,"use":"\u5948\u826f","zone":"","station":"\u4f4f\u5b85"},"type":"Point","coordinates":[52769,85451],"id":"feature_022"},{"properties":{"price":80000,"use":"\u5948\u826f","zone":"","station":"\u4f4f\u5b85"},"type":"Point","coordinates":[53896,79342],"id":"feature_023"},{"properties":{"price":64500,"use":"\u5948\u826f","zone":"","station":"\u4f4f\u5b85"},"type":"Point","coordinates":[42859,77426],"id":"feature_024"},{"properties":{"price":76800,"use":"\u5948\u826f","zone":"","station":"\u4f4f\u5b85"},"type":"Point","coordinates":[34415,84119],"id":"feature_025"},{"properties":{"price":95400,"use":"\u5948\u826f","zone":"","station":"\u4f4f\u5b85"},"type":"Point","coordinates":[31346,85233],"id":"feature_026"},{"properties":{"price":65700,"use":"\u5948\u826f","zone":"","station":"\u4f4f\u5b85"},"type":"Point","coordinates":[34210,78671],"id":"feature_027"},{"properties":{"price":111000,"use":"\u5948\u826f","zone":"","station":"\u4f4f\u5b85"},"type":"Point","coordinates":[25678,88790],"id":"feature_028"},{"properties":{"price":118000,"use":"\u5948\u826f","zone":"","station":"\u4f4f\u5b85"},"type":"Point","coordinates":[23654,85917],"id":"feature_029"},{"properties":{"price":113000,"use":"\u5948\u826f","zone":"","station":"\u4f4f\u5b85"},"type":"Point","coordinates":[41605,91982],"id":"feature_030"},{"properties":{"price":69100,"use":"\u5948\u826f","zone":"","station":"\u4f4f\u5b85"},"type":"Point","coordinates":[33367,89374],"id":"feature_031"},{"properties":{"price":97200,"use":"\u5948\u826f","zone":"","station":"\u4f4f\u5b85"},"type":"Point","coordinates":[50383,85985],"id":"feature_032"},{"properties":{"price":65900,"use":"\u5948\u826f","zone":"","station":"\u4f4f\u5b85"},"type":"Point","coordinates":[49145,77014],"id":"feature_033"},{"properties":{"price":59500,"use":"\u5948\u826f","zone":"","station":"\u4f4f\u5b85"},"type":"Point","coordinates":[41025,79300],"id":"feature_034"},{"properties":{"price":48000,"use":"\u5948\u826f","zone":"","station":"\u4f4f\u5b85"},"type":"Point","coordinates":[49260,74755],"id":"feature_035"},{"properties":{"price":60600,"use":"\u5948\u826f","zone":"","station":"\u4f4f\u5b85"},"type":"Point","coordinates":[51569,88138],"id":"feature_036"},{"properties":{"price":110000,"use":"\u5948\u826f","zone":"","station":"\u4f4f\u5b85"},"type":"Point","coordinates":[26405,84220],"id":"feature_037"},{"properties":{"price":120000,"use":"\u5948\u826f","zone":"","station":"\u4f4f\u5b85"},"type":"Point","coordinates":[27831,85404],"id":"feature_038"},{"properties":{"price":160000,"use":"\u5948\u826f","zone":"","station":"\u5e97\u8217\u517c\u4f4f\u5b85"},"type":"Point","coordinates":[49806,84299],"id":"feature_039"},{"properties":{"price":73400,"use":"\u5948\u826f","zone":"","station":"\u4f4f\u5b85"},"type":"Point","coordinates":[45330,85749],"id":"feature_040"},{"properties":{"price":123000,"use":"\u5948\u826f","zone":"","station":"\u4f4f\u5b85"},"type":"Point","coordinates":[29924,92249],"id":"feature_041"},{"properties":{"price":91500,"use":"\u5948\u826f","zone":"","station":"\u4f4f\u5b85"},"type":"Point","coordinates":[34568,92558],"id":"feature_042"},{"properties":{"price":72400,"use":"\u5948\u826f","zone":"","station":"\u7a7a\u5730"},"type":"Point","coordinates":[33405,85427],"id":"feature_043"},{"properties":{"price":137000,"use":"\u5948\u826f","zone":"","station":"\u4f4f\u5b85"},"type":"Point","coordinates":[24016,87029],"id":"feature_044"},{"properties":{"price":80800,"use":"\u5948\u826f","zone":"","station":"\u4f4f\u5b85"},"type":"Point","coordinates":[46890,89114],"id":"feature_045"},{"properties":{"price":64200,"use":"\u5948\u826f","zone":"","station":"\u4f4f\u5b85"},"type":"Point","coordinates":[47289,77086],"id":"feature_046"},{"properties":{"price":73400,"use":"\u5948\u826f","zone":"","station":"\u4f4f\u5b85"},"type":"Point","coordinates":[18566,87045],"id":"feature_047"},{"properties":{"price":109000,"use":"\u5948\u826f","zone":"","station":"\u4f4f\u5b85"},"type":"Point","coordinates":[22596,91435],"id":"feature_048"},{"properties":{"price":120000,"use":"\u5948\u826f","zone":"","station":"\u4f4f\u5b85"},"type":"Point","coordinates":[29287,86612],"id":"feature_049"},{"properties":{"price":72500,"use":"\u5948\u826f","zone":"","station":"\u4f4f\u5b85"},"type":"Point","coordinates":[53247,89526],"id":"feature_050"},{"properties":{"price":65100,"use":"\u5948\u826f","zone":"","station":"\u4f4f\u5b85"},"type":"Point","coordinates":[35579,88030],"id":"feature_051"},{"properties":{"price":350000,"use":"\u5948\u826f","zone":"","station":"\u5171\u540c\u4f4f\u5b85"},"type":"Point","coordinates":[37450,85214],"id":"feature_052"},{"properties":{"price":142000,"use":"\u5948\u826f","zone":"","station":"\u4f4f\u5b85"},"type":"Point","coordinates":[38570,85591],"id":"feature_053"},{"properties":{"price":108000,"use":"\u5948\u826f","zone":"","station":"\u4f4f\u5b85"},"type":"Point","coordinates":[28021,90443],"id":"feature_054"},{"properties":{"price":59900,"use":"\u5948\u826f","zone":"","station":"\u4f4f\u5b85"},"type":"Point","coordinates":[40068,82454],"id":"feature_055"},{"properties":{"price":69900,"use":"\u5948\u826f","zone":"","station":"\u4f4f\u5b85"},"type":"Point","coordinates":[36156,81711],"id":"feature_056"},{"properties":{"price":92500,"use":"\u5948\u826f","zone":"","station":"\u4f4f\u5b85"},"type":"Point","coordinates":[22219,89822],"id":"feature_057"},{"properties":{"price":65700,"use":"\u5948\u826f","zone":"","station":"\u4f4f\u5b85"},"type":"Point","coordinates":[22924,81891],"id":"feature_058"},{"properties":{"price":85800,"use":"\u5948\u826f","zone":"","station":"\u4f4f\u5b85"},"type":"Point","coordinates":[35342,84890],"id":"feature_059"},{"properties":{"price":72500,"use":"\u5948\u826f","zone":"","station":"\u4f4f\u5b85"},"type":"Point","coordinates":[50102,79340],"id":"feature_060"},{"properties":{"price":53800,"use":"\u5948\u826f","zone":"","station":"\u4f4f\u5b85"},"type":"Point","coordinates":[56578,76294],"id":"feature_061"},{"properties":{"price":80300,"use":"\u5948\u826f","zone":"","station":"\u4f4f\u5b85"},"type":"Point","coordinates":[50280,80454],"id":"feature_062"},{"properties":{"price":830000,"use":"\u5948\u826f","zone":"","station":"\u9280\u884c"},"type":"Point","coordinates":[51400,83737],"id":"feature_063"},{"properties":{"price":332000,"use":"\u5948\u826f","zone":"","station":"\u533b\u9662\u517c\u4f4f\u5b85"},"type":"Point","coordinates":[49154,83399],"id":"feature_064"},{"properties":{"price":276000,"use":"\u5948\u826f","zone":"","station":"\u5e97\u8217\u517c\u4e8b\u52d9\u6240"},"type":"Point","coordinates":[45804,83791],"id":"feature_065"},{"properties":{"price":171000,"use":"\u5948\u826f","zone":"","station":"\u4e8b\u52d9\u6240"},"type":"Point","coordinates":[50717,81286],"id":"feature_066"},{"properties":{"price":216000,"use":"\u5948\u826f","zone":"","station":"\u5e97\u8217\u3001\u4e8b\u52d9\u6240\u517c\u4f4f\u5b85"},"type":"Point","coordinates":[51643,84192],"id":"feature_067"},{"properties":{"price":447000,"use":"\u5948\u826f","zone":"","station":"\u9280\u884c"},"type":"Point","coordinates":[27394,86963],"id":"feature_068"},{"properties":{"price":175000,"use":"\u5948\u826f","zone":"","station":"\u5e97\u8217\u517c\u5171\u540c\u4f4f\u5b85"},"type":"Point","coordinates":[21776,85606],"id":"feature_069"},{"properties":{"price":292000,"use":"\u5948\u826f","zone":"","station":"\u5e97\u8217"},"type":"Point","coordinates":[51675,82930],"id":"feature_070"},{"properties":{"price":176000,"use":"\u5948\u826f","zone":"","station":"\u5e97\u8217"},"type":"Point","coordinates":[42900,81136],"id":"feature_071"},{"properties":{"price":327000,"use":"\u5948\u826f","zone":"","station":"\u4e8b\u52d9\u6240"},"type":"Point","coordinates":[45311,83739],"id":"feature_072"},{"properties":{"price":530000,"use":"\u5948\u826f","zone":"","station":"\u5e97\u8217"},"type":"Point","coordinates":[49338,83179],"id":"feature_073"},{"properties":{"price":550000,"use":"\u5948\u826f","zone":"","station":"\u5efa\u7bc9\u4e2d"},"type":"Point","coordinates":[37862,86014],"id":"feature_074"},{"properties":{"price":115000,"use":"\u5948\u826f","zone":"","station":"\u4e8b\u52d9\u6240"},"type":"Point","coordinates":[48639,78266],"id":"feature_075"},{"properties":{"price":226000,"use":"\u5948\u826f","zone":"","station":"\u5e97\u8217\u517c\u5de5\u5834"},"type":"Point","coordinates":[27119,92791],"id":"feature_076"},{"properties":{"price":322000,"use":"\u5948\u826f","zone":"","station":"\u5e97\u8217\u517c\u4e8b\u52d9\u6240"},"type":"Point","coordinates":[48047,82993],"id":"feature_077"},{"properties":{"price":213000,"use":"\u5948\u826f","zone":"","station":"\u5e97\u8217\u517c\u5171\u540c\u4f4f\u5b85"},"type":"Point","coordinates":[44251,83064],"id":"feature_078"},{"properties":{"price":55700,"use":"\u5948\u826f","zone":"","station":"\u5de5\u5834"},"type":"Point","coordinates":[41347,76767],"id":"feature_079"},{"properties":{"price":63400,"use":"\u5948\u826f","zone":"","station":"\u5009\u5eab\u517c\u4e8b\u52d9\u6240"},"type":"Point","coordinates":[45314,76026],"id":"feature_080"},{"properties":{"price":62300,"use":"\u5927\u548c\u9ad8\u7530","zone":"","station":"\u4f4f\u5b85"},"type":"Point","coordinates":[20600,46928],"id":"feature_081"},{"properties":{"price":65800,"use":"\u5927\u548c\u9ad8\u7530","zone":"","station":"\u4f4f\u5b85"},"type":"Point","coordinates":[24243,43119],"id":"feature_082"},{"properties":{"price":104000,"use":"\u5927\u548c\u9ad8\u7530","zone":"","station":"\u4f4f\u5b85"},"type":"Point","coordinates":[26199,44287],"id":"feature_083"},{"properties":{"price":77200,"use":"\u5927\u548c\u9ad8\u7530","zone":"","station":"\u4f4f\u5b85"},"type":"Point","coordinates":[25772,45403],"id":"feature_084"},{"properties":{"price":63300,"use":"\u5927\u548c\u9ad8\u7530","zone":"","station":"\u4f4f\u5b85"},"type":"Point","coordinates":[26243,40256],"id":"feature_085"},{"properties":{"price":54800,"use":"\u5927\u548c\u9ad8\u7530","zone":"","station":"\u4f4f\u5b85"},"type":"Point","coordinates":[21885,44599],"id":"feature_086"},{"properties":{"price":66700,"use":"\u5927\u548c\u9ad8\u7530","zone":"","station":"\u7a7a\u5730"},"type":"Point","coordinates":[27238,43241],"id":"feature_087"},{"properties":{"price":59300,"use":"\u5927\u548c\u9ad8\u7530","zone":"","station":"\u4f4f\u5b85"},"type":"Point","coordinates":[17855,43947],"id":"feature_088"},{"properties":{"price":66900,"use":"\u5927\u548c\u9ad8\u7530","zone":"","station":"\u4f4f\u5b85"},"type":"Point","coordinates":[22787,42615],"id":"feature_089"},{"properties":{"price":66800,"use":"\u5927\u548c\u9ad8\u7530","zone":"","station":"\u4f4f\u5b85"},"type":"Point","coordinates":[23529,41595],"id":"feature_090"},{"properties":{"price":119000,"use":"\u5927\u548c\u9ad8\u7530","zone":"","station":"\u5e97\u8217\u517c\u4f4f\u5b85"},"type":"Point","coordinates":[24799,42116],"id":"feature_091"},{"properties":{"price":107000,"use":"\u5927\u548c\u9ad8\u7530","zone":"","station":"\u7a7a\u5730"},"type":"Point","coordinates":[24069,44125],"id":"feature_092"},{"properties":{"price":113000,"use":"\u5927\u548c\u9ad8\u7530","zone":"","station":"\u8a3a\u7642\u6240"},"type":"Point","coordinates":[24799,45816],"id":"feature_093"},{"properties":{"price":75000,"use":"\u5927\u548c\u9ad8\u7530","zone":"","station":"\u5e97\u8217\u517c\u4f4f\u5b85"},"type":"Point","coordinates":[24615,44958],"id":"feature_094"},{"properties":{"price":61800,"use":"\u5927\u548c\u90e1\u5c71","zone":"","station":"\u4f4f\u5b85"},"type":"Point","coordinates":[32959,77741],"id":"feature_095"},{"properties":{"price":76400,"use":"\u5927\u548c\u90e1\u5c71","zone":"","station":"\u4f4f\u5b85"},"type":"Point","coordinates":[38661,76674],"id":"feature_096"},{"properties":{"price":74700,"use":"\u5927\u548c\u90e1\u5c71","zone":"","station":"\u4f4f\u5b85"},"type":"Point","coordinates":[41618,75433],"id":"feature_097"},{"properties":{"price":71800,"use":"\u5927\u548c\u90e1\u5c71","zone":"","station":"\u4f4f\u5b85"},"type":"Point","coordinates":[35832,70792],"id":"feature_098"},{"properties":{"price":103000,"use":"\u5927\u548c\u90e1\u5c71","zone":"","station":"\u4f4f\u5b85"},"type":"Point","coordinates":[35566,74746],"id":"feature_099"},{"properties":{"price":66100,"use":"\u5927\u548c\u90e1\u5c71","zone":"","station":"\u4f4f\u5b85"},"type":"Point","coordinates":[24827,72263],"id":"feature_100"},{"properties":{"price":69400,"use":"\u5927\u548c\u90e1\u5c71","zone":"","station":"\u4f4f\u5b85"},"type":"Point","coordinates":[28891,70206],"id":"feature_101"},{"properties":{"price":77400,"use":"\u5927\u548c\u90e1\u5c71","zone":"","station":"\u4f4f\u5b85"},"type":"Point","coordinates":[36870,67441],"id":"feature_102"},{"properties":{"price":73800,"use":"\u5927\u548c\u90e1\u5c71","zone":"","station":"\u4f4f\u5b85"},"type":"Point","coordinates":[35173,77269],"id":"feature_103"},{"properties":{"price":63400,"use":"\u5927\u548c\u90e1\u5c71","zone":"","station":"\u4f4f\u5b85"},"type":"Point","coordinates":[30242,72675],"id":"feature_104"},{"properties":{"price":42200,"use":"\u5927\u548c\u90e1\u5c71","zone":"","station":"\u4f4f\u5b85"},"type":"Point","coordinates":[32775,68973],"id":"feature_105"},{"properties":{"price":94700,"use":"\u5927\u548c\u90e1\u5c71","zone":"","station":"\u4f4f\u5b85"},"type":"Point","coordinates":[40121,75306],"id":"feature_106"},{"properties":{"price":70900,"use":"\u5927\u548c\u90e1\u5c71","zone":"","station":"\u4f4f\u5b85"},"type":"Point","coordinates":[36992,73459],"id":"feature_107"},{"properties":{"price":226000,"use":"\u5927\u548c\u90e1\u5c71","zone":"","station":"\u53d6\u58ca\u4e2d"},"type":"Point","coordinates":[37064,74980],"id":"feature_108"},{"properties":{"price":135000,"use":"\u5927\u548c\u90e1\u5c71","zone":"","station":"\u5e97\u8217\u517c\u5171\u540c\u4f4f\u5b85"},"type":"Point","coordinates":[31873,69160],"id":"feature_109"},{"properties":{"price":134000,"use":"\u5927\u548c\u90e1\u5c71","zone":"","station":"\u5e97\u8217\u517c\u5171\u540c\u4f4f\u5b85"},"type":"Point","coordinates":[39300,75112],"id":"feature_110"},{"properties":{"price":124000,"use":"\u5927\u548c\u90e1\u5c71","zone":"","station":"\u5e97\u8217\u3001\u533b\u9662\u517c\u4e8b\u52d9\u6240"},"type":"Point","coordinates":[38140,74540],"id":"feature_111"},{"properties":{"price":89000,"use":"\u5927\u548c\u90e1\u5c71","zone":"","station":"\u5e97\u8217\u517c\u4f4f\u5b85"},"type":"Point","coordinates":[37569,75452],"id":"feature_112"},{"properties":{"price":91800,"use":"\u5927\u548c\u90e1\u5c71","zone":"","station":"\u5e97\u8217\u3001\u5de5\u5834"},"type":"Point","coordinates":[34955,68485],"id":"feature_113"},{"properties":{"price":95900,"use":"\u5927\u548c\u90e1\u5c71","zone":"","station":"\u5e97\u8217"},"type":"Point","coordinates":[37850,76406],"id":"feature_114"},{"properties":{"price":92500,"use":"\u5927\u548c\u90e1\u5c71","zone":"","station":"\u5e97\u8217"},"type":"Point","coordinates":[32229,68677],"id":"feature_115"},{"properties":{"price":45800,"use":"\u5927\u548c\u90e1\u5c71","zone":"","station":"\u5de5\u5834"},"type":"Point","coordinates":[35373,66056],"id":"feature_116"},{"properties":{"price":83500,"use":"\u5927\u548c\u90e1\u5c71","zone":"","station":"\u5009\u5eab\u517c\u4e8b\u52d9\u6240"},"type":"Point","coordinates":[42741,69017],"id":"feature_117"},{"properties":{"price":69600,"use":"\u5929\u7406","zone":"","station":"\u4f4f\u5b85"},"type":"Point","coordinates":[54697,62890],"id":"feature_118"},{"properties":{"price":75100,"use":"\u5929\u7406","zone":"","station":"\u4f4f\u5b85"},"type":"Point","coordinates":[48103,64653],"id":"feature_119"},{"properties":{"price":57400,"use":"\u5929\u7406","zone":"","station":"\u4f4f\u5b85"},"type":"Point","coordinates":[54189,53916],"id":"feature_120"},{"properties":{"price":60000,"use":"\u5929\u7406","zone":"","station":"\u4f4f\u5b85"},"type":"Point","coordinates":[49990,58416],"id":"feature_121"},{"properties":{"price":68800,"use":"\u5929\u7406","zone":"","station":"\u4f4f\u5b85"},"type":"Point","coordinates":[48917,62672],"id":"feature_122"},{"properties":{"price":53200,"use":"\u5929\u7406","zone":"","station":"\u4f4f\u5b85"},"type":"Point","coordinates":[52233,66442],"id":"feature_123"},{"properties":{"price":80800,"use":"\u5929\u7406","zone":"","station":"\u4f4f\u5b85"},"type":"Point","coordinates":[50966,62658],"id":"feature_124"},{"properties":{"price":68800,"use":"\u5929\u7406","zone":"","station":"\u4f4f\u5b85"},"type":"Point","coordinates":[43842,64487],"id":"feature_125"},{"properties":{"price":54100,"use":"\u5929\u7406","zone":"","station":"\u4f4f\u5b85"},"type":"Point","coordinates":[52953,69027],"id":"feature_126"},{"properties":{"price":38600,"use":"\u5929\u7406","zone":"","station":"\u4f4f\u5b85"},"type":"Point","coordinates":[56363,65338],"id":"feature_127"},{"properties":{"price":59500,"use":"\u5929\u7406","zone":"","station":"\u4f4f\u5b85"},"type":"Point","coordinates":[41091,63099],"id":"feature_128"},{"properties":{"price":63600,"use":"\u5929\u7406","zone":"","station":"\u4f4f\u5b85"},"type":"Point","coordinates":[53609,61016],"id":"feature_129"},{"properties":{"price":48700,"use":"\u5929\u7406","zone":"","station":"\u4f4f\u5b85"},"type":"Point","coordinates":[54513,68447],"id":"feature_130"},{"properties":{"price":37000,"use":"\u5929\u7406","zone":"","station":"\u4f4f\u5b85"},"type":"Point","coordinates":[51007,71747],"id":"feature_131"},{"properties":{"price":23100,"use":"\u5929\u7406","zone":"","station":"\u4f4f\u5b85"},"type":"Point","coordinates":[50162,53447],"id":"feature_132"},{"properties":{"price":26700,"use":"\u5929\u7406","zone":"","station":"\u4f4f\u5b85"},"type":"Point","coordinates":[43907,66686],"id":"feature_133"},{"properties":{"price":95500,"use":"\u5929\u7406","zone":"","station":"\u4f4f\u5b85"},"type":"Point","coordinates":[52071,65256],"id":"feature_134"},{"properties":{"price":19200,"use":"\u5929\u7406","zone":"","station":"\u7530"},"type":"Point","coordinates":[44251,64914],"id":"feature_135"},{"properties":{"price":123000,"use":"\u5929\u7406","zone":"","station":"\u5e97\u8217\u517c\u4f4f\u5b85"},"type":"Point","coordinates":[53312,63922],"id":"feature_136"},{"properties":{"price":123000,"use":"\u5929\u7406","zone":"","station":"\u5e97\u8217\u517c\u4f4f\u5b85"},"type":"Point","coordinates":[53824,63675],"id":"feature_137"},{"properties":{"price":90900,"use":"\u5929\u7406","zone":"","station":"\u5e97\u8217"},"type":"Point","coordinates":[50000,62841],"id":"feature_138"},{"properties":{"price":70700,"use":"\u5929\u7406","zone":"","station":"\u5e97\u8217"},"type":"Point","coordinates":[42039,61558],"id":"feature_139"},{"properties":{"price":34800,"use":"\u5929\u7406","zone":"","station":"\u5de5\u5834"},"type":"Point","coordinates":[49039,56746],"id":"feature_140"},{"properties":{"price":107000,"use":"\u6a7f\u539f","zone":"","station":"\u4f4f\u5b85"},"type":"Point","coordinates":[39129,44465],"id":"feature_141"},{"properties":{"price":67600,"use":"\u6a7f\u539f","zone":"","station":"\u4f4f\u5b85"},"type":"Point","coordinates":[31776,41858],"id":"feature_142"},{"properties":{"price":69200,"use":"\u6a7f\u539f","zone":"","station":"\u4f4f\u5b85"},"type":"Point","coordinates":[43842,38075],"id":"feature_143"},{"properties":{"price":80400,"use":"\u6a7f\u539f","zone":"","station":"\u4f4f\u5b85"},"type":"Point","coordinates":[44681,35894],"id":"feature_144"},{"properties":{"price":81900,"use":"\u6a7f\u539f","zone":"","station":"\u4f4f\u5b85"},"type":"Point","coordinates":[34846,44890],"id":"feature_145"},{"properties":{"price":69300,"use":"\u6a7f\u539f","zone":"","station":"\u4f4f\u5b85"},"type":"Point","coordinates":[42148,41748],"id":"feature_146"},{"properties":{"price":126000,"use":"\u6a7f\u539f","zone":"","station":"\u4f4f\u5b85"},"type":"Point","coordinates":[41060,37623],"id":"feature_147"},{"properties":{"price":62100,"use":"\u6a7f\u539f","zone":"","station":"\u4f4f\u5b85"},"type":"Point","coordinates":[32909,43602],"id":"feature_148"},{"properties":{"price":111000,"use":"\u6a7f\u539f","zone":"","station":"\u4f4f\u5b85"},"type":"Point","coordinates":[38283,43380],"id":"feature_149"},{"properties":{"price":83500,"use":"\u6a7f\u539f","zone":"","station":"\u4f4f\u5b85"},"type":"Point","coordinates":[43630,43103],"id":"feature_150"},{"properties":{"price":133000,"use":"\u6a7f\u539f","zone":"","station":"\u4f4f\u5b85"},"type":"Point","coordinates":[38505,36141],"id":"feature_151"},{"properties":{"price":80400,"use":"\u6a7f\u539f","zone":"","station":"\u4f4f\u5b85"},"type":"Point","coordinates":[46422,44440],"id":"feature_152"},{"properties":{"price":62200,"use":"\u6a7f\u539f","zone":"","station":"\u4f4f\u5b85"},"type":"Point","coordinates":[32566,37566],"id":"feature_153"},{"properties":{"price":90400,"use":"\u6a7f\u539f","zone":"","station":"\u4f4f\u5b85"},"type":"Point","coordinates":[39827,46163],"id":"feature_154"},{"properties":{"price":74100,"use":"\u6a7f\u539f","zone":"","station":"\u4f4f\u5b85"},"type":"Point","coordinates":[38240,42113],"id":"feature_155"},{"properties":{"price":106000,"use":"\u6a7f\u539f","zone":"","station":"\u4f4f\u5b85"},"type":"Point","coordinates":[41867,36213],"id":"feature_156"},{"properties":{"price":79400,"use":"\u6a7f\u539f","zone":"","station":"\u4f4f\u5b85"},"type":"Point","coordinates":[34365,46264],"id":"feature_157"},{"properties":{"price":68300,"use":"\u6a7f\u539f","zone":"","station":"\u4f4f\u5b85"},"type":"Point","coordinates":[45399,47103],"id":"feature_158"},{"properties":{"price":107000,"use":"\u6a7f\u539f","zone":"","station":"\u4f4f\u5b85"},"type":"Point","coordinates":[41964,43795],"id":"feature_159"},{"properties":{"price":74200,"use":"\u6a7f\u539f","zone":"","station":"\u4f4f\u5b85"},"type":"Point","coordinates":[42108,40369],"id":"feature_160"},{"properties":{"price":243000,"use":"\u6a7f\u539f","zone":"","station":"\u5171\u540c\u4f4f\u5b85"},"type":"Point","coordinates":[40330,43785],"id":"feature_161"},{"properties":{"price":346000,"use":"\u6a7f\u539f","zone":"","station":"\u5e97\u8217"},"type":"Point","coordinates":[39962,43316],"id":"feature_162"},{"properties":{"price":91700,"use":"\u6a7f\u539f","zone":"","station":"\u533b\u9662\u517c\u4f4f\u5b85"},"type":"Point","coordinates":[47077,44029],"id":"feature_163"},{"properties":{"price":87900,"use":"\u6a7f\u539f","zone":"","station":"\u5e97\u8217"},"type":"Point","coordinates":[35317,45891],"id":"feature_164"},{"properties":{"price":86500,"use":"\u6a7f\u539f","zone":"","station":"\u5e97\u8217\u517c\u5171\u540c\u4f4f\u5b85"},"type":"Point","coordinates":[40255,38971],"id":"feature_165"},{"properties":{"price":102000,"use":"\u6a7f\u539f","zone":"","station":"\u5e97\u8217\u517c\u4f4f\u5b85"},"type":"Point","coordinates":[33723,45239],"id":"feature_166"},{"properties":{"price":172000,"use":"\u6a7f\u539f","zone":"","station":"\u4e8b\u52d9\u6240\u517c\u4f4f\u5b85"},"type":"Point","coordinates":[41106,36650],"id":"feature_167"},{"properties":{"price":118000,"use":"\u6a7f\u539f","zone":"","station":"\u9280\u884c"},"type":"Point","coordinates":[39612,34546],"id":"feature_168"},{"properties":{"price":107000,"use":"\u6a7f\u539f","zone":"","station":"\u5e97\u8217\u517c\u5171\u540c\u4f4f\u5b85"},"type":"Point","coordinates":[41381,38680],"id":"feature_169"},{"properties":{"price":85600,"use":"\u6a7f\u539f","zone":"","station":"\u4e8b\u52d9\u6240"},"type":"Point","coordinates":[35598,41940],"id":"feature_170"},{"properties":{"price":82000,"use":"\u6a7f\u539f","zone":"","station":"\u5de5\u5834\u517c\u4e8b\u52d9\u6240"},"type":"Point","coordinates":[45501,42580],"id":"feature_171"},{"properties":{"price":41100,"use":"\u6a7f\u539f","zone":"","station":"\u5de5\u5834"},"type":"Point","coordinates":[30239,43110],"id":"feature_172"},{"properties":{"price":51200,"use":"\u685c\u4e95","zone":"","station":"\u4f4f\u5b85"},"type":"Point","coordinates":[56319,47680],"id":"feature_173"},{"properties":{"price":55100,"use":"\u685c\u4e95","zone":"","station":"\u4f4f\u5b85"},"type":"Point","coordinates":[57941,41274],"id":"feature_174"},{"properties":{"price":57000,"use":"\u685c\u4e95","zone":"","station":"\u4f4f\u5b85"},"type":"Point","coordinates":[49444,44090],"id":"feature_175"},{"properties":{"price":52800,"use":"\u685c\u4e95","zone":"","station":"\u4f4f\u5b85"},"type":"Point","coordinates":[64199,42847],"id":"feature_176"},{"properties":{"price":67300,"use":"\u685c\u4e95","zone":"","station":"\u4f4f\u5b85"},"type":"Point","coordinates":[55708,45382],"id":"feature_177"},{"properties":{"price":27000,"use":"\u685c\u4e95","zone":"","station":"\u4f4f\u5b85"},"type":"Point","coordinates":[74012,47024],"id":"feature_178"},{"properties":{"price":62700,"use":"\u685c\u4e95","zone":"","station":"\u4f4f\u5b85"},"type":"Point","coordinates":[56466,40523],"id":"feature_179"},{"properties":{"price":51200,"use":"\u685c\u4e95","zone":"","station":"\u4f4f\u5b85"},"type":"Point","coordinates":[53197,44986],"id":"feature_180"},{"properties":{"price":57600,"use":"\u685c\u4e95","zone":"","station":"\u4f4f\u5b85"},"type":"Point","coordinates":[55380,44294],"id":"feature_181"},{"properties":{"price":61500,"use":"\u685c\u4e95","zone":"","station":"\u4f4f\u5b85"},"type":"Point","coordinates":[61819,43743],"id":"feature_182"},{"properties":{"price":34200,"use":"\u685c\u4e95","zone":"","station":"\u4f4f\u5b85"},"type":"Point","coordinates":[53727,39525],"id":"feature_183"},{"properties":{"price":46200,"use":"\u685c\u4e95","zone":"","station":"\u4f4f\u5b85"},"type":"Point","coordinates":[53325,47962],"id":"feature_184"},{"properties":{"price":50300,"use":"\u685c\u4e95","zone":"","station":"\u4f4f\u5b85"},"type":"Point","coordinates":[53814,44003],"id":"feature_185"},{"properties":{"price":17300,"use":"\u685c\u4e95","zone":"","station":"\u7530"},"type":"Point","coordinates":[61341,44196],"id":"feature_186"},{"properties":{"price":115000,"use":"\u685c\u4e95","zone":"","station":"\u8a3a\u7642\u6240"},"type":"Point","coordinates":[57093,43218],"id":"feature_187"},{"properties":{"price":54000,"use":"\u685c\u4e95","zone":"","station":"\u8a3a\u7642\u6240\u517c\u4f4f\u5b85"},"type":"Point","coordinates":[57083,46862],"id":"feature_188"},{"properties":{"price":65600,"use":"\u685c\u4e95","zone":"","station":"\u5e97\u8217"},"type":"Point","coordinates":[59467,44435],"id":"feature_189"},{"properties":{"price":60900,"use":"\u685c\u4e95","zone":"","station":"\u5e97\u8217\u517c\u4f4f\u5b85"},"type":"Point","coordinates":[58147,43298],"id":"feature_190"},{"properties":{"price":43800,"use":"\u685c\u4e95","zone":"","station":"\u90f5\u4fbf\u5c40"},"type":"Point","coordinates":[75625,47708],"id":"feature_191"},{"properties":{"price":73400,"use":"\u685c\u4e95","zone":"","station":"\u5e97\u8217"},"type":"Point","coordinates":[52567,45539],"id":"feature_192"},{"properties":{"price":30700,"use":"\u685c\u4e95","zone":"","station":"\u5de5\u5834"},"type":"Point","coordinates":[53958,41096],"id":"feature_193"},{"properties":{"price":24200,"use":"\u4e94\u689d","zone":"","station":"\u4f4f\u5b85"},"type":"Point","coordinates":[17821,13383],"id":"feature_194"},{"properties":{"price":20600,"use":"\u4e94\u689d","zone":"","station":"\u4f4f\u5b85"},"type":"Point","coordinates":[7343,5321],"id":"feature_195"},{"properties":{"price":16200,"use":"\u4e94\u689d","zone":"","station":"\u4f4f\u5b85"},"type":"Point","coordinates":[11857,0],"id":"feature_196"},{"properties":{"price":24800,"use":"\u4e94\u689d","zone":"","station":"\u4f4f\u5b85"},"type":"Point","coordinates":[11913,7058],"id":"feature_197"},{"properties":{"price":22100,"use":"\u4e94\u689d","zone":"","station":"\u30b2\u30b9\u30c8\u30cf\u30a6\u30b9"},"type":"Point","coordinates":[8628,4744],"id":"feature_198"},{"properties":{"price":16900,"use":"\u4e94\u689d","zone":"","station":"\u4f4f\u5b85"},"type":"Point","coordinates":[14077,4289],"id":"feature_199"},{"properties":{"price":20100,"use":"\u4e94\u689d","zone":"","station":"\u4f4f\u5b85"},"type":"Point","coordinates":[10780,5372],"id":"feature_200"},{"properties":{"price":21100,"use":"\u4e94\u689d","zone":"","station":"\u4f4f\u5b85"},"type":"Point","coordinates":[6613,3930],"id":"feature_201"},{"properties":{"price":13100,"use":"\u4e94\u689d","zone":"","station":"\u4f4f\u5b85"},"type":"Point","coordinates":[12939,13111],"id":"feature_202"},{"properties":{"price":20900,"use":"\u4e94\u689d","zone":"","station":"\u4f4f\u5b85"},"type":"Point","coordinates":[4888,3902],"id":"feature_203"},{"properties":{"price":29900,"use":"\u4e94\u689d","zone":"","station":"\u55b6\u696d\u6240\u517c\u4f4f\u5b85"},"type":"Point","coordinates":[10238,4033],"id":"feature_204"},{"properties":{"price":48100,"use":"\u4e94\u689d","zone":"","station":"\u4e8b\u52d9\u6240"},"type":"Point","coordinates":[11195,5952],"id":"feature_205"},{"properties":{"price":43100,"use":"\u4e94\u689d","zone":"","station":"\u5e97\u8217\u517c\u4f4f\u5b85"},"type":"Point","coordinates":[10743,6310],"id":"feature_206"},{"properties":{"price":15900,"use":"\u4e94\u689d","zone":"","station":"\u5de5\u5834"},"type":"Point","coordinates":[13837,6041],"id":"feature_207"},{"properties":{"price":42800,"use":"\u5fa1\u6240","zone":"","station":"\u4f4f\u5b85"},"type":"Point","coordinates":[19964,32309],"id":"feature_208"},{"properties":{"price":43400,"use":"\u5fa1\u6240","zone":"","station":"\u4f4f\u5b85"},"type":"Point","coordinates":[26093,31767],"id":"feature_209"},{"properties":{"price":51900,"use":"\u5fa1\u6240","zone":"","station":"\u4f4f\u5b85"},"type":"Point","coordinates":[23694,32464],"id":"feature_210"},{"properties":{"price":35500,"use":"\u5fa1\u6240","zone":"","station":"\u4f4f\u5b85"},"type":"Point","coordinates":[22231,30923],"id":"feature_211"},{"properties":{"price":28000,"use":"\u5fa1\u6240","zone":"","station":"\u4f4f\u5b85"},"type":"Point","coordinates":[25516,33038],"id":"feature_212"},{"properties":{"price":32500,"use":"\u5fa1\u6240","zone":"","station":"\u4f4f\u5b85"},"type":"Point","coordinates":[21027,34063],"id":"feature_213"},{"properties":{"price":16700,"use":"\u5fa1\u6240","zone":"","station":"\u4f4f\u5b85"},"type":"Point","coordinates":[27927,22692],"id":"feature_214"},{"properties":{"price":21700,"use":"\u5fa1\u6240","zone":"","station":"\u4f4f\u5b85"},"type":"Point","coordinates":[21760,26742],"id":"feature_215"},{"properties":{"price":53200,"use":"\u5fa1\u6240","zone":"","station":"\u5e97\u8217\u517c\u4f4f\u5b85"},"type":"Point","coordinates":[22132,31955],"id":"feature_216"},{"properties":{"price":61300,"use":"\u5fa1\u6240","zone":"","station":"\u5e97\u8217"},"type":"Point","coordinates":[21645,33435],"id":"feature_217"},{"properties":{"price":92000,"use":"\u751f\u99d2","zone":"","station":"\u4f4f\u5b85"},"type":"Point","coordinates":[12571,89761],"id":"feature_218"},{"properties":{"price":76600,"use":"\u751f\u99d2","zone":"","station":"\u4f4f\u5b85"},"type":"Point","coordinates":[15618,79476],"id":"feature_219"},{"properties":{"price":100000,"use":"\u751f\u99d2","zone":"","station":"\u4f4f\u5b85"},"type":"Point","coordinates":[11775,88183],"id":"feature_220"},{"properties":{"price":113000,"use":"\u751f\u99d2","zone":"","station":"\u4f4f\u5b85"},"type":"Point","coordinates":[11794,84968],"id":"feature_221"},{"properties":{"price":158000,"use":"\u751f\u99d2","zone":"","station":"\u4f4f\u5b85"},"type":"Point","coordinates":[14842,84827],"id":"feature_222"},{"properties":{"price":31900,"use":"\u751f\u99d2","zone":"","station":"\u4f4f\u5b85"},"type":"Point","coordinates":[17649,99999],"id":"feature_223"},{"properties":{"price":71600,"use":"\u751f\u99d2","zone":"","station":"\u4f4f\u5b85"},"type":"Point","coordinates":[15163,81091],"id":"feature_224"},{"properties":{"price":84000,"use":"\u751f\u99d2","zone":"","station":"\u4f4f\u5b85"},"type":"Point","coordinates":[15297,77131],"id":"feature_225"},{"properties":{"price":129000,"use":"\u751f\u99d2","zone":"","station":"\u4f4f\u5b85"},"type":"Point","coordinates":[10705,86508],"id":"feature_226"},{"properties":{"price":121000,"use":"\u751f\u99d2","zone":"","station":"\u4f4f\u5b85"},"type":"Point","coordinates":[16386,83089],"id":"feature_227"},{"properties":{"price":91000,"use":"\u751f\u99d2","zone":"","station":"\u4f4f\u5b85"},"type":"Point","coordinates":[17618,89885],"id":"feature_228"},{"properties":{"price":84300,"use":"\u751f\u99d2","zone":"","station":"\u4f4f\u5b85"},"type":"Point","coordinates":[25968,96043],"id":"feature_229"},{"properties":{"price":138000,"use":"\u751f\u99d2","zone":"","station":"\u4f4f\u5b85"},"type":"Point","coordinates":[14486,86068],"id":"feature_230"},{"properties":{"price":81500,"use":"\u751f\u99d2","zone":"","station":"\u4f4f\u5b85"},"type":"Point","coordinates":[8690,89451],"id":"feature_231"},{"properties":{"price":109000,"use":"\u751f\u99d2","zone":"","station":"\u4f4f\u5b85"},"type":"Point","coordinates":[17084,90985],"id":"feature_232"},{"properties":{"price":109000,"use":"\u751f\u99d2","zone":"","station":"\u4f4f\u5b85"},"type":"Point","coordinates":[11451,83915],"id":"feature_233"},{"properties":{"price":88100,"use":"\u751f\u99d2","zone":"","station":"\u4f4f\u5b85"},"type":"Point","coordinates":[11426,87484],"id":"feature_234"},{"properties":{"price":136000,"use":"\u751f\u99d2","zone":"","station":"\u4f4f\u5b85"},"type":"Point","coordinates":[20899,93152],"id":"feature_235"},{"properties":{"price":127000,"use":"\u751f\u99d2","zone":"","station":"\u4f4f\u5b85"},"type":"Point","coordinates":[9230,86532],"id":"feature_236"},{"properties":{"price":96100,"use":"\u751f\u99d2","zone":"","station":"\u4f4f\u5b85"},"type":"Point","coordinates":[20335,90943],"id":"feature_237"},{"properties":{"price":131000,"use":"\u751f\u99d2","zone":"","station":"\u4f4f\u5b85"},"type":"Point","coordinates":[15484,93478],"id":"feature_238"},{"properties":{"price":31000,"use":"\u751f\u99d2","zone":"","station":"\u4f4f\u5b85"},"type":"Point","coordinates":[12948,77060],"id":"feature_239"},{"properties":{"price":83600,"use":"\u751f\u99d2","zone":"","station":"\u4f4f\u5b85"},"type":"Point","coordinates":[10715,90117],"id":"feature_240"},{"properties":{"price":81900,"use":"\u751f\u99d2","zone":"","station":"\u4f4f\u5b85"},"type":"Point","coordinates":[13444,83017],"id":"feature_241"},{"properties":{"price":65900,"use":"\u751f\u99d2","zone":"","station":"\u4f4f\u5b85"},"type":"Point","coordinates":[12608,78868],"id":"feature_242"},{"properties":{"price":74700,"use":"\u751f\u99d2","zone":"","station":"\u4f4f\u5b85"},"type":"Point","coordinates":[13956,89470],"id":"feature_243"},{"properties":{"price":80900,"use":"\u751f\u99d2","zone":"","station":"\u4f4f\u5b85"},"type":"Point","coordinates":[9433,88035],"id":"feature_244"},{"properties":{"price":73800,"use":"\u751f\u99d2","zone":"","station":"\u4f4f\u5b85"},"type":"Point","coordinates":[13217,79874],"id":"feature_245"},{"properties":{"price":89900,"use":"\u751f\u99d2","zone":"","station":"\u4f4f\u5b85"},"type":"Point","coordinates":[13510,86145],"id":"feature_246"},{"properties":{"price":270000,"use":"\u751f\u99d2","zone":"","station":"\u5e97\u8217\u517c\u4f4f\u5b85"},"type":"Point","coordinates":[10624,85455],"id":"feature_247"},{"properties":{"price":264000,"use":"\u751f\u99d2","zone":"","station":"\u533b\u9662"},"type":"Point","coordinates":[14845,85120],"id":"feature_248"},{"properties":{"price":88800,"use":"\u751f\u99d2","zone":"","station":"\u8a3a\u7642\u6240"},"type":"Point","coordinates":[26814,95637],"id":"feature_249"},{"properties":{"price":112000,"use":"\u751f\u99d2","zone":"","station":"\u5e97\u8217"},"type":"Point","coordinates":[13304,81256],"id":"feature_250"},{"properties":{"price":333000,"use":"\u751f\u99d2","zone":"","station":"\u9280\u884c"},"type":"Point","coordinates":[10696,86133],"id":"feature_251"},{"properties":{"price":72200,"use":"\u751f\u99d2","zone":"","station":"\u5de5\u5834"},"type":"Point","coordinates":[15650,97340],"id":"feature_252"},{"properties":{"price":94300,"use":"\u9999\u829d","zone":"","station":"\u4f4f\u5b85"},"type":"Point","coordinates":[15294,47969],"id":"feature_253"},{"properties":{"price":81700,"use":"\u9999\u829d","zone":"","station":"\u4f4f\u5b85"},"type":"Point","coordinates":[10319,50349],"id":"feature_254"},{"properties":{"price":56700,"use":"\u9999\u829d","zone":"","station":"\u4f4f\u5b85"},"type":"Point","coordinates":[8017,49589],"id":"feature_255"},{"properties":{"price":58400,"use":"\u9999\u829d","zone":"","station":"\u4f4f\u5b85"},"type":"Point","coordinates":[5016,50590],"id":"feature_256"},{"properties":{"price":86900,"use":"\u9999\u829d","zone":"","station":"\u4f4f\u5b85"},"type":"Point","coordinates":[11616,49326],"id":"feature_257"},{"properties":{"price":52100,"use":"\u9999\u829d","zone":"","station":"\u4f4f\u5b85"},"type":"Point","coordinates":[0,52166],"id":"feature_258"},{"properties":{"price":124000,"use":"\u9999\u829d","zone":"","station":"\u4f4f\u5b85"},"type":"Point","coordinates":[15799,51184],"id":"feature_259"},{"properties":{"price":79500,"use":"\u9999\u829d","zone":"","station":"\u4f4f\u5b85"},"type":"Point","coordinates":[13282,49798],"id":"feature_260"},{"properties":{"price":70800,"use":"\u9999\u829d","zone":"","station":"\u4f4f\u5b85"},"type":"Point","coordinates":[10793,52415],"id":"feature_261"},{"properties":{"price":50800,"use":"\u9999\u829d","zone":"","station":"\u4f4f\u5b85"},"type":"Point","coordinates":[2505,54115],"id":"feature_262"},{"properties":{"price":74900,"use":"\u9999\u829d","zone":"","station":"\u4f4f\u5b85"},"type":"Point","coordinates":[12917,51062],"id":"feature_263"},{"properties":{"price":148000,"use":"\u9999\u829d","zone":"","station":"\u4f4f\u5b85"},"type":"Point","coordinates":[16907,50583],"id":"feature_264"},{"properties":{"price":58900,"use":"\u9999\u829d","zone":"","station":"\u4f4f\u5b85"},"type":"Point","coordinates":[9932,57098],"id":"feature_265"},{"properties":{"price":69200,"use":"\u9999\u829d","zone":"","station":"\u4f4f\u5b85"},"type":"Point","coordinates":[9810,51742],"id":"feature_266"},{"properties":{"price":85400,"use":"\u9999\u829d","zone":"","station":"\u4f4f\u5b85"},"type":"Point","coordinates":[7149,52985],"id":"feature_267"},{"properties":{"price":44700,"use":"\u9999\u829d","zone":"","station":"\u4f4f\u5b85"},"type":"Point","coordinates":[9773,56005],"id":"feature_268"},{"properties":{"price":50600,"use":"\u9999\u829d","zone":"","station":"\u4f4f\u5b85"},"type":"Point","coordinates":[2470,53444],"id":"feature_269"},{"properties":{"price":129000,"use":"\u9999\u829d","zone":"","station":"\u4f4f\u5b85"},"type":"Point","coordinates":[15419,49582],"id":"feature_270"},{"properties":{"price":19600,"use":"\u9999\u829d","zone":"","station":"\u7530"},"type":"Point","coordinates":[12237,53592],"id":"feature_271"},{"properties":{"price":155000,"use":"\u9999\u829d","zone":"","station":"\u5e97\u8217\u517c\u5171\u540c\u4f4f\u5b85"},"type":"Point","coordinates":[16557,49237],"id":"feature_272"},{"properties":{"price":103000,"use":"\u9999\u829d","zone":"","station":"\u9280\u884c"},"type":"Point","coordinates":[7670,52051],"id":"feature_273"},{"properties":{"price":136000,"use":"\u9999\u829d","zone":"","station":"\u5e97\u8217\u517c\u4e8b\u52d9\u6240"},"type":"Point","coordinates":[15509,51099],"id":"feature_274"},{"properties":{"price":49600,"use":"\u845b\u57ce","zone":"","station":"\u4f4f\u5b85"},"type":"Point","coordinates":[9617,48285],"id":"feature_275"},{"properties":{"price":73500,"use":"\u845b\u57ce","zone":"","station":"\u4f4f\u5b85"},"type":"Point","coordinates":[18036,41415],"id":"feature_276"},{"properties":{"price":62200,"use":"\u845b\u57ce","zone":"","station":"\u4f4f\u5b85"},"type":"Point","coordinates":[13862,41970],"id":"feature_277"},{"properties":{"price":49000,"use":"\u845b\u57ce","zone":"","station":"\u4f4f\u5b85"},"type":"Point","coordinates":[16988,37109],"id":"feature_278"},{"properties":{"price":78500,"use":"\u845b\u57ce","zone":"","station":"\u4f4f\u5b85"},"type":"Point","coordinates":[19115,42803],"id":"feature_279"},{"properties":{"price":27400,"use":"\u845b\u57ce","zone":"","station":"\u4f4f\u5b85"},"type":"Point","coordinates":[18033,35866],"id":"feature_280"},{"properties":{"price":35500,"use":"\u845b\u57ce","zone":"","station":"\u4f4f\u5b85"},"type":"Point","coordinates":[13008,45603],"id":"feature_281"},{"properties":{"price":18700,"use":"\u845b\u57ce","zone":"","station":"\u7530"},"type":"Point","coordinates":[17818,37259],"id":"feature_282"},{"properties":{"price":70500,"use":"\u845b\u57ce","zone":"","station":"\u5e97\u8217"},"type":"Point","coordinates":[21963,38099],"id":"feature_283"},{"properties":{"price":27100,"use":"\u5b87\u9640","zone":"","station":"\u4f4f\u5b85"},"type":"Point","coordinates":[83588,36546],"id":"feature_284"},{"properties":{"price":24900,"use":"\u5b87\u9640","zone":"","station":"\u4f4f\u5b85"},"type":"Point","coordinates":[84381,34731],"id":"feature_285"},{"properties":{"price":34700,"use":"\u5b87\u9640","zone":"","station":"\u4f4f\u5b85"},"type":"Point","coordinates":[90691,49280],"id":"feature_286"},{"properties":{"price":21800,"use":"\u5b87\u9640","zone":"","station":"\u4f4f\u5b85"},"type":"Point","coordinates":[82506,35353],"id":"feature_287"},{"properties":{"price":23000,"use":"\u5b87\u9640","zone":"","station":"\u4f4f\u5b85"},"type":"Point","coordinates":[96702,34098],"id":"feature_288"},{"properties":{"price":14100,"use":"\u5b87\u9640","zone":"","station":"\u4f4f\u5b85"},"type":"Point","coordinates":[99999,33066],"id":"feature_289"},{"properties":{"price":19300,"use":"\u5b87\u9640","zone":"","station":"\u4f4f\u5b85"},"type":"Point","coordinates":[93657,35365],"id":"feature_290"},{"properties":{"price":33700,"use":"\u5b87\u9640","zone":"","station":"\u4f4f\u5b85"},"type":"Point","coordinates":[94197,48306],"id":"feature_291"},{"properties":{"price":44700,"use":"\u5b87\u9640","zone":"","station":"\u4f4f\u5b85"},"type":"Point","coordinates":[91050,46538],"id":"feature_292"},{"properties":{"price":25700,"use":"\u5b87\u9640","zone":"","station":"\u4f4f\u5b85"},"type":"Point","coordinates":[97348,51336],"id":"feature_293"},{"properties":{"price":38700,"use":"\u5b87\u9640","zone":"","station":"\u4f4f\u5b85"},"type":"Point","coordinates":[94294,49052],"id":"feature_294"},{"properties":{"price":10100,"use":"\u5b87\u9640","zone":"","station":"\u4f4f\u5b85"},"type":"Point","coordinates":[84343,41361],"id":"feature_295"},{"properties":{"price":6190,"use":"\u5b87\u9640","zone":"","station":"\u4f4f\u5b85"},"type":"Point","coordinates":[99846,31198],"id":"feature_296"},{"properties":{"price":10800,"use":"\u5b87\u9640","zone":"","station":"\u4f4f\u5b85"},"type":"Point","coordinates":[96936,46822],"id":"feature_297"},{"properties":{"price":6040,"use":"\u5b87\u9640","zone":"","station":"\u4f4f\u5b85"},"type":"Point","coordinates":[88944,40667],"id":"feature_298"},{"properties":{"price":29400,"use":"\u5b87\u9640","zone":"","station":"\u5e97\u8217"},"type":"Point","coordinates":[90142,49244],"id":"feature_299"},{"properties":{"price":34500,"use":"\u5e73\u7fa4","zone":"","station":"\u4f4f\u5b85"},"type":"Point","coordinates":[10375,69676],"id":"feature_300"},{"properties":{"price":36000,"use":"\u5e73\u7fa4","zone":"","station":"\u4f4f\u5b85"},"type":"Point","coordinates":[11348,74021],"id":"feature_301"},{"properties":{"price":30500,"use":"\u5e73\u7fa4","zone":"","station":"\u4f4f\u5b85"},"type":"Point","coordinates":[14995,67387],"id":"feature_302"},{"properties":{"price":23600,"use":"\u5e73\u7fa4","zone":"","station":"\u4f4f\u5b85"},"type":"Point","coordinates":[9155,70375],"id":"feature_303"},{"properties":{"price":45100,"use":"\u5e73\u7fa4","zone":"","station":"\u4f4f\u5b85"},"type":"Point","coordinates":[13875,66797],"id":"feature_304"},{"properties":{"price":35500,"use":"\u5e73\u7fa4","zone":"","station":"\u4f4f\u5b85"},"type":"Point","coordinates":[9261,73013],"id":"feature_305"},{"properties":{"price":54300,"use":"\u5e73\u7fa4","zone":"","station":"\u4f4f\u5b85"},"type":"Point","coordinates":[12680,70373],"id":"feature_306"},{"properties":{"price":40500,"use":"\u5e73\u7fa4","zone":"","station":"\u4f4f\u5b85"},"type":"Point","coordinates":[13020,73355],"id":"feature_307"},{"properties":{"price":78000,"use":"\u5e73\u7fa4","zone":"","station":"\u5e97\u8217"},"type":"Point","coordinates":[13282,70905],"id":"feature_308"},{"properties":{"price":37100,"use":"\u5948\u826f\u4e09\u90f7","zone":"","station":"\u4f4f\u5b85"},"type":"Point","coordinates":[8538,65617],"id":"feature_309"},{"properties":{"price":46800,"use":"\u5948\u826f\u4e09\u90f7","zone":"","station":"\u4f4f\u5b85"},"type":"Point","coordinates":[11601,66445],"id":"feature_310"},{"properties":{"price":42300,"use":"\u5948\u826f\u4e09\u90f7","zone":"","station":"\u4f4f\u5b85"},"type":"Point","coordinates":[8319,64079],"id":"feature_311"},{"properties":{"price":75500,"use":"\u5948\u826f\u4e09\u90f7","zone":"","station":"\u4f4f\u5b85"},"type":"Point","coordinates":[12087,64461],"id":"feature_312"},{"properties":{"price":46300,"use":"\u5948\u826f\u4e09\u90f7","zone":"","station":"\u4f4f\u5b85"},"type":"Point","coordinates":[5471,61044],"id":"feature_313"},{"properties":{"price":85800,"use":"\u5948\u826f\u4e09\u90f7","zone":"","station":"\u5e97\u8217\u517c\u5171\u540c\u4f4f\u5b85"},"type":"Point","coordinates":[7599,61530],"id":"feature_314"},{"properties":{"price":31800,"use":"\u6591\u9ce9","zone":"","station":"\u4f4f\u5b85"},"type":"Point","coordinates":[25528,67835],"id":"feature_315"},{"properties":{"price":127000,"use":"\u6591\u9ce9","zone":"","station":"\u4f4f\u5b85"},"type":"Point","coordinates":[24262,64323],"id":"feature_316"},{"properties":{"price":81600,"use":"\u6591\u9ce9","zone":"","station":"\u4f4f\u5b85"},"type":"Point","coordinates":[15191,63387],"id":"feature_317"},{"properties":{"price":100000,"use":"\u6591\u9ce9","zone":"","station":"\u4f4f\u5b85"},"type":"Point","coordinates":[22278,64055],"id":"feature_318"},{"properties":{"price":70400,"use":"\u6591\u9ce9","zone":"","station":"\u4f4f\u5b85"},"type":"Point","coordinates":[25388,67038],"id":"feature_319"},{"properties":{"price":52400,"use":"\u6591\u9ce9","zone":"","station":"\u4f4f\u5b85"},"type":"Point","coordinates":[15066,66234],"id":"feature_320"},{"properties":{"price":83600,"use":"\u6591\u9ce9","zone":"","station":"\u4f4f\u5b85"},"type":"Point","coordinates":[24153,62977],"id":"feature_321"},{"properties":{"price":85000,"use":"\u6591\u9ce9","zone":"","station":"\u5e97\u8217"},"type":"Point","coordinates":[18370,65493],"id":"feature_322"},{"properties":{"price":50800,"use":"\u5b89\u5835","zone":"","station":"\u4f4f\u5b85"},"type":"Point","coordinates":[30289,67976],"id":"feature_323"},{"properties":{"price":28300,"use":"\u5b89\u5835","zone":"","station":"\u4f4f\u5b85"},"type":"Point","coordinates":[27306,64848],"id":"feature_324"},{"properties":{"price":52800,"use":"\u5b89\u5835","zone":"","station":"\u4f4f\u5b85"},"type":"Point","coordinates":[29905,64037],"id":"feature_325"},{"properties":{"price":53300,"use":"\u5b89\u5835","zone":"","station":"\u4f4f\u5b85"},"type":"Point","coordinates":[29256,68199],"id":"feature_326"},{"properties":{"price":64200,"use":"\u5948\u826f\u5ddd\u897f","zone":"","station":"\u4f4f\u5b85"},"type":"Point","coordinates":[39310,60460],"id":"feature_327"},{"properties":{"price":78900,"use":"\u5948\u826f\u5ddd\u897f","zone":"","station":"\u4f4f\u5b85"},"type":"Point","coordinates":[36356,60622],"id":"feature_328"},{"properties":{"price":65400,"use":"\u5948\u826f\u5ddd\u897f","zone":"","station":"\u4f4f\u5b85"},"type":"Point","coordinates":[36543,59811],"id":"feature_329"},{"properties":{"price":24900,"use":"\u5948\u826f\u5ddd\u897f","zone":"","station":"\u4f4f\u5b85"},"type":"Point","coordinates":[30413,59621],"id":"feature_330"},{"properties":{"price":46800,"use":"\u5948\u826f\u4e09\u5b85","zone":"","station":"\u4f4f\u5b85"},"type":"Point","coordinates":[40136,56985],"id":"feature_331"},{"properties":{"price":60200,"use":"\u5948\u826f\u4e09\u5b85","zone":"","station":"\u4f4f\u5b85"},"type":"Point","coordinates":[37157,57743],"id":"feature_332"},{"properties":{"price":42900,"use":"\u5948\u826f\u4e09\u5b85","zone":"","station":"\u4f4f\u5b85"},"type":"Point","coordinates":[34434,57621],"id":"feature_333"},{"properties":{"price":52200,"use":"\u5948\u826f\u4e09\u5b85","zone":"","station":"\u4f4f\u5b85"},"type":"Point","coordinates":[35881,58863],"id":"feature_334"},{"properties":{"price":75000,"use":"\u7530\u539f\u672c","zone":"","station":"\u4f4f\u5b85"},"type":"Point","coordinates":[41287,49451],"id":"feature_335"},{"properties":{"price":78200,"use":"\u7530\u539f\u672c","zone":"","station":"\u4f4f\u5b85"},"type":"Point","coordinates":[40626,54647],"id":"feature_336"},{"properties":{"price":71600,"use":"\u7530\u539f\u672c","zone":"","station":"\u4f4f\u5b85"},"type":"Point","coordinates":[42429,53585],"id":"feature_337"},{"properties":{"price":77800,"use":"\u7530\u539f\u672c","zone":"","station":"\u4f4f\u5b85"},"type":"Point","coordinates":[37591,51866],"id":"feature_338"},{"properties":{"price":79500,"use":"\u7530\u539f\u672c","zone":"","station":"\u4f4f\u5b85"},"type":"Point","coordinates":[41406,52699],"id":"feature_339"},{"properties":{"price":38800,"use":"\u7530\u539f\u672c","zone":"","station":"\u4f4f\u5b85"},"type":"Point","coordinates":[40233,49784],"id":"feature_340"},{"properties":{"price":78600,"use":"\u7530\u539f\u672c","zone":"","station":"\u4f4f\u5b85"},"type":"Point","coordinates":[39222,54312],"id":"feature_341"},{"properties":{"price":69400,"use":"\u7530\u539f\u672c","zone":"","station":"\u5e97\u8217\u517c\u4f5c\u696d\u5834"},"type":"Point","coordinates":[41867,54659],"id":"feature_342"},{"properties":{"price":27200,"use":"\u9ad8\u53d6","zone":"","station":"\u4f4f\u5b85"},"type":"Point","coordinates":[43140,27363],"id":"feature_343"},{"properties":{"price":26800,"use":"\u9ad8\u53d6","zone":"","station":"\u4f4f\u5b85"},"type":"Point","coordinates":[40638,28437],"id":"feature_344"},{"properties":{"price":24800,"use":"\u9ad8\u53d6","zone":"","station":"\u4f4f\u5b85"},"type":"Point","coordinates":[42891,26852],"id":"feature_345"},{"properties":{"price":17000,"use":"\u9ad8\u53d6","zone":"","station":"\u4f4f\u5b85"},"type":"Point","coordinates":[38673,28395],"id":"feature_346"},{"properties":{"price":62600,"use":"\u660e\u65e5\u9999","zone":"","station":"\u4f4f\u5b85"},"type":"Point","coordinates":[43349,32236],"id":"feature_347"},{"properties":{"price":45500,"use":"\u660e\u65e5\u9999","zone":"","station":"\u4f4f\u5b85"},"type":"Point","coordinates":[49585,33428],"id":"feature_348"},{"properties":{"price":41500,"use":"\u660e\u65e5\u9999","zone":"","station":"\u4f4f\u5b85"},"type":"Point","coordinates":[41128,32171],"id":"feature_349"},{"properties":{"price":23600,"use":"\u660e\u65e5\u9999","zone":"","station":"\u4f4f\u5b85"},"type":"Point","coordinates":[50926,35292],"id":"feature_350"},{"properties":{"price":45900,"use":"\u4e0a\u7267","zone":"","station":"\u4f4f\u5b85"},"type":"Point","coordinates":[15612,54647],"id":"feature_351"},{"properties":{"price":40700,"use":"\u4e0a\u7267","zone":"","station":"\u4f4f\u5b85"},"type":"Point","coordinates":[14664,52687],"id":"feature_352"},{"properties":{"price":70900,"use":"\u4e0a\u7267","zone":"","station":"\u4f4f\u5b85"},"type":"Point","coordinates":[15793,59422],"id":"feature_353"},{"properties":{"price":64400,"use":"\u4e0a\u7267","zone":"","station":"\u4f4f\u5b85"},"type":"Point","coordinates":[17590,58165],"id":"feature_354"},{"properties":{"price":65200,"use":"\u4e0a\u7267","zone":"","station":"\u4f4f\u5b85"},"type":"Point","coordinates":[18494,53414],"id":"feature_355"},{"properties":{"price":26600,"use":"\u4e0a\u7267","zone":"","station":"\u4f4f\u5b85"},"type":"Point","coordinates":[13856,53700],"id":"feature_356"},{"properties":{"price":43200,"use":"\u4e0a\u7267","zone":"","station":"\u4f4f\u5b85"},"type":"Point","coordinates":[14795,56830],"id":"feature_357"},{"properties":{"price":76500,"use":"\u4e0a\u7267","zone":"","station":"\u5e97\u8217\u517c\u4f4f\u5b85"},"type":"Point","coordinates":[16679,59647],"id":"feature_358"},{"properties":{"price":91800,"use":"\u738b\u5bfa","zone":"","station":"\u4f4f\u5b85"},"type":"Point","coordinates":[10328,62897],"id":"feature_359"},{"properties":{"price":67100,"use":"\u738b\u5bfa","zone":"","station":"\u4f4f\u5b85"},"type":"Point","coordinates":[10422,60170],"id":"feature_360"},{"properties":{"price":97200,"use":"\u738b\u5bfa","zone":"","station":"\u4f4f\u5b85"},"type":"Point","coordinates":[13672,63755],"id":"feature_361"},{"properties":{"price":67100,"use":"\u738b\u5bfa","zone":"","station":"\u4f4f\u5b85"},"type":"Point","coordinates":[12905,58683],"id":"feature_362"},{"properties":{"price":80600,"use":"\u738b\u5bfa","zone":"","station":"\u4f4f\u5b85"},"type":"Point","coordinates":[14892,62322],"id":"feature_363"},{"properties":{"price":64300,"use":"\u738b\u5bfa","zone":"","station":"\u4f4f\u5b85"},"type":"Point","coordinates":[12340,61441],"id":"feature_364"},{"properties":{"price":89000,"use":"\u738b\u5bfa","zone":"","station":"\u4f4f\u5b85"},"type":"Point","coordinates":[14633,61565],"id":"feature_365"},{"properties":{"price":77000,"use":"\u738b\u5bfa","zone":"","station":"\u5e97\u8217\u517c\u4f4f\u5b85"},"type":"Point","coordinates":[12430,58763],"id":"feature_366"},{"properties":{"price":151000,"use":"\u738b\u5bfa","zone":"","station":"\u5e97\u8217\u517c\u5171\u540c\u4f4f\u5b85"},"type":"Point","coordinates":[12961,63560],"id":"feature_367"},{"properties":{"price":68800,"use":"\u5e83\u9675","zone":"","station":"\u4f4f\u5b85"},"type":"Point","coordinates":[23117,49962],"id":"feature_368"},{"properties":{"price":99600,"use":"\u5e83\u9675","zone":"","station":"\u4f4f\u5b85"},"type":"Point","coordinates":[21218,52495],"id":"feature_369"},{"properties":{"price":30900,"use":"\u5e83\u9675","zone":"","station":"\u4f4f\u5b85"},"type":"Point","coordinates":[25775,55004],"id":"feature_370"},{"properties":{"price":42300,"use":"\u5e83\u9675","zone":"","station":"\u4f4f\u5b85"},"type":"Point","coordinates":[28202,55545],"id":"feature_371"},{"properties":{"price":119000,"use":"\u5e83\u9675","zone":"","station":"\u4f4f\u5b85"},"type":"Point","coordinates":[20812,50206],"id":"feature_372"},{"properties":{"price":39500,"use":"\u5e83\u9675","zone":"","station":"\u4f4f\u5b85"},"type":"Point","coordinates":[23457,49195],"id":"feature_373"},{"properties":{"price":39800,"use":"\u5e83\u9675","zone":"","station":"\u4f4f\u5b85"},"type":"Point","coordinates":[26527,56617],"id":"feature_374"},{"properties":{"price":73400,"use":"\u5e83\u9675","zone":"","station":"\u4f4f\u5b85"},"type":"Point","coordinates":[21820,47941],"id":"feature_375"},{"properties":{"price":86000,"use":"\u5e83\u9675","zone":"","station":"\u5e97\u8217"},"type":"Point","coordinates":[25129,47795],"id":"feature_376"},{"properties":{"price":71400,"use":"\u6cb3\u5408","zone":"","station":"\u4f4f\u5b85"},"type":"Point","coordinates":[19203,59314],"id":"feature_377"},{"properties":{"price":60800,"use":"\u6cb3\u5408","zone":"","station":"\u7a7a\u5730"},"type":"Point","coordinates":[18600,60742],"id":"feature_378"},{"properties":{"price":47700,"use":"\u6cb3\u5408","zone":"","station":"\u4f4f\u5b85"},"type":"Point","coordinates":[22397,58587],"id":"feature_379"},{"properties":{"price":83400,"use":"\u6cb3\u5408","zone":"","station":"\u4f4f\u5b85"},"type":"Point","coordinates":[16738,60967],"id":"feature_380"},{"properties":{"price":43300,"use":"\u6cb3\u5408","zone":"","station":"\u4f4f\u5b85"},"type":"Point","coordinates":[24271,60259],"id":"feature_381"},{"properties":{"price":43500,"use":"\u6cb3\u5408","zone":"","station":"\u4f4f\u5b85"},"type":"Point","coordinates":[21795,61272],"id":"feature_382"},{"properties":{"price":76700,"use":"\u6cb3\u5408","zone":"","station":"\u4f4f\u5b85"},"type":"Point","coordinates":[17687,60130],"id":"feature_383"},{"properties":{"price":107000,"use":"\u6cb3\u5408","zone":"","station":"\u5e97\u8217\u517c\u5171\u540c\u4f4f\u5b85"},"type":"Point","coordinates":[16757,60564],"id":"feature_384"},{"properties":{"price":12400,"use":"\u5409\u91ce","zone":"","station":"\u4f4f\u5b85"},"type":"Point","coordinates":[65927,16037],"id":"feature_385"},{"properties":{"price":17900,"use":"\u5409\u91ce","zone":"","station":"\u4f4f\u5b85"},"type":"Point","coordinates":[58259,14267],"id":"feature_386"},{"properties":{"price":16900,"use":"\u5409\u91ce","zone":"","station":"\u4f4f\u5b85"},"type":"Point","coordinates":[60293,15350],"id":"feature_387"},{"properties":{"price":26300,"use":"\u5409\u91ce","zone":"","station":"\u4f4f\u5b85"},"type":"Point","coordinates":[56737,14635],"id":"feature_388"},{"properties":{"price":9510,"use":"\u5409\u91ce","zone":"","station":"\u4f4f\u5b85"},"type":"Point","coordinates":[68095,19259],"id":"feature_389"},{"properties":{"price":7580,"use":"\u5409\u91ce","zone":"","station":"\u4f4f\u5b85"},"type":"Point","coordinates":[68260,14093],"id":"feature_390"},{"properties":{"price":33100,"use":"\u5409\u91ce","zone":"","station":"\u9280\u884c"},"type":"Point","coordinates":[60253,15899],"id":"feature_391"},{"properties":{"price":25800,"use":"\u5948\u826f\u5927\u6dc0","zone":"","station":"\u4f4f\u5b85"},"type":"Point","coordinates":[39940,13015],"id":"feature_392"},{"properties":{"price":23900,"use":"\u5948\u826f\u5927\u6dc0","zone":"","station":"\u4f4f\u5b85"},"type":"Point","coordinates":[36025,14919],"id":"feature_393"},{"properties":{"price":18100,"use":"\u5948\u826f\u5927\u6dc0","zone":"","station":"\u4f4f\u5b85"},"type":"Point","coordinates":[44850,14419],"id":"feature_394"},{"properties":{"price":23100,"use":"\u5948\u826f\u5927\u6dc0","zone":"","station":"\u4f4f\u5b85"},"type":"Point","coordinates":[42940,16150],"id":"feature_395"},{"properties":{"price":17500,"use":"\u5948\u826f\u5927\u6dc0","zone":"","station":"\u4f4f\u5b85"},"type":"Point","coordinates":[55109,15657],"id":"feature_396"},{"properties":{"price":13100,"use":"\u5948\u826f\u5927\u6dc0","zone":"","station":"\u4f4f\u5b85"},"type":"Point","coordinates":[32853,12682],"id":"feature_397"},{"properties":{"price":41000,"use":"\u5948\u826f\u5927\u6dc0","zone":"","station":"\u5e97\u8217\u517c\u4f4f\u5b85"},"type":"Point","coordinates":[38577,12808],"id":"feature_398"},{"properties":{"price":18600,"use":"\u4e0b\u5e02","zone":"","station":"\u4f4f\u5b85"},"type":"Point","coordinates":[39157,11265],"id":"feature_399"},{"properties":{"price":12900,"use":"\u4e0b\u5e02","zone":"","station":"\u4f4f\u5b85"},"type":"Point","coordinates":[42956,12328],"id":"feature_400"},{"properties":{"price":18700,"use":"\u4e0b\u5e02","zone":"","station":"\u4f4f\u5b85"},"type":"Point","coordinates":[41144,7288],"id":"feature_401"},{"properties":{"price":18400,"use":"\u4e0b\u5e02","zone":"","station":"\u4f4f\u5b85"},"type":"Point","coordinates":[42089,12536],"id":"feature_402"},{"properties":{"price":20900,"use":"\u4e0b\u5e02","zone":"","station":"\u4f4f\u5b85"},"type":"Point","coordinates":[38979,9889],"id":"feature_403"},{"properties":{"price":31800,"use":"\u4e0b\u5e02","zone":"","station":"\u5e97\u8217\u517c\u4f4f\u5b85"},"type":"Point","coordinates":[39609,9889],"id":"feature_404"}],"type":"GeometryCollection"}},"bbox":[135.66348,34.32746,135.98406,34.7539],"transform":{"scale":[3.2058320583206506e-06,4.264442644426439e-06],"translate":[135.66348,34.32746]},"arcs":[]}