{"type":"Topology","objects":{"data":{"geometries":[{"properties":{"price":78000,"use":"\u5c71\u5f62","zone":"","station":"\u4f4f\u5b85"},"type":"Point","coordinates":[83059,30160],"id":"feature_000"},{"properties":{"price":44700,"use":"\u5c71\u5f62","zone":"","station":"\u4f4f\u5b85"},"type":"Point","coordinates":[80846,34335],"id":"feature_001"},{"properties":{"price":29100,"use":"\u5c71\u5f62","zone":"","station":"\u4f4f\u5b85"},"type":"Point","coordinates":[73956,28552],"id":"feature_002"},{"properties":{"price":72200,"use":"\u5c71\u5f62","zone":"","station":"\u4f4f\u5b85"},"type":"Point","coordinates":[78263,31486],"id":"feature_003"},{"properties":{"price":84600,"use":"\u5c71\u5f62","zone":"","station":"\u4f4f\u5b85"},"type":"Point","coordinates":[80543,29173],"id":"feature_004"},{"properties":{"price":87200,"use":"\u5c71\u5f62","zone":"","station":"\u4f4f\u5b85"},"type":"Point","coordinates":[81402,30352],"id":"feature_005"},{"properties":{"price":45000,"use":"\u5c71\u5f62","zone":"","station":"\u4f4f\u5b85"},"type":"Point","coordinates":[82165,31880],"id":"feature_006"},{"properties":{"price":41800,"use":"\u5c71\u5f62","zone":"","station":"\u4f4f\u5b85"},"type":"Point","coordinates":[82692,31411],"id":"feature_007"},{"properties":{"price":46900,"use":"\u5c71\u5f62","zone":"","station":"\u4f4f\u5b85"},"type":"Point","coordinates":[83122,31167],"id":"feature_008"},{"properties":{"price":69400,"use":"\u5c71\u5f62","zone":"","station":"\u4f4f\u5b85"},"type":"Point","coordinates":[78595,29201],"id":"feature_009"},{"properties":{"price":67800,"use":"\u5c71\u5f62","zone":"","station":"\u4f4f\u5b85"},"type":"Point","coordinates":[79054,27471],"id":"feature_010"},{"properties":{"price":78100,"use":"\u5c71\u5f62","zone":"","station":"\u4f4f\u5b85"},"type":"Point","coordinates":[78489,30376],"id":"feature_011"},{"properties":{"price":53000,"use":"\u5c71\u5f62","zone":"","station":"\u4f4f\u5b85"},"type":"Point","coordinates":[77871,33277],"id":"feature_012"},{"properties":{"price":58500,"use":"\u5c71\u5f62","zone":"","station":"\u4f4f\u5b85"},"type":"Point","coordinates":[81071,31681],"id":"feature_013"},{"properties":{"price":56800,"use":"\u5c71\u5f62","zone":"","station":"\u4f4f\u5b85"},"type":"Point","coordinates":[77455,29344],"id":"feature_014"},{"properties":{"price":98000,"use":"\u5c71\u5f62","zone":"","station":"\u5171\u540c\u4f4f\u5b85"},"type":"Point","coordinates":[79924,30065],"id":"feature_015"},{"properties":{"price":50200,"use":"\u5c71\u5f62","zone":"","station":"\u4f4f\u5b85"},"type":"Point","coordinates":[78759,26798],"id":"feature_016"},{"properties":{"price":87000,"use":"\u5c71\u5f62","zone":"","station":"\u4f4f\u5b85"},"type":"Point","coordinates":[79330,30811],"id":"feature_017"},{"properties":{"price":26300,"use":"\u5c71\u5f62","zone":"","station":"\u4f4f\u5b85"},"type":"Point","coordinates":[83029,35662],"id":"feature_018"},{"properties":{"price":58100,"use":"\u5c71\u5f62","zone":"","station":"\u4f4f\u5b85"},"type":"Point","coordinates":[79203,32803],"id":"feature_019"},{"properties":{"price":78600,"use":"\u5c71\u5f62","zone":"","station":"\u4f4f\u5b85"},"type":"Point","coordinates":[82182,30783],"id":"feature_020"},{"properties":{"price":18000,"use":"\u5c71\u5f62","zone":"","station":"\u4f4f\u5b85"},"type":"Point","coordinates":[77531,35492],"id":"feature_021"},{"properties":{"price":50200,"use":"\u5c71\u5f62","zone":"","station":"\u4f4f\u5b85"},"type":"Point","coordinates":[80911,33440],"id":"feature_022"},{"properties":{"price":28500,"use":"\u5c71\u5f62","zone":"","station":"\u4f4f\u5b85"},"type":"Point","coordinates":[76725,31192],"id":"feature_023"},{"properties":{"price":40600,"use":"\u5c71\u5f62","zone":"","station":"\u7530"},"type":"Point","coordinates":[79355,28735],"id":"feature_024"},{"properties":{"price":219000,"use":"\u5c71\u5f62","zone":"","station":"\u5e97\u8217\u3001\u516c\u6c11\u9928\u517c\u99d0\u8eca\u5834"},"type":"Point","coordinates":[80901,30812],"id":"feature_025"},{"properties":{"price":115000,"use":"\u5c71\u5f62","zone":"","station":"\u5e97\u8217\u3001\u4e8b\u52d9\u6240\u517c\u5171\u540c\u4f4f\u5b85"},"type":"Point","coordinates":[79543,30853],"id":"feature_026"},{"properties":{"price":74400,"use":"\u5c71\u5f62","zone":"","station":"\u5e97\u8217\u3001\u4e8b\u52d9\u6240\u517c\u4f4f\u5b85"},"type":"Point","coordinates":[81260,31886],"id":"feature_027"},{"properties":{"price":216000,"use":"\u5c71\u5f62","zone":"","station":"\u4e8b\u52d9\u6240"},"type":"Point","coordinates":[80147,30376],"id":"feature_028"},{"properties":{"price":121000,"use":"\u5c71\u5f62","zone":"","station":"\u4e8b\u52d9\u6240"},"type":"Point","coordinates":[80432,30081],"id":"feature_029"},{"properties":{"price":131000,"use":"\u5c71\u5f62","zone":"","station":"\u5e97\u8217\u517c\u4f4f\u5b85"},"type":"Point","coordinates":[80340,30852],"id":"feature_030"},{"properties":{"price":137000,"use":"\u5c71\u5f62","zone":"","station":"\u5e97\u8217\u517c\u5171\u540c\u4f4f\u5b85"},"type":"Point","coordinates":[81537,30027],"id":"feature_031"},{"properties":{"price":62900,"use":"\u5c71\u5f62","zone":"","station":"\u5e97\u8217"},"type":"Point","coordinates":[84119,29785],"id":"feature_032"},{"properties":{"price":66000,"use":"\u5c71\u5f62","zone":"","station":"\u5e97\u8217"},"type":"Point","coordinates":[78127,28588],"id":"feature_033"},{"properties":{"price":71700,"use":"\u5c71\u5f62","zone":"","station":"\u5e97\u8217\u517c\u4f4f\u5b85"},"type":"Point","coordinates":[80209,29602],"id":"feature_034"},{"properties":{"price":23800,"use":"\u5c71\u5f62","zone":"","station":"\u65c5\u9928\u517c\u4f4f\u5b85"},"type":"Point","coordinates":[86793,23262],"id":"feature_035"},{"properties":{"price":79700,"use":"\u5c71\u5f62","zone":"","station":"\u5e97\u8217\u517c\u4f4f\u5b85"},"type":"Point","coordinates":[80644,31440],"id":"feature_036"},{"properties":{"price":66700,"use":"\u5c71\u5f62","zone":"","station":"\u5e97\u8217"},"type":"Point","coordinates":[78975,28130],"id":"feature_037"},{"properties":{"price":40000,"use":"\u5c71\u5f62","zone":"","station":"\u4e8b\u52d9\u6240"},"type":"Point","coordinates":[83316,31844],"id":"feature_038"},{"properties":{"price":66000,"use":"\u5c71\u5f62","zone":"","station":"\u4e8b\u52d9\u6240\u517c\u4f4f\u5b85"},"type":"Point","coordinates":[79741,32889],"id":"feature_039"},{"properties":{"price":61300,"use":"\u5c71\u5f62","zone":"","station":"\u5e97\u8217"},"type":"Point","coordinates":[78415,28859],"id":"feature_040"},{"properties":{"price":81300,"use":"\u5c71\u5f62","zone":"","station":"\u5e97\u8217\u517c\u4f4f\u5b85"},"type":"Point","coordinates":[80576,31029],"id":"feature_041"},{"properties":{"price":63100,"use":"\u5c71\u5f62","zone":"","station":"\u5e97\u8217"},"type":"Point","coordinates":[80288,33397],"id":"feature_042"},{"properties":{"price":36600,"use":"\u5c71\u5f62","zone":"","station":"\u5de5\u5834"},"type":"Point","coordinates":[80732,32614],"id":"feature_043"},{"properties":{"price":15400,"use":"\u5c71\u5f62","zone":"","station":"\u4e8b\u52d9\u6240"},"type":"Point","coordinates":[74942,29804],"id":"feature_044"},{"properties":{"price":18200,"use":"\u5c71\u5f62","zone":"","station":"\u5de5\u5834"},"type":"Point","coordinates":[77865,25668],"id":"feature_045"},{"properties":{"price":25200,"use":"\u5c71\u5f62","zone":"","station":"\u4e8b\u52d9\u6240\u517c\u5009\u5eab"},"type":"Point","coordinates":[83565,33938],"id":"feature_046"},{"properties":{"price":23400,"use":"\u7c73\u6ca2","zone":"","station":"\u4f4f\u5b85"},"type":"Point","coordinates":[56351,1921],"id":"feature_047"},{"properties":{"price":17400,"use":"\u7c73\u6ca2","zone":"","station":"\u4f4f\u5b85"},"type":"Point","coordinates":[59131,0],"id":"feature_048"},{"properties":{"price":26900,"use":"\u7c73\u6ca2","zone":"","station":"\u4f4f\u5b85"},"type":"Point","coordinates":[58047,1919],"id":"feature_049"},{"properties":{"price":14300,"use":"\u7c73\u6ca2","zone":"","station":"\u4f4f\u5b85"},"type":"Point","coordinates":[58994,5725],"id":"feature_050"},{"properties":{"price":12200,"use":"\u7c73\u6ca2","zone":"","station":"\u4f4f\u5b85"},"type":"Point","coordinates":[53510,1724],"id":"feature_051"},{"properties":{"price":45900,"use":"\u7c73\u6ca2","zone":"","station":"\u5e97\u8217"},"type":"Point","coordinates":[57594,1764],"id":"feature_052"},{"properties":{"price":32600,"use":"\u7c73\u6ca2","zone":"","station":"\u5e97\u8217\u517c\u4f4f\u5b85"},"type":"Point","coordinates":[57441,1621],"id":"feature_053"},{"properties":{"price":25500,"use":"\u7c73\u6ca2","zone":"","station":"\u5e97\u8217\u517c\u4f4f\u5b85"},"type":"Point","coordinates":[57091,2392],"id":"feature_054"},{"properties":{"price":31000,"use":"\u9db4\u5ca1","zone":"","station":"\u4f4f\u5b85"},"type":"Point","coordinates":[27749,71784],"id":"feature_055"},{"properties":{"price":28800,"use":"\u9db4\u5ca1","zone":"","station":"\u4f4f\u5b85"},"type":"Point","coordinates":[29600,70898],"id":"feature_056"},{"properties":{"price":17000,"use":"\u9db4\u5ca1","zone":"","station":"\u4f4f\u5b85"},"type":"Point","coordinates":[24298,71366],"id":"feature_057"},{"properties":{"price":27100,"use":"\u9db4\u5ca1","zone":"","station":"\u4f4f\u5b85"},"type":"Point","coordinates":[27582,72477],"id":"feature_058"},{"properties":{"price":4210,"use":"\u9db4\u5ca1","zone":"","station":"\u4f4f\u5b85"},"type":"Point","coordinates":[30004,64992],"id":"feature_059"},{"properties":{"price":23400,"use":"\u9db4\u5ca1","zone":"","station":"\u4f4f\u5b85"},"type":"Point","coordinates":[30469,72721],"id":"feature_060"},{"properties":{"price":37800,"use":"\u9db4\u5ca1","zone":"","station":"\u4f4f\u5b85"},"type":"Point","coordinates":[25746,72171],"id":"feature_061"},{"properties":{"price":14600,"use":"\u9db4\u5ca1","zone":"","station":"\u4f4f\u5b85"},"type":"Point","coordinates":[36597,74822],"id":"feature_062"},{"properties":{"price":11000,"use":"\u9db4\u5ca1","zone":"","station":"\u4f4f\u5b85"},"type":"Point","coordinates":[0,57100],"id":"feature_063"},{"properties":{"price":14900,"use":"\u9db4\u5ca1","zone":"","station":"\u4f4f\u5b85"},"type":"Point","coordinates":[29359,68553],"id":"feature_064"},{"properties":{"price":45700,"use":"\u9db4\u5ca1","zone":"","station":"\u5e97\u8217\u517c\u4f4f\u5b85"},"type":"Point","coordinates":[29271,72363],"id":"feature_065"},{"properties":{"price":25500,"use":"\u9db4\u5ca1","zone":"","station":"\u65c5\u9928"},"type":"Point","coordinates":[6000,61921],"id":"feature_066"},{"properties":{"price":39700,"use":"\u9db4\u5ca1","zone":"","station":"\u5e97\u8217\u517c\u4e8b\u52d9\u6240"},"type":"Point","coordinates":[25319,72172],"id":"feature_067"},{"properties":{"price":16500,"use":"\u9db4\u5ca1","zone":"","station":"\u4e8b\u52d9\u6240"},"type":"Point","coordinates":[36022,74839],"id":"feature_068"},{"properties":{"price":14000,"use":"\u9db4\u5ca1","zone":"","station":"\u5e97\u8217\u517c\u4f4f\u5b85"},"type":"Point","coordinates":[30554,67347],"id":"feature_069"},{"properties":{"price":38500,"use":"\u9db4\u5ca1","zone":"","station":"\u5e97\u8217"},"type":"Point","coordinates":[28879,71422],"id":"feature_070"},{"properties":{"price":31100,"use":"\u9152\u7530","zone":"","station":"\u4f4f\u5b85"},"type":"Point","coordinates":[29583,86785],"id":"feature_071"},{"properties":{"price":22200,"use":"\u9152\u7530","zone":"","station":"\u4f4f\u5b85"},"type":"Point","coordinates":[29567,88754],"id":"feature_072"},{"properties":{"price":29000,"use":"\u9152\u7530","zone":"","station":"\u4f4f\u5b85"},"type":"Point","coordinates":[30848,88084],"id":"feature_073"},{"properties":{"price":21200,"use":"\u9152\u7530","zone":"","station":"\u4f4f\u5b85"},"type":"Point","coordinates":[26991,86526],"id":"feature_074"},{"properties":{"price":21900,"use":"\u9152\u7530","zone":"","station":"\u4f4f\u5b85"},"type":"Point","coordinates":[29039,84677],"id":"feature_075"},{"properties":{"price":30700,"use":"\u9152\u7530","zone":"","station":"\u4f4f\u5b85"},"type":"Point","coordinates":[32025,87844],"id":"feature_076"},{"properties":{"price":35100,"use":"\u9152\u7530","zone":"","station":"\u4f4f\u5b85"},"type":"Point","coordinates":[30449,86019],"id":"feature_077"},{"properties":{"price":8440,"use":"\u9152\u7530","zone":"","station":"\u4f4f\u5b85"},"type":"Point","coordinates":[39938,91964],"id":"feature_078"},{"properties":{"price":27400,"use":"\u9152\u7530","zone":"","station":"\u4f4f\u5b85"},"type":"Point","coordinates":[29954,88301],"id":"feature_079"},{"properties":{"price":5550,"use":"\u9152\u7530","zone":"","station":"\u4f4f\u5b85"},"type":"Point","coordinates":[29799,92360],"id":"feature_080"},{"properties":{"price":30500,"use":"\u9152\u7530","zone":"","station":"\u4f4f\u5b85"},"type":"Point","coordinates":[31267,87167],"id":"feature_081"},{"properties":{"price":31200,"use":"\u9152\u7530","zone":"","station":"\u4f4f\u5b85"},"type":"Point","coordinates":[30572,88850],"id":"feature_082"},{"properties":{"price":7050,"use":"\u9152\u7530","zone":"","station":"\u4f4f\u5b85"},"type":"Point","coordinates":[25809,84454],"id":"feature_083"},{"properties":{"price":17800,"use":"\u9152\u7530","zone":"","station":"\u4f4f\u5b85"},"type":"Point","coordinates":[28522,87947],"id":"feature_084"},{"properties":{"price":30500,"use":"\u9152\u7530","zone":"","station":"\u4f4f\u5b85"},"type":"Point","coordinates":[31407,88183],"id":"feature_085"},{"properties":{"price":24500,"use":"\u9152\u7530","zone":"","station":"\u4f4f\u5b85"},"type":"Point","coordinates":[31985,85071],"id":"feature_086"},{"properties":{"price":51700,"use":"\u9152\u7530","zone":"","station":"\u5e97\u8217\u517c\u4f4f\u5b85"},"type":"Point","coordinates":[29306,87597],"id":"feature_087"},{"properties":{"price":33600,"use":"\u9152\u7530","zone":"","station":"\u5e97\u8217"},"type":"Point","coordinates":[31598,88186],"id":"feature_088"},{"properties":{"price":36000,"use":"\u9152\u7530","zone":"","station":"\u5e97\u8217"},"type":"Point","coordinates":[31133,86938],"id":"feature_089"},{"properties":{"price":8420,"use":"\u9152\u7530","zone":"","station":"\u4e8b\u52d9\u6240\u517c\u5de5\u5834"},"type":"Point","coordinates":[30153,83189],"id":"feature_090"},{"properties":{"price":17700,"use":"\u9152\u7530","zone":"","station":"\u5de5\u5834\u517c\u4e8b\u52d9\u6240"},"type":"Point","coordinates":[30075,85779],"id":"feature_091"},{"properties":{"price":22800,"use":"\u9152\u7530","zone":"","station":"\u5009\u5eab\u517c\u4e8b\u52d9\u6240"},"type":"Point","coordinates":[28808,87364],"id":"feature_092"},{"properties":{"price":25400,"use":"\u65b0\u5e84","zone":"","station":"\u4f4f\u5b85"},"type":"Point","coordinates":[76895,74301],"id":"feature_093"},{"properties":{"price":22700,"use":"\u65b0\u5e84","zone":"","station":"\u4f4f\u5b85"},"type":"Point","coordinates":[77126,73772],"id":"feature_094"},{"properties":{"price":28300,"use":"\u65b0\u5e84","zone":"","station":"\u4f4f\u5b85"},"type":"Point","coordinates":[76674,74558],"id":"feature_095"},{"properties":{"price":30400,"use":"\u65b0\u5e84","zone":"","station":"\u533b\u9662"},"type":"Point","coordinates":[76380,75345],"id":"feature_096"},{"properties":{"price":42400,"use":"\u65b0\u5e84","zone":"","station":"\u4e8b\u52d9\u6240"},"type":"Point","coordinates":[77347,74480],"id":"feature_097"},{"properties":{"price":27300,"use":"\u5bd2\u6cb3\u6c5f","zone":"","station":"\u4f4f\u5b85"},"type":"Point","coordinates":[75021,41982],"id":"feature_098"},{"properties":{"price":27000,"use":"\u5bd2\u6cb3\u6c5f","zone":"","station":"\u4f4f\u5b85"},"type":"Point","coordinates":[74932,40852],"id":"feature_099"},{"properties":{"price":30900,"use":"\u5bd2\u6cb3\u6c5f","zone":"","station":"\u4f4f\u5b85"},"type":"Point","coordinates":[73384,40800],"id":"feature_100"},{"properties":{"price":47400,"use":"\u5bd2\u6cb3\u6c5f","zone":"","station":"\u5e97\u8217\u517c\u4f4f\u5b85"},"type":"Point","coordinates":[74519,41284],"id":"feature_101"},{"properties":{"price":39200,"use":"\u5bd2\u6cb3\u6c5f","zone":"","station":"\u5e97\u8217"},"type":"Point","coordinates":[75147,41286],"id":"feature_102"},{"properties":{"price":29800,"use":"\u4e0a\u5c71","zone":"","station":"\u4f4f\u5b85"},"type":"Point","coordinates":[74386,22932],"id":"feature_103"},{"properties":{"price":25400,"use":"\u4e0a\u5c71","zone":"","station":"\u4f4f\u5b85"},"type":"Point","coordinates":[75106,23548],"id":"feature_104"},{"properties":{"price":31200,"use":"\u4e0a\u5c71","zone":"","station":"\u4f4f\u5b85"},"type":"Point","coordinates":[74950,22295],"id":"feature_105"},{"properties":{"price":29200,"use":"\u4e0a\u5c71","zone":"","station":"\u4f4f\u5b85"},"type":"Point","coordinates":[75210,21387],"id":"feature_106"},{"properties":{"price":13700,"use":"\u4e0a\u5c71","zone":"","station":"\u4f4f\u5b85"},"type":"Point","coordinates":[73194,21503],"id":"feature_107"},{"properties":{"price":7700,"use":"\u4e0a\u5c71","zone":"","station":"\u7551"},"type":"Point","coordinates":[74446,21227],"id":"feature_108"},{"properties":{"price":39100,"use":"\u4e0a\u5c71","zone":"","station":"\u5e97\u8217"},"type":"Point","coordinates":[74603,22324],"id":"feature_109"},{"properties":{"price":30900,"use":"\u4e0a\u5c71","zone":"","station":"\u5e97\u8217"},"type":"Point","coordinates":[74747,22732],"id":"feature_110"},{"properties":{"price":29400,"use":"\u4e0a\u5c71","zone":"","station":"\u4e8b\u52d9\u6240\u517c\u5009\u5eab"},"type":"Point","coordinates":[75602,23522],"id":"feature_111"},{"properties":{"price":22100,"use":"\u6751\u5c71","zone":"","station":"\u4f4f\u5b85"},"type":"Point","coordinates":[86347,49545],"id":"feature_112"},{"properties":{"price":21200,"use":"\u6751\u5c71","zone":"","station":"\u4f4f\u5b85"},"type":"Point","coordinates":[85636,49741],"id":"feature_113"},{"properties":{"price":22000,"use":"\u6751\u5c71","zone":"","station":"\u5e97\u8217\u3001\u5de5\u5834\u517c\u4f4f\u5b85"},"type":"Point","coordinates":[86193,50415],"id":"feature_114"},{"properties":{"price":18800,"use":"\u9577\u4e95","zone":"","station":"\u4f4f\u5b85"},"type":"Point","coordinates":[50481,18255],"id":"feature_115"},{"properties":{"price":17700,"use":"\u9577\u4e95","zone":"","station":"\u4f4f\u5b85"},"type":"Point","coordinates":[48817,18808],"id":"feature_116"},{"properties":{"price":10500,"use":"\u9577\u4e95","zone":"","station":"\u4f4f\u5b85"},"type":"Point","coordinates":[51132,14265],"id":"feature_117"},{"properties":{"price":26100,"use":"\u9577\u4e95","zone":"","station":"\u5e97\u8217"},"type":"Point","coordinates":[49933,17113],"id":"feature_118"},{"properties":{"price":42500,"use":"\u5929\u7ae5","zone":"","station":"\u4f4f\u5b85"},"type":"Point","coordinates":[84604,40696],"id":"feature_119"},{"properties":{"price":44000,"use":"\u5929\u7ae5","zone":"","station":"\u4f4f\u5b85"},"type":"Point","coordinates":[85604,40221],"id":"feature_120"},{"properties":{"price":40600,"use":"\u5929\u7ae5","zone":"","station":"\u4f4f\u5b85"},"type":"Point","coordinates":[83532,37578],"id":"feature_121"},{"properties":{"price":35400,"use":"\u5929\u7ae5","zone":"","station":"\u4f4f\u5b85"},"type":"Point","coordinates":[85118,42275],"id":"feature_122"},{"properties":{"price":38000,"use":"\u5929\u7ae5","zone":"","station":"\u4f4f\u5b85"},"type":"Point","coordinates":[83531,40438],"id":"feature_123"},{"properties":{"price":44900,"use":"\u5929\u7ae5","zone":"","station":"\u4f4f\u5b85"},"type":"Point","coordinates":[83548,39773],"id":"feature_124"},{"properties":{"price":46200,"use":"\u5929\u7ae5","zone":"","station":"\u4f4f\u5b85"},"type":"Point","coordinates":[83710,37924],"id":"feature_125"},{"properties":{"price":24800,"use":"\u5929\u7ae5","zone":"","station":"\u4f4f\u5b85"},"type":"Point","coordinates":[87097,36073],"id":"feature_126"},{"properties":{"price":16900,"use":"\u5929\u7ae5","zone":"","station":"\u4f4f\u5b85"},"type":"Point","coordinates":[86724,40525],"id":"feature_127"},{"properties":{"price":51400,"use":"\u5929\u7ae5","zone":"","station":"\u4f4f\u5b85"},"type":"Point","coordinates":[83352,39006],"id":"feature_128"},{"properties":{"price":50700,"use":"\u5929\u7ae5","zone":"","station":"\u5e97\u8217"},"type":"Point","coordinates":[85813,39446],"id":"feature_129"},{"properties":{"price":54500,"use":"\u5929\u7ae5","zone":"","station":"\u5e97\u8217\u517c\u4f4f\u5b85"},"type":"Point","coordinates":[84860,40044],"id":"feature_130"},{"properties":{"price":43000,"use":"\u5929\u7ae5","zone":"","station":"\u4e8b\u52d9\u6240\u517c\u5009\u5eab"},"type":"Point","coordinates":[83846,40036],"id":"feature_131"},{"properties":{"price":26900,"use":"\u5929\u7ae5","zone":"","station":"\u4e8b\u52d9\u6240"},"type":"Point","coordinates":[85576,40895],"id":"feature_132"},{"properties":{"price":24000,"use":"\u6771\u6839","zone":"","station":"\u4f4f\u5b85"},"type":"Point","coordinates":[85308,44007],"id":"feature_133"},{"properties":{"price":24600,"use":"\u6771\u6839","zone":"","station":"\u4f4f\u5b85"},"type":"Point","coordinates":[85972,47681],"id":"feature_134"},{"properties":{"price":31100,"use":"\u6771\u6839","zone":"","station":"\u4f4f\u5b85"},"type":"Point","coordinates":[85863,45019],"id":"feature_135"},{"properties":{"price":45300,"use":"\u6771\u6839","zone":"","station":"\u4f4f\u5b85"},"type":"Point","coordinates":[85951,45960],"id":"feature_136"},{"properties":{"price":50800,"use":"\u6771\u6839","zone":"","station":"\u5e97\u8217"},"type":"Point","coordinates":[86674,46147],"id":"feature_137"},{"properties":{"price":67000,"use":"\u6771\u6839","zone":"","station":"\u5e97\u8217"},"type":"Point","coordinates":[85788,45895],"id":"feature_138"},{"properties":{"price":11700,"use":"\u5c3e\u82b1\u6ca2","zone":"","station":"\u4f4f\u5b85"},"type":"Point","coordinates":[87346,60976],"id":"feature_139"},{"properties":{"price":12200,"use":"\u5c3e\u82b1\u6ca2","zone":"","station":"\u4f4f\u5b85"},"type":"Point","coordinates":[87781,60494],"id":"feature_140"},{"properties":{"price":11000,"use":"\u5c3e\u82b1\u6ca2","zone":"","station":"\u4f4f\u5b85"},"type":"Point","coordinates":[88255,61140],"id":"feature_141"},{"properties":{"price":18900,"use":"\u5c3e\u82b1\u6ca2","zone":"","station":"\u5e97\u8217\u517c\u4f4f\u5b85"},"type":"Point","coordinates":[87632,60738],"id":"feature_142"},{"properties":{"price":16200,"use":"\u5357\u967d","zone":"","station":"\u4f4f\u5b85"},"type":"Point","coordinates":[63629,12673],"id":"feature_143"},{"properties":{"price":16800,"use":"\u5357\u967d","zone":"","station":"\u4f4f\u5b85"},"type":"Point","coordinates":[60328,15719],"id":"feature_144"},{"properties":{"price":29600,"use":"\u5357\u967d","zone":"","station":"\u4f4f\u5b85"},"type":"Point","coordinates":[62268,13216],"id":"feature_145"},{"properties":{"price":39600,"use":"\u5357\u967d","zone":"","station":"\u5e97\u8217\u517c\u4f4f\u5b85"},"type":"Point","coordinates":[62110,13061],"id":"feature_146"},{"properties":{"price":29900,"use":"\u5357\u967d","zone":"","station":"\u5e97\u8217\u517c\u4f4f\u5b85"},"type":"Point","coordinates":[63308,13303],"id":"feature_147"},{"properties":{"price":26500,"use":"\u5c71\u8fba","zone":"","station":"\u4f4f\u5b85"},"type":"Point","coordinates":[73488,34481],"id":"feature_148"},{"properties":{"price":23400,"use":"\u5c71\u8fba","zone":"","station":"\u4f4f\u5b85"},"type":"Point","coordinates":[73766,34020],"id":"feature_149"},{"properties":{"price":11500,"use":"\u5c71\u8fba","zone":"","station":"\u4f4f\u5b85"},"type":"Point","coordinates":[72425,33777],"id":"feature_150"},{"properties":{"price":23200,"use":"\u4e2d\u5c71","zone":"","station":"\u4f4f\u5b85"},"type":"Point","coordinates":[75101,37665],"id":"feature_151"},{"properties":{"price":27200,"use":"\u4e2d\u5c71","zone":"","station":"\u4f4f\u5b85"},"type":"Point","coordinates":[74600,38285],"id":"feature_152"},{"properties":{"price":9200,"use":"\u4e2d\u5c71","zone":"","station":"\u4f4f\u5b85"},"type":"Point","coordinates":[72743,37773],"id":"feature_153"},{"properties":{"price":21800,"use":"\u5c71\u5f62\u6cb3\u5317","zone":"","station":"\u4f4f\u5b85"},"type":"Point","coordinates":[77909,45009],"id":"feature_154"},{"properties":{"price":17700,"use":"\u5c71\u5f62\u6cb3\u5317","zone":"","station":"\u4f4f\u5b85"},"type":"Point","coordinates":[78397,46205],"id":"feature_155"},{"properties":{"price":22100,"use":"\u5c71\u5f62\u6cb3\u5317","zone":"","station":"\u5e97\u8217\u517c\u4f4f\u5b85"},"type":"Point","coordinates":[78318,45568],"id":"feature_156"},{"properties":{"price":8010,"use":"\u5c71\u5f62\u897f\u5ddd","zone":"","station":"\u4f4f\u5b85"},"type":"Point","coordinates":[61547,45503],"id":"feature_157"},{"properties":{"price":2660,"use":"\u5c71\u5f62\u897f\u5ddd","zone":"","station":"\u4f4f\u5b85"},"type":"Point","coordinates":[56237,46405],"id":"feature_158"},{"properties":{"price":7840,"use":"\u5c71\u5f62\u897f\u5ddd","zone":"","station":"\u5e97\u8217\u517c\u4f4f\u5b85"},"type":"Point","coordinates":[59662,46267],"id":"feature_159"},{"properties":{"price":9250,"use":"\u5c71\u5f62\u671d\u65e5","zone":"","station":"\u4f4f\u5b85"},"type":"Point","coordinates":[60787,35021],"id":"feature_160"},{"properties":{"price":7620,"use":"\u5c71\u5f62\u671d\u65e5","zone":"","station":"\u4f4f\u5b85"},"type":"Point","coordinates":[63329,37023],"id":"feature_161"},{"properties":{"price":10500,"use":"\u5c71\u5f62\u671d\u65e5","zone":"","station":"\u5e97\u8217"},"type":"Point","coordinates":[61301,35092],"id":"feature_162"},{"properties":{"price":13500,"use":"\u5c71\u5f62\u5927\u6c5f","zone":"","station":"\u4f4f\u5b85"},"type":"Point","coordinates":[67951,41811],"id":"feature_163"},{"properties":{"price":10600,"use":"\u5c71\u5f62\u5927\u6c5f","zone":"","station":"\u4f4f\u5b85"},"type":"Point","coordinates":[67444,42111],"id":"feature_164"},{"properties":{"price":18600,"use":"\u5c71\u5f62\u5927\u6c5f","zone":"","station":"\u5e97\u8217\u517c\u4f4f\u5b85"},"type":"Point","coordinates":[67535,41635],"id":"feature_165"},{"properties":{"price":11100,"use":"\u5927\u77f3\u7530","zone":"","station":"\u4f4f\u5b85"},"type":"Point","coordinates":[85047,59565],"id":"feature_166"},{"properties":{"price":11200,"use":"\u5927\u77f3\u7530","zone":"","station":"\u4f4f\u5b85"},"type":"Point","coordinates":[84361,60265],"id":"feature_167"},{"properties":{"price":14600,"use":"\u5927\u77f3\u7530","zone":"","station":"\u5e97\u8217\u517c\u4f4f\u5b85"},"type":"Point","coordinates":[84603,59490],"id":"feature_168"},{"properties":{"price":5390,"use":"\u91d1\u5c71","zone":"","station":"\u4f4f\u5b85"},"type":"Point","coordinates":[80452,83685],"id":"feature_169"},{"properties":{"price":5940,"use":"\u91d1\u5c71","zone":"","station":"\u4f4f\u5b85"},"type":"Point","coordinates":[80750,85146],"id":"feature_170"},{"properties":{"price":13200,"use":"\u91d1\u5c71","zone":"","station":"\u5e97\u8217\u517c\u4f4f\u5b85"},"type":"Point","coordinates":[80963,84790],"id":"feature_171"},{"properties":{"price":8540,"use":"\u6700\u4e0a","zone":"","station":"\u4f4f\u5b85"},"type":"Point","coordinates":[99627,73969],"id":"feature_172"},{"properties":{"price":7300,"use":"\u6700\u4e0a","zone":"","station":"\u4f4f\u5b85"},"type":"Point","coordinates":[99999,74328],"id":"feature_173"},{"properties":{"price":15000,"use":"\u6700\u4e0a","zone":"","station":"\u5e97\u8217\u517c\u4f4f\u5b85"},"type":"Point","coordinates":[99291,74018],"id":"feature_174"},{"properties":{"price":7050,"use":"\u771f\u5ba4\u5ddd","zone":"","station":"\u4f4f\u5b85"},"type":"Point","coordinates":[73052,82749],"id":"feature_175"},{"properties":{"price":6030,"use":"\u771f\u5ba4\u5ddd","zone":"","station":"\u4f4f\u5b85"},"type":"Point","coordinates":[72437,82486],"id":"feature_176"},{"properties":{"price":12500,"use":"\u771f\u5ba4\u5ddd","zone":"","station":"\u533b\u9662\u517c\u4f4f\u5b85"},"type":"Point","coordinates":[72341,82738],"id":"feature_177"},{"properties":{"price":9450,"use":"\u9ad8\u7560","zone":"","station":"\u4f4f\u5b85"},"type":"Point","coordinates":[67248,9592],"id":"feature_178"},{"properties":{"price":21600,"use":"\u9ad8\u7560","zone":"","station":"\u4f4f\u5b85"},"type":"Point","coordinates":[61151,8444],"id":"feature_179"},{"properties":{"price":24000,"use":"\u9ad8\u7560","zone":"","station":"\u5e97\u8217\u517c\u4f4f\u5b85"},"type":"Point","coordinates":[66312,9581],"id":"feature_180"},{"properties":{"price":11400,"use":"\u5c71\u5f62\u5ddd\u897f","zone":"","station":"\u4f4f\u5b85"},"type":"Point","coordinates":[51194,10128],"id":"feature_181"},{"properties":{"price":9420,"use":"\u5c71\u5f62\u5ddd\u897f","zone":"","station":"\u4f4f\u5b85"},"type":"Point","coordinates":[49688,9725],"id":"feature_182"},{"properties":{"price":16700,"use":"\u5c71\u5f62\u5ddd\u897f","zone":"","station":"\u5e97\u8217\u517c\u4f4f\u5b85"},"type":"Point","coordinates":[50731,9687],"id":"feature_183"},{"properties":{"price":12300,"use":"\u5c0f\u56fd","zone":"","station":"\u4f4f\u5b85"},"type":"Point","coordinates":[19844,14600],"id":"feature_184"},{"properties":{"price":6800,"use":"\u5c0f\u56fd","zone":"","station":"\u4f4f\u5b85"},"type":"Point","coordinates":[19408,15144],"id":"feature_185"},{"properties":{"price":17100,"use":"\u5c0f\u56fd","zone":"","station":"\u5e97\u8217"},"type":"Point","coordinates":[20414,14395],"id":"feature_186"},{"properties":{"price":13500,"use":"\u767d\u9df9","zone":"","station":"\u4f4f\u5b85"},"type":"Point","coordinates":[56759,25287],"id":"feature_187"},{"properties":{"price":8100,"use":"\u767d\u9df9","zone":"","station":"\u4f4f\u5b85"},"type":"Point","coordinates":[54225,25518],"id":"feature_188"},{"properties":{"price":18300,"use":"\u767d\u9df9","zone":"","station":"\u5e97\u8217\u517c\u4f4f\u5b85"},"type":"Point","coordinates":[56629,25072],"id":"feature_189"},{"properties":{"price":15000,"use":"\u4e09\u5ddd","zone":"","station":"\u4f4f\u5b85"},"type":"Point","coordinates":[30918,77549],"id":"feature_190"},{"properties":{"price":7010,"use":"\u4e09\u5ddd","zone":"","station":"\u4f4f\u5b85"},"type":"Point","coordinates":[29744,76745],"id":"feature_191"},{"properties":{"price":18200,"use":"\u4e09\u5ddd","zone":"","station":"\u5e97\u8217\u517c\u4f4f\u5b85"},"type":"Point","coordinates":[30499,77179],"id":"feature_192"},{"properties":{"price":17300,"use":"\u5c71\u5f62\u5e84\u5185","zone":"","station":"\u4f4f\u5b85"},"type":"Point","coordinates":[36449,81467],"id":"feature_193"},{"properties":{"price":11500,"use":"\u5c71\u5f62\u5e84\u5185","zone":"","station":"\u4f4f\u5b85"},"type":"Point","coordinates":[35744,81889],"id":"feature_194"},{"properties":{"price":20400,"use":"\u5c71\u5f62\u5e84\u5185","zone":"","station":"\u7a7a\u5730"},"type":"Point","coordinates":[36532,81705],"id":"feature_195"},{"properties":{"price":11600,"use":"\u904a\u4f50","zone":"","station":"\u4f4f\u5b85"},"type":"Point","coordinates":[36954,96310],"id":"feature_196"},{"properties":{"price":8510,"use":"\u904a\u4f50","zone":"","station":"\u4f4f\u5b85"},"type":"Point","coordinates":[33428,99999],"id":"feature_197"}],"type":"GeometryCollection"}},"bbox":[139.55077,37.8914,140.52388,39.06176],"transform":{"scale":[9.731197311973032e-06,1.1703717037170395e-05],"translate":[139.55077,37.8914]},"arcs":[]}