{"type":"Topology","objects":{"data":{"geometries":[{"properties":{"price":38100,"use":"\u5bcc\u5c71","zone":"","station":"\u4f4f\u5b85"},"type":"Point","coordinates":[54755,42332],"id":"feature_000"},{"properties":{"price":37100,"use":"\u5bcc\u5c71","zone":"","station":"\u4f4f\u5b85"},"type":"Point","coordinates":[51867,52198],"id":"feature_001"},{"properties":{"price":22000,"use":"\u5bcc\u5c71","zone":"","station":"\u4f4f\u5b85"},"type":"Point","coordinates":[48887,51193],"id":"feature_002"},{"properties":{"price":112000,"use":"\u5bcc\u5c71","zone":"","station":"\u4f4f\u5b85"},"type":"Point","coordinates":[48143,40452],"id":"feature_003"},{"properties":{"price":31200,"use":"\u5bcc\u5c71","zone":"","station":"\u4f4f\u5b85"},"type":"Point","coordinates":[43830,44106],"id":"feature_004"},{"properties":{"price":49800,"use":"\u5bcc\u5c71","zone":"","station":"\u4f4f\u5b85"},"type":"Point","coordinates":[45489,41200],"id":"feature_005"},{"properties":{"price":47900,"use":"\u5bcc\u5c71","zone":"","station":"\u4f4f\u5b85"},"type":"Point","coordinates":[49438,32060],"id":"feature_006"},{"properties":{"price":30800,"use":"\u5bcc\u5c71","zone":"","station":"\u4f4f\u5b85"},"type":"Point","coordinates":[52655,49101],"id":"feature_007"},{"properties":{"price":44000,"use":"\u5bcc\u5c71","zone":"","station":"\u4f4f\u5b85"},"type":"Point","coordinates":[53343,36862],"id":"feature_008"},{"properties":{"price":43700,"use":"\u5bcc\u5c71","zone":"","station":"\u4f4f\u5b85"},"type":"Point","coordinates":[47530,43653],"id":"feature_009"},{"properties":{"price":38200,"use":"\u5bcc\u5c71","zone":"","station":"\u4f4f\u5b85"},"type":"Point","coordinates":[55124,37710],"id":"feature_010"},{"properties":{"price":17400,"use":"\u5bcc\u5c71","zone":"","station":"\u4f4f\u5b85"},"type":"Point","coordinates":[59939,48922],"id":"feature_011"},{"properties":{"price":43200,"use":"\u5bcc\u5c71","zone":"","station":"\u5efa\u7bc9\u4e2d"},"type":"Point","coordinates":[52756,34256],"id":"feature_012"},{"properties":{"price":23600,"use":"\u5bcc\u5c71","zone":"","station":"\u4f4f\u5b85"},"type":"Point","coordinates":[62471,52485],"id":"feature_013"},{"properties":{"price":31500,"use":"\u5bcc\u5c71","zone":"","station":"\u4f4f\u5b85"},"type":"Point","coordinates":[52424,49777],"id":"feature_014"},{"properties":{"price":60900,"use":"\u5bcc\u5c71","zone":"","station":"\u4f4f\u5b85"},"type":"Point","coordinates":[53543,39206],"id":"feature_015"},{"properties":{"price":63700,"use":"\u5bcc\u5c71","zone":"","station":"\u4f4f\u5b85"},"type":"Point","coordinates":[51514,40275],"id":"feature_016"},{"properties":{"price":40900,"use":"\u5bcc\u5c71","zone":"","station":"\u4f4f\u5b85"},"type":"Point","coordinates":[52432,43112],"id":"feature_017"},{"properties":{"price":30300,"use":"\u5bcc\u5c71","zone":"","station":"\u4f4f\u5b85"},"type":"Point","coordinates":[57307,35841],"id":"feature_018"},{"properties":{"price":23800,"use":"\u5bcc\u5c71","zone":"","station":"\u4f4f\u5b85"},"type":"Point","coordinates":[37980,30548],"id":"feature_019"},{"properties":{"price":32300,"use":"\u5bcc\u5c71","zone":"","station":"\u4f4f\u5b85"},"type":"Point","coordinates":[55983,40652],"id":"feature_020"},{"properties":{"price":55200,"use":"\u5bcc\u5c71","zone":"","station":"\u4f4f\u5b85"},"type":"Point","coordinates":[47129,40259],"id":"feature_021"},{"properties":{"price":37000,"use":"\u5bcc\u5c71","zone":"","station":"\u4f4f\u5b85"},"type":"Point","coordinates":[52968,42287],"id":"feature_022"},{"properties":{"price":21100,"use":"\u5bcc\u5c71","zone":"","station":"\u4f4f\u5b85"},"type":"Point","coordinates":[39189,16685],"id":"feature_023"},{"properties":{"price":40400,"use":"\u5bcc\u5c71","zone":"","station":"\u4f4f\u5b85"},"type":"Point","coordinates":[50918,30991],"id":"feature_024"},{"properties":{"price":61000,"use":"\u5bcc\u5c71","zone":"","station":"\u4f4f\u5b85"},"type":"Point","coordinates":[51313,37026],"id":"feature_025"},{"properties":{"price":84500,"use":"\u5bcc\u5c71","zone":"","station":"\u4f4f\u5b85"},"type":"Point","coordinates":[49459,36807],"id":"feature_026"},{"properties":{"price":34400,"use":"\u5bcc\u5c71","zone":"","station":"\u4f4f\u5b85"},"type":"Point","coordinates":[53641,45020],"id":"feature_027"},{"properties":{"price":89200,"use":"\u5bcc\u5c71","zone":"","station":"\u4f4f\u5b85"},"type":"Point","coordinates":[48765,37276],"id":"feature_028"},{"properties":{"price":86500,"use":"\u5bcc\u5c71","zone":"","station":"\u4f4f\u5b85"},"type":"Point","coordinates":[48063,37858],"id":"feature_029"},{"properties":{"price":36800,"use":"\u5bcc\u5c71","zone":"","station":"\u4f4f\u5b85"},"type":"Point","coordinates":[42466,32508],"id":"feature_030"},{"properties":{"price":102000,"use":"\u5bcc\u5c71","zone":"","station":"\u4f4f\u5b85"},"type":"Point","coordinates":[50200,42257],"id":"feature_031"},{"properties":{"price":21500,"use":"\u5bcc\u5c71","zone":"","station":"\u4f4f\u5b85"},"type":"Point","coordinates":[48572,20357],"id":"feature_032"},{"properties":{"price":62800,"use":"\u5bcc\u5c71","zone":"","station":"\u4f4f\u5b85"},"type":"Point","coordinates":[51700,38556],"id":"feature_033"},{"properties":{"price":112000,"use":"\u5bcc\u5c71","zone":"","station":"\u4f4f\u5b85"},"type":"Point","coordinates":[48519,41318],"id":"feature_034"},{"properties":{"price":16000,"use":"\u5bcc\u5c71","zone":"","station":"\u4f4f\u5b85"},"type":"Point","coordinates":[47087,12185],"id":"feature_035"},{"properties":{"price":78500,"use":"\u5bcc\u5c71","zone":"","station":"\u4f4f\u5b85"},"type":"Point","coordinates":[50305,36739],"id":"feature_036"},{"properties":{"price":63800,"use":"\u5bcc\u5c71","zone":"","station":"\u4f4f\u5b85"},"type":"Point","coordinates":[50778,37635],"id":"feature_037"},{"properties":{"price":129000,"use":"\u5bcc\u5c71","zone":"","station":"\u4f4f\u5b85"},"type":"Point","coordinates":[48523,39686],"id":"feature_038"},{"properties":{"price":62500,"use":"\u5bcc\u5c71","zone":"","station":"\u4f4f\u5b85"},"type":"Point","coordinates":[50895,39693],"id":"feature_039"},{"properties":{"price":79100,"use":"\u5bcc\u5c71","zone":"","station":"\u4f4f\u5b85"},"type":"Point","coordinates":[48149,35550],"id":"feature_040"},{"properties":{"price":27000,"use":"\u5bcc\u5c71","zone":"","station":"\u4f4f\u5b85"},"type":"Point","coordinates":[45396,44922],"id":"feature_041"},{"properties":{"price":33400,"use":"\u5bcc\u5c71","zone":"","station":"\u4f4f\u5b85"},"type":"Point","coordinates":[51654,29052],"id":"feature_042"},{"properties":{"price":38400,"use":"\u5bcc\u5c71","zone":"","station":"\u4f4f\u5b85"},"type":"Point","coordinates":[54682,35584],"id":"feature_043"},{"properties":{"price":50900,"use":"\u5bcc\u5c71","zone":"","station":"\u4f4f\u5b85"},"type":"Point","coordinates":[50520,44131],"id":"feature_044"},{"properties":{"price":45500,"use":"\u5bcc\u5c71","zone":"","station":"\u4f4f\u5b85"},"type":"Point","coordinates":[44451,33124],"id":"feature_045"},{"properties":{"price":34800,"use":"\u5bcc\u5c71","zone":"","station":"\u4f4f\u5b85"},"type":"Point","coordinates":[42697,42639],"id":"feature_046"},{"properties":{"price":13400,"use":"\u5bcc\u5c71","zone":"","station":"\u4f4f\u5b85"},"type":"Point","coordinates":[54279,24759],"id":"feature_047"},{"properties":{"price":14500,"use":"\u5bcc\u5c71","zone":"","station":"\u4f4f\u5b85"},"type":"Point","coordinates":[41191,41396],"id":"feature_048"},{"properties":{"price":14400,"use":"\u5bcc\u5c71","zone":"","station":"\u4f4f\u5b85"},"type":"Point","coordinates":[56961,48756],"id":"feature_049"},{"properties":{"price":17000,"use":"\u5bcc\u5c71","zone":"","station":"\u4f4f\u5b85"},"type":"Point","coordinates":[58262,23649],"id":"feature_050"},{"properties":{"price":70500,"use":"\u5bcc\u5c71","zone":"","station":"\u4f4f\u5b85"},"type":"Point","coordinates":[48884,34702],"id":"feature_051"},{"properties":{"price":21000,"use":"\u5bcc\u5c71","zone":"","station":"\u4f4f\u5b85"},"type":"Point","coordinates":[50406,25791],"id":"feature_052"},{"properties":{"price":30300,"use":"\u5bcc\u5c71","zone":"","station":"\u4f4f\u5b85"},"type":"Point","coordinates":[56809,38790],"id":"feature_053"},{"properties":{"price":39800,"use":"\u5bcc\u5c71","zone":"","station":"\u4f4f\u5b85"},"type":"Point","coordinates":[51964,34254],"id":"feature_054"},{"properties":{"price":33300,"use":"\u5bcc\u5c71","zone":"","station":"\u4f4f\u5b85"},"type":"Point","coordinates":[52736,33028],"id":"feature_055"},{"properties":{"price":12400,"use":"\u5bcc\u5c71","zone":"","station":"\u4f4f\u5b85"},"type":"Point","coordinates":[60609,21057],"id":"feature_056"},{"properties":{"price":21600,"use":"\u5bcc\u5c71","zone":"","station":"\u4f4f\u5b85"},"type":"Point","coordinates":[47898,53678],"id":"feature_057"},{"properties":{"price":48600,"use":"\u5bcc\u5c71","zone":"","station":"\u4f4f\u5b85"},"type":"Point","coordinates":[50955,32362],"id":"feature_058"},{"properties":{"price":29000,"use":"\u5bcc\u5c71","zone":"","station":"\u4f4f\u5b85"},"type":"Point","coordinates":[54447,40354],"id":"feature_059"},{"properties":{"price":78000,"use":"\u5bcc\u5c71","zone":"","station":"\u4f4f\u5b85"},"type":"Point","coordinates":[50668,35707],"id":"feature_060"},{"properties":{"price":54100,"use":"\u5bcc\u5c71","zone":"","station":"\u4f4f\u5b85"},"type":"Point","coordinates":[49617,33895],"id":"feature_061"},{"properties":{"price":71600,"use":"\u5bcc\u5c71","zone":"","station":"\u4f4f\u5b85"},"type":"Point","coordinates":[48214,36785],"id":"feature_062"},{"properties":{"price":29400,"use":"\u5bcc\u5c71","zone":"","station":"\u4f4f\u5b85"},"type":"Point","coordinates":[48394,29886],"id":"feature_063"},{"properties":{"price":15200,"use":"\u5bcc\u5c71","zone":"","station":"\u4f4f\u5b85"},"type":"Point","coordinates":[64014,50420],"id":"feature_064"},{"properties":{"price":21900,"use":"\u5bcc\u5c71","zone":"","station":"\u4f4f\u5b85"},"type":"Point","coordinates":[38542,26755],"id":"feature_065"},{"properties":{"price":43500,"use":"\u5bcc\u5c71","zone":"","station":"\u4f4f\u5b85"},"type":"Point","coordinates":[44441,31614],"id":"feature_066"},{"properties":{"price":96000,"use":"\u5bcc\u5c71","zone":"","station":"\u4f4f\u5b85"},"type":"Point","coordinates":[49434,43651],"id":"feature_067"},{"properties":{"price":11000,"use":"\u5bcc\u5c71","zone":"","station":"\u7530"},"type":"Point","coordinates":[56719,41212],"id":"feature_068"},{"properties":{"price":370000,"use":"\u5bcc\u5c71","zone":"","station":"\u5e97\u8217"},"type":"Point","coordinates":[49690,38456],"id":"feature_069"},{"properties":{"price":25200,"use":"\u5bcc\u5c71","zone":"","station":"\u5e97\u8217\u517c\u4f4f\u5b85"},"type":"Point","coordinates":[48397,14425],"id":"feature_070"},{"properties":{"price":20200,"use":"\u5bcc\u5c71","zone":"","station":"\u5e97\u8217"},"type":"Point","coordinates":[61011,20318],"id":"feature_071"},{"properties":{"price":68300,"use":"\u5bcc\u5c71","zone":"","station":"\u5e97\u8217\u517c\u4f4f\u5b85"},"type":"Point","coordinates":[43511,43310],"id":"feature_072"},{"properties":{"price":62600,"use":"\u5bcc\u5c71","zone":"","station":"\u5e97\u8217\u517c\u4f4f\u5b85"},"type":"Point","coordinates":[50543,42069],"id":"feature_073"},{"properties":{"price":94100,"use":"\u5bcc\u5c71","zone":"","station":"\u5e97\u8217"},"type":"Point","coordinates":[48955,33833],"id":"feature_074"},{"properties":{"price":88500,"use":"\u5bcc\u5c71","zone":"","station":"\u5e97\u8217\u517c\u4f4f\u5b85"},"type":"Point","coordinates":[49671,37842],"id":"feature_075"},{"properties":{"price":123000,"use":"\u5bcc\u5c71","zone":"","station":"\u5e97\u8217\u517c\u4f4f\u5b85"},"type":"Point","coordinates":[50282,38256],"id":"feature_076"},{"properties":{"price":62800,"use":"\u5bcc\u5c71","zone":"","station":"\u4e8b\u52d9\u6240"},"type":"Point","coordinates":[50566,34288],"id":"feature_077"},{"properties":{"price":77000,"use":"\u5bcc\u5c71","zone":"","station":"\u7a7a\u5730"},"type":"Point","coordinates":[50665,39067],"id":"feature_078"},{"properties":{"price":79400,"use":"\u5bcc\u5c71","zone":"","station":"\u75c5\u9662"},"type":"Point","coordinates":[48989,37073],"id":"feature_079"},{"properties":{"price":194000,"use":"\u5bcc\u5c71","zone":"","station":"\u4e8b\u52d9\u6240"},"type":"Point","coordinates":[48868,39765],"id":"feature_080"},{"properties":{"price":31400,"use":"\u5bcc\u5c71","zone":"","station":"\u4e8b\u52d9\u6240"},"type":"Point","coordinates":[46939,30689],"id":"feature_081"},{"properties":{"price":106000,"use":"\u5bcc\u5c71","zone":"","station":"\u5e97\u8217\u517c\u4f4f\u5b85"},"type":"Point","coordinates":[48627,39299],"id":"feature_082"},{"properties":{"price":585000,"use":"\u5bcc\u5c71","zone":"","station":"\u5e97\u8217\u517c\u4e8b\u52d9\u6240"},"type":"Point","coordinates":[49349,40618],"id":"feature_083"},{"properties":{"price":36000,"use":"\u5bcc\u5c71","zone":"","station":"\u9280\u884c"},"type":"Point","coordinates":[51557,53160],"id":"feature_084"},{"properties":{"price":66800,"use":"\u5bcc\u5c71","zone":"","station":"\u5e97\u8217"},"type":"Point","coordinates":[54585,38510],"id":"feature_085"},{"properties":{"price":415000,"use":"\u5bcc\u5c71","zone":"","station":"\u65c5\u9928\u517c\u5e97\u8217"},"type":"Point","coordinates":[49584,40704],"id":"feature_086"},{"properties":{"price":25000,"use":"\u5bcc\u5c71","zone":"","station":"\u4e8b\u52d9\u6240"},"type":"Point","coordinates":[39353,15623],"id":"feature_087"},{"properties":{"price":85500,"use":"\u5bcc\u5c71","zone":"","station":"\u5e97\u8217\u517c\u4f4f\u5b85"},"type":"Point","coordinates":[50464,39688],"id":"feature_088"},{"properties":{"price":182000,"use":"\u5bcc\u5c71","zone":"","station":"\u5e97\u8217"},"type":"Point","coordinates":[49599,39518],"id":"feature_089"},{"properties":{"price":145000,"use":"\u5bcc\u5c71","zone":"","station":"\u4e8b\u52d9\u6240"},"type":"Point","coordinates":[48913,38438],"id":"feature_090"},{"properties":{"price":273000,"use":"\u5bcc\u5c71","zone":"","station":"\u4e8b\u52d9\u6240"},"type":"Point","coordinates":[49625,40197],"id":"feature_091"},{"properties":{"price":63000,"use":"\u5bcc\u5c71","zone":"","station":"\u5e97\u8217"},"type":"Point","coordinates":[51365,33504],"id":"feature_092"},{"properties":{"price":84800,"use":"\u5bcc\u5c71","zone":"","station":"\u5e97\u8217"},"type":"Point","coordinates":[49051,36271],"id":"feature_093"},{"properties":{"price":74700,"use":"\u5bcc\u5c71","zone":"","station":"\u5e97\u8217"},"type":"Point","coordinates":[43807,32019],"id":"feature_094"},{"properties":{"price":63200,"use":"\u5bcc\u5c71","zone":"","station":"\u5de5\u5834\u517c\u4e8b\u52d9\u6240"},"type":"Point","coordinates":[53254,39872],"id":"feature_095"},{"properties":{"price":50400,"use":"\u5bcc\u5c71","zone":"","station":"\u5e97\u8217\u517c\u5009\u5eab"},"type":"Point","coordinates":[50940,46705],"id":"feature_096"},{"properties":{"price":51500,"use":"\u5bcc\u5c71","zone":"","station":"\u7a7a\u5730"},"type":"Point","coordinates":[52137,44868],"id":"feature_097"},{"properties":{"price":80000,"use":"\u5bcc\u5c71","zone":"","station":"\u5e97\u8217\u517c\u5171\u540c\u4f4f\u5b85"},"type":"Point","coordinates":[50245,37669],"id":"feature_098"},{"properties":{"price":71200,"use":"\u5bcc\u5c71","zone":"","station":"\u4e8b\u52d9\u6240\u517c\u5009\u5eab"},"type":"Point","coordinates":[50911,40163],"id":"feature_099"},{"properties":{"price":85700,"use":"\u5bcc\u5c71","zone":"","station":"\u5e97\u8217\u517c\u4f4f\u5b85"},"type":"Point","coordinates":[50301,38829],"id":"feature_100"},{"properties":{"price":197000,"use":"\u5bcc\u5c71","zone":"","station":"\u5e97\u8217\u517c\u4f4f\u5b85"},"type":"Point","coordinates":[49624,38654],"id":"feature_101"},{"properties":{"price":29000,"use":"\u5bcc\u5c71","zone":"","station":"\u5009\u5eab\u517c\u4e8b\u52d9\u6240"},"type":"Point","coordinates":[38282,35905],"id":"feature_102"},{"properties":{"price":13400,"use":"\u5bcc\u5c71","zone":"","station":"\u5de5\u5834"},"type":"Point","coordinates":[60942,50584],"id":"feature_103"},{"properties":{"price":16800,"use":"\u5bcc\u5c71","zone":"","station":"\u5de5\u5834"},"type":"Point","coordinates":[56885,43956],"id":"feature_104"},{"properties":{"price":16800,"use":"\u5bcc\u5c71","zone":"","station":"\u5de5\u5834"},"type":"Point","coordinates":[48977,52019],"id":"feature_105"},{"properties":{"price":35000,"use":"\u5bcc\u5c71","zone":"","station":"\u5009\u5eab\u517c\u4e8b\u52d9\u6240"},"type":"Point","coordinates":[47684,30648],"id":"feature_106"},{"properties":{"price":26000,"use":"\u9ad8\u5ca1","zone":"","station":"\u4f4f\u5b85"},"type":"Point","coordinates":[21977,52335],"id":"feature_107"},{"properties":{"price":33800,"use":"\u9ad8\u5ca1","zone":"","station":"\u4f4f\u5b85"},"type":"Point","coordinates":[22453,55206],"id":"feature_108"},{"properties":{"price":36800,"use":"\u9ad8\u5ca1","zone":"","station":"\u4f4f\u5b85"},"type":"Point","coordinates":[25082,51912],"id":"feature_109"},{"properties":{"price":22600,"use":"\u9ad8\u5ca1","zone":"","station":"\u4f4f\u5b85"},"type":"Point","coordinates":[25484,60513],"id":"feature_110"},{"properties":{"price":51000,"use":"\u9ad8\u5ca1","zone":"","station":"\u4f4f\u5b85"},"type":"Point","coordinates":[24214,50761],"id":"feature_111"},{"properties":{"price":21300,"use":"\u9ad8\u5ca1","zone":"","station":"\u4f4f\u5b85"},"type":"Point","coordinates":[17258,52582],"id":"feature_112"},{"properties":{"price":28200,"use":"\u9ad8\u5ca1","zone":"","station":"\u4f4f\u5b85"},"type":"Point","coordinates":[19800,50782],"id":"feature_113"},{"properties":{"price":35500,"use":"\u9ad8\u5ca1","zone":"","station":"\u4f4f\u5b85"},"type":"Point","coordinates":[15526,46089],"id":"feature_114"},{"properties":{"price":37500,"use":"\u9ad8\u5ca1","zone":"","station":"\u4f4f\u5b85"},"type":"Point","coordinates":[25160,48740],"id":"feature_115"},{"properties":{"price":69200,"use":"\u9ad8\u5ca1","zone":"","station":"\u4f4f\u5b85"},"type":"Point","coordinates":[22662,47969],"id":"feature_116"},{"properties":{"price":22300,"use":"\u9ad8\u5ca1","zone":"","station":"\u4f4f\u5b85"},"type":"Point","coordinates":[16351,50168],"id":"feature_117"},{"properties":{"price":43800,"use":"\u9ad8\u5ca1","zone":"","station":"\u4f4f\u5b85"},"type":"Point","coordinates":[21187,48153],"id":"feature_118"},{"properties":{"price":33600,"use":"\u9ad8\u5ca1","zone":"","station":"\u4f4f\u5b85"},"type":"Point","coordinates":[24882,55391],"id":"feature_119"},{"properties":{"price":36900,"use":"\u9ad8\u5ca1","zone":"","station":"\u4f4f\u5b85"},"type":"Point","coordinates":[19206,50468],"id":"feature_120"},{"properties":{"price":24200,"use":"\u9ad8\u5ca1","zone":"","station":"\u4f4f\u5b85"},"type":"Point","coordinates":[29701,59283],"id":"feature_121"},{"properties":{"price":24400,"use":"\u9ad8\u5ca1","zone":"","station":"\u4f4f\u5b85"},"type":"Point","coordinates":[22340,37112],"id":"feature_122"},{"properties":{"price":26300,"use":"\u9ad8\u5ca1","zone":"","station":"\u4f4f\u5b85"},"type":"Point","coordinates":[15881,38140],"id":"feature_123"},{"properties":{"price":26400,"use":"\u9ad8\u5ca1","zone":"","station":"\u4f4f\u5b85"},"type":"Point","coordinates":[26818,62623],"id":"feature_124"},{"properties":{"price":29500,"use":"\u9ad8\u5ca1","zone":"","station":"\u4f4f\u5b85"},"type":"Point","coordinates":[14884,46382],"id":"feature_125"},{"properties":{"price":29800,"use":"\u9ad8\u5ca1","zone":"","station":"\u4f4f\u5b85"},"type":"Point","coordinates":[17197,35898],"id":"feature_126"},{"properties":{"price":29000,"use":"\u9ad8\u5ca1","zone":"","station":"\u4f4f\u5b85"},"type":"Point","coordinates":[30760,57103],"id":"feature_127"},{"properties":{"price":35000,"use":"\u9ad8\u5ca1","zone":"","station":"\u4f4f\u5b85"},"type":"Point","coordinates":[26167,53808],"id":"feature_128"},{"properties":{"price":27000,"use":"\u9ad8\u5ca1","zone":"","station":"\u4f4f\u5b85"},"type":"Point","coordinates":[19077,45384],"id":"feature_129"},{"properties":{"price":37600,"use":"\u9ad8\u5ca1","zone":"","station":"\u4f4f\u5b85"},"type":"Point","coordinates":[25895,55391],"id":"feature_130"},{"properties":{"price":22600,"use":"\u9ad8\u5ca1","zone":"","station":"\u4f4f\u5b85"},"type":"Point","coordinates":[11655,41557],"id":"feature_131"},{"properties":{"price":33000,"use":"\u9ad8\u5ca1","zone":"","station":"\u5de5\u5834\u517c\u4f4f\u5b85"},"type":"Point","coordinates":[20921,52278],"id":"feature_132"},{"properties":{"price":34100,"use":"\u9ad8\u5ca1","zone":"","station":"\u4f4f\u5b85"},"type":"Point","coordinates":[20835,53369],"id":"feature_133"},{"properties":{"price":24300,"use":"\u9ad8\u5ca1","zone":"","station":"\u4f4f\u5b85"},"type":"Point","coordinates":[23130,39522],"id":"feature_134"},{"properties":{"price":30000,"use":"\u9ad8\u5ca1","zone":"","station":"\u4f4f\u5b85"},"type":"Point","coordinates":[18853,53451],"id":"feature_135"},{"properties":{"price":47700,"use":"\u9ad8\u5ca1","zone":"","station":"\u4f4f\u5b85"},"type":"Point","coordinates":[20252,49652],"id":"feature_136"},{"properties":{"price":21500,"use":"\u9ad8\u5ca1","zone":"","station":"\u4f4f\u5b85"},"type":"Point","coordinates":[10299,42953],"id":"feature_137"},{"properties":{"price":17000,"use":"\u9ad8\u5ca1","zone":"","station":"\u4f4f\u5b85"},"type":"Point","coordinates":[30425,56168],"id":"feature_138"},{"properties":{"price":15500,"use":"\u9ad8\u5ca1","zone":"","station":"\u7530"},"type":"Point","coordinates":[18492,49729],"id":"feature_139"},{"properties":{"price":86800,"use":"\u9ad8\u5ca1","zone":"","station":"\u5e97\u8217\u517c\u4f4f\u5b85"},"type":"Point","coordinates":[22088,51002],"id":"feature_140"},{"properties":{"price":75500,"use":"\u9ad8\u5ca1","zone":"","station":"\u4e8b\u52d9\u6240"},"type":"Point","coordinates":[22941,52685],"id":"feature_141"},{"properties":{"price":56200,"use":"\u9ad8\u5ca1","zone":"","station":"\u5e97\u8217\u517c\u4f4f\u5b85"},"type":"Point","coordinates":[21586,51375],"id":"feature_142"},{"properties":{"price":47800,"use":"\u9ad8\u5ca1","zone":"","station":"\u4e8b\u52d9\u6240\u517c\u4f4f\u5b85"},"type":"Point","coordinates":[20959,50104],"id":"feature_143"},{"properties":{"price":68900,"use":"\u9ad8\u5ca1","zone":"","station":"\u5e97\u8217"},"type":"Point","coordinates":[22869,49681],"id":"feature_144"},{"properties":{"price":80400,"use":"\u9ad8\u5ca1","zone":"","station":"\u5e97\u8217\u517c\u4f4f\u5b85"},"type":"Point","coordinates":[22549,50873],"id":"feature_145"},{"properties":{"price":95300,"use":"\u9ad8\u5ca1","zone":"","station":"\u5e97\u8217"},"type":"Point","coordinates":[22977,48321],"id":"feature_146"},{"properties":{"price":70300,"use":"\u9ad8\u5ca1","zone":"","station":"\u5e97\u8217"},"type":"Point","coordinates":[25732,53026],"id":"feature_147"},{"properties":{"price":47500,"use":"\u9ad8\u5ca1","zone":"","station":"\u5e97\u8217\u517c\u4f4f\u5b85"},"type":"Point","coordinates":[22266,53601],"id":"feature_148"},{"properties":{"price":69200,"use":"\u9ad8\u5ca1","zone":"","station":"\u5e97\u8217\u517c\u4f4f\u5b85"},"type":"Point","coordinates":[20066,53351],"id":"feature_149"},{"properties":{"price":31200,"use":"\u9ad8\u5ca1","zone":"","station":"\u4e8b\u52d9\u6240\u517c\u5009\u5eab"},"type":"Point","coordinates":[17255,39017],"id":"feature_150"},{"properties":{"price":98800,"use":"\u9ad8\u5ca1","zone":"","station":"\u5e97\u8217"},"type":"Point","coordinates":[22405,47185],"id":"feature_151"},{"properties":{"price":15300,"use":"\u9ad8\u5ca1","zone":"","station":"\u5de5\u5834"},"type":"Point","coordinates":[33364,56095],"id":"feature_152"},{"properties":{"price":37400,"use":"\u9ad8\u5ca1","zone":"","station":"\u5de5\u5834"},"type":"Point","coordinates":[26371,55438],"id":"feature_153"},{"properties":{"price":26000,"use":"\u9b5a\u6d25","zone":"","station":"\u4f4f\u5b85"},"type":"Point","coordinates":[75318,65961],"id":"feature_154"},{"properties":{"price":41400,"use":"\u9b5a\u6d25","zone":"","station":"\u4f4f\u5b85"},"type":"Point","coordinates":[76722,69674],"id":"feature_155"},{"properties":{"price":27200,"use":"\u9b5a\u6d25","zone":"","station":"\u4f4f\u5b85"},"type":"Point","coordinates":[74322,66652],"id":"feature_156"},{"properties":{"price":42000,"use":"\u9b5a\u6d25","zone":"","station":"\u5e97\u8217\u517c\u4f4f\u5b85"},"type":"Point","coordinates":[74872,66921],"id":"feature_157"},{"properties":{"price":69800,"use":"\u9b5a\u6d25","zone":"","station":"\u5e97\u8217\u517c\u5009\u5eab"},"type":"Point","coordinates":[75866,68860],"id":"feature_158"},{"properties":{"price":34600,"use":"\u6c37\u898b","zone":"","station":"\u4f4f\u5b85"},"type":"Point","coordinates":[17318,76618],"id":"feature_159"},{"properties":{"price":31100,"use":"\u6c37\u898b","zone":"","station":"\u4f4f\u5b85"},"type":"Point","coordinates":[19597,72794],"id":"feature_160"},{"properties":{"price":26600,"use":"\u6c37\u898b","zone":"","station":"\u4f4f\u5b85"},"type":"Point","coordinates":[17893,71311],"id":"feature_161"},{"properties":{"price":29200,"use":"\u6c37\u898b","zone":"","station":"\u4f4f\u5b85"},"type":"Point","coordinates":[17740,74542],"id":"feature_162"},{"properties":{"price":41000,"use":"\u6c37\u898b","zone":"","station":"\u5e97\u8217\u517c\u65c5\u9928"},"type":"Point","coordinates":[18537,76570],"id":"feature_163"},{"properties":{"price":20600,"use":"\u6ed1\u5ddd","zone":"","station":"\u4f4f\u5b85\u517c\u4f5c\u696d\u6240"},"type":"Point","coordinates":[66874,56305],"id":"feature_164"},{"properties":{"price":23400,"use":"\u6ed1\u5ddd","zone":"","station":"\u4f4f\u5b85"},"type":"Point","coordinates":[67782,57130],"id":"feature_165"},{"properties":{"price":24400,"use":"\u6ed1\u5ddd","zone":"","station":"\u4f4f\u5b85"},"type":"Point","coordinates":[67358,53512],"id":"feature_166"},{"properties":{"price":32800,"use":"\u6ed1\u5ddd","zone":"","station":"\u5e97\u8217\u517c\u4f4f\u5b85"},"type":"Point","coordinates":[67756,56766],"id":"feature_167"},{"properties":{"price":37500,"use":"\u9ed2\u90e8","zone":"","station":"\u4f4f\u5b85"},"type":"Point","coordinates":[81087,78435],"id":"feature_168"},{"properties":{"price":16000,"use":"\u9ed2\u90e8","zone":"","station":"\u4f4f\u5b85"},"type":"Point","coordinates":[77488,83687],"id":"feature_169"},{"properties":{"price":32200,"use":"\u9ed2\u90e8","zone":"","station":"\u4f4f\u5b85"},"type":"Point","coordinates":[81526,83069],"id":"feature_170"},{"properties":{"price":15600,"use":"\u9ed2\u90e8","zone":"","station":"\u4f4f\u5b85"},"type":"Point","coordinates":[91316,79144],"id":"feature_171"},{"properties":{"price":48500,"use":"\u9ed2\u90e8","zone":"","station":"\u5e97\u8217\u517c\u4f4f\u5b85"},"type":"Point","coordinates":[81086,80220],"id":"feature_172"},{"properties":{"price":48900,"use":"\u9ed2\u90e8","zone":"","station":"\u5e97\u8217\u517c\u4f4f\u5b85"},"type":"Point","coordinates":[99999,67139],"id":"feature_173"},{"properties":{"price":55200,"use":"\u783a\u6ce2","zone":"","station":"\u4f4f\u5b85"},"type":"Point","coordinates":[13602,25323],"id":"feature_174"},{"properties":{"price":14700,"use":"\u783a\u6ce2","zone":"","station":"\u4f4f\u5b85"},"type":"Point","coordinates":[18332,13522],"id":"feature_175"},{"properties":{"price":28300,"use":"\u783a\u6ce2","zone":"","station":"\u4f4f\u5b85"},"type":"Point","coordinates":[14394,29527],"id":"feature_176"},{"properties":{"price":49500,"use":"\u783a\u6ce2","zone":"","station":"\u4e8b\u52d9\u6240"},"type":"Point","coordinates":[14107,26919],"id":"feature_177"},{"properties":{"price":45300,"use":"\u783a\u6ce2","zone":"","station":"\u5e97\u8217\u517c\u4f4f\u5b85"},"type":"Point","coordinates":[13561,27669],"id":"feature_178"},{"properties":{"price":24400,"use":"\u783a\u6ce2","zone":"","station":"\u4e8b\u52d9\u6240"},"type":"Point","coordinates":[18201,12783],"id":"feature_179"},{"properties":{"price":25600,"use":"\u5c0f\u77e2\u90e8","zone":"","station":"\u4f4f\u5b85"},"type":"Point","coordinates":[1908,36000],"id":"feature_180"},{"properties":{"price":25300,"use":"\u5c0f\u77e2\u90e8","zone":"","station":"\u4f4f\u5b85"},"type":"Point","coordinates":[3175,35989],"id":"feature_181"},{"properties":{"price":14700,"use":"\u5c0f\u77e2\u90e8","zone":"","station":"\u4f4f\u5b85"},"type":"Point","coordinates":[0,34120],"id":"feature_182"},{"properties":{"price":45200,"use":"\u5c0f\u77e2\u90e8","zone":"","station":"\u5b66\u7fd2\u587e"},"type":"Point","coordinates":[1920,35229],"id":"feature_183"},{"properties":{"price":53100,"use":"\u5c0f\u77e2\u90e8","zone":"","station":"\u5e97\u8217\u517c\u5009\u5eab"},"type":"Point","coordinates":[1775,34868],"id":"feature_184"},{"properties":{"price":20700,"use":"\u5357\u783a","zone":"","station":"\u4f4f\u5b85"},"type":"Point","coordinates":[6270,0],"id":"feature_185"},{"properties":{"price":18600,"use":"\u5357\u783a","zone":"","station":"\u4f4f\u5b85"},"type":"Point","coordinates":[15904,9622],"id":"feature_186"},{"properties":{"price":25600,"use":"\u5357\u783a","zone":"","station":"\u4f4f\u5b85"},"type":"Point","coordinates":[9388,15357],"id":"feature_187"},{"properties":{"price":20100,"use":"\u5357\u783a","zone":"","station":"\u4f4f\u5b85"},"type":"Point","coordinates":[10096,15564],"id":"feature_188"},{"properties":{"price":21700,"use":"\u5357\u783a","zone":"","station":"\u4f4f\u5b85"},"type":"Point","coordinates":[2939,9670],"id":"feature_189"},{"properties":{"price":22200,"use":"\u5357\u783a","zone":"","station":"\u4f4f\u5b85"},"type":"Point","coordinates":[2582,7401],"id":"feature_190"},{"properties":{"price":30300,"use":"\u5357\u783a","zone":"","station":"\u5e97\u8217\u517c\u4f4f\u5b85"},"type":"Point","coordinates":[6817,266],"id":"feature_191"},{"properties":{"price":33000,"use":"\u5357\u783a","zone":"","station":"\u5e97\u8217\u517c\u4f4f\u5b85"},"type":"Point","coordinates":[16067,10289],"id":"feature_192"},{"properties":{"price":36300,"use":"\u5357\u783a","zone":"","station":"\u5e97\u8217\u517c\u4e8b\u52d9\u6240"},"type":"Point","coordinates":[8730,16505],"id":"feature_193"},{"properties":{"price":30200,"use":"\u5c04\u6c34","zone":"","station":"\u4f4f\u5b85"},"type":"Point","coordinates":[30920,58653],"id":"feature_194"},{"properties":{"price":19000,"use":"\u5c04\u6c34","zone":"","station":"\u4f4f\u5b85"},"type":"Point","coordinates":[30574,60109],"id":"feature_195"},{"properties":{"price":13400,"use":"\u5c04\u6c34","zone":"","station":"\u4f4f\u5b85"},"type":"Point","coordinates":[39517,53335],"id":"feature_196"},{"properties":{"price":38000,"use":"\u5c04\u6c34","zone":"","station":"\u4f4f\u5b85"},"type":"Point","coordinates":[28215,49877],"id":"feature_197"},{"properties":{"price":19000,"use":"\u5c04\u6c34","zone":"","station":"\u4f4f\u5b85"},"type":"Point","coordinates":[35021,41848],"id":"feature_198"},{"properties":{"price":14000,"use":"\u5c04\u6c34","zone":"","station":"\u4f4f\u5b85"},"type":"Point","coordinates":[40502,50402],"id":"feature_199"},{"properties":{"price":29700,"use":"\u5c04\u6c34","zone":"","station":"\u4f4f\u5b85"},"type":"Point","coordinates":[32763,45986],"id":"feature_200"},{"properties":{"price":50600,"use":"\u5c04\u6c34","zone":"","station":"\u4f4f\u5b85"},"type":"Point","coordinates":[33109,45034],"id":"feature_201"},{"properties":{"price":36400,"use":"\u5c04\u6c34","zone":"","station":"\u4f4f\u5b85"},"type":"Point","coordinates":[34382,46439],"id":"feature_202"},{"properties":{"price":34500,"use":"\u5c04\u6c34","zone":"","station":"\u4f4f\u5b85"},"type":"Point","coordinates":[33013,41628],"id":"feature_203"},{"properties":{"price":37300,"use":"\u5c04\u6c34","zone":"","station":"\u4f4f\u5b85"},"type":"Point","coordinates":[32475,46509],"id":"feature_204"},{"properties":{"price":36300,"use":"\u5c04\u6c34","zone":"","station":"\u4f4f\u5b85"},"type":"Point","coordinates":[27183,46036],"id":"feature_205"},{"properties":{"price":28300,"use":"\u5c04\u6c34","zone":"","station":"\u4f4f\u5b85"},"type":"Point","coordinates":[28234,48783],"id":"feature_206"},{"properties":{"price":19300,"use":"\u5c04\u6c34","zone":"","station":"\u4f4f\u5b85"},"type":"Point","coordinates":[28856,54495],"id":"feature_207"},{"properties":{"price":45000,"use":"\u5c04\u6c34","zone":"","station":"\u4f4f\u5b85"},"type":"Point","coordinates":[33927,40557],"id":"feature_208"},{"properties":{"price":30000,"use":"\u5c04\u6c34","zone":"","station":"\u4f4f\u5b85"},"type":"Point","coordinates":[35690,44945],"id":"feature_209"},{"properties":{"price":39700,"use":"\u5c04\u6c34","zone":"","station":"\u4e8b\u52d9\u6240"},"type":"Point","coordinates":[31480,59224],"id":"feature_210"},{"properties":{"price":39700,"use":"\u5c04\u6c34","zone":"","station":"\u5e97\u8217\u517c\u4f4f\u5b85"},"type":"Point","coordinates":[32215,58062],"id":"feature_211"},{"properties":{"price":46000,"use":"\u5c04\u6c34","zone":"","station":"\u5e97\u8217"},"type":"Point","coordinates":[27172,48362],"id":"feature_212"},{"properties":{"price":46100,"use":"\u5c04\u6c34","zone":"","station":"\u5e97\u8217\u517c\u4f4f\u5b85"},"type":"Point","coordinates":[32995,45850],"id":"feature_213"},{"properties":{"price":59300,"use":"\u5c04\u6c34","zone":"","station":"\u5e97\u8217"},"type":"Point","coordinates":[32544,44217],"id":"feature_214"},{"properties":{"price":20200,"use":"\u5c04\u6c34","zone":"","station":"\u5e97\u8217\u517c\u4f4f\u5b85"},"type":"Point","coordinates":[32366,54397],"id":"feature_215"},{"properties":{"price":13100,"use":"\u5c04\u6c34","zone":"","station":"\u5de5\u5834"},"type":"Point","coordinates":[40799,54674],"id":"feature_216"},{"properties":{"price":15200,"use":"\u821f\u6a4b","zone":"","station":"\u4f4f\u5b85"},"type":"Point","coordinates":[61413,42498],"id":"feature_217"},{"properties":{"price":25000,"use":"\u821f\u6a4b","zone":"","station":"\u4f4f\u5b85"},"type":"Point","coordinates":[61690,40427],"id":"feature_218"},{"properties":{"price":27000,"use":"\u821f\u6a4b","zone":"","station":"\u5e97\u8217\u517c\u4f4f\u5b85"},"type":"Point","coordinates":[62177,42201],"id":"feature_219"},{"properties":{"price":14900,"use":"\u4e0a\u5e02","zone":"","station":"\u4f4f\u5b85"},"type":"Point","coordinates":[69627,42862],"id":"feature_220"},{"properties":{"price":19100,"use":"\u4e0a\u5e02","zone":"","station":"\u4f4f\u5b85"},"type":"Point","coordinates":[69380,38694],"id":"feature_221"},{"properties":{"price":26900,"use":"\u4e0a\u5e02","zone":"","station":"\u5e97\u8217\u517c\u4f4f\u5b85"},"type":"Point","coordinates":[69952,42264],"id":"feature_222"},{"properties":{"price":17200,"use":"\u7acb\u5c71","zone":"","station":"\u4f4f\u5b85"},"type":"Point","coordinates":[60613,32874],"id":"feature_223"},{"properties":{"price":15900,"use":"\u7acb\u5c71","zone":"","station":"\u4f4f\u5b85"},"type":"Point","coordinates":[63606,40416],"id":"feature_224"},{"properties":{"price":30700,"use":"\u7acb\u5c71","zone":"","station":"\u5e97\u8217\u517c\u4f4f\u5b85"},"type":"Point","coordinates":[63022,32649],"id":"feature_225"},{"properties":{"price":23200,"use":"\u5165\u5584","zone":"","station":"\u4f4f\u5b85"},"type":"Point","coordinates":[89721,94228],"id":"feature_226"},{"properties":{"price":16600,"use":"\u5165\u5584","zone":"","station":"\u4f4f\u5b85"},"type":"Point","coordinates":[82719,91422],"id":"feature_227"},{"properties":{"price":32400,"use":"\u5165\u5584","zone":"","station":"\u5e97\u8217\u517c\u4f4f\u5b85"},"type":"Point","coordinates":[89059,95679],"id":"feature_228"},{"properties":{"price":16500,"use":"\u5bcc\u5c71\u671d\u65e5","zone":"","station":"\u4f4f\u5b85"},"type":"Point","coordinates":[96750,99999],"id":"feature_229"},{"properties":{"price":17700,"use":"\u5bcc\u5c71\u671d\u65e5","zone":"","station":"\u4f4f\u5b85"},"type":"Point","coordinates":[96614,94760],"id":"feature_230"},{"properties":{"price":26900,"use":"\u5bcc\u5c71\u671d\u65e5","zone":"","station":"\u5e97\u8217\u517c\u4f4f\u5b85"},"type":"Point","coordinates":[96692,98492],"id":"feature_231"}],"type":"GeometryCollection"}},"bbox":[136.85208,36.52035,137.58315,36.96015],"transform":{"scale":[7.310773107730961e-06,4.398043980439786e-06],"translate":[136.85208,36.52035]},"arcs":[]}