{"type":"Topology","objects":{"data":{"geometries":[{"properties":{"price":264000,"use":"\u9e7f\u5150\u5cf6","zone":"","station":"\u4f4f\u5b85"},"type":"Point","coordinates":[77727,88842],"id":"feature_000"},{"properties":{"price":79900,"use":"\u9e7f\u5150\u5cf6","zone":"","station":"\u4f4f\u5b85"},"type":"Point","coordinates":[77412,89205],"id":"feature_001"},{"properties":{"price":115000,"use":"\u9e7f\u5150\u5cf6","zone":"","station":"\u4f4f\u5b85"},"type":"Point","coordinates":[77528,87905],"id":"feature_002"},{"properties":{"price":195000,"use":"\u9e7f\u5150\u5cf6","zone":"","station":"\u4f4f\u5b85"},"type":"Point","coordinates":[77616,88758],"id":"feature_003"},{"properties":{"price":214000,"use":"\u9e7f\u5150\u5cf6","zone":"","station":"\u4f4f\u5b85"},"type":"Point","coordinates":[78009,88397],"id":"feature_004"},{"properties":{"price":168000,"use":"\u9e7f\u5150\u5cf6","zone":"","station":"\u4f4f\u5b85"},"type":"Point","coordinates":[78606,89220],"id":"feature_005"},{"properties":{"price":39800,"use":"\u9e7f\u5150\u5cf6","zone":"","station":"\u4f4f\u5b85"},"type":"Point","coordinates":[78555,89935],"id":"feature_006"},{"properties":{"price":98500,"use":"\u9e7f\u5150\u5cf6","zone":"","station":"\u4f4f\u5b85"},"type":"Point","coordinates":[76575,89040],"id":"feature_007"},{"properties":{"price":120000,"use":"\u9e7f\u5150\u5cf6","zone":"","station":"\u4f4f\u5b85"},"type":"Point","coordinates":[77175,87639],"id":"feature_008"},{"properties":{"price":51600,"use":"\u9e7f\u5150\u5cf6","zone":"","station":"\u4f4f\u5b85"},"type":"Point","coordinates":[78829,89738],"id":"feature_009"},{"properties":{"price":42900,"use":"\u9e7f\u5150\u5cf6","zone":"","station":"\u4f4f\u5b85"},"type":"Point","coordinates":[78465,89508],"id":"feature_010"},{"properties":{"price":86800,"use":"\u9e7f\u5150\u5cf6","zone":"","station":"\u4f4f\u5b85"},"type":"Point","coordinates":[77909,89715],"id":"feature_011"},{"properties":{"price":141000,"use":"\u9e7f\u5150\u5cf6","zone":"","station":"\u4f4f\u5b85"},"type":"Point","coordinates":[77594,89305],"id":"feature_012"},{"properties":{"price":22500,"use":"\u9e7f\u5150\u5cf6","zone":"","station":"\u4f4f\u5b85"},"type":"Point","coordinates":[78275,90258],"id":"feature_013"},{"properties":{"price":84800,"use":"\u9e7f\u5150\u5cf6","zone":"","station":"\u4f4f\u5b85"},"type":"Point","coordinates":[77990,89562],"id":"feature_014"},{"properties":{"price":85800,"use":"\u9e7f\u5150\u5cf6","zone":"","station":"\u4f4f\u5b85"},"type":"Point","coordinates":[76962,87519],"id":"feature_015"},{"properties":{"price":81300,"use":"\u9e7f\u5150\u5cf6","zone":"","station":"\u4f4f\u5b85"},"type":"Point","coordinates":[77258,89677],"id":"feature_016"},{"properties":{"price":97800,"use":"\u9e7f\u5150\u5cf6","zone":"","station":"\u4f4f\u5b85"},"type":"Point","coordinates":[78001,89248],"id":"feature_017"},{"properties":{"price":60200,"use":"\u9e7f\u5150\u5cf6","zone":"","station":"\u4f4f\u5b85"},"type":"Point","coordinates":[77067,89707],"id":"feature_018"},{"properties":{"price":87000,"use":"\u9e7f\u5150\u5cf6","zone":"","station":"\u4f4f\u5b85"},"type":"Point","coordinates":[77145,89504],"id":"feature_019"},{"properties":{"price":65400,"use":"\u9e7f\u5150\u5cf6","zone":"","station":"\u4f4f\u5b85"},"type":"Point","coordinates":[77558,89520],"id":"feature_020"},{"properties":{"price":12800,"use":"\u9e7f\u5150\u5cf6","zone":"","station":"\u4f4f\u5b85"},"type":"Point","coordinates":[75700,90529],"id":"feature_021"},{"properties":{"price":94600,"use":"\u9e7f\u5150\u5cf6","zone":"","station":"\u4f4f\u5b85"},"type":"Point","coordinates":[77576,89425],"id":"feature_022"},{"properties":{"price":59900,"use":"\u9e7f\u5150\u5cf6","zone":"","station":"\u4f4f\u5b85"},"type":"Point","coordinates":[76460,86948],"id":"feature_023"},{"properties":{"price":70600,"use":"\u9e7f\u5150\u5cf6","zone":"","station":"\u4f4f\u5b85"},"type":"Point","coordinates":[78818,89347],"id":"feature_024"},{"properties":{"price":128000,"use":"\u9e7f\u5150\u5cf6","zone":"","station":"\u4f4f\u5b85"},"type":"Point","coordinates":[77473,88888],"id":"feature_025"},{"properties":{"price":191000,"use":"\u9e7f\u5150\u5cf6","zone":"","station":"\u4f4f\u5b85"},"type":"Point","coordinates":[77669,89050],"id":"feature_026"},{"properties":{"price":72800,"use":"\u9e7f\u5150\u5cf6","zone":"","station":"\u4f4f\u5b85"},"type":"Point","coordinates":[77084,89056],"id":"feature_027"},{"properties":{"price":241000,"use":"\u9e7f\u5150\u5cf6","zone":"","station":"\u4f4f\u5b85"},"type":"Point","coordinates":[78205,88739],"id":"feature_028"},{"properties":{"price":188000,"use":"\u9e7f\u5150\u5cf6","zone":"","station":"\u4f4f\u5b85"},"type":"Point","coordinates":[78660,88554],"id":"feature_029"},{"properties":{"price":240000,"use":"\u9e7f\u5150\u5cf6","zone":"","station":"\u4f4f\u5b85"},"type":"Point","coordinates":[78158,88537],"id":"feature_030"},{"properties":{"price":162000,"use":"\u9e7f\u5150\u5cf6","zone":"","station":"\u4f4f\u5b85"},"type":"Point","coordinates":[78311,88220],"id":"feature_031"},{"properties":{"price":40800,"use":"\u9e7f\u5150\u5cf6","zone":"","station":"\u4f4f\u5b85"},"type":"Point","coordinates":[78025,90301],"id":"feature_032"},{"properties":{"price":14800,"use":"\u9e7f\u5150\u5cf6","zone":"","station":"\u4f4f\u5b85"},"type":"Point","coordinates":[79597,90705],"id":"feature_033"},{"properties":{"price":151000,"use":"\u9e7f\u5150\u5cf6","zone":"","station":"\u4f4f\u5b85"},"type":"Point","coordinates":[77554,88648],"id":"feature_034"},{"properties":{"price":72300,"use":"\u9e7f\u5150\u5cf6","zone":"","station":"\u4f4f\u5b85"},"type":"Point","coordinates":[77774,88391],"id":"feature_035"},{"properties":{"price":60700,"use":"\u9e7f\u5150\u5cf6","zone":"","station":"\u4f4f\u5b85"},"type":"Point","coordinates":[77149,88524],"id":"feature_036"},{"properties":{"price":70200,"use":"\u9e7f\u5150\u5cf6","zone":"","station":"\u4f4f\u5b85"},"type":"Point","coordinates":[77048,88308],"id":"feature_037"},{"properties":{"price":43000,"use":"\u9e7f\u5150\u5cf6","zone":"","station":"\u4f4f\u5b85"},"type":"Point","coordinates":[76120,88413],"id":"feature_038"},{"properties":{"price":68800,"use":"\u9e7f\u5150\u5cf6","zone":"","station":"\u4f4f\u5b85"},"type":"Point","coordinates":[77169,87869],"id":"feature_039"},{"properties":{"price":55600,"use":"\u9e7f\u5150\u5cf6","zone":"","station":"\u4f4f\u5b85"},"type":"Point","coordinates":[77568,90076],"id":"feature_040"},{"properties":{"price":103000,"use":"\u9e7f\u5150\u5cf6","zone":"","station":"\u4f4f\u5b85"},"type":"Point","coordinates":[77381,88068],"id":"feature_041"},{"properties":{"price":116000,"use":"\u9e7f\u5150\u5cf6","zone":"","station":"\u4f4f\u5b85"},"type":"Point","coordinates":[77115,87715],"id":"feature_042"},{"properties":{"price":70000,"use":"\u9e7f\u5150\u5cf6","zone":"","station":"\u4f4f\u5b85"},"type":"Point","coordinates":[76611,87809],"id":"feature_043"},{"properties":{"price":19600,"use":"\u9e7f\u5150\u5cf6","zone":"","station":"\u4f4f\u5b85"},"type":"Point","coordinates":[78012,91037],"id":"feature_044"},{"properties":{"price":65200,"use":"\u9e7f\u5150\u5cf6","zone":"","station":"\u4f4f\u5b85"},"type":"Point","coordinates":[76342,87684],"id":"feature_045"},{"properties":{"price":108000,"use":"\u9e7f\u5150\u5cf6","zone":"","station":"\u4f4f\u5b85"},"type":"Point","coordinates":[76516,87379],"id":"feature_046"},{"properties":{"price":23400,"use":"\u9e7f\u5150\u5cf6","zone":"","station":"\u4f4f\u5b85"},"type":"Point","coordinates":[77750,84402],"id":"feature_047"},{"properties":{"price":66600,"use":"\u9e7f\u5150\u5cf6","zone":"","station":"\u4f4f\u5b85"},"type":"Point","coordinates":[76389,87012],"id":"feature_048"},{"properties":{"price":91400,"use":"\u9e7f\u5150\u5cf6","zone":"","station":"\u4f4f\u5b85"},"type":"Point","coordinates":[76839,88139],"id":"feature_049"},{"properties":{"price":20100,"use":"\u9e7f\u5150\u5cf6","zone":"","station":"\u4f4f\u5b85"},"type":"Point","coordinates":[75245,90576],"id":"feature_050"},{"properties":{"price":65600,"use":"\u9e7f\u5150\u5cf6","zone":"","station":"\u4f4f\u5b85"},"type":"Point","coordinates":[78873,90140],"id":"feature_051"},{"properties":{"price":81800,"use":"\u9e7f\u5150\u5cf6","zone":"","station":"\u4f4f\u5b85"},"type":"Point","coordinates":[76539,88066],"id":"feature_052"},{"properties":{"price":45900,"use":"\u9e7f\u5150\u5cf6","zone":"","station":"\u4f4f\u5b85"},"type":"Point","coordinates":[77304,90186],"id":"feature_053"},{"properties":{"price":10800,"use":"\u9e7f\u5150\u5cf6","zone":"","station":"\u4f4f\u5b85"},"type":"Point","coordinates":[78232,83770],"id":"feature_054"},{"properties":{"price":95600,"use":"\u9e7f\u5150\u5cf6","zone":"","station":"\u7a7a\u5730"},"type":"Point","coordinates":[77118,89171],"id":"feature_055"},{"properties":{"price":12800,"use":"\u9e7f\u5150\u5cf6","zone":"","station":"\u4f4f\u5b85"},"type":"Point","coordinates":[75523,90838],"id":"feature_056"},{"properties":{"price":27100,"use":"\u9e7f\u5150\u5cf6","zone":"","station":"\u4f4f\u5b85"},"type":"Point","coordinates":[73888,89194],"id":"feature_057"},{"properties":{"price":118000,"use":"\u9e7f\u5150\u5cf6","zone":"","station":"\u4f4f\u5b85"},"type":"Point","coordinates":[77432,88259],"id":"feature_058"},{"properties":{"price":40100,"use":"\u9e7f\u5150\u5cf6","zone":"","station":"\u4f4f\u5b85"},"type":"Point","coordinates":[74296,88804],"id":"feature_059"},{"properties":{"price":196000,"use":"\u9e7f\u5150\u5cf6","zone":"","station":"\u4f4f\u5b85"},"type":"Point","coordinates":[78383,88574],"id":"feature_060"},{"properties":{"price":247000,"use":"\u9e7f\u5150\u5cf6","zone":"","station":"\u4f4f\u5b85"},"type":"Point","coordinates":[77947,88674],"id":"feature_061"},{"properties":{"price":144000,"use":"\u9e7f\u5150\u5cf6","zone":"","station":"\u5171\u540c\u4f4f\u5b85"},"type":"Point","coordinates":[78134,88149],"id":"feature_062"},{"properties":{"price":33700,"use":"\u9e7f\u5150\u5cf6","zone":"","station":"\u4f4f\u5b85"},"type":"Point","coordinates":[76414,86569],"id":"feature_063"},{"properties":{"price":15500,"use":"\u9e7f\u5150\u5cf6","zone":"","station":"\u4f4f\u5b85"},"type":"Point","coordinates":[75822,87282],"id":"feature_064"},{"properties":{"price":40900,"use":"\u9e7f\u5150\u5cf6","zone":"","station":"\u4f4f\u5b85"},"type":"Point","coordinates":[77036,89900],"id":"feature_065"},{"properties":{"price":107000,"use":"\u9e7f\u5150\u5cf6","zone":"","station":"\u4f4f\u5b85"},"type":"Point","coordinates":[76292,87496],"id":"feature_066"},{"properties":{"price":160000,"use":"\u9e7f\u5150\u5cf6","zone":"","station":"\u4f4f\u5b85"},"type":"Point","coordinates":[76828,87559],"id":"feature_067"},{"properties":{"price":12900,"use":"\u9e7f\u5150\u5cf6","zone":"","station":"\u7551"},"type":"Point","coordinates":[79356,89749],"id":"feature_068"},{"properties":{"price":84100,"use":"\u9e7f\u5150\u5cf6","zone":"","station":"\u5e97\u8217"},"type":"Point","coordinates":[78969,89766],"id":"feature_069"},{"properties":{"price":272000,"use":"\u9e7f\u5150\u5cf6","zone":"","station":"\u5e97\u8217\u3001\u4e8b\u52d9\u6240\u517c\u5171\u540c\u4f4f\u5b85"},"type":"Point","coordinates":[77680,88765],"id":"feature_070"},{"properties":{"price":307000,"use":"\u9e7f\u5150\u5cf6","zone":"","station":"\u4e8b\u52d9\u6240\u517c\u5171\u540c\u4f4f\u5b85"},"type":"Point","coordinates":[78463,88880],"id":"feature_071"},{"properties":{"price":151000,"use":"\u9e7f\u5150\u5cf6","zone":"","station":"\u5e97\u8217\u517c\u4f4f\u5b85"},"type":"Point","coordinates":[77372,88596],"id":"feature_072"},{"properties":{"price":161000,"use":"\u9e7f\u5150\u5cf6","zone":"","station":"\u5e97\u8217\u517c\u4f4f\u5b85"},"type":"Point","coordinates":[78209,88274],"id":"feature_073"},{"properties":{"price":619000,"use":"\u9e7f\u5150\u5cf6","zone":"","station":"\u5e97\u8217"},"type":"Point","coordinates":[78389,88952],"id":"feature_074"},{"properties":{"price":279000,"use":"\u9e7f\u5150\u5cf6","zone":"","station":"\u5e97\u8217\u517c\u4e8b\u52d9\u6240"},"type":"Point","coordinates":[78019,88926],"id":"feature_075"},{"properties":{"price":579000,"use":"\u9e7f\u5150\u5cf6","zone":"","station":"\u5e97\u8217\u517c\u4e8b\u52d9\u6240"},"type":"Point","coordinates":[77928,88748],"id":"feature_076"},{"properties":{"price":284000,"use":"\u9e7f\u5150\u5cf6","zone":"","station":"\u4e8b\u52d9\u6240\u517c\u5171\u540c\u4f4f\u5b85"},"type":"Point","coordinates":[78069,88727],"id":"feature_077"},{"properties":{"price":352000,"use":"\u9e7f\u5150\u5cf6","zone":"","station":"\u5e97\u8217\u517c\u4e8b\u52d9\u6240"},"type":"Point","coordinates":[78241,88572],"id":"feature_078"},{"properties":{"price":119000,"use":"\u9e7f\u5150\u5cf6","zone":"","station":"\u5e97\u8217"},"type":"Point","coordinates":[76823,87665],"id":"feature_079"},{"properties":{"price":64300,"use":"\u9e7f\u5150\u5cf6","zone":"","station":"\u9280\u884c"},"type":"Point","coordinates":[76990,87337],"id":"feature_080"},{"properties":{"price":150000,"use":"\u9e7f\u5150\u5cf6","zone":"","station":"\u4e8b\u52d9\u6240"},"type":"Point","coordinates":[77093,87653],"id":"feature_081"},{"properties":{"price":149000,"use":"\u9e7f\u5150\u5cf6","zone":"","station":"\u9280\u884c"},"type":"Point","coordinates":[76706,87329],"id":"feature_082"},{"properties":{"price":1150000,"use":"\u9e7f\u5150\u5cf6","zone":"","station":"\u5e97\u8217\u517c\u4e8b\u52d9\u6240"},"type":"Point","coordinates":[78321,88930],"id":"feature_083"},{"properties":{"price":178000,"use":"\u9e7f\u5150\u5cf6","zone":"","station":"\u4e8b\u52d9\u6240\u517c\u5171\u540c\u4f4f\u5b85"},"type":"Point","coordinates":[78598,89188],"id":"feature_084"},{"properties":{"price":224000,"use":"\u9e7f\u5150\u5cf6","zone":"","station":"\u4e8b\u52d9\u6240\u517c\u4f4f\u5b85"},"type":"Point","coordinates":[78507,88926],"id":"feature_085"},{"properties":{"price":642000,"use":"\u9e7f\u5150\u5cf6","zone":"","station":"\u5e97\u8217\u3001\u4e8b\u52d9\u6240\u517c\u5171\u540c\u4f4f\u5b85"},"type":"Point","coordinates":[77793,88815],"id":"feature_086"},{"properties":{"price":364000,"use":"\u9e7f\u5150\u5cf6","zone":"","station":"\u5e97\u8217\u517c\u4e8b\u52d9\u6240"},"type":"Point","coordinates":[78256,88961],"id":"feature_087"},{"properties":{"price":348000,"use":"\u9e7f\u5150\u5cf6","zone":"","station":"\u5e97\u8217"},"type":"Point","coordinates":[78297,88894],"id":"feature_088"},{"properties":{"price":190000,"use":"\u9e7f\u5150\u5cf6","zone":"","station":"\u8a3a\u7642\u6240\u517c\u4f4f\u5b85"},"type":"Point","coordinates":[78369,88761],"id":"feature_089"},{"properties":{"price":201000,"use":"\u9e7f\u5150\u5cf6","zone":"","station":"\u4e8b\u52d9\u6240"},"type":"Point","coordinates":[78408,88226],"id":"feature_090"},{"properties":{"price":587000,"use":"\u9e7f\u5150\u5cf6","zone":"","station":"\u4e8b\u52d9\u6240"},"type":"Point","coordinates":[78121,88868],"id":"feature_091"},{"properties":{"price":910000,"use":"\u9e7f\u5150\u5cf6","zone":"","station":"\u5e97\u8217\u517c\u4e8b\u52d9\u6240"},"type":"Point","coordinates":[77926,88827],"id":"feature_092"},{"properties":{"price":30300,"use":"\u9e7f\u5150\u5cf6","zone":"","station":"\u9280\u884c"},"type":"Point","coordinates":[77849,84371],"id":"feature_093"},{"properties":{"price":37200,"use":"\u9e7f\u5150\u5cf6","zone":"","station":"\u5e97\u8217\u517c\u4f4f\u5b85"},"type":"Point","coordinates":[73638,89235],"id":"feature_094"},{"properties":{"price":35100,"use":"\u9e7f\u5150\u5cf6","zone":"","station":"\u5e97\u8217\u517c\u5171\u540c\u4f4f\u5b85"},"type":"Point","coordinates":[75165,90751],"id":"feature_095"},{"properties":{"price":24000,"use":"\u9e7f\u5150\u5cf6","zone":"","station":"\u5e97\u8217\u517c\u4f4f\u5b85"},"type":"Point","coordinates":[78246,90950],"id":"feature_096"},{"properties":{"price":122000,"use":"\u9e7f\u5150\u5cf6","zone":"","station":"\u5e97\u8217"},"type":"Point","coordinates":[78894,90216],"id":"feature_097"},{"properties":{"price":129000,"use":"\u9e7f\u5150\u5cf6","zone":"","station":"\u5e97\u8217"},"type":"Point","coordinates":[77537,87787],"id":"feature_098"},{"properties":{"price":140000,"use":"\u9e7f\u5150\u5cf6","zone":"","station":"\u5e97\u8217\u517c\u4e8b\u52d9\u6240"},"type":"Point","coordinates":[76368,87491],"id":"feature_099"},{"properties":{"price":117000,"use":"\u9e7f\u5150\u5cf6","zone":"","station":"\u5e97\u8217\u517c\u4f4f\u5b85"},"type":"Point","coordinates":[77471,88037],"id":"feature_100"},{"properties":{"price":315000,"use":"\u9e7f\u5150\u5cf6","zone":"","station":"\u5e97\u8217\u3001\u4e8b\u52d9\u6240\u517c\u5171\u540c\u4f4f\u5b85"},"type":"Point","coordinates":[77805,88615],"id":"feature_101"},{"properties":{"price":600000,"use":"\u9e7f\u5150\u5cf6","zone":"","station":"\u5e97\u8217\u517c\u5171\u540c\u4f4f\u5b85"},"type":"Point","coordinates":[77860,88742],"id":"feature_102"},{"properties":{"price":74400,"use":"\u9e7f\u5150\u5cf6","zone":"","station":"\u5009\u5eab"},"type":"Point","coordinates":[77838,87877],"id":"feature_103"},{"properties":{"price":28900,"use":"\u9e7f\u5150\u5cf6","zone":"","station":"\u5de5\u5834\u517c\u4e8b\u52d9\u6240"},"type":"Point","coordinates":[77359,87461],"id":"feature_104"},{"properties":{"price":22300,"use":"\u9e7f\u5150\u5cf6","zone":"","station":"\u5de5\u5834\u517c\u4e8b\u52d9\u6240"},"type":"Point","coordinates":[76696,86439],"id":"feature_105"},{"properties":{"price":98300,"use":"\u9e7f\u5150\u5cf6","zone":"","station":"\u5de5\u5834"},"type":"Point","coordinates":[78880,88656],"id":"feature_106"},{"properties":{"price":21300,"use":"\u9e7f\u5c4b","zone":"","station":"\u4f4f\u5b85"},"type":"Point","coordinates":[89317,84703],"id":"feature_107"},{"properties":{"price":23100,"use":"\u9e7f\u5c4b","zone":"","station":"\u4f4f\u5b85"},"type":"Point","coordinates":[90745,84697],"id":"feature_108"},{"properties":{"price":14200,"use":"\u9e7f\u5c4b","zone":"","station":"\u4f4f\u5b85"},"type":"Point","coordinates":[91478,84664],"id":"feature_109"},{"properties":{"price":3250,"use":"\u9e7f\u5c4b","zone":"","station":"\u4f4f\u5b85"},"type":"Point","coordinates":[92148,83360],"id":"feature_110"},{"properties":{"price":14200,"use":"\u9e7f\u5c4b","zone":"","station":"\u4f4f\u5b85"},"type":"Point","coordinates":[89878,84611],"id":"feature_111"},{"properties":{"price":9900,"use":"\u9e7f\u5c4b","zone":"","station":"\u4f4f\u5b85"},"type":"Point","coordinates":[94366,84769],"id":"feature_112"},{"properties":{"price":3750,"use":"\u9e7f\u5c4b","zone":"","station":"\u4f4f\u5b85"},"type":"Point","coordinates":[93797,84349],"id":"feature_113"},{"properties":{"price":8130,"use":"\u9e7f\u5c4b","zone":"","station":"\u4f4f\u5b85"},"type":"Point","coordinates":[91943,83487],"id":"feature_114"},{"properties":{"price":52400,"use":"\u9e7f\u5c4b","zone":"","station":"\u5e97\u8217\u517c\u4e8b\u52d9\u6240"},"type":"Point","coordinates":[90783,84669],"id":"feature_115"},{"properties":{"price":42500,"use":"\u9e7f\u5c4b","zone":"","station":"\u5e97\u8217\u517c\u4f4f\u5b85"},"type":"Point","coordinates":[90016,84719],"id":"feature_116"},{"properties":{"price":26500,"use":"\u9e7f\u5c4b","zone":"","station":"\u5e97\u8217\u517c\u4f4f\u5b85"},"type":"Point","coordinates":[89614,84665],"id":"feature_117"},{"properties":{"price":15900,"use":"\u9e7f\u5c4b","zone":"","station":"\u5e97\u8217\u517c\u4f4f\u5b85"},"type":"Point","coordinates":[94322,84749],"id":"feature_118"},{"properties":{"price":17000,"use":"\u9e7f\u5c4b","zone":"","station":"\u5e97\u8217\u517c\u4f4f\u5b85"},"type":"Point","coordinates":[91920,83455],"id":"feature_119"},{"properties":{"price":16300,"use":"\u6795\u5d0e","zone":"","station":"\u4f4f\u5b85"},"type":"Point","coordinates":[68182,82370],"id":"feature_120"},{"properties":{"price":15900,"use":"\u6795\u5d0e","zone":"","station":"\u4f4f\u5b85"},"type":"Point","coordinates":[68326,82182],"id":"feature_121"},{"properties":{"price":21000,"use":"\u6795\u5d0e","zone":"","station":"\u4f4f\u5b85"},"type":"Point","coordinates":[68103,82270],"id":"feature_122"},{"properties":{"price":31400,"use":"\u6795\u5d0e","zone":"","station":"\u5e97\u8217\u517c\u5171\u540c\u4f4f\u5b85"},"type":"Point","coordinates":[68195,82272],"id":"feature_123"},{"properties":{"price":24400,"use":"\u6795\u5d0e","zone":"","station":"\u5e97\u8217\u517c\u4f4f\u5b85"},"type":"Point","coordinates":[67554,82248],"id":"feature_124"},{"properties":{"price":15000,"use":"\u963f\u4e45\u6839","zone":"","station":"\u4f4f\u5b85"},"type":"Point","coordinates":[64116,97663],"id":"feature_125"},{"properties":{"price":9480,"use":"\u963f\u4e45\u6839","zone":"","station":"\u4f4f\u5b85"},"type":"Point","coordinates":[64449,97833],"id":"feature_126"},{"properties":{"price":11700,"use":"\u963f\u4e45\u6839","zone":"","station":"\u4f4f\u5b85"},"type":"Point","coordinates":[64181,98040],"id":"feature_127"},{"properties":{"price":23000,"use":"\u963f\u4e45\u6839","zone":"","station":"\u8a3a\u7642\u6240\u517c\u4f4f\u5b85"},"type":"Point","coordinates":[64133,97806],"id":"feature_128"},{"properties":{"price":16900,"use":"\u51fa\u6c34","zone":"","station":"\u4f4f\u5b85"},"type":"Point","coordinates":[70363,99101],"id":"feature_129"},{"properties":{"price":12500,"use":"\u51fa\u6c34","zone":"","station":"\u4f4f\u5b85"},"type":"Point","coordinates":[69749,99999],"id":"feature_130"},{"properties":{"price":12600,"use":"\u51fa\u6c34","zone":"","station":"\u4f4f\u5b85"},"type":"Point","coordinates":[70854,99241],"id":"feature_131"},{"properties":{"price":31400,"use":"\u51fa\u6c34","zone":"","station":"\u5e97\u8217\u517c\u4e8b\u52d9\u6240"},"type":"Point","coordinates":[70360,99335],"id":"feature_132"},{"properties":{"price":24200,"use":"\u51fa\u6c34","zone":"","station":"\u5e97\u8217\u517c\u4f4f\u5b85"},"type":"Point","coordinates":[70482,99124],"id":"feature_133"},{"properties":{"price":18600,"use":"\u6307\u5bbf","zone":"","station":"\u4f4f\u5b85"},"type":"Point","coordinates":[82026,81426],"id":"feature_134"},{"properties":{"price":16800,"use":"\u6307\u5bbf","zone":"","station":"\u4f4f\u5b85"},"type":"Point","coordinates":[81516,81626],"id":"feature_135"},{"properties":{"price":24800,"use":"\u6307\u5bbf","zone":"","station":"\u4f4f\u5b85"},"type":"Point","coordinates":[81625,81535],"id":"feature_136"},{"properties":{"price":9750,"use":"\u6307\u5bbf","zone":"","station":"\u4f4f\u5b85"},"type":"Point","coordinates":[81617,80822],"id":"feature_137"},{"properties":{"price":8150,"use":"\u6307\u5bbf","zone":"","station":"\u4f4f\u5b85"},"type":"Point","coordinates":[80061,80758],"id":"feature_138"},{"properties":{"price":5150,"use":"\u6307\u5bbf","zone":"","station":"\u4f4f\u5b85"},"type":"Point","coordinates":[78483,80319],"id":"feature_139"},{"properties":{"price":4200,"use":"\u6307\u5bbf","zone":"","station":"\u4f4f\u5b85"},"type":"Point","coordinates":[78077,81091],"id":"feature_140"},{"properties":{"price":43700,"use":"\u6307\u5bbf","zone":"","station":"\u5e97\u8217\u517c\u4f4f\u5b85"},"type":"Point","coordinates":[81803,81562],"id":"feature_141"},{"properties":{"price":10800,"use":"\u6307\u5bbf","zone":"","station":"\u5e97\u8217\u517c\u4f4f\u5b85"},"type":"Point","coordinates":[77619,80868],"id":"feature_142"},{"properties":{"price":11400,"use":"\u6307\u5bbf","zone":"","station":"\u5e97\u8217\u517c\u4f4f\u5b85"},"type":"Point","coordinates":[81586,80869],"id":"feature_143"},{"properties":{"price":12100,"use":"\u897f\u4e4b\u8868","zone":"","station":"\u4f4f\u5b85"},"type":"Point","coordinates":[95501,70733],"id":"feature_144"},{"properties":{"price":18300,"use":"\u897f\u4e4b\u8868","zone":"","station":"\u4f4f\u5b85"},"type":"Point","coordinates":[95811,70928],"id":"feature_145"},{"properties":{"price":16700,"use":"\u897f\u4e4b\u8868","zone":"","station":"\u4f4f\u5b85"},"type":"Point","coordinates":[95849,71119],"id":"feature_146"},{"properties":{"price":51300,"use":"\u897f\u4e4b\u8868","zone":"","station":"\u5e97\u8217\u517c\u4f4f\u5b85"},"type":"Point","coordinates":[95782,70990],"id":"feature_147"},{"properties":{"price":35800,"use":"\u897f\u4e4b\u8868","zone":"","station":"\u5e97\u8217\u517c\u4f4f\u5b85"},"type":"Point","coordinates":[95781,70887],"id":"feature_148"},{"properties":{"price":9600,"use":"\u5782\u6c34","zone":"","station":"\u4f4f\u5b85"},"type":"Point","coordinates":[84096,87563],"id":"feature_149"},{"properties":{"price":15300,"use":"\u5782\u6c34","zone":"","station":"\u4f4f\u5b85"},"type":"Point","coordinates":[84219,86832],"id":"feature_150"},{"properties":{"price":26000,"use":"\u5782\u6c34","zone":"","station":"\u5e97\u8217\u517c\u4f4f\u5b85"},"type":"Point","coordinates":[84130,86857],"id":"feature_151"},{"properties":{"price":30900,"use":"\u85a9\u6469\u5ddd\u5185","zone":"","station":"\u4f4f\u5b85"},"type":"Point","coordinates":[68351,93827],"id":"feature_152"},{"properties":{"price":24800,"use":"\u85a9\u6469\u5ddd\u5185","zone":"","station":"\u4f4f\u5b85"},"type":"Point","coordinates":[67913,93781],"id":"feature_153"},{"properties":{"price":6780,"use":"\u85a9\u6469\u5ddd\u5185","zone":"","station":"\u4f4f\u5b85"},"type":"Point","coordinates":[73645,93832],"id":"feature_154"},{"properties":{"price":28400,"use":"\u85a9\u6469\u5ddd\u5185","zone":"","station":"\u4f4f\u5b85"},"type":"Point","coordinates":[69009,93673],"id":"feature_155"},{"properties":{"price":19800,"use":"\u85a9\u6469\u5ddd\u5185","zone":"","station":"\u4f4f\u5b85"},"type":"Point","coordinates":[69070,93313],"id":"feature_156"},{"properties":{"price":14900,"use":"\u85a9\u6469\u5ddd\u5185","zone":"","station":"\u4f4f\u5b85"},"type":"Point","coordinates":[72091,93027],"id":"feature_157"},{"properties":{"price":7560,"use":"\u85a9\u6469\u5ddd\u5185","zone":"","station":"\u4f4f\u5b85"},"type":"Point","coordinates":[71508,93791],"id":"feature_158"},{"properties":{"price":9600,"use":"\u85a9\u6469\u5ddd\u5185","zone":"","station":"\u4f4f\u5b85"},"type":"Point","coordinates":[73531,93660],"id":"feature_159"},{"properties":{"price":85000,"use":"\u85a9\u6469\u5ddd\u5185","zone":"","station":"\u5e97\u8217\u517c\u4f4f\u5b85"},"type":"Point","coordinates":[68410,93675],"id":"feature_160"},{"properties":{"price":60000,"use":"\u85a9\u6469\u5ddd\u5185","zone":"","station":"\u5e97\u8217\u517c\u4f4f\u5b85"},"type":"Point","coordinates":[68543,93623],"id":"feature_161"},{"properties":{"price":51300,"use":"\u85a9\u6469\u5ddd\u5185","zone":"","station":"\u4e8b\u52d9\u6240\u517c\u5de5\u5834"},"type":"Point","coordinates":[68699,94041],"id":"feature_162"},{"properties":{"price":22300,"use":"\u85a9\u6469\u5ddd\u5185","zone":"","station":"\u5e97\u8217"},"type":"Point","coordinates":[72541,93247],"id":"feature_163"},{"properties":{"price":12800,"use":"\u85a9\u6469\u5ddd\u5185","zone":"","station":"\u5e97\u8217\u517c\u4f4f\u5b85"},"type":"Point","coordinates":[73515,93364],"id":"feature_164"},{"properties":{"price":21900,"use":"\u65e5\u7f6e","zone":"","station":"\u4f4f\u5b85"},"type":"Point","coordinates":[69421,90644],"id":"feature_165"},{"properties":{"price":13800,"use":"\u65e5\u7f6e","zone":"","station":"\u4f4f\u5b85"},"type":"Point","coordinates":[69706,90522],"id":"feature_166"},{"properties":{"price":50500,"use":"\u65e5\u7f6e","zone":"","station":"\u4f4f\u5b85"},"type":"Point","coordinates":[72202,89824],"id":"feature_167"},{"properties":{"price":17400,"use":"\u65e5\u7f6e","zone":"","station":"\u4f4f\u5b85"},"type":"Point","coordinates":[72079,89594],"id":"feature_168"},{"properties":{"price":17400,"use":"\u65e5\u7f6e","zone":"","station":"\u4f4f\u5b85"},"type":"Point","coordinates":[70208,87195],"id":"feature_169"},{"properties":{"price":5230,"use":"\u65e5\u7f6e","zone":"","station":"\u4f4f\u5b85"},"type":"Point","coordinates":[70137,87522],"id":"feature_170"},{"properties":{"price":27600,"use":"\u65e5\u7f6e","zone":"","station":"\u9280\u884c"},"type":"Point","coordinates":[69593,90627],"id":"feature_171"},{"properties":{"price":64100,"use":"\u65e5\u7f6e","zone":"","station":"\u5e97\u8217\u517c\u5171\u540c\u4f4f\u5b85"},"type":"Point","coordinates":[72118,89787],"id":"feature_172"},{"properties":{"price":20100,"use":"\u65e5\u7f6e","zone":"","station":"\u5e97\u8217\u517c\u4f4f\u5b85"},"type":"Point","coordinates":[70186,87211],"id":"feature_173"},{"properties":{"price":6500,"use":"\u66fd\u65bc","zone":"","station":"\u4f4f\u5b85"},"type":"Point","coordinates":[95935,89017],"id":"feature_174"},{"properties":{"price":8140,"use":"\u66fd\u65bc","zone":"","station":"\u4f4f\u5b85"},"type":"Point","coordinates":[95373,89111],"id":"feature_175"},{"properties":{"price":8500,"use":"\u66fd\u65bc","zone":"","station":"\u4f4f\u5b85"},"type":"Point","coordinates":[96453,90101],"id":"feature_176"},{"properties":{"price":5680,"use":"\u66fd\u65bc","zone":"","station":"\u4f4f\u5b85"},"type":"Point","coordinates":[95367,91836],"id":"feature_177"},{"properties":{"price":11100,"use":"\u66fd\u65bc","zone":"","station":"\u4f4f\u5b85"},"type":"Point","coordinates":[96954,90205],"id":"feature_178"},{"properties":{"price":15200,"use":"\u66fd\u65bc","zone":"","station":"\u5e97\u8217\u517c\u4f4f\u5b85"},"type":"Point","coordinates":[95833,89004],"id":"feature_179"},{"properties":{"price":13200,"use":"\u66fd\u65bc","zone":"","station":"\u5e97\u8217\u517c\u4f4f\u5b85"},"type":"Point","coordinates":[95650,91777],"id":"feature_180"},{"properties":{"price":26800,"use":"\u66fd\u65bc","zone":"","station":"\u5e97\u8217\u517c\u4f4f\u5b85"},"type":"Point","coordinates":[96725,90284],"id":"feature_181"},{"properties":{"price":36900,"use":"\u9727\u5cf6","zone":"","station":"\u4f4f\u5b85"},"type":"Point","coordinates":[86953,92011],"id":"feature_182"},{"properties":{"price":24800,"use":"\u9727\u5cf6","zone":"","station":"\u4f4f\u5b85"},"type":"Point","coordinates":[87093,92145],"id":"feature_183"},{"properties":{"price":36600,"use":"\u9727\u5cf6","zone":"","station":"\u4f4f\u5b85"},"type":"Point","coordinates":[86084,91818],"id":"feature_184"},{"properties":{"price":16100,"use":"\u9727\u5cf6","zone":"","station":"\u4f4f\u5b85"},"type":"Point","coordinates":[84450,93267],"id":"feature_185"},{"properties":{"price":9350,"use":"\u9727\u5cf6","zone":"","station":"\u4f4f\u5b85"},"type":"Point","coordinates":[84131,93520],"id":"feature_186"},{"properties":{"price":10100,"use":"\u9727\u5cf6","zone":"","station":"\u4f4f\u5b85"},"type":"Point","coordinates":[84125,95463],"id":"feature_187"},{"properties":{"price":8590,"use":"\u9727\u5cf6","zone":"","station":"\u4f4f\u5b85"},"type":"Point","coordinates":[83702,95203],"id":"feature_188"},{"properties":{"price":12900,"use":"\u9727\u5cf6","zone":"","station":"\u4f4f\u5b85"},"type":"Point","coordinates":[88792,95008],"id":"feature_189"},{"properties":{"price":6300,"use":"\u9727\u5cf6","zone":"","station":"\u4f4f\u5b85"},"type":"Point","coordinates":[86558,94663],"id":"feature_190"},{"properties":{"price":34500,"use":"\u9727\u5cf6","zone":"","station":"\u4f4f\u5b85"},"type":"Point","coordinates":[85608,92147],"id":"feature_191"},{"properties":{"price":26800,"use":"\u9727\u5cf6","zone":"","station":"\u4f4f\u5b85"},"type":"Point","coordinates":[86298,92564],"id":"feature_192"},{"properties":{"price":10900,"use":"\u9727\u5cf6","zone":"","station":"\u4f4f\u5b85"},"type":"Point","coordinates":[90176,90590],"id":"feature_193"},{"properties":{"price":11000,"use":"\u9727\u5cf6","zone":"","station":"\u4f4f\u5b85"},"type":"Point","coordinates":[88625,90842],"id":"feature_194"},{"properties":{"price":78400,"use":"\u9727\u5cf6","zone":"","station":"\u9280\u884c"},"type":"Point","coordinates":[86714,92039],"id":"feature_195"},{"properties":{"price":13400,"use":"\u9727\u5cf6","zone":"","station":"\u5e97\u8217\u517c\u4f4f\u5b85"},"type":"Point","coordinates":[90023,90600],"id":"feature_196"},{"properties":{"price":52600,"use":"\u9727\u5cf6","zone":"","station":"\u5e97\u8217\u517c\u4f4f\u5b85"},"type":"Point","coordinates":[86586,91939],"id":"feature_197"},{"properties":{"price":34400,"use":"\u9727\u5cf6","zone":"","station":"\u5e97\u8217"},"type":"Point","coordinates":[84851,93191],"id":"feature_198"},{"properties":{"price":33900,"use":"\u9727\u5cf6","zone":"","station":"\u5e97\u8217\u517c\u4f4f\u5b85"},"type":"Point","coordinates":[86496,92720],"id":"feature_199"},{"properties":{"price":17100,"use":"\u9727\u5cf6","zone":"","station":"\u5e97\u8217\u517c\u4f4f\u5b85"},"type":"Point","coordinates":[88679,95099],"id":"feature_200"},{"properties":{"price":60100,"use":"\u9727\u5cf6","zone":"","station":"\u5e97\u8217\u3001\u4f5c\u696d\u6240\u517c\u4e8b\u52d9\u6240"},"type":"Point","coordinates":[85676,92006],"id":"feature_201"},{"properties":{"price":14400,"use":"\u9727\u5cf6","zone":"","station":"\u5e97\u8217\u517c\u4f4f\u5b85"},"type":"Point","coordinates":[84169,95490],"id":"feature_202"},{"properties":{"price":22600,"use":"\u3044\u3061\u304d\u4e32\u6728\u91ce","zone":"","station":"\u4f4f\u5b85"},"type":"Point","coordinates":[67156,91496],"id":"feature_203"},{"properties":{"price":22500,"use":"\u3044\u3061\u304d\u4e32\u6728\u91ce","zone":"","station":"\u4f4f\u5b85"},"type":"Point","coordinates":[66986,91672],"id":"feature_204"},{"properties":{"price":13600,"use":"\u3044\u3061\u304d\u4e32\u6728\u91ce","zone":"","station":"\u4f4f\u5b85"},"type":"Point","coordinates":[67958,91011],"id":"feature_205"},{"properties":{"price":17600,"use":"\u3044\u3061\u304d\u4e32\u6728\u91ce","zone":"","station":"\u4f4f\u5b85"},"type":"Point","coordinates":[68035,91029],"id":"feature_206"},{"properties":{"price":27900,"use":"\u3044\u3061\u304d\u4e32\u6728\u91ce","zone":"","station":"\u5e97\u8217\u517c\u4f4f\u5b85"},"type":"Point","coordinates":[66996,91594],"id":"feature_207"},{"properties":{"price":30700,"use":"\u3044\u3061\u304d\u4e32\u6728\u91ce","zone":"","station":"\u5e97\u8217\u517c\u4f4f\u5b85"},"type":"Point","coordinates":[67159,91653],"id":"feature_208"},{"properties":{"price":19700,"use":"\u3044\u3061\u304d\u4e32\u6728\u91ce","zone":"","station":"\u4e8b\u52d9\u6240"},"type":"Point","coordinates":[67935,91065],"id":"feature_209"},{"properties":{"price":27000,"use":"\u5357\u3055\u3064\u307e","zone":"","station":"\u4f4f\u5b85"},"type":"Point","coordinates":[69359,85294],"id":"feature_210"},{"properties":{"price":6880,"use":"\u5357\u3055\u3064\u307e","zone":"","station":"\u4f4f\u5b85"},"type":"Point","coordinates":[68612,85848],"id":"feature_211"},{"properties":{"price":16700,"use":"\u5357\u3055\u3064\u307e","zone":"","station":"\u4f4f\u5b85"},"type":"Point","coordinates":[68958,85498],"id":"feature_212"},{"properties":{"price":7550,"use":"\u5357\u3055\u3064\u307e","zone":"","station":"\u4f4f\u5b85"},"type":"Point","coordinates":[63917,85100],"id":"feature_213"},{"properties":{"price":2980,"use":"\u5357\u3055\u3064\u307e","zone":"","station":"\u4f4f\u5b85"},"type":"Point","coordinates":[63726,84913],"id":"feature_214"},{"properties":{"price":35800,"use":"\u5357\u3055\u3064\u307e","zone":"","station":"\u5e97\u8217"},"type":"Point","coordinates":[69033,85345],"id":"feature_215"},{"properties":{"price":32600,"use":"\u5357\u3055\u3064\u307e","zone":"","station":"\u5e97\u8217\u517c\u4f4f\u5b85"},"type":"Point","coordinates":[69056,85270],"id":"feature_216"},{"properties":{"price":12500,"use":"\u5fd7\u5e03\u5fd7","zone":"","station":"\u4f4f\u5b85"},"type":"Point","coordinates":[99999,86475],"id":"feature_217"},{"properties":{"price":9480,"use":"\u5fd7\u5e03\u5fd7","zone":"","station":"\u4f4f\u5b85"},"type":"Point","coordinates":[99680,86788],"id":"feature_218"},{"properties":{"price":3830,"use":"\u5fd7\u5e03\u5fd7","zone":"","station":"\u7a7a\u5730"},"type":"Point","coordinates":[97319,88654],"id":"feature_219"},{"properties":{"price":27700,"use":"\u5fd7\u5e03\u5fd7","zone":"","station":"\u5e97\u8217\u517c\u4e8b\u52d9\u6240"},"type":"Point","coordinates":[99824,86502],"id":"feature_220"},{"properties":{"price":62400,"use":"\u5944\u7f8e","zone":"","station":"\u4f4f\u5b85"},"type":"Point","coordinates":[37742,22153],"id":"feature_221"},{"properties":{"price":72500,"use":"\u5944\u7f8e","zone":"","station":"\u4f4f\u5b85"},"type":"Point","coordinates":[36306,22164],"id":"feature_222"},{"properties":{"price":114000,"use":"\u5944\u7f8e","zone":"","station":"\u4f4f\u5b85"},"type":"Point","coordinates":[36510,21779],"id":"feature_223"},{"properties":{"price":155000,"use":"\u5944\u7f8e","zone":"","station":"\u5e97\u8217"},"type":"Point","coordinates":[36395,21795],"id":"feature_224"},{"properties":{"price":162000,"use":"\u5944\u7f8e","zone":"","station":"\u5e97\u8217\u517c\u4f4f\u5b85"},"type":"Point","coordinates":[36297,21854],"id":"feature_225"},{"properties":{"price":8650,"use":"\u5357\u4e5d\u5dde","zone":"","station":"\u4f4f\u5b85"},"type":"Point","coordinates":[76020,81635],"id":"feature_226"},{"properties":{"price":6320,"use":"\u5357\u4e5d\u5dde","zone":"","station":"\u4f4f\u5b85"},"type":"Point","coordinates":[72734,81911],"id":"feature_227"},{"properties":{"price":17500,"use":"\u5357\u4e5d\u5dde","zone":"","station":"\u4f4f\u5b85"},"type":"Point","coordinates":[73767,84472],"id":"feature_228"},{"properties":{"price":8190,"use":"\u5357\u4e5d\u5dde","zone":"","station":"\u4f4f\u5b85"},"type":"Point","coordinates":[73997,84548],"id":"feature_229"},{"properties":{"price":18400,"use":"\u5357\u4e5d\u5dde","zone":"","station":"\u4f4f\u5b85"},"type":"Point","coordinates":[72127,84751],"id":"feature_230"},{"properties":{"price":13600,"use":"\u5357\u4e5d\u5dde","zone":"","station":"\u4f4f\u5b85"},"type":"Point","coordinates":[71387,84824],"id":"feature_231"},{"properties":{"price":15800,"use":"\u5357\u4e5d\u5dde","zone":"","station":"\u9280\u884c"},"type":"Point","coordinates":[75963,81604],"id":"feature_232"},{"properties":{"price":25300,"use":"\u5357\u4e5d\u5dde","zone":"","station":"\u5e97\u8217\u517c\u4f4f\u5b85"},"type":"Point","coordinates":[73746,84460],"id":"feature_233"},{"properties":{"price":25900,"use":"\u5357\u4e5d\u5dde","zone":"","station":"\u5e97\u8217\u517c\u4f4f\u5b85"},"type":"Point","coordinates":[72065,84779],"id":"feature_234"},{"properties":{"price":13600,"use":"\u4f0a\u4f50","zone":"","station":"\u4f4f\u5b85"},"type":"Point","coordinates":[80667,98798],"id":"feature_235"},{"properties":{"price":11000,"use":"\u4f0a\u4f50","zone":"","station":"\u4f4f\u5b85"},"type":"Point","coordinates":[80234,98958],"id":"feature_236"},{"properties":{"price":21500,"use":"\u4f0a\u4f50","zone":"","station":"\u4f4f\u5b85"},"type":"Point","coordinates":[80412,98697],"id":"feature_237"},{"properties":{"price":29600,"use":"\u4f0a\u4f50","zone":"","station":"\u5e97\u8217\u517c\u5171\u540c\u4f4f\u5b85"},"type":"Point","coordinates":[80429,98744],"id":"feature_238"},{"properties":{"price":34400,"use":"\u59f6\u826f","zone":"","station":"\u4f4f\u5b85"},"type":"Point","coordinates":[82877,91989],"id":"feature_239"},{"properties":{"price":27300,"use":"\u59f6\u826f","zone":"","station":"\u4f4f\u5b85"},"type":"Point","coordinates":[82534,92111],"id":"feature_240"},{"properties":{"price":39300,"use":"\u59f6\u826f","zone":"","station":"\u4f4f\u5b85"},"type":"Point","coordinates":[81071,91706],"id":"feature_241"},{"properties":{"price":32300,"use":"\u59f6\u826f","zone":"","station":"\u4f4f\u5b85"},"type":"Point","coordinates":[80660,91561],"id":"feature_242"},{"properties":{"price":12300,"use":"\u59f6\u826f","zone":"","station":"\u4f4f\u5b85"},"type":"Point","coordinates":[79046,92547],"id":"feature_243"},{"properties":{"price":42100,"use":"\u59f6\u826f","zone":"","station":"\u5e97\u8217\u517c\u4f4f\u5b85"},"type":"Point","coordinates":[82713,91965],"id":"feature_244"},{"properties":{"price":48800,"use":"\u59f6\u826f","zone":"","station":"\u5e97\u8217"},"type":"Point","coordinates":[81998,91954],"id":"feature_245"},{"properties":{"price":47100,"use":"\u59f6\u826f","zone":"","station":"\u5e97\u8217"},"type":"Point","coordinates":[81054,91736],"id":"feature_246"},{"properties":{"price":20500,"use":"\u59f6\u826f","zone":"","station":"\u5e97\u8217\u517c\u4f4f\u5b85"},"type":"Point","coordinates":[79015,92500],"id":"feature_247"},{"properties":{"price":17000,"use":"\u3055\u3064\u307e","zone":"","station":"\u4f4f\u5b85"},"type":"Point","coordinates":[74482,95635],"id":"feature_248"},{"properties":{"price":13100,"use":"\u3055\u3064\u307e","zone":"","station":"\u4f4f\u5b85"},"type":"Point","coordinates":[74165,95266],"id":"feature_249"},{"properties":{"price":23500,"use":"\u3055\u3064\u307e","zone":"","station":"\u5e97\u8217\u517c\u4f4f\u5b85"},"type":"Point","coordinates":[74305,95484],"id":"feature_250"},{"properties":{"price":15200,"use":"\u6e67\u6c34","zone":"","station":"\u4f4f\u5b85"},"type":"Point","coordinates":[84872,96434],"id":"feature_251"},{"properties":{"price":9630,"use":"\u6e67\u6c34","zone":"","station":"\u4f4f\u5b85"},"type":"Point","coordinates":[85077,96460],"id":"feature_252"},{"properties":{"price":8450,"use":"\u6e67\u6c34","zone":"","station":"\u4f4f\u5b85"},"type":"Point","coordinates":[85698,97722],"id":"feature_253"},{"properties":{"price":2810,"use":"\u6e67\u6c34","zone":"","station":"\u4f4f\u5b85"},"type":"Point","coordinates":[85498,98060],"id":"feature_254"},{"properties":{"price":19600,"use":"\u6e67\u6c34","zone":"","station":"\u5e97\u8217\u517c\u4f4f\u5b85"},"type":"Point","coordinates":[84998,96482],"id":"feature_255"},{"properties":{"price":7070,"use":"\u5927\u5d0e","zone":"","station":"\u4f4f\u5b85"},"type":"Point","coordinates":[96113,85504],"id":"feature_256"},{"properties":{"price":3560,"use":"\u5927\u5d0e","zone":"","station":"\u4f4f\u5b85"},"type":"Point","coordinates":[96786,85724],"id":"feature_257"},{"properties":{"price":9820,"use":"\u9326\u6c5f","zone":"","station":"\u4f4f\u5b85"},"type":"Point","coordinates":[87453,81678],"id":"feature_258"},{"properties":{"price":8600,"use":"\u9326\u6c5f","zone":"","station":"\u4f4f\u5b85"},"type":"Point","coordinates":[87604,81656],"id":"feature_259"},{"properties":{"price":14800,"use":"\u9326\u6c5f","zone":"","station":"\u4e8b\u52d9\u6240\u517c\u4f4f\u5b85"},"type":"Point","coordinates":[87554,81706],"id":"feature_260"},{"properties":{"price":9200,"use":"\u5357\u5927\u9685","zone":"","station":"\u4f4f\u5b85"},"type":"Point","coordinates":[86856,81091],"id":"feature_261"},{"properties":{"price":7950,"use":"\u809d\u4ed8","zone":"","station":"\u4f4f\u5b85"},"type":"Point","coordinates":[93728,83777],"id":"feature_262"},{"properties":{"price":6600,"use":"\u809d\u4ed8","zone":"","station":"\u4f4f\u5b85"},"type":"Point","coordinates":[93435,83860],"id":"feature_263"},{"properties":{"price":13500,"use":"\u809d\u4ed8","zone":"","station":"\u5e97\u8217\u517c\u4f4f\u5b85"},"type":"Point","coordinates":[93792,83835],"id":"feature_264"},{"properties":{"price":12400,"use":"\u4e2d\u7a2e\u5b50","zone":"","station":"\u4f4f\u5b85"},"type":"Point","coordinates":[94459,66926],"id":"feature_265"},{"properties":{"price":3830,"use":"\u4e2d\u7a2e\u5b50","zone":"","station":"\u4f4f\u5b85"},"type":"Point","coordinates":[94570,66511],"id":"feature_266"},{"properties":{"price":21300,"use":"\u4e2d\u7a2e\u5b50","zone":"","station":"\u5e97\u8217\u517c\u4f4f\u5b85"},"type":"Point","coordinates":[94363,66859],"id":"feature_267"},{"properties":{"price":11900,"use":"\u5357\u7a2e\u5b50","zone":"","station":"\u4f4f\u5b85"},"type":"Point","coordinates":[91932,64397],"id":"feature_268"},{"properties":{"price":5140,"use":"\u5357\u7a2e\u5b50","zone":"","station":"\u4f4f\u5b85"},"type":"Point","coordinates":[93580,63906],"id":"feature_269"},{"properties":{"price":18100,"use":"\u5357\u7a2e\u5b50","zone":"","station":"\u5e97\u8217\u517c\u4f4f\u5b85"},"type":"Point","coordinates":[92118,64393],"id":"feature_270"},{"properties":{"price":13600,"use":"\u5c4b\u4e45\u5cf6","zone":"","station":"\u4f4f\u5b85"},"type":"Point","coordinates":[78937,64519],"id":"feature_271"},{"properties":{"price":5180,"use":"\u5c4b\u4e45\u5cf6","zone":"","station":"\u4f4f\u5b85"},"type":"Point","coordinates":[79949,64336],"id":"feature_272"},{"properties":{"price":7980,"use":"\u5c4b\u4e45\u5cf6","zone":"","station":"\u4f4f\u5b85"},"type":"Point","coordinates":[82213,62270],"id":"feature_273"},{"properties":{"price":3980,"use":"\u5c4b\u4e45\u5cf6","zone":"","station":"\u4f4f\u5b85"},"type":"Point","coordinates":[81884,62217],"id":"feature_274"},{"properties":{"price":18900,"use":"\u5c4b\u4e45\u5cf6","zone":"","station":"\u5e97\u8217\u517c\u4f4f\u5b85"},"type":"Point","coordinates":[82295,62248],"id":"feature_275"},{"properties":{"price":42600,"use":"\u702c\u6238\u5185","zone":"","station":"\u4f4f\u5b85"},"type":"Point","coordinates":[29119,16997],"id":"feature_276"},{"properties":{"price":24600,"use":"\u702c\u6238\u5185","zone":"","station":"\u4f4f\u5b85"},"type":"Point","coordinates":[29132,17095],"id":"feature_277"},{"properties":{"price":62900,"use":"\u702c\u6238\u5185","zone":"","station":"\u5e97\u8217\u517c\u4f4f\u5b85"},"type":"Point","coordinates":[29079,16980],"id":"feature_278"},{"properties":{"price":11100,"use":"\u9f8d\u90f7","zone":"","station":"\u4f4f\u5b85"},"type":"Point","coordinates":[39905,22155],"id":"feature_279"},{"properties":{"price":17200,"use":"\u9f8d\u90f7","zone":"","station":"\u4f4f\u5b85"},"type":"Point","coordinates":[40114,22562],"id":"feature_280"},{"properties":{"price":9130,"use":"\u559c\u754c","zone":"","station":"\u4f4f\u5b85"},"type":"Point","coordinates":[53690,20565],"id":"feature_281"},{"properties":{"price":6660,"use":"\u559c\u754c","zone":"","station":"\u4f4f\u5b85"},"type":"Point","coordinates":[54162,20653],"id":"feature_282"},{"properties":{"price":38000,"use":"\u5fb3\u4e4b\u5cf6","zone":"","station":"\u4f4f\u5b85"},"type":"Point","coordinates":[17674,8405],"id":"feature_283"},{"properties":{"price":23100,"use":"\u5fb3\u4e4b\u5cf6","zone":"","station":"\u4f4f\u5b85"},"type":"Point","coordinates":[17414,8206],"id":"feature_284"},{"properties":{"price":14900,"use":"\u5929\u57ce","zone":"","station":"\u4f4f\u5b85"},"type":"Point","coordinates":[12687,9958],"id":"feature_285"},{"properties":{"price":5000,"use":"\u5929\u57ce","zone":"","station":"\u4f4f\u5b85"},"type":"Point","coordinates":[12550,10351],"id":"feature_286"},{"properties":{"price":13300,"use":"\u548c\u6cca","zone":"","station":"\u4f4f\u5b85"},"type":"Point","coordinates":[3118,1208],"id":"feature_287"},{"properties":{"price":11300,"use":"\u548c\u6cca","zone":"","station":"\u4f4f\u5b85"},"type":"Point","coordinates":[3371,1375],"id":"feature_288"},{"properties":{"price":11100,"use":"\u77e5\u540d","zone":"","station":"\u4f4f\u5b85"},"type":"Point","coordinates":[0,0],"id":"feature_289"},{"properties":{"price":7330,"use":"\u77e5\u540d","zone":"","station":"\u4f4f\u5b85"},"type":"Point","coordinates":[158,75],"id":"feature_290"}],"type":"GeometryCollection"}},"bbox":[128.57553,27.3353,131.10245,32.12043],"transform":{"scale":[2.526945269452713e-05,4.7851778517785164e-05],"translate":[128.57553,27.3353]},"arcs":[]}