{"type":"Topology","objects":{"data":{"geometries":[{"properties":{"price":74200,"use":"\u79cb\u7530","zone":"","station":"\u4f4f\u5b85"},"type":"Point","coordinates":[30124,47640],"id":"feature_000"},{"properties":{"price":71200,"use":"\u79cb\u7530","zone":"","station":"\u4f4f\u5b85"},"type":"Point","coordinates":[30189,48110],"id":"feature_001"},{"properties":{"price":11700,"use":"\u79cb\u7530","zone":"","station":"\u4f4f\u5b85"},"type":"Point","coordinates":[22147,54944],"id":"feature_002"},{"properties":{"price":51300,"use":"\u79cb\u7530","zone":"","station":"\u4f4f\u5b85"},"type":"Point","coordinates":[28378,48750],"id":"feature_003"},{"properties":{"price":75800,"use":"\u79cb\u7530","zone":"","station":"\u4f4f\u5b85"},"type":"Point","coordinates":[28048,48438],"id":"feature_004"},{"properties":{"price":37000,"use":"\u79cb\u7530","zone":"","station":"\u4f4f\u5b85"},"type":"Point","coordinates":[29023,48682],"id":"feature_005"},{"properties":{"price":37800,"use":"\u79cb\u7530","zone":"","station":"\u4f4f\u5b85"},"type":"Point","coordinates":[32978,43441],"id":"feature_006"},{"properties":{"price":55900,"use":"\u79cb\u7530","zone":"","station":"\u4f4f\u5b85"},"type":"Point","coordinates":[26298,47599],"id":"feature_007"},{"properties":{"price":56400,"use":"\u79cb\u7530","zone":"","station":"\u4f4f\u5b85"},"type":"Point","coordinates":[28781,47219],"id":"feature_008"},{"properties":{"price":42800,"use":"\u79cb\u7530","zone":"","station":"\u4f4f\u5b85"},"type":"Point","coordinates":[27470,46742],"id":"feature_009"},{"properties":{"price":59900,"use":"\u79cb\u7530","zone":"","station":"\u4f4f\u5b85"},"type":"Point","coordinates":[25198,47991],"id":"feature_010"},{"properties":{"price":47400,"use":"\u79cb\u7530","zone":"","station":"\u4f4f\u5b85"},"type":"Point","coordinates":[31448,47912],"id":"feature_011"},{"properties":{"price":13600,"use":"\u79cb\u7530","zone":"","station":"\u4f4f\u5b85"},"type":"Point","coordinates":[21737,56880],"id":"feature_012"},{"properties":{"price":45800,"use":"\u79cb\u7530","zone":"","station":"\u4f4f\u5b85"},"type":"Point","coordinates":[31506,48917],"id":"feature_013"},{"properties":{"price":43300,"use":"\u79cb\u7530","zone":"","station":"\u4f4f\u5b85"},"type":"Point","coordinates":[26337,47101],"id":"feature_014"},{"properties":{"price":41000,"use":"\u79cb\u7530","zone":"","station":"\u4f4f\u5b85"},"type":"Point","coordinates":[24580,50430],"id":"feature_015"},{"properties":{"price":33800,"use":"\u79cb\u7530","zone":"","station":"\u4f4f\u5b85"},"type":"Point","coordinates":[29271,49251],"id":"feature_016"},{"properties":{"price":37100,"use":"\u79cb\u7530","zone":"","station":"\u4f4f\u5b85"},"type":"Point","coordinates":[28519,44776],"id":"feature_017"},{"properties":{"price":73000,"use":"\u79cb\u7530","zone":"","station":"\u4f4f\u5b85"},"type":"Point","coordinates":[27670,49261],"id":"feature_018"},{"properties":{"price":29300,"use":"\u79cb\u7530","zone":"","station":"\u4f4f\u5b85"},"type":"Point","coordinates":[25129,44935],"id":"feature_019"},{"properties":{"price":26200,"use":"\u79cb\u7530","zone":"","station":"\u4f4f\u5b85"},"type":"Point","coordinates":[23498,50073],"id":"feature_020"},{"properties":{"price":26100,"use":"\u79cb\u7530","zone":"","station":"\u4f4f\u5b85"},"type":"Point","coordinates":[22927,52801],"id":"feature_021"},{"properties":{"price":10800,"use":"\u79cb\u7530","zone":"","station":"\u4f4f\u5b85"},"type":"Point","coordinates":[37300,42031],"id":"feature_022"},{"properties":{"price":27600,"use":"\u79cb\u7530","zone":"","station":"\u4f4f\u5b85"},"type":"Point","coordinates":[23522,46430],"id":"feature_023"},{"properties":{"price":31600,"use":"\u79cb\u7530","zone":"","station":"\u4f4f\u5b85"},"type":"Point","coordinates":[24777,52558],"id":"feature_024"},{"properties":{"price":4920,"use":"\u79cb\u7530","zone":"","station":"\u4f4f\u5b85"},"type":"Point","coordinates":[22971,58370],"id":"feature_025"},{"properties":{"price":37900,"use":"\u79cb\u7530","zone":"","station":"\u4f4f\u5b85"},"type":"Point","coordinates":[30447,49403],"id":"feature_026"},{"properties":{"price":53900,"use":"\u79cb\u7530","zone":"","station":"\u4f4f\u5b85"},"type":"Point","coordinates":[29183,48809],"id":"feature_027"},{"properties":{"price":68100,"use":"\u79cb\u7530","zone":"","station":"\u4f4f\u5b85"},"type":"Point","coordinates":[26444,48717],"id":"feature_028"},{"properties":{"price":29400,"use":"\u79cb\u7530","zone":"","station":"\u4f4f\u5b85"},"type":"Point","coordinates":[26127,45872],"id":"feature_029"},{"properties":{"price":41300,"use":"\u79cb\u7530","zone":"","station":"\u4f4f\u5b85"},"type":"Point","coordinates":[29927,47339],"id":"feature_030"},{"properties":{"price":43200,"use":"\u79cb\u7530","zone":"","station":"\u4f4f\u5b85"},"type":"Point","coordinates":[26614,50297],"id":"feature_031"},{"properties":{"price":15800,"use":"\u79cb\u7530","zone":"","station":"\u4f4f\u5b85"},"type":"Point","coordinates":[27824,44885],"id":"feature_032"},{"properties":{"price":26900,"use":"\u79cb\u7530","zone":"","station":"\u4f4f\u5b85"},"type":"Point","coordinates":[24184,45619],"id":"feature_033"},{"properties":{"price":38200,"use":"\u79cb\u7530","zone":"","station":"\u4f4f\u5b85"},"type":"Point","coordinates":[28784,46211],"id":"feature_034"},{"properties":{"price":4130,"use":"\u79cb\u7530","zone":"","station":"\u4f4f\u5b85"},"type":"Point","coordinates":[42142,44423],"id":"feature_035"},{"properties":{"price":31600,"use":"\u79cb\u7530","zone":"","station":"\u4f4f\u5b85"},"type":"Point","coordinates":[24783,51084],"id":"feature_036"},{"properties":{"price":31400,"use":"\u79cb\u7530","zone":"","station":"\u4f4f\u5b85"},"type":"Point","coordinates":[31753,46870],"id":"feature_037"},{"properties":{"price":41800,"use":"\u79cb\u7530","zone":"","station":"\u4f4f\u5b85"},"type":"Point","coordinates":[28538,46755],"id":"feature_038"},{"properties":{"price":26500,"use":"\u79cb\u7530","zone":"","station":"\u4f4f\u5b85"},"type":"Point","coordinates":[29622,50017],"id":"feature_039"},{"properties":{"price":32800,"use":"\u79cb\u7530","zone":"","station":"\u7a7a\u5730"},"type":"Point","coordinates":[24891,49737],"id":"feature_040"},{"properties":{"price":29600,"use":"\u79cb\u7530","zone":"","station":"\u4f4f\u5b85"},"type":"Point","coordinates":[30289,48597],"id":"feature_041"},{"properties":{"price":37600,"use":"\u79cb\u7530","zone":"","station":"\u4f4f\u5b85"},"type":"Point","coordinates":[26861,46076],"id":"feature_042"},{"properties":{"price":32800,"use":"\u79cb\u7530","zone":"","station":"\u4f4f\u5b85"},"type":"Point","coordinates":[26749,45401],"id":"feature_043"},{"properties":{"price":27800,"use":"\u79cb\u7530","zone":"","station":"\u4f4f\u5b85"},"type":"Point","coordinates":[30925,47129],"id":"feature_044"},{"properties":{"price":4630,"use":"\u79cb\u7530","zone":"","station":"\u4f4f\u5b85"},"type":"Point","coordinates":[39904,49762],"id":"feature_045"},{"properties":{"price":8530,"use":"\u79cb\u7530","zone":"","station":"\u4f4f\u5b85"},"type":"Point","coordinates":[30419,43021],"id":"feature_046"},{"properties":{"price":11100,"use":"\u79cb\u7530","zone":"","station":"\u4f4f\u5b85"},"type":"Point","coordinates":[22915,43303],"id":"feature_047"},{"properties":{"price":10100,"use":"\u79cb\u7530","zone":"","station":"\u4f4f\u5b85"},"type":"Point","coordinates":[33360,40223],"id":"feature_048"},{"properties":{"price":25300,"use":"\u79cb\u7530","zone":"","station":"\u4f4f\u5b85"},"type":"Point","coordinates":[32660,48816],"id":"feature_049"},{"properties":{"price":3850,"use":"\u79cb\u7530","zone":"","station":"\u4f4f\u5b85"},"type":"Point","coordinates":[37433,35838],"id":"feature_050"},{"properties":{"price":10000,"use":"\u79cb\u7530","zone":"","station":"\u4f4f\u5b85"},"type":"Point","coordinates":[33669,48016],"id":"feature_051"},{"properties":{"price":6360,"use":"\u79cb\u7530","zone":"","station":"\u4f4f\u5b85"},"type":"Point","coordinates":[33697,49914],"id":"feature_052"},{"properties":{"price":5380,"use":"\u79cb\u7530","zone":"","station":"\u4f4f\u5b85"},"type":"Point","coordinates":[29638,40549],"id":"feature_053"},{"properties":{"price":64900,"use":"\u79cb\u7530","zone":"","station":"\u4f4f\u5b85"},"type":"Point","coordinates":[26300,48989],"id":"feature_054"},{"properties":{"price":56300,"use":"\u79cb\u7530","zone":"","station":"\u4f4f\u5b85"},"type":"Point","coordinates":[26859,47419],"id":"feature_055"},{"properties":{"price":40200,"use":"\u79cb\u7530","zone":"","station":"\u4f4f\u5b85"},"type":"Point","coordinates":[25466,50668],"id":"feature_056"},{"properties":{"price":26800,"use":"\u79cb\u7530","zone":"","station":"\u4f4f\u5b85"},"type":"Point","coordinates":[24237,46186],"id":"feature_057"},{"properties":{"price":36400,"use":"\u79cb\u7530","zone":"","station":"\u4f4f\u5b85"},"type":"Point","coordinates":[29132,45798],"id":"feature_058"},{"properties":{"price":4900,"use":"\u79cb\u7530","zone":"","station":"\u7551"},"type":"Point","coordinates":[22737,52653],"id":"feature_059"},{"properties":{"price":182000,"use":"\u79cb\u7530","zone":"","station":"\u5e97\u8217"},"type":"Point","coordinates":[29043,47912],"id":"feature_060"},{"properties":{"price":63300,"use":"\u79cb\u7530","zone":"","station":"\u5e97\u8217"},"type":"Point","coordinates":[29062,47808],"id":"feature_061"},{"properties":{"price":66200,"use":"\u79cb\u7530","zone":"","station":"\u5e97\u8217"},"type":"Point","coordinates":[31211,47842],"id":"feature_062"},{"properties":{"price":31300,"use":"\u79cb\u7530","zone":"","station":"\u5e97\u8217\u517c\u4f4f\u5b85"},"type":"Point","coordinates":[25144,45398],"id":"feature_063"},{"properties":{"price":52300,"use":"\u79cb\u7530","zone":"","station":"\u5e97\u8217"},"type":"Point","coordinates":[25771,48106],"id":"feature_064"},{"properties":{"price":61100,"use":"\u79cb\u7530","zone":"","station":"\u4e8b\u52d9\u6240"},"type":"Point","coordinates":[27926,47959],"id":"feature_065"},{"properties":{"price":53900,"use":"\u79cb\u7530","zone":"","station":"\u5e97\u8217"},"type":"Point","coordinates":[27913,47723],"id":"feature_066"},{"properties":{"price":54400,"use":"\u79cb\u7530","zone":"","station":"\u30db\u30c6\u30eb"},"type":"Point","coordinates":[27736,47980],"id":"feature_067"},{"properties":{"price":85600,"use":"\u79cb\u7530","zone":"","station":"\u5e97\u8217"},"type":"Point","coordinates":[28590,47979],"id":"feature_068"},{"properties":{"price":34400,"use":"\u79cb\u7530","zone":"","station":"\u5e97\u8217"},"type":"Point","coordinates":[23069,50955],"id":"feature_069"},{"properties":{"price":16900,"use":"\u79cb\u7530","zone":"","station":"\u4e8b\u52d9\u6240"},"type":"Point","coordinates":[38210,42633],"id":"feature_070"},{"properties":{"price":34100,"use":"\u79cb\u7530","zone":"","station":"\u5e97\u8217"},"type":"Point","coordinates":[28764,44298],"id":"feature_071"},{"properties":{"price":62600,"use":"\u79cb\u7530","zone":"","station":"\u5e97\u8217"},"type":"Point","coordinates":[27871,48335],"id":"feature_072"},{"properties":{"price":20900,"use":"\u79cb\u7530","zone":"","station":"\u4e8b\u52d9\u6240\u517c\u5009\u5eab"},"type":"Point","coordinates":[27212,46432],"id":"feature_073"},{"properties":{"price":49900,"use":"\u79cb\u7530","zone":"","station":"\u5e97\u8217\u517c\u4e8b\u52d9\u6240"},"type":"Point","coordinates":[25618,47530],"id":"feature_074"},{"properties":{"price":59900,"use":"\u79cb\u7530","zone":"","station":"\u4e8b\u52d9\u6240"},"type":"Point","coordinates":[28480,47720],"id":"feature_075"},{"properties":{"price":56000,"use":"\u79cb\u7530","zone":"","station":"\u4e8b\u52d9\u6240"},"type":"Point","coordinates":[26901,47875],"id":"feature_076"},{"properties":{"price":36300,"use":"\u79cb\u7530","zone":"","station":"\u4e8b\u52d9\u6240\u517c\u5009\u5eab"},"type":"Point","coordinates":[25001,47966],"id":"feature_077"},{"properties":{"price":42300,"use":"\u79cb\u7530","zone":"","station":"\u5e97\u8217"},"type":"Point","coordinates":[26006,50959],"id":"feature_078"},{"properties":{"price":50400,"use":"\u79cb\u7530","zone":"","station":"\u5e97\u8217\u3001\u4e8b\u52d9\u6240\u517c\u5171\u540c\u4f4f\u5b85"},"type":"Point","coordinates":[26468,49702],"id":"feature_079"},{"properties":{"price":18300,"use":"\u79cb\u7530","zone":"","station":"\u4e8b\u52d9\u6240\u517c\u5009\u5eab"},"type":"Point","coordinates":[23241,50158],"id":"feature_080"},{"properties":{"price":58300,"use":"\u79cb\u7530","zone":"","station":"\u5e97\u8217\u517c\u4f4f\u5b85"},"type":"Point","coordinates":[28235,48358],"id":"feature_081"},{"properties":{"price":11600,"use":"\u79cb\u7530","zone":"","station":"\u5e97\u8217\u517c\u4f4f\u5b85"},"type":"Point","coordinates":[33123,37332],"id":"feature_082"},{"properties":{"price":81500,"use":"\u79cb\u7530","zone":"","station":"\u5e97\u8217\u517c\u4e8b\u52d9\u6240"},"type":"Point","coordinates":[29092,48166],"id":"feature_083"},{"properties":{"price":44800,"use":"\u79cb\u7530","zone":"","station":"\u5e97\u8217"},"type":"Point","coordinates":[32137,43483],"id":"feature_084"},{"properties":{"price":78300,"use":"\u79cb\u7530","zone":"","station":"\u5e97\u8217"},"type":"Point","coordinates":[29540,47901],"id":"feature_085"},{"properties":{"price":7680,"use":"\u79cb\u7530","zone":"","station":"\u5009\u5eab\u517c\u4e8b\u52d9\u6240"},"type":"Point","coordinates":[21971,52237],"id":"feature_086"},{"properties":{"price":6600,"use":"\u79cb\u7530","zone":"","station":"\u5de5\u5834\u517c\u4e8b\u52d9\u6240"},"type":"Point","coordinates":[33494,42565],"id":"feature_087"},{"properties":{"price":10400,"use":"\u79cb\u7530","zone":"","station":"\u5de5\u5834\u517c\u4e8b\u52d9\u6240"},"type":"Point","coordinates":[25887,44902],"id":"feature_088"},{"properties":{"price":13400,"use":"\u79cb\u7530","zone":"","station":"\u5009\u5eab\u517c\u4e8b\u52d9\u6240"},"type":"Point","coordinates":[33342,42969],"id":"feature_089"},{"properties":{"price":17100,"use":"\u80fd\u4ee3","zone":"","station":"\u4f4f\u5b85"},"type":"Point","coordinates":[18132,89355],"id":"feature_090"},{"properties":{"price":6850,"use":"\u80fd\u4ee3","zone":"","station":"\u4f4f\u5b85"},"type":"Point","coordinates":[20715,91326],"id":"feature_091"},{"properties":{"price":16100,"use":"\u80fd\u4ee3","zone":"","station":"\u4f4f\u5b85"},"type":"Point","coordinates":[18185,88713],"id":"feature_092"},{"properties":{"price":10400,"use":"\u80fd\u4ee3","zone":"","station":"\u4f4f\u5b85"},"type":"Point","coordinates":[40223,90148],"id":"feature_093"},{"properties":{"price":11300,"use":"\u80fd\u4ee3","zone":"","station":"\u4f4f\u5b85"},"type":"Point","coordinates":[40350,89680],"id":"feature_094"},{"properties":{"price":3860,"use":"\u80fd\u4ee3","zone":"","station":"\u5e97\u8217\u517c\u4f4f\u5b85"},"type":"Point","coordinates":[27554,86643],"id":"feature_095"},{"properties":{"price":22000,"use":"\u80fd\u4ee3","zone":"","station":"\u5e97\u8217\u517c\u4f4f\u5b85"},"type":"Point","coordinates":[18771,89828],"id":"feature_096"},{"properties":{"price":19400,"use":"\u80fd\u4ee3","zone":"","station":"\u5e97\u8217"},"type":"Point","coordinates":[20231,88098],"id":"feature_097"},{"properties":{"price":20400,"use":"\u6a2a\u624b","zone":"","station":"\u4f4f\u5b85"},"type":"Point","coordinates":[72998,14438],"id":"feature_098"},{"properties":{"price":22800,"use":"\u6a2a\u624b","zone":"","station":"\u7a7a\u5730"},"type":"Point","coordinates":[74638,13263],"id":"feature_099"},{"properties":{"price":24400,"use":"\u6a2a\u624b","zone":"","station":"\u4f4f\u5b85"},"type":"Point","coordinates":[72036,12989],"id":"feature_100"},{"properties":{"price":8300,"use":"\u6a2a\u624b","zone":"","station":"\u4f4f\u5b85"},"type":"Point","coordinates":[70913,4327],"id":"feature_101"},{"properties":{"price":6030,"use":"\u6a2a\u624b","zone":"","station":"\u4f4f\u5b85"},"type":"Point","coordinates":[71695,4197],"id":"feature_102"},{"properties":{"price":4760,"use":"\u6a2a\u624b","zone":"","station":"\u4f4f\u5b85"},"type":"Point","coordinates":[64927,10304],"id":"feature_103"},{"properties":{"price":5960,"use":"\u6a2a\u624b","zone":"","station":"\u4f4f\u5b85"},"type":"Point","coordinates":[64865,9196],"id":"feature_104"},{"properties":{"price":12700,"use":"\u6a2a\u624b","zone":"","station":"\u4f4f\u5b85"},"type":"Point","coordinates":[69414,6746],"id":"feature_105"},{"properties":{"price":28800,"use":"\u6a2a\u624b","zone":"","station":"\u4e8b\u52d9\u6240"},"type":"Point","coordinates":[72827,13485],"id":"feature_106"},{"properties":{"price":26600,"use":"\u6a2a\u624b","zone":"","station":"\u5e97\u8217\u517c\u4f4f\u5b85"},"type":"Point","coordinates":[73183,13673],"id":"feature_107"},{"properties":{"price":30700,"use":"\u6a2a\u624b","zone":"","station":"\u5e97\u8217"},"type":"Point","coordinates":[71824,13297],"id":"feature_108"},{"properties":{"price":18700,"use":"\u5927\u9928","zone":"","station":"\u4f4f\u5b85"},"type":"Point","coordinates":[73591,94955],"id":"feature_109"},{"properties":{"price":11000,"use":"\u5927\u9928","zone":"","station":"\u4f4f\u5b85"},"type":"Point","coordinates":[74459,97392],"id":"feature_110"},{"properties":{"price":20600,"use":"\u5927\u9928","zone":"","station":"\u4f4f\u5b85"},"type":"Point","coordinates":[71717,95483],"id":"feature_111"},{"properties":{"price":17000,"use":"\u5927\u9928","zone":"","station":"\u4f4f\u5b85"},"type":"Point","coordinates":[71983,94569],"id":"feature_112"},{"properties":{"price":14500,"use":"\u5927\u9928","zone":"","station":"\u4f4f\u5b85"},"type":"Point","coordinates":[74814,91357],"id":"feature_113"},{"properties":{"price":10700,"use":"\u5927\u9928","zone":"","station":"\u4f4f\u5b85"},"type":"Point","coordinates":[75742,91139],"id":"feature_114"},{"properties":{"price":21000,"use":"\u5927\u9928","zone":"","station":"\u5e97\u8217"},"type":"Point","coordinates":[72553,94992],"id":"feature_115"},{"properties":{"price":18800,"use":"\u5927\u9928","zone":"","station":"\u4e8b\u52d9\u6240\u517c\u4f4f\u5b85"},"type":"Point","coordinates":[71292,95225],"id":"feature_116"},{"properties":{"price":15300,"use":"\u5927\u9928","zone":"","station":"\u5e97\u8217\u517c\u4f4f\u5b85"},"type":"Point","coordinates":[74652,91523],"id":"feature_117"},{"properties":{"price":32400,"use":"\u5927\u9928","zone":"","station":"\u5e97\u8217\u517c\u5171\u540c\u4f4f\u5b85"},"type":"Point","coordinates":[72635,95914],"id":"feature_118"},{"properties":{"price":5970,"use":"\u7537\u9e7f","zone":"","station":"\u4f4f\u5b85"},"type":"Point","coordinates":[0,62263],"id":"feature_119"},{"properties":{"price":14200,"use":"\u7537\u9e7f","zone":"","station":"\u4f4f\u5b85"},"type":"Point","coordinates":[10164,63778],"id":"feature_120"},{"properties":{"price":8430,"use":"\u7537\u9e7f","zone":"","station":"\u4f4f\u5b85"},"type":"Point","coordinates":[328,61650],"id":"feature_121"},{"properties":{"price":13200,"use":"\u7537\u9e7f","zone":"","station":"\u5e97\u8217\u517c\u4f4f\u5b85"},"type":"Point","coordinates":[726,62255],"id":"feature_122"},{"properties":{"price":19600,"use":"\u6e6f\u6ca2","zone":"","station":"\u4f4f\u5b85"},"type":"Point","coordinates":[66163,1080],"id":"feature_123"},{"properties":{"price":15900,"use":"\u6e6f\u6ca2","zone":"","station":"\u4f4f\u5b85"},"type":"Point","coordinates":[65323,0],"id":"feature_124"},{"properties":{"price":13000,"use":"\u6e6f\u6ca2","zone":"","station":"\u4f4f\u5b85"},"type":"Point","coordinates":[64559,725],"id":"feature_125"},{"properties":{"price":23400,"use":"\u6e6f\u6ca2","zone":"","station":"\u5e97\u8217\u517c\u4f4f\u5b85"},"type":"Point","coordinates":[65533,875],"id":"feature_126"},{"properties":{"price":22100,"use":"\u6e6f\u6ca2","zone":"","station":"\u5e97\u8217\u517c\u4f4f\u5b85"},"type":"Point","coordinates":[65785,666],"id":"feature_127"},{"properties":{"price":16900,"use":"\u9e7f\u89d2","zone":"","station":"\u4f4f\u5b85"},"type":"Point","coordinates":[95590,88402],"id":"feature_128"},{"properties":{"price":11100,"use":"\u9e7f\u89d2","zone":"","station":"\u4f4f\u5b85"},"type":"Point","coordinates":[93583,95406],"id":"feature_129"},{"properties":{"price":10300,"use":"\u9e7f\u89d2","zone":"","station":"\u4f4f\u5b85"},"type":"Point","coordinates":[96596,89311],"id":"feature_130"},{"properties":{"price":2870,"use":"\u9e7f\u89d2","zone":"","station":"\u4f4f\u5b85"},"type":"Point","coordinates":[94164,92035],"id":"feature_131"},{"properties":{"price":20900,"use":"\u9e7f\u89d2","zone":"","station":"\u5e97\u8217\u517c\u4e8b\u52d9\u6240"},"type":"Point","coordinates":[95849,88142],"id":"feature_132"},{"properties":{"price":13000,"use":"\u9e7f\u89d2","zone":"","station":"\u5e97\u8217\u517c\u4f4f\u5b85"},"type":"Point","coordinates":[99999,97100],"id":"feature_133"},{"properties":{"price":19500,"use":"\u7531\u5229\u672c\u8358","zone":"","station":"\u4f4f\u5b85"},"type":"Point","coordinates":[19529,21608],"id":"feature_134"},{"properties":{"price":25400,"use":"\u7531\u5229\u672c\u8358","zone":"","station":"\u4f4f\u5b85"},"type":"Point","coordinates":[20590,20362],"id":"feature_135"},{"properties":{"price":21600,"use":"\u7531\u5229\u672c\u8358","zone":"","station":"\u4f4f\u5b85"},"type":"Point","coordinates":[21296,20982],"id":"feature_136"},{"properties":{"price":4930,"use":"\u7531\u5229\u672c\u8358","zone":"","station":"\u4f4f\u5b85"},"type":"Point","coordinates":[29508,6903],"id":"feature_137"},{"properties":{"price":6630,"use":"\u7531\u5229\u672c\u8358","zone":"","station":"\u4f4f\u5b85"},"type":"Point","coordinates":[30461,6615],"id":"feature_138"},{"properties":{"price":31000,"use":"\u7531\u5229\u672c\u8358","zone":"","station":"\u5e97\u8217"},"type":"Point","coordinates":[21716,19922],"id":"feature_139"},{"properties":{"price":31000,"use":"\u7531\u5229\u672c\u8358","zone":"","station":"\u4e8b\u52d9\u6240"},"type":"Point","coordinates":[21456,20257],"id":"feature_140"},{"properties":{"price":8150,"use":"\u7531\u5229\u672c\u8358","zone":"","station":"\u5e97\u8217\u517c\u4f4f\u5b85"},"type":"Point","coordinates":[30048,6528],"id":"feature_141"},{"properties":{"price":37400,"use":"\u7531\u5229\u672c\u8358","zone":"","station":"\u5e97\u8217"},"type":"Point","coordinates":[22408,19817],"id":"feature_142"},{"properties":{"price":8860,"use":"\u6f5f\u4e0a","zone":"","station":"\u4f4f\u5b85"},"type":"Point","coordinates":[22117,60605],"id":"feature_143"},{"properties":{"price":7800,"use":"\u6f5f\u4e0a","zone":"","station":"\u4f4f\u5b85"},"type":"Point","coordinates":[23283,60727],"id":"feature_144"},{"properties":{"price":11100,"use":"\u6f5f\u4e0a","zone":"","station":"\u4f4f\u5b85"},"type":"Point","coordinates":[15293,61966],"id":"feature_145"},{"properties":{"price":17400,"use":"\u6f5f\u4e0a","zone":"","station":"\u4f4f\u5b85"},"type":"Point","coordinates":[21507,56066],"id":"feature_146"},{"properties":{"price":15200,"use":"\u6f5f\u4e0a","zone":"","station":"\u4f4f\u5b85"},"type":"Point","coordinates":[20046,56514],"id":"feature_147"},{"properties":{"price":7820,"use":"\u6f5f\u4e0a","zone":"","station":"\u4f4f\u5b85"},"type":"Point","coordinates":[24275,63354],"id":"feature_148"},{"properties":{"price":5740,"use":"\u6f5f\u4e0a","zone":"","station":"\u4f4f\u5b85"},"type":"Point","coordinates":[18419,59336],"id":"feature_149"},{"properties":{"price":23600,"use":"\u6f5f\u4e0a","zone":"","station":"\u4f4f\u5b85"},"type":"Point","coordinates":[21114,56461],"id":"feature_150"},{"properties":{"price":28500,"use":"\u5927\u4ed9","zone":"","station":"\u4f4f\u5b85"},"type":"Point","coordinates":[64807,26556],"id":"feature_151"},{"properties":{"price":24500,"use":"\u5927\u4ed9","zone":"","station":"\u4f4f\u5b85"},"type":"Point","coordinates":[63739,25823],"id":"feature_152"},{"properties":{"price":24600,"use":"\u5927\u4ed9","zone":"","station":"\u4f4f\u5b85"},"type":"Point","coordinates":[63995,25431],"id":"feature_153"},{"properties":{"price":6480,"use":"\u5927\u4ed9","zone":"","station":"\u4f4f\u5b85"},"type":"Point","coordinates":[58527,29018],"id":"feature_154"},{"properties":{"price":7310,"use":"\u5927\u4ed9","zone":"","station":"\u4f4f\u5b85"},"type":"Point","coordinates":[59469,28853],"id":"feature_155"},{"properties":{"price":8980,"use":"\u5927\u4ed9","zone":"","station":"\u4f4f\u5b85"},"type":"Point","coordinates":[54062,33123],"id":"feature_156"},{"properties":{"price":8670,"use":"\u5927\u4ed9","zone":"","station":"\u4f4f\u5b85"},"type":"Point","coordinates":[53307,33556],"id":"feature_157"},{"properties":{"price":31200,"use":"\u5927\u4ed9","zone":"","station":"\u5e97\u8217\u517c\u4f4f\u5b85"},"type":"Point","coordinates":[64099,26557],"id":"feature_158"},{"properties":{"price":32800,"use":"\u5927\u4ed9","zone":"","station":"\u5e97\u8217\u517c\u4f4f\u5b85"},"type":"Point","coordinates":[64545,26279],"id":"feature_159"},{"properties":{"price":33600,"use":"\u5927\u4ed9","zone":"","station":"\u5e97\u8217"},"type":"Point","coordinates":[64739,26904],"id":"feature_160"},{"properties":{"price":4100,"use":"\u5317\u79cb\u7530","zone":"","station":"\u4f4f\u5b85"},"type":"Point","coordinates":[50405,91578],"id":"feature_161"},{"properties":{"price":7800,"use":"\u5317\u79cb\u7530","zone":"","station":"\u4f4f\u5b85"},"type":"Point","coordinates":[53577,90235],"id":"feature_162"},{"properties":{"price":9080,"use":"\u5317\u79cb\u7530","zone":"","station":"\u4f4f\u5b85"},"type":"Point","coordinates":[53179,82131],"id":"feature_163"},{"properties":{"price":5780,"use":"\u5317\u79cb\u7530","zone":"","station":"\u4f4f\u5b85"},"type":"Point","coordinates":[52684,82337],"id":"feature_164"},{"properties":{"price":7600,"use":"\u5317\u79cb\u7530","zone":"","station":"\u4f4f\u5b85"},"type":"Point","coordinates":[49839,85423],"id":"feature_165"},{"properties":{"price":3400,"use":"\u5317\u79cb\u7530","zone":"","station":"\u4f4f\u5b85"},"type":"Point","coordinates":[46473,87213],"id":"feature_166"},{"properties":{"price":17200,"use":"\u5317\u79cb\u7530","zone":"","station":"\u5e97\u8217\u517c\u4f4f\u5b85"},"type":"Point","coordinates":[53252,91572],"id":"feature_167"},{"properties":{"price":8880,"use":"\u5317\u79cb\u7530","zone":"","station":"\u5e97\u8217"},"type":"Point","coordinates":[48921,85793],"id":"feature_168"},{"properties":{"price":10600,"use":"\u306b\u304b\u307b","zone":"","station":"\u4f4f\u5b85"},"type":"Point","coordinates":[13467,12533],"id":"feature_169"},{"properties":{"price":17700,"use":"\u306b\u304b\u307b","zone":"","station":"\u4f4f\u5b85"},"type":"Point","coordinates":[12133,11671],"id":"feature_170"},{"properties":{"price":10000,"use":"\u306b\u304b\u307b","zone":"","station":"\u4f4f\u5b85"},"type":"Point","coordinates":[7647,9194],"id":"feature_171"},{"properties":{"price":12900,"use":"\u306b\u304b\u307b","zone":"","station":"\u4f4f\u5b85"},"type":"Point","coordinates":[7838,8382],"id":"feature_172"},{"properties":{"price":6100,"use":"\u306b\u304b\u307b","zone":"","station":"\u4f4f\u5b85"},"type":"Point","coordinates":[9071,10495],"id":"feature_173"},{"properties":{"price":20100,"use":"\u306b\u304b\u307b","zone":"","station":"\u4f4f\u5b85"},"type":"Point","coordinates":[6448,4701],"id":"feature_174"},{"properties":{"price":18900,"use":"\u306b\u304b\u307b","zone":"","station":"\u5e97\u8217\u517c\u4f4f\u5b85"},"type":"Point","coordinates":[12474,11711],"id":"feature_175"},{"properties":{"price":19800,"use":"\u306b\u304b\u307b","zone":"","station":"\u5e97\u8217\u517c\u4f4f\u5b85"},"type":"Point","coordinates":[6100,4478],"id":"feature_176"},{"properties":{"price":15100,"use":"\u4ed9\u5317","zone":"","station":"\u4f4f\u5b85"},"type":"Point","coordinates":[74005,37493],"id":"feature_177"},{"properties":{"price":11400,"use":"\u4ed9\u5317","zone":"","station":"\u4f4f\u5b85"},"type":"Point","coordinates":[72640,38325],"id":"feature_178"},{"properties":{"price":8580,"use":"\u4ed9\u5317","zone":"","station":"\u4f4f\u5b85"},"type":"Point","coordinates":[90187,46840],"id":"feature_179"},{"properties":{"price":25900,"use":"\u4ed9\u5317","zone":"","station":"\u5e97\u8217\u517c\u4f4f\u5b85"},"type":"Point","coordinates":[72938,37543],"id":"feature_180"},{"properties":{"price":9180,"use":"\u4ed9\u5317","zone":"","station":"\u65c5\u9928"},"type":"Point","coordinates":[89372,46537],"id":"feature_181"},{"properties":{"price":9150,"use":"\u5c0f\u5742","zone":"","station":"\u4f4f\u5b85"},"type":"Point","coordinates":[90629,99999],"id":"feature_182"},{"properties":{"price":6110,"use":"\u5c0f\u5742","zone":"","station":"\u4f4f\u5b85"},"type":"Point","coordinates":[91545,98441],"id":"feature_183"},{"properties":{"price":6490,"use":"\u4e94\u57ce\u76ee","zone":"","station":"\u4f4f\u5b85"},"type":"Point","coordinates":[27745,67711],"id":"feature_184"},{"properties":{"price":4070,"use":"\u4e94\u57ce\u76ee","zone":"","station":"\u4f4f\u5b85"},"type":"Point","coordinates":[28373,66604],"id":"feature_185"},{"properties":{"price":11300,"use":"\u4e94\u57ce\u76ee","zone":"","station":"\u5e97\u8217"},"type":"Point","coordinates":[27741,67336],"id":"feature_186"},{"properties":{"price":10300,"use":"\u516b\u90ce\u6f5f","zone":"","station":"\u4f4f\u5b85"},"type":"Point","coordinates":[23701,67515],"id":"feature_187"},{"properties":{"price":5730,"use":"\u516b\u90ce\u6f5f","zone":"","station":"\u4f4f\u5b85"},"type":"Point","coordinates":[23956,69345],"id":"feature_188"},{"properties":{"price":11800,"use":"\u516b\u90ce\u6f5f","zone":"","station":"\u5e97\u8217"},"type":"Point","coordinates":[23959,67351],"id":"feature_189"},{"properties":{"price":8800,"use":"\u7f8e\u90f7","zone":"","station":"\u4f4f\u5b85"},"type":"Point","coordinates":[71692,23382],"id":"feature_190"},{"properties":{"price":8200,"use":"\u7f8e\u90f7","zone":"","station":"\u4f4f\u5b85"},"type":"Point","coordinates":[71556,22477],"id":"feature_191"},{"properties":{"price":9950,"use":"\u7f8e\u90f7","zone":"","station":"\u5e97\u8217\u517c\u4f4f\u5b85"},"type":"Point","coordinates":[71211,22836],"id":"feature_192"}],"type":"GeometryCollection"}},"bbox":[139.83977,39.15263,140.83092,40.32908],"transform":{"scale":[9.911599115991207e-06,1.1764617646176418e-05],"translate":[139.83977,39.15263]},"arcs":[]}