{"type":"Topology","objects":{"data":{"geometries":[{"properties":{"price":69300,"use":"\u9577\u91ce","zone":"","station":"\u4f4f\u5b85"},"type":"Point","coordinates":[55525,82991],"id":"feature_000"},{"properties":{"price":48000,"use":"\u9577\u91ce","zone":"","station":"\u4f4f\u5b85"},"type":"Point","coordinates":[59384,83514],"id":"feature_001"},{"properties":{"price":78900,"use":"\u9577\u91ce","zone":"","station":"\u4f4f\u5b85"},"type":"Point","coordinates":[54587,81477],"id":"feature_002"},{"properties":{"price":72800,"use":"\u9577\u91ce","zone":"","station":"\u4f4f\u5b85"},"type":"Point","coordinates":[56295,81139],"id":"feature_003"},{"properties":{"price":63200,"use":"\u9577\u91ce","zone":"","station":"\u4f4f\u5b85"},"type":"Point","coordinates":[52974,82507],"id":"feature_004"},{"properties":{"price":61800,"use":"\u9577\u91ce","zone":"","station":"\u4f4f\u5b85"},"type":"Point","coordinates":[57675,81618],"id":"feature_005"},{"properties":{"price":72500,"use":"\u9577\u91ce","zone":"","station":"\u4f4f\u5b85"},"type":"Point","coordinates":[54371,82667],"id":"feature_006"},{"properties":{"price":50700,"use":"\u9577\u91ce","zone":"","station":"\u4f4f\u5b85"},"type":"Point","coordinates":[55974,83636],"id":"feature_007"},{"properties":{"price":63300,"use":"\u9577\u91ce","zone":"","station":"\u4f4f\u5b85"},"type":"Point","coordinates":[51063,80095],"id":"feature_008"},{"properties":{"price":97200,"use":"\u9577\u91ce","zone":"","station":"\u4f4f\u5b85"},"type":"Point","coordinates":[52808,80338],"id":"feature_009"},{"properties":{"price":60400,"use":"\u9577\u91ce","zone":"","station":"\u4f4f\u5b85"},"type":"Point","coordinates":[55146,80262],"id":"feature_010"},{"properties":{"price":47000,"use":"\u9577\u91ce","zone":"","station":"\u4f4f\u5b85"},"type":"Point","coordinates":[48996,79296],"id":"feature_011"},{"properties":{"price":86700,"use":"\u9577\u91ce","zone":"","station":"\u4f4f\u5b85"},"type":"Point","coordinates":[51992,81683],"id":"feature_012"},{"properties":{"price":77100,"use":"\u9577\u91ce","zone":"","station":"\u4f4f\u5b85"},"type":"Point","coordinates":[54684,82162],"id":"feature_013"},{"properties":{"price":74700,"use":"\u9577\u91ce","zone":"","station":"\u4f4f\u5b85"},"type":"Point","coordinates":[55276,81150],"id":"feature_014"},{"properties":{"price":69600,"use":"\u9577\u91ce","zone":"","station":"\u4f4f\u5b85"},"type":"Point","coordinates":[52965,79913],"id":"feature_015"},{"properties":{"price":55700,"use":"\u9577\u91ce","zone":"","station":"\u4f4f\u5b85"},"type":"Point","coordinates":[49151,77751],"id":"feature_016"},{"properties":{"price":55200,"use":"\u9577\u91ce","zone":"","station":"\u4f4f\u5b85"},"type":"Point","coordinates":[50976,78982],"id":"feature_017"},{"properties":{"price":11800,"use":"\u9577\u91ce","zone":"","station":"\u4f4f\u5b85"},"type":"Point","coordinates":[45971,75954],"id":"feature_018"},{"properties":{"price":35300,"use":"\u9577\u91ce","zone":"","station":"\u4f4f\u5b85"},"type":"Point","coordinates":[54033,75367],"id":"feature_019"},{"properties":{"price":34400,"use":"\u9577\u91ce","zone":"","station":"\u4f4f\u5b85"},"type":"Point","coordinates":[60258,79875],"id":"feature_020"},{"properties":{"price":44500,"use":"\u9577\u91ce","zone":"","station":"\u4f4f\u5b85"},"type":"Point","coordinates":[57443,84170],"id":"feature_021"},{"properties":{"price":65200,"use":"\u9577\u91ce","zone":"","station":"\u4f4f\u5b85"},"type":"Point","coordinates":[57832,82278],"id":"feature_022"},{"properties":{"price":17400,"use":"\u9577\u91ce","zone":"","station":"\u4f4f\u5b85"},"type":"Point","coordinates":[49352,78654],"id":"feature_023"},{"properties":{"price":11300,"use":"\u9577\u91ce","zone":"","station":"\u7a7a\u5730"},"type":"Point","coordinates":[62127,84782],"id":"feature_024"},{"properties":{"price":72600,"use":"\u9577\u91ce","zone":"","station":"\u4f4f\u5b85"},"type":"Point","coordinates":[52370,82126],"id":"feature_025"},{"properties":{"price":39800,"use":"\u9577\u91ce","zone":"","station":"\u4f4f\u5b85"},"type":"Point","coordinates":[51117,80825],"id":"feature_026"},{"properties":{"price":76900,"use":"\u9577\u91ce","zone":"","station":"\u4f4f\u5b85"},"type":"Point","coordinates":[54164,82143],"id":"feature_027"},{"properties":{"price":60600,"use":"\u9577\u91ce","zone":"","station":"\u4f4f\u5b85"},"type":"Point","coordinates":[51573,82121],"id":"feature_028"},{"properties":{"price":48100,"use":"\u9577\u91ce","zone":"","station":"\u4f4f\u5b85"},"type":"Point","coordinates":[52205,76992],"id":"feature_029"},{"properties":{"price":9450,"use":"\u9577\u91ce","zone":"","station":"\u4f4f\u5b85"},"type":"Point","coordinates":[64637,86822],"id":"feature_030"},{"properties":{"price":48100,"use":"\u9577\u91ce","zone":"","station":"\u4f4f\u5b85"},"type":"Point","coordinates":[48292,76886],"id":"feature_031"},{"properties":{"price":26300,"use":"\u9577\u91ce","zone":"","station":"\u4f4f\u5b85"},"type":"Point","coordinates":[64098,86352],"id":"feature_032"},{"properties":{"price":35100,"use":"\u9577\u91ce","zone":"","station":"\u4f4f\u5b85"},"type":"Point","coordinates":[57966,81397],"id":"feature_033"},{"properties":{"price":56100,"use":"\u9577\u91ce","zone":"","station":"\u4f4f\u5b85"},"type":"Point","coordinates":[53088,78693],"id":"feature_034"},{"properties":{"price":55000,"use":"\u9577\u91ce","zone":"","station":"\u4f4f\u5b85"},"type":"Point","coordinates":[60563,82583],"id":"feature_035"},{"properties":{"price":52900,"use":"\u9577\u91ce","zone":"","station":"\u4f4f\u5b85"},"type":"Point","coordinates":[49740,76773],"id":"feature_036"},{"properties":{"price":27400,"use":"\u9577\u91ce","zone":"","station":"\u7a7a\u5730"},"type":"Point","coordinates":[61930,85362],"id":"feature_037"},{"properties":{"price":53400,"use":"\u9577\u91ce","zone":"","station":"\u4f4f\u5b85"},"type":"Point","coordinates":[48134,76287],"id":"feature_038"},{"properties":{"price":54500,"use":"\u9577\u91ce","zone":"","station":"\u4f4f\u5b85"},"type":"Point","coordinates":[59723,82132],"id":"feature_039"},{"properties":{"price":56700,"use":"\u9577\u91ce","zone":"","station":"\u4f4f\u5b85"},"type":"Point","coordinates":[52718,79315],"id":"feature_040"},{"properties":{"price":29900,"use":"\u9577\u91ce","zone":"","station":"\u4f4f\u5b85"},"type":"Point","coordinates":[50603,80362],"id":"feature_041"},{"properties":{"price":58300,"use":"\u9577\u91ce","zone":"","station":"\u4f4f\u5b85"},"type":"Point","coordinates":[56660,81910],"id":"feature_042"},{"properties":{"price":42000,"use":"\u9577\u91ce","zone":"","station":"\u4f4f\u5b85"},"type":"Point","coordinates":[53749,82568],"id":"feature_043"},{"properties":{"price":48400,"use":"\u9577\u91ce","zone":"","station":"\u4f4f\u5b85"},"type":"Point","coordinates":[47196,76895],"id":"feature_044"},{"properties":{"price":30000,"use":"\u9577\u91ce","zone":"","station":"\u4f4f\u5b85"},"type":"Point","coordinates":[54713,75870],"id":"feature_045"},{"properties":{"price":54900,"use":"\u9577\u91ce","zone":"","station":"\u4f4f\u5b85"},"type":"Point","coordinates":[58085,83454],"id":"feature_046"},{"properties":{"price":135000,"use":"\u9577\u91ce","zone":"","station":"\u4f4f\u5b85"},"type":"Point","coordinates":[53077,80807],"id":"feature_047"},{"properties":{"price":132000,"use":"\u9577\u91ce","zone":"","station":"\u5e97\u8217\u517c\u4e8b\u52d9\u6240"},"type":"Point","coordinates":[53311,81632],"id":"feature_048"},{"properties":{"price":360000,"use":"\u9577\u91ce","zone":"","station":"\u5e97\u8217\u517c\u30db\u30c6\u30eb"},"type":"Point","coordinates":[52900,81060],"id":"feature_049"},{"properties":{"price":68300,"use":"\u9577\u91ce","zone":"","station":"\u5e97\u8217\u517c\u4e8b\u52d9\u6240"},"type":"Point","coordinates":[56399,83193],"id":"feature_050"},{"properties":{"price":91600,"use":"\u9577\u91ce","zone":"","station":"\u4e8b\u52d9\u6240"},"type":"Point","coordinates":[53794,81746],"id":"feature_051"},{"properties":{"price":105000,"use":"\u9577\u91ce","zone":"","station":"\u7a7a\u5730"},"type":"Point","coordinates":[53567,81414],"id":"feature_052"},{"properties":{"price":59700,"use":"\u9577\u91ce","zone":"","station":"\u5e97\u8217"},"type":"Point","coordinates":[47840,76517],"id":"feature_053"},{"properties":{"price":137000,"use":"\u9577\u91ce","zone":"","station":"\u4e8b\u52d9\u6240"},"type":"Point","coordinates":[52377,81483],"id":"feature_054"},{"properties":{"price":170000,"use":"\u9577\u91ce","zone":"","station":"\u4e8b\u52d9\u6240"},"type":"Point","coordinates":[52653,81069],"id":"feature_055"},{"properties":{"price":206000,"use":"\u9577\u91ce","zone":"","station":"\u5e97\u8217"},"type":"Point","coordinates":[52840,81190],"id":"feature_056"},{"properties":{"price":117000,"use":"\u9577\u91ce","zone":"","station":"\u5e97\u8217\u517c\u4e8b\u52d9\u6240"},"type":"Point","coordinates":[53937,80911],"id":"feature_057"},{"properties":{"price":102000,"use":"\u9577\u91ce","zone":"","station":"\u5e97\u8217\u517c\u4f4f\u5b85"},"type":"Point","coordinates":[52701,81161],"id":"feature_058"},{"properties":{"price":160000,"use":"\u9577\u91ce","zone":"","station":"\u30db\u30c6\u30eb\u517c\u5e97\u8217"},"type":"Point","coordinates":[53009,81295],"id":"feature_059"},{"properties":{"price":179000,"use":"\u9577\u91ce","zone":"","station":"\u5e97\u8217"},"type":"Point","coordinates":[53084,81088],"id":"feature_060"},{"properties":{"price":68600,"use":"\u9577\u91ce","zone":"","station":"\u5e97\u8217"},"type":"Point","coordinates":[54821,81359],"id":"feature_061"},{"properties":{"price":96900,"use":"\u9577\u91ce","zone":"","station":"\u4e8b\u52d9\u6240"},"type":"Point","coordinates":[52734,81545],"id":"feature_062"},{"properties":{"price":57600,"use":"\u9577\u91ce","zone":"","station":"\u9280\u884c"},"type":"Point","coordinates":[59693,82014],"id":"feature_063"},{"properties":{"price":70100,"use":"\u9577\u91ce","zone":"","station":"\u7a7a\u5730"},"type":"Point","coordinates":[50902,78270],"id":"feature_064"},{"properties":{"price":66600,"use":"\u9577\u91ce","zone":"","station":"\u5e97\u8217\u517c\u5171\u540c\u4f4f\u5b85"},"type":"Point","coordinates":[56375,82731],"id":"feature_065"},{"properties":{"price":74600,"use":"\u9577\u91ce","zone":"","station":"\u4e8b\u52d9\u6240"},"type":"Point","coordinates":[54235,81595],"id":"feature_066"},{"properties":{"price":61400,"use":"\u9577\u91ce","zone":"","station":"\u5e97\u8217"},"type":"Point","coordinates":[55293,80662],"id":"feature_067"},{"properties":{"price":67500,"use":"\u9577\u91ce","zone":"","station":"\u5e97\u8217"},"type":"Point","coordinates":[51698,78989],"id":"feature_068"},{"properties":{"price":64200,"use":"\u9577\u91ce","zone":"","station":"\u5e97\u8217\u517c\u4e8b\u52d9\u6240"},"type":"Point","coordinates":[56250,81733],"id":"feature_069"},{"properties":{"price":38500,"use":"\u9577\u91ce","zone":"","station":"\u5e97\u8217\u517c\u4f4f\u5b85"},"type":"Point","coordinates":[62171,85659],"id":"feature_070"},{"properties":{"price":153000,"use":"\u9577\u91ce","zone":"","station":"\u5e97\u8217\u517c\u5171\u540c\u4f4f\u5b85"},"type":"Point","coordinates":[53253,80838],"id":"feature_071"},{"properties":{"price":14800,"use":"\u9577\u91ce","zone":"","station":"\u5de5\u5834"},"type":"Point","coordinates":[47948,77264],"id":"feature_072"},{"properties":{"price":30400,"use":"\u9577\u91ce","zone":"","station":"\u5009\u5eab\u517c\u4e8b\u52d9\u6240"},"type":"Point","coordinates":[60696,82892],"id":"feature_073"},{"properties":{"price":74600,"use":"\u677e\u672c","zone":"","station":"\u4f4f\u5b85"},"type":"Point","coordinates":[29030,53589],"id":"feature_074"},{"properties":{"price":74600,"use":"\u677e\u672c","zone":"","station":"\u4f4f\u5b85"},"type":"Point","coordinates":[29983,54038],"id":"feature_075"},{"properties":{"price":81200,"use":"\u677e\u672c","zone":"","station":"\u4f4f\u5b85"},"type":"Point","coordinates":[30784,52946],"id":"feature_076"},{"properties":{"price":51100,"use":"\u677e\u672c","zone":"","station":"\u4f4f\u5b85"},"type":"Point","coordinates":[27320,54079],"id":"feature_077"},{"properties":{"price":89700,"use":"\u677e\u672c","zone":"","station":"\u4f4f\u5b85"},"type":"Point","coordinates":[29696,53546],"id":"feature_078"},{"properties":{"price":63700,"use":"\u677e\u672c","zone":"","station":"\u4f4f\u5b85"},"type":"Point","coordinates":[29816,52086],"id":"feature_079"},{"properties":{"price":72200,"use":"\u677e\u672c","zone":"","station":"\u4f4f\u5b85"},"type":"Point","coordinates":[29210,52730],"id":"feature_080"},{"properties":{"price":66000,"use":"\u677e\u672c","zone":"","station":"\u4f4f\u5b85"},"type":"Point","coordinates":[31121,52155],"id":"feature_081"},{"properties":{"price":63300,"use":"\u677e\u672c","zone":"","station":"\u4f4f\u5b85"},"type":"Point","coordinates":[27796,51959],"id":"feature_082"},{"properties":{"price":12300,"use":"\u677e\u672c","zone":"","station":"\u4f4f\u5b85"},"type":"Point","coordinates":[17409,51593],"id":"feature_083"},{"properties":{"price":76500,"use":"\u677e\u672c","zone":"","station":"\u4f4f\u5b85"},"type":"Point","coordinates":[31153,53239],"id":"feature_084"},{"properties":{"price":44200,"use":"\u677e\u672c","zone":"","station":"\u4f4f\u5b85"},"type":"Point","coordinates":[33284,53881],"id":"feature_085"},{"properties":{"price":52300,"use":"\u677e\u672c","zone":"","station":"\u4f4f\u5b85"},"type":"Point","coordinates":[30514,55129],"id":"feature_086"},{"properties":{"price":43200,"use":"\u677e\u672c","zone":"","station":"\u4f4f\u5b85"},"type":"Point","coordinates":[26160,49541],"id":"feature_087"},{"properties":{"price":32900,"use":"\u677e\u672c","zone":"","station":"\u4f4f\u5b85"},"type":"Point","coordinates":[18424,50865],"id":"feature_088"},{"properties":{"price":39000,"use":"\u677e\u672c","zone":"","station":"\u4f4f\u5b85"},"type":"Point","coordinates":[32052,49257],"id":"feature_089"},{"properties":{"price":21300,"use":"\u677e\u672c","zone":"","station":"\u4f4f\u5b85"},"type":"Point","coordinates":[30526,50618],"id":"feature_090"},{"properties":{"price":57600,"use":"\u677e\u672c","zone":"","station":"\u4f4f\u5b85"},"type":"Point","coordinates":[31807,54488],"id":"feature_091"},{"properties":{"price":54100,"use":"\u677e\u672c","zone":"","station":"\u4f4f\u5b85"},"type":"Point","coordinates":[27299,53503],"id":"feature_092"},{"properties":{"price":31600,"use":"\u677e\u672c","zone":"","station":"\u4f4f\u5b85"},"type":"Point","coordinates":[21386,53647],"id":"feature_093"},{"properties":{"price":17200,"use":"\u677e\u672c","zone":"","station":"\u4f4f\u5b85"},"type":"Point","coordinates":[16458,50529],"id":"feature_094"},{"properties":{"price":52200,"use":"\u677e\u672c","zone":"","station":"\u4f4f\u5b85"},"type":"Point","coordinates":[30077,50576],"id":"feature_095"},{"properties":{"price":67500,"use":"\u677e\u672c","zone":"","station":"\u4f4f\u5b85"},"type":"Point","coordinates":[31546,53684],"id":"feature_096"},{"properties":{"price":48900,"use":"\u677e\u672c","zone":"","station":"\u4f4f\u5b85"},"type":"Point","coordinates":[28011,50639],"id":"feature_097"},{"properties":{"price":51800,"use":"\u677e\u672c","zone":"","station":"\u4f4f\u5b85"},"type":"Point","coordinates":[29050,54348],"id":"feature_098"},{"properties":{"price":58500,"use":"\u677e\u672c","zone":"","station":"\u4f4f\u5b85"},"type":"Point","coordinates":[28663,49474],"id":"feature_099"},{"properties":{"price":17200,"use":"\u677e\u672c","zone":"","station":"\u4f4f\u5b85"},"type":"Point","coordinates":[24410,51108],"id":"feature_100"},{"properties":{"price":11300,"use":"\u677e\u672c","zone":"","station":"\u4f4f\u5b85"},"type":"Point","coordinates":[32927,56942],"id":"feature_101"},{"properties":{"price":13100,"use":"\u677e\u672c","zone":"","station":"\u4f4f\u5b85"},"type":"Point","coordinates":[31791,48016],"id":"feature_102"},{"properties":{"price":23100,"use":"\u677e\u672c","zone":"","station":"\u4f4f\u5b85"},"type":"Point","coordinates":[24138,52198],"id":"feature_103"},{"properties":{"price":30800,"use":"\u677e\u672c","zone":"","station":"\u4f4f\u5b85"},"type":"Point","coordinates":[24397,48021],"id":"feature_104"},{"properties":{"price":35000,"use":"\u677e\u672c","zone":"","station":"\u4f4f\u5b85"},"type":"Point","coordinates":[31425,50881],"id":"feature_105"},{"properties":{"price":67500,"use":"\u677e\u672c","zone":"","station":"\u5171\u540c\u4f4f\u5b85"},"type":"Point","coordinates":[29916,51297],"id":"feature_106"},{"properties":{"price":67400,"use":"\u677e\u672c","zone":"","station":"\u4f4f\u5b85"},"type":"Point","coordinates":[28349,52606],"id":"feature_107"},{"properties":{"price":30000,"use":"\u677e\u672c","zone":"","station":"\u5e97\u8217\u517c\u4f4f\u5b85"},"type":"Point","coordinates":[18318,50974],"id":"feature_108"},{"properties":{"price":235000,"use":"\u677e\u672c","zone":"","station":"\u5e97\u8217\u517c\u4e8b\u52d9\u6240"},"type":"Point","coordinates":[29517,52825],"id":"feature_109"},{"properties":{"price":106000,"use":"\u677e\u672c","zone":"","station":"\u5e97\u8217\u3001\u4e8b\u52d9\u6240\u517c\u4f4f\u5b85"},"type":"Point","coordinates":[30411,52912],"id":"feature_110"},{"properties":{"price":120000,"use":"\u677e\u672c","zone":"","station":"\u5e97\u8217\u517c\u4e8b\u52d9\u6240"},"type":"Point","coordinates":[29886,52671],"id":"feature_111"},{"properties":{"price":70200,"use":"\u677e\u672c","zone":"","station":"\u4e8b\u52d9\u6240"},"type":"Point","coordinates":[30341,53699],"id":"feature_112"},{"properties":{"price":46600,"use":"\u677e\u672c","zone":"","station":"\u5e97\u8217\u517c\u4f4f\u5b85"},"type":"Point","coordinates":[32093,55065],"id":"feature_113"},{"properties":{"price":148000,"use":"\u677e\u672c","zone":"","station":"\u5e97\u8217\u517c\u5171\u540c\u4f4f\u5b85"},"type":"Point","coordinates":[29762,52848],"id":"feature_114"},{"properties":{"price":60900,"use":"\u677e\u672c","zone":"","station":"\u5e97\u8217\u517c\u4e8b\u52d9\u6240"},"type":"Point","coordinates":[28940,49052],"id":"feature_115"},{"properties":{"price":222000,"use":"\u677e\u672c","zone":"","station":"\u5e97\u8217\u517c\u4e8b\u52d9\u6240"},"type":"Point","coordinates":[29645,52953],"id":"feature_116"},{"properties":{"price":117000,"use":"\u677e\u672c","zone":"","station":"\u5e97\u8217\u517c\u4f4f\u5b85"},"type":"Point","coordinates":[29948,53069],"id":"feature_117"},{"properties":{"price":76700,"use":"\u677e\u672c","zone":"","station":"\u5e97\u8217\u517c\u4e8b\u52d9\u6240"},"type":"Point","coordinates":[28429,52914],"id":"feature_118"},{"properties":{"price":70300,"use":"\u677e\u672c","zone":"","station":"\u4e8b\u52d9\u6240"},"type":"Point","coordinates":[28932,51939],"id":"feature_119"},{"properties":{"price":68700,"use":"\u677e\u672c","zone":"","station":"\u5e97\u8217\u517c\u4f4f\u5b85"},"type":"Point","coordinates":[30285,51927],"id":"feature_120"},{"properties":{"price":70200,"use":"\u677e\u672c","zone":"","station":"\u5e97\u8217"},"type":"Point","coordinates":[29347,49831],"id":"feature_121"},{"properties":{"price":38100,"use":"\u677e\u672c","zone":"","station":"\u5e97\u8217\u517c\u4f4f\u5b85"},"type":"Point","coordinates":[21615,53324],"id":"feature_122"},{"properties":{"price":97900,"use":"\u677e\u672c","zone":"","station":"\u5e97\u8217"},"type":"Point","coordinates":[30964,53020],"id":"feature_123"},{"properties":{"price":79200,"use":"\u677e\u672c","zone":"","station":"\u5e97\u8217\u517c\u5009\u5eab"},"type":"Point","coordinates":[29991,52991],"id":"feature_124"},{"properties":{"price":74600,"use":"\u677e\u672c","zone":"","station":"\u5e97\u8217\u517c\u5171\u540c\u4f4f\u5b85"},"type":"Point","coordinates":[29230,52502],"id":"feature_125"},{"properties":{"price":23700,"use":"\u677e\u672c","zone":"","station":"\u5de5\u5834"},"type":"Point","coordinates":[26380,50922],"id":"feature_126"},{"properties":{"price":39600,"use":"\u4e0a\u7530","zone":"","station":"\u4f4f\u5b85"},"type":"Point","coordinates":[58597,65353],"id":"feature_127"},{"properties":{"price":64200,"use":"\u4e0a\u7530","zone":"","station":"\u4f4f\u5b85"},"type":"Point","coordinates":[59367,64407],"id":"feature_128"},{"properties":{"price":39200,"use":"\u4e0a\u7530","zone":"","station":"\u4f4f\u5b85"},"type":"Point","coordinates":[57958,63739],"id":"feature_129"},{"properties":{"price":46100,"use":"\u4e0a\u7530","zone":"","station":"\u4f4f\u5b85"},"type":"Point","coordinates":[59239,65143],"id":"feature_130"},{"properties":{"price":42900,"use":"\u4e0a\u7530","zone":"","station":"\u4f4f\u5b85"},"type":"Point","coordinates":[58157,65016],"id":"feature_131"},{"properties":{"price":32800,"use":"\u4e0a\u7530","zone":"","station":"\u4f4f\u5b85"},"type":"Point","coordinates":[57872,65431],"id":"feature_132"},{"properties":{"price":39000,"use":"\u4e0a\u7530","zone":"","station":"\u4f4f\u5b85"},"type":"Point","coordinates":[61533,63685],"id":"feature_133"},{"properties":{"price":36000,"use":"\u4e0a\u7530","zone":"","station":"\u4f4f\u5b85"},"type":"Point","coordinates":[56650,63985],"id":"feature_134"},{"properties":{"price":23300,"use":"\u4e0a\u7530","zone":"","station":"\u4f4f\u5b85"},"type":"Point","coordinates":[62064,59086],"id":"feature_135"},{"properties":{"price":18600,"use":"\u4e0a\u7530","zone":"","station":"\u4f4f\u5b85"},"type":"Point","coordinates":[61481,61088],"id":"feature_136"},{"properties":{"price":108000,"use":"\u4e0a\u7530","zone":"","station":"\u5e97\u8217"},"type":"Point","coordinates":[59537,64280],"id":"feature_137"},{"properties":{"price":53000,"use":"\u4e0a\u7530","zone":"","station":"\u5e97\u8217\u517c\u4f4f\u5b85"},"type":"Point","coordinates":[60075,64472],"id":"feature_138"},{"properties":{"price":54300,"use":"\u4e0a\u7530","zone":"","station":"\u4e8b\u52d9\u6240"},"type":"Point","coordinates":[59417,64952],"id":"feature_139"},{"properties":{"price":42100,"use":"\u4e0a\u7530","zone":"","station":"\u4e8b\u52d9\u6240\u517c\u4f5c\u696d\u6240"},"type":"Point","coordinates":[61098,65124],"id":"feature_140"},{"properties":{"price":24600,"use":"\u4e0a\u7530","zone":"","station":"\u5e97\u8217"},"type":"Point","coordinates":[61572,59375],"id":"feature_141"},{"properties":{"price":10300,"use":"\u4e0a\u7530","zone":"","station":"\u5de5\u5834"},"type":"Point","coordinates":[58133,61780],"id":"feature_142"},{"properties":{"price":41000,"use":"\u5ca1\u8c37","zone":"","station":"\u4f4f\u5b85"},"type":"Point","coordinates":[38194,41914],"id":"feature_143"},{"properties":{"price":39300,"use":"\u5ca1\u8c37","zone":"","station":"\u4f4f\u5b85"},"type":"Point","coordinates":[39415,41655],"id":"feature_144"},{"properties":{"price":40500,"use":"\u5ca1\u8c37","zone":"","station":"\u4f4f\u5b85"},"type":"Point","coordinates":[38492,41041],"id":"feature_145"},{"properties":{"price":40300,"use":"\u5ca1\u8c37","zone":"","station":"\u5e97\u8217\u517c\u4f4f\u5b85"},"type":"Point","coordinates":[38361,41381],"id":"feature_146"},{"properties":{"price":42800,"use":"\u5ca1\u8c37","zone":"","station":"\u5e97\u8217\u517c\u4f4f\u5b85"},"type":"Point","coordinates":[38508,41891],"id":"feature_147"},{"properties":{"price":46400,"use":"\u5ca1\u8c37","zone":"","station":"\u5e97\u8217\u517c\u4f4f\u5b85"},"type":"Point","coordinates":[39206,41283],"id":"feature_148"},{"properties":{"price":27600,"use":"\u98ef\u7530","zone":"","station":"\u4f4f\u5b85"},"type":"Point","coordinates":[16828,2794],"id":"feature_149"},{"properties":{"price":29900,"use":"\u98ef\u7530","zone":"","station":"\u4f4f\u5b85"},"type":"Point","coordinates":[15809,4413],"id":"feature_150"},{"properties":{"price":29300,"use":"\u98ef\u7530","zone":"","station":"\u4f4f\u5b85"},"type":"Point","coordinates":[17259,4494],"id":"feature_151"},{"properties":{"price":21700,"use":"\u98ef\u7530","zone":"","station":"\u4f4f\u5b85"},"type":"Point","coordinates":[10993,3085],"id":"feature_152"},{"properties":{"price":12000,"use":"\u98ef\u7530","zone":"","station":"\u4f4f\u5b85"},"type":"Point","coordinates":[13484,0],"id":"feature_153"},{"properties":{"price":59600,"use":"\u98ef\u7530","zone":"","station":"\u5e97\u8217\u517c\u4f4f\u5b85"},"type":"Point","coordinates":[14474,4265],"id":"feature_154"},{"properties":{"price":31400,"use":"\u98ef\u7530","zone":"","station":"\u5e97\u8217\u517c\u4f4f\u5b85"},"type":"Point","coordinates":[16273,2815],"id":"feature_155"},{"properties":{"price":41400,"use":"\u98ef\u7530","zone":"","station":"\u5e97\u8217\u517c\u4f4f\u5b85"},"type":"Point","coordinates":[13579,4365],"id":"feature_156"},{"properties":{"price":60600,"use":"\u98ef\u7530","zone":"","station":"\u4e8b\u52d9\u6240"},"type":"Point","coordinates":[12183,3319],"id":"feature_157"},{"properties":{"price":37300,"use":"\u98ef\u7530","zone":"","station":"\u5e97\u8217\u517c\u4f4f\u5b85"},"type":"Point","coordinates":[16454,4198],"id":"feature_158"},{"properties":{"price":42600,"use":"\u8acf\u8a2a","zone":"","station":"\u4f4f\u5b85"},"type":"Point","coordinates":[45472,40682],"id":"feature_159"},{"properties":{"price":50400,"use":"\u8acf\u8a2a","zone":"","station":"\u4f4f\u5b85"},"type":"Point","coordinates":[45234,39520],"id":"feature_160"},{"properties":{"price":19500,"use":"\u8acf\u8a2a","zone":"","station":"\u4f4f\u5b85"},"type":"Point","coordinates":[46038,40314],"id":"feature_161"},{"properties":{"price":48100,"use":"\u8acf\u8a2a","zone":"","station":"\u4e8b\u52d9\u6240"},"type":"Point","coordinates":[45674,40099],"id":"feature_162"},{"properties":{"price":40700,"use":"\u8acf\u8a2a","zone":"","station":"\u5e97\u8217\u517c\u4f4f\u5b85"},"type":"Point","coordinates":[45384,40061],"id":"feature_163"},{"properties":{"price":71900,"use":"\u8acf\u8a2a","zone":"","station":"\u5e97\u8217"},"type":"Point","coordinates":[45473,40258],"id":"feature_164"},{"properties":{"price":35000,"use":"\u9808\u5742","zone":"","station":"\u4f4f\u5b85"},"type":"Point","coordinates":[66237,83435],"id":"feature_165"},{"properties":{"price":45300,"use":"\u9808\u5742","zone":"","station":"\u4f4f\u5b85"},"type":"Point","coordinates":[64734,81337],"id":"feature_166"},{"properties":{"price":37300,"use":"\u9808\u5742","zone":"","station":"\u4f4f\u5b85"},"type":"Point","coordinates":[67056,81760],"id":"feature_167"},{"properties":{"price":42300,"use":"\u9808\u5742","zone":"","station":"\u4f4f\u5b85"},"type":"Point","coordinates":[63540,81825],"id":"feature_168"},{"properties":{"price":12700,"use":"\u9808\u5742","zone":"","station":"\u4f4f\u5b85"},"type":"Point","coordinates":[65429,80020],"id":"feature_169"},{"properties":{"price":13300,"use":"\u9808\u5742","zone":"","station":"\u4f4f\u5b85"},"type":"Point","coordinates":[63919,82579],"id":"feature_170"},{"properties":{"price":55000,"use":"\u9808\u5742","zone":"","station":"\u5e97\u8217\u517c\u4f4f\u5b85"},"type":"Point","coordinates":[65348,81907],"id":"feature_171"},{"properties":{"price":41900,"use":"\u9808\u5742","zone":"","station":"\u5e97\u8217\u517c\u4f4f\u5b85"},"type":"Point","coordinates":[63781,81768],"id":"feature_172"},{"properties":{"price":44200,"use":"\u9808\u5742","zone":"","station":"\u5e97\u8217"},"type":"Point","coordinates":[61977,80561],"id":"feature_173"},{"properties":{"price":12100,"use":"\u9808\u5742","zone":"","station":"\u5de5\u5834"},"type":"Point","coordinates":[65574,83306],"id":"feature_174"},{"properties":{"price":25300,"use":"\u5c0f\u8af8","zone":"","station":"\u4f4f\u5b85"},"type":"Point","coordinates":[78299,59430],"id":"feature_175"},{"properties":{"price":20200,"use":"\u5c0f\u8af8","zone":"","station":"\u4f4f\u5b85"},"type":"Point","coordinates":[79213,58594],"id":"feature_176"},{"properties":{"price":25500,"use":"\u5c0f\u8af8","zone":"","station":"\u4f4f\u5b85"},"type":"Point","coordinates":[77413,59393],"id":"feature_177"},{"properties":{"price":36900,"use":"\u5c0f\u8af8","zone":"","station":"\u5e97\u8217"},"type":"Point","coordinates":[77840,59485],"id":"feature_178"},{"properties":{"price":10300,"use":"\u5c0f\u8af8","zone":"","station":"\u5de5\u5834"},"type":"Point","coordinates":[80897,57057],"id":"feature_179"},{"properties":{"price":29200,"use":"\u4f0a\u90a3","zone":"","station":"\u4f4f\u5b85"},"type":"Point","coordinates":[29428,25575],"id":"feature_180"},{"properties":{"price":25600,"use":"\u4f0a\u90a3","zone":"","station":"\u4f4f\u5b85"},"type":"Point","coordinates":[28671,26852],"id":"feature_181"},{"properties":{"price":11800,"use":"\u4f0a\u90a3","zone":"","station":"\u4f4f\u5b85"},"type":"Point","coordinates":[38826,26138],"id":"feature_182"},{"properties":{"price":43000,"use":"\u4f0a\u90a3","zone":"","station":"\u5e97\u8217\u517c\u4f4f\u5b85"},"type":"Point","coordinates":[28958,26230],"id":"feature_183"},{"properties":{"price":28200,"use":"\u4f0a\u90a3","zone":"","station":"\u5e97\u8217\u517c\u4f4f\u5b85"},"type":"Point","coordinates":[28702,26301],"id":"feature_184"},{"properties":{"price":17500,"use":"\u4f0a\u90a3","zone":"","station":"\u5e97\u8217\u517c\u4f4f\u5b85"},"type":"Point","coordinates":[38989,26001],"id":"feature_185"},{"properties":{"price":16900,"use":"\u99d2\u30b1\u6839","zone":"","station":"\u4f4f\u5b85"},"type":"Point","coordinates":[25914,17649],"id":"feature_186"},{"properties":{"price":25100,"use":"\u99d2\u30b1\u6839","zone":"","station":"\u4f4f\u5b85"},"type":"Point","coordinates":[26013,19434],"id":"feature_187"},{"properties":{"price":34200,"use":"\u99d2\u30b1\u6839","zone":"","station":"\u5e97\u8217\u517c\u4f4f\u5b85"},"type":"Point","coordinates":[26323,19129],"id":"feature_188"},{"properties":{"price":25700,"use":"\u99d2\u30b1\u6839","zone":"","station":"\u4e8b\u52d9\u6240\u517c\u4f4f\u5b85"},"type":"Point","coordinates":[26476,19373],"id":"feature_189"},{"properties":{"price":31100,"use":"\u99d2\u30b1\u6839","zone":"","station":"\u5e97\u8217"},"type":"Point","coordinates":[26756,18403],"id":"feature_190"},{"properties":{"price":35800,"use":"\u4fe1\u5dde\u4e2d\u91ce","zone":"","station":"\u5171\u540c\u4f4f\u5b85"},"type":"Point","coordinates":[72900,87966],"id":"feature_191"},{"properties":{"price":31400,"use":"\u4fe1\u5dde\u4e2d\u91ce","zone":"","station":"\u4f4f\u5b85"},"type":"Point","coordinates":[73016,88330],"id":"feature_192"},{"properties":{"price":33500,"use":"\u4fe1\u5dde\u4e2d\u91ce","zone":"","station":"\u4f4f\u5b85"},"type":"Point","coordinates":[71868,88513],"id":"feature_193"},{"properties":{"price":44300,"use":"\u4fe1\u5dde\u4e2d\u91ce","zone":"","station":"\u5e97\u8217\u517c\u4f4f\u5b85"},"type":"Point","coordinates":[72220,87874],"id":"feature_194"},{"properties":{"price":37000,"use":"\u4fe1\u5dde\u4e2d\u91ce","zone":"","station":"\u4f4f\u5b85\u517c\u5009\u5eab"},"type":"Point","coordinates":[72092,88023],"id":"feature_195"},{"properties":{"price":18700,"use":"\u5927\u753a","zone":"","station":"\u4f4f\u5b85"},"type":"Point","coordinates":[17797,71551],"id":"feature_196"},{"properties":{"price":11800,"use":"\u5927\u753a","zone":"","station":"\u4f4f\u5b85"},"type":"Point","coordinates":[16631,72109],"id":"feature_197"},{"properties":{"price":13800,"use":"\u5927\u753a","zone":"","station":"\u4f4f\u5b85"},"type":"Point","coordinates":[17499,71086],"id":"feature_198"},{"properties":{"price":20500,"use":"\u5927\u753a","zone":"","station":"\u5e97\u8217"},"type":"Point","coordinates":[18444,71378],"id":"feature_199"},{"properties":{"price":20000,"use":"\u5927\u753a","zone":"","station":"\u5e97\u8217\u517c\u4f4f\u5b85"},"type":"Point","coordinates":[18240,71495],"id":"feature_200"},{"properties":{"price":14400,"use":"\u5927\u753a","zone":"","station":"\u8a3a\u7642\u6240"},"type":"Point","coordinates":[17420,69948],"id":"feature_201"},{"properties":{"price":25700,"use":"\u98ef\u5c71","zone":"","station":"\u4f4f\u5b85"},"type":"Point","coordinates":[70831,94561],"id":"feature_202"},{"properties":{"price":19600,"use":"\u98ef\u5c71","zone":"","station":"\u4f4f\u5b85"},"type":"Point","coordinates":[70733,95147],"id":"feature_203"},{"properties":{"price":11000,"use":"\u98ef\u5c71","zone":"","station":"\u4f4f\u5b85"},"type":"Point","coordinates":[73526,95396],"id":"feature_204"},{"properties":{"price":25500,"use":"\u98ef\u5c71","zone":"","station":"\u5e97\u8217\u517c\u4f4f\u5b85"},"type":"Point","coordinates":[71416,95286],"id":"feature_205"},{"properties":{"price":38500,"use":"\u8305\u91ce","zone":"","station":"\u4f4f\u5b85"},"type":"Point","coordinates":[48892,36655],"id":"feature_206"},{"properties":{"price":43600,"use":"\u8305\u91ce","zone":"","station":"\u4f4f\u5b85"},"type":"Point","coordinates":[49661,36824],"id":"feature_207"},{"properties":{"price":50500,"use":"\u8305\u91ce","zone":"","station":"\u5e97\u8217\u517c\u4f4f\u5b85"},"type":"Point","coordinates":[49843,36796],"id":"feature_208"},{"properties":{"price":47200,"use":"\u8305\u91ce","zone":"","station":"\u5e97\u8217\u517c\u4f4f\u5b85"},"type":"Point","coordinates":[50306,37022],"id":"feature_209"},{"properties":{"price":51200,"use":"\u8305\u91ce","zone":"","station":"\u5e97\u8217\u517c\u4f4f\u5b85"},"type":"Point","coordinates":[48308,36844],"id":"feature_210"},{"properties":{"price":61000,"use":"\u5869\u5c3b","zone":"","station":"\u4f4f\u5b85"},"type":"Point","coordinates":[28435,44935],"id":"feature_211"},{"properties":{"price":54200,"use":"\u5869\u5c3b","zone":"","station":"\u4f4f\u5b85"},"type":"Point","coordinates":[28190,45750],"id":"feature_212"},{"properties":{"price":49600,"use":"\u5869\u5c3b","zone":"","station":"\u4f4f\u5b85"},"type":"Point","coordinates":[29221,44433],"id":"feature_213"},{"properties":{"price":20700,"use":"\u5869\u5c3b","zone":"","station":"\u4f4f\u5b85"},"type":"Point","coordinates":[29184,45543],"id":"feature_214"},{"properties":{"price":13200,"use":"\u5869\u5c3b","zone":"","station":"\u4f4f\u5b85"},"type":"Point","coordinates":[30264,46366],"id":"feature_215"},{"properties":{"price":55700,"use":"\u5869\u5c3b","zone":"","station":"\u4f4f\u5b85"},"type":"Point","coordinates":[29210,48797],"id":"feature_216"},{"properties":{"price":15000,"use":"\u5869\u5c3b","zone":"","station":"\u4f4f\u5b85"},"type":"Point","coordinates":[31248,43505],"id":"feature_217"},{"properties":{"price":50200,"use":"\u5869\u5c3b","zone":"","station":"\u4f4f\u5b85"},"type":"Point","coordinates":[28811,46218],"id":"feature_218"},{"properties":{"price":60800,"use":"\u5869\u5c3b","zone":"","station":"\u5e97\u8217\u517c\u4f4f\u5b85"},"type":"Point","coordinates":[27962,44766],"id":"feature_219"},{"properties":{"price":29400,"use":"\u4f50\u4e45","zone":"","station":"\u4f4f\u5b85"},"type":"Point","coordinates":[83087,53312],"id":"feature_220"},{"properties":{"price":30700,"use":"\u4f50\u4e45","zone":"","station":"\u4f4f\u5b85"},"type":"Point","coordinates":[82528,52492],"id":"feature_221"},{"properties":{"price":32200,"use":"\u4f50\u4e45","zone":"","station":"\u4f4f\u5b85"},"type":"Point","coordinates":[83944,55524],"id":"feature_222"},{"properties":{"price":23500,"use":"\u4f50\u4e45","zone":"","station":"\u4f4f\u5b85"},"type":"Point","coordinates":[83745,49889],"id":"feature_223"},{"properties":{"price":37600,"use":"\u4f50\u4e45","zone":"","station":"\u5e97\u8217\u517c\u4f4f\u5b85"},"type":"Point","coordinates":[83518,55721],"id":"feature_224"},{"properties":{"price":26000,"use":"\u4f50\u4e45","zone":"","station":"\u5e97\u8217"},"type":"Point","coordinates":[83652,50634],"id":"feature_225"},{"properties":{"price":37400,"use":"\u4f50\u4e45","zone":"","station":"\u5e97\u8217"},"type":"Point","coordinates":[82396,54402],"id":"feature_226"},{"properties":{"price":91500,"use":"\u4f50\u4e45","zone":"","station":"\u5e97\u8217"},"type":"Point","coordinates":[82457,56071],"id":"feature_227"},{"properties":{"price":59600,"use":"\u4f50\u4e45","zone":"","station":"\u5e97\u8217"},"type":"Point","coordinates":[81735,56219],"id":"feature_228"},{"properties":{"price":39900,"use":"\u5343\u66f2","zone":"","station":"\u4f4f\u5b85"},"type":"Point","coordinates":[46225,73286],"id":"feature_229"},{"properties":{"price":24300,"use":"\u5343\u66f2","zone":"","station":"\u4f4f\u5b85"},"type":"Point","coordinates":[43538,72838],"id":"feature_230"},{"properties":{"price":23600,"use":"\u5343\u66f2","zone":"","station":"\u4f4f\u5b85"},"type":"Point","coordinates":[48492,69510],"id":"feature_231"},{"properties":{"price":28400,"use":"\u5343\u66f2","zone":"","station":"\u4f4f\u5b85"},"type":"Point","coordinates":[49197,70621],"id":"feature_232"},{"properties":{"price":20000,"use":"\u5343\u66f2","zone":"","station":"\u4f4f\u5b85"},"type":"Point","coordinates":[47683,70425],"id":"feature_233"},{"properties":{"price":47400,"use":"\u5343\u66f2","zone":"","station":"\u5e97\u8217"},"type":"Point","coordinates":[46384,73389],"id":"feature_234"},{"properties":{"price":30000,"use":"\u5343\u66f2","zone":"","station":"\u5e97\u8217\u517c\u5171\u540c\u4f4f\u5b85"},"type":"Point","coordinates":[49020,70108],"id":"feature_235"},{"properties":{"price":42000,"use":"\u5343\u66f2","zone":"","station":"\u5e97\u8217"},"type":"Point","coordinates":[46006,73209],"id":"feature_236"},{"properties":{"price":26500,"use":"\u6771\u5fa1","zone":"","station":"\u4f4f\u5b85"},"type":"Point","coordinates":[68815,61119],"id":"feature_237"},{"properties":{"price":27500,"use":"\u6771\u5fa1","zone":"","station":"\u4f4f\u5b85"},"type":"Point","coordinates":[69588,61750],"id":"feature_238"},{"properties":{"price":31200,"use":"\u6771\u5fa1","zone":"","station":"\u5e97\u8217"},"type":"Point","coordinates":[68100,61548],"id":"feature_239"},{"properties":{"price":24000,"use":"\u6771\u5fa1","zone":"","station":"\u5e97\u8217"},"type":"Point","coordinates":[71361,60984],"id":"feature_240"},{"properties":{"price":25000,"use":"\u5b89\u66c7\u91ce","zone":"","station":"\u4f4f\u5b85"},"type":"Point","coordinates":[25984,61458],"id":"feature_241"},{"properties":{"price":16500,"use":"\u5b89\u66c7\u91ce","zone":"","station":"\u4f4f\u5b85"},"type":"Point","coordinates":[24342,61124],"id":"feature_242"},{"properties":{"price":23000,"use":"\u5b89\u66c7\u91ce","zone":"","station":"\u4f4f\u5b85"},"type":"Point","coordinates":[20266,58100],"id":"feature_243"},{"properties":{"price":15900,"use":"\u5b89\u66c7\u91ce","zone":"","station":"\u4f4f\u5b85"},"type":"Point","coordinates":[25095,56386],"id":"feature_244"},{"properties":{"price":25600,"use":"\u5b89\u66c7\u91ce","zone":"","station":"\u4f4f\u5b85"},"type":"Point","coordinates":[26799,58107],"id":"feature_245"},{"properties":{"price":46200,"use":"\u5b89\u66c7\u91ce","zone":"","station":"\u4f4f\u5b85"},"type":"Point","coordinates":[23161,58025],"id":"feature_246"},{"properties":{"price":33000,"use":"\u5b89\u66c7\u91ce","zone":"","station":"\u4f4f\u5b85"},"type":"Point","coordinates":[20422,60260],"id":"feature_247"},{"properties":{"price":17000,"use":"\u5b89\u66c7\u91ce","zone":"","station":"\u4f4f\u5b85"},"type":"Point","coordinates":[18417,58075],"id":"feature_248"},{"properties":{"price":26100,"use":"\u5b89\u66c7\u91ce","zone":"","station":"\u4f4f\u5b85"},"type":"Point","coordinates":[22128,55848],"id":"feature_249"},{"properties":{"price":19400,"use":"\u5b89\u66c7\u91ce","zone":"","station":"\u4f4f\u5b85"},"type":"Point","coordinates":[19922,54370],"id":"feature_250"},{"properties":{"price":11700,"use":"\u5b89\u66c7\u91ce","zone":"","station":"\u4f4f\u5b85"},"type":"Point","coordinates":[15393,61709],"id":"feature_251"},{"properties":{"price":29000,"use":"\u5b89\u66c7\u91ce","zone":"","station":"\u5e97\u8217\u517c\u4f4f\u5b85"},"type":"Point","coordinates":[25718,61278],"id":"feature_252"},{"properties":{"price":43600,"use":"\u5b89\u66c7\u91ce","zone":"","station":"\u5e97\u8217"},"type":"Point","coordinates":[22861,57637],"id":"feature_253"},{"properties":{"price":31900,"use":"\u5b89\u66c7\u91ce","zone":"","station":"\u5e97\u8217\u517c\u4f4f\u5b85"},"type":"Point","coordinates":[22427,54552],"id":"feature_254"},{"properties":{"price":44500,"use":"\u5b89\u66c7\u91ce","zone":"","station":"\u8a3a\u7642\u6240"},"type":"Point","coordinates":[20761,60328],"id":"feature_255"},{"properties":{"price":48800,"use":"\u5b89\u66c7\u91ce","zone":"","station":"\u5e97\u8217"},"type":"Point","coordinates":[24377,57667],"id":"feature_256"},{"properties":{"price":16100,"use":"\u5b89\u66c7\u91ce","zone":"","station":"\u5de5\u5834"},"type":"Point","coordinates":[26319,55762],"id":"feature_257"},{"properties":{"price":11900,"use":"\u5c0f\u6d77","zone":"","station":"\u4f4f\u5b85"},"type":"Point","coordinates":[82897,45317],"id":"feature_258"},{"properties":{"price":14900,"use":"\u5c0f\u6d77","zone":"","station":"\u4f4f\u5b85"},"type":"Point","coordinates":[83919,42669],"id":"feature_259"},{"properties":{"price":22700,"use":"\u5c0f\u6d77","zone":"","station":"\u5e97\u8217\u517c\u4f4f\u5b85"},"type":"Point","coordinates":[84019,43641],"id":"feature_260"},{"properties":{"price":90500,"use":"\u8efd\u4e95\u6ca2","zone":"","station":"\u5225\u8358"},"type":"Point","coordinates":[98276,60084],"id":"feature_261"},{"properties":{"price":21200,"use":"\u8efd\u4e95\u6ca2","zone":"","station":"\u5225\u8358"},"type":"Point","coordinates":[96461,58649],"id":"feature_262"},{"properties":{"price":149000,"use":"\u8efd\u4e95\u6ca2","zone":"","station":"\u4fdd\u990a\u6240"},"type":"Point","coordinates":[99448,61560],"id":"feature_263"},{"properties":{"price":33800,"use":"\u8efd\u4e95\u6ca2","zone":"","station":"\u5225\u8358"},"type":"Point","coordinates":[99434,58780],"id":"feature_264"},{"properties":{"price":20800,"use":"\u8efd\u4e95\u6ca2","zone":"","station":"\u5225\u8358"},"type":"Point","coordinates":[91869,61235],"id":"feature_265"},{"properties":{"price":18000,"use":"\u8efd\u4e95\u6ca2","zone":"","station":"\u5225\u8358"},"type":"Point","coordinates":[97918,62233],"id":"feature_266"},{"properties":{"price":179000,"use":"\u8efd\u4e95\u6ca2","zone":"","station":"\u5e97\u8217\u517c\u5171\u540c\u4f4f\u5b85"},"type":"Point","coordinates":[99999,61064],"id":"feature_267"},{"properties":{"price":72900,"use":"\u8efd\u4e95\u6ca2","zone":"","station":"\u5e97\u8217"},"type":"Point","coordinates":[99525,59605],"id":"feature_268"},{"properties":{"price":19400,"use":"\u5fa1\u4ee3\u7530","zone":"","station":"\u4f4f\u5b85"},"type":"Point","coordinates":[87151,59363],"id":"feature_269"},{"properties":{"price":13900,"use":"\u5fa1\u4ee3\u7530","zone":"","station":"\u4f4f\u5b85"},"type":"Point","coordinates":[85152,59083],"id":"feature_270"},{"properties":{"price":21400,"use":"\u5fa1\u4ee3\u7530","zone":"","station":"\u4f4f\u5b85"},"type":"Point","coordinates":[87273,58234],"id":"feature_271"},{"properties":{"price":28300,"use":"\u5fa1\u4ee3\u7530","zone":"","station":"\u5e97\u8217"},"type":"Point","coordinates":[86533,58827],"id":"feature_272"},{"properties":{"price":38900,"use":"\u4e0b\u8acf\u8a2a","zone":"","station":"\u4f4f\u5b85"},"type":"Point","coordinates":[42338,42177],"id":"feature_273"},{"properties":{"price":43400,"use":"\u4e0b\u8acf\u8a2a","zone":"","station":"\u4f4f\u5b85"},"type":"Point","coordinates":[41979,41751],"id":"feature_274"},{"properties":{"price":46600,"use":"\u4e0b\u8acf\u8a2a","zone":"","station":"\u5e97\u8217\u517c\u4f4f\u5b85"},"type":"Point","coordinates":[42877,41744],"id":"feature_275"},{"properties":{"price":20000,"use":"\u9577\u91ce\u5bcc\u58eb\u898b","zone":"","station":"\u4f4f\u5b85"},"type":"Point","coordinates":[58573,31568],"id":"feature_276"},{"properties":{"price":19800,"use":"\u9577\u91ce\u5bcc\u58eb\u898b","zone":"","station":"\u4f4f\u5b85"},"type":"Point","coordinates":[58443,30983],"id":"feature_277"},{"properties":{"price":24800,"use":"\u9577\u91ce\u5bcc\u58eb\u898b","zone":"","station":"\u5e97\u8217\u517c\u4f4f\u5b85"},"type":"Point","coordinates":[58219,31081],"id":"feature_278"},{"properties":{"price":13600,"use":"\u8fb0\u91ce","zone":"","station":"\u4f4f\u5b85"},"type":"Point","coordinates":[32086,36195],"id":"feature_279"},{"properties":{"price":21000,"use":"\u8fb0\u91ce","zone":"","station":"\u4f4f\u5b85"},"type":"Point","coordinates":[32605,35797],"id":"feature_280"},{"properties":{"price":23900,"use":"\u8fb0\u91ce","zone":"","station":"\u5e97\u8217\u517c\u4f4f\u5b85"},"type":"Point","coordinates":[32727,35936],"id":"feature_281"},{"properties":{"price":18400,"use":"\u7b95\u8f2a","zone":"","station":"\u4f4f\u5b85"},"type":"Point","coordinates":[30957,30485],"id":"feature_282"},{"properties":{"price":23800,"use":"\u7b95\u8f2a","zone":"","station":"\u4f4f\u5b85"},"type":"Point","coordinates":[31485,30968],"id":"feature_283"},{"properties":{"price":25800,"use":"\u7b95\u8f2a","zone":"","station":"\u5e97\u8217\u517c\u4f4f\u5b85"},"type":"Point","coordinates":[31640,31169],"id":"feature_284"},{"properties":{"price":12300,"use":"\u98ef\u5cf6","zone":"","station":"\u4f4f\u5b85"},"type":"Point","coordinates":[25109,15053],"id":"feature_285"},{"properties":{"price":8070,"use":"\u98ef\u5cf6","zone":"","station":"\u4f4f\u5b85"},"type":"Point","coordinates":[22745,13535],"id":"feature_286"},{"properties":{"price":19200,"use":"\u98ef\u5cf6","zone":"","station":"\u5e97\u8217\u517c\u4f4f\u5b85"},"type":"Point","coordinates":[25389,15172],"id":"feature_287"},{"properties":{"price":18100,"use":"\u5357\u7b95\u8f2a","zone":"","station":"\u4f4f\u5b85"},"type":"Point","coordinates":[29964,28068],"id":"feature_288"},{"properties":{"price":18600,"use":"\u5357\u7b95\u8f2a","zone":"","station":"\u4f4f\u5b85"},"type":"Point","coordinates":[27485,27260],"id":"feature_289"},{"properties":{"price":11000,"use":"\u5357\u7b95\u8f2a","zone":"","station":"\u5009\u5eab"},"type":"Point","coordinates":[28362,30206],"id":"feature_290"},{"properties":{"price":4540,"use":"\u9577\u91ce\u4e2d\u5ddd","zone":"","station":"\u4f4f\u5b85"},"type":"Point","coordinates":[27828,12246],"id":"feature_291"},{"properties":{"price":4630,"use":"\u9577\u91ce\u4e2d\u5ddd","zone":"","station":"\u4f4f\u5b85"},"type":"Point","coordinates":[24587,11533],"id":"feature_292"},{"properties":{"price":20900,"use":"\u9577\u91ce\u5bae\u7530","zone":"","station":"\u4f4f\u5b85"},"type":"Point","coordinates":[26924,21029],"id":"feature_293"},{"properties":{"price":15100,"use":"\u9577\u91ce\u5bae\u7530","zone":"","station":"\u4f4f\u5b85"},"type":"Point","coordinates":[26427,20992],"id":"feature_294"},{"properties":{"price":19200,"use":"\u677e\u5ddd","zone":"","station":"\u4f4f\u5b85"},"type":"Point","coordinates":[24080,9288],"id":"feature_295"},{"properties":{"price":17200,"use":"\u677e\u5ddd","zone":"","station":"\u4f4f\u5b85"},"type":"Point","coordinates":[24189,9987],"id":"feature_296"},{"properties":{"price":21900,"use":"\u677e\u5ddd","zone":"","station":"\u5e97\u8217\u517c\u4f4f\u5b85"},"type":"Point","coordinates":[24296,9572],"id":"feature_297"},{"properties":{"price":20100,"use":"\u9ad8\u68ee","zone":"","station":"\u4f4f\u5b85"},"type":"Point","coordinates":[21395,6903],"id":"feature_298"},{"properties":{"price":13300,"use":"\u9ad8\u68ee","zone":"","station":"\u4f4f\u5b85"},"type":"Point","coordinates":[19375,6494],"id":"feature_299"},{"properties":{"price":21500,"use":"\u9ad8\u68ee","zone":"","station":"\u5e97\u8217\u517c\u4f4f\u5b85"},"type":"Point","coordinates":[21001,6458],"id":"feature_300"},{"properties":{"price":14700,"use":"\u4e0a\u677e","zone":"","station":"\u4f4f\u5b85"},"type":"Point","coordinates":[748,22701],"id":"feature_301"},{"properties":{"price":10800,"use":"\u4e0a\u677e","zone":"","station":"\u4f4f\u5b85"},"type":"Point","coordinates":[348,22076],"id":"feature_302"},{"properties":{"price":15900,"use":"\u4e0a\u677e","zone":"","station":"\u5e97\u8217"},"type":"Point","coordinates":[907,22392],"id":"feature_303"},{"properties":{"price":21500,"use":"\u6728\u66fd","zone":"","station":"\u4f4f\u5b85"},"type":"Point","coordinates":[1668,27022],"id":"feature_304"},{"properties":{"price":14300,"use":"\u6728\u66fd","zone":"","station":"\u4f4f\u5b85"},"type":"Point","coordinates":[0,26001],"id":"feature_305"},{"properties":{"price":28600,"use":"\u6728\u66fd","zone":"","station":"\u5e97\u8217\u517c\u4f4f\u5b85"},"type":"Point","coordinates":[1257,26915],"id":"feature_306"},{"properties":{"price":15400,"use":"\u9577\u91ce\u6c60\u7530","zone":"","station":"\u4f4f\u5b85"},"type":"Point","coordinates":[20040,65973],"id":"feature_307"},{"properties":{"price":7650,"use":"\u9577\u91ce\u6c60\u7530","zone":"","station":"\u4f4f\u5b85"},"type":"Point","coordinates":[20726,62857],"id":"feature_308"},{"properties":{"price":15800,"use":"\u9577\u91ce\u6c60\u7530","zone":"","station":"\u5e97\u8217\u517c\u4f4f\u5b85"},"type":"Point","coordinates":[20283,65898],"id":"feature_309"},{"properties":{"price":19100,"use":"\u307e\u3064\u304b\u308f","zone":"","station":"\u4f4f\u5b85"},"type":"Point","coordinates":[18340,66105],"id":"feature_310"},{"properties":{"price":15500,"use":"\u307e\u3064\u304b\u308f","zone":"","station":"\u4f4f\u5b85"},"type":"Point","coordinates":[19101,64965],"id":"feature_311"},{"properties":{"price":15900,"use":"\u767d\u99ac","zone":"","station":"\u4f4f\u5b85"},"type":"Point","coordinates":[16798,83898],"id":"feature_312"},{"properties":{"price":7250,"use":"\u767d\u99ac","zone":"","station":"\u4f4f\u5b85"},"type":"Point","coordinates":[19505,84689],"id":"feature_313"},{"properties":{"price":22400,"use":"\u767d\u99ac","zone":"","station":"\u5e97\u8217\u517c\u4f4f\u5b85"},"type":"Point","coordinates":[16295,84901],"id":"feature_314"},{"properties":{"price":26800,"use":"\u5742\u57ce","zone":"","station":"\u4f4f\u5b85"},"type":"Point","coordinates":[52368,68892],"id":"feature_315"},{"properties":{"price":22100,"use":"\u5742\u57ce","zone":"","station":"\u4f4f\u5b85"},"type":"Point","coordinates":[53992,67247],"id":"feature_316"},{"properties":{"price":29700,"use":"\u5742\u57ce","zone":"","station":"\u5e97\u8217"},"type":"Point","coordinates":[52232,68703],"id":"feature_317"},{"properties":{"price":45000,"use":"\u5c0f\u5e03\u65bd","zone":"","station":"\u4f4f\u5b85"},"type":"Point","coordinates":[66777,84827],"id":"feature_318"},{"properties":{"price":41000,"use":"\u5c0f\u5e03\u65bd","zone":"","station":"\u4f4f\u5b85"},"type":"Point","coordinates":[66194,84149],"id":"feature_319"},{"properties":{"price":12300,"use":"\u5c0f\u5e03\u65bd","zone":"","station":"\u4f4f\u5b85"},"type":"Point","coordinates":[66404,85455],"id":"feature_320"},{"properties":{"price":51000,"use":"\u5c0f\u5e03\u65bd","zone":"","station":"\u5e97\u8217\u517c\u4f4f\u5b85"},"type":"Point","coordinates":[66417,84575],"id":"feature_321"},{"properties":{"price":22800,"use":"\u5c71\u30ce\u5185","zone":"","station":"\u4f4f\u5b85"},"type":"Point","coordinates":[76482,87796],"id":"feature_322"},{"properties":{"price":23300,"use":"\u5c71\u30ce\u5185","zone":"","station":"\u4f4f\u5b85"},"type":"Point","coordinates":[77626,87404],"id":"feature_323"},{"properties":{"price":29000,"use":"\u5c71\u30ce\u5185","zone":"","station":"\u5e97\u8217\u517c\u4f4f\u5b85"},"type":"Point","coordinates":[76907,87695],"id":"feature_324"},{"properties":{"price":23000,"use":"\u91ce\u6ca2\u6e29\u6cc9","zone":"","station":"\u6c11\u5bbf"},"type":"Point","coordinates":[80655,99999],"id":"feature_325"},{"properties":{"price":17300,"use":"\u91ce\u6ca2\u6e29\u6cc9","zone":"","station":"\u6c11\u5bbf"},"type":"Point","coordinates":[79759,99592],"id":"feature_326"},{"properties":{"price":6690,"use":"\u4fe1\u6fc3","zone":"","station":"\u4f4f\u5b85"},"type":"Point","coordinates":[54589,93854],"id":"feature_327"},{"properties":{"price":10100,"use":"\u4fe1\u6fc3","zone":"","station":"\u4f4f\u5b85"},"type":"Point","coordinates":[55656,91642],"id":"feature_328"},{"properties":{"price":14200,"use":"\u4fe1\u6fc3","zone":"","station":"\u5e97\u8217"},"type":"Point","coordinates":[55791,91506],"id":"feature_329"},{"properties":{"price":10800,"use":"\u98ef\u7db1","zone":"","station":"\u4f4f\u5b85"},"type":"Point","coordinates":[60155,87688],"id":"feature_330"},{"properties":{"price":10100,"use":"\u98ef\u7db1","zone":"","station":"\u4f4f\u5b85"},"type":"Point","coordinates":[57550,88470],"id":"feature_331"}],"type":"GeometryCollection"}},"bbox":[137.68557,35.45551,138.63452,36.92177],"transform":{"scale":[9.489594895948924e-06,1.4662746627466329e-05],"translate":[137.68557,35.45551]},"arcs":[]}