{"type":"Topology","objects":{"data":{"geometries":[{"properties":{"price":239000,"use":"\u718a\u672c\u4e2d\u592e","zone":"","station":"\u4f4f\u5b85"},"type":"Point","coordinates":[65009,74398],"id":"feature_000"},{"properties":{"price":98400,"use":"\u718a\u672c\u4e2d\u592e","zone":"","station":"\u4f4f\u5b85"},"type":"Point","coordinates":[64506,75682],"id":"feature_001"},{"properties":{"price":172000,"use":"\u718a\u672c\u4e2d\u592e","zone":"","station":"\u4f4f\u5b85"},"type":"Point","coordinates":[66386,73141],"id":"feature_002"},{"properties":{"price":107000,"use":"\u718a\u672c\u4e2d\u592e","zone":"","station":"\u4f4f\u5b85"},"type":"Point","coordinates":[64899,73110],"id":"feature_003"},{"properties":{"price":135000,"use":"\u718a\u672c\u4e2d\u592e","zone":"","station":"\u7a7a\u5730"},"type":"Point","coordinates":[64136,75335],"id":"feature_004"},{"properties":{"price":82900,"use":"\u718a\u672c\u4e2d\u592e","zone":"","station":"\u4f4f\u5b85"},"type":"Point","coordinates":[63183,72547],"id":"feature_005"},{"properties":{"price":84300,"use":"\u718a\u672c\u4e2d\u592e","zone":"","station":"\u4f4f\u5b85"},"type":"Point","coordinates":[66408,71373],"id":"feature_006"},{"properties":{"price":119000,"use":"\u718a\u672c\u4e2d\u592e","zone":"","station":"\u4f4f\u5b85"},"type":"Point","coordinates":[67500,72134],"id":"feature_007"},{"properties":{"price":95800,"use":"\u718a\u672c\u4e2d\u592e","zone":"","station":"\u4f4f\u5b85"},"type":"Point","coordinates":[68007,74236],"id":"feature_008"},{"properties":{"price":79800,"use":"\u718a\u672c\u4e2d\u592e","zone":"","station":"\u4f4f\u5b85"},"type":"Point","coordinates":[65390,72026],"id":"feature_009"},{"properties":{"price":120000,"use":"\u718a\u672c\u4e2d\u592e","zone":"","station":"\u4f4f\u5b85"},"type":"Point","coordinates":[66281,74430],"id":"feature_010"},{"properties":{"price":90000,"use":"\u718a\u672c\u4e2d\u592e","zone":"","station":"\u4f4f\u5b85"},"type":"Point","coordinates":[65744,72603],"id":"feature_011"},{"properties":{"price":81500,"use":"\u718a\u672c\u4e2d\u592e","zone":"","station":"\u4f4f\u5b85"},"type":"Point","coordinates":[66192,75244],"id":"feature_012"},{"properties":{"price":63400,"use":"\u718a\u672c\u4e2d\u592e","zone":"","station":"\u4f4f\u5b85"},"type":"Point","coordinates":[65554,76420],"id":"feature_013"},{"properties":{"price":154000,"use":"\u718a\u672c\u4e2d\u592e","zone":"","station":"\u4f4f\u5b85"},"type":"Point","coordinates":[63672,75719],"id":"feature_014"},{"properties":{"price":150000,"use":"\u718a\u672c\u4e2d\u592e","zone":"","station":"\u4f4f\u5b85"},"type":"Point","coordinates":[66809,73649],"id":"feature_015"},{"properties":{"price":180000,"use":"\u718a\u672c\u4e2d\u592e","zone":"","station":"\u4f4f\u5b85"},"type":"Point","coordinates":[65658,73595],"id":"feature_016"},{"properties":{"price":171000,"use":"\u718a\u672c\u4e2d\u592e","zone":"","station":"\u5171\u540c\u4f4f\u5b85"},"type":"Point","coordinates":[66781,73177],"id":"feature_017"},{"properties":{"price":116000,"use":"\u718a\u672c\u4e2d\u592e","zone":"","station":"\u4f4f\u5b85"},"type":"Point","coordinates":[66787,72765],"id":"feature_018"},{"properties":{"price":70600,"use":"\u718a\u672c\u4e2d\u592e","zone":"","station":"\u4f4f\u5b85"},"type":"Point","coordinates":[63833,72573],"id":"feature_019"},{"properties":{"price":122000,"use":"\u718a\u672c\u4e2d\u592e","zone":"","station":"\u4f4f\u5b85"},"type":"Point","coordinates":[66944,74474],"id":"feature_020"},{"properties":{"price":119000,"use":"\u718a\u672c\u4e2d\u592e","zone":"","station":"\u4f4f\u5b85"},"type":"Point","coordinates":[65212,72712],"id":"feature_021"},{"properties":{"price":111000,"use":"\u718a\u672c\u4e2d\u592e","zone":"","station":"\u4f4f\u5b85"},"type":"Point","coordinates":[65407,75209],"id":"feature_022"},{"properties":{"price":1430000,"use":"\u718a\u672c\u4e2d\u592e","zone":"","station":"\u5e97\u8217\u517c\u4f4f\u5b85"},"type":"Point","coordinates":[64008,73907],"id":"feature_023"},{"properties":{"price":1250000,"use":"\u718a\u672c\u4e2d\u592e","zone":"","station":"\u5e97\u8217"},"type":"Point","coordinates":[64238,74449],"id":"feature_024"},{"properties":{"price":654000,"use":"\u718a\u672c\u4e2d\u592e","zone":"","station":"\u5e97\u8217"},"type":"Point","coordinates":[63818,74020],"id":"feature_025"},{"properties":{"price":152000,"use":"\u718a\u672c\u4e2d\u592e","zone":"","station":"\u8a3a\u7642\u6240"},"type":"Point","coordinates":[64385,75231],"id":"feature_026"},{"properties":{"price":218000,"use":"\u718a\u672c\u4e2d\u592e","zone":"","station":"\u8a3a\u7642\u6240\u517c\u4f4f\u5b85"},"type":"Point","coordinates":[62986,74355],"id":"feature_027"},{"properties":{"price":594000,"use":"\u718a\u672c\u4e2d\u592e","zone":"","station":"\u5e97\u8217\u517c\u4f4f\u5b85"},"type":"Point","coordinates":[64163,73963],"id":"feature_028"},{"properties":{"price":238000,"use":"\u718a\u672c\u4e2d\u592e","zone":"","station":"\u5c02\u9580\u5b66\u6821\u517c\u4fdd\u80b2\u5712"},"type":"Point","coordinates":[63312,73463],"id":"feature_029"},{"properties":{"price":252000,"use":"\u718a\u672c\u4e2d\u592e","zone":"","station":"\u8a3a\u7642\u6240"},"type":"Point","coordinates":[62943,73387],"id":"feature_030"},{"properties":{"price":195000,"use":"\u718a\u672c\u4e2d\u592e","zone":"","station":"\u8a3a\u7642\u6240"},"type":"Point","coordinates":[64743,75315],"id":"feature_031"},{"properties":{"price":458000,"use":"\u718a\u672c\u4e2d\u592e","zone":"","station":"\u4e8b\u52d9\u6240"},"type":"Point","coordinates":[64548,74635],"id":"feature_032"},{"properties":{"price":208000,"use":"\u718a\u672c\u4e2d\u592e","zone":"","station":"\u5e97\u8217\u3001\u4e8b\u52d9\u6240\u517c\u4f4f\u5b85"},"type":"Point","coordinates":[65947,73346],"id":"feature_033"},{"properties":{"price":181000,"use":"\u718a\u672c\u4e2d\u592e","zone":"","station":"\u4e8b\u52d9\u6240"},"type":"Point","coordinates":[66952,72428],"id":"feature_034"},{"properties":{"price":187000,"use":"\u718a\u672c\u4e2d\u592e","zone":"","station":"\u5e97\u8217\u517c\u5171\u540c\u4f4f\u5b85"},"type":"Point","coordinates":[64163,72918],"id":"feature_035"},{"properties":{"price":2400000,"use":"\u718a\u672c\u4e2d\u592e","zone":"","station":"\u5e97\u8217"},"type":"Point","coordinates":[64102,74203],"id":"feature_036"},{"properties":{"price":155000,"use":"\u718a\u672c\u4e2d\u592e","zone":"","station":"\u8a3a\u7642\u6240"},"type":"Point","coordinates":[68986,74609],"id":"feature_037"},{"properties":{"price":548000,"use":"\u718a\u672c\u4e2d\u592e","zone":"","station":"\u4e8b\u52d9\u6240"},"type":"Point","coordinates":[64436,74030],"id":"feature_038"},{"properties":{"price":529000,"use":"\u718a\u672c\u4e2d\u592e","zone":"","station":"\u4e8b\u52d9\u6240\u517c\u5171\u540c\u4f4f\u5b85"},"type":"Point","coordinates":[63353,73841],"id":"feature_039"},{"properties":{"price":416000,"use":"\u718a\u672c\u4e2d\u592e","zone":"","station":"\u5e97\u8217\u517c\u5171\u540c\u4f4f\u5b85"},"type":"Point","coordinates":[64331,74788],"id":"feature_040"},{"properties":{"price":354000,"use":"\u718a\u672c\u4e2d\u592e","zone":"","station":"\u4e8b\u52d9\u6240"},"type":"Point","coordinates":[64663,74035],"id":"feature_041"},{"properties":{"price":270000,"use":"\u718a\u672c\u4e2d\u592e","zone":"","station":"\u5e97\u8217\u517c\u5171\u540c\u4f4f\u5b85"},"type":"Point","coordinates":[65481,73384],"id":"feature_042"},{"properties":{"price":168000,"use":"\u718a\u672c\u4e2d\u592e","zone":"","station":"\u4e8b\u52d9\u6240\u517c\u4f4f\u5b85"},"type":"Point","coordinates":[66793,73484],"id":"feature_043"},{"properties":{"price":144000,"use":"\u718a\u672c\u4e2d\u592e","zone":"","station":"\u5e97\u8217"},"type":"Point","coordinates":[64598,71618],"id":"feature_044"},{"properties":{"price":988000,"use":"\u718a\u672c\u4e2d\u592e","zone":"","station":"\u5e97\u8217\u517c\u4e8b\u52d9\u6240"},"type":"Point","coordinates":[63757,73881],"id":"feature_045"},{"properties":{"price":186000,"use":"\u718a\u672c\u4e2d\u592e","zone":"","station":"\u5e97\u8217\u517c\u4e8b\u52d9\u6240"},"type":"Point","coordinates":[67452,72710],"id":"feature_046"},{"properties":{"price":76000,"use":"\u718a\u672c\u4e2d\u592e","zone":"","station":"\u4e8b\u52d9\u6240\u517c\u4f5c\u696d\u6240"},"type":"Point","coordinates":[63294,71594],"id":"feature_047"},{"properties":{"price":84900,"use":"\u718a\u672c\u6771","zone":"","station":"\u4f4f\u5b85"},"type":"Point","coordinates":[69269,70568],"id":"feature_048"},{"properties":{"price":104000,"use":"\u718a\u672c\u6771","zone":"","station":"\u4f4f\u5b85"},"type":"Point","coordinates":[68350,73060],"id":"feature_049"},{"properties":{"price":87700,"use":"\u718a\u672c\u6771","zone":"","station":"\u4f4f\u5b85"},"type":"Point","coordinates":[67563,71203],"id":"feature_050"},{"properties":{"price":58300,"use":"\u718a\u672c\u6771","zone":"","station":"\u4f4f\u5b85"},"type":"Point","coordinates":[70780,70836],"id":"feature_051"},{"properties":{"price":66900,"use":"\u718a\u672c\u6771","zone":"","station":"\u4f4f\u5b85"},"type":"Point","coordinates":[71621,75813],"id":"feature_052"},{"properties":{"price":92000,"use":"\u718a\u672c\u6771","zone":"","station":"\u4f4f\u5b85"},"type":"Point","coordinates":[69837,71020],"id":"feature_053"},{"properties":{"price":49500,"use":"\u718a\u672c\u6771","zone":"","station":"\u4f4f\u5b85"},"type":"Point","coordinates":[72031,75728],"id":"feature_054"},{"properties":{"price":58400,"use":"\u718a\u672c\u6771","zone":"","station":"\u4f4f\u5b85"},"type":"Point","coordinates":[68519,76776],"id":"feature_055"},{"properties":{"price":94000,"use":"\u718a\u672c\u6771","zone":"","station":"\u4f4f\u5b85"},"type":"Point","coordinates":[68624,71212],"id":"feature_056"},{"properties":{"price":76400,"use":"\u718a\u672c\u6771","zone":"","station":"\u4f4f\u5b85"},"type":"Point","coordinates":[69945,72981],"id":"feature_057"},{"properties":{"price":93300,"use":"\u718a\u672c\u6771","zone":"","station":"\u4f4f\u5b85"},"type":"Point","coordinates":[67692,73380],"id":"feature_058"},{"properties":{"price":56700,"use":"\u718a\u672c\u6771","zone":"","station":"\u4f4f\u5b85"},"type":"Point","coordinates":[70971,78032],"id":"feature_059"},{"properties":{"price":64000,"use":"\u718a\u672c\u6771","zone":"","station":"\u4f4f\u5b85"},"type":"Point","coordinates":[69151,76688],"id":"feature_060"},{"properties":{"price":58200,"use":"\u718a\u672c\u6771","zone":"","station":"\u4f4f\u5b85"},"type":"Point","coordinates":[69378,77545],"id":"feature_061"},{"properties":{"price":83900,"use":"\u718a\u672c\u6771","zone":"","station":"\u4f4f\u5b85"},"type":"Point","coordinates":[69916,74932],"id":"feature_062"},{"properties":{"price":78400,"use":"\u718a\u672c\u6771","zone":"","station":"\u4f4f\u5b85"},"type":"Point","coordinates":[68114,75756],"id":"feature_063"},{"properties":{"price":73900,"use":"\u718a\u672c\u6771","zone":"","station":"\u4f4f\u5b85"},"type":"Point","coordinates":[69161,75830],"id":"feature_064"},{"properties":{"price":41100,"use":"\u718a\u672c\u6771","zone":"","station":"\u4f4f\u5b85"},"type":"Point","coordinates":[71569,76481],"id":"feature_065"},{"properties":{"price":70200,"use":"\u718a\u672c\u6771","zone":"","station":"\u4f4f\u5b85"},"type":"Point","coordinates":[66913,70640],"id":"feature_066"},{"properties":{"price":80200,"use":"\u718a\u672c\u6771","zone":"","station":"\u4f4f\u5b85"},"type":"Point","coordinates":[68646,75164],"id":"feature_067"},{"properties":{"price":68200,"use":"\u718a\u672c\u6771","zone":"","station":"\u4f4f\u5b85"},"type":"Point","coordinates":[70628,76214],"id":"feature_068"},{"properties":{"price":41300,"use":"\u718a\u672c\u6771","zone":"","station":"\u4f4f\u5b85"},"type":"Point","coordinates":[66451,69641],"id":"feature_069"},{"properties":{"price":95000,"use":"\u718a\u672c\u6771","zone":"","station":"\u4f4f\u5b85"},"type":"Point","coordinates":[70286,71868],"id":"feature_070"},{"properties":{"price":28500,"use":"\u718a\u672c\u6771","zone":"","station":"\u7551"},"type":"Point","coordinates":[70585,76354],"id":"feature_071"},{"properties":{"price":153000,"use":"\u718a\u672c\u6771","zone":"","station":"\u5e97\u8217"},"type":"Point","coordinates":[67759,74876],"id":"feature_072"},{"properties":{"price":170000,"use":"\u718a\u672c\u6771","zone":"","station":"\u5e97\u8217\u517c\u4e8b\u52d9\u6240"},"type":"Point","coordinates":[68863,71257],"id":"feature_073"},{"properties":{"price":114000,"use":"\u718a\u672c\u6771","zone":"","station":"\u5e97\u8217\u517c\u5171\u540c\u4f4f\u5b85"},"type":"Point","coordinates":[69253,74337],"id":"feature_074"},{"properties":{"price":111000,"use":"\u718a\u672c\u6771","zone":"","station":"\u5e97\u8217"},"type":"Point","coordinates":[70234,71206],"id":"feature_075"},{"properties":{"price":89800,"use":"\u718a\u672c\u6771","zone":"","station":"\u5e97\u8217\u517c\u4e8b\u52d9\u6240"},"type":"Point","coordinates":[70222,74464],"id":"feature_076"},{"properties":{"price":90500,"use":"\u718a\u672c\u6771","zone":"","station":"\u5e97\u8217\u517c\u5009\u5eab"},"type":"Point","coordinates":[70715,78993],"id":"feature_077"},{"properties":{"price":49600,"use":"\u718a\u672c\u6771","zone":"","station":"\u5009\u5eab"},"type":"Point","coordinates":[71379,77081],"id":"feature_078"},{"properties":{"price":57600,"use":"\u718a\u672c\u897f","zone":"","station":"\u4f4f\u5b85"},"type":"Point","coordinates":[59553,71430],"id":"feature_079"},{"properties":{"price":61100,"use":"\u718a\u672c\u897f","zone":"","station":"\u4f4f\u5b85"},"type":"Point","coordinates":[61982,70490],"id":"feature_080"},{"properties":{"price":40400,"use":"\u718a\u672c\u897f","zone":"","station":"\u4f4f\u5b85"},"type":"Point","coordinates":[60805,73829],"id":"feature_081"},{"properties":{"price":37700,"use":"\u718a\u672c\u897f","zone":"","station":"\u4f4f\u5b85"},"type":"Point","coordinates":[61036,75554],"id":"feature_082"},{"properties":{"price":35100,"use":"\u718a\u672c\u897f","zone":"","station":"\u4f4f\u5b85"},"type":"Point","coordinates":[61961,77521],"id":"feature_083"},{"properties":{"price":41300,"use":"\u718a\u672c\u897f","zone":"","station":"\u4f4f\u5b85"},"type":"Point","coordinates":[62329,76255],"id":"feature_084"},{"properties":{"price":81200,"use":"\u718a\u672c\u897f","zone":"","station":"\u4f4f\u5b85"},"type":"Point","coordinates":[62409,74788],"id":"feature_085"},{"properties":{"price":65900,"use":"\u718a\u672c\u897f","zone":"","station":"\u4f4f\u5b85"},"type":"Point","coordinates":[63710,76584],"id":"feature_086"},{"properties":{"price":61800,"use":"\u718a\u672c\u897f","zone":"","station":"\u4f4f\u5b85"},"type":"Point","coordinates":[59180,71485],"id":"feature_087"},{"properties":{"price":36100,"use":"\u718a\u672c\u897f","zone":"","station":"\u4f4f\u5b85"},"type":"Point","coordinates":[57016,71691],"id":"feature_088"},{"properties":{"price":63200,"use":"\u718a\u672c\u897f","zone":"","station":"\u4f4f\u5b85"},"type":"Point","coordinates":[62101,75465],"id":"feature_089"},{"properties":{"price":215000,"use":"\u718a\u672c\u897f","zone":"","station":"\u5171\u540c\u4f4f\u5b85"},"type":"Point","coordinates":[62088,72892],"id":"feature_090"},{"properties":{"price":69700,"use":"\u718a\u672c\u897f","zone":"","station":"\u4f4f\u5b85"},"type":"Point","coordinates":[61228,72473],"id":"feature_091"},{"properties":{"price":56000,"use":"\u718a\u672c\u897f","zone":"","station":"\u4f4f\u5b85"},"type":"Point","coordinates":[63776,77726],"id":"feature_092"},{"properties":{"price":148000,"use":"\u718a\u672c\u897f","zone":"","station":"\u5e97\u8217\u517c\u4f4f\u5b85"},"type":"Point","coordinates":[63788,76231],"id":"feature_093"},{"properties":{"price":81800,"use":"\u718a\u672c\u897f","zone":"","station":"\u8a3a\u7642\u6240"},"type":"Point","coordinates":[61740,71536],"id":"feature_094"},{"properties":{"price":182000,"use":"\u718a\u672c\u897f","zone":"","station":"\u5e97\u8217\u517c\u5171\u540c\u4f4f\u5b85"},"type":"Point","coordinates":[62436,71975],"id":"feature_095"},{"properties":{"price":93000,"use":"\u718a\u672c\u897f","zone":"","station":"\u8a3a\u7642\u6240"},"type":"Point","coordinates":[63987,77049],"id":"feature_096"},{"properties":{"price":77400,"use":"\u718a\u672c\u897f","zone":"","station":"\u5e97\u8217\u3001\u4e8b\u52d9\u6240\u517c\u5171\u540c\u4f4f\u5b85"},"type":"Point","coordinates":[59007,71153],"id":"feature_097"},{"properties":{"price":154000,"use":"\u718a\u672c\u897f","zone":"","station":"\u5e97\u8217\u517c\u5171\u540c\u4f4f\u5b85"},"type":"Point","coordinates":[61383,72042],"id":"feature_098"},{"properties":{"price":128000,"use":"\u718a\u672c\u897f","zone":"","station":"\u4e8b\u52d9\u6240\u517c\u30c7\u30a4\u30b5\u30fc\u30d3\u30b9\u30bb\u30f3\u30bf\u30fc"},"type":"Point","coordinates":[63049,75470],"id":"feature_099"},{"properties":{"price":55000,"use":"\u718a\u672c\u897f","zone":"","station":"\u5009\u5eab"},"type":"Point","coordinates":[61843,70868],"id":"feature_100"},{"properties":{"price":83000,"use":"\u718a\u672c\u5357","zone":"","station":"\u4f4f\u5b85"},"type":"Point","coordinates":[64301,70140],"id":"feature_101"},{"properties":{"price":65400,"use":"\u718a\u672c\u5357","zone":"","station":"\u4f4f\u5b85"},"type":"Point","coordinates":[63091,70222],"id":"feature_102"},{"properties":{"price":67300,"use":"\u718a\u672c\u5357","zone":"","station":"\u4f4f\u5b85"},"type":"Point","coordinates":[61229,69968],"id":"feature_103"},{"properties":{"price":73000,"use":"\u718a\u672c\u5357","zone":"","station":"\u4f4f\u5b85"},"type":"Point","coordinates":[61234,69030],"id":"feature_104"},{"properties":{"price":57600,"use":"\u718a\u672c\u5357","zone":"","station":"\u4f4f\u5b85"},"type":"Point","coordinates":[65245,69051],"id":"feature_105"},{"properties":{"price":45400,"use":"\u718a\u672c\u5357","zone":"","station":"\u4f4f\u5b85"},"type":"Point","coordinates":[61438,65673],"id":"feature_106"},{"properties":{"price":45000,"use":"\u718a\u672c\u5357","zone":"","station":"\u4f4f\u5b85"},"type":"Point","coordinates":[61442,63261],"id":"feature_107"},{"properties":{"price":45500,"use":"\u718a\u672c\u5357","zone":"","station":"\u4f4f\u5b85"},"type":"Point","coordinates":[59326,69023],"id":"feature_108"},{"properties":{"price":111000,"use":"\u718a\u672c\u5357","zone":"","station":"\u4f4f\u5b85"},"type":"Point","coordinates":[63172,70895],"id":"feature_109"},{"properties":{"price":60300,"use":"\u718a\u672c\u5357","zone":"","station":"\u4f4f\u5b85"},"type":"Point","coordinates":[61898,66475],"id":"feature_110"},{"properties":{"price":53100,"use":"\u718a\u672c\u5357","zone":"","station":"\u4f4f\u5b85"},"type":"Point","coordinates":[61760,68113],"id":"feature_111"},{"properties":{"price":39100,"use":"\u718a\u672c\u5357","zone":"","station":"\u4f4f\u5b85"},"type":"Point","coordinates":[66484,62929],"id":"feature_112"},{"properties":{"price":22600,"use":"\u718a\u672c\u5357","zone":"","station":"\u4f4f\u5b85"},"type":"Point","coordinates":[66330,63738],"id":"feature_113"},{"properties":{"price":34800,"use":"\u718a\u672c\u5357","zone":"","station":"\u4f4f\u5b85"},"type":"Point","coordinates":[60596,67518],"id":"feature_114"},{"properties":{"price":16100,"use":"\u718a\u672c\u5357","zone":"","station":"\u4f4f\u5b85"},"type":"Point","coordinates":[57104,65453],"id":"feature_115"},{"properties":{"price":74100,"use":"\u718a\u672c\u5357","zone":"","station":"\u4f4f\u5b85"},"type":"Point","coordinates":[65772,69373],"id":"feature_116"},{"properties":{"price":66200,"use":"\u718a\u672c\u5357","zone":"","station":"\u5e97\u8217\u517c\u4f4f\u5b85"},"type":"Point","coordinates":[61636,66648],"id":"feature_117"},{"properties":{"price":138000,"use":"\u718a\u672c\u5357","zone":"","station":"\u5e97\u8217"},"type":"Point","coordinates":[63816,70495],"id":"feature_118"},{"properties":{"price":109000,"use":"\u718a\u672c\u5357","zone":"","station":"\u8a3a\u7642\u6240\u517c\u4f4f\u5b85"},"type":"Point","coordinates":[61484,69456],"id":"feature_119"},{"properties":{"price":52900,"use":"\u718a\u672c\u5357","zone":"","station":"\u5efa\u7bc9\u4e2d"},"type":"Point","coordinates":[62767,68841],"id":"feature_120"},{"properties":{"price":91000,"use":"\u718a\u672c\u5357","zone":"","station":"\u4e8b\u52d9\u6240\u517c\u5009\u5eab"},"type":"Point","coordinates":[63853,70130],"id":"feature_121"},{"properties":{"price":65000,"use":"\u718a\u672c\u5317","zone":"","station":"\u4f4f\u5b85"},"type":"Point","coordinates":[71422,80571],"id":"feature_122"},{"properties":{"price":54300,"use":"\u718a\u672c\u5317","zone":"","station":"\u4f4f\u5b85"},"type":"Point","coordinates":[64618,77145],"id":"feature_123"},{"properties":{"price":15300,"use":"\u718a\u672c\u5317","zone":"","station":"\u4f4f\u5b85"},"type":"Point","coordinates":[62583,79440],"id":"feature_124"},{"properties":{"price":52800,"use":"\u718a\u672c\u5317","zone":"","station":"\u4f4f\u5b85"},"type":"Point","coordinates":[64657,78368],"id":"feature_125"},{"properties":{"price":53300,"use":"\u718a\u672c\u5317","zone":"","station":"\u4f4f\u5b85"},"type":"Point","coordinates":[65514,79857],"id":"feature_126"},{"properties":{"price":54800,"use":"\u718a\u672c\u5317","zone":"","station":"\u4f4f\u5b85"},"type":"Point","coordinates":[67642,79452],"id":"feature_127"},{"properties":{"price":55700,"use":"\u718a\u672c\u5317","zone":"","station":"\u4f4f\u5b85"},"type":"Point","coordinates":[68922,78976],"id":"feature_128"},{"properties":{"price":38600,"use":"\u718a\u672c\u5317","zone":"","station":"\u4f4f\u5b85"},"type":"Point","coordinates":[67868,77632],"id":"feature_129"},{"properties":{"price":71400,"use":"\u718a\u672c\u5317","zone":"","station":"\u4f4f\u5b85"},"type":"Point","coordinates":[68798,79794],"id":"feature_130"},{"properties":{"price":73000,"use":"\u718a\u672c\u5317","zone":"","station":"\u4f4f\u5b85"},"type":"Point","coordinates":[69555,80635],"id":"feature_131"},{"properties":{"price":37500,"use":"\u718a\u672c\u5317","zone":"","station":"\u4f4f\u5b85"},"type":"Point","coordinates":[63912,83404],"id":"feature_132"},{"properties":{"price":39500,"use":"\u718a\u672c\u5317","zone":"","station":"\u4f4f\u5b85"},"type":"Point","coordinates":[65672,82807],"id":"feature_133"},{"properties":{"price":48900,"use":"\u718a\u672c\u5317","zone":"","station":"\u4f4f\u5b85"},"type":"Point","coordinates":[68149,77009],"id":"feature_134"},{"properties":{"price":52600,"use":"\u718a\u672c\u5317","zone":"","station":"\u4f4f\u5b85"},"type":"Point","coordinates":[65472,79063],"id":"feature_135"},{"properties":{"price":35000,"use":"\u718a\u672c\u5317","zone":"","station":"\u4f4f\u5b85"},"type":"Point","coordinates":[62654,85875],"id":"feature_136"},{"properties":{"price":35300,"use":"\u718a\u672c\u5317","zone":"","station":"\u4f4f\u5b85"},"type":"Point","coordinates":[61972,86408],"id":"feature_137"},{"properties":{"price":52300,"use":"\u718a\u672c\u5317","zone":"","station":"\u4f4f\u5b85"},"type":"Point","coordinates":[65713,77762],"id":"feature_138"},{"properties":{"price":17700,"use":"\u718a\u672c\u5317","zone":"","station":"\u7551"},"type":"Point","coordinates":[69297,79044],"id":"feature_139"},{"properties":{"price":85200,"use":"\u718a\u672c\u5317","zone":"","station":"\u8a3a\u7642\u6240"},"type":"Point","coordinates":[67335,79919],"id":"feature_140"},{"properties":{"price":56000,"use":"\u718a\u672c\u5317","zone":"","station":"\u5e97\u8217"},"type":"Point","coordinates":[62284,85672],"id":"feature_141"},{"properties":{"price":114000,"use":"\u718a\u672c\u5317","zone":"","station":"\u5e97\u8217\u517c\u5171\u540c\u4f4f\u5b85"},"type":"Point","coordinates":[65315,77190],"id":"feature_142"},{"properties":{"price":82600,"use":"\u718a\u672c\u5317","zone":"","station":"\u5e97\u8217\u517c\u5de5\u5834"},"type":"Point","coordinates":[64151,81085],"id":"feature_143"},{"properties":{"price":31500,"use":"\u516b\u4ee3","zone":"","station":"\u4f4f\u5b85"},"type":"Point","coordinates":[55326,37501],"id":"feature_144"},{"properties":{"price":17000,"use":"\u516b\u4ee3","zone":"","station":"\u4f4f\u5b85"},"type":"Point","coordinates":[59400,45941],"id":"feature_145"},{"properties":{"price":22800,"use":"\u516b\u4ee3","zone":"","station":"\u4f4f\u5b85"},"type":"Point","coordinates":[56664,37741],"id":"feature_146"},{"properties":{"price":26200,"use":"\u516b\u4ee3","zone":"","station":"\u4f4f\u5b85"},"type":"Point","coordinates":[54318,36918],"id":"feature_147"},{"properties":{"price":20700,"use":"\u516b\u4ee3","zone":"","station":"\u4f4f\u5b85"},"type":"Point","coordinates":[51809,29387],"id":"feature_148"},{"properties":{"price":26300,"use":"\u516b\u4ee3","zone":"","station":"\u4f4f\u5b85"},"type":"Point","coordinates":[54659,40532],"id":"feature_149"},{"properties":{"price":31800,"use":"\u516b\u4ee3","zone":"","station":"\u4f4f\u5b85"},"type":"Point","coordinates":[56706,39536],"id":"feature_150"},{"properties":{"price":50100,"use":"\u516b\u4ee3","zone":"","station":"\u5e97\u8217\u517c\u4f4f\u5b85"},"type":"Point","coordinates":[54335,38040],"id":"feature_151"},{"properties":{"price":46900,"use":"\u516b\u4ee3","zone":"","station":"\u5e97\u8217\u517c\u4f4f\u5b85"},"type":"Point","coordinates":[54014,37873],"id":"feature_152"},{"properties":{"price":44700,"use":"\u516b\u4ee3","zone":"","station":"\u5e97\u8217\u517c\u5de5\u5834"},"type":"Point","coordinates":[56892,38695],"id":"feature_153"},{"properties":{"price":38200,"use":"\u516b\u4ee3","zone":"","station":"\u5e97\u8217\u517c\u4f4f\u5b85"},"type":"Point","coordinates":[53880,37134],"id":"feature_154"},{"properties":{"price":11300,"use":"\u516b\u4ee3","zone":"","station":"\u4e8b\u52d9\u6240\u3001\u4f5c\u696d\u6240\u517c\u5009\u5eab"},"type":"Point","coordinates":[49529,41196],"id":"feature_155"},{"properties":{"price":24100,"use":"\u4eba\u5409","zone":"","station":"\u4f4f\u5b85"},"type":"Point","coordinates":[69576,3025],"id":"feature_156"},{"properties":{"price":13300,"use":"\u4eba\u5409","zone":"","station":"\u4f4f\u5b85"},"type":"Point","coordinates":[67096,1832],"id":"feature_157"},{"properties":{"price":19300,"use":"\u4eba\u5409","zone":"","station":"\u4f4f\u5b85"},"type":"Point","coordinates":[68985,1279],"id":"feature_158"},{"properties":{"price":31400,"use":"\u4eba\u5409","zone":"","station":"\u5e97\u8217\u3001\u5009\u5eab\u517c\u4f4f\u5b85"},"type":"Point","coordinates":[68702,2389],"id":"feature_159"},{"properties":{"price":26100,"use":"\u4eba\u5409","zone":"","station":"\u5e97\u8217"},"type":"Point","coordinates":[69103,3891],"id":"feature_160"},{"properties":{"price":19100,"use":"\u8352\u5c3e","zone":"","station":"\u4f4f\u5b85"},"type":"Point","coordinates":[40858,94270],"id":"feature_161"},{"properties":{"price":39500,"use":"\u8352\u5c3e","zone":"","station":"\u4f4f\u5b85"},"type":"Point","coordinates":[42654,96570],"id":"feature_162"},{"properties":{"price":23400,"use":"\u8352\u5c3e","zone":"","station":"\u4f4f\u5b85"},"type":"Point","coordinates":[38449,97891],"id":"feature_163"},{"properties":{"price":23800,"use":"\u8352\u5c3e","zone":"","station":"\u4f4f\u5b85"},"type":"Point","coordinates":[38887,95904],"id":"feature_164"},{"properties":{"price":14700,"use":"\u8352\u5c3e","zone":"","station":"\u4f4f\u5b85"},"type":"Point","coordinates":[39115,92150],"id":"feature_165"},{"properties":{"price":12300,"use":"\u8352\u5c3e","zone":"","station":"\u4f4f\u5b85"},"type":"Point","coordinates":[44657,93655],"id":"feature_166"},{"properties":{"price":49800,"use":"\u8352\u5c3e","zone":"","station":"\u5e97\u8217\u3001\u4e8b\u52d9\u6240\u517c\u6559\u5ba4"},"type":"Point","coordinates":[41907,96251],"id":"feature_167"},{"properties":{"price":40000,"use":"\u8352\u5c3e","zone":"","station":"\u5e97\u8217"},"type":"Point","coordinates":[40172,96521],"id":"feature_168"},{"properties":{"price":31500,"use":"\u8352\u5c3e","zone":"","station":"\u5e97\u8217\u517c\u4f4f\u5b85"},"type":"Point","coordinates":[41593,95736],"id":"feature_169"},{"properties":{"price":46500,"use":"\u8352\u5c3e","zone":"","station":"\u55b6\u696d\u6240\u517c\u5de5\u5834"},"type":"Point","coordinates":[39056,98759],"id":"feature_170"},{"properties":{"price":8600,"use":"\u8352\u5c3e","zone":"","station":"\u8377\u634c\u6240"},"type":"Point","coordinates":[40769,93379],"id":"feature_171"},{"properties":{"price":34100,"use":"\u6c34\u4fe3","zone":"","station":"\u4f4f\u5b85"},"type":"Point","coordinates":[35206,2392],"id":"feature_172"},{"properties":{"price":16700,"use":"\u6c34\u4fe3","zone":"","station":"\u4f4f\u5b85"},"type":"Point","coordinates":[34737,854],"id":"feature_173"},{"properties":{"price":33500,"use":"\u6c34\u4fe3","zone":"","station":"\u4f4f\u5b85"},"type":"Point","coordinates":[36508,1812],"id":"feature_174"},{"properties":{"price":47700,"use":"\u6c34\u4fe3","zone":"","station":"\u5e97\u8217\u517c\u4e8b\u52d9\u6240"},"type":"Point","coordinates":[35769,2012],"id":"feature_175"},{"properties":{"price":40500,"use":"\u6c34\u4fe3","zone":"","station":"\u5e97\u8217\u517c\u4f4f\u5b85"},"type":"Point","coordinates":[35802,2191],"id":"feature_176"},{"properties":{"price":33400,"use":"\u7389\u540d","zone":"","station":"\u4f4f\u5b85"},"type":"Point","coordinates":[49740,89916],"id":"feature_177"},{"properties":{"price":28700,"use":"\u7389\u540d","zone":"","station":"\u4f4f\u5b85"},"type":"Point","coordinates":[49094,90555],"id":"feature_178"},{"properties":{"price":11900,"use":"\u7389\u540d","zone":"","station":"\u4f4f\u5b85"},"type":"Point","coordinates":[45768,90807],"id":"feature_179"},{"properties":{"price":36300,"use":"\u7389\u540d","zone":"","station":"\u5e97\u8217\u517c\u4f4f\u5b85"},"type":"Point","coordinates":[50603,89564],"id":"feature_180"},{"properties":{"price":52100,"use":"\u7389\u540d","zone":"","station":"\u4e8b\u52d9\u6240"},"type":"Point","coordinates":[50251,89620],"id":"feature_181"},{"properties":{"price":34900,"use":"\u7389\u540d","zone":"","station":"\u8a3a\u7642\u6240"},"type":"Point","coordinates":[49001,88928],"id":"feature_182"},{"properties":{"price":23200,"use":"\u5c71\u9e7f","zone":"","station":"\u4f4f\u5b85"},"type":"Point","coordinates":[63279,99655],"id":"feature_183"},{"properties":{"price":26100,"use":"\u5c71\u9e7f","zone":"","station":"\u4f4f\u5b85"},"type":"Point","coordinates":[61686,99821],"id":"feature_184"},{"properties":{"price":21100,"use":"\u5c71\u9e7f","zone":"","station":"\u4f4f\u5b85"},"type":"Point","coordinates":[64291,98986],"id":"feature_185"},{"properties":{"price":31800,"use":"\u5c71\u9e7f","zone":"","station":"\u5e97\u8217\u517c\u4f4f\u5b85"},"type":"Point","coordinates":[62445,99999],"id":"feature_186"},{"properties":{"price":40100,"use":"\u5c71\u9e7f","zone":"","station":"\u9280\u884c"},"type":"Point","coordinates":[63879,99472],"id":"feature_187"},{"properties":{"price":28600,"use":"\u83ca\u6c60","zone":"","station":"\u4f4f\u5b85"},"type":"Point","coordinates":[73590,95753],"id":"feature_188"},{"properties":{"price":6200,"use":"\u83ca\u6c60","zone":"","station":"\u4f4f\u5b85"},"type":"Point","coordinates":[73679,90422],"id":"feature_189"},{"properties":{"price":23900,"use":"\u83ca\u6c60","zone":"","station":"\u4f4f\u5b85"},"type":"Point","coordinates":[73180,95037],"id":"feature_190"},{"properties":{"price":9000,"use":"\u83ca\u6c60","zone":"","station":"\u4f4f\u5b85"},"type":"Point","coordinates":[72494,88160],"id":"feature_191"},{"properties":{"price":29000,"use":"\u83ca\u6c60","zone":"","station":"\u5e97\u8217\u517c\u4f4f\u5b85"},"type":"Point","coordinates":[73032,95890],"id":"feature_192"},{"properties":{"price":28600,"use":"\u83ca\u6c60","zone":"","station":"\u5e97\u8217\u517c\u4f4f\u5b85"},"type":"Point","coordinates":[73643,96043],"id":"feature_193"},{"properties":{"price":23200,"use":"\u83ca\u6c60","zone":"","station":"\u4e8b\u52d9\u6240"},"type":"Point","coordinates":[69925,89278],"id":"feature_194"},{"properties":{"price":41400,"use":"\u5b87\u571f","zone":"","station":"\u4f4f\u5b85"},"type":"Point","coordinates":[59535,59458],"id":"feature_195"},{"properties":{"price":26800,"use":"\u5b87\u571f","zone":"","station":"\u4f4f\u5b85"},"type":"Point","coordinates":[60858,58478],"id":"feature_196"},{"properties":{"price":47400,"use":"\u5b87\u571f","zone":"","station":"\u5e97\u8217"},"type":"Point","coordinates":[59475,60025],"id":"feature_197"},{"properties":{"price":16200,"use":"\u5b87\u57ce","zone":"","station":"\u4f4f\u5b85"},"type":"Point","coordinates":[62306,49536],"id":"feature_198"},{"properties":{"price":23700,"use":"\u5b87\u57ce","zone":"","station":"\u4f4f\u5b85"},"type":"Point","coordinates":[63198,49209],"id":"feature_199"},{"properties":{"price":40400,"use":"\u5b87\u57ce","zone":"","station":"\u4f4f\u5b85"},"type":"Point","coordinates":[61350,55109],"id":"feature_200"},{"properties":{"price":53700,"use":"\u5b87\u57ce","zone":"","station":"\u5e97\u8217"},"type":"Point","coordinates":[60993,55915],"id":"feature_201"},{"properties":{"price":29900,"use":"\u5b87\u57ce","zone":"","station":"\u8a3a\u7642\u6240\u3001\u4e8b\u52d9\u6240\u517c\u4f4f\u5b85"},"type":"Point","coordinates":[63470,48785],"id":"feature_202"},{"properties":{"price":12900,"use":"\u963f\u8607","zone":"","station":"\u4f4f\u5b85"},"type":"Point","coordinates":[94603,95535],"id":"feature_203"},{"properties":{"price":8500,"use":"\u963f\u8607","zone":"","station":"\u4f4f\u5b85"},"type":"Point","coordinates":[99999,90877],"id":"feature_204"},{"properties":{"price":20600,"use":"\u963f\u8607","zone":"","station":"\u5e97\u8217\u517c\u5de5\u5834"},"type":"Point","coordinates":[94741,95203],"id":"feature_205"},{"properties":{"price":44500,"use":"\u5929\u8349","zone":"","station":"\u4f4f\u5b85"},"type":"Point","coordinates":[16701,32611],"id":"feature_206"},{"properties":{"price":34400,"use":"\u5929\u8349","zone":"","station":"\u4f4f\u5b85"},"type":"Point","coordinates":[14833,32372],"id":"feature_207"},{"properties":{"price":42500,"use":"\u5929\u8349","zone":"","station":"\u4f4f\u5b85"},"type":"Point","coordinates":[17115,30330],"id":"feature_208"},{"properties":{"price":13100,"use":"\u5929\u8349","zone":"","station":"\u4f4f\u5b85"},"type":"Point","coordinates":[0,0],"id":"feature_209"},{"properties":{"price":16000,"use":"\u5929\u8349","zone":"","station":"\u4f4f\u5b85"},"type":"Point","coordinates":[1172,795],"id":"feature_210"},{"properties":{"price":70600,"use":"\u5929\u8349","zone":"","station":"\u5e97\u8217"},"type":"Point","coordinates":[15907,33235],"id":"feature_211"},{"properties":{"price":93000,"use":"\u5929\u8349","zone":"","station":"\u5e97\u8217"},"type":"Point","coordinates":[16510,31716],"id":"feature_212"},{"properties":{"price":27100,"use":"\u5929\u8349","zone":"","station":"\u5e97\u8217\u517c\u4f4f\u5b85"},"type":"Point","coordinates":[893,185],"id":"feature_213"},{"properties":{"price":61100,"use":"\u5408\u5fd7","zone":"","station":"\u4f4f\u5b85"},"type":"Point","coordinates":[70968,82696],"id":"feature_214"},{"properties":{"price":74500,"use":"\u5408\u5fd7","zone":"","station":"\u4f4f\u5b85"},"type":"Point","coordinates":[70500,82274],"id":"feature_215"},{"properties":{"price":46200,"use":"\u5408\u5fd7","zone":"","station":"\u4f4f\u5b85"},"type":"Point","coordinates":[67266,82478],"id":"feature_216"},{"properties":{"price":53000,"use":"\u5408\u5fd7","zone":"","station":"\u4f4f\u5b85"},"type":"Point","coordinates":[67051,80751],"id":"feature_217"},{"properties":{"price":17700,"use":"\u5408\u5fd7","zone":"","station":"\u4f4f\u5b85"},"type":"Point","coordinates":[71465,85415],"id":"feature_218"},{"properties":{"price":29000,"use":"\u5408\u5fd7","zone":"","station":"\u4f4f\u5b85"},"type":"Point","coordinates":[68609,85854],"id":"feature_219"},{"properties":{"price":99800,"use":"\u5408\u5fd7","zone":"","station":"\u5e97\u8217\u517c\u4f4f\u5b85"},"type":"Point","coordinates":[70572,82170],"id":"feature_220"},{"properties":{"price":17000,"use":"\u9577\u6d32","zone":"","station":"\u4f4f\u5b85"},"type":"Point","coordinates":[39755,90142],"id":"feature_221"},{"properties":{"price":11900,"use":"\u9577\u6d32","zone":"","station":"\u4f4f\u5b85"},"type":"Point","coordinates":[43662,90105],"id":"feature_222"},{"properties":{"price":20500,"use":"\u9577\u6d32","zone":"","station":"\u5e97\u8217\u517c\u4f4f\u5b85"},"type":"Point","coordinates":[39478,90060],"id":"feature_223"},{"properties":{"price":42600,"use":"\u718a\u672c\u5927\u6d25","zone":"","station":"\u4f4f\u5b85"},"type":"Point","coordinates":[78857,84426],"id":"feature_224"},{"properties":{"price":36500,"use":"\u718a\u672c\u5927\u6d25","zone":"","station":"\u4f4f\u5b85"},"type":"Point","coordinates":[81069,83473],"id":"feature_225"},{"properties":{"price":77000,"use":"\u718a\u672c\u5927\u6d25","zone":"","station":"\u5e97\u8217"},"type":"Point","coordinates":[78948,83613],"id":"feature_226"},{"properties":{"price":30000,"use":"\u718a\u672c\u5927\u6d25","zone":"","station":"\u4e8b\u52d9\u6240\u517c\u5de5\u5834"},"type":"Point","coordinates":[77701,85972],"id":"feature_227"},{"properties":{"price":28000,"use":"\u83ca\u967d","zone":"","station":"\u4f4f\u5b85"},"type":"Point","coordinates":[72874,81022],"id":"feature_228"},{"properties":{"price":80500,"use":"\u83ca\u967d","zone":"","station":"\u4f4f\u5b85"},"type":"Point","coordinates":[71489,80938],"id":"feature_229"},{"properties":{"price":65800,"use":"\u83ca\u967d","zone":"","station":"\u4f4f\u5b85"},"type":"Point","coordinates":[74674,81314],"id":"feature_230"},{"properties":{"price":75800,"use":"\u83ca\u967d","zone":"","station":"\u4f4f\u5b85"},"type":"Point","coordinates":[70103,81118],"id":"feature_231"},{"properties":{"price":68000,"use":"\u83ca\u967d","zone":"","station":"\u4f4f\u5b85"},"type":"Point","coordinates":[71152,82287],"id":"feature_232"},{"properties":{"price":62800,"use":"\u83ca\u967d","zone":"","station":"\u4f4f\u5b85"},"type":"Point","coordinates":[68524,81216],"id":"feature_233"},{"properties":{"price":44000,"use":"\u83ca\u967d","zone":"","station":"\u4f4f\u5b85"},"type":"Point","coordinates":[71833,82619],"id":"feature_234"},{"properties":{"price":102000,"use":"\u83ca\u967d","zone":"","station":"\u4f4f\u5b85"},"type":"Point","coordinates":[70827,81463],"id":"feature_235"},{"properties":{"price":95500,"use":"\u83ca\u967d","zone":"","station":"\u5e97\u8217\u517c\u5171\u540c\u4f4f\u5b85"},"type":"Point","coordinates":[72127,81347],"id":"feature_236"},{"properties":{"price":30800,"use":"\u5fa1\u8239","zone":"","station":"\u4f4f\u5b85"},"type":"Point","coordinates":[72717,63142],"id":"feature_237"},{"properties":{"price":21100,"use":"\u5fa1\u8239","zone":"","station":"\u4f4f\u5b85"},"type":"Point","coordinates":[72275,62568],"id":"feature_238"},{"properties":{"price":35900,"use":"\u5fa1\u8239","zone":"","station":"\u5e97\u8217\u517c\u4f4f\u5b85"},"type":"Point","coordinates":[72436,63193],"id":"feature_239"},{"properties":{"price":65200,"use":"\u5609\u5cf6","zone":"","station":"\u4f4f\u5b85"},"type":"Point","coordinates":[66930,67167],"id":"feature_240"},{"properties":{"price":30600,"use":"\u5609\u5cf6","zone":"","station":"\u4f4f\u5b85"},"type":"Point","coordinates":[67390,67443],"id":"feature_241"},{"properties":{"price":19500,"use":"\u5609\u5cf6","zone":"","station":"\u4f4f\u5b85"},"type":"Point","coordinates":[69664,67712],"id":"feature_242"},{"properties":{"price":40700,"use":"\u76ca\u57ce","zone":"","station":"\u4f4f\u5b85"},"type":"Point","coordinates":[74434,73440],"id":"feature_243"},{"properties":{"price":46500,"use":"\u76ca\u57ce","zone":"","station":"\u4f4f\u5b85"},"type":"Point","coordinates":[72665,72181],"id":"feature_244"},{"properties":{"price":37400,"use":"\u76ca\u57ce","zone":"","station":"\u4f4f\u5b85"},"type":"Point","coordinates":[73245,71946],"id":"feature_245"},{"properties":{"price":13000,"use":"\u76ca\u57ce","zone":"","station":"\u4f4f\u5b85"},"type":"Point","coordinates":[75305,73237],"id":"feature_246"},{"properties":{"price":65900,"use":"\u76ca\u57ce","zone":"","station":"\u5e97\u8217"},"type":"Point","coordinates":[72899,72080],"id":"feature_247"},{"properties":{"price":46500,"use":"\u76ca\u57ce","zone":"","station":"\u4e8b\u52d9\u6240"},"type":"Point","coordinates":[71442,73464],"id":"feature_248"},{"properties":{"price":24200,"use":"\u82a6\u5317","zone":"","station":"\u4f4f\u5b85"},"type":"Point","coordinates":[44366,13333],"id":"feature_249"},{"properties":{"price":14900,"use":"\u82a6\u5317","zone":"","station":"\u4f4f\u5b85"},"type":"Point","coordinates":[45379,9223],"id":"feature_250"}],"type":"GeometryCollection"}},"bbox":[130.0163,32.19393,131.09724,33.01401],"transform":{"scale":[1.0809508095080933e-05,8.200882008820061e-06],"translate":[130.0163,32.19393]},"arcs":[]}