{"type":"Topology","objects":{"data":{"geometries":[{"properties":{"price":301000,"use":"\u4ed9\u53f0\u9752\u8449","zone":"","station":"\u5171\u540c\u4f4f\u5b85"},"type":"Point","coordinates":[30078,33778],"id":"feature_000"},{"properties":{"price":439000,"use":"\u4ed9\u53f0\u9752\u8449","zone":"","station":"\u4f4f\u5b85"},"type":"Point","coordinates":[30265,36266],"id":"feature_001"},{"properties":{"price":495000,"use":"\u4ed9\u53f0\u9752\u8449","zone":"","station":"\u5171\u540c\u4f4f\u5b85"},"type":"Point","coordinates":[30164,35821],"id":"feature_002"},{"properties":{"price":239000,"use":"\u4ed9\u53f0\u9752\u8449","zone":"","station":"\u5171\u540c\u4f4f\u5b85"},"type":"Point","coordinates":[31021,35876],"id":"feature_003"},{"properties":{"price":123000,"use":"\u4ed9\u53f0\u9752\u8449","zone":"","station":"\u4f4f\u5b85"},"type":"Point","coordinates":[31097,36735],"id":"feature_004"},{"properties":{"price":206000,"use":"\u4ed9\u53f0\u9752\u8449","zone":"","station":"\u4f4f\u5b85"},"type":"Point","coordinates":[30704,36658],"id":"feature_005"},{"properties":{"price":72800,"use":"\u4ed9\u53f0\u9752\u8449","zone":"","station":"\u4f4f\u5b85"},"type":"Point","coordinates":[26352,37186],"id":"feature_006"},{"properties":{"price":108000,"use":"\u4ed9\u53f0\u9752\u8449","zone":"","station":"\u4f4f\u5b85"},"type":"Point","coordinates":[27074,36751],"id":"feature_007"},{"properties":{"price":147000,"use":"\u4ed9\u53f0\u9752\u8449","zone":"","station":"\u4f4f\u5b85"},"type":"Point","coordinates":[31059,38642],"id":"feature_008"},{"properties":{"price":53500,"use":"\u4ed9\u53f0\u9752\u8449","zone":"","station":"\u4f4f\u5b85"},"type":"Point","coordinates":[29366,38441],"id":"feature_009"},{"properties":{"price":133000,"use":"\u4ed9\u53f0\u9752\u8449","zone":"","station":"\u4f4f\u5b85"},"type":"Point","coordinates":[30079,37850],"id":"feature_010"},{"properties":{"price":85000,"use":"\u4ed9\u53f0\u9752\u8449","zone":"","station":"\u4f4f\u5b85"},"type":"Point","coordinates":[28657,37974],"id":"feature_011"},{"properties":{"price":94300,"use":"\u4ed9\u53f0\u9752\u8449","zone":"","station":"\u4f4f\u5b85"},"type":"Point","coordinates":[27585,38882],"id":"feature_012"},{"properties":{"price":77000,"use":"\u4ed9\u53f0\u9752\u8449","zone":"","station":"\u4f4f\u5b85"},"type":"Point","coordinates":[26226,39030],"id":"feature_013"},{"properties":{"price":108000,"use":"\u4ed9\u53f0\u9752\u8449","zone":"","station":"\u4f4f\u5b85"},"type":"Point","coordinates":[31944,36050],"id":"feature_014"},{"properties":{"price":190000,"use":"\u4ed9\u53f0\u9752\u8449","zone":"","station":"\u4f4f\u5b85"},"type":"Point","coordinates":[30172,37605],"id":"feature_015"},{"properties":{"price":110000,"use":"\u4ed9\u53f0\u9752\u8449","zone":"","station":"\u4f4f\u5b85"},"type":"Point","coordinates":[28447,37544],"id":"feature_016"},{"properties":{"price":276000,"use":"\u4ed9\u53f0\u9752\u8449","zone":"","station":"\u4f4f\u5b85"},"type":"Point","coordinates":[28074,36476],"id":"feature_017"},{"properties":{"price":153000,"use":"\u4ed9\u53f0\u9752\u8449","zone":"","station":"\u4f4f\u5b85"},"type":"Point","coordinates":[27393,36516],"id":"feature_018"},{"properties":{"price":74600,"use":"\u4ed9\u53f0\u9752\u8449","zone":"","station":"\u4f4f\u5b85"},"type":"Point","coordinates":[26174,36371],"id":"feature_019"},{"properties":{"price":34600,"use":"\u4ed9\u53f0\u9752\u8449","zone":"","station":"\u4f4f\u5b85"},"type":"Point","coordinates":[24521,35630],"id":"feature_020"},{"properties":{"price":92000,"use":"\u4ed9\u53f0\u9752\u8449","zone":"","station":"\u5171\u540c\u4f4f\u5b85"},"type":"Point","coordinates":[27457,37280],"id":"feature_021"},{"properties":{"price":104000,"use":"\u4ed9\u53f0\u9752\u8449","zone":"","station":"\u4f4f\u5b85"},"type":"Point","coordinates":[26756,37359],"id":"feature_022"},{"properties":{"price":79000,"use":"\u4ed9\u53f0\u9752\u8449","zone":"","station":"\u4f4f\u5b85"},"type":"Point","coordinates":[26534,38048],"id":"feature_023"},{"properties":{"price":323000,"use":"\u4ed9\u53f0\u9752\u8449","zone":"","station":"\u5171\u540c\u4f4f\u5b85"},"type":"Point","coordinates":[27982,35863],"id":"feature_024"},{"properties":{"price":233000,"use":"\u4ed9\u53f0\u9752\u8449","zone":"","station":"\u4f4f\u5b85"},"type":"Point","coordinates":[27158,35771],"id":"feature_025"},{"properties":{"price":151000,"use":"\u4ed9\u53f0\u9752\u8449","zone":"","station":"\u4f4f\u5b85"},"type":"Point","coordinates":[30439,37335],"id":"feature_026"},{"properties":{"price":85200,"use":"\u4ed9\u53f0\u9752\u8449","zone":"","station":"\u4f4f\u5b85"},"type":"Point","coordinates":[27653,37560],"id":"feature_027"},{"properties":{"price":298000,"use":"\u4ed9\u53f0\u9752\u8449","zone":"","station":"\u4f4f\u5b85"},"type":"Point","coordinates":[29998,36817],"id":"feature_028"},{"properties":{"price":78000,"use":"\u4ed9\u53f0\u9752\u8449","zone":"","station":"\u4f4f\u5b85"},"type":"Point","coordinates":[24517,37808],"id":"feature_029"},{"properties":{"price":88400,"use":"\u4ed9\u53f0\u9752\u8449","zone":"","station":"\u4f4f\u5b85"},"type":"Point","coordinates":[20597,35812],"id":"feature_030"},{"properties":{"price":71300,"use":"\u4ed9\u53f0\u9752\u8449","zone":"","station":"\u4f4f\u5b85"},"type":"Point","coordinates":[18306,36421],"id":"feature_031"},{"properties":{"price":110000,"use":"\u4ed9\u53f0\u9752\u8449","zone":"","station":"\u4f4f\u5b85"},"type":"Point","coordinates":[26675,35400],"id":"feature_032"},{"properties":{"price":67300,"use":"\u4ed9\u53f0\u9752\u8449","zone":"","station":"\u4f4f\u5b85"},"type":"Point","coordinates":[17115,36585],"id":"feature_033"},{"properties":{"price":73500,"use":"\u4ed9\u53f0\u9752\u8449","zone":"","station":"\u4f4f\u5b85"},"type":"Point","coordinates":[19015,36119],"id":"feature_034"},{"properties":{"price":86800,"use":"\u4ed9\u53f0\u9752\u8449","zone":"","station":"\u4f4f\u5b85"},"type":"Point","coordinates":[21661,35708],"id":"feature_035"},{"properties":{"price":93700,"use":"\u4ed9\u53f0\u9752\u8449","zone":"","station":"\u4f4f\u5b85"},"type":"Point","coordinates":[25247,37872],"id":"feature_036"},{"properties":{"price":8100,"use":"\u4ed9\u53f0\u9752\u8449","zone":"","station":"\u4f4f\u5b85"},"type":"Point","coordinates":[15894,37994],"id":"feature_037"},{"properties":{"price":62200,"use":"\u4ed9\u53f0\u9752\u8449","zone":"","station":"\u4f4f\u5b85"},"type":"Point","coordinates":[23741,39024],"id":"feature_038"},{"properties":{"price":37900,"use":"\u4ed9\u53f0\u9752\u8449","zone":"","station":"\u4f4f\u5b85"},"type":"Point","coordinates":[17081,38211],"id":"feature_039"},{"properties":{"price":78000,"use":"\u4ed9\u53f0\u9752\u8449","zone":"","station":"\u4f4f\u5b85"},"type":"Point","coordinates":[25509,39021],"id":"feature_040"},{"properties":{"price":7900,"use":"\u4ed9\u53f0\u9752\u8449","zone":"","station":"\u4f4f\u5b85"},"type":"Point","coordinates":[13042,36364],"id":"feature_041"},{"properties":{"price":125000,"use":"\u4ed9\u53f0\u9752\u8449","zone":"","station":"\u4f4f\u5b85"},"type":"Point","coordinates":[27836,37171],"id":"feature_042"},{"properties":{"price":101000,"use":"\u4ed9\u53f0\u9752\u8449","zone":"","station":"\u4f4f\u5b85"},"type":"Point","coordinates":[28646,37818],"id":"feature_043"},{"properties":{"price":59900,"use":"\u4ed9\u53f0\u9752\u8449","zone":"","station":"\u4f4f\u5b85"},"type":"Point","coordinates":[18606,34440],"id":"feature_044"},{"properties":{"price":162000,"use":"\u4ed9\u53f0\u9752\u8449","zone":"","station":"\u4f4f\u5b85"},"type":"Point","coordinates":[29409,37351],"id":"feature_045"},{"properties":{"price":166000,"use":"\u4ed9\u53f0\u9752\u8449","zone":"","station":"\u4f4f\u5b85"},"type":"Point","coordinates":[28284,35456],"id":"feature_046"},{"properties":{"price":74000,"use":"\u4ed9\u53f0\u9752\u8449","zone":"","station":"\u4f4f\u5b85"},"type":"Point","coordinates":[20228,36009],"id":"feature_047"},{"properties":{"price":352000,"use":"\u4ed9\u53f0\u9752\u8449","zone":"","station":"\u4f4f\u5b85"},"type":"Point","coordinates":[29341,36754],"id":"feature_048"},{"properties":{"price":102000,"use":"\u4ed9\u53f0\u9752\u8449","zone":"","station":"\u4f4f\u5b85"},"type":"Point","coordinates":[28675,38468],"id":"feature_049"},{"properties":{"price":85000,"use":"\u4ed9\u53f0\u9752\u8449","zone":"","station":"\u4f4f\u5b85"},"type":"Point","coordinates":[31906,37073],"id":"feature_050"},{"properties":{"price":87000,"use":"\u4ed9\u53f0\u9752\u8449","zone":"","station":"\u4f4f\u5b85"},"type":"Point","coordinates":[29646,38784],"id":"feature_051"},{"properties":{"price":76000,"use":"\u4ed9\u53f0\u9752\u8449","zone":"","station":"\u4f4f\u5b85"},"type":"Point","coordinates":[31526,37437],"id":"feature_052"},{"properties":{"price":302000,"use":"\u4ed9\u53f0\u9752\u8449","zone":"","station":"\u5171\u540c\u4f4f\u5b85"},"type":"Point","coordinates":[28719,36455],"id":"feature_053"},{"properties":{"price":33400,"use":"\u4ed9\u53f0\u9752\u8449","zone":"","station":"\u4f4f\u5b85"},"type":"Point","coordinates":[22965,35096],"id":"feature_054"},{"properties":{"price":90700,"use":"\u4ed9\u53f0\u9752\u8449","zone":"","station":"\u4f4f\u5b85"},"type":"Point","coordinates":[24368,37564],"id":"feature_055"},{"properties":{"price":66400,"use":"\u4ed9\u53f0\u9752\u8449","zone":"","station":"\u4f4f\u5b85"},"type":"Point","coordinates":[20567,36611],"id":"feature_056"},{"properties":{"price":319000,"use":"\u4ed9\u53f0\u9752\u8449","zone":"","station":"\u5171\u540c\u4f4f\u5b85\u3001\u4e8b\u52d9\u6240\u517c\u8eca\u5eab"},"type":"Point","coordinates":[28553,34688],"id":"feature_057"},{"properties":{"price":130000,"use":"\u4ed9\u53f0\u9752\u8449","zone":"","station":"\u5171\u540c\u4f4f\u5b85"},"type":"Point","coordinates":[27115,34833],"id":"feature_058"},{"properties":{"price":26600,"use":"\u4ed9\u53f0\u9752\u8449","zone":"","station":"\u4f4f\u5b85"},"type":"Point","coordinates":[19724,39547],"id":"feature_059"},{"properties":{"price":41500,"use":"\u4ed9\u53f0\u9752\u8449","zone":"","station":"\u4f4f\u5b85"},"type":"Point","coordinates":[24882,33763],"id":"feature_060"},{"properties":{"price":4580000,"use":"\u4ed9\u53f0\u9752\u8449","zone":"","station":"\u5e97\u8217\u517c\u4e8b\u52d9\u6240"},"type":"Point","coordinates":[30427,34994],"id":"feature_061"},{"properties":{"price":2750000,"use":"\u4ed9\u53f0\u9752\u8449","zone":"","station":"\u5e97\u8217\u517c\u4e8b\u52d9\u6240"},"type":"Point","coordinates":[29915,35206],"id":"feature_062"},{"properties":{"price":2640000,"use":"\u4ed9\u53f0\u9752\u8449","zone":"","station":"\u5e97\u8217\u517c\u4e8b\u52d9\u6240"},"type":"Point","coordinates":[30026,35056],"id":"feature_063"},{"properties":{"price":1000000,"use":"\u4ed9\u53f0\u9752\u8449","zone":"","station":"\u5e97\u8217\u517c\u4e8b\u52d9\u6240"},"type":"Point","coordinates":[30070,35158],"id":"feature_064"},{"properties":{"price":2700000,"use":"\u4ed9\u53f0\u9752\u8449","zone":"","station":"\u5c02\u9580\u5b66\u6821"},"type":"Point","coordinates":[30029,34858],"id":"feature_065"},{"properties":{"price":954000,"use":"\u4ed9\u53f0\u9752\u8449","zone":"","station":"\u4e8b\u52d9\u6240"},"type":"Point","coordinates":[30008,35549],"id":"feature_066"},{"properties":{"price":772000,"use":"\u4ed9\u53f0\u9752\u8449","zone":"","station":"\u5e97\u8217\u517c\u5171\u540c\u4f4f\u5b85"},"type":"Point","coordinates":[30106,35669],"id":"feature_067"},{"properties":{"price":2730000,"use":"\u4ed9\u53f0\u9752\u8449","zone":"","station":"\u4e8b\u52d9\u6240"},"type":"Point","coordinates":[29619,35456],"id":"feature_068"},{"properties":{"price":818000,"use":"\u4ed9\u53f0\u9752\u8449","zone":"","station":"\u5e97\u8217\u3001\u4e8b\u52d9\u6240\u517c\u5171\u540c\u4f4f\u5b85"},"type":"Point","coordinates":[29734,35391],"id":"feature_069"},{"properties":{"price":727000,"use":"\u4ed9\u53f0\u9752\u8449","zone":"","station":"\u30db\u30c6\u30eb"},"type":"Point","coordinates":[30538,35477],"id":"feature_070"},{"properties":{"price":2210000,"use":"\u4ed9\u53f0\u9752\u8449","zone":"","station":"\u5e97\u8217"},"type":"Point","coordinates":[29511,35025],"id":"feature_071"},{"properties":{"price":1020000,"use":"\u4ed9\u53f0\u9752\u8449","zone":"","station":"\u4e8b\u52d9\u6240\u517c\u5e97\u8217"},"type":"Point","coordinates":[30489,34450],"id":"feature_072"},{"properties":{"price":1460000,"use":"\u4ed9\u53f0\u9752\u8449","zone":"","station":"\u4e8b\u52d9\u6240"},"type":"Point","coordinates":[29249,34867],"id":"feature_073"},{"properties":{"price":672000,"use":"\u4ed9\u53f0\u9752\u8449","zone":"","station":"\u4e8b\u52d9\u6240\u517c\u5de5\u5834"},"type":"Point","coordinates":[28901,35040],"id":"feature_074"},{"properties":{"price":601000,"use":"\u4ed9\u53f0\u9752\u8449","zone":"","station":"\u5e97\u8217\u517c\u5171\u540c\u4f4f\u5b85"},"type":"Point","coordinates":[29018,34971],"id":"feature_075"},{"properties":{"price":566000,"use":"\u4ed9\u53f0\u9752\u8449","zone":"","station":"\u5e97\u8217"},"type":"Point","coordinates":[29225,35398],"id":"feature_076"},{"properties":{"price":715000,"use":"\u4ed9\u53f0\u9752\u8449","zone":"","station":"\u5e97\u8217"},"type":"Point","coordinates":[29360,35226],"id":"feature_077"},{"properties":{"price":800000,"use":"\u4ed9\u53f0\u9752\u8449","zone":"","station":"\u4e8b\u52d9\u6240"},"type":"Point","coordinates":[29006,35639],"id":"feature_078"},{"properties":{"price":597000,"use":"\u4ed9\u53f0\u9752\u8449","zone":"","station":"\u5e97\u8217\u517c\u5171\u540c\u4f4f\u5b85"},"type":"Point","coordinates":[28785,35473],"id":"feature_079"},{"properties":{"price":718000,"use":"\u4ed9\u53f0\u9752\u8449","zone":"","station":"\u5e97\u8217\u3001\u4e8b\u52d9\u6240\u517c\u5171\u540c\u4f4f\u5b85\u7b49"},"type":"Point","coordinates":[29036,35894],"id":"feature_080"},{"properties":{"price":910000,"use":"\u4ed9\u53f0\u9752\u8449","zone":"","station":"\u5e97\u8217\u3001\u4e8b\u52d9\u6240\u517c\u5171\u540c\u4f4f\u5b85"},"type":"Point","coordinates":[29216,36370],"id":"feature_081"},{"properties":{"price":254000,"use":"\u4ed9\u53f0\u9752\u8449","zone":"","station":"\u4e8b\u52d9\u6240\u517c\u5171\u540c\u4f4f\u5b85"},"type":"Point","coordinates":[28955,36453],"id":"feature_082"},{"properties":{"price":238000,"use":"\u4ed9\u53f0\u9752\u8449","zone":"","station":"\u5e97\u8217\u517c\u4f4f\u5b85"},"type":"Point","coordinates":[26997,35934],"id":"feature_083"},{"properties":{"price":113000,"use":"\u4ed9\u53f0\u9752\u8449","zone":"","station":"\u5e97\u8217"},"type":"Point","coordinates":[27429,37797],"id":"feature_084"},{"properties":{"price":482000,"use":"\u4ed9\u53f0\u9752\u8449","zone":"","station":"\u5e97\u8217\u3001\u4e8b\u52d9\u6240\u517c\u5171\u540c\u4f4f\u5b85"},"type":"Point","coordinates":[29197,36874],"id":"feature_085"},{"properties":{"price":111000,"use":"\u4ed9\u53f0\u9752\u8449","zone":"","station":"\u5e97\u8217"},"type":"Point","coordinates":[31111,37367],"id":"feature_086"},{"properties":{"price":304000,"use":"\u4ed9\u53f0\u9752\u8449","zone":"","station":"\u5e97\u8217\u517c\u5171\u540c\u4f4f\u5b85"},"type":"Point","coordinates":[30704,35867],"id":"feature_087"},{"properties":{"price":816000,"use":"\u4ed9\u53f0\u9752\u8449","zone":"","station":"\u4e8b\u52d9\u6240\u517c\u5171\u540c\u4f4f\u5b85"},"type":"Point","coordinates":[29832,35972],"id":"feature_088"},{"properties":{"price":789000,"use":"\u4ed9\u53f0\u9752\u8449","zone":"","station":"\u5e97\u8217\u517c\u4f4f\u5b85"},"type":"Point","coordinates":[29587,35057],"id":"feature_089"},{"properties":{"price":113000,"use":"\u4ed9\u53f0\u9752\u8449","zone":"","station":"\u5e97\u8217\u3001\u4e8b\u52d9\u6240\u517c\u4f4f\u5b85"},"type":"Point","coordinates":[29958,38961],"id":"feature_090"},{"properties":{"price":520000,"use":"\u4ed9\u53f0\u9752\u8449","zone":"","station":"\u4e8b\u52d9\u6240\u517c\u5171\u540c\u4f4f\u5b85"},"type":"Point","coordinates":[29716,36156],"id":"feature_091"},{"properties":{"price":549000,"use":"\u4ed9\u53f0\u9752\u8449","zone":"","station":"\u4e8b\u52d9\u6240\u517c\u5171\u540c\u4f4f\u5b85"},"type":"Point","coordinates":[28753,35283],"id":"feature_092"},{"properties":{"price":921000,"use":"\u4ed9\u53f0\u9752\u8449","zone":"","station":"\u4e8b\u52d9\u6240"},"type":"Point","coordinates":[29408,35079],"id":"feature_093"},{"properties":{"price":606000,"use":"\u4ed9\u53f0\u9752\u8449","zone":"","station":"\u4e8b\u52d9\u6240"},"type":"Point","coordinates":[30300,34334],"id":"feature_094"},{"properties":{"price":643000,"use":"\u4ed9\u53f0\u9752\u8449","zone":"","station":"\u5e97\u8217\u517c\u5171\u540c\u4f4f\u5b85"},"type":"Point","coordinates":[30222,35357],"id":"feature_095"},{"properties":{"price":925000,"use":"\u4ed9\u53f0\u9752\u8449","zone":"","station":"\u5e97\u8217\u517c\u5171\u540c\u4f4f\u5b85"},"type":"Point","coordinates":[30403,34615],"id":"feature_096"},{"properties":{"price":840000,"use":"\u4ed9\u53f0\u9752\u8449","zone":"","station":"\u4e8b\u52d9\u6240"},"type":"Point","coordinates":[30141,34384],"id":"feature_097"},{"properties":{"price":687000,"use":"\u4ed9\u53f0\u9752\u8449","zone":"","station":"\u5e97\u8217\u517c\u4e8b\u52d9\u6240"},"type":"Point","coordinates":[29457,34609],"id":"feature_098"},{"properties":{"price":815000,"use":"\u4ed9\u53f0\u9752\u8449","zone":"","station":"\u5e97\u8217\u517c\u5171\u540c\u4f4f\u5b85"},"type":"Point","coordinates":[29211,35693],"id":"feature_099"},{"properties":{"price":618000,"use":"\u4ed9\u53f0\u9752\u8449","zone":"","station":"\u5e97\u8217\u3001\u4e8b\u52d9\u6240\u517c\u5171\u540c\u4f4f\u5b85"},"type":"Point","coordinates":[29478,36448],"id":"feature_100"},{"properties":{"price":700000,"use":"\u4ed9\u53f0\u9752\u8449","zone":"","station":"\u6559\u7fd2\u6240"},"type":"Point","coordinates":[30210,34764],"id":"feature_101"},{"properties":{"price":900000,"use":"\u4ed9\u53f0\u9752\u8449","zone":"","station":"\u4e8b\u52d9\u6240\u517c\u5e97\u8217"},"type":"Point","coordinates":[29682,34646],"id":"feature_102"},{"properties":{"price":728000,"use":"\u4ed9\u53f0\u9752\u8449","zone":"","station":"\u5e97\u8217\u517c\u4e8b\u52d9\u6240"},"type":"Point","coordinates":[29103,35312],"id":"feature_103"},{"properties":{"price":285000,"use":"\u4ed9\u53f0\u9752\u8449","zone":"","station":"\u4e8b\u52d9\u6240\u517c\u5171\u540c\u4f4f\u5b85"},"type":"Point","coordinates":[29034,37067],"id":"feature_104"},{"properties":{"price":1470000,"use":"\u4ed9\u53f0\u9752\u8449","zone":"","station":"\u5e97\u8217\u517c\u4e8b\u52d9\u6240"},"type":"Point","coordinates":[29303,35116],"id":"feature_105"},{"properties":{"price":3060000,"use":"\u4ed9\u53f0\u9752\u8449","zone":"","station":"\u4e8b\u52d9\u6240"},"type":"Point","coordinates":[29748,34900],"id":"feature_106"},{"properties":{"price":111000,"use":"\u4ed9\u53f0\u9752\u8449","zone":"","station":"\u5e97\u8217"},"type":"Point","coordinates":[24281,37765],"id":"feature_107"},{"properties":{"price":1480000,"use":"\u4ed9\u53f0\u9752\u8449","zone":"","station":"\u5e97\u8217\u3001\u4e8b\u52d9\u6240\u517c\u5009\u5eab"},"type":"Point","coordinates":[29648,34774],"id":"feature_108"},{"properties":{"price":85500,"use":"\u4ed9\u53f0\u9752\u8449","zone":"","station":"\u5e97\u8217"},"type":"Point","coordinates":[20679,35761],"id":"feature_109"},{"properties":{"price":310000,"use":"\u4ed9\u53f0\u9752\u8449","zone":"","station":"\u5e97\u8217\u517c\u5171\u540c\u4f4f\u5b85"},"type":"Point","coordinates":[28603,36246],"id":"feature_110"},{"properties":{"price":135000,"use":"\u4ed9\u53f0\u5bae\u57ce\u91ce","zone":"","station":"\u4f4f\u5b85"},"type":"Point","coordinates":[35335,36434],"id":"feature_111"},{"properties":{"price":110000,"use":"\u4ed9\u53f0\u5bae\u57ce\u91ce","zone":"","station":"\u4f4f\u5b85"},"type":"Point","coordinates":[34694,36676],"id":"feature_112"},{"properties":{"price":119000,"use":"\u4ed9\u53f0\u5bae\u57ce\u91ce","zone":"","station":"\u4f4f\u5b85"},"type":"Point","coordinates":[32407,35645],"id":"feature_113"},{"properties":{"price":125000,"use":"\u4ed9\u53f0\u5bae\u57ce\u91ce","zone":"","station":"\u4f4f\u5b85"},"type":"Point","coordinates":[32051,36519],"id":"feature_114"},{"properties":{"price":85000,"use":"\u4ed9\u53f0\u5bae\u57ce\u91ce","zone":"","station":"\u4f4f\u5b85"},"type":"Point","coordinates":[32342,36799],"id":"feature_115"},{"properties":{"price":107000,"use":"\u4ed9\u53f0\u5bae\u57ce\u91ce","zone":"","station":"\u4f4f\u5b85"},"type":"Point","coordinates":[33571,36427],"id":"feature_116"},{"properties":{"price":84000,"use":"\u4ed9\u53f0\u5bae\u57ce\u91ce","zone":"","station":"\u4f4f\u5b85"},"type":"Point","coordinates":[33848,37105],"id":"feature_117"},{"properties":{"price":81500,"use":"\u4ed9\u53f0\u5bae\u57ce\u91ce","zone":"","station":"\u4f4f\u5b85"},"type":"Point","coordinates":[32636,37951],"id":"feature_118"},{"properties":{"price":71500,"use":"\u4ed9\u53f0\u5bae\u57ce\u91ce","zone":"","station":"\u4f4f\u5b85"},"type":"Point","coordinates":[37770,38925],"id":"feature_119"},{"properties":{"price":111000,"use":"\u4ed9\u53f0\u5bae\u57ce\u91ce","zone":"","station":"\u4f4f\u5b85"},"type":"Point","coordinates":[38610,37145],"id":"feature_120"},{"properties":{"price":93000,"use":"\u4ed9\u53f0\u5bae\u57ce\u91ce","zone":"","station":"\u4f4f\u5b85"},"type":"Point","coordinates":[39310,37136],"id":"feature_121"},{"properties":{"price":73500,"use":"\u4ed9\u53f0\u5bae\u57ce\u91ce","zone":"","station":"\u4f4f\u5b85"},"type":"Point","coordinates":[35651,38419],"id":"feature_122"},{"properties":{"price":57500,"use":"\u4ed9\u53f0\u5bae\u57ce\u91ce","zone":"","station":"\u4f4f\u5b85"},"type":"Point","coordinates":[37340,38755],"id":"feature_123"},{"properties":{"price":58000,"use":"\u4ed9\u53f0\u5bae\u57ce\u91ce","zone":"","station":"\u4f4f\u5b85"},"type":"Point","coordinates":[37237,39574],"id":"feature_124"},{"properties":{"price":96000,"use":"\u4ed9\u53f0\u5bae\u57ce\u91ce","zone":"","station":"\u4f4f\u5b85"},"type":"Point","coordinates":[34298,37741],"id":"feature_125"},{"properties":{"price":75500,"use":"\u4ed9\u53f0\u5bae\u57ce\u91ce","zone":"","station":"\u4f4f\u5b85"},"type":"Point","coordinates":[32506,37535],"id":"feature_126"},{"properties":{"price":75300,"use":"\u4ed9\u53f0\u5bae\u57ce\u91ce","zone":"","station":"\u4f4f\u5b85"},"type":"Point","coordinates":[37007,39258],"id":"feature_127"},{"properties":{"price":115000,"use":"\u4ed9\u53f0\u5bae\u57ce\u91ce","zone":"","station":"\u4f4f\u5b85"},"type":"Point","coordinates":[40798,36701],"id":"feature_128"},{"properties":{"price":120000,"use":"\u4ed9\u53f0\u5bae\u57ce\u91ce","zone":"","station":"\u4f4f\u5b85"},"type":"Point","coordinates":[40847,37074],"id":"feature_129"},{"properties":{"price":240000,"use":"\u4ed9\u53f0\u5bae\u57ce\u91ce","zone":"","station":"\u4f4f\u5b85"},"type":"Point","coordinates":[33364,35208],"id":"feature_130"},{"properties":{"price":106000,"use":"\u4ed9\u53f0\u5bae\u57ce\u91ce","zone":"","station":"\u5171\u540c\u4f4f\u5b85"},"type":"Point","coordinates":[38412,36626],"id":"feature_131"},{"properties":{"price":92500,"use":"\u4ed9\u53f0\u5bae\u57ce\u91ce","zone":"","station":"\u4f4f\u5b85"},"type":"Point","coordinates":[33689,38567],"id":"feature_132"},{"properties":{"price":60300,"use":"\u4ed9\u53f0\u5bae\u57ce\u91ce","zone":"","station":"\u4f4f\u5b85"},"type":"Point","coordinates":[34956,37444],"id":"feature_133"},{"properties":{"price":97200,"use":"\u4ed9\u53f0\u5bae\u57ce\u91ce","zone":"","station":"\u4f4f\u5b85"},"type":"Point","coordinates":[37621,39542],"id":"feature_134"},{"properties":{"price":71800,"use":"\u4ed9\u53f0\u5bae\u57ce\u91ce","zone":"","station":"\u4f4f\u5b85"},"type":"Point","coordinates":[38180,38294],"id":"feature_135"},{"properties":{"price":69000,"use":"\u4ed9\u53f0\u5bae\u57ce\u91ce","zone":"","station":"\u4f4f\u5b85"},"type":"Point","coordinates":[35288,38347],"id":"feature_136"},{"properties":{"price":83500,"use":"\u4ed9\u53f0\u5bae\u57ce\u91ce","zone":"","station":"\u4f4f\u5b85"},"type":"Point","coordinates":[33801,35930],"id":"feature_137"},{"properties":{"price":86000,"use":"\u4ed9\u53f0\u5bae\u57ce\u91ce","zone":"","station":"\u4f4f\u5b85"},"type":"Point","coordinates":[38047,39166],"id":"feature_138"},{"properties":{"price":103000,"use":"\u4ed9\u53f0\u5bae\u57ce\u91ce","zone":"","station":"\u4f4f\u5b85"},"type":"Point","coordinates":[34890,36151],"id":"feature_139"},{"properties":{"price":125000,"use":"\u4ed9\u53f0\u5bae\u57ce\u91ce","zone":"","station":"\u4f4f\u5b85"},"type":"Point","coordinates":[39408,36013],"id":"feature_140"},{"properties":{"price":97200,"use":"\u4ed9\u53f0\u5bae\u57ce\u91ce","zone":"","station":"\u4f4f\u5b85"},"type":"Point","coordinates":[32744,35863],"id":"feature_141"},{"properties":{"price":85300,"use":"\u4ed9\u53f0\u5bae\u57ce\u91ce","zone":"","station":"\u4f4f\u5b85"},"type":"Point","coordinates":[33981,37428],"id":"feature_142"},{"properties":{"price":30700,"use":"\u4ed9\u53f0\u5bae\u57ce\u91ce","zone":"","station":"\u4f4f\u5b85"},"type":"Point","coordinates":[40130,34603],"id":"feature_143"},{"properties":{"price":83500,"use":"\u4ed9\u53f0\u5bae\u57ce\u91ce","zone":"","station":"\u4f4f\u5b85"},"type":"Point","coordinates":[34306,37051],"id":"feature_144"},{"properties":{"price":57000,"use":"\u4ed9\u53f0\u5bae\u57ce\u91ce","zone":"","station":"\u4f4f\u5b85"},"type":"Point","coordinates":[36547,39227],"id":"feature_145"},{"properties":{"price":89000,"use":"\u4ed9\u53f0\u5bae\u57ce\u91ce","zone":"","station":"\u4f4f\u5b85"},"type":"Point","coordinates":[33660,36268],"id":"feature_146"},{"properties":{"price":106000,"use":"\u4ed9\u53f0\u5bae\u57ce\u91ce","zone":"","station":"\u4f4f\u5b85"},"type":"Point","coordinates":[38157,37487],"id":"feature_147"},{"properties":{"price":532000,"use":"\u4ed9\u53f0\u5bae\u57ce\u91ce","zone":"","station":"\u5171\u540c\u4f4f\u5b85"},"type":"Point","coordinates":[31577,35320],"id":"feature_148"},{"properties":{"price":305000,"use":"\u4ed9\u53f0\u5bae\u57ce\u91ce","zone":"","station":"\u4f4f\u5b85"},"type":"Point","coordinates":[32288,34638],"id":"feature_149"},{"properties":{"price":467000,"use":"\u4ed9\u53f0\u5bae\u57ce\u91ce","zone":"","station":"\u4e8b\u52d9\u6240\u517c\u5171\u540c\u4f4f\u5b85"},"type":"Point","coordinates":[31619,34772],"id":"feature_150"},{"properties":{"price":80800,"use":"\u4ed9\u53f0\u5bae\u57ce\u91ce","zone":"","station":"\u5de5\u5834\u3001\u4e8b\u52d9\u6240\u517c\u5171\u540c\u4f4f\u5b85"},"type":"Point","coordinates":[39902,36551],"id":"feature_151"},{"properties":{"price":182000,"use":"\u4ed9\u53f0\u5bae\u57ce\u91ce","zone":"","station":"\u4e8b\u52d9\u6240"},"type":"Point","coordinates":[32785,35448],"id":"feature_152"},{"properties":{"price":285000,"use":"\u4ed9\u53f0\u5bae\u57ce\u91ce","zone":"","station":"\u5e97\u8217\u517c\u5171\u540c\u4f4f\u5b85"},"type":"Point","coordinates":[32404,34635],"id":"feature_153"},{"properties":{"price":158000,"use":"\u4ed9\u53f0\u5bae\u57ce\u91ce","zone":"","station":"\u5e97\u8217\u517c\u4e8b\u52d9\u6240"},"type":"Point","coordinates":[32831,36283],"id":"feature_154"},{"properties":{"price":104000,"use":"\u4ed9\u53f0\u5bae\u57ce\u91ce","zone":"","station":"\u5e97\u8217\u517c\u4f4f\u5b85"},"type":"Point","coordinates":[33951,36104],"id":"feature_155"},{"properties":{"price":81000,"use":"\u4ed9\u53f0\u5bae\u57ce\u91ce","zone":"","station":"\u5e97\u8217\u517c\u4f4f\u5b85"},"type":"Point","coordinates":[35376,37361],"id":"feature_156"},{"properties":{"price":1390000,"use":"\u4ed9\u53f0\u5bae\u57ce\u91ce","zone":"","station":"\u4e8b\u52d9\u6240"},"type":"Point","coordinates":[30990,34799],"id":"feature_157"},{"properties":{"price":375000,"use":"\u4ed9\u53f0\u5bae\u57ce\u91ce","zone":"","station":"\u9280\u884c"},"type":"Point","coordinates":[31689,35369],"id":"feature_158"},{"properties":{"price":680000,"use":"\u4ed9\u53f0\u5bae\u57ce\u91ce","zone":"","station":"\u4e8b\u52d9\u6240\u517c\u5171\u540c\u4f4f\u5b85"},"type":"Point","coordinates":[31284,35327],"id":"feature_159"},{"properties":{"price":75100,"use":"\u4ed9\u53f0\u5bae\u57ce\u91ce","zone":"","station":"\u5e97\u8217"},"type":"Point","coordinates":[38501,34351],"id":"feature_160"},{"properties":{"price":973000,"use":"\u4ed9\u53f0\u5bae\u57ce\u91ce","zone":"","station":"\u5e97\u8217\u517c\u5171\u540c\u4f4f\u5b85"},"type":"Point","coordinates":[31116,35182],"id":"feature_161"},{"properties":{"price":125000,"use":"\u4ed9\u53f0\u5bae\u57ce\u91ce","zone":"","station":"\u5009\u5eab\u517c\u4e8b\u52d9\u6240"},"type":"Point","coordinates":[35012,35612],"id":"feature_162"},{"properties":{"price":134000,"use":"\u4ed9\u53f0\u5bae\u57ce\u91ce","zone":"","station":"\u5009\u5eab\u517c\u4e8b\u52d9\u6240"},"type":"Point","coordinates":[36571,35876],"id":"feature_163"},{"properties":{"price":63000,"use":"\u4ed9\u53f0\u5bae\u57ce\u91ce","zone":"","station":"\u4e8b\u52d9\u6240\u517c\u5009\u5eab"},"type":"Point","coordinates":[43512,36514],"id":"feature_164"},{"properties":{"price":255000,"use":"\u4ed9\u53f0\u82e5\u6797","zone":"","station":"\u4f4f\u5b85"},"type":"Point","coordinates":[31780,34269],"id":"feature_165"},{"properties":{"price":200000,"use":"\u4ed9\u53f0\u82e5\u6797","zone":"","station":"\u4f4f\u5b85"},"type":"Point","coordinates":[31540,33139],"id":"feature_166"},{"properties":{"price":185000,"use":"\u4ed9\u53f0\u82e5\u6797","zone":"","station":"\u4f4f\u5b85"},"type":"Point","coordinates":[31812,33477],"id":"feature_167"},{"properties":{"price":199000,"use":"\u4ed9\u53f0\u82e5\u6797","zone":"","station":"\u4f4f\u5b85"},"type":"Point","coordinates":[32776,33506],"id":"feature_168"},{"properties":{"price":195000,"use":"\u4ed9\u53f0\u82e5\u6797","zone":"","station":"\u4f4f\u5b85"},"type":"Point","coordinates":[32448,33786],"id":"feature_169"},{"properties":{"price":226000,"use":"\u4ed9\u53f0\u82e5\u6797","zone":"","station":"\u4f4f\u5b85"},"type":"Point","coordinates":[34145,33757],"id":"feature_170"},{"properties":{"price":230000,"use":"\u4ed9\u53f0\u82e5\u6797","zone":"","station":"\u5171\u540c\u4f4f\u5b85"},"type":"Point","coordinates":[34664,33916],"id":"feature_171"},{"properties":{"price":108000,"use":"\u4ed9\u53f0\u82e5\u6797","zone":"","station":"\u4f4f\u5b85"},"type":"Point","coordinates":[35378,32596],"id":"feature_172"},{"properties":{"price":92600,"use":"\u4ed9\u53f0\u82e5\u6797","zone":"","station":"\u4f4f\u5b85"},"type":"Point","coordinates":[35484,30288],"id":"feature_173"},{"properties":{"price":22000,"use":"\u4ed9\u53f0\u82e5\u6797","zone":"","station":"\u4f4f\u5b85"},"type":"Point","coordinates":[38038,31821],"id":"feature_174"},{"properties":{"price":95600,"use":"\u4ed9\u53f0\u82e5\u6797","zone":"","station":"\u4f4f\u5b85"},"type":"Point","coordinates":[33477,32152],"id":"feature_175"},{"properties":{"price":104000,"use":"\u4ed9\u53f0\u82e5\u6797","zone":"","station":"\u4f4f\u5b85"},"type":"Point","coordinates":[34701,32995],"id":"feature_176"},{"properties":{"price":159000,"use":"\u4ed9\u53f0\u82e5\u6797","zone":"","station":"\u4f4f\u5b85"},"type":"Point","coordinates":[35547,33107],"id":"feature_177"},{"properties":{"price":92400,"use":"\u4ed9\u53f0\u82e5\u6797","zone":"","station":"\u4f4f\u5b85"},"type":"Point","coordinates":[33882,30647],"id":"feature_178"},{"properties":{"price":101000,"use":"\u4ed9\u53f0\u82e5\u6797","zone":"","station":"\u4f4f\u5b85"},"type":"Point","coordinates":[34388,31319],"id":"feature_179"},{"properties":{"price":168000,"use":"\u4ed9\u53f0\u82e5\u6797","zone":"","station":"\u4f4f\u5b85"},"type":"Point","coordinates":[36192,33509],"id":"feature_180"},{"properties":{"price":142000,"use":"\u4ed9\u53f0\u82e5\u6797","zone":"","station":"\u4f4f\u5b85"},"type":"Point","coordinates":[32697,33047],"id":"feature_181"},{"properties":{"price":233000,"use":"\u4ed9\u53f0\u82e5\u6797","zone":"","station":"\u4f4f\u5b85"},"type":"Point","coordinates":[33045,34064],"id":"feature_182"},{"properties":{"price":185000,"use":"\u4ed9\u53f0\u82e5\u6797","zone":"","station":"\u4f4f\u5b85"},"type":"Point","coordinates":[33515,33463],"id":"feature_183"},{"properties":{"price":83200,"use":"\u4ed9\u53f0\u82e5\u6797","zone":"","station":"\u4f4f\u5b85"},"type":"Point","coordinates":[34989,29874],"id":"feature_184"},{"properties":{"price":99800,"use":"\u4ed9\u53f0\u82e5\u6797","zone":"","station":"\u4f4f\u5b85"},"type":"Point","coordinates":[33434,31420],"id":"feature_185"},{"properties":{"price":112000,"use":"\u4ed9\u53f0\u82e5\u6797","zone":"","station":"\u4f4f\u5b85"},"type":"Point","coordinates":[33757,32872],"id":"feature_186"},{"properties":{"price":208000,"use":"\u4ed9\u53f0\u82e5\u6797","zone":"","station":"\u4f4f\u5b85"},"type":"Point","coordinates":[31890,34177],"id":"feature_187"},{"properties":{"price":234000,"use":"\u4ed9\u53f0\u82e5\u6797","zone":"","station":"\u4f4f\u5b85"},"type":"Point","coordinates":[31067,33635],"id":"feature_188"},{"properties":{"price":160000,"use":"\u4ed9\u53f0\u82e5\u6797","zone":"","station":"\u4f4f\u5b85"},"type":"Point","coordinates":[32066,33027],"id":"feature_189"},{"properties":{"price":106000,"use":"\u4ed9\u53f0\u82e5\u6797","zone":"","station":"\u4f4f\u5b85"},"type":"Point","coordinates":[32689,31974],"id":"feature_190"},{"properties":{"price":142000,"use":"\u4ed9\u53f0\u82e5\u6797","zone":"","station":"\u4f4f\u5b85"},"type":"Point","coordinates":[36368,34216],"id":"feature_191"},{"properties":{"price":109000,"use":"\u4ed9\u53f0\u82e5\u6797","zone":"","station":"\u4f4f\u5b85"},"type":"Point","coordinates":[34182,30925],"id":"feature_192"},{"properties":{"price":121000,"use":"\u4ed9\u53f0\u82e5\u6797","zone":"","station":"\u4f4f\u5b85"},"type":"Point","coordinates":[33036,32377],"id":"feature_193"},{"properties":{"price":950000,"use":"\u4ed9\u53f0\u82e5\u6797","zone":"","station":"\u4e8b\u52d9\u6240\u517c\u5e97\u8217"},"type":"Point","coordinates":[30729,34598],"id":"feature_194"},{"properties":{"price":245000,"use":"\u4ed9\u53f0\u82e5\u6797","zone":"","station":"\u5e97\u8217\u517c\u5171\u540c\u4f4f\u5b85"},"type":"Point","coordinates":[31249,32872],"id":"feature_195"},{"properties":{"price":317000,"use":"\u4ed9\u53f0\u82e5\u6797","zone":"","station":"\u5e97\u8217\u517c\u5171\u540c\u4f4f\u5b85"},"type":"Point","coordinates":[30645,33819],"id":"feature_196"},{"properties":{"price":350000,"use":"\u4ed9\u53f0\u82e5\u6797","zone":"","station":"\u4e8b\u52d9\u6240\u517c\u5171\u540c\u4f4f\u5b85"},"type":"Point","coordinates":[30594,33669],"id":"feature_197"},{"properties":{"price":307000,"use":"\u4ed9\u53f0\u82e5\u6797","zone":"","station":"\u4e8b\u52d9\u6240\u517c\u5171\u540c\u4f4f\u5b85"},"type":"Point","coordinates":[31209,34421],"id":"feature_198"},{"properties":{"price":85600,"use":"\u4ed9\u53f0\u82e5\u6797","zone":"","station":"\u5de5\u5834\u3001\u4e8b\u52d9\u6240\u517c\u5e97\u8217"},"type":"Point","coordinates":[33817,32592],"id":"feature_199"},{"properties":{"price":393000,"use":"\u4ed9\u53f0\u82e5\u6797","zone":"","station":"\u5e97\u8217\u517c\u5171\u540c\u4f4f\u5b85"},"type":"Point","coordinates":[31272,34122],"id":"feature_200"},{"properties":{"price":242000,"use":"\u4ed9\u53f0\u82e5\u6797","zone":"","station":"\u9280\u884c"},"type":"Point","coordinates":[34728,34104],"id":"feature_201"},{"properties":{"price":172000,"use":"\u4ed9\u53f0\u82e5\u6797","zone":"","station":"\u5e97\u8217"},"type":"Point","coordinates":[35972,33670],"id":"feature_202"},{"properties":{"price":98000,"use":"\u4ed9\u53f0\u82e5\u6797","zone":"","station":"\u5009\u5eab\u517c\u4e8b\u52d9\u6240"},"type":"Point","coordinates":[37056,34504],"id":"feature_203"},{"properties":{"price":169000,"use":"\u4ed9\u53f0\u592a\u767d","zone":"","station":"\u4f4f\u5b85"},"type":"Point","coordinates":[30320,32401],"id":"feature_204"},{"properties":{"price":238000,"use":"\u4ed9\u53f0\u592a\u767d","zone":"","station":"\u4f4f\u5b85"},"type":"Point","coordinates":[30685,32047],"id":"feature_205"},{"properties":{"price":75300,"use":"\u4ed9\u53f0\u592a\u767d","zone":"","station":"\u4f4f\u5b85"},"type":"Point","coordinates":[32160,30910],"id":"feature_206"},{"properties":{"price":140000,"use":"\u4ed9\u53f0\u592a\u767d","zone":"","station":"\u4f4f\u5b85"},"type":"Point","coordinates":[31046,30206],"id":"feature_207"},{"properties":{"price":157000,"use":"\u4ed9\u53f0\u592a\u767d","zone":"","station":"\u4f4f\u5b85"},"type":"Point","coordinates":[31476,31023],"id":"feature_208"},{"properties":{"price":220000,"use":"\u4ed9\u53f0\u592a\u767d","zone":"","station":"\u5171\u540c\u4f4f\u5b85"},"type":"Point","coordinates":[30362,31157],"id":"feature_209"},{"properties":{"price":70500,"use":"\u4ed9\u53f0\u592a\u767d","zone":"","station":"\u4f4f\u5b85"},"type":"Point","coordinates":[27207,31227],"id":"feature_210"},{"properties":{"price":222000,"use":"\u4ed9\u53f0\u592a\u767d","zone":"","station":"\u4f4f\u5b85"},"type":"Point","coordinates":[28991,30600],"id":"feature_211"},{"properties":{"price":81500,"use":"\u4ed9\u53f0\u592a\u767d","zone":"","station":"\u4f4f\u5b85"},"type":"Point","coordinates":[26256,31778],"id":"feature_212"},{"properties":{"price":53500,"use":"\u4ed9\u53f0\u592a\u767d","zone":"","station":"\u4f4f\u5b85"},"type":"Point","coordinates":[26084,31342],"id":"feature_213"},{"properties":{"price":61300,"use":"\u4ed9\u53f0\u592a\u767d","zone":"","station":"\u4f4f\u5b85"},"type":"Point","coordinates":[24865,30751],"id":"feature_214"},{"properties":{"price":36000,"use":"\u4ed9\u53f0\u592a\u767d","zone":"","station":"\u4f4f\u5b85"},"type":"Point","coordinates":[22994,31185],"id":"feature_215"},{"properties":{"price":50200,"use":"\u4ed9\u53f0\u592a\u767d","zone":"","station":"\u4f4f\u5b85"},"type":"Point","coordinates":[24626,31737],"id":"feature_216"},{"properties":{"price":122000,"use":"\u4ed9\u53f0\u592a\u767d","zone":"","station":"\u4f4f\u5b85"},"type":"Point","coordinates":[27026,33330],"id":"feature_217"},{"properties":{"price":79000,"use":"\u4ed9\u53f0\u592a\u767d","zone":"","station":"\u4f4f\u5b85"},"type":"Point","coordinates":[27760,33235],"id":"feature_218"},{"properties":{"price":64000,"use":"\u4ed9\u53f0\u592a\u767d","zone":"","station":"\u4f4f\u5b85"},"type":"Point","coordinates":[28444,33421],"id":"feature_219"},{"properties":{"price":55600,"use":"\u4ed9\u53f0\u592a\u767d","zone":"","station":"\u4f4f\u5b85"},"type":"Point","coordinates":[29259,33302],"id":"feature_220"},{"properties":{"price":238000,"use":"\u4ed9\u53f0\u592a\u767d","zone":"","station":"\u4f4f\u5b85"},"type":"Point","coordinates":[31489,31846],"id":"feature_221"},{"properties":{"price":46000,"use":"\u4ed9\u53f0\u592a\u767d","zone":"","station":"\u4f4f\u5b85"},"type":"Point","coordinates":[28880,31666],"id":"feature_222"},{"properties":{"price":44400,"use":"\u4ed9\u53f0\u592a\u767d","zone":"","station":"\u4f4f\u5b85"},"type":"Point","coordinates":[20822,30837],"id":"feature_223"},{"properties":{"price":46700,"use":"\u4ed9\u53f0\u592a\u767d","zone":"","station":"\u4f4f\u5b85"},"type":"Point","coordinates":[20799,32496],"id":"feature_224"},{"properties":{"price":199000,"use":"\u4ed9\u53f0\u592a\u767d","zone":"","station":"\u4f4f\u5b85"},"type":"Point","coordinates":[29871,31822],"id":"feature_225"},{"properties":{"price":20700,"use":"\u4ed9\u53f0\u592a\u767d","zone":"","station":"\u4f4f\u5b85"},"type":"Point","coordinates":[14503,31910],"id":"feature_226"},{"properties":{"price":72000,"use":"\u4ed9\u53f0\u592a\u767d","zone":"","station":"\u4f4f\u5b85"},"type":"Point","coordinates":[28921,33907],"id":"feature_227"},{"properties":{"price":98000,"use":"\u4ed9\u53f0\u592a\u767d","zone":"","station":"\u4f4f\u5b85"},"type":"Point","coordinates":[32427,29160],"id":"feature_228"},{"properties":{"price":168000,"use":"\u4ed9\u53f0\u592a\u767d","zone":"","station":"\u4f4f\u5b85"},"type":"Point","coordinates":[30471,28246],"id":"feature_229"},{"properties":{"price":73800,"use":"\u4ed9\u53f0\u592a\u767d","zone":"","station":"\u4f4f\u5b85"},"type":"Point","coordinates":[32898,28210],"id":"feature_230"},{"properties":{"price":86000,"use":"\u4ed9\u53f0\u592a\u767d","zone":"","station":"\u4f4f\u5b85"},"type":"Point","coordinates":[27597,31872],"id":"feature_231"},{"properties":{"price":250000,"use":"\u4ed9\u53f0\u592a\u767d","zone":"","station":"\u5171\u540c\u4f4f\u5b85"},"type":"Point","coordinates":[29346,31449],"id":"feature_232"},{"properties":{"price":202000,"use":"\u4ed9\u53f0\u592a\u767d","zone":"","station":"\u5171\u540c\u4f4f\u5b85"},"type":"Point","coordinates":[29512,29953],"id":"feature_233"},{"properties":{"price":140000,"use":"\u4ed9\u53f0\u592a\u767d","zone":"","station":"\u4f4f\u5b85"},"type":"Point","coordinates":[28928,28408],"id":"feature_234"},{"properties":{"price":109000,"use":"\u4ed9\u53f0\u592a\u767d","zone":"","station":"\u4f4f\u5b85"},"type":"Point","coordinates":[27494,33064],"id":"feature_235"},{"properties":{"price":82000,"use":"\u4ed9\u53f0\u592a\u767d","zone":"","station":"\u4f4f\u5b85"},"type":"Point","coordinates":[27133,32479],"id":"feature_236"},{"properties":{"price":71200,"use":"\u4ed9\u53f0\u592a\u767d","zone":"","station":"\u4f4f\u5b85"},"type":"Point","coordinates":[28246,31939],"id":"feature_237"},{"properties":{"price":145000,"use":"\u4ed9\u53f0\u592a\u767d","zone":"","station":"\u4f4f\u5b85"},"type":"Point","coordinates":[30384,29080],"id":"feature_238"},{"properties":{"price":56800,"use":"\u4ed9\u53f0\u592a\u767d","zone":"","station":"\u4f4f\u5b85"},"type":"Point","coordinates":[27276,30064],"id":"feature_239"},{"properties":{"price":8600,"use":"\u4ed9\u53f0\u592a\u767d","zone":"","station":"\u4f4f\u5b85"},"type":"Point","coordinates":[17698,30128],"id":"feature_240"},{"properties":{"price":60500,"use":"\u4ed9\u53f0\u592a\u767d","zone":"","station":"\u4f4f\u5b85"},"type":"Point","coordinates":[26599,32002],"id":"feature_241"},{"properties":{"price":82500,"use":"\u4ed9\u53f0\u592a\u767d","zone":"","station":"\u4f4f\u5b85"},"type":"Point","coordinates":[28465,31261],"id":"feature_242"},{"properties":{"price":82500,"use":"\u4ed9\u53f0\u592a\u767d","zone":"","station":"\u4f4f\u5b85"},"type":"Point","coordinates":[32583,31104],"id":"feature_243"},{"properties":{"price":8100,"use":"\u4ed9\u53f0\u592a\u767d","zone":"","station":"\u4f4f\u5b85"},"type":"Point","coordinates":[13491,32490],"id":"feature_244"},{"properties":{"price":69800,"use":"\u4ed9\u53f0\u592a\u767d","zone":"","station":"\u4f4f\u5b85"},"type":"Point","coordinates":[33794,28301],"id":"feature_245"},{"properties":{"price":100000,"use":"\u4ed9\u53f0\u592a\u767d","zone":"","station":"\u4f4f\u5b85"},"type":"Point","coordinates":[31283,29133],"id":"feature_246"},{"properties":{"price":225000,"use":"\u4ed9\u53f0\u592a\u767d","zone":"","station":"\u4f4f\u5b85"},"type":"Point","coordinates":[30784,32484],"id":"feature_247"},{"properties":{"price":74500,"use":"\u4ed9\u53f0\u592a\u767d","zone":"","station":"\u4f4f\u5b85"},"type":"Point","coordinates":[33250,28816],"id":"feature_248"},{"properties":{"price":90500,"use":"\u4ed9\u53f0\u592a\u767d","zone":"","station":"\u4f4f\u5b85"},"type":"Point","coordinates":[25688,32576],"id":"feature_249"},{"properties":{"price":82000,"use":"\u4ed9\u53f0\u592a\u767d","zone":"","station":"\u4f4f\u5b85"},"type":"Point","coordinates":[29836,33340],"id":"feature_250"},{"properties":{"price":100000,"use":"\u4ed9\u53f0\u592a\u767d","zone":"","station":"\u4f4f\u5b85"},"type":"Point","coordinates":[31115,28098],"id":"feature_251"},{"properties":{"price":106000,"use":"\u4ed9\u53f0\u592a\u767d","zone":"","station":"\u4f4f\u5b85"},"type":"Point","coordinates":[31084,29889],"id":"feature_252"},{"properties":{"price":47500,"use":"\u4ed9\u53f0\u592a\u767d","zone":"","station":"\u4f4f\u5b85"},"type":"Point","coordinates":[25419,31423],"id":"feature_253"},{"properties":{"price":228000,"use":"\u4ed9\u53f0\u592a\u767d","zone":"","station":"\u4f4f\u5b85"},"type":"Point","coordinates":[29795,30223],"id":"feature_254"},{"properties":{"price":155000,"use":"\u4ed9\u53f0\u592a\u767d","zone":"","station":"\u4f4f\u5b85"},"type":"Point","coordinates":[28012,29721],"id":"feature_255"},{"properties":{"price":27200,"use":"\u4ed9\u53f0\u592a\u767d","zone":"","station":"\u7551"},"type":"Point","coordinates":[33035,29218],"id":"feature_256"},{"properties":{"price":297000,"use":"\u4ed9\u53f0\u592a\u767d","zone":"","station":"\u5e97\u8217"},"type":"Point","coordinates":[31083,32238],"id":"feature_257"},{"properties":{"price":150000,"use":"\u4ed9\u53f0\u592a\u767d","zone":"","station":"\u5e97\u8217"},"type":"Point","coordinates":[29503,28626],"id":"feature_258"},{"properties":{"price":107000,"use":"\u4ed9\u53f0\u592a\u767d","zone":"","station":"\u5e97\u8217\u517c\u4f5c\u696d\u5834"},"type":"Point","coordinates":[25865,30551],"id":"feature_259"},{"properties":{"price":398000,"use":"\u4ed9\u53f0\u592a\u767d","zone":"","station":"\u5e97\u8217\u517c\u5171\u540c\u4f4f\u5b85"},"type":"Point","coordinates":[30227,31362],"id":"feature_260"},{"properties":{"price":29000,"use":"\u4ed9\u53f0\u592a\u767d","zone":"","station":"\u5e97\u8217\u517c\u4f4f\u5b85"},"type":"Point","coordinates":[14402,31675],"id":"feature_261"},{"properties":{"price":89500,"use":"\u4ed9\u53f0\u592a\u767d","zone":"","station":"\u5e97\u8217\u517c\u4e8b\u52d9\u6240"},"type":"Point","coordinates":[28054,31209],"id":"feature_262"},{"properties":{"price":181000,"use":"\u4ed9\u53f0\u592a\u767d","zone":"","station":"\u30c7\u30a4\u30b5\u30fc\u30d3\u30b9\u30bb\u30f3\u30bf\u30fc"},"type":"Point","coordinates":[28233,30165],"id":"feature_263"},{"properties":{"price":61500,"use":"\u4ed9\u53f0\u6cc9","zone":"","station":"\u5efa\u7bc9\u4e2d"},"type":"Point","coordinates":[33540,40578],"id":"feature_264"},{"properties":{"price":107000,"use":"\u4ed9\u53f0\u6cc9","zone":"","station":"\u4f4f\u5b85"},"type":"Point","coordinates":[28384,42611],"id":"feature_265"},{"properties":{"price":112000,"use":"\u4ed9\u53f0\u6cc9","zone":"","station":"\u4f4f\u5b85"},"type":"Point","coordinates":[31802,38912],"id":"feature_266"},{"properties":{"price":135000,"use":"\u4ed9\u53f0\u6cc9","zone":"","station":"\u4f4f\u5b85"},"type":"Point","coordinates":[31283,39213],"id":"feature_267"},{"properties":{"price":108000,"use":"\u4ed9\u53f0\u6cc9","zone":"","station":"\u4f4f\u5b85"},"type":"Point","coordinates":[29100,39272],"id":"feature_268"},{"properties":{"price":110000,"use":"\u4ed9\u53f0\u6cc9","zone":"","station":"\u4f4f\u5b85"},"type":"Point","coordinates":[31466,39639],"id":"feature_269"},{"properties":{"price":124000,"use":"\u4ed9\u53f0\u6cc9","zone":"","station":"\u4f4f\u5b85"},"type":"Point","coordinates":[30669,39607],"id":"feature_270"},{"properties":{"price":295000,"use":"\u4ed9\u53f0\u6cc9","zone":"","station":"\u5171\u540c\u4f4f\u5b85"},"type":"Point","coordinates":[31058,41427],"id":"feature_271"},{"properties":{"price":122000,"use":"\u4ed9\u53f0\u6cc9","zone":"","station":"\u5171\u540c\u4f4f\u5b85"},"type":"Point","coordinates":[31795,40864],"id":"feature_272"},{"properties":{"price":123000,"use":"\u4ed9\u53f0\u6cc9","zone":"","station":"\u4f4f\u5b85"},"type":"Point","coordinates":[31705,40430],"id":"feature_273"},{"properties":{"price":63500,"use":"\u4ed9\u53f0\u6cc9","zone":"","station":"\u7a7a\u5730"},"type":"Point","coordinates":[33198,41092],"id":"feature_274"},{"properties":{"price":77500,"use":"\u4ed9\u53f0\u6cc9","zone":"","station":"\u4f4f\u5b85"},"type":"Point","coordinates":[32944,39340],"id":"feature_275"},{"properties":{"price":80500,"use":"\u4ed9\u53f0\u6cc9","zone":"","station":"\u4f4f\u5b85"},"type":"Point","coordinates":[33790,41722],"id":"feature_276"},{"properties":{"price":97900,"use":"\u4ed9\u53f0\u6cc9","zone":"","station":"\u4f4f\u5b85"},"type":"Point","coordinates":[27750,42537],"id":"feature_277"},{"properties":{"price":58300,"use":"\u4ed9\u53f0\u6cc9","zone":"","station":"\u4f4f\u5b85"},"type":"Point","coordinates":[32224,42132],"id":"feature_278"},{"properties":{"price":128000,"use":"\u4ed9\u53f0\u6cc9","zone":"","station":"\u4f4f\u5b85"},"type":"Point","coordinates":[31613,41434],"id":"feature_279"},{"properties":{"price":77500,"use":"\u4ed9\u53f0\u6cc9","zone":"","station":"\u4f4f\u5b85"},"type":"Point","coordinates":[32112,42943],"id":"feature_280"},{"properties":{"price":260000,"use":"\u4ed9\u53f0\u6cc9","zone":"","station":"\u5171\u540c\u4f4f\u5b85\u517c\u4e8b\u52d9\u6240"},"type":"Point","coordinates":[30213,41098],"id":"feature_281"},{"properties":{"price":118000,"use":"\u4ed9\u53f0\u6cc9","zone":"","station":"\u4f4f\u5b85"},"type":"Point","coordinates":[32456,39191],"id":"feature_282"},{"properties":{"price":129000,"use":"\u4ed9\u53f0\u6cc9","zone":"","station":"\u4f4f\u5b85"},"type":"Point","coordinates":[30170,42534],"id":"feature_283"},{"properties":{"price":86000,"use":"\u4ed9\u53f0\u6cc9","zone":"","station":"\u4f4f\u5b85"},"type":"Point","coordinates":[29101,44612],"id":"feature_284"},{"properties":{"price":138000,"use":"\u4ed9\u53f0\u6cc9","zone":"","station":"\u4f4f\u5b85"},"type":"Point","coordinates":[31348,40212],"id":"feature_285"},{"properties":{"price":57000,"use":"\u4ed9\u53f0\u6cc9","zone":"","station":"\u4f4f\u5b85"},"type":"Point","coordinates":[21986,39975],"id":"feature_286"},{"properties":{"price":61000,"use":"\u4ed9\u53f0\u6cc9","zone":"","station":"\u4f4f\u5b85"},"type":"Point","coordinates":[24293,40693],"id":"feature_287"},{"properties":{"price":138000,"use":"\u4ed9\u53f0\u6cc9","zone":"","station":"\u4f4f\u5b85"},"type":"Point","coordinates":[31936,39900],"id":"feature_288"},{"properties":{"price":235000,"use":"\u4ed9\u53f0\u6cc9","zone":"","station":"\u4f4f\u5b85"},"type":"Point","coordinates":[30166,41853],"id":"feature_289"},{"properties":{"price":81000,"use":"\u4ed9\u53f0\u6cc9","zone":"","station":"\u4f4f\u5b85"},"type":"Point","coordinates":[25403,39618],"id":"feature_290"},{"properties":{"price":84000,"use":"\u4ed9\u53f0\u6cc9","zone":"","station":"\u4f4f\u5b85"},"type":"Point","coordinates":[27583,40299],"id":"feature_291"},{"properties":{"price":96000,"use":"\u4ed9\u53f0\u6cc9","zone":"","station":"\u4f4f\u5b85"},"type":"Point","coordinates":[25889,42860],"id":"feature_292"},{"properties":{"price":143000,"use":"\u4ed9\u53f0\u6cc9","zone":"","station":"\u4f4f\u5b85"},"type":"Point","coordinates":[30811,40065],"id":"feature_293"},{"properties":{"price":89500,"use":"\u4ed9\u53f0\u6cc9","zone":"","station":"\u4f4f\u5b85"},"type":"Point","coordinates":[32185,40382],"id":"feature_294"},{"properties":{"price":118000,"use":"\u4ed9\u53f0\u6cc9","zone":"","station":"\u4f4f\u5b85"},"type":"Point","coordinates":[29627,40757],"id":"feature_295"},{"properties":{"price":106000,"use":"\u4ed9\u53f0\u6cc9","zone":"","station":"\u4f4f\u5b85"},"type":"Point","coordinates":[32671,38534],"id":"feature_296"},{"properties":{"price":109000,"use":"\u4ed9\u53f0\u6cc9","zone":"","station":"\u4f4f\u5b85"},"type":"Point","coordinates":[31231,41943],"id":"feature_297"},{"properties":{"price":95800,"use":"\u4ed9\u53f0\u6cc9","zone":"","station":"\u4f4f\u5b85"},"type":"Point","coordinates":[29373,40256],"id":"feature_298"},{"properties":{"price":91000,"use":"\u4ed9\u53f0\u6cc9","zone":"","station":"\u4f4f\u5b85"},"type":"Point","coordinates":[28173,43497],"id":"feature_299"},{"properties":{"price":86500,"use":"\u4ed9\u53f0\u6cc9","zone":"","station":"\u4f4f\u5b85"},"type":"Point","coordinates":[26320,40694],"id":"feature_300"},{"properties":{"price":75300,"use":"\u4ed9\u53f0\u6cc9","zone":"","station":"\u4f4f\u5b85"},"type":"Point","coordinates":[34159,41449],"id":"feature_301"},{"properties":{"price":17600,"use":"\u4ed9\u53f0\u6cc9","zone":"","station":"\u4f4f\u5b85"},"type":"Point","coordinates":[23023,41693],"id":"feature_302"},{"properties":{"price":108000,"use":"\u4ed9\u53f0\u6cc9","zone":"","station":"\u4f4f\u5b85"},"type":"Point","coordinates":[31688,38245],"id":"feature_303"},{"properties":{"price":77000,"use":"\u4ed9\u53f0\u6cc9","zone":"","station":"\u4f4f\u5b85"},"type":"Point","coordinates":[34115,39110],"id":"feature_304"},{"properties":{"price":153000,"use":"\u4ed9\u53f0\u6cc9","zone":"","station":"\u5e97\u8217"},"type":"Point","coordinates":[31668,39977],"id":"feature_305"},{"properties":{"price":404000,"use":"\u4ed9\u53f0\u6cc9","zone":"","station":"\u5e97\u8217"},"type":"Point","coordinates":[30675,41324],"id":"feature_306"},{"properties":{"price":89000,"use":"\u4ed9\u53f0\u6cc9","zone":"","station":"\u846c\u796d\u4f1a\u9928"},"type":"Point","coordinates":[26625,39865],"id":"feature_307"},{"properties":{"price":87000,"use":"\u4ed9\u53f0\u6cc9","zone":"","station":"\u5e97\u8217"},"type":"Point","coordinates":[32266,40822],"id":"feature_308"},{"properties":{"price":76000,"use":"\u4ed9\u53f0\u6cc9","zone":"","station":"\u5de5\u5834\u517c\u5e97\u8217"},"type":"Point","coordinates":[29452,44260],"id":"feature_309"},{"properties":{"price":50000,"use":"\u4ed9\u53f0\u6cc9","zone":"","station":"\u5de5\u5834\u517c\u4e8b\u52d9\u6240"},"type":"Point","coordinates":[27810,44589],"id":"feature_310"},{"properties":{"price":34000,"use":"\u77f3\u5dfb","zone":"","station":"\u4f4f\u5b85"},"type":"Point","coordinates":[72791,51818],"id":"feature_311"},{"properties":{"price":16600,"use":"\u77f3\u5dfb","zone":"","station":"\u4f4f\u5b85"},"type":"Point","coordinates":[75950,53512],"id":"feature_312"},{"properties":{"price":19400,"use":"\u77f3\u5dfb","zone":"","station":"\u4f4f\u5b85"},"type":"Point","coordinates":[68626,54261],"id":"feature_313"},{"properties":{"price":43700,"use":"\u77f3\u5dfb","zone":"","station":"\u4f4f\u5b85"},"type":"Point","coordinates":[71334,53494],"id":"feature_314"},{"properties":{"price":34200,"use":"\u77f3\u5dfb","zone":"","station":"\u4f4f\u5b85"},"type":"Point","coordinates":[70202,52318],"id":"feature_315"},{"properties":{"price":43700,"use":"\u77f3\u5dfb","zone":"","station":"\u4f4f\u5b85"},"type":"Point","coordinates":[71488,52511],"id":"feature_316"},{"properties":{"price":53600,"use":"\u77f3\u5dfb","zone":"","station":"\u4f4f\u5b85"},"type":"Point","coordinates":[72100,53419],"id":"feature_317"},{"properties":{"price":64800,"use":"\u77f3\u5dfb","zone":"","station":"\u4f4f\u5b85"},"type":"Point","coordinates":[69153,53222],"id":"feature_318"},{"properties":{"price":17800,"use":"\u77f3\u5dfb","zone":"","station":"\u4f4f\u5b85"},"type":"Point","coordinates":[74772,51373],"id":"feature_319"},{"properties":{"price":30200,"use":"\u77f3\u5dfb","zone":"","station":"\u4f4f\u5b85"},"type":"Point","coordinates":[76911,51591],"id":"feature_320"},{"properties":{"price":26300,"use":"\u77f3\u5dfb","zone":"","station":"\u4f4f\u5b85"},"type":"Point","coordinates":[77412,51147],"id":"feature_321"},{"properties":{"price":17000,"use":"\u77f3\u5dfb","zone":"","station":"\u4f4f\u5b85"},"type":"Point","coordinates":[63534,56070],"id":"feature_322"},{"properties":{"price":55800,"use":"\u77f3\u5dfb","zone":"","station":"\u4f4f\u5b85"},"type":"Point","coordinates":[72259,52911],"id":"feature_323"},{"properties":{"price":32700,"use":"\u77f3\u5dfb","zone":"","station":"\u4f4f\u5b85"},"type":"Point","coordinates":[72173,51505],"id":"feature_324"},{"properties":{"price":16900,"use":"\u77f3\u5dfb","zone":"","station":"\u4f4f\u5b85"},"type":"Point","coordinates":[79336,50722],"id":"feature_325"},{"properties":{"price":47500,"use":"\u77f3\u5dfb","zone":"","station":"\u4f4f\u5b85"},"type":"Point","coordinates":[70473,52873],"id":"feature_326"},{"properties":{"price":31300,"use":"\u77f3\u5dfb","zone":"","station":"\u4f4f\u5b85"},"type":"Point","coordinates":[66716,55926],"id":"feature_327"},{"properties":{"price":27700,"use":"\u77f3\u5dfb","zone":"","station":"\u4f4f\u5b85"},"type":"Point","coordinates":[75946,53694],"id":"feature_328"},{"properties":{"price":37000,"use":"\u77f3\u5dfb","zone":"","station":"\u4f4f\u5b85"},"type":"Point","coordinates":[74374,53386],"id":"feature_329"},{"properties":{"price":24800,"use":"\u77f3\u5dfb","zone":"","station":"\u4f4f\u5b85"},"type":"Point","coordinates":[79700,51887],"id":"feature_330"},{"properties":{"price":18200,"use":"\u77f3\u5dfb","zone":"","station":"\u4f4f\u5b85"},"type":"Point","coordinates":[74281,60579],"id":"feature_331"},{"properties":{"price":8740,"use":"\u77f3\u5dfb","zone":"","station":"\u4f4f\u5b85"},"type":"Point","coordinates":[72440,60641],"id":"feature_332"},{"properties":{"price":10300,"use":"\u77f3\u5dfb","zone":"","station":"\u4f4f\u5b85"},"type":"Point","coordinates":[74130,54348],"id":"feature_333"},{"properties":{"price":32900,"use":"\u77f3\u5dfb","zone":"","station":"\u4f4f\u5b85"},"type":"Point","coordinates":[70933,51702],"id":"feature_334"},{"properties":{"price":10100,"use":"\u77f3\u5dfb","zone":"","station":"\u7551"},"type":"Point","coordinates":[68926,51396],"id":"feature_335"},{"properties":{"price":75200,"use":"\u77f3\u5dfb","zone":"","station":"\u5e97\u8217"},"type":"Point","coordinates":[72934,52457],"id":"feature_336"},{"properties":{"price":40200,"use":"\u77f3\u5dfb","zone":"","station":"\u5e97\u8217\u517c\u4f4f\u5b85"},"type":"Point","coordinates":[72098,52730],"id":"feature_337"},{"properties":{"price":20000,"use":"\u77f3\u5dfb","zone":"","station":"\u5e97\u8217"},"type":"Point","coordinates":[74397,51421],"id":"feature_338"},{"properties":{"price":78000,"use":"\u77f3\u5dfb","zone":"","station":"\u5e97\u8217"},"type":"Point","coordinates":[69714,53694],"id":"feature_339"},{"properties":{"price":46000,"use":"\u77f3\u5dfb","zone":"","station":"\u5e97\u8217\u517c\u4f4f\u5b85"},"type":"Point","coordinates":[73349,52093],"id":"feature_340"},{"properties":{"price":46100,"use":"\u77f3\u5dfb","zone":"","station":"\u5e97\u8217\u517c\u5de5\u5834"},"type":"Point","coordinates":[70069,51998],"id":"feature_341"},{"properties":{"price":39700,"use":"\u77f3\u5dfb","zone":"","station":"\u4e8b\u52d9\u6240"},"type":"Point","coordinates":[71585,52176],"id":"feature_342"},{"properties":{"price":62500,"use":"\u77f3\u5dfb","zone":"","station":"\u5e97\u8217"},"type":"Point","coordinates":[72317,53115],"id":"feature_343"},{"properties":{"price":24400,"use":"\u77f3\u5dfb","zone":"","station":"\u4e8b\u52d9\u6240\u3001\u5de5\u5834\u517c\u5009\u5eab"},"type":"Point","coordinates":[74353,52598],"id":"feature_344"},{"properties":{"price":16000,"use":"\u77f3\u5dfb","zone":"","station":"\u5e97\u8217"},"type":"Point","coordinates":[74072,60469],"id":"feature_345"},{"properties":{"price":31100,"use":"\u77f3\u5dfb","zone":"","station":"\u4e8b\u52d9\u6240"},"type":"Point","coordinates":[69716,52392],"id":"feature_346"},{"properties":{"price":40600,"use":"\u77f3\u5dfb","zone":"","station":"\u5e97\u8217"},"type":"Point","coordinates":[71100,53540],"id":"feature_347"},{"properties":{"price":8800,"use":"\u77f3\u5dfb","zone":"","station":"\u5009\u5eab\u517c\u4e8b\u52d9\u6240"},"type":"Point","coordinates":[67414,55683],"id":"feature_348"},{"properties":{"price":38700,"use":"\u5869\u7ac8","zone":"","station":"\u4f4f\u5b85"},"type":"Point","coordinates":[44608,39804],"id":"feature_349"},{"properties":{"price":50600,"use":"\u5869\u7ac8","zone":"","station":"\u4f4f\u5b85"},"type":"Point","coordinates":[43737,40165],"id":"feature_350"},{"properties":{"price":26300,"use":"\u5869\u7ac8","zone":"","station":"\u4f4f\u5b85"},"type":"Point","coordinates":[43760,41539],"id":"feature_351"},{"properties":{"price":32100,"use":"\u5869\u7ac8","zone":"","station":"\u4f4f\u5b85"},"type":"Point","coordinates":[42907,40811],"id":"feature_352"},{"properties":{"price":44500,"use":"\u5869\u7ac8","zone":"","station":"\u4f4f\u5b85"},"type":"Point","coordinates":[43633,39741],"id":"feature_353"},{"properties":{"price":34600,"use":"\u5869\u7ac8","zone":"","station":"\u4f4f\u5b85"},"type":"Point","coordinates":[42252,39943],"id":"feature_354"},{"properties":{"price":36100,"use":"\u5869\u7ac8","zone":"","station":"\u4f4f\u5b85"},"type":"Point","coordinates":[45482,40074],"id":"feature_355"},{"properties":{"price":49000,"use":"\u5869\u7ac8","zone":"","station":"\u4f4f\u5b85"},"type":"Point","coordinates":[45562,42191],"id":"feature_356"},{"properties":{"price":25600,"use":"\u5869\u7ac8","zone":"","station":"\u4f4f\u5b85"},"type":"Point","coordinates":[44461,41227],"id":"feature_357"},{"properties":{"price":21400,"use":"\u5869\u7ac8","zone":"","station":"\u5de5\u5834\u517c\u4f4f\u5b85"},"type":"Point","coordinates":[46703,42208],"id":"feature_358"},{"properties":{"price":29000,"use":"\u5869\u7ac8","zone":"","station":"\u4e8b\u52d9\u6240\u517c\u4f4f\u5b85"},"type":"Point","coordinates":[45689,40643],"id":"feature_359"},{"properties":{"price":55000,"use":"\u5869\u7ac8","zone":"","station":"\u5e97\u8217"},"type":"Point","coordinates":[44596,40750],"id":"feature_360"},{"properties":{"price":39900,"use":"\u5869\u7ac8","zone":"","station":"\u4e8b\u52d9\u6240"},"type":"Point","coordinates":[44838,40554],"id":"feature_361"},{"properties":{"price":50100,"use":"\u5869\u7ac8","zone":"","station":"\u5e97\u8217\u517c\u4e8b\u52d9\u6240"},"type":"Point","coordinates":[43534,39929],"id":"feature_362"},{"properties":{"price":44200,"use":"\u5869\u7ac8","zone":"","station":"\u5e97\u8217\u517c\u4f4f\u5b85"},"type":"Point","coordinates":[44232,40624],"id":"feature_363"},{"properties":{"price":42200,"use":"\u5869\u7ac8","zone":"","station":"\u5e97\u8217\u517c\u4f4f\u5b85"},"type":"Point","coordinates":[44204,40229],"id":"feature_364"},{"properties":{"price":35200,"use":"\u5869\u7ac8","zone":"","station":"\u5e97\u8217\u517c\u4f4f\u5b85"},"type":"Point","coordinates":[44856,41276],"id":"feature_365"},{"properties":{"price":12600,"use":"\u5869\u7ac8","zone":"","station":"\u4e8b\u52d9\u6240"},"type":"Point","coordinates":[47179,41990],"id":"feature_366"},{"properties":{"price":35500,"use":"\u6c17\u4ed9\u6cbc","zone":"","station":"\u4f4f\u5b85"},"type":"Point","coordinates":[99707,98494],"id":"feature_367"},{"properties":{"price":23000,"use":"\u6c17\u4ed9\u6cbc","zone":"","station":"\u4f4f\u5b85"},"type":"Point","coordinates":[99481,97113],"id":"feature_368"},{"properties":{"price":18600,"use":"\u6c17\u4ed9\u6cbc","zone":"","station":"\u4f4f\u5b85"},"type":"Point","coordinates":[99096,95222],"id":"feature_369"},{"properties":{"price":43000,"use":"\u6c17\u4ed9\u6cbc","zone":"","station":"\u4f4f\u5b85"},"type":"Point","coordinates":[97765,99999],"id":"feature_370"},{"properties":{"price":45500,"use":"\u6c17\u4ed9\u6cbc","zone":"","station":"\u4f4f\u5b85"},"type":"Point","coordinates":[98032,98088],"id":"feature_371"},{"properties":{"price":48000,"use":"\u6c17\u4ed9\u6cbc","zone":"","station":"\u4e8b\u52d9\u6240\u517c\u5e97\u8217"},"type":"Point","coordinates":[99999,99845],"id":"feature_372"},{"properties":{"price":18200,"use":"\u767d\u77f3","zone":"","station":"\u4f4f\u5b85"},"type":"Point","coordinates":[3933,8000],"id":"feature_373"},{"properties":{"price":24000,"use":"\u767d\u77f3","zone":"","station":"\u4f4f\u5b85"},"type":"Point","coordinates":[6334,8456],"id":"feature_374"},{"properties":{"price":18400,"use":"\u767d\u77f3","zone":"","station":"\u4f4f\u5b85"},"type":"Point","coordinates":[4652,10100],"id":"feature_375"},{"properties":{"price":33800,"use":"\u767d\u77f3","zone":"","station":"\u5e97\u8217"},"type":"Point","coordinates":[4711,9211],"id":"feature_376"},{"properties":{"price":51700,"use":"\u540d\u53d6","zone":"","station":"\u4f4f\u5b85"},"type":"Point","coordinates":[25693,28728],"id":"feature_377"},{"properties":{"price":105000,"use":"\u540d\u53d6","zone":"","station":"\u4f4f\u5b85"},"type":"Point","coordinates":[30238,25217],"id":"feature_378"},{"properties":{"price":130000,"use":"\u540d\u53d6","zone":"","station":"\u4f4f\u5b85"},"type":"Point","coordinates":[30229,25820],"id":"feature_379"},{"properties":{"price":60100,"use":"\u540d\u53d6","zone":"","station":"\u4f4f\u5b85"},"type":"Point","coordinates":[29903,24709],"id":"feature_380"},{"properties":{"price":133000,"use":"\u540d\u53d6","zone":"","station":"\u4f4f\u5b85"},"type":"Point","coordinates":[32285,25162],"id":"feature_381"},{"properties":{"price":33000,"use":"\u540d\u53d6","zone":"","station":"\u4f4f\u5b85"},"type":"Point","coordinates":[23277,29396],"id":"feature_382"},{"properties":{"price":97800,"use":"\u540d\u53d6","zone":"","station":"\u4f4f\u5b85"},"type":"Point","coordinates":[31195,27276],"id":"feature_383"},{"properties":{"price":68000,"use":"\u540d\u53d6","zone":"","station":"\u4f4f\u5b85"},"type":"Point","coordinates":[30924,24648],"id":"feature_384"},{"properties":{"price":99500,"use":"\u540d\u53d6","zone":"","station":"\u4f4f\u5b85"},"type":"Point","coordinates":[30457,27018],"id":"feature_385"},{"properties":{"price":88800,"use":"\u540d\u53d6","zone":"","station":"\u4f4f\u5b85"},"type":"Point","coordinates":[31177,25172],"id":"feature_386"},{"properties":{"price":100000,"use":"\u540d\u53d6","zone":"","station":"\u4f4f\u5b85"},"type":"Point","coordinates":[29682,26345],"id":"feature_387"},{"properties":{"price":113000,"use":"\u540d\u53d6","zone":"","station":"\u4f4f\u5b85"},"type":"Point","coordinates":[30764,26624],"id":"feature_388"},{"properties":{"price":35000,"use":"\u540d\u53d6","zone":"","station":"\u4f4f\u5b85"},"type":"Point","coordinates":[28542,28159],"id":"feature_389"},{"properties":{"price":18800,"use":"\u540d\u53d6","zone":"","station":"\u4f4f\u5b85"},"type":"Point","coordinates":[34449,25799],"id":"feature_390"},{"properties":{"price":21600,"use":"\u540d\u53d6","zone":"","station":"\u4f4f\u5b85"},"type":"Point","coordinates":[30405,21842],"id":"feature_391"},{"properties":{"price":108000,"use":"\u540d\u53d6","zone":"","station":"\u9280\u884c"},"type":"Point","coordinates":[30945,26049],"id":"feature_392"},{"properties":{"price":96000,"use":"\u540d\u53d6","zone":"","station":"\u5e97\u8217\u517c\u5009\u5eab"},"type":"Point","coordinates":[29914,26026],"id":"feature_393"},{"properties":{"price":68500,"use":"\u540d\u53d6","zone":"","station":"\u5e97\u8217\u517c\u4e8b\u52d9\u6240"},"type":"Point","coordinates":[31369,26789],"id":"feature_394"},{"properties":{"price":41000,"use":"\u540d\u53d6","zone":"","station":"\u4e8b\u52d9\u6240"},"type":"Point","coordinates":[30535,23443],"id":"feature_395"},{"properties":{"price":15800,"use":"\u540d\u53d6","zone":"","station":"\u4e8b\u52d9\u6240\u517c\u5de5\u5834"},"type":"Point","coordinates":[24411,23007],"id":"feature_396"},{"properties":{"price":21900,"use":"\u89d2\u7530","zone":"","station":"\u4f4f\u5b85"},"type":"Point","coordinates":[19921,6571],"id":"feature_397"},{"properties":{"price":17200,"use":"\u89d2\u7530","zone":"","station":"\u4f4f\u5b85"},"type":"Point","coordinates":[21652,6185],"id":"feature_398"},{"properties":{"price":22200,"use":"\u89d2\u7530","zone":"","station":"\u4f4f\u5b85"},"type":"Point","coordinates":[20620,7250],"id":"feature_399"},{"properties":{"price":25500,"use":"\u89d2\u7530","zone":"","station":"\u5e97\u8217\u517c\u4f4f\u5b85"},"type":"Point","coordinates":[20697,6041],"id":"feature_400"},{"properties":{"price":77000,"use":"\u591a\u8cc0\u57ce","zone":"","station":"\u4f4f\u5b85"},"type":"Point","coordinates":[43234,39122],"id":"feature_401"},{"properties":{"price":57000,"use":"\u591a\u8cc0\u57ce","zone":"","station":"\u4f4f\u5b85"},"type":"Point","coordinates":[42436,39163],"id":"feature_402"},{"properties":{"price":43500,"use":"\u591a\u8cc0\u57ce","zone":"","station":"\u4f4f\u5b85"},"type":"Point","coordinates":[45974,38649],"id":"feature_403"},{"properties":{"price":41900,"use":"\u591a\u8cc0\u57ce","zone":"","station":"\u4f4f\u5b85"},"type":"Point","coordinates":[42455,39668],"id":"feature_404"},{"properties":{"price":77100,"use":"\u591a\u8cc0\u57ce","zone":"","station":"\u4f4f\u5b85"},"type":"Point","coordinates":[40095,37377],"id":"feature_405"},{"properties":{"price":91500,"use":"\u591a\u8cc0\u57ce","zone":"","station":"\u4f4f\u5b85"},"type":"Point","coordinates":[42046,38109],"id":"feature_406"},{"properties":{"price":67200,"use":"\u591a\u8cc0\u57ce","zone":"","station":"\u4f4f\u5b85"},"type":"Point","coordinates":[44356,39005],"id":"feature_407"},{"properties":{"price":103000,"use":"\u591a\u8cc0\u57ce","zone":"","station":"\u4f4f\u5b85"},"type":"Point","coordinates":[43018,38584],"id":"feature_408"},{"properties":{"price":81500,"use":"\u591a\u8cc0\u57ce","zone":"","station":"\u4f4f\u5b85"},"type":"Point","coordinates":[42242,37651],"id":"feature_409"},{"properties":{"price":71300,"use":"\u591a\u8cc0\u57ce","zone":"","station":"\u4f4f\u5b85"},"type":"Point","coordinates":[38844,37631],"id":"feature_410"},{"properties":{"price":67000,"use":"\u591a\u8cc0\u57ce","zone":"","station":"\u4f4f\u5b85"},"type":"Point","coordinates":[39844,38672],"id":"feature_411"},{"properties":{"price":60500,"use":"\u591a\u8cc0\u57ce","zone":"","station":"\u4f4f\u5b85"},"type":"Point","coordinates":[44610,39527],"id":"feature_412"},{"properties":{"price":50000,"use":"\u591a\u8cc0\u57ce","zone":"","station":"\u5de5\u5834\u517c\u4f4f\u5b85"},"type":"Point","coordinates":[43949,39040],"id":"feature_413"},{"properties":{"price":43300,"use":"\u591a\u8cc0\u57ce","zone":"","station":"\u4e8b\u52d9\u6240"},"type":"Point","coordinates":[44412,37339],"id":"feature_414"},{"properties":{"price":67500,"use":"\u5ca9\u6cbc","zone":"","station":"\u4f4f\u5b85"},"type":"Point","coordinates":[29520,19529],"id":"feature_415"},{"properties":{"price":54000,"use":"\u5ca9\u6cbc","zone":"","station":"\u4f4f\u5b85"},"type":"Point","coordinates":[29235,19093],"id":"feature_416"},{"properties":{"price":67000,"use":"\u5ca9\u6cbc","zone":"","station":"\u4f4f\u5b85"},"type":"Point","coordinates":[28673,19487],"id":"feature_417"},{"properties":{"price":48000,"use":"\u5ca9\u6cbc","zone":"","station":"\u4f4f\u5b85"},"type":"Point","coordinates":[26697,20518],"id":"feature_418"},{"properties":{"price":59000,"use":"\u5ca9\u6cbc","zone":"","station":"\u4f4f\u5b85"},"type":"Point","coordinates":[29524,20670],"id":"feature_419"},{"properties":{"price":92000,"use":"\u5ca9\u6cbc","zone":"","station":"\u4f4f\u5b85"},"type":"Point","coordinates":[27994,19764],"id":"feature_420"},{"properties":{"price":53400,"use":"\u5ca9\u6cbc","zone":"","station":"\u4f4f\u5b85"},"type":"Point","coordinates":[28193,18820],"id":"feature_421"},{"properties":{"price":12800,"use":"\u5ca9\u6cbc","zone":"","station":"\u4f4f\u5b85"},"type":"Point","coordinates":[33311,20121],"id":"feature_422"},{"properties":{"price":15900,"use":"\u5ca9\u6cbc","zone":"","station":"\u4f4f\u5b85"},"type":"Point","coordinates":[28027,21904],"id":"feature_423"},{"properties":{"price":60000,"use":"\u5ca9\u6cbc","zone":"","station":"\u5e97\u8217"},"type":"Point","coordinates":[28966,19430],"id":"feature_424"},{"properties":{"price":66200,"use":"\u5ca9\u6cbc","zone":"","station":"\u5e97\u8217"},"type":"Point","coordinates":[28837,19953],"id":"feature_425"},{"properties":{"price":47500,"use":"\u5ca9\u6cbc","zone":"","station":"\u5e97\u8217\u517c\u5de5\u5834"},"type":"Point","coordinates":[29719,19769],"id":"feature_426"},{"properties":{"price":14200,"use":"\u5ca9\u6cbc","zone":"","station":"\u5de5\u5834"},"type":"Point","coordinates":[27615,18373],"id":"feature_427"},{"properties":{"price":7400,"use":"\u5ca9\u6cbc","zone":"","station":"\u5de5\u5834"},"type":"Point","coordinates":[34380,18677],"id":"feature_428"},{"properties":{"price":11500,"use":"\u767b\u7c73","zone":"","station":"\u4f4f\u5b85"},"type":"Point","coordinates":[71000,74981],"id":"feature_429"},{"properties":{"price":12100,"use":"\u767b\u7c73","zone":"","station":"\u4f4f\u5b85"},"type":"Point","coordinates":[69933,74219],"id":"feature_430"},{"properties":{"price":24400,"use":"\u767b\u7c73","zone":"","station":"\u4f4f\u5b85"},"type":"Point","coordinates":[61594,77241],"id":"feature_431"},{"properties":{"price":19200,"use":"\u767b\u7c73","zone":"","station":"\u4f4f\u5b85"},"type":"Point","coordinates":[62877,77560],"id":"feature_432"},{"properties":{"price":8330,"use":"\u767b\u7c73","zone":"","station":"\u4f4f\u5b85"},"type":"Point","coordinates":[71487,79817],"id":"feature_433"},{"properties":{"price":4800,"use":"\u767b\u7c73","zone":"","station":"\u4f4f\u5b85"},"type":"Point","coordinates":[72237,71221],"id":"feature_434"},{"properties":{"price":4430,"use":"\u767b\u7c73","zone":"","station":"\u4f4f\u5b85"},"type":"Point","coordinates":[58415,87063],"id":"feature_435"},{"properties":{"price":13500,"use":"\u767b\u7c73","zone":"","station":"\u4f4f\u5b85"},"type":"Point","coordinates":[64207,79569],"id":"feature_436"},{"properties":{"price":9550,"use":"\u767b\u7c73","zone":"","station":"\u4f4f\u5b85"},"type":"Point","coordinates":[67344,67983],"id":"feature_437"},{"properties":{"price":8500,"use":"\u767b\u7c73","zone":"","station":"\u4f4f\u5b85"},"type":"Point","coordinates":[58394,85896],"id":"feature_438"},{"properties":{"price":14900,"use":"\u767b\u7c73","zone":"","station":"\u5e97\u8217\u517c\u4f4f\u5b85"},"type":"Point","coordinates":[70772,74376],"id":"feature_439"},{"properties":{"price":25000,"use":"\u767b\u7c73","zone":"","station":"\u5e97\u8217"},"type":"Point","coordinates":[62468,78491],"id":"feature_440"},{"properties":{"price":9350,"use":"\u767b\u7c73","zone":"","station":"\u5e97\u8217"},"type":"Point","coordinates":[71423,79766],"id":"feature_441"},{"properties":{"price":15100,"use":"\u767b\u7c73","zone":"","station":"\u5de5\u5834\u517c\u5e97\u8217"},"type":"Point","coordinates":[64911,79503],"id":"feature_442"},{"properties":{"price":12400,"use":"\u767b\u7c73","zone":"","station":"\u5e97\u8217\u517c\u4f4f\u5b85"},"type":"Point","coordinates":[67242,67374],"id":"feature_443"},{"properties":{"price":14200,"use":"\u767b\u7c73","zone":"","station":"\u5e97\u8217\u517c\u4f4f\u5b85"},"type":"Point","coordinates":[58006,86121],"id":"feature_444"},{"properties":{"price":30200,"use":"\u767b\u7c73","zone":"","station":"\u5e97\u8217"},"type":"Point","coordinates":[61072,77477],"id":"feature_445"},{"properties":{"price":20600,"use":"\u6817\u539f","zone":"","station":"\u4f4f\u5b85"},"type":"Point","coordinates":[44888,82291],"id":"feature_446"},{"properties":{"price":29300,"use":"\u6817\u539f","zone":"","station":"\u4f4f\u5b85"},"type":"Point","coordinates":[44017,84043],"id":"feature_447"},{"properties":{"price":15900,"use":"\u6817\u539f","zone":"","station":"\u4f4f\u5b85"},"type":"Point","coordinates":[56213,86275],"id":"feature_448"},{"properties":{"price":12000,"use":"\u6817\u539f","zone":"","station":"\u4f4f\u5b85"},"type":"Point","coordinates":[53928,86490],"id":"feature_449"},{"properties":{"price":11300,"use":"\u6817\u539f","zone":"","station":"\u4f4f\u5b85"},"type":"Point","coordinates":[41245,92467],"id":"feature_450"},{"properties":{"price":8850,"use":"\u6817\u539f","zone":"","station":"\u4f4f\u5b85"},"type":"Point","coordinates":[48711,85129],"id":"feature_451"},{"properties":{"price":4700,"use":"\u6817\u539f","zone":"","station":"\u4f4f\u5b85"},"type":"Point","coordinates":[49055,88659],"id":"feature_452"},{"properties":{"price":18200,"use":"\u6817\u539f","zone":"","station":"\u4f4f\u5b85"},"type":"Point","coordinates":[48295,84056],"id":"feature_453"},{"properties":{"price":9600,"use":"\u6817\u539f","zone":"","station":"\u4f4f\u5b85"},"type":"Point","coordinates":[49963,90061],"id":"feature_454"},{"properties":{"price":23400,"use":"\u6817\u539f","zone":"","station":"\u4e8b\u52d9\u6240"},"type":"Point","coordinates":[44667,82602],"id":"feature_455"},{"properties":{"price":21200,"use":"\u6817\u539f","zone":"","station":"\u5e97\u8217"},"type":"Point","coordinates":[55504,86401],"id":"feature_456"},{"properties":{"price":16200,"use":"\u6817\u539f","zone":"","station":"\u5e97\u8217\u517c\u4f4f\u5b85"},"type":"Point","coordinates":[41340,92239],"id":"feature_457"},{"properties":{"price":16500,"use":"\u6817\u539f","zone":"","station":"\u5e97\u8217\u517c\u5de5\u5834"},"type":"Point","coordinates":[45582,82762],"id":"feature_458"},{"properties":{"price":32200,"use":"\u6771\u677e\u5cf6","zone":"","station":"\u4f4f\u5b85"},"type":"Point","coordinates":[65055,51120],"id":"feature_459"},{"properties":{"price":27300,"use":"\u6771\u677e\u5cf6","zone":"","station":"\u4f4f\u5b85"},"type":"Point","coordinates":[66419,51567],"id":"feature_460"},{"properties":{"price":22900,"use":"\u6771\u677e\u5cf6","zone":"","station":"\u4f4f\u5b85"},"type":"Point","coordinates":[59617,53356],"id":"feature_461"},{"properties":{"price":22700,"use":"\u6771\u677e\u5cf6","zone":"","station":"\u4f4f\u5b85"},"type":"Point","coordinates":[59880,48774],"id":"feature_462"},{"properties":{"price":48800,"use":"\u6771\u677e\u5cf6","zone":"","station":"\u4f4f\u5b85"},"type":"Point","coordinates":[64749,51631],"id":"feature_463"},{"properties":{"price":11100,"use":"\u6771\u677e\u5cf6","zone":"","station":"\u4f4f\u5b85"},"type":"Point","coordinates":[65547,53672],"id":"feature_464"},{"properties":{"price":11600,"use":"\u6771\u677e\u5cf6","zone":"","station":"\u4f4f\u5b85"},"type":"Point","coordinates":[62309,50729],"id":"feature_465"},{"properties":{"price":13000,"use":"\u6771\u677e\u5cf6","zone":"","station":"\u4f4f\u5b85"},"type":"Point","coordinates":[63253,52743],"id":"feature_466"},{"properties":{"price":13700,"use":"\u6771\u677e\u5cf6","zone":"","station":"\u4f4f\u5b85"},"type":"Point","coordinates":[56734,46272],"id":"feature_467"},{"properties":{"price":46000,"use":"\u6771\u677e\u5cf6","zone":"","station":"\u5e97\u8217\u517c\u4f4f\u5b85"},"type":"Point","coordinates":[63557,51108],"id":"feature_468"},{"properties":{"price":12200,"use":"\u6771\u677e\u5cf6","zone":"","station":"\u5de5\u5834"},"type":"Point","coordinates":[55964,49979],"id":"feature_469"},{"properties":{"price":24500,"use":"\u5bae\u57ce\u5927\u5d0e","zone":"","station":"\u4f4f\u5b85"},"type":"Point","coordinates":[36688,66739],"id":"feature_470"},{"properties":{"price":25300,"use":"\u5bae\u57ce\u5927\u5d0e","zone":"","station":"\u4f4f\u5b85"},"type":"Point","coordinates":[37560,66004],"id":"feature_471"},{"properties":{"price":38700,"use":"\u5bae\u57ce\u5927\u5d0e","zone":"","station":"\u4f4f\u5b85"},"type":"Point","coordinates":[40053,66283],"id":"feature_472"},{"properties":{"price":38500,"use":"\u5bae\u57ce\u5927\u5d0e","zone":"","station":"\u4f4f\u5b85"},"type":"Point","coordinates":[38548,67572],"id":"feature_473"},{"properties":{"price":10600,"use":"\u5bae\u57ce\u5927\u5d0e","zone":"","station":"\u4f4f\u5b85"},"type":"Point","coordinates":[36022,61635],"id":"feature_474"},{"properties":{"price":18600,"use":"\u5bae\u57ce\u5927\u5d0e","zone":"","station":"\u4f4f\u5b85"},"type":"Point","coordinates":[35770,60931],"id":"feature_475"},{"properties":{"price":18400,"use":"\u5bae\u57ce\u5927\u5d0e","zone":"","station":"\u4f4f\u5b85"},"type":"Point","coordinates":[52599,57064],"id":"feature_476"},{"properties":{"price":15800,"use":"\u5bae\u57ce\u5927\u5d0e","zone":"","station":"\u4f4f\u5b85"},"type":"Point","coordinates":[51801,56452],"id":"feature_477"},{"properties":{"price":12600,"use":"\u5bae\u57ce\u5927\u5d0e","zone":"","station":"\u4f4f\u5b85"},"type":"Point","coordinates":[29268,74042],"id":"feature_478"},{"properties":{"price":14100,"use":"\u5bae\u57ce\u5927\u5d0e","zone":"","station":"\u4f4f\u5b85"},"type":"Point","coordinates":[29942,73945],"id":"feature_479"},{"properties":{"price":15700,"use":"\u5bae\u57ce\u5927\u5d0e","zone":"","station":"\u4f4f\u5b85"},"type":"Point","coordinates":[14077,83455],"id":"feature_480"},{"properties":{"price":9300,"use":"\u5bae\u57ce\u5927\u5d0e","zone":"","station":"\u4f4f\u5b85"},"type":"Point","coordinates":[18968,82273],"id":"feature_481"},{"properties":{"price":61500,"use":"\u5bae\u57ce\u5927\u5d0e","zone":"","station":"\u5e97\u8217"},"type":"Point","coordinates":[38865,66407],"id":"feature_482"},{"properties":{"price":56500,"use":"\u5bae\u57ce\u5927\u5d0e","zone":"","station":"\u5e97\u8217"},"type":"Point","coordinates":[39659,65662],"id":"feature_483"},{"properties":{"price":19300,"use":"\u5bae\u57ce\u5927\u5d0e","zone":"","station":"\u5e97\u8217\u517c\u4f4f\u5b85"},"type":"Point","coordinates":[36987,61916],"id":"feature_484"},{"properties":{"price":21100,"use":"\u5bae\u57ce\u5927\u5d0e","zone":"","station":"\u5e97\u8217\u517c\u4f4f\u5b85"},"type":"Point","coordinates":[52083,56566],"id":"feature_485"},{"properties":{"price":16900,"use":"\u5bae\u57ce\u5927\u5d0e","zone":"","station":"\u5e97\u8217\u517c\u4f4f\u5b85"},"type":"Point","coordinates":[28901,74466],"id":"feature_486"},{"properties":{"price":21200,"use":"\u5bae\u57ce\u5927\u5d0e","zone":"","station":"\u5e97\u8217\u517c\u4f4f\u5b85"},"type":"Point","coordinates":[13953,83524],"id":"feature_487"},{"properties":{"price":82000,"use":"\u5bcc\u8c37","zone":"","station":"\u4f4f\u5b85"},"type":"Point","coordinates":[29019,45261],"id":"feature_488"},{"properties":{"price":77100,"use":"\u5bcc\u8c37","zone":"","station":"\u4f4f\u5b85"},"type":"Point","coordinates":[32840,43061],"id":"feature_489"},{"properties":{"price":71000,"use":"\u5bcc\u8c37","zone":"","station":"\u5efa\u7bc9\u4e2d"},"type":"Point","coordinates":[30073,46573],"id":"feature_490"},{"properties":{"price":49500,"use":"\u5bcc\u8c37","zone":"","station":"\u4f4f\u5b85"},"type":"Point","coordinates":[30612,47663],"id":"feature_491"},{"properties":{"price":49000,"use":"\u5bcc\u8c37","zone":"","station":"\u4f4f\u5b85"},"type":"Point","coordinates":[31708,50339],"id":"feature_492"},{"properties":{"price":79500,"use":"\u5bcc\u8c37","zone":"","station":"\u4f4f\u5b85"},"type":"Point","coordinates":[32261,43426],"id":"feature_493"},{"properties":{"price":60000,"use":"\u5bcc\u8c37","zone":"","station":"\u4f4f\u5b85"},"type":"Point","coordinates":[31105,49529],"id":"feature_494"},{"properties":{"price":62000,"use":"\u5bcc\u8c37","zone":"","station":"\u4f4f\u5b85"},"type":"Point","coordinates":[29458,45431],"id":"feature_495"},{"properties":{"price":75000,"use":"\u5bcc\u8c37","zone":"","station":"\u4f4f\u5b85"},"type":"Point","coordinates":[29043,46959],"id":"feature_496"},{"properties":{"price":75000,"use":"\u5bcc\u8c37","zone":"","station":"\u4f4f\u5b85"},"type":"Point","coordinates":[32245,45129],"id":"feature_497"},{"properties":{"price":13700,"use":"\u5bcc\u8c37","zone":"","station":"\u4f4f\u5b85"},"type":"Point","coordinates":[31224,51620],"id":"feature_498"},{"properties":{"price":67000,"use":"\u5bcc\u8c37","zone":"","station":"\u4e8b\u52d9\u6240"},"type":"Point","coordinates":[29790,46046],"id":"feature_499"},{"properties":{"price":8200,"use":"\u8535\u738b","zone":"","station":"\u4f4f\u5b85"},"type":"Point","coordinates":[8184,15257],"id":"feature_500"},{"properties":{"price":11200,"use":"\u8535\u738b","zone":"","station":"\u4f4f\u5b85"},"type":"Point","coordinates":[8427,18377],"id":"feature_501"},{"properties":{"price":18200,"use":"\u8535\u738b","zone":"","station":"\u5e97\u8217\u517c\u4f4f\u5b85"},"type":"Point","coordinates":[0,21242],"id":"feature_502"},{"properties":{"price":50000,"use":"\u5927\u6cb3\u539f","zone":"","station":"\u4f4f\u5b85"},"type":"Point","coordinates":[15395,13625],"id":"feature_503"},{"properties":{"price":26900,"use":"\u5927\u6cb3\u539f","zone":"","station":"\u4f4f\u5b85"},"type":"Point","coordinates":[16473,14119],"id":"feature_504"},{"properties":{"price":40000,"use":"\u5927\u6cb3\u539f","zone":"","station":"\u5e97\u8217\u517c\u4e8b\u52d9\u6240"},"type":"Point","coordinates":[16229,13590],"id":"feature_505"},{"properties":{"price":12900,"use":"\u6751\u7530","zone":"","station":"\u4f4f\u5b85"},"type":"Point","coordinates":[15277,20992],"id":"feature_506"},{"properties":{"price":10700,"use":"\u6751\u7530","zone":"","station":"\u4f4f\u5b85"},"type":"Point","coordinates":[15591,19301],"id":"feature_507"},{"properties":{"price":17200,"use":"\u6751\u7530","zone":"","station":"\u5e97\u8217\u517c\u4f4f\u5b85"},"type":"Point","coordinates":[14549,21017],"id":"feature_508"},{"properties":{"price":44000,"use":"\u67f4\u7530","zone":"","station":"\u4f4f\u5b85"},"type":"Point","coordinates":[20535,14409],"id":"feature_509"},{"properties":{"price":21800,"use":"\u67f4\u7530","zone":"","station":"\u4f4f\u5b85"},"type":"Point","coordinates":[22066,17438],"id":"feature_510"},{"properties":{"price":42900,"use":"\u67f4\u7530","zone":"","station":"\u5e97\u8217"},"type":"Point","coordinates":[19086,14693],"id":"feature_511"},{"properties":{"price":11300,"use":"\u5bae\u57ce\u5ddd\u5d0e","zone":"","station":"\u4f4f\u5b85"},"type":"Point","coordinates":[6753,26265],"id":"feature_512"},{"properties":{"price":7500,"use":"\u5bae\u57ce\u5ddd\u5d0e","zone":"","station":"\u4f4f\u5b85"},"type":"Point","coordinates":[2210,28321],"id":"feature_513"},{"properties":{"price":14100,"use":"\u5bae\u57ce\u5ddd\u5d0e","zone":"","station":"\u5e97\u8217\u517c\u4f4f\u5b85"},"type":"Point","coordinates":[6621,26508],"id":"feature_514"},{"properties":{"price":13800,"use":"\u4e38\u68ee","zone":"","station":"\u4f4f\u5b85"},"type":"Point","coordinates":[18752,0],"id":"feature_515"},{"properties":{"price":8600,"use":"\u4e38\u68ee","zone":"","station":"\u4f4f\u5b85"},"type":"Point","coordinates":[19927,1123],"id":"feature_516"},{"properties":{"price":13800,"use":"\u4e38\u68ee","zone":"","station":"\u5e97\u8217\u517c\u4f4f\u5b85"},"type":"Point","coordinates":[18780,190],"id":"feature_517"},{"properties":{"price":35500,"use":"\u4e98\u7406","zone":"","station":"\u4f4f\u5b85"},"type":"Point","coordinates":[27984,12417],"id":"feature_518"},{"properties":{"price":28900,"use":"\u4e98\u7406","zone":"","station":"\u4f4f\u5b85"},"type":"Point","coordinates":[28350,15527],"id":"feature_519"},{"properties":{"price":36600,"use":"\u4e98\u7406","zone":"","station":"\u5e97\u8217\u517c\u4f4f\u5b85"},"type":"Point","coordinates":[27792,12256],"id":"feature_520"},{"properties":{"price":15000,"use":"\u5c71\u5143","zone":"","station":"\u4f4f\u5b85"},"type":"Point","coordinates":[30065,5222],"id":"feature_521"},{"properties":{"price":9100,"use":"\u5c71\u5143","zone":"","station":"\u4f4f\u5b85"},"type":"Point","coordinates":[29022,7926],"id":"feature_522"},{"properties":{"price":12000,"use":"\u5c71\u5143","zone":"","station":"\u9280\u884c"},"type":"Point","coordinates":[30103,5608],"id":"feature_523"},{"properties":{"price":28100,"use":"\u677e\u5cf6","zone":"","station":"\u4f4f\u5b85"},"type":"Point","coordinates":[50227,47266],"id":"feature_524"},{"properties":{"price":27500,"use":"\u677e\u5cf6","zone":"","station":"\u4f4f\u5b85"},"type":"Point","coordinates":[49631,47323],"id":"feature_525"},{"properties":{"price":19300,"use":"\u677e\u5cf6","zone":"","station":"\u4f4f\u5b85"},"type":"Point","coordinates":[48940,48653],"id":"feature_526"},{"properties":{"price":16300,"use":"\u677e\u5cf6","zone":"","station":"\u4f4f\u5b85"},"type":"Point","coordinates":[48408,45178],"id":"feature_527"},{"properties":{"price":11700,"use":"\u677e\u5cf6","zone":"","station":"\u4f4f\u5b85"},"type":"Point","coordinates":[50583,52195],"id":"feature_528"},{"properties":{"price":7300,"use":"\u677e\u5cf6","zone":"","station":"\u4f4f\u5b85"},"type":"Point","coordinates":[51238,48008],"id":"feature_529"},{"properties":{"price":65400,"use":"\u677e\u5cf6","zone":"","station":"\u5e97\u8217"},"type":"Point","coordinates":[48783,46034],"id":"feature_530"},{"properties":{"price":25100,"use":"\u677e\u5cf6","zone":"","station":"\u65c5\u9928\u517c\u4f4f\u5b85"},"type":"Point","coordinates":[49276,46671],"id":"feature_531"},{"properties":{"price":46000,"use":"\u4e03\u30b1\u6d5c","zone":"","station":"\u4f4f\u5b85"},"type":"Point","coordinates":[47527,38781],"id":"feature_532"},{"properties":{"price":35800,"use":"\u4e03\u30b1\u6d5c","zone":"","station":"\u4f4f\u5b85"},"type":"Point","coordinates":[46992,39102],"id":"feature_533"},{"properties":{"price":36200,"use":"\u4e03\u30b1\u6d5c","zone":"","station":"\u4f4f\u5b85"},"type":"Point","coordinates":[46543,38466],"id":"feature_534"},{"properties":{"price":86500,"use":"\u5229\u5e9c","zone":"","station":"\u4f4f\u5b85"},"type":"Point","coordinates":[40631,41932],"id":"feature_535"},{"properties":{"price":11500,"use":"\u5229\u5e9c","zone":"","station":"\u4f4f\u5b85"},"type":"Point","coordinates":[44332,44682],"id":"feature_536"},{"properties":{"price":53400,"use":"\u5229\u5e9c","zone":"","station":"\u4f4f\u5b85"},"type":"Point","coordinates":[38027,40644],"id":"feature_537"},{"properties":{"price":56000,"use":"\u5229\u5e9c","zone":"","station":"\u4f4f\u5b85"},"type":"Point","coordinates":[38985,44091],"id":"feature_538"},{"properties":{"price":40500,"use":"\u5229\u5e9c","zone":"","station":"\u4f4f\u5b85"},"type":"Point","coordinates":[42158,40911],"id":"feature_539"},{"properties":{"price":60500,"use":"\u5229\u5e9c","zone":"","station":"\u4f4f\u5b85"},"type":"Point","coordinates":[37921,40046],"id":"feature_540"},{"properties":{"price":53500,"use":"\u5229\u5e9c","zone":"","station":"\u4f4f\u5b85"},"type":"Point","coordinates":[41279,41975],"id":"feature_541"},{"properties":{"price":64000,"use":"\u5229\u5e9c","zone":"","station":"\u4f4f\u5b85"},"type":"Point","coordinates":[38703,42730],"id":"feature_542"},{"properties":{"price":46000,"use":"\u5229\u5e9c","zone":"","station":"\u4f4f\u5b85"},"type":"Point","coordinates":[42667,41465],"id":"feature_543"},{"properties":{"price":40300,"use":"\u5229\u5e9c","zone":"","station":"\u4f4f\u5b85"},"type":"Point","coordinates":[44781,45549],"id":"feature_544"},{"properties":{"price":42500,"use":"\u5bae\u57ce\u5927\u548c","zone":"","station":"\u4f4f\u5b85"},"type":"Point","coordinates":[30455,53604],"id":"feature_545"},{"properties":{"price":74300,"use":"\u5bae\u57ce\u5927\u548c","zone":"","station":"\u4f4f\u5b85"},"type":"Point","coordinates":[28414,46612],"id":"feature_546"},{"properties":{"price":31500,"use":"\u5bae\u57ce\u5927\u548c","zone":"","station":"\u4f4f\u5b85"},"type":"Point","coordinates":[29654,53830],"id":"feature_547"},{"properties":{"price":8330,"use":"\u5bae\u57ce\u5927\u548c","zone":"","station":"\u4f4f\u5b85"},"type":"Point","coordinates":[35851,50862],"id":"feature_548"},{"properties":{"price":59500,"use":"\u5bae\u57ce\u5927\u548c","zone":"","station":"\u4f4f\u5b85"},"type":"Point","coordinates":[29937,52897],"id":"feature_549"},{"properties":{"price":35500,"use":"\u5bae\u57ce\u5927\u548c","zone":"","station":"\u5e97\u8217\u517c\u4f4f\u5b85"},"type":"Point","coordinates":[30863,53575],"id":"feature_550"},{"properties":{"price":29600,"use":"\u5bae\u57ce\u5927\u548c","zone":"","station":"\u5e97\u8217\u517c\u5de5\u5834"},"type":"Point","coordinates":[32488,52811],"id":"feature_551"},{"properties":{"price":17800,"use":"\u5bae\u57ce\u5927\u548c","zone":"","station":"\u5de5\u5834\u517c\u5009\u5eab"},"type":"Point","coordinates":[35178,55560],"id":"feature_552"},{"properties":{"price":12100,"use":"\u5927\u90f7","zone":"","station":"\u5e97\u8217\u517c\u4f4f\u5b85"},"type":"Point","coordinates":[42611,51692],"id":"feature_553"},{"properties":{"price":12200,"use":"\u5927\u90f7","zone":"","station":"\u4f4f\u5b85"},"type":"Point","coordinates":[41664,51011],"id":"feature_554"},{"properties":{"price":28800,"use":"\u5927\u8861","zone":"","station":"\u4f4f\u5b85"},"type":"Point","coordinates":[30796,55735],"id":"feature_555"},{"properties":{"price":24000,"use":"\u5927\u8861","zone":"","station":"\u30db\u30c6\u30eb"},"type":"Point","coordinates":[30497,54259],"id":"feature_556"},{"properties":{"price":17800,"use":"\u52a0\u7f8e","zone":"","station":"\u4f4f\u5b85"},"type":"Point","coordinates":[28151,66998],"id":"feature_557"},{"properties":{"price":20200,"use":"\u52a0\u7f8e","zone":"","station":"\u4f4f\u5b85"},"type":"Point","coordinates":[28916,65543],"id":"feature_558"},{"properties":{"price":23000,"use":"\u52a0\u7f8e","zone":"","station":"\u5e97\u8217\u517c\u4f4f\u5b85"},"type":"Point","coordinates":[28108,66132],"id":"feature_559"},{"properties":{"price":17500,"use":"\u6d8c\u8c37","zone":"","station":"\u4f4f\u5b85"},"type":"Point","coordinates":[55427,62984],"id":"feature_560"},{"properties":{"price":16600,"use":"\u6d8c\u8c37","zone":"","station":"\u4f4f\u5b85"},"type":"Point","coordinates":[55021,62508],"id":"feature_561"},{"properties":{"price":18500,"use":"\u6d8c\u8c37","zone":"","station":"\u5e97\u8217\u517c\u4f4f\u5b85"},"type":"Point","coordinates":[55417,63047],"id":"feature_562"},{"properties":{"price":17300,"use":"\u5bae\u57ce\u7f8e\u91cc","zone":"","station":"\u4f4f\u5b85"},"type":"Point","coordinates":[49794,62466],"id":"feature_563"},{"properties":{"price":23200,"use":"\u5bae\u57ce\u7f8e\u91cc","zone":"","station":"\u4f4f\u5b85"},"type":"Point","coordinates":[49146,63412],"id":"feature_564"},{"properties":{"price":23100,"use":"\u5bae\u57ce\u7f8e\u91cc","zone":"","station":"\u5e97\u8217\u517c\u4e8b\u52d9\u6240"},"type":"Point","coordinates":[48683,63234],"id":"feature_565"},{"properties":{"price":17100,"use":"\u5973\u5ddd","zone":"","station":"\u4f4f\u5b85"},"type":"Point","coordinates":[85381,52919],"id":"feature_566"},{"properties":{"price":23400,"use":"\u5973\u5ddd","zone":"","station":"\u4f4f\u5b85"},"type":"Point","coordinates":[86630,53584],"id":"feature_567"},{"properties":{"price":13600,"use":"\u5973\u5ddd","zone":"","station":"\u4f4f\u5b85"},"type":"Point","coordinates":[84727,52783],"id":"feature_568"},{"properties":{"price":21300,"use":"\u5973\u5ddd","zone":"","station":"\u4f4f\u5b85"},"type":"Point","coordinates":[85671,52483],"id":"feature_569"},{"properties":{"price":5220,"use":"\u5973\u5ddd","zone":"","station":"\u4f4f\u5b85"},"type":"Point","coordinates":[85070,51658],"id":"feature_570"},{"properties":{"price":30400,"use":"\u5973\u5ddd","zone":"","station":"\u5e97\u8217"},"type":"Point","coordinates":[87017,53544],"id":"feature_571"},{"properties":{"price":14800,"use":"\u5357\u4e09\u9678","zone":"","station":"\u4f4f\u5b85"},"type":"Point","coordinates":[86310,77613],"id":"feature_572"},{"properties":{"price":18300,"use":"\u5357\u4e09\u9678","zone":"","station":"\u4f4f\u5b85"},"type":"Point","coordinates":[88803,77460],"id":"feature_573"},{"properties":{"price":15500,"use":"\u5357\u4e09\u9678","zone":"","station":"\u4e8b\u52d9\u6240\u517c\u5009\u5eab"},"type":"Point","coordinates":[88985,77986],"id":"feature_574"}],"type":"GeometryCollection"}},"bbox":[140.57769,37.91209,141.57373,38.90785],"transform":{"scale":[9.96049960499627e-06,9.957699576995811e-06],"translate":[140.57769,37.91209]},"arcs":[]}