{"type":"Topology","objects":{"data":{"geometries":[{"properties":{"type":"28100","name":"28"},"type":"MultiPolygon","arcs":[[[315]],[[316]],[[0]],[[317]],[[1,298]],[[300,2]],[[3]],[[4]],[[5,-21]],[[255]],[[6]],[[7]],[[8]],[[9]],[[10]],[[257,11]],[[12]],[[13]],[[14]],[[15,318,-320,319,320,-322,321,322,16,246,247,248,17,250,18,254,19,20,21,307,-309,308,309,-311,310,311,355,356,22,-124,23,341,24,343,25,345,26,347,-349,348,349,350,351,-353,352,353,301,-303,302,303,27,305,333],[28],[29],[30],[31],[32],[33],[34],[35],[36],[37],[38],[39],[40],[41],[42],[43],[44],[45],[46],[47],[48],[49],[50],[51],[52],[53],[54],[55],[56],[57],[58],[59],[60],[61],[62],[63],[64],[65],[66],[67],[68],[69],[70],[71],[72],[73],[74],[75],[76],[77],[78],[79],[80],[81],[82],[312],[313],[314],[83],[84],[85],[86],[87],[88],[89],[90],[91],[92],[93],[94],[95],[96],[-100,97],[98,99],[100],[101],[102],[103],[104],[105],[106],[107],[324,108,326,109,328,110,330,111],[112],[113],[114],[115],[116],[117],[118],[119],[120],[121],[122],[123,124],[125],[126],[127]],[[128]],[[129]],[[130]],[[131]],[[132]],[[133]],[[134],[135],[136],[137],[138],[139],[140],[141],[142],[143],[144],[145],[146],[147],[148],[149],[150],[151]],[[294,152,282,153,276,154,278,279,280,155,260,156,262,157,264,158,266,159,290,160],[161],[162],[163],[164],[165],[166],[167],[168],[169],[170],[292,171],[172,284],[173,286,287,288],[174],[175],[176],[177],[178],[179],[180],[181],[182],[183],[184],[185],[186],[187],[188],[189],[190],[191],[192],[193],[194],[195],[196],[197],[198],[199],[200],[201],[202],[203],[204],[205],[206],[207],[208],[209],[210],[211],[212],[213],[214],[215],[216],[217],[218],[219],[220],[221],[222],[223],[224],[225],[226],[227],[228],[229],[230],[231],[258,232],[233],[234],[235],[236],[237],[238],[275],[239],[273],[240],[274],[270,241],[268,242],[243],[244]],[[245]]],"id":"feature_00"},{"properties":{"type":"28100","name":"28"},"type":"MultiPolygon","arcs":[[[246,247,248,249]],[[250,251]],[[252]],[[253,254]],[[255]],[[256,257]],[[258,259,260,261,262,263,264,265,266,267,268,269,270,271],[272],[273],[274],[275]],[[276,277,278,279,280,281]],[[282,283,284,285,286,287,288,289,290,291,292,293,294,295]]],"id":"feature_01"},{"properties":{"type":"28100","name":"28"},"type":"MultiPolygon","arcs":[[[296]],[[297,298,299,300]],[[301,-303,302,303,304,305,-333,306,307,-309,308,309,-311,310,311,355,-355],[312],[313],[314]]],"id":"feature_02"},{"properties":{"type":"28100","name":"28"},"type":"MultiPolygon","arcs":[[[315]],[[316]],[[317]],[[318,-320,319,320,-322,321,322,323,324,325,326,327,328,329,330,331,332,333,334],[335],[336],[337],[338]],[[339]],[[340]],[[341,342,343,344,345,346,347,-349,348,349,350,351,-353,352,353,354,-356,355,356,357],[358],[359],[360],[361],[362],[363],[364],[365],[366],[367],[368],[369]]],"id":"feature_03"},{"properties":{"type":"28202","name":"28"},"type":"Polygon","arcs":[[370,376,371,378,372,375,373,384]],"id":"feature_04"},{"properties":{"type":"28202","name":"28"},"type":"Polygon","arcs":[[374,375]],"id":"feature_05"},{"properties":{"type":"28202","name":"28"},"type":"Polygon","arcs":[[376,377,378,379,391,380]],"id":"feature_06"},{"properties":{"type":"28202","name":"28"},"type":"Polygon","arcs":[[381,395,382,399,383,384],[401,385,397,386,403,387],[388],[389]],"id":"feature_07"},{"properties":{"type":"28202","name":"28"},"type":"Polygon","arcs":[[390]],"id":"feature_08"},{"properties":{"type":"28202","name":"28"},"type":"Polygon","arcs":[[391,392]],"id":"feature_09"},{"properties":{"type":"28202","name":"28"},"type":"Polygon","arcs":[[393]],"id":"feature_10"},{"properties":{"type":"28202","name":"28"},"type":"Polygon","arcs":[[394,395,396,397]],"id":"feature_11"},{"properties":{"type":"28202","name":"28"},"type":"Polygon","arcs":[[398]],"id":"feature_12"},{"properties":{"type":"28202","name":"28"},"type":"Polygon","arcs":[[399,400,401,402]],"id":"feature_13"},{"properties":{"type":"28202","name":"28"},"type":"Polygon","arcs":[[403,404]],"id":"feature_14"},{"properties":{"type":"28213","name":"28"},"type":"Polygon","arcs":[[405]],"id":"feature_15"},{"properties":{"type":"28213","name":"28"},"type":"Polygon","arcs":[[416,406],[407]],"id":"feature_16"},{"properties":{"type":"28213","name":"28"},"type":"Polygon","arcs":[[408]],"id":"feature_17"},{"properties":{"type":"28213","name":"28"},"type":"Polygon","arcs":[[409,411,410,413]],"id":"feature_18"},{"properties":{"type":"28213","name":"28"},"type":"Polygon","arcs":[[411,412,413,414]],"id":"feature_19"},{"properties":{"type":"28213","name":"28"},"type":"Polygon","arcs":[[415,416]],"id":"feature_20"},{"properties":{"type":"28216","name":"28"},"type":"MultiPolygon","arcs":[[[417]],[[418,486,419,489,420,491,-493,492,493,635,494,421,496,633,497,422,499,423,501,424,503,425,505,426,507]],[[427]],[[631,428,620,429,619,430,521,647,522,431,524,432,526,433,528,434,530,637,435,639,436,641,437,643,531,678,532,680,533,704,534,702,535,438,537,439,539,440,683,541,441,544,442,690,443,692,547,444,549,445,553,446,555,447,557,448,559,-561,560,561,449,563,450,565,-567,566,567,451,569,452,510,453,512,454,571,-573,572,573,-650,649,650,574,652,455,575,576,577,578,513,456,515,457,517,458,656,459,615,460,617,461,622,462,625,463,627,464,629,465],[466,580,659,581,467,583],[468,585,469,587,470,589,471,591,472,593,473,595,474,597,475,599,476,666,477,668,478,670,479,672,602,480,604,481,675,482,606,483,608,484,610]]],"id":"feature_21"},{"properties":{"type":"28216","name":"28"},"type":"MultiPolygon","arcs":[[[485,486,487,488,489,490,491,-493,492,493,635,494,495,496,633,497,498,499,500,501,502,503,504,505,506,507]],[[508,509,510,511,512]],[[513,514,515,516,517,518,655,656,657,519,645,520,521,647,522,523,524,525,526,527,528,529,530,637,638,639,640,641,642,643,531,678,532,680,533,704,534,702,535,536,537,538,539,540,682,683,541,542,685,543,544,545,687,546,689,690,691,692,547,548,549,550,694,551,696,552,553,554,555,556,557,558,559,-561,560,561,562,563,564,565,-567,566,567,568,569,570,571,-573,572,573,-650,649,650,574,652,653,575,576,577,578],[579,580,659,581,582,583],[584,585,586,587,588,589,590,591,661,-663,662,663,592,593,594,595,596,597,598,599,600,601,665,666,667,668,669,670,671,672,602,603,604,674,675,676,605,606,607,608,609,610],[698,611],[612],[613]],[[614,615,616,617,618,619]],[[620,621,622,623]],[[624,625,626,627,628,629,630,631]]],"id":"feature_22"},{"properties":{"type":"28216","name":"28"},"type":"Polygon","arcs":[[632,633,634,635]],"id":"feature_23"},{"properties":{"type":"28216","name":"28"},"type":"Polygon","arcs":[[636,637,638,639,640,641,642,643,644,645,646,647]],"id":"feature_24"},{"properties":{"type":"28216","name":"28"},"type":"Polygon","arcs":[[648,-650,649,650,651,652,653,654,655,656,657,658,659,660,661,-663,662,663,664,665,666,667,668,669,670,671,672,673,674,675,676,677,678,679,680,681,682,683,684,685,686,687,688,689,690,691,692,693,694,695,696,697,698],[699],[700]],"id":"feature_25"},{"properties":{"type":"28216","name":"28"},"type":"Polygon","arcs":[[701,702,703,704]],"id":"feature_26"},{"properties":{"type":"28225","name":"28"},"type":"Polygon","arcs":[[705]],"id":"feature_27"},{"properties":{"type":"28225","name":"28"},"type":"Polygon","arcs":[[706]],"id":"feature_28"},{"properties":{"type":"28225","name":"28"},"type":"Polygon","arcs":[[707]],"id":"feature_29"},{"properties":{"type":"28225","name":"28"},"type":"Polygon","arcs":[[708]],"id":"feature_30"},{"properties":{"type":"28225","name":"28"},"type":"Polygon","arcs":[[709]],"id":"feature_31"},{"properties":{"type":"28225","name":"28"},"type":"Polygon","arcs":[[710]],"id":"feature_32"},{"properties":{"type":"28225","name":"28"},"type":"Polygon","arcs":[[711]],"id":"feature_33"},{"properties":{"type":"28225","name":"28"},"type":"Polygon","arcs":[[712]],"id":"feature_34"},{"properties":{"type":"28225","name":"28"},"type":"Polygon","arcs":[[713]],"id":"feature_35"},{"properties":{"type":"28229","name":"28"},"type":"Polygon","arcs":[[-941,714,-939,715,-937,716,-999,786,-935,-934,717,-997,788,-995,789,-993,718,791,-991,792,719,-987,720,-983,721,-981,722,-930,723,-928,724,-926,725,-924,726]],"id":"feature_36"},{"properties":{"type":"28229","name":"28"},"type":"Polygon","arcs":[[727]],"id":"feature_37"},{"properties":{"type":"28229","name":"28"},"type":"Polygon","arcs":[[797,728,799,729,801,730,803,731]],"id":"feature_38"},{"properties":{"type":"28229","name":"28"},"type":"Polygon","arcs":[[732,844,733,846,734,848,735,850,736,852,737,854,738,856,739,858,740,860,741,862,742,864,743,866,744,868,745,870,746,872,747,874,748,876,749,878,750,880,751,882,752,884,753,886,754,888,755,890,756,892,757,894,758,896,759,898,760,900,761,902,762,904,763,906,764,908,765,836,766,838,767,840,768,842]],"id":"feature_39"},{"properties":{"type":"28229","name":"28"},"type":"Polygon","arcs":[[814,769,816,770,818,771,820,772,822,773,824,774,826,775,828,776,830,777,832,778,834,779,810,780,812,781]],"id":"feature_40"},{"properties":{"type":"28229","name":"28"},"type":"Polygon","arcs":[[782]],"id":"feature_41"},{"properties":{"type":"28229","name":"28"},"type":"Polygon","arcs":[[805,783,807,784]],"id":"feature_42"},{"properties":{"type":"28229","name":"28"},"type":"Polygon","arcs":[[785]],"id":"feature_43"},{"properties":{"type":"28229","name":"28"},"type":"Polygon","arcs":[[-999,786,-935,787,-997,788,-995,789,790,791,-991,792,793,-989,794]],"id":"feature_44"},{"properties":{"type":"28229","name":"28"},"type":"MultiPolygon","arcs":[[[795]],[[796]]],"id":"feature_45"},{"properties":{"type":"28229","name":"28"},"type":"Polygon","arcs":[[797,798,799,800,801,802,803,804]],"id":"feature_46"},{"properties":{"type":"28229","name":"28"},"type":"Polygon","arcs":[[805,806,807,808]],"id":"feature_47"},{"properties":{"type":"28229","name":"28"},"type":"Polygon","arcs":[[809]],"id":"feature_48"},{"properties":{"type":"28229","name":"28"},"type":"Polygon","arcs":[[810,811,812,813,814,815,816,817,818,819,820,821,822,823,824,825,826,827,828,829,830,831,832,833,834,835]],"id":"feature_49"},{"properties":{"type":"28229","name":"28"},"type":"Polygon","arcs":[[836,837,838,839,840,841,842,843,844,845,846,847,848,849,850,851,852,853,854,855,856,857,858,859,860,861,862,863,864,865,866,867,868,869,870,871,872,873,874,875,876,877,878,879,880,881,882,883,884,885,886,887,888,889,890,891,892,893,894,895,896,897,898,899,900,901,902,903,904,905,906,907,908,909]],"id":"feature_50"},{"properties":{"type":"28443","name":"28"},"type":"Polygon","arcs":[[910]],"id":"feature_51"},{"properties":{"type":"28443","name":"28"},"type":"Polygon","arcs":[[921,911,919,912]],"id":"feature_52"},{"properties":{"type":"28443","name":"28"},"type":"Polygon","arcs":[[915,913,917,914]],"id":"feature_53"},{"properties":{"type":"28443","name":"28"},"type":"Polygon","arcs":[[915,916,917,918]],"id":"feature_54"},{"properties":{"type":"28443","name":"28"},"type":"Polygon","arcs":[[919,920,921,922]],"id":"feature_55"},{"properties":{"type":"28464","name":"28"},"type":"Polygon","arcs":[[923,924,925,926,927,928,929,930,931,984,932,933,934,935,936,937,938,939,940,941,955,942,957,943,-960,944,961,945,965,946,967,947,969,948,1024,949,973,950,976,1008,951]],"id":"feature_56"},{"properties":{"type":"28464","name":"28"},"type":"Polygon","arcs":[[1026,952,1028,953,1030,954,955,956,957,958,959,960,961,962,1015,963,1017,964,1019,965,966,967,968,969,970,1021,971,1023,1024,1025,972,1004,973,974,1006,975,976,1008,1009,977,1011,978,1013,979,980,981,982,983,984,985,986,987,988,989,990,991,992,993,994,995,996,997,998,999],[1000],[1001]],"id":"feature_57"},{"properties":{"type":"28464","name":"28"},"type":"Polygon","arcs":[[1002]],"id":"feature_58"},{"properties":{"type":"28464","name":"28"},"type":"Polygon","arcs":[[1003,1004,1005,1006,1007,1008,1009,1010,1011,1012,1013,1014,1015,1016,1017,1018,1019,1020,1021,1022,1023,1024,1025]],"id":"feature_59"},{"properties":{"type":"28464","name":"28"},"type":"Polygon","arcs":[[1026,1027,1028,1029,1030,1031]],"id":"feature_60"}],"type":"GeometryCollection"}},"bbox":[134.4267,34.6244,135.4603,35.3758],"transform":{"scale":[1.0336103361033395e-05,7.514075140751375e-06],"translate":[134.4267,34.6244]},"arcs":[[[76470,5350],[-629,-612],[-97,213],[629,359],[97,40]],[[75454,6295],[-387,-892],[-48,1038]],[[76644,5510],[-1074,-586],[-58,1371]],[[74216,7905],[-49,93],[213,14],[10,-80],[-174,-27]],[[70539,8571],[0,26],[49,14],[-39,-14],[-10,-26]],[[71284,9050],[10,0]],[[82904,9382],[232,-159],[-1219,133],[164,146],[823,-120]],[[74448,11379],[-58,13],[0,13],[77,40],[-19,-66]],[[82662,11166],[493,-346],[-890,-200],[-68,519],[465,27]],[[59355,11898],[832,-240],[-406,-1637],[-2274,-1717],[-929,905],[2777,2689]],[[84655,11472],[-610,-107],[0,972],[677,-133],[-67,-732]],[[57420,12922],[1190,1145],[668,-1358],[-3735,-2488],[-1267,120],[2186,3234]],[[82168,14373],[-19,0],[10,13],[9,-13]],[[79856,15624],[0,0]],[[69117,15797],[10,0],[-29,-13],[0,26],[19,-13]],[[68585,2449],[-10,0]],[[64405,1357],[-2718,-1078]],[[59868,240],[-561,252]],[[57991,2010],[-706,519],[1325,1969],[-542,453],[-4847,-413],[-677,1810],[890,1185],[-377,1437],[1683,80],[-754,-2449],[1964,-1291],[1451,319],[-1403,559],[609,932],[2545,-1278],[1171,998],[986,-492],[474,1091],[-1102,-612],[-1452,1344],[1490,400]],[[61029,8531],[1906,-852],[2293,2116],[2505,-2129],[629,745],[-1267,-27],[-223,2249],[1219,-652],[-396,-1197],[1557,505],[1103,-1171],[929,932]],[[71284,9050],[10,0]],[[71294,9050],[2090,851]],[[74593,11312],[3560,3939],[571,-1024],[735,1517],[1171,-333],[-29,-1078],[1209,373]],[[81820,14719],[1026,-240],[638,1039],[542,-1451]],[[84142,13694],[416,-80]],[[84655,13322],[0,-679]],[[84635,12643],[-96,40]],[[75309,8863],[-2042,-1330]],[[79982,14999],[19,13],[-29,26],[-10,-13],[20,-26]],[[80069,14826],[39,26],[-68,107],[-20,-40],[49,-93]],[[80437,14865],[9,14],[-19,0],[0,-14],[10,0]],[[80427,14799],[-20,-53],[-19,-14],[19,54],[20,13]],[[79488,14799],[-19,27],[-10,-27],[10,-27],[19,27]],[[79343,14679],[20,13],[-39,40],[10,-13],[9,-40]],[[79972,14613],[68,0],[10,-14],[-10,27],[-29,13],[-39,-26]],[[79856,14546],[10,13],[-10,14],[10,13],[-29,-27],[19,-13]],[[80156,14360],[0,-14],[10,0],[0,14],[-10,0]],[[80262,14346],[-9,-40],[19,0],[0,40],[-10,0]],[[79904,14306],[0,14],[-19,0],[10,-27],[9,13]],[[80262,14293],[0,-26],[20,13],[-10,13],[-10,0]],[[80388,14213],[-29,-40],[19,-40],[59,67],[-49,13]],[[80214,14147],[19,13],[-38,0],[-20,-66],[39,53]],[[78627,14107],[-38,26],[87,-79],[-20,40],[-29,13]],[[79895,14054],[9,26],[-29,-13],[20,-13]],[[80282,14067],[-39,-53],[29,-27],[19,67],[-9,13]],[[78627,14000],[-29,40],[-19,-133],[39,0],[9,93]],[[78743,13907],[-38,-26],[38,-94],[20,160],[-20,-40]],[[78850,13787],[-10,-26],[20,0],[29,66],[-29,40],[-10,-80]],[[79517,13787],[-38,0],[38,-79],[58,40],[-58,39]],[[78327,13721],[0,13],[29,53],[-58,-79],[29,13]],[[78269,13774],[0,107],[-9,0],[0,-107],[9,0]],[[78298,13841],[10,0],[29,93],[-48,-40],[9,-53]],[[78569,13841],[-29,-27],[78,13],[-29,27],[-20,-13]],[[77718,13987],[-10,13],[-19,-13],[0,-27],[29,27]],[[77660,14027],[-49,80],[-38,-13],[58,-67],[29,0]],[[80166,14040],[9,-26],[39,53],[-29,0],[-19,-27]],[[80020,14107],[10,0],[-10,26],[0,-26]],[[80069,14160],[0,40],[-10,0],[0,-67],[10,27]],[[77911,14293],[-9,0],[-10,-26],[19,0],[0,26]],[[77524,14293],[39,27],[10,26],[-39,-13],[-10,-40]],[[77931,14639],[-10,53],[-19,-106],[19,-146],[10,199]],[[77911,14746],[-19,13],[19,-53],[10,0],[-10,40]],[[78115,15052],[-39,0],[-20,-40],[30,13],[29,27]],[[79924,13654],[-29,0],[0,-26],[38,13],[-9,13]],[[78763,13654],[-20,14],[10,-67],[10,0],[0,53]],[[77360,13614],[0,54],[-29,-14],[0,-106],[29,66]],[[78753,13548],[0,-13],[19,-14],[-29,54],[10,-27]],[[77360,13535],[-10,0],[0,-14],[20,14],[-10,0]],[[77089,13535],[-10,13],[-19,27],[29,-67],[0,27]],[[77002,13561],[29,67],[-68,13],[0,-66],[58,-80],[-19,66]],[[76944,13535],[-10,26],[-9,-40],[9,14],[10,0]],[[77166,13654],[-48,-26],[58,-53],[10,13],[-20,66]],[[77118,13614],[-19,-53],[67,-26],[-38,40],[-10,39]],[[78308,13614],[10,0],[-29,40],[0,-26],[19,-14]],[[77031,13468],[0,-13],[10,0],[0,13],[-20,13],[10,-13]],[[78985,13428],[0,-40],[20,0],[0,40],[-20,0]],[[77582,13402],[-38,0],[-20,-27],[29,0],[29,27]],[[77041,13402],[19,13],[-10,26],[-29,-53],[20,14]],[[78424,13348],[10,14],[-10,0],[0,-14]],[[78318,13229],[19,-27],[19,53],[-38,-13],[0,-13]],[[78279,13189],[-48,26],[-29,-40],[96,14],[-19,0]],[[78037,13202],[39,0],[0,13],[-29,14],[-10,-27]],[[77031,13109],[10,-14],[9,14],[-29,13],[10,-13]],[[74516,9662],[-523,-626],[87,-319],[503,346],[-67,599]],[[71033,8850],[-20,0],[0,-13],[29,0],[-9,13]],[[72561,9236],[-97,-27],[-9,-26],[106,40],[0,13]],[[72155,9303],[-19,26],[-10,0],[29,-53],[0,27]],[[72832,9356],[-39,0],[0,-14],[20,0],[19,14]],[[72948,9382],[-48,0],[-10,14],[10,-27],[29,-13],[19,26]],[[72987,9515],[-19,0],[0,-13],[19,0],[0,13]],[[72726,9502],[-10,27],[-19,-14],[9,-13],[20,0]],[[72871,9609],[-58,0],[-10,-40],[29,-14],[39,54]],[[71110,9090],[-10,13],[0,-27],[10,0],[0,14]],[[71265,9169],[-20,0],[-48,-26],[39,-27],[29,53]],[[71207,9249],[-29,14],[-20,-27],[78,-27],[-29,40]],[[71100,9263],[0,66],[20,27],[-29,-27],[-29,-80],[38,14]],[[70607,8517],[-10,0],[0,-13],[10,0],[0,13]],[[70646,8464],[-10,13]],[[70636,8477],[10,-13]],[[70646,8464],[-10,13]],[[69136,9169],[-29,0],[0,-13],[20,-13],[9,26]],[[67559,9662],[-19,0],[39,-13],[-10,13],[-10,0]],[[67279,9901],[19,0],[0,-13],[-19,0],[0,13]],[[69175,8052],[145,-200],[-97,-40],[-77,-146],[29,386]],[[70065,7839],[10,0],[9,26],[-29,-13],[10,-13]],[[68430,7679],[-1180,-679],[9,-599],[1655,40],[290,852],[-774,386]],[[71226,7559],[10,-26],[29,0],[-39,53],[-19,0],[19,-27]],[[70936,7226],[9,-13],[30,0],[-49,27],[10,-14]],[[65257,1863],[1025,1610]],[[66302,3487],[29,26]],[[66485,3567],[562,239]],[[66979,3953],[764,1849],[-1974,67],[-241,-1065],[870,-692],[-812,-692],[-1829,147],[1084,1743],[-1200,333],[-358,-2130],[1171,-492],[-552,-1291],[668,-253]],[[55021,5230],[-320,133],[-77,-466],[281,-106],[116,439]],[[54624,5337],[-435,66],[-78,-386],[436,-80],[77,400]],[[67221,6388],[9,53],[-48,27],[-19,-27],[58,-53]],[[82739,14333],[0,13],[-10,0],[10,-26],[0,13]],[[82787,14333],[10,13],[0,14],[-19,-14],[9,-13]],[[82420,14493],[0,-14],[10,0],[0,14],[-10,0]],[[82526,14573],[-9,13],[-29,-40],[9,-13],[29,40]],[[82517,14626],[-10,0],[10,-13],[0,13]],[[81791,14613],[-10,26],[-9,-40],[9,0],[10,14]],[[81936,14626],[-10,40],[-19,-13],[0,-27],[29,0]],[[81897,14666],[-19,0],[10,-27],[9,0],[0,27]],[[81820,14719],[-10,-13]],[[81810,14706],[10,13]],[[81926,14786],[-9,0],[0,-27],[9,13],[0,14]],[[81104,14466],[0,53],[-58,27],[19,-67],[39,-13]],[[81307,14613],[-9,26],[-29,-13],[-68,53],[-10,-13],[87,-67],[29,14]],[[69146,15943],[10,14],[9,0],[0,13],[-19,-27]],[[63486,16170],[310,-94],[358,-306],[-339,-412],[-329,812]],[[61116,16968],[1074,-386],[242,-891],[-1306,-413],[-687,1517],[677,173]],[[59326,18685],[1887,-67],[183,-1291],[-3541,1012],[1471,346]],[[79111,22039],[-10,0],[0,13],[20,0],[-10,-13]],[[79101,22198],[0,0]],[[79672,23902],[610,-1105],[-1074,-798],[164,1038],[-1557,40],[1857,825]],[[79305,23742],[-10,27],[39,13],[-29,-27],[0,-13]],[[79546,23662],[-19,-40],[39,14],[0,66],[-20,-40]],[[79498,23636],[-10,0],[-9,-14],[19,0],[0,14]],[[79527,23503],[10,13],[-10,0],[0,-13]],[[79188,23436],[-193,-67],[-10,-39],[300,66],[-97,40]],[[79527,23436],[0,0]],[[79479,23316],[0,-26],[48,0],[-19,26],[-29,0]],[[79159,23290],[-48,13],[-48,-40],[106,-67],[-10,94]],[[79421,23223],[19,-66],[68,13],[-97,106],[10,-53]],[[79517,23263],[0,13],[0,-13]],[[79479,23157],[-10,0],[-10,-14],[29,-13],[-9,27]],[[79314,23157],[-19,26],[-19,-53],[67,13],[-29,14]],[[79266,23157],[-68,-27],[-19,-40],[38,13],[49,54]],[[78037,23250],[-19,13],[29,-67],[29,-13],[-39,67]],[[79343,22638],[-19,-67],[58,53],[-29,93],[-10,-79]],[[79546,22598],[-38,0],[-10,-27],[48,0],[10,40],[-19,40],[9,-53]],[[79334,22358],[19,27],[-10,40],[-19,-27],[10,-40]],[[77495,27229],[58,-399]],[[77892,26005],[929,-1957],[-2293,320],[774,-1571],[-1790,-3007],[-2825,-1478]],[[72493,18272],[-774,-199]],[[71168,17940],[-629,-932],[1471,200],[87,-1970],[-1297,-226],[668,-1025],[-871,-2276],[-754,1038]],[[69785,12616],[-117,-359]],[[69562,12190],[-97,280]],[[69436,12470],[-29,13]],[[69369,12497],[-2448,-147],[242,1225],[1103,0],[-291,279],[281,373],[-397,931],[78,160],[1373,359],[-822,173],[581,2662],[1083,665],[1113,-865],[2699,1318],[135,1743],[987,-146],[1674,1770],[-1887,1344],[1229,2023]],[[76267,26643],[406,959],[-1035,572],[900,1025],[-1113,1690],[1161,1743],[1132,-333],[203,-825],[-503,546],[-387,-1504],[455,-3287]],[[77476,32180],[-10,26],[-19,0],[10,-13],[19,-13]],[[77108,31661],[10,40],[68,66],[-68,-13],[-10,-93]],[[77079,31514],[10,0],[0,40],[-10,0],[0,-40]],[[77021,31368],[10,0],[19,40],[-9,13],[-20,-53]],[[76983,31328],[0,26],[29,14],[-10,-40],[-19,0]],[[76528,30436],[0,-13],[19,27],[-9,0],[-10,-14]],[[77292,28826],[-19,-13],[-10,0],[10,-14],[19,27]],[[77234,28733],[29,26],[0,27],[-19,0],[-10,-53]],[[77215,28187],[19,13],[10,14],[-29,0],[0,-27]],[[77147,28147],[19,0],[0,27],[-19,-14],[0,-13]],[[77002,26444],[-77,-14]],[[77195,25818],[175,120]],[[77253,25459],[-77,93]],[[77108,25312],[58,54],[87,13],[-106,-13],[-39,-54]],[[77234,25326],[-10,-14],[10,-39],[10,53],[-10,0]],[[77108,24966],[-135,-79],[-10,-27],[49,0],[96,106]],[[75444,24514],[29,0],[-19,13],[-10,-13]],[[77166,22970],[0,40],[-9,13],[-10,-26],[19,-27]],[[75870,21772],[29,-13],[10,27],[-10,-14],[-29,0]],[[75860,21759],[-9,13],[-20,-26],[20,0],[9,13]],[[75889,21759],[-19,-26],[10,-14],[19,27],[-10,13]],[[74603,21214],[-20,26],[-87,-66],[68,-14],[39,54]],[[74477,21187],[0,0]],[[75202,21094],[20,-14],[19,54],[-19,0],[-20,-40]],[[75048,20921],[-10,-14],[0,-13],[19,27],[-9,0]],[[74583,20907],[-9,14],[-10,-27],[10,0],[9,13]],[[74477,20854],[9,-13],[0,40],[-9,-13],[0,-14]],[[74332,20841],[0,13],[-29,-13],[9,-13],[20,13]],[[75706,20788],[19,0],[0,13],[-10,-13],[-9,0]],[[74254,20788],[-9,13],[-20,-27],[20,14],[9,0]],[[75802,20708],[39,-107],[29,14],[-68,146],[0,-53]],[[74099,20628],[-9,27],[0,-40],[9,13]],[[74564,20295],[19,0],[-9,67],[-20,-27],[10,-40]],[[74583,19590],[-106,0],[-49,-27],[223,-26],[-68,53]],[[73616,19058],[48,-14],[10,14],[-39,39],[-19,-39]],[[69465,18472],[-29,106],[-29,14],[49,-173],[9,53]],[[69398,18592],[-39,26],[-29,-26],[0,-14],[68,14]],[[69427,18592],[38,13],[10,13],[-29,0],[-19,-26]],[[69920,18525],[19,14],[-9,26],[-29,-26],[19,-14]],[[69959,18751],[-10,-53],[77,-40],[-38,80],[-29,13]],[[70839,17980],[10,-14],[38,27],[-19,0],[-29,-13]],[[70568,17807],[10,13],[-29,13],[10,40],[29,13],[-39,0],[-10,-53],[29,-26]],[[70597,16635],[68,-39],[-87,159],[0,-93],[19,-27]],[[70694,16289],[-87,-79],[0,-14],[39,14],[67,106],[-19,-27]],[[70713,16210],[-19,-54],[0,-66],[58,173],[-39,-53]],[[69814,16250],[-10,13],[-10,-13],[10,-14],[10,14]],[[69707,16276],[-29,0],[-29,13],[29,-26],[29,13]],[[70355,16010],[-29,-80],[49,-80],[19,213],[-39,-53]],[[69475,15864],[-39,-27],[39,-40],[0,67]],[[71197,15424],[-135,-53],[-78,13],[58,-53],[155,93]],[[70249,15105],[39,13],[0,14],[-39,0],[0,-27]],[[68643,14892],[19,-13],[10,40],[-19,0],[-10,-27]],[[68430,14772],[29,0],[-29,27],[0,-27]],[[68672,14719],[19,0],[-19,27],[-10,-14],[10,-13]],[[69020,14559],[10,27],[-39,13],[0,-26],[29,-14]],[[69359,14559],[-20,-13],[39,40],[-9,-13],[-10,-14]],[[69078,14559],[-9,-13],[19,0],[-10,13]],[[69320,14479],[10,-13],[19,0],[0,-13],[29,-27],[20,14],[-68,93],[-10,-54]],[[69862,14479],[19,-26],[20,26],[-10,14],[-29,-14]],[[69978,14453],[10,-53],[58,26],[-29,0],[-29,-26],[0,40],[-10,13]],[[69843,14413],[-20,0],[-29,-40],[49,27],[0,13]],[[70384,14280],[10,40],[39,26],[-58,-26],[9,-40]],[[70723,14293],[19,-40],[49,27],[-58,26],[-10,-13]],[[70036,14187],[39,-27],[29,0],[38,-40],[-48,53],[-58,14]],[[70858,14120],[-9,0],[0,-13],[9,0],[0,26],[-9,0],[9,-13]],[[69717,14120],[-10,0],[0,-13],[10,13]],[[69823,13907],[0,27],[-29,0],[20,-13],[9,-14]],[[69978,13575],[29,13],[19,40],[-58,-53],[10,0]],[[69949,13521],[-10,-13],[29,27],[-19,-14]],[[70684,13508],[10,-27],[48,0],[-19,27],[-39,0]],[[69330,13455],[19,-14],[-39,27],[20,-13]],[[69862,13428],[-39,-26]],[[69427,13362],[19,13],[-10,13],[-9,-26]],[[69794,13402],[-9,0],[0,-14],[9,0],[0,14]],[[70471,13282],[0,13],[-19,0],[19,-13]],[[70752,13255],[-68,-40],[10,-53],[58,67],[0,26]],[[69427,13255],[-20,-13],[39,-13],[0,13],[-19,13]],[[69997,13016],[10,0],[19,13],[-19,13],[-10,-26]],[[69930,12989],[-49,-27],[10,-26],[39,26],[0,27]],[[68304,12763],[20,-14],[9,14],[-38,13],[9,-13]],[[69591,12683],[0,-27]],[[69485,12550],[-20,-14]],[[70346,12723],[0,-27],[19,-26],[-10,66],[-19,0],[10,-13]],[[70075,12709],[0,-13],[9,13],[-9,0]],[[74061,33085],[1161,-1025],[-503,-1318],[-929,120],[-310,1491],[581,732]],[[61687,279],[-1210,120]],[[60477,399],[0,-13]],[[60477,386],[-609,-146]],[[59868,240],[348,1251],[1471,-1212]],[[59307,492],[-1316,1518]],[[57991,2010],[1316,-1518]],[[64850,7333],[-387,-532],[-706,399],[939,812],[154,-679]],[[61029,8531],[358,-227],[-252,-865],[-416,1132]],[[60719,8571],[310,-40]],[[81917,9223],[261,-1251],[-958,-426],[-542,1504],[1239,173]],[[57420,12922],[-426,-732],[-532,1385]],[[56462,13575],[958,-653]],[[69823,13402],[39,26]],[[69862,13428],[-19,-679]],[[69843,12749],[-58,-133]],[[69785,12616],[-117,-359]],[[69668,12257],[-106,-67]],[[69562,12190],[-97,280]],[[69465,12470],[-29,0]],[[69436,12470],[-29,13]],[[69407,12483],[-38,14]],[[69369,12497],[96,39]],[[69465,12536],[20,14]],[[69485,12550],[106,106]],[[69591,12656],[0,27]],[[69591,12683],[-232,958],[106,559],[358,-798]],[[69697,14107],[10,0],[10,13],[-10,0],[-10,-13]],[[69746,12843],[19,-14],[0,14],[-19,0]],[[69814,12736],[-39,0],[39,-13],[0,13]],[[70094,13002],[-10,0],[0,-13],[10,0],[0,13]],[[72687,18312],[-194,-40]],[[72493,18272],[-774,-199]],[[71719,18073],[-290,-67]],[[71429,18006],[10,0]],[[71439,18006],[-271,-66]],[[71168,17940],[1519,372]],[[77553,26830],[339,-825]],[[77892,26005],[-522,-67]],[[77370,25938],[-175,-120]],[[77195,25818],[-19,-266]],[[77176,25552],[-10,0]],[[77166,25552],[-38,53],[-39,14],[48,-54],[29,-13]],[[77166,25552],[87,-93]],[[77253,25459],[-1151,905]],[[76102,26364],[165,279]],[[76267,26643],[658,-213]],[[76925,26430],[77,14]],[[77002,26444],[484,785]],[[77486,27229],[9,0]],[[77495,27229],[58,-399]],[[77989,2276],[542,-719],[-2855,-306],[426,812],[1887,213]],[[76644,5510],[871,-2050],[-2284,905],[-212,2076]],[[75019,6441],[435,-146]],[[75454,6295],[58,0]],[[75512,6295],[648,359],[484,-1144]],[[75280,9050],[-10,-14]],[[75260,9036],[10,0]],[[75270,9036],[39,-173]],[[75309,8863],[-261,-1650],[-890,932],[-891,-612]],[[73267,7533],[-174,-985]],[[72068,8371],[1316,1530]],[[73384,9901],[309,386]],[[73693,10301],[0,-14]],[[73693,10287],[319,426]],[[74012,10727],[0,-14]],[[74012,10713],[581,413]],[[74187,10673],[19,0],[-10,14],[-9,-14]],[[74109,10580],[29,40],[0,27],[-29,-27],[0,-40]],[[74245,10593],[-20,-66],[-48,-40],[77,0],[58,120],[-67,-14]],[[72552,4977],[58,-1237],[-1529,239],[880,1052],[591,-54]],[[72503,5217],[-184,-160],[-135,133],[68,27],[251,0]],[[72416,5776],[77,-413],[-299,14],[193,266],[29,133]],[[68575,2449],[-77,-14]],[[68488,2435],[10,0]],[[68498,2435],[-2351,-173]],[[66137,2262],[10,0]],[[66147,2262],[-1742,-905]],[[64405,1357],[165,120]],[[64570,1477],[687,386]],[[65257,1863],[1403,865],[-378,745]],[[66282,3473],[20,14]],[[66302,3487],[29,26]],[[66331,3513],[154,54]],[[66485,3567],[262,-613],[841,573],[-541,279]],[[67047,3806],[-68,147]],[[66979,3953],[1499,346],[-619,1184],[-29,213],[1442,-679],[251,1584],[523,-439],[174,1091],[967,80],[-396,785],[1277,253]],[[72068,8371],[1025,-1823]],[[73093,6548],[-1528,-1730],[-707,545],[-19,-1570],[-2254,-1344]],[[68585,2449],[-10,0]],[[71226,7546],[10,-13],[29,0],[-39,53],[-19,0],[19,-40]],[[67743,3993],[-10,13],[-232,-293],[387,67],[-145,213]],[[67608,3407],[-242,-173],[145,-226],[329,306],[-232,93]],[[67337,3127],[-465,-212],[-183,-280],[541,40],[107,452]],[[79991,13322],[20,-80],[-184,-53],[-10,133],[174,0]],[[82275,14000],[125,-199],[-154,-493],[-310,639],[339,53]],[[84026,14067],[116,-373]],[[84142,13694],[416,-80]],[[84558,13614],[97,-292]],[[84655,13322],[-610,-346],[610,-333]],[[84655,12643],[-20,0]],[[84635,12643],[-96,40]],[[84539,12683],[-832,133]],[[83697,12816],[10,0]],[[83707,12816],[-49,-386]],[[83658,12430],[10,-27],[-10,14],[0,13]],[[83658,12430],[-958,-599]],[[82739,11765],[-39,66]],[[82700,11831],[-3463,-599],[-3957,-2182]],[[75280,9050],[-677,2076]],[[74593,11126],[10,0]],[[74603,11126],[-10,186]],[[74593,11312],[1461,-40],[1790,1744],[2622,-360],[3560,1411]],[[83262,13362],[-329,-40],[193,-559],[348,213],[-212,386]],[[82817,13202],[-455,-120],[116,-386],[397,306],[-58,200]],[[81917,12749],[-416,80],[-977,-559],[1635,-266],[-242,745]],[[79624,11858],[367,146],[-58,213],[-358,-160],[49,-199]],[[79188,12031],[-116,359],[-271,-186],[126,-320],[261,147]],[[78473,12390],[-291,253],[-483,-266],[87,-293],[687,306]],[[77873,12603],[67,173],[-251,-279],[39,13],[145,93]],[[79237,12457],[48,-426],[677,306],[-67,239],[-658,-119]],[[80040,12403],[290,40],[0,93],[-339,27],[49,-160]],[[75406,10966],[-20,-200],[890,426],[-145,0],[-725,-226]],[[75309,10727],[-68,173],[-97,-40],[29,-187],[136,54]],[[74970,10900],[-19,199],[-223,-106],[49,-187],[193,94]],[[96555,19377],[367,-80]],[[97290,19510],[958,333],[-465,-453],[1249,-1144]],[[99525,18086],[426,-2076]],[[99864,14972],[-1171,-559],[-58,-1916],[-3425,-2343],[-2109,-2834],[-1161,133],[2544,2861],[-435,253],[-948,-386],[348,80],[339,-133],[-658,-1145],[-1142,107],[-609,-1584],[1267,5416],[-1064,4805],[193,3061]],[[99864,14972],[-620,40],[707,998]],[[99951,16010],[-87,-1038]],[[96922,19297],[368,213]],[[97290,19510],[1742,-1264]],[[99032,18246],[493,-160]],[[99525,18086],[10,-2409],[-1007,1211]],[[98451,16928],[-1529,2369]],[[96555,19377],[2834,-3633],[-890,-386],[-106,-1185],[-774,267]],[[97561,13841],[1122,-1171],[-2786,-1504],[-1093,1091]],[[94571,12310],[-2196,-785],[387,1570],[-987,7693]],[[91775,20788],[842,-1584],[3038,-1584],[900,1757]],[[96129,12962],[803,692]],[[96942,14905],[-619,1557]],[[96294,15797],[377,-865],[-1084,-240],[455,-1716]],[[96400,18206],[145,-1052],[445,14],[116,878],[-706,160]],[[98693,15837],[-78,200],[-1151,-134],[426,-825],[803,759]],[[97793,13002],[474,27],[-29,-399],[-764,-14],[319,386]],[[98528,16888],[-77,40]],[[98451,16928],[377,852],[-300,-892]],[[93826,16063],[-648,-106],[0,1490],[387,147],[261,-1531]],[[96942,14905],[677,-465]],[[97619,14440],[-58,-599]],[[97561,13841],[-629,-187]],[[96932,13654],[10,1251]],[[95016,14533],[-1073,0],[48,1224],[638,-80],[387,-1144]],[[94804,12257],[-233,53]],[[94571,12310],[155,1025],[1316,-359]],[[96042,12976],[87,-14]],[[96129,12962],[68,-1104],[-1393,399]],[[96323,16462],[-29,-665]],[[96294,15797],[-1403,705],[532,985],[900,-1025]],[[44998,46832],[696,1424],[484,-865],[1703,266],[1199,4565],[1423,759],[-262,2049],[1345,-985],[1190,1025],[552,-1956],[-620,-1185],[1481,572],[987,-1517],[2612,3048],[967,-120],[-1219,-3806],[2738,279],[-532,-1251],[793,-1583],[-1074,-1744],[-6598,-2102],[-948,1104],[-4963,-372],[-1664,798],[-290,1597]],[[54063,48336],[-1248,-1331],[-387,1970],[1045,-559]],[[52641,48416],[-39,-40],[0,-27],[68,14],[-29,53]],[[52573,47138],[-406,839],[87,572],[474,-732],[-155,-679]],[[51470,47231],[1122,-386],[-677,-825]],[[51547,45954],[-290,678]],[[51915,46020],[-368,-66]],[[51547,45954],[-290,678]],[[51257,46632],[213,599]],[[51470,47231],[445,-1211]],[[54063,48336],[-1074,-892],[484,972]],[[53473,48416],[590,-80]],[[36435,14360],[-48,-40],[-77,26],[38,40],[87,-26]],[[31714,22025],[271,-106]],[[32024,21906],[19,-160]],[[31975,21679],[-9,-26]],[[31404,20508],[-154,40]],[[31269,20748],[58,239]],[[31308,21080],[-10,27]],[[31259,21107],[-29,13]],[[31192,21174],[-78,79]],[[31172,21866],[0,79]],[[30892,23729],[203,-93],[-426,-80],[107,213],[116,-40]],[[34084,24168],[-135,-386]],[[33968,23556],[0,-14]],[[33901,22837],[0,-26]],[[35787,22371],[319,-93]],[[36329,22478],[19,13]],[[36503,22291],[0,-79]],[[36813,21826],[-10,-27]],[[37393,21320],[-48,-27]],[[37074,21347],[-19,-14]],[[37113,21253],[19,-26]],[[38148,19963],[48,-27]],[[37974,19776],[-155,-26]],[[36948,19058],[-39,-67]],[[36784,17048],[67,-426]],[[36851,16130],[-377,-1744],[-116,772],[-513,-785],[-745,1943],[-367,-759],[-1626,1198],[1829,1943]],[[34936,18791],[-20,54]],[[34781,18818],[-164,-40]],[[33543,18166],[-949,-1637],[-619,426],[1248,3433]],[[33107,20868],[0,199]],[[33059,21107],[-68,80]],[[32972,21214],[-58,93]],[[32749,21639],[-29,107]],[[32720,21772],[-19,107]],[[32565,22118],[-48,54]],[[32478,22265],[-125,333]],[[32178,22478],[-348,386]],[[32391,22651],[203,-253]],[[32798,23236],[19,14]],[[32933,23263],[97,-120]],[[33030,23117],[19,-27]],[[33243,22890],[38,-133]],[[33668,22717],[116,107]],[[33833,23023],[97,293]],[[33949,23516],[-29,146]],[[33784,23942],[0,199]],[[33794,24181],[10,14]],[[33804,24235],[0,13]],[[33804,24288],[164,106]],[[34307,21733],[29,-14]],[[34578,22318],[-87,13]],[[34723,21400],[106,-80]],[[34868,21293],[29,-13]],[[34878,21240],[19,-120]],[[34936,21014],[19,-53]],[[34974,20894],[194,-213]],[[35507,20615],[58,-107]],[[35613,20455],[0,-53]],[[35671,20229],[58,-107]],[[35807,20016],[106,-120]],[[35555,20109],[-48,53]],[[34839,20934],[-29,40]],[[34123,21466],[-58,27]],[[33746,21187],[580,-479]],[[35894,19750],[29,26]],[[35961,19803],[39,53]],[[36126,20548],[-213,173]],[[35729,21120],[-10,120]],[[31714,22025],[271,-106]],[[31985,21919],[39,-13]],[[32024,21906],[19,-160]],[[32043,21746],[0,0]],[[32043,21746],[-68,-67]],[[31975,21679],[-9,-26]],[[31966,21653],[-78,-80]],[[31879,21573],[9,0]],[[31888,21573],[-367,-679]],[[31434,20694],[-30,-186]],[[31404,20508],[-154,40]],[[31250,20548],[9,133]],[[31269,20734],[0,14]],[[31269,20748],[58,239]],[[31327,20987],[-19,93]],[[31308,21080],[-10,27]],[[31298,21107],[-39,0]],[[31259,21107],[-29,13]],[[31230,21120],[-38,54]],[[31192,21174],[-78,79]],[[31114,21253],[58,613]],[[31172,21866],[0,79]],[[31172,21945],[542,80]],[[32391,22651],[0,0]],[[32391,22651],[-38,-53]],[[32353,22598],[-175,-120]],[[32178,22478],[-348,386]],[[31830,22864],[561,-213]],[[32856,23276],[77,-13]],[[32933,23263],[97,-120]],[[33030,23143],[0,-26]],[[33030,23117],[19,-27]],[[33049,23090],[194,-200]],[[33243,22890],[-39,-26]],[[33697,22664],[155,0]],[[33891,22757],[10,54]],[[33901,22811],[9,-54]],[[35245,22465],[542,-94]],[[35787,22371],[319,-93]],[[36106,22278],[223,200]],[[36329,22478],[19,13]],[[36348,22491],[155,-200]],[[36503,22291],[0,-79]],[[36503,22212],[310,-386]],[[36813,21826],[-10,-27]],[[36803,21799],[155,-200]],[[37142,21187],[9,-27]],[[37200,21080],[300,-239]],[[37587,20801],[116,13]],[[37867,20774],[242,-239]],[[38109,20415],[39,-452]],[[38148,19963],[48,-27]],[[38196,19936],[-222,-160]],[[37974,19776],[-155,-26]],[[37819,19750],[-871,-692]],[[36948,19058],[-29,-54]],[[36861,18898],[-77,-1850]],[[36784,17048],[-233,-40]],[[36590,16449],[261,173]],[[36851,16622],[0,-492]],[[36851,16130],[-445,-706],[-1064,1038],[290,1118]],[[35342,17966],[-348,706]],[[34781,18858],[0,-40]],[[34781,18818],[-164,-40]],[[34617,18778],[-1074,-612]],[[33543,18166],[241,399]],[[33823,18618],[68,80]],[[33968,18751],[-745,1637]],[[33223,20388],[-116,480]],[[33107,20868],[0,199]],[[33107,21067],[-48,40]],[[33059,21107],[-68,80]],[[32991,21187],[-19,27]],[[32972,21214],[-58,93]],[[32914,21307],[0,26]],[[32904,21333],[10,0]],[[32914,21333],[-165,306]],[[32749,21639],[-29,107]],[[32720,21746],[0,26]],[[32720,21772],[-19,107]],[[32701,21879],[-39,120]],[[32653,21999],[9,0]],[[32662,21999],[-97,119]],[[32565,22118],[-48,54]],[[32517,22172],[-39,93]],[[32478,22265],[116,133]],[[32594,22398],[407,-453]],[[32991,21945],[10,0]],[[33001,21945],[-58,772]],[[32933,22744],[-135,399]],[[32817,23250],[0,93]],[[32817,23343],[0,13],[10,0],[-10,-13]],[[32817,23343],[39,-67]],[[32856,23276],[-10,0],[-10,-13],[10,0],[10,13]],[[34307,21733],[29,-14]],[[34336,21719],[126,0]],[[34539,21719],[39,599]],[[34578,22318],[-87,13]],[[34491,22331],[-184,-598]],[[34723,21400],[106,-80]],[[34829,21320],[39,-27]],[[34868,21293],[29,-13]],[[34897,21280],[-19,-40]],[[34878,21240],[19,-120]],[[34897,21120],[39,-106]],[[34936,21014],[19,-53]],[[34955,20961],[19,-67]],[[35149,20694],[19,-13]],[[35168,20681],[339,-66]],[[35507,20615],[58,-107]],[[35565,20508],[48,-53]],[[35613,20455],[0,-53]],[[35613,20402],[58,-173]],[[35671,20229],[58,-107]],[[35729,20122],[78,-106]],[[35807,20016],[0,0]],[[35807,20016],[-10,-27]],[[33543,21719],[203,-532]],[[33746,21187],[580,-479]],[[34326,20708],[1568,-958]],[[35981,19829],[19,27]],[[36000,19856],[126,692]],[[36126,20548],[-213,173]],[[35913,20721],[-184,399]],[[35729,21120],[-10,120]],[[35719,21240],[10,905],[-1006,-745]],[[33891,20189],[-271,120]],[[33146,21693],[39,-160],[-165,266],[29,-13],[97,-93]],[[35826,16436],[10,80],[-213,106],[-20,-53],[223,-133]],[[33901,22837],[-117,-13]],[[33784,22824],[49,199]],[[33833,23023],[97,293]],[[33930,23316],[19,200]],[[33949,23516],[19,26]],[[33968,23542],[-67,-705]],[[33949,23782],[19,-226]],[[33968,23556],[-48,106]],[[33920,23662],[-136,280]],[[33784,23942],[165,-160]],[[34084,24168],[-300,-27]],[[33784,24141],[10,40]],[[33794,24181],[10,14]],[[33804,24195],[0,40]],[[33804,24235],[0,13]],[[33804,24248],[0,40]],[[33804,24288],[164,106]],[[33968,24394],[116,-226]],[[31434,20694],[-175,-13]],[[31259,20681],[10,53]],[[31269,20734],[252,160]],[[31521,20894],[-87,-200]],[[35245,22465],[1713,-866]],[[36958,21599],[435,-279]],[[37393,21320],[-48,-27]],[[37345,21293],[-271,54]],[[37074,21347],[-19,-14]],[[37055,21333],[58,-80]],[[37113,21253],[19,-26]],[[37132,21227],[10,-40]],[[37142,21187],[-3290,1477]],[[33852,22664],[39,93]],[[33891,22757],[19,0]],[[33910,22757],[1335,-292]],[[33891,20189],[-610,-80],[-338,2608]],[[32952,22717],[-9,0]],[[32943,22717],[-10,27]],[[32933,22744],[-135,399]],[[32798,23143],[0,93]],[[32798,23236],[19,14]],[[32817,23250],[387,-386]],[[33204,22864],[77,-107]],[[33281,22757],[387,-40]],[[33668,22717],[29,-53]],[[33697,22664],[-212,-772],[977,-173]],[[34462,21719],[77,0]],[[34539,21719],[435,-825]],[[34974,20894],[107,-146]],[[35091,20761],[-10,-13]],[[35081,20748],[68,-54]],[[35149,20694],[648,-705]],[[35797,19989],[116,-93]],[[35913,19896],[-358,213]],[[35555,20109],[-48,53]],[[35507,20162],[-668,772]],[[34839,20934],[-29,40]],[[34810,20974],[-687,492]],[[34123,21466],[-58,27]],[[34065,21493],[-522,226]],[[33543,21719],[-165,-1091],[832,173],[1538,-2183],[146,1132]],[[35894,19750],[29,26]],[[35923,19776],[38,27]],[[35961,19803],[20,26]],[[35981,19829],[1170,1331]],[[37151,21160],[49,-80]],[[37200,21080],[-513,-1876],[813,1637]],[[37500,20841],[87,-40]],[[37587,20801],[-668,-1797]],[[36919,19004],[-10,-13]],[[36909,18991],[-48,-93]],[[36861,18898],[-726,-572],[416,-1318]],[[36551,17008],[39,-559]],[[36590,16449],[-358,-559],[-135,2356],[-465,-666]],[[35632,17580],[-290,386]],[[35342,17966],[377,573],[-725,133]],[[34994,18672],[-58,26]],[[34936,18698],[0,93]],[[34936,18791],[-20,54]],[[34916,18845],[-135,13]],[[34781,18858],[58,825],[-1055,-1118]],[[33784,18565],[39,53]],[[33823,18618],[68,80]],[[33891,18698],[77,53]],[[33968,18751],[832,1052],[-658,559],[-396,-1012],[-397,-159],[271,1118]],[[33620,20309],[271,-120]],[[35923,18499],[135,-107],[561,719],[-396,53],[-300,-665]],[[35797,18485],[-368,-532],[126,-133],[445,506],[-203,159]],[[37867,20774],[242,-239]],[[38109,20535],[0,-120]],[[38109,20415],[-406,399]],[[37703,20814],[164,-40]],[[38709,99839],[2264,80],[619,-2688],[2177,1331],[-426,-3580],[1229,-759],[-919,-652],[-87,-1983],[-1200,27],[-203,-1810],[-1190,-333],[-271,-2582],[-668,-253],[-2205,1624],[-2264,-319],[203,1477],[2883,1610],[-1335,1145],[48,1357],[668,173],[-445,3261],[-1742,253],[2864,2621]],[[41766,94436],[300,-798],[-967,-559],[-49,732],[716,625]],[[42211,94809],[639,-1131],[687,-426],[-1616,559],[290,998]],[[41476,94343],[-19,719],[-929,53],[-300,639],[1461,-373],[-213,-1038]],[[39744,90923],[126,-479],[-19,-865],[-668,-506],[561,1850]],[[39851,89845],[-97,-453],[-387,0],[280,559],[204,-106]],[[41457,93731],[145,-253],[-223,-426],[-300,626],[378,53]],[[41708,95195],[-793,-40],[-339,452],[784,-159],[348,-253]],[[42095,94702],[155,-559],[900,-678],[-1277,439],[222,798]],[[15006,30796],[-87,-200]],[[14890,30596],[-165,-226]],[[14725,30343],[-339,-1011]],[[14299,29332],[10,-14]],[[14251,29199],[-19,-40]],[[14096,29119],[-155,-80]],[[13922,29039],[-106,-13]],[[13787,29026],[-10,-14]],[[13748,29012],[-39,-13]],[[13700,28999],[-1200,-2994]],[[12500,25991],[145,-479]],[[12645,25499],[-39,-652]],[[12606,24820],[1539,-2622],[-271,-4192],[-4160,3088],[-1771,-2635],[-668,-173],[-174,1703],[-2496,-2582],[194,2143],[2564,1703],[-523,1691],[600,2195],[-522,2263],[-1036,-639],[-1180,2875],[-977,146],[-136,1783],[1568,945],[1315,3687],[2545,2675],[-194,3806],[2003,-719],[-667,3354],[1635,1397],[29,-2701],[2089,-107],[204,-838],[-68,-4884],[-823,-1105],[581,-1105],[2786,27],[29,-1916],[-1615,-3274]],[[3560,45861],[155,-2822],[-493,-1437],[2699,-1610],[-1238,-479],[-426,-1810],[-2041,119],[-68,3061],[-2148,2609],[1219,2023],[2341,346]],[[12326,21160],[309,479]],[[12877,21679],[242,-266]],[[13148,21373],[261,-293]],[[13816,20761],[-1297,346]],[[11349,30343],[-49,27]],[[11165,30383],[-68,0]],[[11097,30436],[0,306]],[[11242,31088],[58,67]],[[11436,31301],[203,213]],[[11813,31807],[87,-106]],[[12413,31807],[-39,106]],[[12364,31900],[-9,0]],[[12152,31887],[-49,26]],[[12045,31820],[-19,107]],[[12045,32512],[58,240]],[[12113,33045],[-68,239]],[[11977,33790],[68,13]],[[12103,33803],[20,14]],[[12161,33910],[49,239]],[[12277,34242],[20,14]],[[12374,34256],[97,13]],[[12529,34029],[-19,-159]],[[12510,33856],[-39,-306]],[[12452,33351],[9,-173]],[[12490,32566],[39,-54]],[[12529,32486],[-19,-93]],[[12510,32366],[-10,-27]],[[12481,32113],[67,-40]],[[12751,31993],[29,0]],[[12800,31993],[19,14]],[[12838,31980],[0,-40]],[[12838,31900],[10,-13]],[[12868,31887],[9,13]],[[12993,31794],[39,-14]],[[13080,31767],[68,-13]],[[13255,31554],[19,-386]],[[13225,30995],[-174,-293]],[[12964,30636],[-203,-80]],[[12780,30529],[-706,-239]],[[12035,30290],[-116,-13]],[[11687,30290],[-19,0]],[[11755,37649],[-19,14]],[[11765,37782],[38,67]],[[11619,37955],[-48,626]],[[11590,39007],[-58,120]],[[11194,39646],[-58,13]],[[11049,39699],[-49,26]],[[11242,39712],[78,-40]],[[11900,39579],[-281,280]],[[11648,39898],[-9,27]],[[11648,39965],[30,106]],[[11687,40111],[426,-199]],[[12113,39819],[29,-173]],[[11987,38115],[-29,-492]],[[13854,20628],[126,426],[145,146],[10,-625],[-281,53]],[[8669,26790],[570,426]],[[10042,26736],[-183,-851],[-919,745]],[[12664,34908],[-251,585],[725,-13],[-48,-452],[-426,-120]],[[14377,29332],[-39,0]],[[14309,29332],[0,-14]],[[14319,29238],[-10,-13]],[[14280,29225],[-19,-13]],[[14261,29212],[-29,-53]],[[14232,29159],[0,-14]],[[14106,29119],[-10,0]],[[14096,29119],[-19,-14]],[[14067,29105],[-542,1291],[861,-1064]],[[11861,32739],[-9,-346],[-213,-440],[-1374,-1131],[1596,1917]],[[11774,33218],[-261,199],[-10,240],[204,-120],[67,-319]],[[12519,21107],[-193,53]],[[12326,21160],[309,479]],[[12635,21639],[242,40]],[[12877,21679],[242,-266]],[[13119,21413],[29,-40]],[[13148,21373],[261,-293]],[[13409,21080],[407,-319]],[[13816,20761],[-1297,346]],[[8940,26630],[-271,160]],[[8669,26790],[570,426]],[[9239,27216],[803,-480]],[[10042,26736],[-1102,-106]],[[13438,21240],[0,0]],[[12113,39912],[0,-93]],[[12113,39819],[29,-173]],[[12142,39646],[-155,-1531]],[[11987,38115],[-29,-492]],[[11958,37623],[-203,26]],[[11755,37649],[-19,14]],[[11736,37663],[29,119]],[[11765,37782],[38,67]],[[11803,37849],[-184,106]],[[11619,37955],[-48,626]],[[11571,38581],[19,426]],[[11590,39007],[-58,120]],[[11532,39127],[-338,519]],[[11194,39646],[-58,13]],[[11136,39659],[-87,40]],[[11049,39699],[-49,26]],[[11000,39725],[242,-13]],[[11242,39712],[78,-40]],[[11320,39672],[580,-93]],[[11900,39579],[-281,280]],[[11619,39859],[29,39]],[[11648,39898],[-9,27]],[[11639,39925],[9,40]],[[11648,39965],[30,106]],[[11678,40071],[9,40]],[[11687,40111],[426,-199]],[[12761,30556],[19,-27]],[[12780,30529],[-706,-239]],[[12074,30290],[-39,0]],[[12035,30290],[-116,-13]],[[11919,30277],[-232,13]],[[11687,30290],[-19,0]],[[11668,30290],[-319,53]],[[11349,30343],[-49,27]],[[11300,30370],[-135,13]],[[11165,30383],[-68,0]],[[11097,30383],[0,53]],[[11097,30436],[0,306]],[[11097,30742],[145,346]],[[11242,31088],[58,67]],[[11300,31155],[136,146]],[[11436,31301],[203,213]],[[11639,31514],[174,293]],[[11813,31807],[87,-106]],[[11900,31701],[513,106]],[[12413,31807],[-39,106]],[[12374,31913],[-10,-13]],[[12364,31900],[-9,0]],[[12355,31900],[-203,-13]],[[12152,31887],[-49,26]],[[12103,31913],[-58,-93]],[[12045,31820],[-19,107]],[[12026,31927],[19,585]],[[12045,32512],[58,240]],[[12103,32752],[10,293]],[[12113,33045],[-68,239]],[[12045,33284],[-68,506]],[[11977,33790],[68,13]],[[12045,33803],[58,0]],[[12103,33803],[20,14]],[[12123,33817],[38,93]],[[12161,33910],[49,239]],[[12210,34149],[67,93]],[[12277,34242],[20,14]],[[12297,34256],[77,0]],[[12374,34256],[97,13]],[[12471,34269],[58,-240]],[[12529,34029],[-19,-159]],[[12510,33870],[0,-14]],[[12510,33856],[-39,-306]],[[12471,33550],[-19,-199]],[[12452,33351],[9,-173]],[[12461,33178],[29,-612]],[[12490,32566],[39,-54]],[[12529,32512],[0,-26]],[[12529,32486],[-19,-93]],[[12510,32393],[0,-27]],[[12510,32366],[-10,-27]],[[12500,32339],[-19,-226]],[[12481,32113],[67,-40]],[[12548,32073],[203,-80]],[[12751,31993],[29,0]],[[12780,31993],[20,0]],[[12800,31993],[19,14]],[[12819,32007],[19,-27]],[[12838,31980],[0,-40]],[[12838,31940],[0,-40]],[[12838,31900],[10,-13]],[[12848,31887],[20,0]],[[12868,31887],[9,13]],[[12877,31900],[116,-106]],[[12993,31794],[39,-14]],[[13032,31780],[48,-13]],[[13080,31767],[68,-13]],[[13148,31754],[107,-200]],[[13255,31554],[19,-386]],[[13274,31168],[-49,-173]],[[13225,30995],[-174,-293]],[[13051,30702],[-87,-66]],[[12964,30636],[-203,-80]],[[29682,41642],[-2631,4911],[590,2542],[1364,-1877],[3522,-160],[-49,-1903],[4161,785],[-910,-2156],[-77,-4684],[-2564,892],[-136,1437],[-3270,213]],[[32043,43305],[455,1265],[880,-919],[-735,-1197],[-223,13],[320,692]],[[32275,43172],[20,-945],[-320,506]],[[31704,45195],[146,-80]],[[31917,45049],[-793,-2103],[-203,1943],[764,280]],[[31685,45169],[19,26]],[[31704,45195],[146,-80]],[[31850,45115],[67,-66]],[[31917,45049],[-377,-892],[145,1012]],[[32740,43159],[-465,13]],[[32275,43172],[-300,-439]],[[31975,42733],[68,572]],[[32043,43305],[551,1052],[146,-1198]],[[12606,24820],[0,27]],[[12606,24847],[39,652]],[[12645,25499],[0,13]],[[12645,25512],[-145,479]],[[12500,25991],[0,14]],[[12500,26005],[416,2448],[784,546]],[[13700,28999],[9,0]],[[13709,28999],[39,13]],[[13748,29012],[106,27]],[[13874,29039],[425,293]],[[14299,29332],[10,0]],[[14309,29332],[29,0]],[[14338,29332],[387,1011]],[[14725,30343],[0,27]],[[14725,30370],[165,226]],[[14890,30596],[29,0]],[[14919,30596],[87,200]],[[15006,30796],[0,13]],[[15006,30809],[3328,-346],[-107,-932],[1606,-1237],[-1180,-2556],[-1577,293],[116,852],[-1983,-426]],[[15199,26457],[-106,-120]],[[15083,26337],[-39,-13]],[[15044,26337],[-58,0]],[[14938,26337],[29,-266]],[[15054,26071],[281,-253]],[[15335,25805],[-20,-40]],[[15306,25765],[-310,-359]],[[14967,25392],[-106,-266]],[[14841,25126],[-29,0]],[[14744,25126],[-1141,-878],[-997,572]],[[16360,27814],[29,14]],[[16457,27828],[232,-133]],[[16689,27655],[648,466],[-9,-959],[-1210,400],[-909,-1105]],[[15209,26457],[-10,0]],[[15199,26457],[-106,-120]],[[15093,26337],[-10,0]],[[15083,26337],[-39,0]],[[15044,26337],[0,-13]],[[15044,26324],[-58,13]],[[14986,26337],[-48,0]],[[14938,26337],[-10,-13]],[[14928,26297],[10,-66]],[[14938,26191],[19,-80]],[[14967,26071],[87,0]],[[15054,26071],[281,-253]],[[15335,25818],[0,-13]],[[15335,25805],[-20,-40]],[[15315,25765],[-9,0]],[[15306,25765],[-291,-160]],[[15025,25459],[10,-13]],[[14967,25339],[19,-173]],[[14861,25126],[-20,0]],[[14841,25126],[0,13]],[[14822,25139],[-10,-13]],[[14812,25126],[-10,0]],[[14725,25113],[126,279]],[[14851,25459],[-10,120]],[[14841,25672],[-48,905],[-823,-27],[-222,2462]],[[13748,29012],[29,0]],[[13777,29012],[10,14]],[[13787,29026],[29,0]],[[13816,29026],[38,13]],[[13854,29039],[20,0]],[[13874,29039],[48,0]],[[13922,29039],[19,0]],[[13941,29039],[126,66]],[[14067,29105],[10,0]],[[14077,29105],[29,14]],[[14106,29119],[126,26]],[[14232,29145],[19,54]],[[14251,29199],[10,13]],[[14261,29212],[19,13]],[[14280,29225],[29,0]],[[14309,29225],[10,13]],[[14319,29238],[-10,80]],[[14309,29318],[68,14]],[[14377,29332],[9,0]],[[14386,29332],[1945,-1478]],[[14009,27295],[58,-439],[339,227],[-126,492],[-271,-280]],[[14396,27588],[68,-66],[155,26],[-68,213],[-155,-173]],[[15963,28280],[-9,40],[19,0],[-10,-26],[0,-14]],[[14967,25339],[19,-173]],[[14986,25166],[-125,-40]],[[14861,25126],[-20,13]],[[14841,25139],[-19,0]],[[14822,25139],[-20,-13]],[[14802,25126],[-58,0]],[[14744,25126],[-19,-13]],[[14725,25113],[126,279]],[[14851,25392],[0,67]],[[14851,25459],[-10,120]],[[14841,25579],[0,93]],[[14841,25672],[87,652]],[[14928,26324],[0,-27]],[[14928,26297],[10,-66]],[[14938,26231],[0,-40]],[[14938,26191],[19,-80]],[[14957,26111],[10,-40]],[[14967,26071],[48,-466]],[[15015,25605],[10,-146]],[[15025,25459],[10,-13]],[[15035,25446],[-39,-40]],[[14996,25406],[-29,-14]],[[14967,25392],[0,-53]],[[16331,27854],[29,-40]],[[16360,27814],[29,14]],[[16389,27828],[68,0]],[[16457,27828],[232,-133]],[[16689,27695],[0,-40]],[[16689,27655],[-1732,173],[-38,-1105],[-987,985],[619,972],[1780,-826]]]}