{"type":"Topology","objects":{"data":{"geometries":[{"properties":{"type":"03201","name":"03"},"type":"Polygon","arcs":[[9,0,11,1,29,2]],"id":"feature_00"},{"properties":{"type":"03201","name":"03"},"type":"Polygon","arcs":[[-41,3],[4]],"id":"feature_01"},{"properties":{"type":"03201","name":"03"},"type":"Polygon","arcs":[[5,70,6,-15,65,66,-37,68,7,-18]],"id":"feature_02"},{"properties":{"type":"03201","name":"03"},"type":"Polygon","arcs":[[-29,8,9,10,11,12]],"id":"feature_03"},{"properties":{"type":"03201","name":"03"},"type":"Polygon","arcs":[[13]],"id":"feature_04"},{"properties":{"type":"03201","name":"03"},"type":"Polygon","arcs":[[14,15,64]],"id":"feature_05"},{"properties":{"type":"03201","name":"03"},"type":"Polygon","arcs":[[44,-46,45,46,47,48,16]],"id":"feature_06"},{"properties":{"type":"03201","name":"03"},"type":"Polygon","arcs":[[17,18]],"id":"feature_07"},{"properties":{"type":"03201","name":"03"},"type":"Polygon","arcs":[[19,72,20,74,21,76,22,60,23,62,24,54,25,56,26,58,27,28]],"id":"feature_08"},{"properties":{"type":"03201","name":"03"},"type":"Polygon","arcs":[[29,30]],"id":"feature_09"},{"properties":{"type":"03201","name":"03"},"type":"Polygon","arcs":[[31]],"id":"feature_10"},{"properties":{"type":"03201","name":"03"},"type":"Polygon","arcs":[[84,32,52,33,50,34,82,35]],"id":"feature_11"},{"properties":{"type":"03201","name":"03"},"type":"Polygon","arcs":[[66,67,36,-67]],"id":"feature_12"},{"properties":{"type":"03201","name":"03"},"type":"Polygon","arcs":[[37,78,38,80,39,40]],"id":"feature_13"},{"properties":{"type":"03201","name":"03"},"type":"Polygon","arcs":[[41]],"id":"feature_14"},{"properties":{"type":"03201","name":"03"},"type":"Polygon","arcs":[[42]],"id":"feature_15"},{"properties":{"type":"03201","name":"03"},"type":"Polygon","arcs":[[43]],"id":"feature_16"},{"properties":{"type":"03201","name":"03"},"type":"Polygon","arcs":[[44,-46,45,46,47,48,49]],"id":"feature_17"},{"properties":{"type":"03201","name":"03"},"type":"Polygon","arcs":[[50,51,52,53]],"id":"feature_18"},{"properties":{"type":"03201","name":"03"},"type":"MultiPolygon","arcs":[[[54,55,56,57,58,59,60,61,62,63]],[[64,65,66,67,68,69,70,71]],[[72,73,74,75,76,77]],[[78,79,80,81]]],"id":"feature_19"},{"properties":{"type":"03201","name":"03"},"type":"Polygon","arcs":[[82,83,84,85]],"id":"feature_20"},{"properties":{"type":"03205","name":"03"},"type":"Polygon","arcs":[[86]],"id":"feature_21"},{"properties":{"type":"03205","name":"03"},"type":"Polygon","arcs":[[117,118,-119,96,87,98,88,100,89,104,105,106,107,-109,108,109,110,111,112,113,-115,114,115,90],[102,91],[92],[119],[120],[121],[122],[123]],"id":"feature_22"},{"properties":{"type":"03205","name":"03"},"type":"Polygon","arcs":[[93]],"id":"feature_23"},{"properties":{"type":"03205","name":"03"},"type":"Polygon","arcs":[[94]],"id":"feature_24"},{"properties":{"type":"03205","name":"03"},"type":"Polygon","arcs":[[95]],"id":"feature_25"},{"properties":{"type":"03205","name":"03"},"type":"Polygon","arcs":[[-119,96,97,98,99,100,101,102,103,104,105,106,107,-109,108,109,110,111,112,113,-115,114,115,116,117,118],[119],[120],[121],[122],[123]],"id":"feature_26"}],"type":"GeometryCollection"}},"bbox":[140.9826,39.324,141.3651,39.9303],"transform":{"scale":[3.82503825038272e-06,6.063060630606351e-06],"translate":[140.9826,39.324]},"arcs":[[[30457,67045],[26,33]],[[31686,67491],[471,1517],[3895,676]],[[36732,70163],[-1830,412],[3843,2837],[9281,33],[26,5162],[-1124,1270],[-3739,0],[1987,2243],[-5386,363],[-2091,3101],[-4000,-50],[-3320,6037],[9176,561],[4131,2672],[4967,692],[-3346,3959],[7215,247],[3085,-3612],[5543,-165],[2431,-1979],[-366,-2441],[-5150,165],[-3451,-4470],[1385,-2160],[-3241,-1914],[3294,-49],[2039,-2177],[4418,-1138],[-2065,-2260],[2431,-330],[-2170,-692],[4497,-2277],[3399,495],[-1255,-1962],[5307,-842],[1804,-2688],[4627,-808],[601,-1683],[8183,842],[-3189,-3662],[1908,-2408],[-2745,-1385],[1935,-776],[-1281,-1204],[6222,825],[9281,-2210],[-7346,-4288],[-8262,2193],[4889,-3298],[1124,544],[3582,-759],[-6536,-429],[3320,-1006],[-1516,-1517],[2824,0],[-3347,-1666],[3477,-3876],[-2980,-346],[1124,1237],[-4549,544],[-810,1221],[2823,808],[-1935,2441],[-3503,825],[-5150,-3233],[549,-1897],[-1830,-1633],[-889,-132],[1569,3678],[-5412,611],[1333,-1584],[-2353,528],[-522,-940],[-6092,1831],[-7451,-1369],[-4889,5426],[-7058,511],[-4994,2738],[-8183,-2771],[-9647,264],[-523,775],[4105,-346],[-863,1023],[2301,1270],[-3713,313],[1647,1616],[-2248,1056],[-1961,-940],[-5071,3513],[-837,-1897],[3503,-3381],[-3032,1155],[1045,-891],[-6274,-1105],[-5909,2837],[5778,2622],[-1673,1452],[4706,1814],[4758,-1913],[10013,2127],[-1961,825],[471,2276],[-3164,1056],[5177,-1007],[2745,198],[52,1072]],[[39921,63433],[-706,2738],[5595,5163],[3294,709],[366,-1336],[-4261,-924],[-2902,-4123],[3137,-2144]],[[41464,65907],[209,83],[0,49],[-288,-115],[79,-17]],[[43738,61256],[523,561]],[[45359,62642],[1804,379],[680,-1616]],[[47241,61124],[-1725,-330]],[[37777,62328],[-1385,545],[1281,1237],[-7242,2803]],[[30431,66913],[26,132]],[[30457,67045],[26,33]],[[30483,67078],[1203,413]],[[31686,67491],[5438,-479],[2483,-3612]],[[42326,65083],[-26,0],[26,16],[0,-16]],[[47686,61289],[157,116]],[[47843,61405],[183,-33]],[[49307,85963],[-968,-742],[-549,990]],[[43738,61256],[1778,-462]],[[45516,60794],[-1778,462]],[[39607,63400],[183,-132]],[[40392,62856],[78,-33]],[[40653,61998],[-340,215]],[[39215,62840],[-104,-50]],[[40104,62064],[52,-49]],[[39973,61932],[-888,-66]],[[39032,61883],[-104,16]],[[38875,61916],[-470,148]],[[38379,62081],[-602,247]],[[37777,62328],[1830,1072]],[[36052,69684],[680,479]],[[36732,70163],[1411,395],[1752,-263],[-941,-1848],[-2902,1237]],[[34902,62460],[1359,-495],[497,-428],[-3974,808],[2118,115]],[[43581,55533],[2510,-676],[-2797,3975],[-654,-2227],[-1882,83],[261,2325],[-3974,132],[-1228,1534]],[[35869,60695],[1020,0]],[[38326,60646],[7504,-940],[2483,-5328],[-6248,-841],[-758,1419],[1699,-33]],[[43032,55253],[79,659]],[[47451,61141],[130,66]],[[44444,63516],[732,-874]],[[39973,63351],[-52,49]],[[39921,63417],[0,16]],[[39921,63433],[4523,83]],[[51058,90515],[-235,-82],[-1229,-17],[-209,-198],[-680,594],[2353,-297]],[[47869,71630],[-79,-775],[-993,50],[26,544],[1046,181]],[[35006,66336],[-1098,-396],[-680,660],[2379,-264],[-392,-676],[-209,676]],[[47790,86211],[2144,824]],[[49908,87035],[26,0]],[[49934,87035],[-549,-956]],[[49385,86079],[26,0]],[[49411,86079],[-104,-116]],[[49307,85963],[-1517,248]],[[36889,60695],[1437,-49]],[[38326,60646],[236,-1534],[-2745,1567]],[[35817,60679],[52,16]],[[35869,60695],[1020,0]],[[39085,61866],[-53,17]],[[39032,61883],[-104,16]],[[38928,61899],[-53,17]],[[38875,61916],[-470,148]],[[38405,62064],[-26,17]],[[38379,62081],[732,709]],[[39111,62790],[993,-726]],[[40104,62064],[52,-49]],[[40156,62015],[-183,-83]],[[39973,61932],[-888,-66]],[[48026,61372],[-340,-83]],[[47686,61289],[-105,-66]],[[47581,61223],[0,-16]],[[47581,61207],[-130,-66]],[[47451,61141],[-210,-17]],[[47241,61124],[-2980,693]],[[44261,61817],[1098,825]],[[45359,62642],[2667,-1270]],[[39790,63268],[602,-412]],[[40392,62856],[78,-33]],[[40470,62823],[183,-825]],[[40653,61998],[-340,215]],[[40313,62213],[-1098,627]],[[39215,62840],[575,428]],[[45176,62642],[-3294,-973],[-1909,1682]],[[39973,63351],[-52,49]],[[39921,63400],[0,17]],[[39921,63417],[5255,-775]],[[43006,54923],[26,330]],[[43032,55253],[79,659]],[[43111,55912],[470,-379]],[[43581,55533],[-235,-1089],[4026,-16],[-4026,-610],[-340,1105]],[[58535,24212],[-862,-5542],[-2484,-973],[6327,874],[7634,-2375],[4392,347],[-863,-1419],[3137,-1517],[-2876,-594],[2353,-2078],[3713,-247],[-2301,-792],[3007,-2243],[-2484,1550],[-1569,-181],[4889,-2969],[4497,-462],[-5124,-4502],[-4471,-1089],[-680,1748],[-10797,495],[1804,1748],[-1385,809],[-5883,-1402],[-5124,445],[-2405,2408],[7320,3381],[-392,1287],[-5386,1336],[-4366,-1501],[1203,-1353],[-2562,-857],[1412,-3563],[-11974,-577],[-10170,1633],[-3137,-2326],[-3373,-280],[915,-3151],[-4941,1947],[-15503,2259],[5516,3579],[-2797,1600],[6641,1814],[183,1881],[-2746,1022],[602,4404],[-6667,6218],[7974,-6020],[1438,-2111],[-1778,-1848],[2379,-824],[7817,2375],[-627,2523],[3163,1782],[-3268,1204],[6614,-446],[2615,1847],[889,4091],[-2850,1666],[2039,2243],[6039,-1386],[15817,545],[15346,-3926],[12837,-445],[2588,2062],[5490,-5790],[-3764,-1946],[-811,1336],[-2771,-544],[-601,2540],[-3451,-907],[-2066,989],[-1777,-1171],[-5334,1650],[-3477,-1831],[-2693,1550]],[[35320,10473],[1124,17]],[[35581,9731],[-1621,330]],[[33934,10143],[-4209,-395],[1255,2111],[1569,-182],[-3660,775],[1882,-214],[1438,1864],[2614,-924],[-1961,-445],[654,-924],[3059,1369],[-2301,1023],[1856,33],[863,-858],[-52,-2095],[-2301,-66]],[[36549,10952],[-602,-297]],[[34536,11199],[-1046,445]],[[36209,10902],[-26,17],[-183,-66],[26,0],[183,49]],[[36392,11100],[0,0]],[[34536,8741],[-2353,-214],[3790,792],[1648,-660],[-3085,82]],[[44209,27461],[-1490,-445],[-680,1023],[3006,264],[-836,-842]],[[35607,10605],[-287,-132]],[[35320,10473],[1124,17]],[[36444,10490],[-863,-759]],[[35581,9731],[-1621,330]],[[33960,10061],[-26,82]],[[33934,10143],[-444,1501]],[[33490,11644],[1046,-445]],[[34536,11199],[104,16]],[[34640,11215],[628,-296]],[[35268,10919],[-27,-17],[27,0],[0,17]],[[35268,10919],[1124,181]],[[36392,11100],[52,-82]],[[36418,11018],[26,0]],[[36444,11018],[0,-17]],[[36444,11001],[-52,-49]],[[36392,10952],[-131,-17],[-26,-16],[105,0],[52,33]],[[36392,10952],[52,49]],[[36444,11001],[-26,83]],[[36392,11100],[26,-16]],[[36418,11084],[131,-132]],[[36549,10952],[-602,-297]],[[35947,10655],[-340,-50]],[[35607,10605],[27,0]],[[34405,10127],[-183,-17],[340,99],[-53,-49],[-104,-33]],[[35241,11034],[27,33],[-53,17],[26,-17],[0,-33]],[[35111,10737],[26,33],[0,17],[-52,-33],[26,-17]],[[34745,10424],[0,16],[-53,-33],[53,17]],[[34849,10556],[0,0]]]}