{"type":"Topology","objects":{"data":{"geometries":[{"properties":{"type":"02201","name":"02"},"type":"Polygon","arcs":[[274,0,264,-266,265,266,1,268,2,270,3,272,4,308,5,310,6,312,7,314,8,316,9,318,10,320,11,322,12,324,13,326,14,328,15,330,16,332,17,334,18,336,19,338,20,340,21,342,22,344,23,304,24,306,25,206,26,208,27,210,28,212,29,214,30,216,31,149,32,218,33,220,34,171,35,173,36,175,37,177,38,179,39,181,40,183,41,185,42,187,43,189,44,191,45,193,46,195,47,197,48,200,49,202,50,-205,51,257,52,259,53,-262,54,285,277,55,283,56,-80,57,-78,58,-76,59,-74,60,-72,61,-70,62,-68,63,-66,64]],"id":"feature_00"},{"properties":{"type":"02201","name":"02"},"type":"Polygon","arcs":[[65,66,67,68,69,70,71,72,73,74,75,76,77,78,79,80,-467,81,-465,82,-463,83,-461,84,-459,85,-457,86,-455,87,-453,88,-451,89,-449,90,-447,91,-492,92,-490,93,-488,94,-486,95,-484,96,-482,97,-480,98,-478,99,-476,100,-474,101,-472,102]],"id":"feature_01"},{"properties":{"type":"02201","name":"02"},"type":"MultiPolygon","arcs":[[[103]],[[104]],[[105]],[[106]],[[298,107,300,108,294,109,296,110]],[[111]],[[112]],[[113],[114],[115]],[[116]],[[117]],[[118]],[[119]],[[120]],[[121]],[[122]],[[123]],[[-128,124]],[[125]],[[126]],[[127,128,302,129],[130],[131],[132],[133],[134],[135],[136],[137],[138]],[[139],[140],[141],[142],[-148,143],[144],[145],[146],[147,148]],[[149,-150]],[[346,150,348,151,350,152,352,153,354,154,356,155,358,156],[157],[158],[159],[160],[161],[162]],[[163]],[[164]],[[165]],[[166]],[[167]],[[168]],[[169]],[[170]],[[171,172,173,174,175,176,177,178,179,180,181,182,183,184,185,186,187,188,189,190,191,-244,192,193,194,195,196,197,198,199,200,201,202,203,204,205,206,207,208,209,210,211,212,213,214,215,216,217,218,219,220,221],[222],[223],[224],[225],[226],[-293,227],[228],[229],[230],[231],[232],[233],[234],[235],[236],[237],[238],[239],[240],[241],[242],[243,244],[245],[246],[247],[248],[249],[250],[251],[252],[253]],[[254]],[[255]],[[256]],[[257,258,259,260,261,262]],[[263,264,-266,265,266,267,268,269,270,271,272,273,274],[275]],[[-281,276,277,278]],[[279]],[[280,281,282,283,284,285,286],[287],[288],[289],[290]],[[291]],[[292,293]]],"id":"feature_02"},{"properties":{"type":"02201","name":"02"},"type":"MultiPolygon","arcs":[[[294,295,296,297,298,299,300,301]],[[302,303]],[[304,305,306,307,308,309,310,311,312,313,314,315,316,317,318,319,320,321,322,323,324,325,326,327,328,329,330,331,332,333,334,335,336,337,338,339,340,341,342,343,344,345]],[[346,347,348,349,350,351,352,353,354,355,356,357,358,359]]],"id":"feature_03"},{"properties":{"type":"02202","name":"02"},"type":"Polygon","arcs":[[360]],"id":"feature_04"},{"properties":{"type":"02202","name":"02"},"type":"Polygon","arcs":[[394,361,396,362,398,363,429,364,402,365,404,366,410,-412,411,412,367,420,368],[407,369,432,370,400,371],[372,414],[416],[417],[418],[419],[373],[374],[375]],"id":"feature_05"},{"properties":{"type":"02202","name":"02"},"type":"Polygon","arcs":[[384,376,386,377]],"id":"feature_06"},{"properties":{"type":"02202","name":"02"},"type":"Polygon","arcs":[[378]],"id":"feature_07"},{"properties":{"type":"02202","name":"02"},"type":"Polygon","arcs":[[424,379,426,380]],"id":"feature_08"},{"properties":{"type":"02202","name":"02"},"type":"Polygon","arcs":[[392,381,390,382]],"id":"feature_09"},{"properties":{"type":"02202","name":"02"},"type":"Polygon","arcs":[[383]],"id":"feature_10"},{"properties":{"type":"02202","name":"02"},"type":"Polygon","arcs":[[384,385,386,387]],"id":"feature_11"},{"properties":{"type":"02202","name":"02"},"type":"Polygon","arcs":[[388]],"id":"feature_12"},{"properties":{"type":"02202","name":"02"},"type":"Polygon","arcs":[[389,390,391,392]],"id":"feature_13"},{"properties":{"type":"02202","name":"02"},"type":"Polygon","arcs":[[393]],"id":"feature_14"},{"properties":{"type":"02202","name":"02"},"type":"Polygon","arcs":[[394,395]],"id":"feature_15"},{"properties":{"type":"02202","name":"02"},"type":"Polygon","arcs":[[396,397,398,399,400,401]],"id":"feature_16"},{"properties":{"type":"02202","name":"02"},"type":"Polygon","arcs":[[402,403,404,405]],"id":"feature_17"},{"properties":{"type":"02202","name":"02"},"type":"Polygon","arcs":[[-423,406,407,408,-432,409,410,-412,411,412,413,414,415],[416],[417],[418],[419]],"id":"feature_18"},{"properties":{"type":"02202","name":"02"},"type":"Polygon","arcs":[[420,421]],"id":"feature_19"},{"properties":{"type":"02202","name":"02"},"type":"Polygon","arcs":[[422,423]],"id":"feature_20"},{"properties":{"type":"02202","name":"02"},"type":"Polygon","arcs":[[424,425,426,427]],"id":"feature_21"},{"properties":{"type":"02202","name":"02"},"type":"Polygon","arcs":[[428]],"id":"feature_22"},{"properties":{"type":"02202","name":"02"},"type":"Polygon","arcs":[[429,430]],"id":"feature_23"},{"properties":{"type":"02202","name":"02"},"type":"Polygon","arcs":[[431,432,433]],"id":"feature_24"},{"properties":{"type":"02203","name":"02"},"type":"MultiPolygon","arcs":[[[434]],[[435]],[[436]],[[437]],[[438]],[[439]],[[440]],[[441]],[[442]],[[443]],[[444]],[[445]]],"id":"feature_25"},{"properties":{"type":"02204","name":"02"},"type":"Polygon","arcs":[[446,447,448,449,450,451,452,453,454,455,456,457,458,459,460,461,462,463,464,465,466,467]],"id":"feature_26"},{"properties":{"type":"02204","name":"02"},"type":"Polygon","arcs":[[468]],"id":"feature_27"},{"properties":{"type":"02204","name":"02"},"type":"Polygon","arcs":[[469]],"id":"feature_28"},{"properties":{"type":"02204","name":"02"},"type":"Polygon","arcs":[[470]],"id":"feature_29"},{"properties":{"type":"02205","name":"02"},"type":"Polygon","arcs":[[471,472,473,474,475,476,477,478,479,480,481,482,483,484,485,486,487,488,489,490,491,492]],"id":"feature_30"},{"properties":{"type":"02205","name":"02"},"type":"Polygon","arcs":[[493,495]],"id":"feature_31"},{"properties":{"type":"02205","name":"02"},"type":"Polygon","arcs":[[494]],"id":"feature_32"},{"properties":{"type":"02205","name":"02"},"type":"Polygon","arcs":[[495,496]],"id":"feature_33"},{"properties":{"type":"02206","name":"02"},"type":"Polygon","arcs":[[507,-506,509,-505,511,-504,513,-503,515,-502,517,-501,519,-500,521,-499,523,-507]],"id":"feature_34"},{"properties":{"type":"02206","name":"02"},"type":"Polygon","arcs":[[497],[-524,498,-522,499,-520,500,-518,501,-516,502,-514,503,-512,504,-510,505,-508,506]],"id":"feature_35"},{"properties":{"type":"02206","name":"02"},"type":"Polygon","arcs":[[507,508,509,510,511,512,513,514,515,516,517,518,519,520,521,522,523,524,530,525,535,526,538,527]],"id":"feature_36"},{"properties":{"type":"02206","name":"02"},"type":"Polygon","arcs":[[528,533,529,537]],"id":"feature_37"},{"properties":{"type":"02206","name":"02"},"type":"MultiPolygon","arcs":[[[530,531,532,533,534,535,536,537,538,539]],[[540]]],"id":"feature_38"},{"properties":{"type":"02208","name":"02"},"type":"Polygon","arcs":[[541]],"id":"feature_39"},{"properties":{"type":"02208","name":"02"},"type":"Polygon","arcs":[[617,542,619,543,621,544,623,545,625,546,577,547,579,548,581,549,583,550,599,551,601,552,603,553,605,554,607,555,609,556,611,557,613,558,615,559]],"id":"feature_40"},{"properties":{"type":"02208","name":"02"},"type":"Polygon","arcs":[[593,560,595,561,597,562,591,563,585,564,587,565,589,566]],"id":"feature_41"},{"properties":{"type":"02208","name":"02"},"type":"Polygon","arcs":[[627,567,629,568,631,569,633,570,635,571,637,572,639,573,641,574,643,575]],"id":"feature_42"},{"properties":{"type":"02208","name":"02"},"type":"Polygon","arcs":[[576]],"id":"feature_43"},{"properties":{"type":"02208","name":"02"},"type":"Polygon","arcs":[[577,578,579,580,581,582,583,584]],"id":"feature_44"},{"properties":{"type":"02208","name":"02"},"type":"Polygon","arcs":[[585,586,587,588,589,590,591,592]],"id":"feature_45"},{"properties":{"type":"02208","name":"02"},"type":"Polygon","arcs":[[593,594,595,596,597,598]],"id":"feature_46"},{"properties":{"type":"02208","name":"02"},"type":"Polygon","arcs":[[599,600,601,602,603,604,605,606,607,608,609,610]],"id":"feature_47"},{"properties":{"type":"02208","name":"02"},"type":"Polygon","arcs":[[611,612,613,614,615,616,617,618,619,620,621,622,623,624,625,626]],"id":"feature_48"},{"properties":{"type":"02208","name":"02"},"type":"Polygon","arcs":[[627,628,629,630,631,632,633,634,635,636,637,638,639,640,641,642,643,644]],"id":"feature_49"}],"type":"GeometryCollection"}},"bbox":[140.2678,40.4097,141.646,41.4216],"transform":{"scale":[1.378213782137814e-05,1.0119101191011881e-05],"translate":[140.2678,40.4097]},"arcs":[[[31149,44075],[36,-39]],[[31258,43937],[174,-218]],[[31505,43640],[14,-10]],[[31628,43532],[22,-20]],[[31657,43512],[958,-257],[1124,-1700]],[[33768,41555],[8,89]],[[33776,41703],[7,10]],[[33790,41723],[22,10]],[[33826,41763],[29,29]],[[33899,41812],[36,10]],[[33957,41832],[196,108]],[[34211,41931],[-131,-89]],[[34080,41832],[15,10]],[[34117,41832],[-167,-178]],[[33957,41644],[7,10]],[[33986,41644],[15,-20]],[[33993,41624],[-94,-99]],[[33942,41535],[51,-19]],[[34124,41535],[189,89]],[[34320,41634],[167,-59]],[[34537,41575],[-7,-50]],[[34610,41525],[80,149]],[[34886,41753],[-37,-30]],[[34784,41713],[-36,-109]],[[34755,41555],[174,-20]],[[34937,41506],[2401,227]],[[37345,41763],[8,9]],[[37360,41772],[58,-9]],[[37505,41792],[65,20]],[[37592,41822],[44,20]],[[37657,41842],[15,10]],[[37679,41852],[486,237]],[[38180,42089],[29,19]],[[38216,42108],[15,10]],[[38252,42118],[138,79]],[[38405,42207],[80,50]],[[38514,42276],[29,20]],[[38601,42336],[14,10]],[[38651,42375],[22,10]],[[38688,42395],[22,20]],[[38724,42425],[22,19]],[[38760,42454],[22,20]],[[38804,42494],[145,118]],[[38971,42632],[21,20]],[[39167,42820],[101,99]],[[39290,42939],[22,19]],[[39334,42978],[7,10]],[[39348,43008],[58,99]],[[39421,43126],[43,50]],[[39486,43205],[7,20]],[[39522,43255],[65,118]],[[39580,43373],[196,159]],[[39856,43611],[94,98]],[[39958,43709],[21,30]],[[39972,43739],[2924,3469]],[[42998,47376],[36,336]],[[42976,48117],[-377,652],[1944,-99],[-921,-1423],[1233,-484],[-2039,-287],[-159,-741],[1327,-128],[-1015,-267],[21,-1611],[762,-306],[-972,-30],[1538,-909],[-587,-1146],[-1285,553],[-384,-237],[500,-336],[-645,-306],[1008,-1285],[-1320,-1255],[660,-1739],[-1538,-574],[-2409,781],[885,-2046],[1197,-919],[-210,-662],[-1800,139],[320,-1582],[-2090,119],[-73,-978],[748,-425],[-624,-376],[-1517,50],[-1081,1235],[261,-850],[-653,-148],[-994,1126],[-972,-405]],[[31671,31198],[-43,-29]],[[31577,31198],[-29,20]],[[31432,31287],[-51,20]],[[30859,31386],[-51,-10]],[[30017,31722],[-51,30]],[[29662,32038],[-15,10]],[[29466,32117],[-22,10]],[[29125,32236],[-327,1156],[972,1206],[-1596,711],[-399,781],[327,2560],[-465,691],[-1066,-217],[638,820],[-1386,573],[479,821],[-725,474],[2285,1917],[-733,5485],[2351,-129],[1118,-4229]],[[29125,32236],[319,-109]],[[29444,32127],[22,-10]],[[29466,32117],[181,-69]],[[29647,32048],[15,-10]],[[29662,32038],[304,-286]],[[29966,31752],[51,-30]],[[30017,31722],[791,-346]],[[30808,31376],[51,10]],[[30859,31386],[522,-79]],[[31381,31307],[51,-20]],[[31432,31287],[116,-69]],[[31548,31218],[29,-20]],[[31577,31198],[51,-29]],[[31628,31169],[43,29]],[[31671,31198],[44,20]],[[31715,31218],[276,-533],[-2946,-20],[450,-702],[-523,-306],[-1756,188],[494,-1661],[-1139,-484]],[[26549,27700],[-726,-237]],[[25794,27463],[-130,0]],[[25606,27463],[-109,49]],[[25475,27512],[-254,-69]],[[25221,27532],[-631,148]],[[24590,27750],[-864,108]],[[23596,27838],[-363,-108]],[[23211,27730],[-109,-60]],[[23073,27661],[-108,-10]],[[22914,27651],[-196,-139]],[[22689,27483],[-1546,29],[-638,-1808],[-769,1739],[841,722],[-2155,2628],[-50,900]],[[18408,31702],[450,761]],[[18880,32404],[391,-20]],[[19344,32384],[813,544]],[[20178,32938],[733,583]],[[20911,33550],[29,40]],[[20940,33610],[0,178]],[[20940,33797],[44,30]],[[20991,33837],[14,40]],[[21005,33896],[124,494]],[[21136,34390],[196,129]],[[21368,34539],[835,158],[1182,2184],[1031,-1048],[820,-2599],[1799,-988],[2090,-10]],[[23102,29123],[0,0]],[[23110,29153],[0,0],[0,0]],[[23349,29963],[0,0]],[[23327,29963],[0,0]],[[23857,29637],[-36,-30]],[[23799,29578],[-1589,-336],[1241,771]],[[23480,30003],[43,-20]],[[23581,30013],[370,-356]],[[23559,30062],[-7,20],[22,-10],[-7,0],[-8,-10]],[[22544,29983],[79,39],[-457,-721],[-101,632],[479,50]],[[23030,30358],[268,-49],[196,-227],[-849,-129],[385,405]],[[22761,30210],[-7,-39],[87,0],[0,39],[-80,0]],[[22747,30062],[0,-20],[29,0],[0,30],[-29,-10]],[[22986,30368],[-116,0],[-87,-49],[58,99],[145,-50]],[[22819,30408],[-116,-168],[-50,0],[58,188],[108,-20]],[[37360,37671],[363,-859],[-523,-376],[-413,573],[573,662]],[[35952,37928],[160,-444],[-239,-307],[-414,603],[493,148]],[[31708,39005],[0,0]],[[39290,39035],[363,-761],[-958,-326],[-225,899],[820,188]],[[36642,40162],[355,-1917],[247,-218],[-1190,623],[160,1531],[428,-19]],[[32346,40844],[-43,79],[348,326],[116,-336],[-421,-69]],[[35408,41308],[7,0]],[[35691,41446],[7,-49],[0,-30],[-43,40],[36,39]],[[29727,41871],[0,0]],[[35408,41308],[7,0]],[[35415,41308],[690,-672],[-80,-1947],[-472,1077]],[[35561,39727],[333,-1591],[-878,-771],[501,702],[-1531,237],[-356,1887],[-1487,-1828],[-631,158],[1850,2145],[-697,593],[712,632],[2031,-583]],[[35669,41249],[8,-10],[0,20],[-8,0],[0,-10]],[[35698,41229],[0,-10],[8,0],[0,10],[-8,0]],[[31729,38867],[15,-10],[0,50],[-22,-10],[7,-30]],[[31853,38788],[22,-49],[50,10],[-36,49],[-36,-10]],[[31846,38669],[-15,-59],[87,-10],[-43,119],[-29,-50]],[[32070,38501],[8,-88],[-66,-40],[109,49],[-51,79]],[[35045,39351],[-442,0],[-44,-484],[617,-30],[-131,514]],[[35510,41377],[0,10],[-22,0],[7,-20],[15,10]],[[35517,41436],[0,10],[-7,0],[0,-10],[7,0]],[[29727,41871],[-399,-672],[-987,-375],[464,998],[922,49]],[[29284,41772],[-7,-39],[22,-10],[14,49],[-29,0]],[[29270,41753],[-15,-10],[0,-10],[15,0],[0,20]],[[28972,41713],[-123,0],[-58,-59],[181,20],[0,39]],[[28820,41357],[14,-59],[254,-69],[145,178],[-406,-50]],[[28762,41249],[-73,29],[-87,-39],[124,-30],[36,40]],[[28602,41209],[-65,0],[-22,-29],[29,-20],[58,49]],[[28805,41259],[-7,69],[-43,0],[14,-30],[36,-39]],[[28820,41357],[7,0]],[[28827,41357],[-7,0]],[[38165,42089],[15,0]],[[30685,41881],[377,-10]],[[31127,41871],[131,-29]],[[31287,41852],[130,-50]],[[31432,41802],[-7,59]],[[31432,41960],[7,30]],[[31476,42049],[14,30]],[[31592,42020],[1248,-564],[-3701,-830],[406,949],[1067,306]],[[29422,41249],[7,-20],[8,10],[-8,20],[-7,-10]],[[29379,41239],[-15,0],[-7,-20],[22,-10],[0,30]],[[29799,41091],[-36,-70],[15,-69],[21,0],[0,139]],[[29379,41002],[-44,-30],[58,-128],[29,29],[-43,129]],[[29582,40913],[7,0],[0,29],[-22,-10],[15,-19]],[[29299,40725],[-73,-40],[44,-79],[65,70],[-36,49]],[[38289,42138],[0,0]],[[38427,42227],[0,0]],[[38441,42227],[0,0]],[[38470,42247],[0,0]],[[38898,42573],[0,0]],[[38934,42603],[0,-10],[-7,0],[7,10]],[[32600,42533],[94,168],[675,-761],[-428,-385],[-805,1008],[464,-30]],[[39537,43275],[0,9],[7,0],[0,-9],[-7,0]],[[38390,42197],[15,10]],[[38405,42207],[80,50]],[[38485,42257],[29,19]],[[38514,42276],[29,20]],[[38543,42296],[58,40]],[[38601,42336],[14,10]],[[38615,42346],[36,29]],[[38651,42375],[22,10]],[[38673,42385],[15,10]],[[38688,42395],[22,20]],[[38710,42415],[14,10]],[[38724,42425],[22,19]],[[38746,42444],[14,10]],[[38760,42454],[22,20]],[[38782,42474],[22,20]],[[38804,42494],[145,118]],[[38949,42612],[22,20]],[[38971,42632],[21,20]],[[38992,42652],[175,168]],[[39167,42820],[101,99]],[[39268,42919],[22,20]],[[39297,42939],[15,19]],[[39312,42958],[22,20]],[[39334,42978],[7,10]],[[39341,42988],[7,20]],[[39348,43008],[58,99]],[[39406,43107],[15,19]],[[39421,43126],[43,50]],[[39464,43176],[0,-10],[-7,0],[0,10],[7,0]],[[39464,43176],[22,29]],[[39486,43205],[7,20]],[[39493,43225],[29,30]],[[39522,43255],[58,118]],[[39580,43373],[7,0]],[[39587,43373],[-399,-1314],[711,-405],[-1349,-1245],[-298,573],[-43,20],[559,-1107],[-1647,-1216],[-1350,2550],[1567,504]],[[37338,41733],[7,30]],[[37345,41763],[8,9]],[[37353,41772],[7,0]],[[37360,41772],[58,-9]],[[37418,41763],[87,29]],[[37505,41792],[65,20]],[[37570,41812],[22,10]],[[37592,41822],[44,20]],[[37636,41842],[21,0]],[[37657,41842],[15,10]],[[37672,41852],[7,0]],[[37679,41852],[530,256]],[[38209,42108],[7,0]],[[38216,42108],[15,10]],[[38231,42118],[21,0]],[[38252,42118],[138,79]],[[38441,41822],[-58,-237],[210,-119],[-101,168],[-51,188]],[[37309,41496],[0,10],[-7,0],[0,-10],[7,0]],[[37309,41545],[0,10],[-7,0],[0,-20],[7,10]],[[37309,41565],[0,10],[-7,0],[0,-10],[7,0]],[[37367,41654],[0,10],[-7,0],[0,-10],[7,0]],[[37389,41684],[7,0]],[[37462,41703],[0,10],[-8,0],[0,-10],[8,0]],[[37469,41733],[0,10],[-22,0],[7,-20],[15,10]],[[37585,41802],[0,10],[-7,0],[0,-10],[7,0]],[[38020,41456],[0,-10],[15,0],[0,10],[-15,0]],[[38035,41427],[0,-10],[7,0],[0,19],[-7,-9]],[[37462,40952],[195,-425],[501,465],[-551,128],[-145,-168]],[[36939,40903],[-326,-89],[-458,-69],[683,-593],[101,751]],[[38332,42148],[0,10],[-7,0],[0,-10],[7,0]],[[38398,42158],[0,-10],[14,0],[0,10],[-14,0]],[[38390,42178],[0,10],[-14,0],[0,-10],[14,0]],[[38485,42188],[0,9],[-22,0],[0,-9],[22,0]],[[38514,42227],[0,0]],[[39246,42257],[0,10],[-21,0],[0,-10],[21,0]],[[38963,42474],[0,10],[-14,0],[0,-10],[14,0]],[[38992,42593],[8,0],[0,10],[-8,0],[-7,-20],[7,10]],[[39297,42939],[-7,0]],[[39290,42939],[7,0]],[[39319,42939],[0,9],[-7,0],[0,-9],[7,0]],[[39355,42978],[29,-10],[0,20],[-21,10],[-8,-20]],[[39428,43028],[-22,9],[0,-19],[22,-10],[0,20]],[[39450,43126],[0,10],[-8,0],[0,-10],[8,0]],[[39566,43186],[0,10],[-15,0],[0,-10],[15,0]],[[39595,43225],[7,10],[-36,-30],[29,0],[0,20]],[[39587,43235],[0,10],[-7,0],[0,-10],[7,0]],[[39616,43284],[0,10],[-14,0],[0,-10],[14,0]],[[39602,43304],[0,0]],[[39609,43383],[-7,0],[0,20],[7,0],[0,-20]],[[39602,43403],[-7,0],[0,10],[7,0],[0,-10]],[[39689,43492],[-7,0],[7,10],[0,-10]],[[39776,43532],[80,79]],[[39856,43611],[94,98]],[[39950,43709],[8,0]],[[39958,43709],[14,30]],[[39972,43739],[7,0]],[[39979,43739],[-203,-207]],[[31149,44075],[36,-39]],[[31185,44036],[37,-60]],[[31222,43986],[0,-10]],[[31222,43976],[36,-39]],[[31258,43937],[174,-218]],[[31432,43719],[73,-79]],[[31505,43640],[14,-10]],[[31519,43630],[109,-98]],[[31628,43532],[22,-20]],[[31650,43512],[7,0]],[[31657,43512],[283,-820],[-1937,869],[-102,929],[697,366]],[[30598,44856],[551,-781]],[[31454,43344],[0,-10],[14,0],[0,10],[-14,0]],[[43034,47326],[-44,30]],[[42990,47356],[8,20]],[[42998,47376],[43,-50]],[[43223,47751],[0,0]],[[43034,47326],[7,0]],[[43041,47326],[-43,50]],[[42998,47376],[36,336]],[[43034,47712],[-58,405]],[[42976,48117],[675,-998],[-755,89]],[[42896,47208],[94,148]],[[42990,47356],[44,-30]],[[43099,47297],[0,-10],[29,0],[-36,20],[7,-10]],[[43128,47386],[0,10],[-14,0],[0,-10],[14,0]],[[43092,47751],[-7,-39],[22,0],[0,20],[-15,19]],[[43056,47741],[0,10],[-15,0],[0,-10],[15,0]],[[29096,41259],[0,0]],[[37389,41684],[7,0]],[[37396,41684],[-7,0]],[[23451,30013],[29,-10]],[[23480,30003],[43,-20]],[[23523,29983],[58,30]],[[23581,30013],[370,-356]],[[23951,29657],[-94,-20]],[[23857,29637],[-36,-30]],[[23821,29607],[-22,-29]],[[23799,29578],[-1379,-109],[1031,544]],[[35553,39766],[8,-39]],[[35561,39727],[312,-356],[-581,306],[152,-612],[-283,29],[22,643],[-609,148],[-261,207],[-349,386],[639,-494],[464,533],[486,-751]],[[34748,41604],[7,-49]],[[34755,41555],[174,-20]],[[34929,41535],[8,-29]],[[34937,41506],[-218,-801],[-1560,959],[580,-109]],[[33739,41555],[29,0]],[[33768,41555],[8,89]],[[33776,41644],[0,59]],[[33776,41703],[7,10]],[[33783,41713],[7,10]],[[33790,41723],[22,10]],[[33812,41733],[14,30]],[[33826,41763],[29,29]],[[33855,41792],[44,20]],[[33899,41812],[36,10]],[[33935,41822],[22,10]],[[33957,41832],[196,108]],[[34153,41940],[58,-9]],[[34211,41931],[-131,-89]],[[34080,41842],[0,-10]],[[34080,41832],[15,10]],[[34095,41842],[22,-10]],[[34117,41832],[-167,-178]],[[33950,41654],[7,-10]],[[33957,41644],[7,10]],[[33964,41654],[22,-10]],[[33986,41644],[15,-20]],[[34001,41624],[-8,0]],[[33993,41624],[-94,-99]],[[33899,41525],[43,10]],[[33942,41535],[51,-19]],[[33993,41516],[131,19]],[[34124,41535],[189,89]],[[34313,41624],[7,10]],[[34320,41634],[167,-59]],[[34487,41575],[50,0]],[[34537,41575],[-7,-50]],[[34530,41525],[80,0]],[[34610,41525],[80,149]],[[34690,41674],[196,79]],[[34886,41753],[-37,-30]],[[34849,41723],[-65,-10]],[[34784,41713],[-36,-109]],[[30612,41881],[73,0]],[[30685,41881],[377,-10]],[[31062,41871],[65,0]],[[31127,41871],[131,-29]],[[31258,41842],[29,10]],[[31287,41852],[130,-50]],[[31417,41802],[15,0]],[[31432,41802],[-7,59]],[[31425,41861],[7,99]],[[31432,41960],[7,30]],[[31439,41990],[37,59]],[[31476,42049],[14,30]],[[31490,42079],[102,-59]],[[31592,42020],[283,-742],[-1263,603]],[[13525,25259],[1719,-1947],[1176,485],[1436,-3489],[-362,-198],[94,-227],[1052,227],[109,-3468],[907,-376],[-617,-336],[617,-1225],[885,-306],[849,998],[1611,-722],[-871,119],[-145,-1571],[-1241,642],[-188,-1374],[-653,988],[-733,-1877],[-182,1028],[-798,-554],[-2902,1621],[-1495,-2500],[-754,721],[-523,-751],[-1386,395],[-689,2135],[131,4309],[-2946,-218],[-174,1206],[-653,296],[-2794,-39],[392,-168],[-1400,-564],[-2997,1878],[501,1186],[2024,-820],[167,761],[2097,-257],[3084,2451],[2720,-455],[2932,1996]],[[15876,20466],[645,-692]],[[16616,19636],[7,-20]],[[16659,19419],[443,-1048],[-740,-188],[-109,-1265],[609,-563],[-413,-217]],[[16434,16128],[-1342,-761],[-1074,2303],[-725,-495],[406,-751],[-566,-89]],[[13097,16345],[-29,10]],[[13075,16464],[-167,711],[1059,929],[-616,287],[624,494]],[[13953,18984],[-965,-50]],[[12763,19132],[2024,1028],[457,1364],[559,-60],[-87,-830]],[[15643,19211],[15,-59]],[[15723,19023],[610,504]],[[16449,19755],[-806,-524]],[[14033,19073],[-15,-40]],[[14424,18025],[22,-19],[15,39],[-29,20],[-8,-40]],[[14388,17926],[22,-9],[29,69],[-22,0],[-29,-60]],[[13322,16553],[7,-30],[22,0],[-8,40],[-21,-10]],[[10898,20278],[29,10]],[[10876,20348],[588,464],[-51,-711]],[[16667,21030],[65,-30],[-305,-445],[29,949],[211,-474]],[[17029,19261],[1052,-70],[-689,-217]],[[17363,18974],[-326,217]],[[13764,21128],[305,-662]],[[14018,20446],[-399,939]],[[15731,18104],[210,60],[305,-465],[-617,59],[-210,327],[312,19]],[[11413,20101],[-515,177]],[[10898,20278],[29,10]],[[10927,20288],[-51,60]],[[10876,20348],[537,-247]],[[14715,17640],[246,237],[44,-484],[-254,128],[-36,119]],[[13764,21128],[305,-662]],[[14069,20466],[-51,-20]],[[14018,20446],[-399,939]],[[13619,21385],[145,-257]],[[15701,16444],[-282,326],[304,356],[145,-168],[-167,-514]],[[15716,20634],[160,-168]],[[15876,20466],[-748,-168],[552,267],[-211,514],[247,-445]],[[16521,19774],[95,-138]],[[16616,19636],[7,-20]],[[16623,19616],[36,-197]],[[16659,19419],[-326,108]],[[16333,19527],[116,228]],[[16449,19755],[72,19]],[[13133,16335],[-36,10]],[[13097,16345],[-29,10]],[[13068,16355],[7,109]],[[13075,16464],[58,-129]],[[15469,19320],[174,-89]],[[15643,19231],[0,-20]],[[15643,19211],[15,-59]],[[15854,18440],[-849,119],[80,-880],[-1110,1206]],[[13975,18885],[-22,89]],[[13960,18974],[-7,0]],[[13953,18974],[0,10]],[[13953,18984],[65,49]],[[14018,19033],[15,40]],[[14033,19073],[14,1008],[1132,-672]],[[14562,18539],[8,0],[0,20],[-8,0],[0,-20]],[[14584,18549],[29,-49],[22,0],[-15,39],[-36,10]],[[14628,18440],[14,0],[-14,50],[-15,-20],[15,-30]],[[14628,18401],[7,0],[0,39],[-22,-10],[15,-29]],[[12988,18934],[-225,198]],[[12763,19132],[326,-128],[87,326],[88,108],[58,-69],[-167,-425],[-167,-10]],[[15469,19320],[-290,89]],[[15179,19409],[646,375],[-356,-464]],[[17037,19191],[-8,70]],[[17029,19261],[936,49],[-573,-336]],[[17392,18974],[-29,0]],[[17363,18974],[-326,217]],[[15295,16918],[-442,-415],[-385,850],[834,69],[-7,-504]],[[16449,16138],[-15,-10]],[[16434,16128],[-355,366],[370,-356]],[[15854,18440],[-196,712]],[[15658,19152],[65,-129]],[[15723,19023],[951,-148],[-820,-435]],[[91952,15150],[58,-722],[595,-622],[-602,612],[-51,732]],[[93026,13549],[-7,0],[0,10],[7,-10]],[[93019,13559],[-29,59],[14,188],[15,-247]],[[93026,13549],[116,-60],[552,-138],[-639,148],[-29,50]],[[91502,12985],[22,-701],[-537,504],[189,622],[326,-425]],[[94622,13114],[1343,-2214],[2938,-2293],[1096,-2193],[-3033,-1137],[-798,484],[80,919],[-1800,178],[-928,-563],[-690,-2115],[-1843,613],[-196,-4793],[-377,959],[363,1205],[-646,79],[443,524],[-1872,-247],[-1031,880],[-2394,-1147],[733,1621],[-1850,1018],[-588,1650],[-1342,-247],[-1393,1937],[-95,1097],[-1226,-919],[-660,1107],[29,1097],[4912,2332],[-864,533],[617,613],[261,-692],[-203,1226],[145,-227],[116,-89],[138,0],[-544,2035],[-805,-128],[399,978],[3729,1937],[1299,-3310],[3301,-1137],[-2619,751],[-450,-464],[1096,-435],[123,-1008],[914,524],[-783,-1048],[834,119],[537,-1137],[1125,-365],[2459,1492]],[[93070,12768],[-15,0],[-138,39],[153,-39]],[[93070,12768],[304,-40],[-275,30],[-29,10]],[[92656,12531],[-43,-40],[-66,10],[109,30]],[[92547,12501],[-515,30],[-87,99],[218,-99],[384,-30]],[[92656,12531],[138,108],[-116,-98],[-22,-10]],[[88020,17324],[-8,0],[-50,128],[58,-128]],[[22689,27483],[29,29]],[[22718,27512],[196,139]],[[22914,27651],[51,0]],[[22965,27651],[108,10]],[[23073,27661],[29,9]],[[23102,27670],[109,60]],[[23211,27730],[22,0]],[[23233,27730],[363,108]],[[23596,27838],[130,20]],[[23726,27858],[864,-108]],[[24590,27750],[0,-70]],[[24590,27680],[631,-148]],[[25221,27532],[0,-89]],[[25221,27443],[254,69]],[[25475,27512],[22,0]],[[25497,27512],[109,-49]],[[25606,27463],[58,0]],[[25664,27463],[130,0]],[[25794,27463],[29,0]],[[25823,27463],[726,237]],[[26549,27700],[22,0]],[[26571,27700],[537,-1324],[-407,-524],[784,-1245],[-544,-237],[1168,-1957],[3091,138],[145,-1116],[1255,-662],[-43,-2105],[-1880,-257],[-1792,800],[87,-1047],[-704,-1078],[-428,1147],[-3257,1798],[348,465],[-2765,2055],[58,1325],[-595,484],[733,395],[-566,850],[893,1878]],[[23015,22581],[283,158],[305,-286],[-254,-257],[-334,385]],[[23451,22769],[-617,543],[305,504],[682,860],[972,-79],[51,-1729],[-1393,-99]],[[23734,22887],[-385,129],[298,860],[362,-406],[-275,-583]],[[21368,34539],[-36,-20]],[[21332,34519],[-196,-129]],[[21136,34390],[-7,0]],[[21129,34390],[-124,-494]],[[21005,33896],[0,-19]],[[21005,33877],[-14,-40]],[[20991,33837],[-7,-10]],[[20984,33827],[-44,-30]],[[20940,33797],[0,-9]],[[20940,33788],[0,-178]],[[20940,33610],[0,-20]],[[20940,33590],[-29,-40]],[[20911,33550],[0,-29]],[[20911,33521],[-733,-583]],[[20178,32938],[-21,-10]],[[20157,32928],[-813,-544]],[[19344,32384],[-73,0]],[[19271,32384],[-391,20]],[[18880,32404],[-22,59]],[[18858,32463],[-450,-761]],[[18408,31702],[-36,-9]],[[18372,31693],[-646,494],[87,2213],[-1379,-178],[-333,1305],[-1016,-1295],[-980,514],[-203,939],[-1067,49],[-638,1335],[94,2450],[-1219,119],[341,1008],[-1770,2757],[-73,1759],[552,544],[-269,889],[1321,633],[-102,958],[581,959],[493,-4526],[261,1265],[1996,-277],[-66,-1077],[755,89],[-109,-238],[-1378,-9],[-661,751],[595,-771],[711,-435],[2612,613],[327,1126],[160,-1136],[1364,1255],[-479,-1502],[1647,-247],[-1814,-1502],[1661,-396],[-1219,-257],[182,-672],[-675,-563],[3164,20],[-2525,-475],[769,-276],[-1314,-751],[1901,128],[66,-790],[-1060,-1048],[820,217],[-805,-454],[297,-1631],[719,-514],[754,1107],[22,1127],[675,1107],[-544,-1651],[522,-1383],[-414,-158],[886,-307],[-581,-365]],[[13162,39658],[326,504],[341,-692],[-442,-1581],[-813,1383]],[[13387,37731],[196,474],[167,-198],[-44,-138],[-319,-138]],[[12574,39272],[588,386]],[[13162,39658],[-588,-386]],[[59788,20792],[2517,2244],[1292,-356],[762,1047],[-675,692],[1037,1651],[915,-40],[29,988],[6762,1819],[-174,-1631],[580,-1601],[-616,-1729],[1458,-593],[-1589,-801],[334,-573],[-639,-1235],[1263,-326],[181,-1414],[1234,-217],[-617,-1097],[1379,-1868],[-2177,-3290],[-276,523],[-1959,-484],[-486,741],[-1952,-464],[-1756,2302],[269,2362],[-1234,1463],[-2082,-909],[-1589,286],[-2191,2510]],[[69532,20763],[15,10]],[[69576,20773],[58,-20]],[[69655,20753],[189,-69]],[[69859,20684],[108,0]],[[69982,20664],[43,-20]],[[70033,20644],[94,-10]],[[70127,20664],[210,-50]],[[70352,20614],[109,-9]],[[70548,20605],[-1030,1393],[-3955,-2036],[1074,-49],[994,-1542],[675,425],[2742,-1057],[-1023,800],[-210,1117],[464,534],[-827,573]],[[70548,20605],[-87,0]],[[70461,20605],[-109,9]],[[70352,20614],[-15,0]],[[70337,20614],[-210,50]],[[70127,20664],[0,-30]],[[70127,20634],[-94,10]],[[70033,20644],[-8,0]],[[70025,20644],[-43,20]],[[69982,20664],[-15,20]],[[69967,20684],[-108,0]],[[69859,20684],[-15,0]],[[69844,20684],[-189,69]],[[69655,20753],[-21,0]],[[69634,20753],[-58,20]],[[69576,20773],[-29,0]],[[69547,20773],[-15,-10]],[[69532,20763],[-80,0]],[[69452,20763],[-174,-445]],[[69401,18697],[-587,-375],[-1016,850]],[[67363,19122],[-400,1255],[1198,504]],[[68792,21010],[1437,237],[319,-642]],[[68161,20881],[936,-929],[-1038,-316]],[[67870,19518],[581,840],[-290,504]],[[69278,20318],[123,-1621]],[[69401,18697],[0,0]],[[69401,18697],[-1342,939]],[[68059,19636],[-189,-118]],[[67870,19518],[-674,454],[602,-800]],[[67798,19172],[-435,-50]],[[67363,19122],[-298,959],[1096,781]],[[68161,20862],[0,19]],[[68161,20881],[631,129]],[[68792,21010],[1023,69],[-537,-761]],[[67950,19290],[0,0]],[[64018,89445],[1473,118],[-907,771],[2053,-148],[-1125,1018],[66,1166],[-1306,257],[1102,1018],[-776,464],[363,395],[-675,-118],[1016,1551],[-1524,-415],[-188,959],[-1205,583],[1691,2935],[1872,-1275],[-646,218],[791,-1028],[377,306],[-348,-464],[1429,-1562],[3527,-2312],[188,-771],[-929,-1799],[530,-266],[-1335,-1838],[1480,-159],[588,-1166],[-552,-4951],[1357,-583],[922,-3152],[1016,721],[362,-978],[-631,-326],[929,-139],[-319,-593],[725,-701],[-421,-1779],[-870,-287],[43,-1215],[-326,-50],[-581,-672],[-87,40],[44,1631],[-1321,4041],[-2851,4685],[-1597,1709],[-682,425],[-283,-267],[-246,79],[246,-69],[334,475],[-813,-178],[646,800],[-2097,-929],[-1756,-3152],[806,-346],[1001,2115],[-1001,-2787],[-2155,-1996],[-1226,-119],[-189,-366],[-472,-88],[-145,-218],[-464,-207],[-435,-307],[43,-79],[-109,-89],[-7,10],[123,2006],[-660,465],[-501,1452],[204,-454],[442,-563],[1045,1334],[-87,1551],[1516,-642],[733,1403],[588,-623],[1197,682],[131,2135],[1422,810],[-1480,732],[1306,138],[-399,1028]],[[68502,87330],[-15,-10]],[[68473,87320],[-73,-20]],[[68393,87300],[-203,-69]],[[68168,87231],[-87,-10]],[[67704,87241],[-530,-69]],[[67167,87152],[-109,-69]],[[66993,87053],[-254,-405]],[[66673,86539],[-167,109]],[[66412,86648],[-1299,-573]],[[65099,86075],[-269,-40]],[[64750,86184],[88,19]],[[64917,86203],[80,20]],[[65062,86243],[-43,188]],[[65012,86450],[-109,70]],[[64917,86608],[639,840],[2699,267]],[[68277,87725],[43,20]],[[68364,87775],[29,19]],[[68407,87814],[-65,554],[878,-188],[-254,-1226],[-450,386]],[[68785,86510],[-109,-70]],[[68589,86411],[-116,-20]],[[68386,86282],[-697,-820],[-965,1018]],[[66753,86520],[1321,474]],[[68110,87033],[72,70]],[[68175,87162],[218,109]],[[68400,87271],[406,-742]],[[64867,97637],[-378,-198]],[[64409,97449],[-14,10]],[[64366,97469],[-29,20]],[[64301,97519],[-15,29]],[[64272,97607],[348,485]],[[64634,98092],[276,79]],[[65091,98191],[59,19]],[[65266,98250],[-44,118]],[[65462,98260],[370,-504],[-922,19]],[[69206,88200],[-233,-30],[-101,286],[225,20],[109,-276]],[[67174,87172],[-7,-20]],[[67167,87152],[-109,-69]],[[67058,87083],[-65,-30]],[[66993,87053],[-254,-405]],[[66739,86648],[-66,-109]],[[66673,86539],[-167,109]],[[66506,86648],[-94,0]],[[66412,86648],[-530,-99],[501,850],[791,-227]],[[68074,86994],[36,39]],[[68110,87033],[72,70]],[[68182,87103],[-7,59]],[[68175,87162],[218,109]],[[68393,87271],[7,0]],[[68400,87271],[-943,-1562],[-733,771]],[[66724,86480],[29,40]],[[66753,86520],[1321,474]],[[68806,86529],[-21,-19]],[[68785,86510],[-109,-70]],[[68676,86440],[-87,-29]],[[68589,86411],[-116,-20]],[[68473,86391],[-87,-109]],[[68386,86282],[72,583],[348,-336]],[[65113,86075],[-14,0]],[[65099,86075],[-269,-40]],[[64830,86035],[-80,149]],[[64750,86184],[88,19]],[[64838,86203],[79,0]],[[64917,86203],[80,20]],[[64997,86223],[65,20]],[[65062,86243],[-43,188]],[[65019,86431],[-7,19]],[[65012,86450],[-109,70]],[[64903,86520],[14,88]],[[64917,86608],[828,-108],[-632,-425]],[[68255,87715],[22,10]],[[68277,87725],[43,20]],[[68320,87745],[44,30]],[[68364,87775],[29,19]],[[68393,87794],[14,20]],[[68407,87814],[537,138],[-428,-612]],[[68516,87340],[-14,-10]],[[68502,87330],[-15,-10]],[[68487,87320],[-14,0]],[[68473,87320],[-73,-20]],[[68400,87300],[-7,0]],[[68393,87300],[-203,-69]],[[68190,87231],[-22,0]],[[68168,87231],[-87,-10]],[[68081,87221],[-377,20]],[[67704,87241],[-44,623],[595,-149]],[[64910,97775],[-43,-138]],[[64867,97637],[-378,-198]],[[64489,97439],[-80,10]],[[64409,97449],[-14,10]],[[64395,97459],[-29,10]],[[64366,97469],[-29,20]],[[64337,97489],[-36,30]],[[64301,97519],[-15,29]],[[64286,97548],[-14,59]],[[64272,97607],[348,485]],[[64620,98092],[14,0]],[[64634,98092],[276,79]],[[64910,98171],[181,20]],[[65091,98191],[59,19]],[[65150,98210],[116,40]],[[65266,98250],[-44,118]],[[65222,98368],[240,-108]],[[65462,98260],[-552,-485]]]}