{"type":"Topology","objects":{"data":{"geometries":[{"properties":{"type":"41207","name":"41"},"type":"Polygon","arcs":[[1,0]],"id":"feature_0"},{"properties":{"type":"41207","name":"41"},"type":"MultiPolygon","arcs":[[[1,2]],[[7,3,9]],[[10,4]],[[5,13,6,15]],[[16]]],"id":"feature_1"},{"properties":{"type":"41207","name":"41"},"type":"MultiPolygon","arcs":[[[7,8,9]],[[10,11]],[[12,13,14,15]],[[16]]],"id":"feature_2"},{"properties":{"type":"41209","name":"41"},"type":"Polygon","arcs":[[17]],"id":"feature_3"},{"properties":{"type":"41209","name":"41"},"type":"Polygon","arcs":[[38,18,40,19,42,20,44,21,46,22,48,23,50,24,52,25,54,26,56,27,58,28,60,29,62,30,34,31,36,32]],"id":"feature_4"},{"properties":{"type":"41209","name":"41"},"type":"Polygon","arcs":[[33]],"id":"feature_5"},{"properties":{"type":"41209","name":"41"},"type":"Polygon","arcs":[[34,35,36,37,38,39,40,41,42,43,44,45,46,47,48,49,50,51,52,53,54,55,56,57,58,59,60,61,62,63]],"id":"feature_6"}],"type":"GeometryCollection"}},"bbox":[129.9394,33.0516,130.146,33.1314],"transform":{"scale":[2.0660206602064056e-06,7.980079800797885e-07],"translate":[129.9394,33.0516]},"arcs":[[[87802,50751],[9486,3133],[2711,-10150],[-5179,-14035],[-2372,14787],[-8857,-752],[-484,-19048],[-3098,18672],[-16312,3509],[6535,28696],[-2953,6767],[1888,16792],[18489,-3885],[3921,-24060],[-11907,9775],[7744,-15414],[-4114,-2381],[-242,-1754],[9874,4887],[3050,-9649],[-8229,-5890]],[[87753,50751],[49,0]],[[87802,50751],[3775,-5263],[-7841,1629],[4017,3634]],[[86785,50125],[-4501,-4637],[1065,8647]],[[80735,64786],[1984,-6265],[-4259,-9273],[-4840,6892],[2759,6391]],[[76234,62781],[-3195,-5137],[-2178,17167]],[[71732,76816],[1549,1379]],[[85396,56023],[1389,-5898]],[[86785,50125],[-3436,4010]],[[83349,54135],[2047,1888]],[[76379,62531],[1210,7142],[3146,-4887]],[[80735,64786],[-2130,-9273],[-2226,7018]],[[76234,62781],[-5373,12030]],[[70861,74811],[871,2005]],[[71732,76816],[1549,1379]],[[73281,78195],[3437,1629],[-484,-17043]],[[76282,80450],[-1936,126],[1839,6766],[968,-877],[-871,-6015]],[[9148,48120],[-1984,21679],[3049,7769],[7696,-4135],[7938,7143],[968,15162],[4598,-250],[15973,-25689],[2468,-42356],[-12439,4386],[1065,-26691],[-12391,-1379],[-6922,26567],[-1984,-20677],[-17183,16792],[9148,21679]],[[29380,67042],[-193,-752]],[[29187,66165],[-5760,-10151]],[[23330,56014],[-291,502]],[[22894,56641],[-242,125]],[[22555,56641],[-242,-752]],[[22217,55388],[-291,-1003]],[[21539,54385],[-1016,-877]],[[20474,53383],[-48,-125]],[[20232,53132],[-97,-250]],[[19506,52882],[-194,-376]],[[19264,52506],[-387,1879]],[[19070,54761],[242,1629]],[[19312,56516],[8713,13157]],[[28218,69673],[1404,-125]],[[29864,69172],[-242,-1378]],[[19167,52380],[9390,11905],[968,-2757],[-10890,-12782],[532,3634]],[[28025,69673],[193,0]],[[28218,69673],[1404,-125]],[[29622,69548],[242,-376]],[[29864,69172],[-242,-1378]],[[29622,67794],[-242,-752]],[[29380,67042],[-193,-752]],[[29187,66290],[0,-125]],[[29187,66165],[-5760,-10151]],[[23427,56014],[-97,0]],[[23330,56014],[-291,502]],[[23039,56516],[-145,125]],[[22894,56641],[-242,125]],[[22652,56766],[-97,-125]],[[22555,56641],[-242,-752]],[[22313,55889],[-96,-501]],[[22217,55388],[-291,-1003]],[[21926,54385],[-387,0]],[[21539,54385],[-1016,-877]],[[20523,53508],[-49,-125]],[[20474,53383],[-48,-125]],[[20426,53258],[-194,-126]],[[20232,53132],[-97,-250]],[[20135,52882],[-629,0]],[[19506,52882],[-194,-376]],[[19312,52506],[-48,0]],[[19264,52506],[-387,1879]],[[18877,54385],[193,376]],[[19070,54761],[242,1629]],[[19312,56390],[0,126]],[[19312,56516],[8713,13157]]]}