{"type":"Topology","objects":{"data":{"geometries":[{"properties":{"type":"37201","name":"37"},"type":"Polygon","arcs":[[275,-276,218,-377,219,0,223,224,225,321,1,323,226,2,228,3,149,4,113,5,115,6,117,7,119,8,121,9,-232,10,233,11,235,12,237,13,239,14,241,15,243,16,245,17,247,18,-250,19,251,20,253,21,255,22,257,23,259,24,261,25,263,26,-451,27,-449,28,143,29,-447,30,-445,31,-443,32,-441,33,-439,34,-437,35,-435,36,-433,37,-431,38,-429,39,-427,40,-425,41,-423,42,-421,43,-419,44,64,45,66,308,309,310,311,312,67,46,69,47,71,48,97,49,99,50,101,51,173,52,175,53,177,54,179,55,56,183,184,57,186,58,188,59,190,60,166,379,61,272,62,274]],"id":"feature_000"},{"properties":{"type":"37201","name":"37"},"type":"Polygon","arcs":[[63]],"id":"feature_001"},{"properties":{"type":"37201","name":"37"},"type":"Polygon","arcs":[[64,65,66,308,309,310,311,312,67,68,69,70,71,72,314,-316,315,316,73,318,74,306,75]],"id":"feature_002"},{"properties":{"type":"37201","name":"37"},"type":"Polygon","arcs":[[76]],"id":"feature_003"},{"properties":{"type":"37201","name":"37"},"type":"Polygon","arcs":[[77]],"id":"feature_004"},{"properties":{"type":"37201","name":"37"},"type":"Polygon","arcs":[[78]],"id":"feature_005"},{"properties":{"type":"37201","name":"37"},"type":"Polygon","arcs":[[79]],"id":"feature_006"},{"properties":{"type":"37201","name":"37"},"type":"Polygon","arcs":[[80]],"id":"feature_007"},{"properties":{"type":"37201","name":"37"},"type":"Polygon","arcs":[[297]],"id":"feature_008"},{"properties":{"type":"37201","name":"37"},"type":"Polygon","arcs":[[81]],"id":"feature_009"},{"properties":{"type":"37201","name":"37"},"type":"Polygon","arcs":[[82]],"id":"feature_010"},{"properties":{"type":"37201","name":"37"},"type":"Polygon","arcs":[[83]],"id":"feature_011"},{"properties":{"type":"37201","name":"37"},"type":"Polygon","arcs":[[84]],"id":"feature_012"},{"properties":{"type":"37201","name":"37"},"type":"Polygon","arcs":[[85]],"id":"feature_013"},{"properties":{"type":"37201","name":"37"},"type":"Polygon","arcs":[[304]],"id":"feature_014"},{"properties":{"type":"37201","name":"37"},"type":"Polygon","arcs":[[86]],"id":"feature_015"},{"properties":{"type":"37201","name":"37"},"type":"Polygon","arcs":[[87]],"id":"feature_016"},{"properties":{"type":"37201","name":"37"},"type":"Polygon","arcs":[[88]],"id":"feature_017"},{"properties":{"type":"37201","name":"37"},"type":"Polygon","arcs":[[89]],"id":"feature_018"},{"properties":{"type":"37201","name":"37"},"type":"Polygon","arcs":[[90]],"id":"feature_019"},{"properties":{"type":"37201","name":"37"},"type":"Polygon","arcs":[[282]],"id":"feature_020"},{"properties":{"type":"37201","name":"37"},"type":"Polygon","arcs":[[-107,91]],"id":"feature_021"},{"properties":{"type":"37201","name":"37"},"type":"Polygon","arcs":[[92]],"id":"feature_022"},{"properties":{"type":"37201","name":"37"},"type":"Polygon","arcs":[[93]],"id":"feature_023"},{"properties":{"type":"37201","name":"37"},"type":"Polygon","arcs":[[378]],"id":"feature_024"},{"properties":{"type":"37201","name":"37"},"type":"Polygon","arcs":[[94]],"id":"feature_025"},{"properties":{"type":"37201","name":"37"},"type":"Polygon","arcs":[[95]],"id":"feature_026"},{"properties":{"type":"37201","name":"37"},"type":"Polygon","arcs":[[96,97,98,99,100,101,102,330]],"id":"feature_027"},{"properties":{"type":"37201","name":"37"},"type":"Polygon","arcs":[[285]],"id":"feature_028"},{"properties":{"type":"37201","name":"37"},"type":"Polygon","arcs":[[103]],"id":"feature_029"},{"properties":{"type":"37201","name":"37"},"type":"Polygon","arcs":[[104]],"id":"feature_030"},{"properties":{"type":"37201","name":"37"},"type":"Polygon","arcs":[[105,106]],"id":"feature_031"},{"properties":{"type":"37201","name":"37"},"type":"Polygon","arcs":[[107]],"id":"feature_032"},{"properties":{"type":"37201","name":"37"},"type":"Polygon","arcs":[[108]],"id":"feature_033"},{"properties":{"type":"37201","name":"37"},"type":"Polygon","arcs":[[109]],"id":"feature_034"},{"properties":{"type":"37201","name":"37"},"type":"Polygon","arcs":[[110]],"id":"feature_035"},{"properties":{"type":"37201","name":"37"},"type":"Polygon","arcs":[[111]],"id":"feature_036"},{"properties":{"type":"37201","name":"37"},"type":"Polygon","arcs":[[112]],"id":"feature_037"},{"properties":{"type":"37201","name":"37"},"type":"Polygon","arcs":[[113,114,115,116,117,118,119,120,121,122]],"id":"feature_038"},{"properties":{"type":"37201","name":"37"},"type":"Polygon","arcs":[[401]],"id":"feature_039"},{"properties":{"type":"37201","name":"37"},"type":"Polygon","arcs":[[396,-397]],"id":"feature_040"},{"properties":{"type":"37201","name":"37"},"type":"Polygon","arcs":[[123,-336]],"id":"feature_041"},{"properties":{"type":"37201","name":"37"},"type":"Polygon","arcs":[[124]],"id":"feature_042"},{"properties":{"type":"37201","name":"37"},"type":"Polygon","arcs":[[125]],"id":"feature_043"},{"properties":{"type":"37201","name":"37"},"type":"Polygon","arcs":[[126]],"id":"feature_044"},{"properties":{"type":"37201","name":"37"},"type":"Polygon","arcs":[[127]],"id":"feature_045"},{"properties":{"type":"37201","name":"37"},"type":"Polygon","arcs":[[128]],"id":"feature_046"},{"properties":{"type":"37201","name":"37"},"type":"Polygon","arcs":[[129]],"id":"feature_047"},{"properties":{"type":"37201","name":"37"},"type":"Polygon","arcs":[[130]],"id":"feature_048"},{"properties":{"type":"37201","name":"37"},"type":"Polygon","arcs":[[294]],"id":"feature_049"},{"properties":{"type":"37201","name":"37"},"type":"Polygon","arcs":[[131]],"id":"feature_050"},{"properties":{"type":"37201","name":"37"},"type":"Polygon","arcs":[[132]],"id":"feature_051"},{"properties":{"type":"37201","name":"37"},"type":"Polygon","arcs":[[133]],"id":"feature_052"},{"properties":{"type":"37201","name":"37"},"type":"Polygon","arcs":[[134]],"id":"feature_053"},{"properties":{"type":"37201","name":"37"},"type":"Polygon","arcs":[[135]],"id":"feature_054"},{"properties":{"type":"37201","name":"37"},"type":"Polygon","arcs":[[295]],"id":"feature_055"},{"properties":{"type":"37201","name":"37"},"type":"Polygon","arcs":[[136]],"id":"feature_056"},{"properties":{"type":"37201","name":"37"},"type":"Polygon","arcs":[[137]],"id":"feature_057"},{"properties":{"type":"37201","name":"37"},"type":"Polygon","arcs":[[138]],"id":"feature_058"},{"properties":{"type":"37201","name":"37"},"type":"Polygon","arcs":[[139]],"id":"feature_059"},{"properties":{"type":"37201","name":"37"},"type":"Polygon","arcs":[[169,140,382,141,384,385,386,142,143,144]],"id":"feature_060"},{"properties":{"type":"37201","name":"37"},"type":"Polygon","arcs":[[145]],"id":"feature_061"},{"properties":{"type":"37201","name":"37"},"type":"Polygon","arcs":[[146]],"id":"feature_062"},{"properties":{"type":"37201","name":"37"},"type":"Polygon","arcs":[[147]],"id":"feature_063"},{"properties":{"type":"37201","name":"37"},"type":"Polygon","arcs":[[148,149]],"id":"feature_064"},{"properties":{"type":"37201","name":"37"},"type":"Polygon","arcs":[[296]],"id":"feature_065"},{"properties":{"type":"37201","name":"37"},"type":"Polygon","arcs":[[150,-332]],"id":"feature_066"},{"properties":{"type":"37201","name":"37"},"type":"Polygon","arcs":[[151]],"id":"feature_067"},{"properties":{"type":"37201","name":"37"},"type":"Polygon","arcs":[[152]],"id":"feature_068"},{"properties":{"type":"37201","name":"37"},"type":"Polygon","arcs":[[153]],"id":"feature_069"},{"properties":{"type":"37201","name":"37"},"type":"Polygon","arcs":[[154]],"id":"feature_070"},{"properties":{"type":"37201","name":"37"},"type":"Polygon","arcs":[[155,389,156,391]],"id":"feature_071"},{"properties":{"type":"37201","name":"37"},"type":"Polygon","arcs":[[157]],"id":"feature_072"},{"properties":{"type":"37201","name":"37"},"type":"Polygon","arcs":[[269,158]],"id":"feature_073"},{"properties":{"type":"37201","name":"37"},"type":"Polygon","arcs":[[159]],"id":"feature_074"},{"properties":{"type":"37201","name":"37"},"type":"Polygon","arcs":[[160]],"id":"feature_075"},{"properties":{"type":"37201","name":"37"},"type":"Polygon","arcs":[[392]],"id":"feature_076"},{"properties":{"type":"37201","name":"37"},"type":"Polygon","arcs":[[161]],"id":"feature_077"},{"properties":{"type":"37201","name":"37"},"type":"Polygon","arcs":[[162]],"id":"feature_078"},{"properties":{"type":"37201","name":"37"},"type":"Polygon","arcs":[[163]],"id":"feature_079"},{"properties":{"type":"37201","name":"37"},"type":"Polygon","arcs":[[341]],"id":"feature_080"},{"properties":{"type":"37201","name":"37"},"type":"Polygon","arcs":[[164]],"id":"feature_081"},{"properties":{"type":"37201","name":"37"},"type":"Polygon","arcs":[[165]],"id":"feature_082"},{"properties":{"type":"37201","name":"37"},"type":"Polygon","arcs":[[166,379,380,167]],"id":"feature_083"},{"properties":{"type":"37201","name":"37"},"type":"Polygon","arcs":[[168]],"id":"feature_084"},{"properties":{"type":"37201","name":"37"},"type":"Polygon","arcs":[[169,170]],"id":"feature_085"},{"properties":{"type":"37201","name":"37"},"type":"Polygon","arcs":[[171]],"id":"feature_086"},{"properties":{"type":"37201","name":"37"},"type":"Polygon","arcs":[[359,172,173,174,175,176,177,178,179,180,181,182,183,184,185,186,187,188,189,190,191,361,192,363,193,351,194,353,195,347,196,364,-366,365,366,197,368,198,393,199,395,-397,396,397,200,399,201,370,202,349,203,343,-345,344,345,204,355,205,357,206]],"id":"feature_087"},{"properties":{"type":"37201","name":"37"},"type":"Polygon","arcs":[[207]],"id":"feature_088"},{"properties":{"type":"37201","name":"37"},"type":"Polygon","arcs":[[208]],"id":"feature_089"},{"properties":{"type":"37201","name":"37"},"type":"Polygon","arcs":[[209]],"id":"feature_090"},{"properties":{"type":"37201","name":"37"},"type":"Polygon","arcs":[[-299,298,299,210,301,211,303]],"id":"feature_091"},{"properties":{"type":"37201","name":"37"},"type":"Polygon","arcs":[[212]],"id":"feature_092"},{"properties":{"type":"37201","name":"37"},"type":"Polygon","arcs":[[213]],"id":"feature_093"},{"properties":{"type":"37201","name":"37"},"type":"Polygon","arcs":[[214]],"id":"feature_094"},{"properties":{"type":"37201","name":"37"},"type":"Polygon","arcs":[[286,287,215,289]],"id":"feature_095"},{"properties":{"type":"37201","name":"37"},"type":"Polygon","arcs":[[290,216,292,217]],"id":"feature_096"},{"properties":{"type":"37201","name":"37"},"type":"Polygon","arcs":[[-276,218,-377,219,220,-375,221,319,222,223,224,225,321,322,323,226,227,228,229,333,230,231,232,233,234,235,236,237,238,239,240,241,242,243,244,245,246,247,248,249,250,251,252,253,254,255,256,257,258,259,260,261,262,263,264,337,265,280,266,339,267,325,268,269,270,-373,271,272,273,274,275]],"id":"feature_097"},{"properties":{"type":"37201","name":"37"},"type":"Polygon","arcs":[[276]],"id":"feature_098"},{"properties":{"type":"37201","name":"37"},"type":"Polygon","arcs":[[-328,277]],"id":"feature_099"},{"properties":{"type":"37201","name":"37"},"type":"Polygon","arcs":[[402]],"id":"feature_100"},{"properties":{"type":"37201","name":"37"},"type":"Polygon","arcs":[[278]],"id":"feature_101"},{"properties":{"type":"37201","name":"37"},"type":"Polygon","arcs":[[279]],"id":"feature_102"},{"properties":{"type":"37201","name":"37"},"type":"Polygon","arcs":[[280,281]],"id":"feature_103"},{"properties":{"type":"37201","name":"37"},"type":"Polygon","arcs":[[282]],"id":"feature_104"},{"properties":{"type":"37201","name":"37"},"type":"Polygon","arcs":[[283]],"id":"feature_105"},{"properties":{"type":"37201","name":"37"},"type":"Polygon","arcs":[[284]],"id":"feature_106"},{"properties":{"type":"37201","name":"37"},"type":"Polygon","arcs":[[285]],"id":"feature_107"},{"properties":{"type":"37201","name":"37"},"type":"Polygon","arcs":[[286,287,288,289]],"id":"feature_108"},{"properties":{"type":"37201","name":"37"},"type":"Polygon","arcs":[[290,291,292,293]],"id":"feature_109"},{"properties":{"type":"37201","name":"37"},"type":"Polygon","arcs":[[294]],"id":"feature_110"},{"properties":{"type":"37201","name":"37"},"type":"Polygon","arcs":[[295]],"id":"feature_111"},{"properties":{"type":"37201","name":"37"},"type":"Polygon","arcs":[[296]],"id":"feature_112"},{"properties":{"type":"37201","name":"37"},"type":"Polygon","arcs":[[297]],"id":"feature_113"},{"properties":{"type":"37201","name":"37"},"type":"Polygon","arcs":[[-299,298,299,300,301,302,303]],"id":"feature_114"},{"properties":{"type":"37201","name":"37"},"type":"Polygon","arcs":[[304]],"id":"feature_115"},{"properties":{"type":"37201","name":"37"},"type":"Polygon","arcs":[[305,306,307,308,309,310,311,312,313,314,-316,315,316,317,318]],"id":"feature_116"},{"properties":{"type":"37201","name":"37"},"type":"Polygon","arcs":[[319,320,321,322,323,324,325,326,327,328]],"id":"feature_117"},{"properties":{"type":"37201","name":"37"},"type":"Polygon","arcs":[[329,330]],"id":"feature_118"},{"properties":{"type":"37201","name":"37"},"type":"Polygon","arcs":[[331,332,333,334,335,336,337,338,339,340]],"id":"feature_119"},{"properties":{"type":"37201","name":"37"},"type":"Polygon","arcs":[[341]],"id":"feature_120"},{"properties":{"type":"37201","name":"37"},"type":"Polygon","arcs":[[342,343,-345,344,345,346,347,348,349]],"id":"feature_121"},{"properties":{"type":"37201","name":"37"},"type":"Polygon","arcs":[[350,351,352,353,354,355,356,357,358,359,360,361,362,363]],"id":"feature_122"},{"properties":{"type":"37201","name":"37"},"type":"Polygon","arcs":[[364,-366,365,366,367,368,369,370,371]],"id":"feature_123"},{"properties":{"type":"37201","name":"37"},"type":"Polygon","arcs":[[396,-397]],"id":"feature_124"},{"properties":{"type":"37201","name":"37"},"type":"Polygon","arcs":[[372,373,374,375,376,377]],"id":"feature_125"},{"properties":{"type":"37201","name":"37"},"type":"Polygon","arcs":[[378]],"id":"feature_126"},{"properties":{"type":"37201","name":"37"},"type":"Polygon","arcs":[[379,380,381]],"id":"feature_127"},{"properties":{"type":"37201","name":"37"},"type":"Polygon","arcs":[[382,383,384,385,386,387]],"id":"feature_128"},{"properties":{"type":"37201","name":"37"},"type":"Polygon","arcs":[[388,389,390,391]],"id":"feature_129"},{"properties":{"type":"37201","name":"37"},"type":"Polygon","arcs":[[392]],"id":"feature_130"},{"properties":{"type":"37201","name":"37"},"type":"Polygon","arcs":[[393,394,395,-397,396,397,398,399,400]],"id":"feature_131"},{"properties":{"type":"37201","name":"37"},"type":"Polygon","arcs":[[401]],"id":"feature_132"},{"properties":{"type":"37201","name":"37"},"type":"Polygon","arcs":[[402]],"id":"feature_133"},{"properties":{"type":"37202","name":"37"},"type":"Polygon","arcs":[[403,-453,404,-464,-485,405,412,-414,413,414,406,416]],"id":"feature_134"},{"properties":{"type":"37202","name":"37"},"type":"Polygon","arcs":[[409,407,411,412,-414,413,414,415,416,408]],"id":"feature_135"},{"properties":{"type":"37202","name":"37"},"type":"Polygon","arcs":[[409,410,411,412,-414,413,414,415,416,417]],"id":"feature_136"},{"properties":{"type":"37203","name":"37"},"type":"Polygon","arcs":[[-419,418,419,420,421,422,423,424,425,426,427,428,429,430,431,432,433,434,435,436,437,438,439,440,441,442,443,444,445,446,447,448,449,450,451,452,453,456,454,458,455]],"id":"feature_137"},{"properties":{"type":"37203","name":"37"},"type":"Polygon","arcs":[[456,457,458,459,461,460]],"id":"feature_138"},{"properties":{"type":"37203","name":"37"},"type":"Polygon","arcs":[[461,462]],"id":"feature_139"},{"properties":{"type":"37204","name":"37"},"type":"Polygon","arcs":[[-483,463,464]],"id":"feature_140"},{"properties":{"type":"37204","name":"37"},"type":"MultiPolygon","arcs":[[[465]],[[466]],[[467]],[[468]],[[469]],[[470]],[[471],[472],[473],[474],[475],[476],[477],[478],[479]]],"id":"feature_141"},{"properties":{"type":"37204","name":"37"},"type":"MultiPolygon","arcs":[[[480]],[[481]]],"id":"feature_142"},{"properties":{"type":"37404","name":"37"},"type":"Polygon","arcs":[[482,483,484]],"id":"feature_143"},{"properties":{"type":"37404","name":"37"},"type":"Polygon","arcs":[[491,485,493,486,495,487,497,488,499,489]],"id":"feature_144"},{"properties":{"type":"37404","name":"37"},"type":"Polygon","arcs":[[490,491,492,493,494,495,496,497,498,499]],"id":"feature_145"}],"type":"GeometryCollection"}},"bbox":[133.7088,34.1877,134.1657,34.3897],"transform":{"scale":[4.5690456904568076e-06,2.0200202002019836e-06],"translate":[133.7088,34.1877]},"arcs":[[[83650,84603],[525,13020],[4815,-12970]],[[89975,77970],[44,-99]],[[90084,82425],[0,891]],[[90610,84950],[109,198]],[[90960,85643],[1226,2920],[6544,-6039],[-766,-4257]],[[97985,78217],[110,-545]],[[98007,77524],[-219,545]],[[97679,78019],[-66,-49]],[[97570,77920],[-44,-49]],[[97504,77821],[-241,-693]],[[97263,77078],[153,-396]],[[97832,76336],[-328,-495]],[[97438,75841],[22,-149]],[[97482,75692],[372,248]],[[97854,75148],[-44,-50]],[[97679,74950],[-66,-248]],[[97591,74702],[285,-742]],[[97898,73960],[460,-891]],[[98401,72970],[110,-198]],[[98511,72821],[22,-49]],[[98533,72722],[21,-49]],[[98554,72574],[22,-50]],[[98598,71633],[22,-99]],[[98620,71484],[66,-297]],[[98686,71138],[810,-1535]],[[99539,69603],[438,-1138]],[[99911,67178],[-2166,-6337],[-5603,3317],[-1248,-3070],[-2801,-32177],[-1510,3663],[-2014,-1287],[-2101,9406],[-1685,-644],[-635,-7228],[-4290,-5049],[569,-15148],[-5887,-743],[66,-5099],[-3962,3119],[-6303,17029],[2276,10297],[-5493,-1386],[-5560,4357],[-503,6386]],[[50995,46633],[-153,693]],[[50842,47376],[-416,7871]],[[50448,55891],[-2451,6039]],[[47953,61930],[-569,1436]],[[47406,63415],[2517,2871]],[[49967,66286],[1969,1436]],[[51936,67673],[1729,-149],[-1663,6980]],[[52002,74603],[-87,1485]],[[51915,76385],[-1270,2624]],[[50623,79009],[-1138,3812]],[[49485,82870],[219,1585]],[[49704,84504],[-109,5000]],[[49595,89554],[-1292,4356]],[[48150,93910],[88,990]],[[48238,94999],[65,792]],[[48303,95841],[66,1930]],[[48369,97821],[-482,2128]],[[47887,99999],[2999,-7871],[1423,3564],[2560,-1782],[810,-3515],[-722,-643],[-482,-941],[-153,-594],[1620,-2376],[2648,6039],[4662,-9158]],[[63295,82771],[373,0]],[[64018,80940],[22,198]],[[64062,82276],[459,2624],[788,-2723]],[[65068,80544],[329,-446]],[[65637,82227],[1292,-495]],[[67935,81781],[504,-247]],[[68023,79405],[416,0]],[[68745,80643],[22,49]],[[69905,81732],[-22,-297]],[[69971,81435],[22,544]],[[76274,79702],[66,693]],[[76340,80395],[284,-990]],[[77062,79455],[569,1831]],[[77697,81336],[-1882,2079],[3414,4109],[-1029,-8564],[1882,2029],[66,5198],[-44,-7376],[1160,99]],[[81965,76930],[87,-297]],[[82315,75247],[350,-99]],[[83322,75643],[-132,1336]],[[83081,77029],[-44,49]],[[97591,72177],[154,149],[43,-49],[-109,-199],[-88,99]],[[63252,82722],[43,49]],[[63295,82771],[373,0]],[[63668,82771],[-44,-2920]],[[63799,79900],[219,1040]],[[64018,80940],[22,198]],[[64040,81138],[22,1138]],[[64062,82276],[1247,-99]],[[65309,82177],[-241,-1633]],[[65068,80544],[-175,-1386]],[[63405,72970],[-1642,-5050],[1051,5446]],[[62420,78712],[44,99]],[[62508,78811],[-1051,2574],[1795,1337]],[[97329,78564],[22,0],[0,-50],[-22,50]],[[88487,77276],[44,99],[43,-148],[-65,-50],[-22,99]],[[85948,80593],[219,-297],[-153,-594],[-44,693],[-22,198]],[[97723,71781],[153,198],[44,-99],[-66,-198],[-131,99]],[[70781,73366],[22,0],[43,-149],[-22,0],[-43,149]],[[72794,18663],[44,0],[0,-49],[-44,49]],[[70343,32673],[219,198],[328,-198],[-44,-396],[-503,396]],[[90763,74356],[66,346],[153,-445],[-110,-99],[-109,198]],[[76953,71336],[0,99],[109,0],[0,-99],[-109,0]],[[62114,74900],[0,99],[153,-346],[-131,-50],[-22,297]],[[74873,71534],[88,0],[22,-297],[-66,-50],[-44,347]],[[89362,73366],[241,297],[66,-50],[-197,-346],[-110,99]],[[76427,79603],[88,-49],[109,-99],[-197,148]],[[91945,80544],[0,0]],[[84022,82672],[0,0]],[[77193,71435],[-87,0]],[[82140,71682],[197,50],[-197,-149],[0,99]],[[69599,31782],[175,198],[131,-693],[-262,49],[-44,446]],[[65046,27178],[88,99],[-22,-347],[-22,149],[-44,99]],[[72225,20148],[263,248],[153,-743],[-241,-247],[-175,742]],[[65112,79009],[285,1089]],[[65397,80098],[240,2129]],[[65637,82227],[1292,-495]],[[66929,81732],[1006,49]],[[67935,81781],[504,-247]],[[68439,81534],[-416,-2129]],[[68023,79405],[-1620,-7723],[-1751,1436]],[[89450,72821],[22,50],[43,-50],[-21,-99],[-44,99]],[[94330,79059],[0,0]],[[77106,71435],[87,0]],[[77193,71435],[-87,0]],[[72991,35445],[66,50],[44,-396],[-66,0],[-44,346]],[[90894,83613],[153,149],[66,-198],[-109,49],[-110,0]],[[92054,80593],[197,891],[-22,-841],[-175,-50]],[[68833,66286],[0,50],[65,-198],[-43,0],[-22,148]],[[83912,83910],[0,99],[22,50],[0,-149],[-22,0]],[[90238,73514],[153,347],[241,49],[-22,-198],[-372,-198]],[[97964,78267],[21,-50]],[[97985,78217],[110,-545]],[[98095,77672],[-88,-148]],[[98007,77524],[-219,545]],[[97788,78069],[-109,-50]],[[97679,78019],[-66,-49]],[[97613,77970],[-43,-50]],[[97570,77920],[-44,-49]],[[97526,77871],[-22,-50]],[[97504,77821],[460,446]],[[95447,73118],[-197,-396]],[[70934,72821],[0,-49],[66,-198],[-44,0],[-22,198],[0,49]],[[93827,78960],[44,346],[350,-99],[-66,-247],[-328,0]],[[93389,78168],[44,49],[110,-198],[-110,0],[-44,149]],[[90741,83663],[66,49],[0,-49],[-66,0]],[[89581,71979],[22,149],[109,-99],[-21,-99],[-110,49]],[[88881,77771],[22,100],[43,0],[-22,-199],[-43,99]],[[99408,66385],[22,50],[44,0],[-22,-50],[-44,0]],[[90982,82425],[0,0]],[[92755,78960],[0,0]],[[77193,71534],[263,0],[0,-99],[-219,0],[-44,99]],[[90544,72871],[88,198],[65,-99],[-131,-248],[-22,149]],[[62136,80098],[131,50],[44,-149],[-44,-49],[-131,148]],[[96322,76039],[0,0]],[[74304,42871],[0,49],[22,-49],[-22,0]],[[96256,76138],[22,-50],[-22,0],[0,50]],[[74786,71435],[87,49],[22,-247],[-65,-50],[-44,248]],[[57364,61782],[1313,-1783],[-2319,-4554]],[[56095,52277],[-1007,-6881],[-1401,8217]],[[53665,54059],[-3239,1188]],[[50426,55247],[22,644]],[[50448,55891],[6894,5891]],[[77281,71435],[175,-50],[22,-99],[-197,0],[0,149]],[[97788,72376],[176,49],[21,-347],[-65,0],[-132,298]],[[70409,31633],[0,0]],[[90960,85643],[-241,-495]],[[90719,85148],[241,495]],[[94921,76831],[66,-99]],[[74895,71831],[0,99],[44,198],[22,-297],[-66,0]],[[92689,75049],[66,0],[21,-248],[-87,99],[0,149]],[[70649,74405],[44,0],[131,-49],[-175,49]],[[69905,33168],[328,148],[263,-49],[-66,-198],[-525,99]],[[82971,58712],[307,545]],[[85445,57326],[-373,-2079]],[[74830,71831],[22,148],[43,0],[-22,-198],[-43,50]],[[89691,70544],[43,0]],[[76909,50643],[109,842],[1510,495],[-65,-842],[-1554,-495]],[[85401,80692],[87,297],[110,0],[-175,-297],[-22,0]],[[95819,72920],[43,198],[44,0],[22,-198],[-109,0]],[[97504,71979],[87,0],[66,-198],[-66,0],[-87,198]],[[71503,20346],[1641,-396],[-328,-2079],[-1094,1238],[-219,1237]],[[98336,72078],[22,248],[109,99],[-109,-396],[-22,49]],[[57080,59306],[219,-247],[394,49],[-351,-198],[-262,396]],[[82665,75148],[569,495]],[[84613,72623],[-1926,-743],[-22,3268]],[[91967,80544],[0,0]],[[57342,61782],[22,0]],[[57364,61782],[-22,0]],[[93236,71286],[22,-49],[-22,-50],[0,99]],[[72860,67623],[919,3861],[-2320,-49],[-153,3317],[-3524,2277],[657,2376]],[[68439,79405],[306,1238]],[[68745,80643],[22,49]],[[68767,80692],[1138,1040]],[[69905,81732],[-22,-297]],[[69883,81435],[0,-1980],[110,-1040],[-22,3020]],[[69971,81435],[22,544]],[[69993,81979],[153,-2376],[1860,446],[-853,1683],[3261,2327],[1860,-4357]],[[76274,79702],[66,693]],[[76340,80395],[87,-792]],[[76427,79603],[197,-198]],[[76624,79405],[22,0],[0,-49],[-22,49]],[[76624,79405],[438,50]],[[77062,79455],[569,1831]],[[77631,81286],[66,50]],[[77697,81336],[2407,-2673],[-1400,-3565],[1269,-3911],[1291,7723]],[[81264,78910],[701,-1980]],[[81965,76930],[87,-297]],[[82052,76633],[263,-1386]],[[82315,75247],[-788,-10990],[1269,-4802],[-2473,-149],[547,-5891],[-3786,-1237],[941,4703],[-2780,-4307]],[[75158,51732],[-22,-148]],[[73473,51039],[-44,-445]],[[75136,48415],[-1072,-4158]],[[71766,44653],[-1664,149]],[[68986,43663],[1379,-2673]],[[71218,40742],[701,-1683]],[[71766,37772],[2035,-5000],[-1642,2574],[351,-5297],[-2386,2030],[0,-3812]],[[72597,26089],[-109,-545]],[[71350,23861],[131,-4406],[-481,4406]],[[70015,25544],[-88,10644]],[[69205,37970],[-1926,2772],[1335,3069]],[[69905,49900],[219,-396]],[[70562,46633],[634,0]],[[71875,50000],[22,198]],[[72313,53415],[-2364,4505],[-3436,-2871],[-1051,4208],[2802,1039],[1050,7129],[3502,-99]],[[71109,72326],[0,0]],[[86014,79653],[131,-198],[66,49],[43,-99],[-219,-99],[-21,347]],[[89953,73465],[44,247],[131,0],[-109,-445],[-66,198]],[[83015,46386],[131,-99]],[[83825,44752],[-66,-2079]],[[96235,76286],[0,0]],[[94177,78762],[66,49],[22,-148],[-66,-50],[-22,149]],[[90982,84950],[0,99],[44,49],[0,-99],[-44,-49]],[[65572,51485],[547,2970],[613,-3416]],[[65834,27475],[110,-149]],[[65221,25198],[-1510,1435],[1926,1089]],[[81702,80544],[2167,-1881]],[[84000,78811],[-1620,2970],[1270,2822]],[[83650,84603],[744,-5495]],[[86845,77375],[2233,1139]],[[89428,79603],[-438,5050]],[[88990,84653],[854,-4109]],[[89844,80544],[-88,0],[0,-50],[66,0],[22,50]],[[89844,80544],[87,-347]],[[90063,80296],[21,2129]],[[90084,82425],[0,891]],[[90084,83316],[526,1634]],[[90610,84950],[1816,-7030],[1401,2376],[1510,-4158]],[[95556,75445],[1795,-2129],[-88,3762]],[[97263,77078],[0,50]],[[97263,77128],[153,-446]],[[97416,76682],[416,-346]],[[97832,76336],[-328,-495]],[[97504,75841],[-66,0]],[[97438,75841],[22,-149]],[[97460,75692],[22,0]],[[97482,75692],[372,248]],[[97854,75940],[0,-792]],[[97854,75148],[-44,-50]],[[97810,75098],[-131,-148]],[[97679,74950],[-66,-248]],[[97613,74702],[-22,0]],[[97591,74702],[285,-742]],[[97876,73960],[22,0]],[[97898,73960],[460,-891]],[[98358,73069],[43,-99]],[[98401,72970],[110,-149]],[[98511,72821],[0,-49]],[[98511,72772],[22,0]],[[98533,72772],[0,-50]],[[98533,72722],[21,-49]],[[98554,72673],[0,-99]],[[98554,72574],[22,-50]],[[98576,72524],[22,-891]],[[98598,71633],[22,-99]],[[98620,71534],[0,-50]],[[98620,71484],[66,-297]],[[98686,71187],[0,-49]],[[98686,71138],[810,-1535]],[[99496,69603],[43,0]],[[99539,69603],[438,-1138]],[[99977,68465],[-66,-1287]],[[99911,67178],[-5099,4851]],[[93783,71930],[88,-50]],[[93936,71831],[-1072,1832]],[[92820,73910],[-1203,2277]],[[91135,75346],[-1401,-4802]],[[89734,70544],[-43,0]],[[89691,70544],[-3634,2624]],[[83300,76930],[-110,49]],[[83190,76979],[-109,50]],[[83081,77029],[-44,49]],[[83037,77078],[-1335,3466]],[[81702,80544],[-22,0]],[[92755,78960],[328,742],[22,-49],[-44,-396],[-306,-297]],[[89012,77524],[0,198]],[[71393,66782],[22,148],[44,-49],[-66,-99]],[[83847,83465],[0,148],[44,99],[-22,-247],[-22,0]],[[93871,71880],[65,-49]],[[93936,71831],[-65,49]],[[93149,72871],[131,99],[44,-149],[-175,-49],[0,99]],[[77850,67178],[1685,3564],[2123,-3168],[-1707,-3961],[-2101,3565]],[[62114,74900],[0,99],[153,-346],[-88,0],[-65,247]],[[71809,26633],[285,-247],[44,-248],[-154,-49],[-175,544]],[[64915,50247],[22,0]],[[64937,50247],[635,1238]],[[65572,51485],[1160,-446]],[[66732,51039],[-482,-4802],[-1904,693],[569,3317]],[[65637,27722],[197,-247]],[[65834,27475],[110,-149]],[[65944,27326],[-723,-2128]],[[65221,25198],[416,2524]],[[63142,78514],[44,545],[109,-99],[22,-396],[-175,-50]],[[93346,74108],[65,0],[22,-148],[-66,-50],[-21,198]],[[93805,73910],[88,50],[0,-149],[-66,0],[-22,99]],[[94878,76039],[87,148],[88,-198],[-22,-148],[-153,198]],[[82556,45247],[-22,0]],[[82534,45247],[481,1139]],[[83015,46386],[131,-99]],[[83146,46287],[679,-1535]],[[83825,44752],[-66,-2079]],[[83759,42673],[-2298,940],[1073,1634]],[[62770,78564],[132,0],[65,-347],[-109,0],[-88,347]],[[62420,78712],[44,99]],[[62464,78811],[44,0]],[[62508,78811],[1116,1040]],[[63624,79851],[-66,-743]],[[63558,79108],[175,-445]],[[63733,78663],[0,-50],[-65,-148],[65,49],[22,99],[-22,50]],[[63733,78663],[-175,445]],[[63558,79108],[241,792]],[[63799,79900],[1094,-742]],[[64893,79158],[-1444,-5792]],[[63427,73366],[22,0]],[[63449,73366],[-44,-396]],[[63405,72970],[-591,396]],[[62814,73366],[-394,5346]],[[89078,78514],[350,1089]],[[89428,79603],[503,594]],[[89931,80197],[44,-2227]],[[89975,77970],[44,-99]],[[90019,77871],[44,2425]],[[90063,80296],[1554,-4109]],[[91617,76187],[-482,-841]],[[91135,75346],[-2123,2178]],[[89012,77524],[0,198]],[[89012,77722],[66,792]],[[65112,79009],[-460,-5891]],[[64652,73118],[460,5891]],[[94921,76831],[66,-99]],[[94987,76732],[350,-594]],[[95337,76138],[219,-693]],[[95556,75445],[-109,-2327]],[[95447,73118],[-197,-396]],[[95250,72722],[-438,-693]],[[94812,72029],[-1029,-99]],[[93783,71930],[-919,1733]],[[92864,73663],[-44,247]],[[92820,73910],[2101,2921]],[[94856,75148],[43,99],[-21,346],[109,-396],[-131,-49]],[[69905,49900],[219,-396]],[[70124,49504],[88,-1237]],[[70190,48267],[22,0]],[[70212,48267],[350,-1634]],[[70562,46633],[-460,-1831]],[[70102,44802],[-1116,-1139]],[[68986,43663],[-372,148]],[[68614,43811],[1291,6089]],[[73473,51039],[-44,-445]],[[73429,50594],[1707,-2179]],[[75136,48415],[-1072,-4158]],[[74064,44257],[-2298,396]],[[71766,44653],[-570,1980]],[[71196,46633],[679,3367]],[[71875,50000],[22,198]],[[71897,50198],[416,3217]],[[72313,53415],[503,13911]],[[72816,67326],[44,297]],[[72860,67623],[3939,1881],[-1554,-16930]],[[75245,52574],[-87,-842]],[[75158,51732],[-22,-148]],[[75136,51584],[-1663,-545]],[[70365,40990],[788,-2129]],[[71153,38811],[0,50]],[[71153,38861],[65,1881]],[[71218,40742],[701,-1683]],[[71919,39059],[-153,-1287]],[[71766,37772],[-1839,-1584]],[[69927,36188],[-722,1782]],[[69205,37970],[1160,3020]],[[83300,76930],[2757,-3762]],[[86057,73168],[788,4207]],[[86845,77375],[-2451,1733]],[[84394,79108],[-394,-297]],[[84000,78811],[-131,-148]],[[83869,78663],[-569,-1733]],[[90785,76385],[262,-99],[-65,-544],[-22,396],[-175,247]],[[83234,75643],[88,0]],[[83322,75643],[1291,-3020]],[[84613,72623],[-1379,3020]],[[56358,55445],[-263,-3168]],[[56095,52277],[-2408,1336]],[[53687,53613],[88,446]],[[53775,54059],[22,0]],[[53797,54059],[-132,0]],[[53665,54059],[2693,1386]],[[82971,58712],[307,545]],[[83278,59257],[2167,-1931]],[[85445,57326],[-373,-2079]],[[85072,55247],[-2144,347],[43,3118]],[[89275,77771],[65,149],[154,-49],[-154,-347],[-65,247]],[[70124,28267],[2473,-2178]],[[72597,26089],[-109,-545]],[[72488,25544],[-1095,-1237]],[[71393,24356],[0,-49]],[[71393,24307],[-43,-446]],[[71350,23861],[-350,0]],[[71000,23861],[-985,1683]],[[70015,25544],[109,2723]],[[90347,76039],[372,297],[22,-99],[-263,-297],[-131,99]],[[95031,73910],[109,297],[110,-99],[-132,-297],[-87,99]],[[19698,54950],[-2167,4653],[2801,-3811],[1007,5049],[854,-4752],[1204,1831],[4530,-8317]],[[42657,37821],[-2298,-9257],[1619,-2277],[-591,-17178],[-9674,-2574],[-2013,7623],[-4968,4654]],[[12169,47772],[1795,2079],[-2342,5693],[1422,1931],[1904,-7178],[110,-50],[-504,3614],[1751,1733],[-2451,2970],[2320,2376],[1620,-7871]],[[18494,53910],[985,743]],[[18275,49851],[-284,1040]],[[19698,54950],[3720,-7673],[-4508,-3664],[-897,5594]],[[18013,49207],[262,644]],[[18275,49851],[-284,1040]],[[17991,50891],[-197,2178]],[[17794,53069],[766,-248]],[[18560,52871],[0,-50]],[[18560,52821],[-66,1089]],[[18494,53910],[985,743]],[[19479,54653],[219,297]],[[19698,54950],[1838,-5198],[-2035,-3267],[-1488,2722]],[[47887,99999],[0,-50]],[[47887,99949],[482,-2128]],[[48369,97821],[0,-50]],[[48369,97771],[-66,-1930]],[[48303,95841],[0,-50]],[[48303,95791],[-65,-792]],[[48238,94999],[0,-99]],[[48238,94900],[-88,-990]],[[48150,93910],[153,0]],[[48303,93910],[1292,-4356]],[[49595,89554],[0,-50]],[[49595,89504],[109,-5000]],[[49704,84504],[0,-49]],[[49704,84455],[-219,-1585]],[[49485,82870],[0,-49]],[[49485,82821],[1138,-3812]],[[50623,79009],[22,0]],[[50645,79009],[1270,-2624]],[[51915,76385],[0,-297]],[[51915,76088],[87,-1485]],[[52002,74603],[0,-99]],[[52002,74504],[1642,-6930],[-1708,99]],[[51936,67673],[0,49]],[[51936,67722],[-1969,-1436]],[[49967,66286],[-44,0]],[[49923,66286],[-2517,-2871]],[[47406,63415],[-22,-49]],[[47384,63366],[569,-1436]],[[47953,61930],[44,0]],[[47997,61930],[2495,-6237],[350,-8317]],[[50842,47376],[0,-50]],[[50842,47326],[153,-693]],[[50995,46633],[66,-49]],[[51061,46584],[-1773,-7574],[-6631,-1189]],[[42657,37821],[-3021,12723],[-9652,-7673],[-2057,6732]],[[27927,49603],[1598,9060],[-1313,3812]],[[28190,62524],[-3655,11832],[-329,7623],[745,-2376],[3917,5990],[-2582,-9158],[4136,4752],[394,4109],[1795,-1237],[-44,-5792],[-5931,-6189],[1335,-4752],[3064,3218],[328,-4604]],[[31429,65395],[1094,5644],[1270,-2178],[503,247],[613,5149],[5471,5000],[-459,2970],[1970,-2030],[-2014,4555],[-44,10346],[1620,1040],[2210,-8416],[4246,594],[-1532,6584],[1510,5049]],[[28212,62475],[-22,49]],[[28190,62524],[-963,4654],[4136,-1238]],[[31363,65940],[66,-545]],[[31429,65395],[0,-198]],[[32020,64851],[2582,4158],[1095,-1930],[-788,-5792],[-2014,-743],[1095,-3465],[-3305,-446],[-2473,5842]],[[31429,65197],[591,-346]],[[32020,64851],[1860,99],[-1970,-3961],[-1357,1931],[876,2277]],[[14664,34158],[4312,1089],[2823,-10544],[1816,1782],[1117,-7673]],[[24732,18812],[-3590,-2674],[2101,-12079],[-3480,-4059],[-2954,5346],[-6479,-346],[-1313,6782],[-4487,5743],[-196,4802]],[[12628,20544],[-590,-445],[-197,643],[831,297],[-44,-495]],[[14511,22277],[0,50],[65,49],[0,-49],[-65,-50]],[[16831,28861],[153,248],[-131,-198],[-22,-50]],[[17093,29257],[-87,99],[44,149],[0,-198],[43,-50]],[[14839,31039],[0,0]],[[14927,31039],[0,0]],[[16831,28861],[2166,-9851],[-4202,-5446],[-2167,6238],[4794,3515],[-2495,7722],[1904,-2178]],[[15430,30841],[-219,0],[350,-693],[-131,347],[0,346]],[[15977,31039],[-175,-643],[525,49],[-131,99],[-219,495]],[[13723,19505],[22,-149],[65,99],[-65,99],[-22,-49]],[[13001,19109],[21,-149],[66,0],[-22,198],[-65,-49]],[[18713,18663],[-66,248],[-65,-50],[65,-247],[66,49]],[[13635,18663],[22,-99],[66,0],[0,198],[-88,-99]],[[17859,16733],[-372,495],[329,-1585],[306,545],[-263,545]],[[15627,14703],[153,148],[175,-198],[-109,347],[-219,-297]],[[18144,18762],[-2758,-1782],[-832,3465],[2824,1386],[766,-3069]],[[13964,20940],[131,-940],[-547,-297],[-175,1485],[591,-248]],[[14664,34158],[-153,-4158],[-2999,792],[-2385,-6139],[-1642,3565],[-3151,-5891]],[[4334,22327],[-2080,-1288],[-2232,6535],[6369,10049],[-1467,7426],[2714,-3465],[920,2227],[-1576,2921],[5187,1040]],[[12169,47772],[2495,-13614]],[[8207,41534],[175,644]],[[8733,42079],[1291,3564],[1248,-2079]],[[11206,41831],[22,-544]],[[11228,40742],[372,-2426],[-1445,1189]],[[10133,39505],[-1006,-2723],[-351,2624]],[[10133,39505],[-1357,-99]],[[8776,39406],[-569,2128]],[[8207,41534],[175,644]],[[8382,42178],[351,-99]],[[8733,42079],[2539,1485]],[[11272,43564],[-66,-1733]],[[11206,41831],[22,-544]],[[11228,41287],[0,-545]],[[11228,40742],[-1073,-1237]],[[10155,39505],[-22,0]]]}