{"type":"Topology","objects":{"data":{"geometries":[{"properties":{"type":"21201","name":"21"},"type":"Polygon","arcs":[[115,155,116,0,118,1,-580,2,-578,3,-576,4,-574,5,-572,6,-570,7,-568,8,-566,9,-564,10,-562,11,-560,12,-558,13,-556,14,-554,15,-552,16,-550,17,-548,18,-546,19,-544,20,-542,21,-540,22,-538,23,-536,24,-534,25,-532,26,-530,27,-528,28,-526,29,-524,30,-522,31,-520,32,-518,33,-516,34,-514,35,-512,36,-510,37,-508,38,-506,39,-504,40,-502,41,-500,42,-498,43,-496,44,-494,45,-492,46,-490,47,-488,48,-486,49,-484,50,-482,51,-480,52,-478,53,-476,54,-474,55,-472,56,125,57,70,58,72,59,76,60,78,61,80,-82,81,82,62,111,151,112,63]],"id":"feature_00"},{"properties":{"type":"21201","name":"21"},"type":"Polygon","arcs":[[64,201,65,203,-205,204,205,66,207,67,209,68,193,69,70,71,72,73,183,74,185,75,76,77,78,79,80,-82,81,82,83,177,84,179,85,181,86,197,87,199],[88,191,89,187,90,189],[91],[92],[167,93],[94],[95],[96]],"id":"feature_01"},{"properties":{"type":"21201","name":"21"},"type":"Polygon","arcs":[[97,160,98,162,99,164,100,131,101,146,102,148,103,166],[104],[105]],"id":"feature_02"},{"properties":{"type":"21201","name":"21"},"type":"Polygon","arcs":[[143]],"id":"feature_03"},{"properties":{"type":"21201","name":"21"},"type":"Polygon","arcs":[[106,134,107,136,108,138,109,140,110,142]],"id":"feature_04"},{"properties":{"type":"21201","name":"21"},"type":"Polygon","arcs":[[111,151,112,113,153,114,115,155,116,117,118,119,157,120],[158]],"id":"feature_05"},{"properties":{"type":"21201","name":"21"},"type":"Polygon","arcs":[[121]],"id":"feature_06"},{"properties":{"type":"21201","name":"21"},"type":"Polygon","arcs":[[122,176],[172,123,174,124]],"id":"feature_07"},{"properties":{"type":"21201","name":"21"},"type":"Polygon","arcs":[[125,126],[127],[128]],"id":"feature_08"},{"properties":{"type":"21201","name":"21"},"type":"Polygon","arcs":[[129]],"id":"feature_09"},{"properties":{"type":"21201","name":"21"},"type":"Polygon","arcs":[[130]],"id":"feature_10"},{"properties":{"type":"21201","name":"21"},"type":"Polygon","arcs":[[131,132]],"id":"feature_11"},{"properties":{"type":"21201","name":"21"},"type":"MultiPolygon","arcs":[[[133,134,135,136,137,138,139,140,141,142]],[[143]]],"id":"feature_12"},{"properties":{"type":"21201","name":"21"},"type":"Polygon","arcs":[[-196,144,-170,145]],"id":"feature_13"},{"properties":{"type":"21201","name":"21"},"type":"Polygon","arcs":[[146,147,148,149]],"id":"feature_14"},{"properties":{"type":"21201","name":"21"},"type":"Polygon","arcs":[[150,151,152,153,154,155,156,157],[158]],"id":"feature_15"},{"properties":{"type":"21201","name":"21"},"type":"Polygon","arcs":[[159,160,161,162,163,164,165,166]],"id":"feature_16"},{"properties":{"type":"21201","name":"21"},"type":"Polygon","arcs":[[167,168]],"id":"feature_17"},{"properties":{"type":"21201","name":"21"},"type":"Polygon","arcs":[[169,170]],"id":"feature_18"},{"properties":{"type":"21201","name":"21"},"type":"Polygon","arcs":[[171,172,173,174,175,176]],"id":"feature_19"},{"properties":{"type":"21201","name":"21"},"type":"Polygon","arcs":[[177,178,179,180,181,182]],"id":"feature_20"},{"properties":{"type":"21201","name":"21"},"type":"Polygon","arcs":[[183,184,185,186,187,188,189,190,191,192,193,194]],"id":"feature_21"},{"properties":{"type":"21201","name":"21"},"type":"Polygon","arcs":[[195,196,197,198,199,200,201,202,203,-205,204,205,206,207,208,209,210]],"id":"feature_22"},{"properties":{"type":"21201","name":"21"},"type":"Polygon","arcs":[[211]],"id":"feature_23"},{"properties":{"type":"21202","name":"21"},"type":"Polygon","arcs":[[-279,212,-356,213,-363,-284,-361,-283,214]],"id":"feature_24"},{"properties":{"type":"21202","name":"21"},"type":"MultiPolygon","arcs":[[[-266,-265,-270,-310,215,216,-307,-316,-273,-314,-313,217,-268,218,-276,219],[220,-261,-329,-328,-327,221,222,-372,-288,223,-369,-378,-292,-376,224,-245,-354,-291,-352,225,-350,226,-348,-293,-346,-244,-367,-263,-262,261,-264,-365,-243,-323,227,-321,-320,-240,-305,-294,228,-302,-289,-300,229,-249,-325,-260,-259,258,-258,-336,-335,230,-333,-332],[231],[274],[285]],[[232,-317,-242]],[[233]],[[234]],[[235]],[[-342,341,-341,-340,339,-339,236,-256,237,-343]],[[252]]],"id":"feature_25"},{"properties":{"type":"21202","name":"21"},"type":"MultiPolygon","arcs":[[[238,-306,239,-319,240,241,-324,242,-368,243,-355,244,245,-374,246,247,-327,-326,248],[249],[250],[251],[252]],[[253,-345,254,255,256,-337,257,-259,258,259,-330,-329,328,260]],[[-262,261,262,-366,263]],[[264,265,266,267,268,-311,269]],[[270]],[[-335,-334,-333,271]],[[313,-314,272,-315]],[[-322,-321,273]],[[274]],[[275,276]],[[-358,277,278,279]],[[-364,280,-360,281,282,360,283,284]],[[285]],[[286,287,-371]],[[-301,288]],[[-353,-352,-351,-350,-349,289,351,290]],[[-378,-377,291]],[[-347,292]],[[293,-304,294]],[[295,-308,-307,296]],[[297]]],"id":"feature_26"},{"properties":{"type":"21202","name":"21"},"type":"Polygon","arcs":[[298,299,300,301,302,303,304,305]],"id":"feature_27"},{"properties":{"type":"21202","name":"21"},"type":"Polygon","arcs":[[306,307,308,309,310,311,312,313,314,315]],"id":"feature_28"},{"properties":{"type":"21202","name":"21"},"type":"Polygon","arcs":[[316,317,318,319,320,321,322,323]],"id":"feature_29"},{"properties":{"type":"21202","name":"21"},"type":"Polygon","arcs":[[324,325,326,327,328,329]],"id":"feature_30"},{"properties":{"type":"21202","name":"21"},"type":"Polygon","arcs":[[330,331,332,333,334,335,336,337,338,-340,339,340,-342,341,342,343,344]],"id":"feature_31"},{"properties":{"type":"21202","name":"21"},"type":"Polygon","arcs":[[345,346,347,348,349,350,351,352,353,354]],"id":"feature_32"},{"properties":{"type":"21202","name":"21"},"type":"Polygon","arcs":[[355,356,357,358,359,360,361,362,363]],"id":"feature_33"},{"properties":{"type":"21202","name":"21"},"type":"Polygon","arcs":[[364,365,366,367]],"id":"feature_34"},{"properties":{"type":"21202","name":"21"},"type":"Polygon","arcs":[[368,369,370,371,372,373,374,375,376,377]],"id":"feature_35"},{"properties":{"type":"21204","name":"21"},"type":"Polygon","arcs":[[378]],"id":"feature_36"},{"properties":{"type":"21204","name":"21"},"type":"Polygon","arcs":[[452,379]],"id":"feature_37"},{"properties":{"type":"21204","name":"21"},"type":"Polygon","arcs":[[434,380,432,381]],"id":"feature_38"},{"properties":{"type":"21204","name":"21"},"type":"Polygon","arcs":[[382,457,383,459,384,461,385,416,386,387,-403,388,418,389,420,390,411,391,414,392,463,393,465,394,467,395,441,396,455]],"id":"feature_39"},{"properties":{"type":"21204","name":"21"},"type":"Polygon","arcs":[[397]],"id":"feature_40"},{"properties":{"type":"21204","name":"21"},"type":"Polygon","arcs":[[-446,398]],"id":"feature_41"},{"properties":{"type":"21204","name":"21"},"type":"Polygon","arcs":[[424,399,426,400,428,401,402,403,422,404]],"id":"feature_42"},{"properties":{"type":"21204","name":"21"},"type":"Polygon","arcs":[[-448,405,443,406]],"id":"feature_43"},{"properties":{"type":"21204","name":"21"},"type":"Polygon","arcs":[[439,407,435,408,437,409]],"id":"feature_44"},{"properties":{"type":"21204","name":"21"},"type":"Polygon","arcs":[[410,411]],"id":"feature_45"},{"properties":{"type":"21204","name":"21"},"type":"Polygon","arcs":[[450,412]],"id":"feature_46"},{"properties":{"type":"21204","name":"21"},"type":"Polygon","arcs":[[453,413]],"id":"feature_47"},{"properties":{"type":"21204","name":"21"},"type":"Polygon","arcs":[[414,415,416,417,418,419,420,421]],"id":"feature_48"},{"properties":{"type":"21204","name":"21"},"type":"Polygon","arcs":[[422,423,424,425,426,427,428,429]],"id":"feature_49"},{"properties":{"type":"21204","name":"21"},"type":"Polygon","arcs":[[430]],"id":"feature_50"},{"properties":{"type":"21204","name":"21"},"type":"Polygon","arcs":[[431,432,433,434]],"id":"feature_51"},{"properties":{"type":"21204","name":"21"},"type":"Polygon","arcs":[[435,436,437,438,439,440]],"id":"feature_52"},{"properties":{"type":"21204","name":"21"},"type":"Polygon","arcs":[[441,442]],"id":"feature_53"},{"properties":{"type":"21204","name":"21"},"type":"Polygon","arcs":[[443,444,445,446,447,448]],"id":"feature_54"},{"properties":{"type":"21204","name":"21"},"type":"Polygon","arcs":[[449,450]],"id":"feature_55"},{"properties":{"type":"21204","name":"21"},"type":"Polygon","arcs":[[451,452]],"id":"feature_56"},{"properties":{"type":"21204","name":"21"},"type":"Polygon","arcs":[[453,454]],"id":"feature_57"},{"properties":{"type":"21204","name":"21"},"type":"Polygon","arcs":[[455,456,457,458,459,460,461,462,463,464,465,466,467,468]],"id":"feature_58"},{"properties":{"type":"21205","name":"21"},"type":"Polygon","arcs":[[-605,469,-603,470,471,472,473,474,475,476,477,478,479,480,481,482,483,484,485,486,487,488,489,490,491,492,493,494,495,496,497,498,499,500,501,502,503,504,505,506,507,508,509,510,511,512,513,514,515,516,517,518,519,520,521,522,523,524,525,526,527,528,529,530,531,532,533,534,535,536,537,538,539,540,541,542,543,544,545,546,547,548,549,550,551,552,553,554,555,556,557,558,559,560,561,562,563,564,565,566,567,568,569,570,571,572,573,574,575,576,577,578,579,580]],"id":"feature_59"},{"properties":{"type":"21205","name":"21"},"type":"Polygon","arcs":[[591,581,593,582,595,583,597,584,599,585],[601],[586],[587],[589,588]],"id":"feature_60"},{"properties":{"type":"21205","name":"21"},"type":"Polygon","arcs":[[589,590,591,592,593,594,595,596,597,598,599,600],[601]],"id":"feature_61"},{"properties":{"type":"21211","name":"21"},"type":"Polygon","arcs":[[602,603,604,605,617,606,619,607]],"id":"feature_62"},{"properties":{"type":"21211","name":"21"},"type":"Polygon","arcs":[[629,608,631,609,633,610,637,611,639,612,641,613,643,614,623,615,625,616,617,618,619,620,627,621]],"id":"feature_63"},{"properties":{"type":"21211","name":"21"},"type":"Polygon","arcs":[[635,622]],"id":"feature_64"},{"properties":{"type":"21211","name":"21"},"type":"Polygon","arcs":[[623,624,625,626,627,628,629,630,631,632,633,634]],"id":"feature_65"},{"properties":{"type":"21211","name":"21"},"type":"Polygon","arcs":[[635,636]],"id":"feature_66"},{"properties":{"type":"21211","name":"21"},"type":"Polygon","arcs":[[637,638,639,640,641,642,643,644]],"id":"feature_67"}],"type":"GeometryCollection"}},"bbox":[136.5406,35.2704,137.1865,35.5952],"transform":{"scale":[6.459064590645739e-06,3.2480324803247653e-06],"translate":[136.5406,35.2704]},"arcs":[[[29571,27309],[-16,-123]],[[29478,26878],[-6503,-1570],[186,4279],[2508,6527],[-2074,6127],[820,17026],[-2353,3756],[387,2340],[1966,61],[-1207,5665],[1130,616],[-2322,3725],[1099,3510],[-1781,3079],[3437,1816],[5574,-10714],[3530,-400],[2229,-4926],[2416,369],[572,-2309],[1610,2679],[-402,3664],[2152,1631],[-852,4526],[1936,1324]],[[43567,79679],[263,246]],[[43876,79925],[449,31]],[[44325,79864],[155,-585]],[[44480,79248],[201,-677]],[[44697,78540],[573,-400]],[[45332,78140],[185,-124]],[[45517,77986],[-15,-123]],[[45502,77832],[-16,-616]],[[45486,77062],[47,-277]],[[45548,76754],[62,-154]],[[45610,76539],[124,-62]],[[45734,76508],[201,154]],[[45982,76662],[402,-277]],[[46384,76323],[-108,-708]],[[46292,75584],[123,-800]],[[46415,74691],[465,-677]],[[46973,74014],[77,-462]],[[47050,73398],[263,-585]],[[47360,72813],[77,31]],[[47577,72844],[1656,616]],[[49280,73398],[154,-154]],[[49450,73244],[-186,-769]],[[49264,72321],[-46,-647]],[[49218,71582],[77,-616]],[[49280,70966],[-1177,1355],[-944,-1817]],[[47205,70504],[31,-31]],[[47236,70381],[-1765,-9483],[2694,154]],[[48227,60991],[666,-924]],[[48893,60036],[0,-277]],[[48893,59667],[30,-92]],[[48939,59575],[248,92]],[[49218,59698],[31,30]],[[49249,59667],[31,-154]],[[49295,59482],[294,-123]],[[49636,59359],[77,62]],[[49729,59451],[61,-92]],[[49852,59359],[47,123]],[[49992,59482],[62,0]],[[50085,59513],[913,154]],[[51014,59667],[387,-185]],[[51432,59482],[108,31]],[[51540,59482],[0,-277]],[[51540,59174],[77,-92]],[[51617,59051],[341,-369]],[[51973,58682],[403,-123]],[[52422,58559],[310,-678]],[[52732,57850],[93,-154]],[[52840,57696],[372,-954]],[[53197,56742],[61,-185]],[[53320,56557],[47,-92]],[[53336,56434],[-93,31]],[[53212,56465],[-46,-92]],[[53166,56342],[-295,-1324]],[[52871,54987],[31,-646]],[[52902,54279],[-2059,-800],[449,-2248],[-1858,-770],[-139,-2894],[-2198,-154],[-480,2155],[-3623,-1262]],[[42436,47198],[0,-616]],[[42452,46582],[62,-62]],[[42467,44673],[-92,-5234]],[[42669,36853],[-294,-154]],[[42189,36668],[-1564,-30]],[[33813,33066],[-1068,-2494]],[[31924,28787],[-944,-1293]],[[36027,51693],[77,-31]],[[36693,51631],[-16,-31]],[[35965,50030],[-62,-184]],[[35330,49568],[-433,-1108]],[[34726,48306],[-93,-2678],[4413,-277]],[[39402,45412],[3034,1170]],[[42436,46582],[16,0]],[[42452,46582],[62,-62]],[[42514,46520],[-47,-1847]],[[42467,44673],[-2244,-554]],[[40161,44119],[-1781,-554]],[[38009,43565],[820,-862],[-836,-1940],[4382,-1324]],[[42375,39439],[294,-2586]],[[42669,36853],[-294,-154]],[[42375,36699],[-186,-31]],[[42189,36668],[-1564,-30]],[[40625,36638],[-1331,1847]],[[39309,38485],[-15,0]],[[39294,38485],[-3437,339],[-805,-5050],[-1239,-708]],[[33813,33066],[-1750,-1724],[914,1632],[-759,1416]],[[32218,34606],[16,400]],[[32234,35191],[46,1108]],[[32280,36484],[-5109,-3603],[511,5850],[-2291,2833],[9335,8559]],[[34773,50184],[666,585]],[[38272,45012],[46,31]],[[38365,45043],[-480,92]],[[37931,45073],[47,-30]],[[35237,43226],[527,154],[15,955],[-573,-401],[31,-708]],[[36259,42672],[-93,-708],[527,-154],[-155,1355],[-279,-493]],[[29524,41625],[1007,893],[-1022,-554]],[[31150,39347],[-248,-1447],[635,31],[93,1447],[-480,-31]],[[29850,36207],[696,30],[31,1016],[-851,-831],[124,-215]],[[38334,45474],[-233,400],[-185,-277],[15,-216],[403,93]],[[37606,64901],[-31,-62]],[[37560,64716],[31,-61]],[[37637,64593],[759,-924],[-929,-462]],[[37296,62715],[-898,-2925],[511,-7358],[-5295,-3479],[-294,1785]],[[31320,50769],[-356,4403]],[[30933,55233],[449,1201]],[[31940,56588],[727,31],[-356,-985],[-108,-1047],[124,-185],[2957,-31],[1502,10130]],[[32590,54741],[-62,-31],[-62,-246],[93,92],[31,185]],[[33519,53910],[-867,-216],[-93,-215],[573,-801],[387,1232]],[[47747,55203],[-93,-277]],[[47267,55203],[-47,61]],[[46988,54802],[-108,-246]],[[46833,54371],[-557,-3202],[-2198,-615],[3530,6219]],[[47623,56804],[46,708]],[[32745,30572],[340,-492]],[[33132,29987],[-1208,-1200]],[[31924,28787],[-635,369]],[[31181,28971],[-201,-1477]],[[30980,27494],[-1100,461]],[[29850,27955],[-279,-646]],[[29571,27309],[-16,-123]],[[29555,27186],[-77,-308]],[[29478,26878],[-619,1201]],[[29493,30264],[3252,308]],[[31522,31650],[278,-277],[-1796,246],[635,308],[883,-277]],[[40346,43288],[1936,-1139],[-2818,-93]],[[39572,42764],[47,-154]],[[39650,42580],[588,461]],[[42994,48306],[-558,-1108]],[[42436,47198],[-526,2340],[929,1016],[1006,-308],[-851,-1940]],[[42545,50123],[-31,0],[0,-93],[62,31],[-31,62]],[[42390,48121],[0,-92],[77,92],[-46,247],[-31,-247]],[[29911,57573],[-944,-92],[341,1632],[634,-1016],[-31,-524]],[[30701,46490],[-3174,-216],[-511,1478],[403,2063],[1842,-370],[1997,-954],[-557,-2001]],[[31320,50738],[0,31]],[[31320,50769],[620,1971],[-295,-2002],[1162,-307],[-1487,307]],[[47747,55203],[-93,-277]],[[47654,54926],[-387,277]],[[47267,55203],[-47,61]],[[47220,55264],[-232,-462]],[[46988,54802],[-108,-246]],[[46880,54556],[-47,-185]],[[46833,54371],[775,2402]],[[47608,56773],[15,31]],[[47623,56804],[46,708]],[[47669,57512],[78,-2309]],[[47716,57974],[124,-31],[263,-216],[-434,-92],[47,339]],[[34711,48337],[-387,-5696]],[[32652,43011],[-1316,-62],[418,3418],[2616,2278]],[[30964,55172],[-31,61]],[[30933,55233],[449,1201]],[[31382,56434],[558,154]],[[31940,56588],[-93,-2278],[1718,61],[635,-554],[-2369,154],[-867,1201]],[[29493,30264],[3592,-184]],[[33085,30080],[47,-93]],[[33132,29987],[-1843,-831]],[[31289,29156],[-108,-185]],[[31181,28971],[-1301,-1016]],[[29880,27955],[-30,0]],[[29850,27955],[-991,124]],[[28859,28079],[634,2185]],[[29029,29495],[0,-554],[341,-185],[0,800],[-341,-61]],[[37606,64901],[-31,-62]],[[37575,64839],[-15,-123]],[[37560,64716],[31,-61]],[[37591,64655],[46,-62]],[[37637,64593],[-170,-1386]],[[37467,63207],[-171,-492]],[[37296,62715],[-510,1786]],[[36786,64501],[820,400]],[[29509,41964],[15,-339]],[[29524,41625],[-712,-4741],[-1084,31],[496,6126],[-1347,-831],[0,370],[3514,1878],[-1316,-862],[434,-1632]],[[32652,43011],[1672,-370]],[[34324,42641],[1254,-1478],[-1579,-1970],[-1966,862],[619,2956]],[[40346,43288],[-108,-247]],[[40238,43041],[-666,-277]],[[39572,42764],[47,-154]],[[39619,42610],[31,-30]],[[39650,42580],[1765,-401],[-1951,-123]],[[39464,42056],[882,1232]],[[32218,34390],[0,216]],[[32218,34606],[16,400]],[[32234,35006],[0,185]],[[32234,35191],[46,1108]],[[32280,36299],[0,185]],[[32280,36484],[2338,-986],[-2400,-1108]],[[40223,44119],[-62,0]],[[40161,44119],[-1781,-554]],[[38380,43565],[-371,0]],[[38009,43565],[-124,1570]],[[37885,45135],[46,-62]],[[37931,45073],[47,-30]],[[37978,45043],[294,-31]],[[38272,45012],[46,31]],[[38318,45043],[47,0]],[[38365,45043],[681,308]],[[39046,45351],[356,61]],[[39402,45412],[821,-1293]],[[34711,48337],[-341,308]],[[34370,48645],[356,1478]],[[34726,50123],[47,61]],[[34773,50184],[666,585]],[[35439,50769],[588,924]],[[36027,51693],[77,-31]],[[36104,51662],[589,-31]],[[36693,51631],[-16,-31]],[[36677,51600],[-325,-1139]],[[36337,50461],[15,0]],[[36352,50461],[-387,-431]],[[35965,50030],[-62,-184]],[[35903,49846],[-573,-278]],[[35330,49568],[-433,-1108]],[[34897,48460],[-171,-154]],[[34726,48306],[-15,31]],[[36522,56619],[449,-2771],[-1780,-862],[511,5357],[820,-1724]],[[21071,27401],[16,154]],[[22619,28571],[-511,1016]],[[20746,29372],[1022,1693],[1440,-1416],[-294,-6681],[-2462,646],[186,3171]],[[8453,28048],[-15,92]],[[8438,28140],[-47,62]],[[7431,26077],[16,-338]],[[6332,21798],[-3267,800],[-31,8282],[-2740,2217],[914,2802],[-1177,3417],[1068,-1693],[1146,1570],[-1486,1539],[1594,2433],[4521,-709],[3267,-5141],[727,3972],[1889,-216],[542,-4680],[2725,-338],[1889,-3079],[-140,-10868]],[[17170,21120],[-2106,-1816],[263,-6312],[-4551,-5880],[-2493,3264],[-1811,10313]],[[7075,38177],[-15,92]],[[6688,31434],[2400,555],[-15,-11330],[1811,-277],[1037,4248],[-247,-6989]],[[11674,17641],[-16,-246]],[[11782,15024],[124,-30]],[[12525,17457],[16,123]],[[14259,23152],[16,62]],[[14275,23276],[-16,61]],[[13330,30757],[-542,3571],[-449,-2370]],[[12633,34606],[-15,307]],[[12045,36484],[-15,123]],[[7586,36638],[1610,1231],[-1997,246]],[[4877,29248],[-1394,-615],[2632,-955],[-480,1570],[-758,0]],[[10141,28694],[108,-30]],[[9831,21983],[-46,985],[511,31],[31,-986],[-496,-30]],[[14693,25954],[-140,0],[-31,801],[217,0],[-46,-801]],[[10977,32173],[-310,-215],[-15,492],[294,-92],[31,-185]],[[5961,37407],[-47,62]],[[5945,37500],[47,30]],[[12030,36607],[0,-62]],[[12246,33990],[0,-2001]],[[10156,28694],[-15,0]],[[10141,28694],[-1084,-1324],[1053,431]],[[13562,29864],[635,339]],[[16736,29156],[1099,-339],[-1548,-1908],[1007,-3572],[-2555,1755]],[[13609,21890],[-1068,-4310]],[[12541,17580],[0,-31]],[[11658,17426],[16,215]],[[11674,17641],[247,6989],[-1037,-4248],[-1811,277],[15,11330],[-2415,-555]],[[6704,33620],[5326,2987]],[[9785,22475],[15,-492],[527,30],[-31,986],[-511,-524]],[[14553,25954],[201,0],[-15,801],[-217,0],[31,-801]],[[10652,32389],[15,-431],[310,154],[-31,246],[-294,31]],[[9119,25092],[0,0]],[[7060,38269],[15,-61]],[[5976,37530],[-31,-30]],[[5945,37500],[-31,-31]],[[5914,37469],[31,-62]],[[6379,35683],[-78,-246]],[[6301,35406],[0,31]],[[6301,35437],[248,-1632]],[[5388,31989],[-852,61],[16,4957],[2508,1262]],[[16225,32112],[31,31]],[[16256,32143],[1285,708],[-836,-3264]],[[15436,31280],[820,863]],[[8639,26539],[0,31]],[[8639,26570],[-2167,-5881]],[[6472,20689],[-140,1109]],[[6332,21798],[1316,831],[-201,3110]],[[7447,25739],[-16,184]],[[8608,26724],[31,-185]],[[3483,28633],[991,1385],[1641,-2340],[-1888,370],[-744,585]],[[7184,38115],[2012,-246],[-1625,-1231]],[[6951,27032],[-727,616],[1115,708]],[[12324,31958],[464,2370],[542,-3571]],[[12370,11545],[-480,431],[93,1355],[527,-154],[-140,-1632]],[[17170,21120],[603,986]],[[17773,22106],[-603,-986]],[[21087,27494],[-16,-93]],[[21071,27401],[-433,-616]],[[20638,26785],[309,1232]],[[22108,29587],[-263,93]],[[20978,28725],[-232,647]],[[20746,29372],[1099,308]],[[21861,29680],[232,-93]],[[22093,29587],[526,-1016]],[[11271,13701],[279,-154],[-31,-555],[-511,124],[263,585]],[[11828,15024],[-46,0]],[[11782,15024],[-325,524]],[[12138,36514],[464,-738]],[[14259,23337],[0,-185]],[[14259,23060],[-248,-800]],[[12494,15024],[-201,-92]],[[14785,24630],[0,-61]],[[12633,34606],[-62,-62]],[[12633,34729],[0,-123]],[[8438,28140],[15,-31]],[[8376,28202],[62,-62]],[[5976,37500],[0,0]],[[12030,36545],[15,-61]],[[12045,36484],[93,30]],[[12138,36514],[464,-738]],[[12602,35776],[16,-863]],[[12618,34913],[15,-184]],[[12633,34729],[-62,-185]],[[12571,34544],[-325,-554]],[[12246,33990],[-1269,1016],[1053,1539]],[[8376,28202],[15,0]],[[8391,28202],[62,-93]],[[8453,28109],[0,-61]],[[8453,28048],[155,-1324]],[[8608,26724],[-1177,-801]],[[7431,25923],[0,154]],[[7431,26077],[-464,955]],[[6967,27032],[-16,0]],[[6951,27032],[388,1324]],[[7339,28356],[1037,-154]],[[10110,27801],[139,863]],[[10249,28664],[-93,30]],[[10156,28694],[2090,3295]],[[12246,31989],[78,-31]],[[12324,31958],[15,0]],[[12339,31958],[991,-1201]],[[13330,30757],[232,-893]],[[13562,29864],[-1192,-4895],[-2260,2832]],[[6549,33805],[155,-185]],[[6704,33620],[-16,-2186]],[[6688,31434],[-15,0]],[[6673,31434],[-1270,493]],[[5403,31927],[-15,62]],[[5388,31989],[1161,1816]],[[7075,38208],[0,-31]],[[7075,38177],[109,-62]],[[7184,38115],[15,0]],[[7199,38115],[387,-1477]],[[7586,36638],[-15,0]],[[7571,36638],[-1192,-955]],[[6379,35683],[-434,1724]],[[5945,37407],[16,0]],[[5961,37407],[31,-31]],[[5976,37376],[16,0]],[[5992,37376],[77,0]],[[6054,37346],[15,30]],[[6069,37376],[-77,154]],[[5992,37530],[-16,0]],[[5976,37530],[1099,678]],[[14739,25092],[46,-462]],[[14785,24630],[0,-61]],[[14785,24569],[-526,-1232]],[[14259,23337],[16,-61]],[[14275,23276],[0,-62]],[[14275,23214],[-16,-62]],[[14259,23152],[0,-92]],[[14259,23060],[-248,-800]],[[14011,22260],[-402,-370]],[[13609,21890],[-898,2155],[2028,1047]],[[22619,28571],[-1532,-1016]],[[21087,27555],[0,-61]],[[21087,27494],[-140,523]],[[20947,28017],[31,708]],[[20978,28725],[867,955]],[[21845,29680],[16,0]],[[21861,29680],[232,-93]],[[22093,29587],[15,0]],[[22108,29587],[511,-1016]],[[14197,30203],[1239,1077]],[[15436,31280],[1269,-1693]],[[16705,29587],[31,-431]],[[16736,29156],[-1765,-2217],[-774,3264]],[[12262,14932],[-356,62]],[[11906,14994],[-78,30]],[[11828,15024],[-371,524]],[[11457,15548],[201,1847]],[[11658,17395],[0,31]],[[11658,17426],[883,123]],[[12541,17549],[-16,-92]],[[12525,17457],[-31,-2433]],[[12494,15024],[-201,-92]],[[12293,14932],[-31,0]],[[81436,11915],[-480,2925],[1270,3633],[-1564,2678],[-2090,-1200],[-449,4741],[1532,10098],[2029,3202],[-1239,2864],[960,-986],[2880,-8867],[4381,-615],[1641,4741],[3267,-2186],[2152,-6527],[-2090,-2001],[2307,-5911],[-1022,-3079],[2849,-2617],[1594,-7174],[-1084,-1262],[1719,-2217],[-1672,-2124],[-1626,3971],[-3034,-1108],[-2152,4249],[-4552,2463],[-944,-3387],[-2307,493],[46,4064],[-2322,1139]],[[88728,13855],[635,-955],[-1115,955]],[[91902,20566],[2028,-2155],[-3669,-431]],[[90261,18165],[-31,308]],[[85214,28633],[15,-62]],[[85198,28540],[-93,124]],[[85059,28386],[-16,-184]],[[85012,28017],[-46,-308]],[[84919,27401],[1363,-2401]],[[86282,25000],[0,0]],[[86297,24907],[-2399,370],[789,2124]],[[84687,27463],[-15,61]],[[84672,27801],[-558,31]],[[84130,27863],[635,154]],[[84857,28140],[78,462]],[[84904,28848],[-16,93]],[[84919,29002],[-247,2032],[975,-1416]],[[85694,29649],[2337,1601],[-232,-1663]],[[88171,28664],[-1487,-3480],[264,4218],[-1301,-154]],[[87768,27155],[1022,-339],[-217,-1939],[-1176,800],[371,1478]],[[88372,14162],[15,93]],[[89270,18411],[-31,-31]],[[88511,17734],[-356,92]],[[87288,23245],[-1579,-462],[588,2124]],[[86297,24907],[-15,93]],[[86282,25000],[851,-1478]],[[87582,23922],[2617,831],[77,-2032]],[[88620,14501],[-898,216],[991,1693],[1176,-1355],[-929,-893]],[[88929,13978],[-278,492]],[[95076,10591],[1331,-2094]],[[96221,8128],[-123,-246]],[[95741,8251],[-1470,1570],[758,801]],[[84130,27863],[-16,-31]],[[84114,27832],[16,31]],[[88914,30480],[573,1385],[325,339],[263,-185],[-666,-2524]],[[94658,13547],[-728,1847],[2740,-431],[-572,-2894],[-1007,1047]],[[84765,28017],[92,123]],[[84857,28140],[109,-431]],[[84966,27709],[-47,-308]],[[84919,27401],[-232,0]],[[84687,27401],[0,62]],[[84687,27463],[-15,61]],[[84672,27524],[0,277]],[[84672,27801],[93,216]],[[87133,23522],[449,400]],[[87582,23922],[2694,-1201]],[[90276,22721],[1641,-1601],[-2647,-2709]],[[89270,18411],[-31,-31]],[[89239,18380],[-728,-646]],[[88511,17734],[-356,92]],[[88155,17826],[-867,5419]],[[87288,23245],[-155,277]],[[96020,12962],[78,492],[92,-92],[-139,-308],[-31,-92]],[[91902,20566],[-1641,-2586]],[[90261,17980],[0,185]],[[90261,18165],[-31,308]],[[90230,18473],[1672,2093]],[[96407,8497],[-186,-369]],[[96221,8128],[-123,-246]],[[96098,7882],[-357,369]],[[95741,8251],[-712,2371]],[[95029,10622],[47,-31]],[[95076,10591],[1331,-2094]],[[87799,29587],[372,-923]],[[88171,28664],[-372,923]],[[88960,14162],[-31,-184]],[[88929,13978],[-557,184]],[[88372,14162],[15,93]],[[88387,14255],[233,246]],[[88620,14501],[31,-31]],[[88651,14470],[309,-308]],[[88914,30480],[495,-985]],[[89409,29495],[774,-1016],[-1269,2001]],[[88728,13855],[-480,0]],[[88248,13855],[480,0]],[[95091,13116],[-433,431]],[[94658,13547],[433,-431]],[[85647,29248],[-433,-615]],[[85214,28633],[15,-62]],[[85229,28571],[-31,-31]],[[85198,28540],[-93,124]],[[85105,28664],[-46,-278]],[[85059,28386],[-16,-184]],[[85043,28202],[-31,-185]],[[85012,28017],[-77,585]],[[84935,28602],[-31,246]],[[84904,28848],[-16,93]],[[84888,28941],[31,61]],[[84919,29002],[728,616]],[[85647,29618],[47,31]],[[85694,29649],[-47,-401]],[[69948,73183],[-6719,-308],[310,-5696],[2012,-1416],[-1563,-3294],[1408,-1509]],[[64886,54248],[-775,-4741],[-2043,-1170],[-5682,5788],[-3484,154]],[[52902,54279],[0,62]],[[52902,54341],[-31,646]],[[52871,54987],[0,31]],[[52871,55018],[295,1324]],[[53166,56342],[0,31]],[[53166,56373],[46,92]],[[53212,56465],[31,0]],[[53243,56465],[93,-31]],[[53336,56434],[31,31]],[[53367,56465],[-47,92]],[[53320,56557],[-62,0]],[[53258,56557],[-61,185]],[[53197,56742],[15,0]],[[53212,56742],[-372,954]],[[52840,57696],[-15,0]],[[52825,57696],[-93,154]],[[52732,57850],[0,31]],[[52732,57881],[-310,678]],[[52422,58559],[-46,0]],[[52376,58559],[-403,123]],[[51973,58682],[-15,0]],[[51958,58682],[-341,369]],[[51617,59051],[0,31]],[[51617,59082],[-77,92]],[[51540,59174],[0,31]],[[51540,59205],[0,277]],[[51540,59482],[0,31]],[[51540,59513],[-108,-31]],[[51432,59482],[-31,0]],[[51401,59482],[-387,185]],[[51014,59667],[-16,0]],[[50998,59667],[-913,-154]],[[50085,59513],[-31,-31]],[[50054,59482],[-62,0]],[[49992,59482],[-93,0]],[[49899,59482],[-47,-123]],[[49852,59359],[-62,0]],[[49790,59359],[-61,92]],[[49729,59451],[-16,-30]],[[49713,59421],[-77,-62]],[[49636,59359],[-47,0]],[[49589,59359],[-294,123]],[[49295,59482],[-15,31]],[[49280,59513],[-31,154]],[[49249,59667],[0,61]],[[49249,59728],[-31,-30]],[[49218,59698],[-31,-31]],[[49187,59667],[-248,-92]],[[48939,59575],[-16,0]],[[48923,59575],[-30,92]],[[48893,59667],[0,92]],[[48893,59759],[0,277]],[[48893,60036],[0,31]],[[48893,60067],[-666,924]],[[48227,60991],[-62,61]],[[48165,61052],[-2679,-123],[1750,9452]],[[47236,70381],[0,92]],[[47236,70473],[-31,31]],[[47205,70504],[-46,0]],[[47159,70504],[944,1817],[1177,-1355]],[[49280,70966],[15,0]],[[49295,70966],[-77,616]],[[49218,71582],[0,92]],[[49218,71674],[46,647]],[[49264,72321],[0,154]],[[49264,72475],[186,769]],[[49450,73244],[-16,0]],[[49434,73244],[-154,154]],[[49280,73398],[-47,62]],[[49233,73460],[-1656,-616]],[[47577,72844],[-140,0]],[[47437,72844],[-77,-31]],[[47360,72813],[-47,0]],[[47313,72813],[-263,585]],[[47050,73398],[0,154]],[[47050,73552],[-77,462]],[[46973,74014],[-93,0]],[[46880,74014],[-465,677]],[[46415,74691],[0,93]],[[46415,74784],[-123,800]],[[46292,75584],[-16,31]],[[46276,75615],[108,708]],[[46384,76323],[0,62]],[[46384,76385],[-402,277]],[[45982,76662],[-47,0]],[[45935,76662],[-201,-154]],[[45734,76508],[0,-31]],[[45734,76477],[-124,62]],[[45610,76539],[0,61]],[[45610,76600],[-62,154]],[[45548,76754],[-15,31]],[[45533,76785],[-47,277]],[[45486,77062],[0,154]],[[45486,77216],[16,616]],[[45502,77832],[0,31]],[[45502,77863],[15,123]],[[45517,77986],[0,30]],[[45517,78016],[-185,124]],[[45332,78140],[-62,0]],[[45270,78140],[-573,400]],[[44697,78540],[-16,31]],[[44681,78571],[-201,677]],[[44480,79248],[0,31]],[[44480,79279],[-155,585]],[[44325,79864],[0,92]],[[44325,79956],[-449,-31]],[[43876,79925],[-46,0]],[[43830,79925],[-263,-246]],[[43567,79679],[-31,0]],[[43536,79679],[-1905,2248],[1734,7543],[-2105,5418],[913,3325],[3019,1786],[2199,-1755],[-774,-11638],[1919,-1662],[1285,-6774],[3840,-3571],[1115,-677],[681,369],[526,4711],[4629,-1263],[1951,7236],[2199,615],[-233,2032],[3050,-5357],[6565,0]],[[58058,64716],[-774,1355]],[[57067,66409],[-913,-92]],[[55767,66225],[-3019,-1324],[-1347,1693],[4164,2186]],[[56169,68072],[1254,585]],[[57857,68934],[5449,-2124],[-2306,-5573],[-2694,3418]],[[54110,68349],[-387,-893],[1300,-246],[-15,1201],[-898,-62]],[[54095,67087],[-713,92],[-185,-585],[898,-185],[0,678]],[[59018,64685],[356,-30]],[[59374,64655],[-356,30]],[[59018,64685],[-712,-30]],[[58306,64655],[-248,61]],[[58058,64716],[-774,1355]],[[57284,66071],[-217,338]],[[57067,66409],[-913,-92]],[[56154,66317],[-387,-92]],[[55767,66225],[-202,2555]],[[55565,68780],[604,-708]],[[56169,68072],[1254,585]],[[57423,68657],[434,277]],[[57857,68934],[2152,-1632],[216,-2801],[-851,154]],[[59823,67241],[-743,-93],[-1533,1263],[666,-1878],[1610,708]],[[64886,54248],[510,6712]],[[65396,60960],[295,3879],[960,-2925],[1981,-61],[62,2494],[4242,2216],[-433,2864],[-1796,-493],[913,1755],[-1672,2494]],[[69948,73183],[16,2801],[4180,6281]],[[74144,82265],[2663,4926],[4784,-1816],[696,-5327],[-5465,-10498],[2261,-2248],[-47,-8590],[2957,5604],[2570,-3756],[-1718,-2494],[62,-2833],[1130,-123],[-960,-2740],[-3483,1478],[-7958,-3695]],[[71636,50215],[-16,123]],[[71620,50369],[-1718,5757],[-5016,-1878]],[[73834,54433],[186,339]],[[74020,54802],[31,93]],[[74097,54956],[3670,1724]],[[78819,58097],[-15,30]],[[78727,58343],[-1549,585],[2183,-339]],[[79361,58497],[0,-31]],[[79392,58497],[-371,-4403],[-2988,-2001]],[[75785,51600],[-46,-30]],[[72131,50492],[-495,-339]],[[71636,50153],[0,62]],[[71636,50215],[-16,123]],[[71620,50338],[0,31]],[[71620,50369],[1208,2894]],[[72905,53325],[-1950,-801],[2848,1971]],[[73726,58220],[356,2432],[820,-1416],[-851,-1601]],[[76033,52093],[-248,-493]],[[75785,51600],[-46,-30]],[[75739,51570],[-3608,-1078]],[[72131,50492],[697,2771]],[[72828,53263],[77,62]],[[72905,53325],[898,1170]],[[73803,54495],[31,-62]],[[73834,54433],[186,339]],[[74020,54772],[0,30]],[[74020,54802],[31,93]],[[74051,54895],[46,61]],[[74097,54956],[1936,-2863]],[[74051,57635],[-325,585]],[[73726,58220],[325,-585]],[[77767,56680],[1052,1417]],[[78819,58097],[-15,30]],[[78804,58127],[-77,216]],[[78727,58343],[634,246]],[[79361,58589],[0,-92]],[[79361,58497],[0,-31]],[[79361,58466],[31,31]],[[79392,58497],[-851,-3448],[-774,1631]]]}