{"type":"Topology","objects":{"data":{"geometries":[{"properties":{"type":"40100","name":"40"},"type":"MultiPolygon","arcs":[[[0]],[[1]],[[155,2,149,3,151,4,157,5,145,6,163,7,165,8,167,9,169,10,171,11,173,12,198,13,200,14,-1771,15,-1822,16,-1820,17,-1818,18,-1816,19,-1814,20,-1812,21,-1810,22,-1808,23,-1806,24,-1804,25,-1802,26,-1800,27,-1798,28,-1796,29,-1794,30,-1792,31,-1790,32,-1788,33,-1786,34,-1784,35,-1782,36,-1780,37,-1778,38,-1776,39,1773,40,432,433,434,-1085,435,436,-1351,-992,437,438,-1081,439,-1079,440,-1077,-1076,-1075,441,-1073,442,-1071,443,-1069,-989,41,-987,42,-985,43,-983,44,-981,45,-979,46,-977,47,-975,48,-973,49,-1065,50,-1063,51,-1061,52,-1059,53,-1057,54,-1055,-1054,430,-1051,431,55,-1110,420,-1109,-969,421,-967,422,-965,423,-963,-962,56,959,57,-958,58,-956,59,-954,60,-952,61,-1022,425,-1020,426,-1018,427,-1016,428,-1014,-1013,62,-1011,63,418,64,415,65,213,66,215,67,217,68,219,69,221,70,223,71,225,72,411,73,227,74,229,75,231,76,233,77,235,78,237,79,239,80,241,81,243,82,245,83,247,84,366,85,368,369,456,86,458,87,460,88,462,370,89,373,90,251,91,253,92,269,93,-272,271,94,273,537,-276,95,543,96,97,98,279,99,281,100,283,101,285,102,288,447,103,290,449,291,104,105,106,295,107,110,108]]],"id":"feature_000"},{"properties":{"type":"40100","name":"40"},"type":"MultiPolygon","arcs":[[[109,110,111]],[[569,112,557,113,559,114,554,552,115,546,116,548,117,550,118,561,119,563,120,565,121,567,122],[123],[124],[125]],[[126]],[[127]],[[128]],[[129]],[[130]],[[131]],[[132]],[[133]],[[134]],[[135]],[[136]],[[137]],[[138]],[[139]],[[140]],[[141]],[[142]],[[143]],[[144]],[[145,146]],[[147]],[[148]],[[149,150,151,152]],[[153]],[[154]],[[155,-156]],[[156]],[[157,-158]],[[158]],[[159]],[[160]],[[161]],[[162]],[[163,164,165,166,167,168,169,170,171,172,173,174]],[[175]],[[176]],[[177]],[[178]],[[179]],[[180]],[[181]],[[182]],[[183]],[[184]],[[185]],[[186]],[[187]],[[188]],[[189]],[[190]],[[191]],[[192]],[[193]],[[194]],[[195]],[[196]],[[197]],[[198,199,200,201,578,202,-521,203,475,204,477,205,479,206,481,207,483,208,485,209,487,210,489,211,491,212,213,214,215,216,217,218,219,220,221,222,223,224,225,226,227,228,229,230,231,232,233,234,235,236,237,238,239,240,241,242,243,244,245,246,247,248,570,249,572,250,251,252,253,254,574,255,493,256,495,257,497,258,499,259,501,260,503,261,505,262,507,263,509,264,511,265,513,266,469,267,471,268,269,270,-272,271,272,273,274,275,538,539,540,276,542,543,544,545,277,531,278,279,280,281,282,534,283,284,285,286,451,287,288,447,289,290,449,291,292,293,294,295,-296,296],[297],[298],[299],[300],[301],[302],[303],[576,304],[305],[306],[307],[308],[309],[310],[311],[312],[313],[314,473],[315],[316],[317],[515,318],[319],[320],[321],[322],[323],[324],[325],[326],[327],[328],[329],[330],[331],[332],[333],[334],[335],[336],[337],[338],[339],[340],[341],[342],[343],[344],[345],[346],[347],[348],[349],[-525,350],[351],[352,-529],[353],[-523,354],[355],[356],[357],[358,584],[-583,582],[-581,580],[359]],[[360]],[[361]],[[362]],[[363]],[[364]],[[365]],[[366,367,454,-369,368,369,456,457,458,459,460,461,462,370,464,371,466,372,373,374,452,375]],[[376]],[[377]],[[378]],[[379]],[[380]],[[381]],[[382]],[[383]],[[384]],[[385]],[[386]],[[387]],[[388],[389]],[[390]],[[391]],[[468]],[[392]],[[393]],[[394]],[[395]],[[396]],[[397],[398]],[[399]],[[400]],[[401]],[[402]],[[403]],[[404]],[[405]],[[406]],[[407]],[[408]],[[409]],[[410,411]],[[412]],[[413]],[[414]],[[415,416]],[[417,418]],[[419,420,-1109,-969,421,-967,422,-965,423,-963,424,-1022,425,-1020,426,-1018,427,-1016,428,-1014,429,430,-1051,431,-1112]],[[432,433,434,-1085,435,436,-1351,-992,437,438,-1081,439,-1079,440,-1077,-1076,-1075,441,-1073,442,-1071,443,-1069,-989,444],[445]]],"id":"feature_001"},{"properties":{"type":"40100","name":"40"},"type":"Polygon","arcs":[[446,447,448,449,450,451]],"id":"feature_002"},{"properties":{"type":"40100","name":"40"},"type":"Polygon","arcs":[[452,453,454,455,456,457,458,459,460,461,462,463,464,465,466,467]],"id":"feature_003"},{"properties":{"type":"40100","name":"40"},"type":"MultiPolygon","arcs":[[[468]],[[469,470,471,472,473,474,475,476,477,478,479,480,481,482,483,484,485,486,487,488,489,490,491,492,493,494,495,496,497,498,499,500,501,502,503,504,505,506,507,508,509,510,511,512,513,514,515,516]]],"id":"feature_004"},{"properties":{"type":"40100","name":"40"},"type":"Polygon","arcs":[[517,526]],"id":"feature_005"},{"properties":{"type":"40100","name":"40"},"type":"Polygon","arcs":[[518]],"id":"feature_006"},{"properties":{"type":"40100","name":"40"},"type":"Polygon","arcs":[[519]],"id":"feature_007"},{"properties":{"type":"40100","name":"40"},"type":"Polygon","arcs":[[520,521,522,523,524,525,526,527,528,529]],"id":"feature_008"},{"properties":{"type":"40100","name":"40"},"type":"Polygon","arcs":[[530,531,532,533,534,535,536,537,538,539,540,541,542,543,544,545]],"id":"feature_009"},{"properties":{"type":"40100","name":"40"},"type":"MultiPolygon","arcs":[[[546,547,548,549,550,551,552,553]],[[554,555]],[[556,557,558,559,560,561,562,563,564,565,566,567,568,569]]],"id":"feature_010"},{"properties":{"type":"40100","name":"40"},"type":"Polygon","arcs":[[570,571,572,573]],"id":"feature_011"},{"properties":{"type":"40100","name":"40"},"type":"Polygon","arcs":[[574,575,576,577]],"id":"feature_012"},{"properties":{"type":"40100","name":"40"},"type":"Polygon","arcs":[[578,579,580,581,582,583,584,585]],"id":"feature_013"},{"properties":{"type":"40203","name":"40"},"type":"Polygon","arcs":[[-602,601,-601,910,-600,912,-599,586,-696,587,-694,588,-692,589,-690,590,-603]],"id":"feature_014"},{"properties":{"type":"40203","name":"40"},"type":"MultiPolygon","arcs":[[[591]],[[-646,-757,-645,-755,-644,-753,-643,-751,-642,-749,-641,-747,-640,-745,-639,592,735,593,727,594,729,595,731,596,733,597,598,-913,599,-911,600,-602,601,602,603,-687,604,-685,605,-683,606,-681,607,-679,608,-677,609,-675,610,-673,611,-671,612,-669,613,-667,614,-665,615,-663,616,-661,617,-659,618,-657,619,654,620,-633,-632,631,-631,-630,629,-629,-628,627,-627,-626,625,-625,-624,623,-623,765,814],[621]]],"id":"feature_015"},{"properties":{"type":"40203","name":"40"},"type":"Polygon","arcs":[[-815,-766,622,-624,623,624,-626,625,626,-628,627,628,-630,629,630,-632,631,632,633,-647,634,-653,635,-651,636,-649,637,638,744,639,746,640,748,641,750,642,752,643,754,644,756,645]],"id":"feature_016"},{"properties":{"type":"40203","name":"40"},"type":"Polygon","arcs":[[646,647,648,649,650,651,652,653]],"id":"feature_017"},{"properties":{"type":"40203","name":"40"},"type":"Polygon","arcs":[[654,655,656,657,658,659,660,661,662,663,664,665,666,667,668,669,670,671,672,673,674,675,676,677,678,679,680,681,682,683,684,685,686,687,688,689,690,691,692,693,694,695,696]],"id":"feature_018"},{"properties":{"type":"40203","name":"40"},"type":"Polygon","arcs":[[697,916,698,918]],"id":"feature_019"},{"properties":{"type":"40203","name":"40"},"type":"Polygon","arcs":[[922,699,920,700]],"id":"feature_020"},{"properties":{"type":"40203","name":"40"},"type":"MultiPolygon","arcs":[[[701,849,702,851,703,885,704,881,705,883,706,888,707,879,708,853,709,855,710,857,711,859,712,861,713,863,714,865,715,867],[716],[717],[718],[719],[720]],[[877,721,869,722,871,723,873,724,875,725]],[[726]],[[727,728,729,730,731,732,733,734,735,736]],[[737]],[[738]],[[739]],[[740]],[[741]]],"id":"feature_021"},{"properties":{"type":"40203","name":"40"},"type":"Polygon","arcs":[[827,742,824,743,744,745,746,747,748,749,750,751,752,753,754,755,756,757,818,758,820,759,822,760,828,761],[762]],"id":"feature_022"},{"properties":{"type":"40203","name":"40"},"type":"Polygon","arcs":[[817,763,812,764,765,814,815,766]],"id":"feature_023"},{"properties":{"type":"40203","name":"40"},"type":"Polygon","arcs":[[830,767,844,768,832,769,834,770,843,771,847,772,836,-838,837,838,773,840,774]],"id":"feature_024"},{"properties":{"type":"40203","name":"40"},"type":"MultiPolygon","arcs":[[[889,775,905,776,907,777,909,910,911,912,913,778,891,-893,892,893,779]],[[780,896,781,898,782,900]],[[901,783,903,784]]],"id":"feature_025"},{"properties":{"type":"40203","name":"40"},"type":"MultiPolygon","arcs":[[[810,785,796,786,798,787,800,-802,801,802,788,804,789,806,790,808,791]],[[792]],[[793]],[[794]]],"id":"feature_026"},{"properties":{"type":"40203","name":"40"},"type":"Polygon","arcs":[[795,796,797,798,799,800,-802,801,802,803,804,805,806,807,808,809,810]],"id":"feature_027"},{"properties":{"type":"40203","name":"40"},"type":"Polygon","arcs":[[811,812,813,814,815,816,817]],"id":"feature_028"},{"properties":{"type":"40203","name":"40"},"type":"MultiPolygon","arcs":[[[818,819,820,821,822,823,824,825]],[[826,827]],[[828,829]]],"id":"feature_029"},{"properties":{"type":"40203","name":"40"},"type":"MultiPolygon","arcs":[[[830,831,832,833,834,835,836,-838,837,838,839,840,841]],[[842,843]],[[844,845]],[[846,847]]],"id":"feature_030"},{"properties":{"type":"40203","name":"40"},"type":"MultiPolygon","arcs":[[[848,849,850,851,852,853,854,855,856,857,858,859,860,861,862,863,864,865,866,867]],[[868,869,870,871,872,873,874,875,876,877]],[[878]],[[879,880]],[[881,882,883,884]],[[885,886]],[[887,888]]],"id":"feature_031"},{"properties":{"type":"40203","name":"40"},"type":"MultiPolygon","arcs":[[[889,890,891,-893,892,893,894]],[[895,896,897,898,899,900]],[[901,902,903,904]],[[905,906,907,908,909,910,911,912,913,914]]],"id":"feature_032"},{"properties":{"type":"40203","name":"40"},"type":"Polygon","arcs":[[915,916,917,918]],"id":"feature_033"},{"properties":{"type":"40203","name":"40"},"type":"Polygon","arcs":[[919,920,921,922]],"id":"feature_034"},{"properties":{"type":"40204","name":"40"},"type":"MultiPolygon","arcs":[[[923]],[[1046,924,1048,925]],[[926,1211,927,1213,928,1215,1319,1216,1321,1322,1323,1218,1325,1219,1327,1220,1329,929,1331,1222,930,1225,931,1227,932,1230,933,1232,934,1234,935,1236,936,1238,937,1037,938,939,940,1041,941,1043,942,1240,943,1242,944,1244,945,1246,946,1248,947,1250,948,1252,949,1254,950,1256,1314,1257,1316,1258]],[[951,952,953,954,955,956,957,958,959,960,961,962,963,964,965,966,967,968,1108,1049,1050,1051,969,1054,1055,1056,1057,1058,1059,1060,970,1062,1063,1064,1065,971,972,973,974,975,976,977,978,979,980,981,982,983,984,985,986,987,988,1068,1069,1070,1071,1072,1073,1074,989,1076,1077,1078,1345,1346,1347,990,991,1350,1351,1083,1084,1085,992,1087,993,1089,994,1091,1353,1092,995,1094,996,1303,1164,997,1166,998,1168,999,1170,1000,1172,1001,1174,1305,1175,1307,1176,1309,1177,1002,1179,1003,1096,1004,1098,1005,1100,1006,1102,1007,1104,1008,1106,1009,1010,1011,1012,1013,1014,1015,1016,1017,1018,1019,1020,1021,1022]],[[1023,1183,1024,1185,1025,1187,1026,1189,1027,1191,1028,1193,1029,1195,1030,1197,1031,1199,1032,1201,1033,1203,1034,1205,1035,1207,1036,1209]]],"id":"feature_035"},{"properties":{"type":"40204","name":"40"},"type":"Polygon","arcs":[[1037,1038,1039,1040,1041,1042,1043,1044]],"id":"feature_036"},{"properties":{"type":"40204","name":"40"},"type":"Polygon","arcs":[[1045,1046,1047,1048]],"id":"feature_037"},{"properties":{"type":"40204","name":"40"},"type":"Polygon","arcs":[[1049,1050,1051,1052,1053,1054,1055,1056,1057,1058,1059,1060,1061,1062,1063,1064,1065,1066,1355,1067,1068,1069,1070,1071,1072,1073,1074,1075,1076,1077,1078,1345,1079,1080,1347,1081,1082,1349,1350,1351,1083,1084,1085,1086,1087,1088,1089,1090,1091,1353,1092,1093,1094,1095,1096,1097,1098,1099,1100,1101,1102,1103,1104,1105,1106,1107,1108],[-1110,1109,1110,1111,1112],[1113],[1114],[1115],[1116],[1117],[1118],[1119],[1120],[1121],[1122],[1123],[1124],[1125],[1126],[1127],[1128],[1129],[1130],[1131],[1132],[1133],[1134],[1135],[1136],[1137],[1138],[1139],[1140],[1141],[1142],[1143],[1144],[1145],[1146],[1147],[1148],[1149],[1150],[1151],[1152],[1153],[1154],[1155],[1156],[1157],[1158]],"id":"feature_038"},{"properties":{"type":"40204","name":"40"},"type":"Polygon","arcs":[[1159],[1160]],"id":"feature_039"},{"properties":{"type":"40204","name":"40"},"type":"Polygon","arcs":[[1297,1161,1299,1162,1301,1163,1303,1164,1165,1166,1167,1168,1169,1170,1171,1172,1173,1174,1305,1175,1307,1176,1309,1177,1178,1179,1180,1312,1181]],"id":"feature_040"},{"properties":{"type":"40204","name":"40"},"type":"Polygon","arcs":[[1182,1183,1184,1185,1186,1187,1188,1189,1190,1191,1192,1193,1194,1195,1196,1197,1198,1199,1200,1201,1202,1203,1204,1205,1206,1207,1208,1209]],"id":"feature_041"},{"properties":{"type":"40204","name":"40"},"type":"Polygon","arcs":[[1210,1211,1212,1213,1214,1215,1319,1216,1321,1217,1323,1218,1325,1219,1327,1220,1329,1221,1331,1222,1223,1333,1224,1225,1226,1227,1228,-1281,1229,1230,1231,1232,1233,1234,1235,1236,1237,1238,1239,1240,1241,1242,1243,1244,1245,1246,1247,1248,1249,1250,1251,1252,1253,1254,1255,1256,1314,1257,1316,1258],[1259],[1260],[1261],[1262],[1263],[1264],[1265],[1266],[1267],[1268],[1269],[1270],[1271],[1272],[1273],[1274],[1275],[1276],[1277],[1278],[1279],[1280,1281],[1282],[1283],[1335,1284],[1285,1337,1286,1339,1287,1341],[1288],[1289],[1290],[1291],[1292],[1293]],"id":"feature_042"},{"properties":{"type":"40204","name":"40"},"type":"Polygon","arcs":[[1294]],"id":"feature_043"},{"properties":{"type":"40204","name":"40"},"type":"Polygon","arcs":[[1295]],"id":"feature_044"},{"properties":{"type":"40204","name":"40"},"type":"Polygon","arcs":[[1296]],"id":"feature_045"},{"properties":{"type":"40204","name":"40"},"type":"Polygon","arcs":[[1297,1298,1299,1300,1301,1302,1303,1304,1305,1306,1307,1308,1309,1310,1311,1312,1313]],"id":"feature_046"},{"properties":{"type":"40204","name":"40"},"type":"Polygon","arcs":[[1314,1315,1316,1317]],"id":"feature_047"},{"properties":{"type":"40204","name":"40"},"type":"Polygon","arcs":[[1318,1319,1320,1321,1322,1323,1324,1325,1326,1327,1328,1329,1330,1331,1332,1333,1334,1335,1336,1337,1338,1339,1340,1341,1342]],"id":"feature_048"},{"properties":{"type":"40204","name":"40"},"type":"Polygon","arcs":[[1343]],"id":"feature_049"},{"properties":{"type":"40204","name":"40"},"type":"Polygon","arcs":[[1344,1345,1346,1347,1348,1349,1350,1351,1352,1353,1354,1355]],"id":"feature_050"},{"properties":{"type":"40205","name":"40"},"type":"Polygon","arcs":[[-1718,1356,-1716,1357,-1714,1358,-1712,1359,-1710,1360,-1708,1361,-1706,1362,-1704,1363,-1702,1364,-1700,1365,-1698,1366,-1696,1367,-1694,1368,1418,1369,1420,1370]],"id":"feature_051"},{"properties":{"type":"40205","name":"40"},"type":"Polygon","arcs":[[1371,1571,1372,1573,1373,1575,1374,1577,1375,1579,1376,1581,1377,1583,1378,1585]],"id":"feature_052"},{"properties":{"type":"40205","name":"40"},"type":"Polygon","arcs":[[1532,1533,1534,1535,1379,1537],[1538]],"id":"feature_053"},{"properties":{"type":"40205","name":"40"},"type":"Polygon","arcs":[[1569]],"id":"feature_054"},{"properties":{"type":"40205","name":"40"},"type":"Polygon","arcs":[[1380,1674],[1381],[1672,1382],[1383],[1670,1384],[1385]],"id":"feature_055"},{"properties":{"type":"40205","name":"40"},"type":"Polygon","arcs":[[1386,1622,1387,1630,1597,1388,1599,1389,1593,1390,1563,1391,1565,1392,1539,1393,1541,1394,1543,1395,1616,1396,1600,1397,1602,1398,1604,1399,1606,1400,1608,1401,1610,1402,1403,1612,1404,1614,1405,1545,1406,1547,1407,1549,1408,1551,1409,1553,1410,1555,-1557,1556,1557,1558,1559,1411,1561,1412,1595,1634,1413,-1637,1414,1692,1415,1520,1416,1522,1417,1418,1419,1420,1421,1524,1422,1526,-1643,1423,1424,1645,1425,1647,1426,1649,1427,1428,1590,1429,1498,1430,1500,1431,1502,1432,1504,1433,1506,1434,1677,1435,1675,1436,1508,1437,1492,1438,1494,1439,1496,1440,1659,1441,1661,1442,1663,1443,1665,1444,1624,1445,1626,1446,1628],[1447],[1448],[1449],[1450],[1451],[1452],[1453],[1454],[1455],[1456],[1457],[1458],[1459],[1460],[1461],[1462],[1463],[1464],[1465],[1466],[1467],[1468],[1469],[1470],[1666],[1471,1668],[1472],[1473],[1474],[1475],[1686,1476,1688,1477],[1478],[1528],[1529],[1530],[1531],[1567],[1568],[1620],[1619],[1479]],"id":"feature_056"},{"properties":{"type":"40205","name":"40"},"type":"Polygon","arcs":[[1480]],"id":"feature_057"},{"properties":{"type":"40205","name":"40"},"type":"Polygon","arcs":[[-1510,1509,1510,1481,1512,1482,-1488,1483,1514,1484,1516,1485,1518],[1486,1487]],"id":"feature_058"},{"properties":{"type":"40205","name":"40"},"type":"Polygon","arcs":[[1682,1488,1684,1489,1680,1490]],"id":"feature_059"},{"properties":{"type":"40205","name":"40"},"type":"Polygon","arcs":[[1491,1492,1493,1494,1495,1496,1497,1498,1499,1500,1501,1502,1503,1504,1505,1506,1507,1508]],"id":"feature_060"},{"properties":{"type":"40205","name":"40"},"type":"Polygon","arcs":[[-1510,1509,1510,1511,1512,1513,1514,1515,1516,1517,1518]],"id":"feature_061"},{"properties":{"type":"40205","name":"40"},"type":"Polygon","arcs":[[-1640,1519,1520,1521,1522,1523,1524,1525,1526,-1643,-1642,1527],[1528],[1529],[1530],[1531]],"id":"feature_062"},{"properties":{"type":"40205","name":"40"},"type":"Polygon","arcs":[[1532,1533,1534,1535,1536,1537],[1538]],"id":"feature_063"},{"properties":{"type":"40205","name":"40"},"type":"Polygon","arcs":[[1539,1540,1541,1542,1543,1544,1545,1546,1547,1548,1549,1550,1551,1552,1553,1554,1555,-1557,1556,1557,1558,1559,1560,1561,1562,1563,1564,1565,1566],[1567],[1568]],"id":"feature_064"},{"properties":{"type":"40205","name":"40"},"type":"Polygon","arcs":[[1569]],"id":"feature_065"},{"properties":{"type":"40205","name":"40"},"type":"Polygon","arcs":[[1570,1571,1572,1573,1574,1575,1576,1577,1578,1579,1580,1581,1582,1583,1584,1585]],"id":"feature_066"},{"properties":{"type":"40205","name":"40"},"type":"Polygon","arcs":[[1586,-1656,1587,-1654,1588,-1652,1589,1590,1591,-1658]],"id":"feature_067"},{"properties":{"type":"40205","name":"40"},"type":"Polygon","arcs":[[1592,1593,1594,1595,-1634,1596,-1632,1597,1598,1599]],"id":"feature_068"},{"properties":{"type":"40205","name":"40"},"type":"Polygon","arcs":[[1600,1601,1602,1603,1604,1605,1606,1607,1608,1609,1610,1611,1612,1613,1614,1615,1616,1617],[1618],[1619],[1620]],"id":"feature_069"},{"properties":{"type":"40205","name":"40"},"type":"Polygon","arcs":[[1621,1622,1623,1624,1625,1626,1627,1628]],"id":"feature_070"},{"properties":{"type":"40205","name":"40"},"type":"Polygon","arcs":[[1629,1630,1631,1632,1633,1634,1635,1636,1637,-1691,1638,1639,1640,1641,1642,1643,1644,1645,1646,1647,1648,1649,1650,1651,1652,1653,1654,1655,1656,1657,1658,1659,1660,1661,1662,1663,1664,1665],[1666],[1667,1668]],"id":"feature_071"},{"properties":{"type":"40205","name":"40"},"type":"Polygon","arcs":[[1669,1670,1671,1672,1673,1674]],"id":"feature_072"},{"properties":{"type":"40205","name":"40"},"type":"Polygon","arcs":[[1675,1676,1677,1678]],"id":"feature_073"},{"properties":{"type":"40205","name":"40"},"type":"Polygon","arcs":[[1679,1680,1681,1682,1683,1684]],"id":"feature_074"},{"properties":{"type":"40205","name":"40"},"type":"Polygon","arcs":[[1685,1686,1687,1688,1689,1690,1691,1692]],"id":"feature_075"},{"properties":{"type":"40206","name":"40"},"type":"Polygon","arcs":[[1693,1694,1695,1696,1697,1698,1699,1700,1701,1702,1703,1704,1705,1706,1707,1708,1709,1710,1711,1712,1713,1714,1715,1716,1717,1718]],"id":"feature_076"},{"properties":{"type":"40206","name":"40"},"type":"Polygon","arcs":[[-1758,-1757,1719]],"id":"feature_077"},{"properties":{"type":"40206","name":"40"},"type":"Polygon","arcs":[[1720,-1749,-1748,1747,-1747]],"id":"feature_078"},{"properties":{"type":"40206","name":"40"},"type":"Polygon","arcs":[[-1764,1721]],"id":"feature_079"},{"properties":{"type":"40206","name":"40"},"type":"Polygon","arcs":[[1722]],"id":"feature_080"},{"properties":{"type":"40206","name":"40"},"type":"Polygon","arcs":[[1723]],"id":"feature_081"},{"properties":{"type":"40206","name":"40"},"type":"Polygon","arcs":[[1724]],"id":"feature_082"},{"properties":{"type":"40206","name":"40"},"type":"Polygon","arcs":[[1725]],"id":"feature_083"},{"properties":{"type":"40206","name":"40"},"type":"Polygon","arcs":[[1726]],"id":"feature_084"},{"properties":{"type":"40206","name":"40"},"type":"Polygon","arcs":[[1739]],"id":"feature_085"},{"properties":{"type":"40206","name":"40"},"type":"Polygon","arcs":[[-1741,1727]],"id":"feature_086"},{"properties":{"type":"40206","name":"40"},"type":"Polygon","arcs":[[1728]],"id":"feature_087"},{"properties":{"type":"40206","name":"40"},"type":"Polygon","arcs":[[1767]],"id":"feature_088"},{"properties":{"type":"40206","name":"40"},"type":"Polygon","arcs":[[-1754,-1753,-1752,1751,-1751,1729,-1755]],"id":"feature_089"},{"properties":{"type":"40206","name":"40"},"type":"Polygon","arcs":[[1730,1738]],"id":"feature_090"},{"properties":{"type":"40206","name":"40"},"type":"Polygon","arcs":[[1765,1731,1742,1732,1744,1733]],"id":"feature_091"},{"properties":{"type":"40206","name":"40"},"type":"Polygon","arcs":[[-1762,-1761,1760,-1760,1734]],"id":"feature_092"},{"properties":{"type":"40206","name":"40"},"type":"Polygon","arcs":[[1768]],"id":"feature_093"},{"properties":{"type":"40206","name":"40"},"type":"Polygon","arcs":[[1736]],"id":"feature_094"},{"properties":{"type":"40206","name":"40"},"type":"Polygon","arcs":[[1735]],"id":"feature_095"},{"properties":{"type":"40206","name":"40"},"type":"Polygon","arcs":[[1736]],"id":"feature_096"},{"properties":{"type":"40206","name":"40"},"type":"Polygon","arcs":[[1737,1738]],"id":"feature_097"},{"properties":{"type":"40206","name":"40"},"type":"Polygon","arcs":[[1739]],"id":"feature_098"},{"properties":{"type":"40206","name":"40"},"type":"Polygon","arcs":[[1740,1741,1742,1743,1744,1745,1746,-1748,1747,1748,1749,1750,-1752,1751,1752,1753,1754,1755,1756,1757,1758,1759,-1761,1760,1761,1762,1763,1764,1765,1766]],"id":"feature_099"},{"properties":{"type":"40206","name":"40"},"type":"Polygon","arcs":[[1767]],"id":"feature_100"},{"properties":{"type":"40206","name":"40"},"type":"Polygon","arcs":[[1768]],"id":"feature_101"},{"properties":{"type":"40213","name":"40"},"type":"Polygon","arcs":[[1769,1770,1771,1836,1772,1773,1774,1775,1776,1777,1778,1779,1780,1781,1782,1783,1784,1785,1786,1787,1788,1789,1790,1791,1792,1793,1794,1795,1796,1797,1798,1799,1800,1801,1802,1803,1804,1805,1806,1807,1808,1809,1810,1811,1812,1813,1814,1815,1816,1817,1818,1819,1820,1821]],"id":"feature_102"},{"properties":{"type":"40213","name":"40"},"type":"Polygon","arcs":[[1844,1822,1846,1823,1848,1824,1850,1825,1852,1826,1854,1827,1856,1828,1858,1829,1860,1830,1862,1831]],"id":"feature_103"},{"properties":{"type":"40213","name":"40"},"type":"Polygon","arcs":[[1832]],"id":"feature_104"},{"properties":{"type":"40213","name":"40"},"type":"Polygon","arcs":[[1840,1833,1842,1834,1838,1835,1836,1837]],"id":"feature_105"},{"properties":{"type":"40213","name":"40"},"type":"Polygon","arcs":[[1838,1839,1840,1841,1842,1843]],"id":"feature_106"},{"properties":{"type":"40213","name":"40"},"type":"Polygon","arcs":[[1844,1845,1846,1847,1848,1849,1850,1851,1852,1853,1854,1855,1856,1857,1858,1859,1860,1861,1862,1863]],"id":"feature_107"},{"properties":{"type":"40220","name":"40"},"type":"Polygon","arcs":[[1864]],"id":"feature_108"},{"properties":{"type":"40220","name":"40"},"type":"Polygon","arcs":[[1865]],"id":"feature_109"},{"properties":{"type":"40220","name":"40"},"type":"Polygon","arcs":[[1866]],"id":"feature_110"},{"properties":{"type":"40220","name":"40"},"type":"Polygon","arcs":[[1867]],"id":"feature_111"},{"properties":{"type":"40220","name":"40"},"type":"Polygon","arcs":[[1868]],"id":"feature_112"},{"properties":{"type":"40220","name":"40"},"type":"Polygon","arcs":[[1938,1869,1940,1870,1942,1871,1944,1872,1946,1873],[1989,1874,1991,1875],[1876],[1999,1877,2001,1878,1983,-1985,1984,1985,1879,1987,1880],[1881],[1882],[1883],[2003,1884],[1993,1885],[1995,1886,1997,1887],[1888]],"id":"feature_113"},{"properties":{"type":"40220","name":"40"},"type":"Polygon","arcs":[[1968,1889,1970,1890,1972,1891,1974,1892,1955,1893,1957,1894,1959,1895,1961,1896,1963,1897,1965,1898,1967,1899,1949,1900,1951,1901,1953,1902,2019,1903,2021,1904,2023,1905,2025,1906,2007,1907,-1915,1908,2013,1909,2015,1910],[1911],[1912,2009],[1913],[1914,1915],[1916],[1917],[2011,1918],[1919],[1920],[2017,1921],[1976,1922],[1923],[1924],[1925],[1926],[1927],[1928],[1929],[1930],[1931],[1980],[1981],[1978],[1979],[1932],[1933]],"id":"feature_114"},{"properties":{"type":"40220","name":"40"},"type":"Polygon","arcs":[[1934]],"id":"feature_115"},{"properties":{"type":"40220","name":"40"},"type":"Polygon","arcs":[[1935]],"id":"feature_116"},{"properties":{"type":"40220","name":"40"},"type":"Polygon","arcs":[[1936]],"id":"feature_117"},{"properties":{"type":"40220","name":"40"},"type":"Polygon","arcs":[[1937]],"id":"feature_118"},{"properties":{"type":"40220","name":"40"},"type":"Polygon","arcs":[[1937]],"id":"feature_119"},{"properties":{"type":"40220","name":"40"},"type":"Polygon","arcs":[[1938,1939,1940,1941,1942,1943,1944,1945,1946,1947]],"id":"feature_120"},{"properties":{"type":"40220","name":"40"},"type":"Polygon","arcs":[[1948,1949,1950,1951,1952,1953,1954,1955,1956,1957,1958,1959,1960,1961,1962,1963,1964,1965,1966,1967]],"id":"feature_121"},{"properties":{"type":"40220","name":"40"},"type":"Polygon","arcs":[[1968,1969,1970,1971,1972,1973,1974,1975,1976,1977],[1978],[1979],[1980],[1981]],"id":"feature_122"},{"properties":{"type":"40220","name":"40"},"type":"Polygon","arcs":[[1982,1983,-1985,1984,1985,1986,1987,1988,1989,1990,1991,1992,1993,1994,1995,1996,1997,1998,1999,2000,2001],[2002],[2003,2004]],"id":"feature_123"},{"properties":{"type":"40220","name":"40"},"type":"Polygon","arcs":[[2005]],"id":"feature_124"},{"properties":{"type":"40220","name":"40"},"type":"Polygon","arcs":[[2006,2007,2008,2009,2010,2011,2012,2013,2014,2015,2016,2017,2018,2019,2020,2021,2022,2023,2024,2025]],"id":"feature_125"},{"properties":{"type":"40231","name":"40"},"type":"Polygon","arcs":[[-2032,2026,2047,2048,2049,2027,2051,2089,2034,2066,2035,2068,2036,2070,2037,2072,2038,2074,2028,2033,2029]],"id":"feature_126"},{"properties":{"type":"40231","name":"40"},"type":"Polygon","arcs":[[2030,2031]],"id":"feature_127"},{"properties":{"type":"40231","name":"40"},"type":"MultiPolygon","arcs":[[[2032,2033]],[[2089,2034,2066,2035,2068,2036,2070,2037,2072,2038,2074,2075,2039,2077,2040,2079,-2081,2080,2081,2041,2083,2042,2061,2043,2063,2044,2085,2045,2087,2046,2047,2048,2049,2050,2051],[2052],[2053],[2054],[2055],[2056],[2057],[2058],[2059],[2060]]],"id":"feature_128"},{"properties":{"type":"40231","name":"40"},"type":"Polygon","arcs":[[2061,2062,2063,2064]],"id":"feature_129"},{"properties":{"type":"40231","name":"40"},"type":"Polygon","arcs":[[2065,2066,2067,2068,2069,2070,2071,2072,2073,2074,2075,2076,2077,2078,2079,-2081,2080,2081,2082,2083,2084,2085,2086,2087,2088,2089]],"id":"feature_130"},{"properties":{"type":"40384","name":"40"},"type":"Polygon","arcs":[[-2109,-2133,-2108,-2131,-2153,-2130,-2107,-2128,-2106,-2126,-2105,-2124,-2104,-2122,-2103,-2120,-2102,-2118,-2101,-2116,-2100,-2114,-2099,-2098,-2112,-2097,-2147,-2096,-2145,-2095,-2143,-2094,-2141,-2093,-2137,-2092,-2135,-2111,2090]],"id":"feature_131"},{"properties":{"type":"40384","name":"40"},"type":"Polygon","arcs":[[2134,2091,2136,2092,2140,2093,2142,2094,2144,2095,2146,2096,2111,2097,2098,2113,2099,2115,2100,2117,2101,2119,2102,2121,2103,2123,2104,2125,2105,2127,2106,2129,2152,2130,2107,2132,2108,2109,2110]],"id":"feature_132"},{"properties":{"type":"40384","name":"40"},"type":"Polygon","arcs":[[2111,2112,2150,2113,2114,2115,2116,2117,2118,2119,2120,2121,2122,2123,2124,2125,2126,2127,2128,2129,2152,2130,2131,2132,2133]],"id":"feature_133"},{"properties":{"type":"40384","name":"40"},"type":"Polygon","arcs":[[2134,2135,2136,2137]],"id":"feature_134"},{"properties":{"type":"40384","name":"40"},"type":"Polygon","arcs":[[2138,2160,2139,2140,2141,2142,2143,2144,2145,2146,2147,2154,2148,2156,2149,2158]],"id":"feature_135"},{"properties":{"type":"40384","name":"40"},"type":"Polygon","arcs":[[2150,2151,2152,2153]],"id":"feature_136"},{"properties":{"type":"40384","name":"40"},"type":"Polygon","arcs":[[2154,2155,2156,2157,2158,2159,2160,2161]],"id":"feature_137"}],"type":"GeometryCollection"}},"bbox":[130.3858,33.224,131.0467,33.9699],"transform":{"scale":[6.609066090660887e-06,7.459074590745967e-06],"translate":[130.3858,33.224]},"arcs":[[[97381,81806],[-711,3003],[1453,188],[696,-3003],[-1438,-188]],[[67559,97304],[1921,-1421],[-3419,-1193],[-6975,1367],[0,751],[4887,429],[862,-791],[2724,858]],[[94991,96366],[0,27]],[[94991,96419],[-46,-13]],[[94930,96406],[-333,-147]],[[94597,96272],[-15,13]],[[94552,96285],[-197,-295]],[[94355,95964],[30,-134]],[[94385,95816],[16,-13]],[[94401,95789],[15,-13]],[[94416,95763],[0,-27]],[[94416,95722],[15,-13]],[[94128,95226],[-1135,-1474],[2331,-496],[-1695,-631],[76,-1434],[-2739,-536],[2587,-1435],[-665,-2118],[-1362,1636],[-1771,-2400],[2906,40],[-712,-2319],[-1013,523],[-1574,-2749],[-4191,1502]],[[84929,83281],[-76,-27]],[[84853,83241],[2043,-912],[-545,-1086],[1528,-2748],[2240,134],[-4222,-3955],[-5583,-804],[-1059,-3285]],[[79225,70518],[-454,-509]],[[78740,70116],[-30,13]],[[78710,70183],[15,13]],[[78725,70210],[0,13]],[[78725,70237],[-45,26]],[[78680,70277],[-15,13]],[[78589,70304],[-15,13]],[[78574,70330],[-15,14]],[[78559,70384],[-15,27]],[[78544,70424],[-16,27]],[[78513,70465],[-15,13]],[[78468,70505],[-121,67]],[[78347,70612],[-30,54]],[[78302,70679],[30,67]],[[78377,70759],[-681,-496]],[[77666,70223],[-45,-80]],[[77621,70129],[741,-670],[-1347,-402]],[[76985,69003],[30,-120]],[[77015,68869],[16,-13]],[[77031,68842],[15,-26]],[[77046,68789],[15,-27]],[[77061,68735],[45,-134]],[[77106,68574],[-15,-27]],[[77046,68480],[-61,-80]],[[76970,68400],[0,-14]],[[76955,68386],[-1831,1368],[-2164,-1327],[-2269,53],[-1256,-1394],[-3616,-469],[-2391,2118],[-938,5550],[-4327,1073],[-1695,-2078]],[[54410,73481],[-151,13]],[[54229,73494],[-106,-13]],[[54107,73481],[-121,-27]],[[53941,73441],[-242,-81]],[[53684,73347],[-15,-14]],[[53623,73307],[-15,-14]],[[53548,73293],[-31,14]],[[53442,73307],[-91,0]],[[53290,73307],[-60,53]],[[53124,73347],[-76,40]],[[52988,73401],[-30,13]],[[52912,73414],[-60,-27]],[[52837,73387],[-61,14]],[[52761,73441],[-46,67]],[[52473,73521],[-30,27]],[[51868,73803],[-15,13]],[[51853,73803],[-15,0]],[[51823,73789],[-31,-26]],[[51717,73776],[-61,27]],[[51641,73803],[-30,13]],[[51566,73830],[-16,13]],[[50915,73830],[-30,-14]],[[50794,73816],[-2875,3647],[1029,415]],[[49992,78079],[30,41]],[[50083,78535],[544,-804]],[[50733,77449],[46,54]],[[50870,77516],[75,27]],[[51414,77878],[152,148]],[[51762,78200],[61,67]],[[51929,78374],[1725,778]],[[53638,79192],[16,107]],[[54002,79929],[-1725,577]],[[52216,80600],[15,13]],[[52095,80546],[-45,27]],[[51671,81404],[-1815,1984]],[[49568,83536],[31,27]],[[49599,83576],[30,27]],[[49493,83670],[-16,107]],[[49024,84059],[-2058,1689],[-1725,3888]],[[45317,89743],[30,536]],[[44908,90628],[-106,-14]],[[44726,90909],[-393,376]],[[43834,91540],[-46,26]],[[44046,91848],[-666,1260],[1937,1354],[-515,1032],[2769,389],[4312,-496],[1120,-1206],[2497,1287],[2451,-295],[-2436,-1153],[408,-402],[-287,-161],[90,-255],[3072,791],[469,1233],[4539,-362],[1665,-1139],[-1816,-1126],[1558,-67],[-257,-1086]],[[64941,91352],[-30,-121]],[[64941,91017],[-106,-94]],[[64790,90923],[-212,-14]],[[64563,90909],[-242,-53]],[[64169,90789],[-1028,-778]],[[60084,89609],[-2315,-550]],[[57058,88738],[3147,13],[-4615,-1032],[-1331,1367]],[[54153,89019],[787,-1381],[-1181,-375],[1589,-992],[-30,898],[3253,737],[-363,-590],[30,-254],[1755,1153],[-408,-657],[15,-175],[3556,2105],[227,-1327],[-1559,-952],[1438,14],[348,2426],[1634,443]],[[65138,90226],[393,590]],[[65531,90816],[848,2533],[4614,1234],[863,-751],[-1543,-1207],[2844,429],[-3193,-1689],[3571,1408],[1877,-1448],[-2603,-590],[-575,-643],[1286,-631],[1377,1194],[1846,-362],[-2345,-1153]],[[74534,89234],[514,308]],[[75260,89542],[1044,13]],[[76304,89555],[-91,-120]],[[76213,89435],[-257,-349]],[[76062,88952],[-15,-13]],[[76047,88925],[-15,-120]],[[76077,88791],[1907,603]],[[78544,89609],[2693,1046]],[[81449,90789],[196,120]],[[81872,91070],[152,121]],[[82024,91191],[605,483]],[[82629,91674],[575,670]],[[83219,92357],[1619,3432],[2739,1127],[-227,2037],[4372,27],[-1013,-630]],[[91465,98404],[1801,1595],[938,-282],[-1135,-509],[2905,-228],[227,-2601],[-1210,-67]],[[90709,98350],[0,0]],[[90709,98350],[756,54]],[[91465,98404],[-756,-54]],[[88303,97023],[30,-188]],[[88318,96822],[454,-1287],[-1498,777]],[[87047,96393],[-60,-14]],[[86971,96218],[-105,-120]],[[86820,96098],[-15,13]],[[86790,96125],[-61,-14]],[[86699,96111],[-983,-94]],[[85761,96044],[76,27]],[[85882,96084],[212,108]],[[88031,97680],[15,-27]],[[88273,97438],[1770,845],[1316,-778],[-1543,-804],[-1180,617]],[[89407,97639],[818,-201],[136,456],[-984,67],[30,-322]],[[90376,97666],[76,14],[75,67],[-212,40],[61,-121]],[[89529,97412],[-137,-14],[-90,-322],[378,188],[-151,148]],[[89589,98229],[45,-26],[-30,-14],[-15,40]],[[91496,97800],[75,-40],[-151,-134],[45,349],[31,-175]],[[87894,97867],[0,0]],[[88167,97841],[-15,-14],[-91,14],[30,26],[76,-26]],[[88031,97854],[0,0]],[[88303,97800],[136,-107],[15,-40],[-333,80],[182,67]],[[90588,97130],[0,0]],[[90497,97117],[0,0]],[[90482,97117],[0,0]],[[90134,96929],[15,0],[-15,-13],[0,13]],[[90527,96889],[-15,0],[0,13],[15,0],[0,-13]],[[90406,96862],[0,0]],[[90497,96848],[-15,0],[15,14],[0,-14]],[[88772,96822],[0,0]],[[90406,96822],[46,0],[0,-14],[-16,14],[-30,0]],[[89634,96741],[-272,-523],[-424,-80],[-15,147],[711,456]],[[89937,96674],[-15,-27],[-76,14],[-15,27],[106,-14]],[[94612,96594],[-30,40],[76,27],[-46,-27],[0,-40]],[[94416,96634],[-15,-13],[-16,0],[16,26],[15,-13]],[[94582,96285],[-30,0]],[[94552,96285],[30,0]],[[89831,96554],[-15,0],[-76,67],[106,-27],[-15,-40]],[[94643,96594],[-15,-27],[0,27],[15,0]],[[94991,96393],[0,26]],[[94991,96419],[-46,-13]],[[94945,96406],[-15,0]],[[94930,96406],[61,-13]],[[94794,96446],[61,-27],[-197,-107],[91,161],[45,-27]],[[89574,96406],[15,40],[76,0],[-76,-40],[-15,0]],[[94991,96312],[0,54]],[[94749,96299],[15,-27],[-61,0],[31,13],[15,14]],[[94597,96259],[0,13]],[[94688,96259],[0,0]],[[87728,96165],[-15,13],[60,54],[-45,-67]],[[87698,96218],[0,0]],[[89241,96151],[76,0],[-15,-13],[-91,13],[30,0]],[[88711,96057],[0,0]],[[94355,95990],[0,-26]],[[94355,95964],[30,-134]],[[94385,95830],[0,-14]],[[94385,95816],[16,-13]],[[94401,95803],[0,-14]],[[94401,95789],[15,-13]],[[94416,95776],[0,-13]],[[94416,95763],[0,-27]],[[94416,95736],[0,-14]],[[94416,95722],[15,-13]],[[94431,95709],[-303,-483]],[[94128,95226],[-802,-80],[1029,844]],[[88893,95655],[-15,-13],[-45,13],[60,0]],[[85307,95427],[-454,-429],[-333,81],[257,402],[530,-54]],[[88878,95360],[-91,-67],[-76,0],[-15,67],[182,0]],[[88802,95253],[0,0]],[[88742,95039],[30,107],[61,-14],[-16,-93],[-75,0]],[[92615,95039],[46,-429],[-500,147],[273,282],[181,0]],[[88742,95039],[-31,-175],[-181,-13],[-15,147],[227,41]],[[88515,95025],[-15,0],[0,14],[15,-14]],[[88817,94784],[-15,-14],[0,14],[15,0]],[[90452,93269],[-833,697],[394,483],[2118,295],[-1679,-1475]],[[88787,94690],[121,0],[590,-536],[-681,187],[-30,349]],[[88908,94663],[0,0]],[[89014,94623],[0,13],[-15,27],[30,-13],[-15,-27]],[[89014,94623],[0,-13],[-15,13],[15,0]],[[92358,94583],[-30,-14],[-15,0],[0,-13],[45,27]],[[92267,94556],[-91,-80],[-60,53],[30,14],[121,13]],[[89150,94516],[0,27],[15,0],[-15,-27]],[[92116,94529],[0,0]],[[89165,94502],[0,0]],[[84445,94114],[0,-41],[-303,27],[287,94],[16,-80]],[[60765,93658],[1604,-27],[318,-442],[-1529,-885],[-1467,1246],[1074,108]],[[90330,93658],[0,-14],[0,14]],[[59494,93282],[15,108],[136,134],[-15,-201],[-136,-41]],[[85171,83335],[-242,-54]],[[84929,83281],[-76,-27]],[[84853,83254],[0,-13]],[[84853,83241],[-1952,-939],[1286,-2185],[-2057,-1595],[983,2440],[-2663,576],[2194,402]],[[82281,82209],[-2451,589],[-1014,-509],[1105,-483],[-4222,-791],[-106,979],[1680,161],[-2149,737],[-484,-3512],[-2255,1005]],[[72264,80305],[-393,-2159],[-1801,563],[1377,3768],[2588,1850],[257,2172],[-1256,-1019],[-1740,1421],[-3556,-2065],[363,1153],[-3328,-161]],[[64366,85775],[-60,-14]],[[64094,85721],[-15,-13]],[[64048,85721],[-181,81]],[[63837,85802],[-31,0]],[[63731,85802],[-1604,-295]],[[62081,85507],[-211,-14]],[[61854,85493],[-166,-13]],[[61658,85480],[-167,-94]],[[61385,85373],[-2163,241],[-2028,-1435],[-1362,-6435],[-2073,617],[-1528,-1180],[-2678,-27],[1074,577]],[[50627,77731],[106,-282]],[[50733,77449],[46,54]],[[50779,77503],[91,13]],[[50870,77516],[75,27]],[[50945,77543],[469,335]],[[51414,77878],[152,148]],[[51566,78026],[196,174]],[[51762,78200],[61,67]],[[51823,78267],[106,107]],[[51929,78374],[1725,778]],[[53654,79152],[-16,40]],[[53638,79192],[16,107]],[[53654,79299],[348,630]],[[54002,79929],[-1771,684]],[[52231,80613],[-136,-67]],[[52095,80546],[-45,27]],[[52050,80573],[-379,831]],[[51671,81404],[712,872],[-2164,2225],[-363,-1113]],[[49856,83388],[-288,148]],[[49568,83536],[31,27]],[[49599,83563],[0,13]],[[49599,83576],[30,27]],[[49629,83603],[-136,67]],[[49493,83670],[-16,107]],[[49477,83777],[-453,282]],[[49024,84059],[-591,2426],[-3192,3151]],[[45241,89636],[76,107]],[[45317,89743],[30,536]],[[45347,90279],[-439,349]],[[44908,90628],[-106,-14]],[[44802,90614],[-76,295]],[[44726,90909],[-393,376]],[[44333,91285],[-499,255]],[[43834,91540],[-46,26]],[[43788,91566],[258,282]],[[44046,91848],[2224,-335],[1271,-3352],[998,1193]],[[48509,89515],[-166,952],[2890,-94],[-288,-1448]],[[50522,88724],[-712,-241],[2512,-858],[787,1649],[-1513,1166],[2421,791],[1013,-2024],[2739,-148]],[[57769,89059],[-711,-321]],[[57058,88738],[-2799,348]],[[54259,89086],[-106,-67]],[[54153,89019],[-1498,-2319],[4010,-550]],[[58041,86217],[2331,188]],[[60508,86405],[45,13]],[[60886,86472],[166,27]],[[61174,86499],[136,13]],[[61733,86807],[76,94]],[[62914,86753],[45,-13]],[[63080,86740],[45,13]],[[63398,86767],[60,13]],[[63791,86954],[46,41]],[[63867,87022],[45,40]],[[63942,87102],[303,295]],[[64412,87598],[408,952],[288,-1381]],[[65108,87156],[-46,-376]],[[65047,86633],[984,-885],[4811,1984],[-2996,1153],[378,-1180],[-1104,-590],[-288,2212],[-2436,389],[848,376]],[[65244,90092],[-106,134]],[[65138,90226],[393,590]],[[65546,90816],[-15,0]],[[65531,90816],[4933,13],[3934,-1689]],[[74398,89140],[60,0]],[[74458,89140],[76,94]],[[74534,89234],[0,-27]],[[74988,89408],[30,67]],[[76304,89555],[-91,-120]],[[76002,89140],[-46,-54]],[[75956,89086],[106,-134]],[[76062,88952],[-15,-13]],[[76047,88939],[0,-14]],[[76047,88925],[0,-13]],[[76032,88805],[45,-14]],[[76077,88791],[1907,603]],[[77984,89394],[560,215]],[[78544,89609],[3404,1327]],[[81192,90628],[45,27]],[[81237,90655],[166,107]],[[81449,90789],[196,120]],[[81645,90909],[46,27]],[[81766,90990],[106,80]],[[81872,91070],[152,121]],[[82024,91191],[605,483]],[[82629,91674],[575,670]],[[83204,92344],[15,13]],[[83219,92357],[1362,818],[-757,-1542],[1014,-415],[-2315,-2896],[-3768,1126],[-786,-912],[1256,-522],[-1271,-295],[-908,-3325],[3328,-1596],[1967,68],[636,1246],[3601,-456],[-1407,-321]],[[81827,89234],[15,-27],[30,27],[-45,0]],[[71553,88376],[893,174],[-4312,1408],[696,-698],[2723,-884]],[[70161,90105],[-15,0],[227,-67],[30,-13],[-90,67],[-152,13]],[[76925,87249],[408,-429],[91,858],[-757,-80],[258,-349]],[[75760,87223],[-76,-242],[348,-107],[-76,80],[-196,269]],[[67226,86110],[30,-54],[363,14],[-60,120],[-333,-80]],[[53563,85869],[-2164,174],[-1604,-831],[1407,308],[-257,-1207],[2482,-683],[136,2239]],[[57436,84796],[31,13]],[[55681,84716],[45,13],[0,13],[-60,0],[15,-26]],[[54531,84300],[-529,-442],[45,-1127],[620,282],[-136,1287]],[[56453,83187],[333,389],[-439,509],[-273,-294],[379,-604]],[[56559,83938],[-76,0],[-30,-27],[75,-40],[31,67]],[[53911,83978],[-212,309],[-106,-657],[166,13],[152,335]],[[48948,84850],[15,53],[-91,-53],[15,-27],[61,27]],[[49659,86123],[0,-27],[-45,-13],[0,27],[45,13]],[[50295,86190],[-61,27],[-30,-13],[15,-40],[76,26]],[[50174,86204],[-106,67],[-46,-27],[46,-80],[106,40]],[[64714,85962],[-257,269]],[[64760,86043],[181,80],[0,27],[-181,0],[0,-107]],[[65365,86110],[15,13],[-46,14],[0,-14],[31,-13]],[[60735,85976],[0,0]],[[64608,87504],[-91,54]],[[49947,86472],[-243,255],[-227,-161],[606,-268],[-136,174]],[[51838,86847],[15,-67],[30,0],[15,14],[-60,53]],[[49281,87598],[30,174],[-121,41],[-30,147],[-121,67],[-545,-576],[787,147]],[[50325,87611],[0,0]],[[53124,88724],[76,14],[0,40],[-137,0],[61,-54]],[[53063,88805],[122,0],[15,26],[-91,41],[-46,-67]],[[50355,88965],[-45,41],[-31,13],[16,-94],[60,40]],[[49266,84474],[15,14],[-30,0],[15,-14]],[[49326,84488],[15,-14],[15,14],[-30,0]],[[49387,84488],[30,-41],[91,0],[0,27],[-121,14]],[[49614,84447],[30,0],[0,14],[-45,0],[15,-14]],[[55348,82436],[-650,-375],[-863,-107],[1135,-657],[1301,912],[-923,227]],[[56377,81780],[-166,-510],[-348,-389],[938,228],[-424,671]],[[52262,81270],[-167,-161],[-30,-107],[242,228],[-45,40]],[[55787,81632],[-45,-13],[-46,-67],[76,26],[15,54]],[[52277,81310],[-15,0],[-16,-13],[46,-13],[-15,26]],[[53245,82423],[-45,13],[-46,-120],[136,0],[-45,107]],[[54985,79862],[15,362],[-136,309],[-121,-14],[242,-657]],[[53487,78870],[167,-161],[242,94],[-212,-13],[-197,80]],[[54456,78844],[-61,-14],[-61,-40],[212,80],[-90,-26]],[[52882,78468],[-91,-40],[15,-27],[136,0],[-60,67]],[[52640,78374],[-30,-26],[45,-27],[15,27],[-30,26]],[[52277,78227],[-61,40],[-45,-80],[45,-27],[61,67]],[[52065,78213],[-76,-40],[15,-40],[106,27],[-45,53]],[[52806,78160],[-91,-54],[16,-40],[45,0],[30,94]],[[52655,78066],[-197,67],[-60,-107],[151,-27],[106,67]],[[52156,78012],[15,67],[-242,-26],[121,-94],[106,53]],[[52610,78120],[15,-27],[75,40],[-30,27],[-60,-40]],[[51929,78200],[-15,40],[-31,-27],[15,-26],[31,13]],[[75744,85627],[500,-120],[91,80],[-636,295],[45,-255]],[[76622,85426],[-227,-27],[590,-496],[-45,523],[-318,0]],[[75533,84139],[-121,0]],[[76713,83938],[-469,-603],[1467,-523],[-1013,1247],[15,-121]],[[73218,83187],[-878,-1247],[893,671]],[[74186,81940],[76,-26],[15,40],[-106,53],[15,-67]],[[73490,81793],[182,54]],[[73808,81511],[-136,0],[45,-187],[272,80],[-181,107]],[[71947,81485],[-106,-134],[30,-295],[136,53],[-60,376]],[[70948,78991],[15,27],[15,13],[15,27],[-60,-80],[15,13]],[[82659,81632],[-15,-27]],[[82614,81458],[-15,13],[45,-40],[-30,27]],[[59615,93229],[-15,-27],[-45,27],[-31,0],[0,-67],[61,-67],[-61,-27],[-45,121],[30,40],[106,40],[0,-40]],[[90376,93189],[15,0],[-15,0]],[[60326,93095],[0,0]],[[90421,93121],[0,0]],[[60069,93001],[-106,0],[-60,40],[151,40],[15,-80]],[[60266,92974],[-15,-13],[-16,0],[16,13],[15,0]],[[64956,91446],[-15,-94]],[[64941,91352],[-121,-107]],[[64911,91231],[15,0]],[[64926,91231],[15,-27]],[[64290,90856],[-121,-67]],[[64154,90802],[-90,-40]],[[63821,90655],[-680,-644]],[[63141,90011],[-3057,-402]],[[60084,89609],[2255,-107],[786,1005]],[[63186,90655],[-545,1863],[2315,-1072]],[[59691,89663],[-817,-362],[-379,26],[863,456],[333,-120]],[[59782,89622],[0,0]],[[55212,89354],[-15,67],[60,27],[61,-27],[-106,-67]],[[57890,89461],[-45,-107],[-91,54],[45,27],[91,26]],[[81146,89140],[0,0]],[[81070,89059],[0,0]],[[81055,89006],[0,0]],[[66787,88831],[-30,41],[-15,67],[60,-81],[-15,-27]],[[66848,88912],[15,-14],[-15,14]],[[66787,88805],[0,0]],[[64744,88764],[-15,0],[-15,41],[30,0],[0,-41]],[[81328,88563],[-61,-27],[-121,108],[167,0],[15,-81]],[[89271,87477],[-151,-1568],[-1543,-228],[575,1622],[1119,174]],[[88515,86727],[-46,-94],[197,-27],[30,80],[-181,41]],[[70388,86311],[409,-94],[0,-348],[-318,-121],[-91,563]],[[53018,85882],[15,0],[-15,-13],[-30,13],[30,0]],[[71493,85426],[151,-27],[151,-161],[212,-482],[-272,-188],[-242,858]],[[69405,85507],[408,-188],[-348,-255],[-378,188],[318,255]],[[86003,84421],[-1543,-510],[-590,1113],[2375,107],[-242,-710]],[[71765,84796],[0,0]],[[72022,84756],[0,0]],[[72189,84675],[60,-40],[136,-228],[-378,27],[182,241]],[[72113,84582],[91,0],[0,40],[-61,40],[-30,-80]],[[53366,84595],[-15,-13],[15,26],[0,-13]],[[53366,84555],[-45,-54],[-31,14],[0,40],[76,0]],[[53442,84501],[0,0]],[[71977,84461],[-15,-14],[-15,54],[15,-27],[15,-13]],[[53079,84085],[272,242],[60,-14],[-75,-93],[-257,-135]],[[86336,83791],[-91,-41],[106,188],[-45,-121],[30,-26]],[[72658,83656],[45,-53],[-121,-54],[-15,67],[91,40]],[[72522,83415],[0,0]],[[72310,82946],[-61,40],[15,14],[46,-54]],[[80042,82584],[0,0]],[[78695,80935],[348,-402],[-1059,-389],[-318,697],[1029,94]],[[52216,80600],[61,-94]],[[52277,80506],[-61,94]],[[72476,80131],[-91,53],[16,40],[30,14],[45,-107]],[[83068,78897],[-15,0],[0,67],[90,-67],[-75,0]],[[86563,78227],[-257,-617],[-969,510],[590,670],[636,-563]],[[50022,78120],[61,415]],[[50083,78535],[-61,-415]],[[49992,78079],[-1044,-201]],[[48948,77878],[1044,201]],[[52473,73535],[-30,26]],[[52443,73561],[-91,94]],[[52171,73722],[-15,14]],[[52140,73749],[-45,40]],[[52095,73803],[-30,13]],[[51898,73789],[-348,54]],[[51460,73856],[-31,14]],[[51384,73883],[-15,14]],[[51142,73897],[-15,-14]],[[51112,73883],[-31,-27]],[[51066,73843],[-544,2185],[1286,201],[242,-1086],[3798,2534],[-712,-2225],[-2814,-697],[318,-1247]],[[52640,73508],[-106,13]],[[52489,73521],[-16,0]],[[56468,73280],[-893,-268]],[[55575,73012],[-45,67]],[[55530,73079],[-318,147]],[[55182,73226],[-46,14]],[[55136,73240],[-45,13]],[[55030,73266],[-75,67]],[[54955,73333],[-15,27]],[[54925,73347],[-61,-27]],[[54743,73414],[-15,13]],[[54622,73441],[-30,13]],[[54577,73454],[-31,14]],[[54486,73468],[-30,13]],[[54410,73481],[1453,576],[605,-777]],[[55227,73628],[46,228],[-454,-53],[90,-108],[318,-67]],[[81192,90628],[211,134]],[[81403,90762],[46,27]],[[81449,90789],[242,147]],[[81691,90936],[75,54]],[[81766,90990],[757,563],[1135,-134],[-1710,-483]],[[81948,90936],[-756,-308]],[[63125,90507],[61,148]],[[63186,90655],[469,1139],[1165,-549]],[[64820,91245],[106,-14]],[[64926,91231],[15,-27]],[[64941,91204],[0,-187]],[[64941,91017],[-106,-94]],[[64835,90923],[-45,0]],[[64790,90923],[-212,-14]],[[64578,90909],[-15,0]],[[64563,90909],[-242,-53]],[[64321,90856],[-31,0]],[[64290,90856],[-121,-67]],[[64169,90789],[-15,13]],[[64154,90802],[-90,-40]],[[64064,90762],[-243,-107]],[[63821,90655],[-696,-148]],[[63988,85507],[76,67],[0,-41],[-76,-26]],[[65108,87169],[0,-13]],[[65108,87156],[-46,-376]],[[65062,86780],[-15,-147]],[[65047,86633],[-590,-402]],[[64457,86231],[257,-269]],[[64714,85962],[61,-134]],[[64775,85828],[-409,-53]],[[64366,85775],[-60,-14]],[[64306,85761],[-212,-40]],[[64094,85721],[-15,-13]],[[64079,85708],[-31,13]],[[64048,85721],[-181,81]],[[63867,85802],[-30,0]],[[63837,85802],[-31,0]],[[63806,85802],[-75,0]],[[63731,85802],[-1604,-295]],[[62127,85507],[-46,0]],[[62081,85507],[-211,-14]],[[61870,85493],[-16,0]],[[61854,85493],[-166,-13]],[[61688,85480],[-30,0]],[[61658,85480],[-167,-94]],[[61491,85386],[-106,-13]],[[61385,85373],[-1013,1032]],[[60372,86405],[136,0]],[[60508,86405],[45,13]],[[60553,86418],[333,54]],[[60886,86472],[166,27]],[[61052,86499],[122,0]],[[61174,86499],[136,13]],[[61310,86512],[423,295]],[[61733,86807],[76,94]],[[61809,86901],[1105,-148]],[[62914,86753],[45,-13]],[[62959,86740],[121,0]],[[63080,86740],[45,13]],[[63125,86753],[273,14]],[[63398,86767],[60,13]],[[63458,86780],[333,174]],[[63791,86954],[46,41]],[[63837,86995],[30,27]],[[63867,87022],[45,40]],[[63912,87062],[30,40]],[[63942,87102],[303,295]],[[64245,87397],[167,201]],[[64412,87598],[105,-40]],[[64517,87558],[91,-54]],[[64608,87504],[500,-335]],[[74504,84488],[756,1474],[1710,-1501],[-2224,67]],[[65319,89998],[1014,429],[1090,-416],[-1619,-496],[-485,483]],[[49538,85413],[-15,-54],[-303,54],[-348,268],[212,429],[1982,13],[-1528,-710]],[[72264,80305],[121,80]],[[72385,80385],[1105,1408]],[[73490,81793],[182,54]],[[73672,81847],[1861,2292]],[[75533,84139],[-121,0]],[[75412,84139],[-666,389]],[[74746,84528],[-242,-40]],[[74504,84488],[-1286,-1301]],[[73218,83187],[15,-576]],[[73233,82611],[-969,-2306]],[[76304,89555],[-91,-120]],[[76213,89435],[-211,-295]],[[76002,89140],[-46,-54]],[[75956,89086],[91,-174]],[[76047,88912],[-15,-107]],[[76032,88805],[45,-14]],[[76077,88791],[76,-1381],[-2875,-804],[-877,1072],[2057,1462]],[[74458,89140],[76,67]],[[74534,89207],[424,80]],[[74958,89287],[-15,0]],[[74943,89287],[45,121]],[[74988,89408],[30,67]],[[75018,89475],[30,67]],[[75048,89542],[212,0]],[[75260,89542],[1044,13]],[[76304,89555],[0,0]],[[86866,96098],[-46,0]],[[86820,96098],[-15,13]],[[86805,96111],[-15,14]],[[86790,96125],[-61,-14]],[[86729,96111],[-30,0]],[[86699,96111],[288,215]],[[86987,96326],[-16,-108]],[[86971,96218],[-105,-120]],[[86987,96379],[0,-53]],[[86987,96326],[0,53]],[[88303,97023],[30,-188]],[[88333,96835],[-15,-13]],[[88318,96822],[-1044,-510]],[[87274,96312],[-227,81]],[[87047,96393],[-1331,-376]],[[85716,96017],[45,27]],[[85761,96044],[76,27]],[[85837,96071],[45,13]],[[85882,96084],[212,108]],[[86094,96192],[1937,1488]],[[88031,97680],[15,-27]],[[88046,97653],[227,-215]],[[88273,97438],[363,-120]],[[88636,97318],[-333,-295]],[[48539,89354],[-30,161]],[[48509,89515],[363,939],[2073,-1529]],[[50945,88925],[-423,-201]],[[50522,88724],[-1983,630]],[[56665,86150],[1376,67]],[[58041,86217],[1181,67],[-1755,-1475]],[[57467,84809],[-31,-13]],[[57436,84796],[-1755,1274],[984,80]],[[82644,81940],[-363,269]],[[82281,82209],[1755,-952],[-1452,228]],[[82584,81485],[0,13]],[[82584,81498],[-16,13]],[[82568,81511],[0,27]],[[82568,81538],[76,67]],[[82644,81605],[15,27]],[[82659,81632],[-15,308]],[[28128,17469],[999,1716],[6854,214],[1407,-710],[-878,-134],[454,-1287]],[[36889,17214],[-46,-27]],[[36768,17147],[-152,-81]],[[36601,17053],[-212,-147]],[[35905,16490],[-60,-67]],[[19246,4384],[91,27],[45,107],[0,-174],[-136,40]],[[9684,5510],[-106,1864],[2920,1287],[-2103,1702],[4327,496],[969,1676],[-1937,1233],[1891,537]],[[15645,14291],[46,-53]],[[15706,14224],[45,-40]],[[15766,14184],[76,-54]],[[15857,14130],[620,-268]],[[16553,13809],[1437,348],[651,1837],[4343,-268],[5144,1743]],[[28128,17469],[-545,-1448]],[[27008,16007],[-75,-40]],[[26842,15726],[-968,-443]],[[25874,15297],[0,-14]],[[25874,15283],[-333,-1166],[4372,-214],[3753,2104],[-61,-1381],[1756,-308],[484,2105]],[[35845,16423],[620,241]],[[36526,16651],[121,107]],[[37797,16812],[30,-14]],[[38099,15726],[-15,-40]],[[38372,15404],[15,-13]],[[38417,15364],[15,-14]],[[38947,14452],[15,-13]],[[38992,14291],[15,-40]],[[39083,14157],[45,-80]],[[39158,13822],[15,-13]],[[39158,13272],[-15,-26]],[[39098,12884],[45,-27]],[[39279,12750],[16,-27]],[[39204,12562],[-15,-14]],[[39431,12026],[30,-14]],[[39491,11422],[30,-40]],[[39809,9961],[0,-27]],[[39794,9948],[-4872,-979],[-454,-1140],[-4085,-1863],[-1635,1086],[-3238,-1944],[-4781,0],[-1120,-925],[-121,563],[-650,188],[-500,-1716]],[[37691,10310],[0,0]],[[14374,5832],[1559,-1006]],[[15918,4826],[15,0]],[[15933,4826],[272,-161]],[[16190,4665],[15,0]],[[16205,4665],[-832,-791],[1982,-160]],[[17340,3714],[15,0]],[[17355,3714],[197,858],[484,-550]],[[18051,4022],[-15,0]],[[18036,4022],[45,-94]],[[18066,3928],[15,0]],[[18081,3928],[257,-710]],[[18338,3218],[-5038,-818],[166,-1234],[-1967,-1166],[-575,1770],[-2496,938]],[[8080,3942],[-30,80]],[[8065,4585],[15,54]],[[7974,4947],[76,121]],[[8110,5430],[1574,80]],[[9684,5510],[892,-13]],[[10652,5497],[45,13]],[[10713,5510],[90,40]],[[10818,5550],[273,41]],[[11136,5591],[106,-41]],[[11288,5537],[1467,228]],[[12801,5765],[60,-14]],[[13028,5738],[45,121]],[[8080,3942],[348,-1234]],[[8428,2708],[-590,-2064],[-1816,187],[-348,-831],[-1634,94],[378,1421],[-2058,-737],[-2360,1340],[817,2708],[1347,-174],[287,-1327],[2028,643],[378,2105],[1816,670],[121,2481],[1119,-416],[197,-3378]],[[8110,5430],[-60,-362]],[[8050,5068],[-76,-121]],[[7974,4947],[106,-308]],[[8080,4639],[-15,-54]],[[8065,4585],[-15,-563]],[[8050,4022],[30,-80]],[[39809,9934],[-15,14]],[[39794,9948],[15,13]],[[39809,9961],[-288,1421]],[[39521,11382],[-30,40]],[[39491,11422],[-30,590]],[[39461,12012],[-30,14]],[[39431,12026],[-242,522]],[[39189,12548],[15,14]],[[39204,12562],[91,161]],[[39295,12723],[-16,27]],[[39279,12750],[-136,107]],[[39143,12857],[-45,27]],[[39098,12884],[45,362]],[[39143,13246],[15,26]],[[39158,13272],[15,537]],[[39173,13809],[-15,13]],[[39158,13822],[-30,255]],[[39128,14077],[-45,80]],[[39083,14157],[-76,94]],[[39007,14251],[-15,40]],[[38992,14291],[-30,148]],[[38962,14439],[-15,13]],[[38947,14452],[-515,898]],[[38432,15350],[-15,14]],[[38417,15364],[-30,27]],[[38387,15391],[-15,13]],[[38372,15404],[-288,282]],[[38084,15686],[15,40]],[[38099,15726],[-272,1072]],[[37827,16798],[-30,14]],[[37797,16812],[-1150,-54]],[[36647,16758],[-121,-107]],[[36526,16651],[-61,13]],[[36465,16664],[-620,-241]],[[35845,16423],[60,67]],[[35905,16490],[484,416]],[[36389,16906],[212,147]],[[36601,17053],[15,13]],[[36616,17066],[152,81]],[[36768,17147],[75,40]],[[36843,17187],[46,27]],[[36889,17214],[75,54]],[[36964,17268],[3284,1380],[12104,-549],[-106,-778],[-1951,14],[1967,-818],[-1105,-1234],[741,-4732],[-5537,469],[-6552,-1086]],[[33136,12508],[-90,94]],[[32955,12803],[-1014,255],[1725,429]],[[17930,6422],[1452,228],[16,-899],[-2179,778]],[[17612,7588],[394,-54]],[[20744,13822],[61,-27]],[[20850,13782],[106,-40]],[[22696,12052],[3737,1086],[2119,-884],[-1226,-765]],[[27538,11972],[-106,67]],[[26161,11463],[-76,80]],[[26070,11543],[-756,-724],[908,-1501],[-1317,-309],[-560,1703],[-1573,616],[711,-2051],[3329,-804],[-106,-657],[-4645,1756],[151,-2118],[-1211,2252],[-1921,-1220],[-802,1073],[-2149,-805]],[[15872,8875],[454,617]],[[17173,10390],[-1119,94],[1755,1113]],[[17839,11650],[212,228]],[[18021,11892],[-46,13]],[[17673,11985],[-2088,-160],[1104,1126]],[[17264,13514],[30,13]],[[17763,13058],[61,80]],[[18369,13688],[45,107]],[[19110,14224],[182,-27]],[[23574,8634],[0,0]],[[22757,7896],[30,41],[-46,13],[-30,-40],[46,-14]],[[22666,7963],[30,14],[-30,40],[-30,-13],[30,-41]],[[24330,9814],[-60,0],[-15,-14],[60,-40],[15,54]],[[26539,8191],[46,-26],[-15,80],[-46,0],[15,-54]],[[23710,14774],[30,-27]],[[23831,14626],[-61,-40]],[[22802,13755],[-197,0]],[[21803,14640],[469,-40]],[[22333,14533],[1286,388]],[[23301,6180],[-514,-791],[-76,1891],[469,-228],[121,-872]],[[15691,14238],[15,-14]],[[15706,14224],[45,-40]],[[15751,14184],[15,0]],[[15766,14184],[76,-54]],[[15842,14130],[15,0]],[[15857,14130],[620,-268]],[[16477,13862],[76,-53]],[[16553,13809],[-2376,388],[1468,108]],[[15645,14305],[0,-14]],[[15645,14291],[46,-53]],[[25768,12736],[-802,67],[-152,469],[1211,134],[-257,-670]],[[23332,13192],[711,-13],[136,-456],[-1271,-14],[424,483]],[[19746,15257],[-167,-523],[-953,94],[227,455],[893,-26]],[[19261,8299],[-136,-496],[-423,630],[348,0],[211,-134]],[[28824,12093],[-136,93],[-46,94],[167,14],[15,-201]],[[11545,3754],[166,174]],[[12286,4893],[-1710,604]],[[10576,5497],[76,0]],[[10652,5497],[45,13]],[[10697,5510],[16,0]],[[10713,5510],[90,40]],[[10803,5550],[15,0]],[[10818,5550],[273,41]],[[11091,5591],[45,0]],[[11136,5591],[106,-41]],[[11242,5550],[46,-13]],[[11288,5537],[1467,228]],[[12755,5765],[46,0]],[[12801,5765],[60,-14]],[[12861,5751],[167,-13]],[[13028,5738],[-197,-952]],[[13088,4558],[-30,-120]],[[12347,3874],[-76,-80]],[[12210,3727],[-75,-80]],[[11847,3794],[-121,-27]],[[11847,3807],[46,0],[0,14],[-46,13],[0,-27]],[[14132,6583],[61,-228]],[[14193,6328],[181,-496]],[[14374,5832],[-439,94]],[[12664,6529],[1650,1475],[-772,-1059]],[[6869,4196],[182,-322]],[[7051,3928],[-15,81]],[[6748,3405],[-60,-27]],[[5568,3526],[-1528,-188],[1437,764]],[[5492,4035],[-60,-93]],[[5447,3928],[-15,-27]],[[5840,4397],[227,67]],[[6173,4464],[1498,483],[-847,-644]],[[30186,15632],[-2058,308]],[[27856,15565],[-318,-134]],[[27417,15417],[-182,81]],[[28128,16088],[1135,482]],[[30216,16825],[1120,-53],[-424,-845]],[[33847,16436],[-998,496]],[[32879,17201],[45,80]],[[33076,17442],[423,174]],[[35799,16745],[-544,241]],[[36526,17737],[136,-309]],[[47132,16450],[363,-362]],[[46936,14975],[-227,-121]],[[46588,14854],[-91,-53]],[[46240,14801],[-364,107]],[[46194,15498],[-91,54]],[[45952,15820],[-76,-14]],[[45695,15753],[-681,-161],[-288,402],[2179,550]],[[44197,15954],[408,-81],[-257,-335],[-439,174],[288,242]],[[44575,15981],[-151,-54],[-15,121],[136,0],[30,-67]],[[48040,16436],[15,-67],[-121,-26],[30,93],[76,0]],[[47132,16450],[363,-362]],[[47495,16088],[-559,-1113]],[[46936,14975],[-227,-121]],[[46709,14854],[-121,0]],[[46588,14854],[-91,-53]],[[46497,14801],[-76,67]],[[46421,14854],[0,14]],[[46421,14868],[-181,-67]],[[46240,14801],[-364,107]],[[45876,14908],[318,590]],[[46194,15498],[-91,54]],[[46103,15552],[-151,268]],[[45952,15820],[-76,-14]],[[45876,15806],[-181,-53]],[[45695,15753],[1210,791]],[[46905,16544],[227,-94]],[[14132,6583],[61,-228]],[[14193,6355],[0,-27]],[[14193,6328],[-258,-402]],[[13935,5926],[-862,-67]],[[13073,5859],[-409,670]],[[12664,6529],[878,416]],[[13542,6945],[590,-362]],[[12831,4786],[257,-228]],[[13088,4558],[-30,-120]],[[13058,4438],[-711,-564]],[[12347,3874],[-76,-80]],[[12271,3794],[-61,-67]],[[12210,3727],[-499,201]],[[11711,3928],[575,965]],[[12286,4893],[545,-107]],[[11545,3754],[181,13]],[[11726,3767],[76,-791],[-257,778]],[[12135,3647],[-288,147]],[[11847,3794],[288,-147]],[[6824,4303],[45,-107]],[[6869,4196],[167,-187]],[[7036,4009],[-288,-604]],[[6748,3405],[-60,-27]],[[6688,3378],[-1120,148]],[[5568,3526],[-136,375]],[[5432,3901],[197,-27]],[[5629,3888],[0,-14]],[[5629,3874],[211,523]],[[5840,4397],[227,67]],[[6067,4464],[106,0]],[[6173,4464],[651,-161]],[[5492,4035],[-15,67]],[[5477,4102],[15,-67]],[[7051,3874],[0,54]],[[7051,3928],[0,-54]],[[5447,3928],[-15,14]],[[5432,3942],[15,-14]],[[20744,13822],[61,-27]],[[20805,13795],[45,-13]],[[20850,13782],[106,-40]],[[20956,13742],[1740,-1690]],[[22696,12052],[-45,-1903],[-2830,-778],[-1936,939],[-76,1287]],[[17809,11597],[30,53]],[[17839,11650],[212,228]],[[18051,11878],[-30,14]],[[18021,11892],[-46,13]],[[17975,11905],[-302,80]],[[17673,11985],[-984,966]],[[16689,12951],[575,563]],[[17264,13514],[30,13]],[[17294,13527],[469,-469]],[[17763,13058],[61,80]],[[17824,13138],[545,550]],[[18369,13688],[45,107]],[[18414,13795],[696,429]],[[19110,14224],[182,-27]],[[19292,14197],[1452,-375]],[[23710,14774],[30,-27]],[[23740,14747],[91,-121]],[[23831,14626],[-61,-40]],[[23770,14586],[-968,-831]],[[22802,13755],[-197,0]],[[22605,13755],[-802,885]],[[21803,14640],[469,-40]],[[22272,14600],[61,-67]],[[22333,14533],[1286,388]],[[23619,14921],[91,-147]],[[24678,11047],[-847,509],[711,698],[908,-523],[-772,-684]],[[16326,9492],[847,898]],[[17173,10390],[485,-938],[-1332,40]],[[27432,12039],[-1271,-576]],[[26161,11463],[-76,80]],[[26085,11543],[-15,0]],[[26070,11543],[273,898],[1089,-402]],[[27326,11489],[212,483]],[[27538,11972],[-212,-483]],[[15872,8875],[257,-121]],[[16129,8754],[-257,121]],[[30912,15927],[-726,-295]],[[30186,15632],[-923,938]],[[29263,16570],[439,-40]],[[29717,16530],[-15,0]],[[29702,16530],[514,295]],[[30216,16825],[696,-898]],[[33847,16436],[-998,496]],[[32849,16932],[30,269]],[[32879,17201],[45,80]],[[32924,17281],[152,161]],[[33076,17442],[423,174]],[[33499,17616],[348,-1180]],[[36662,17428],[-863,-683]],[[35799,16745],[-544,241]],[[35255,16986],[1271,751]],[[36526,17737],[136,-309]],[[28128,15940],[-272,-375]],[[27856,15565],[-318,-134]],[[27538,15431],[-121,-14]],[[27417,15417],[-182,81]],[[27235,15498],[-393,228]],[[26842,15726],[91,241]],[[26933,15967],[75,40]],[[27008,16007],[575,14]],[[27583,16021],[545,67]],[[28128,16088],[0,-148]],[[33136,12508],[-90,94]],[[33046,12602],[-91,201]],[[32955,12803],[711,684]],[[33666,13487],[-530,-979]],[[17930,6422],[-711,107]],[[17219,6529],[393,1059]],[[17612,7588],[394,-54]],[[18006,7534],[-76,-1112]],[[54017,66201],[681,-898],[-1907,134],[1029,362],[197,402]],[[52262,69231],[60,148]],[[52246,68668],[545,-1193],[-1271,536],[666,1086]],[[50355,72569],[1014,-871]],[[51369,71577],[15,-53]],[[51566,71229],[211,-201]],[[52186,70062],[-15,-27]],[[52019,69593],[-438,-777]],[[51429,68547],[-45,-80]],[[51339,68413],[-1014,724]],[[49432,69325],[30,27]],[[49962,69499],[15,40]],[[49916,69660],[-15,27]],[[49871,69700],[-15,27]],[[49810,69834],[-605,282]],[[49145,70116],[0,-13]],[[49145,70103],[0,-81]],[[49145,70022],[0,-67]],[[49145,69888],[-76,-27]],[[48918,69834],[75,-683],[-181,1836]],[[48691,71108],[-61,0]],[[48645,71148],[15,14]],[[48781,71349],[-15,27]],[[48842,71725],[106,-14]],[[50158,71752],[16,53]],[[50143,71859],[-302,281]],[[49810,72167],[-469,577]],[[49795,72864],[61,-40]],[[51566,73830],[45,-14]],[[51611,73816],[30,-13]],[[51641,73803],[15,0]],[[51656,73803],[61,-27]],[[51717,73776],[75,-13]],[[51792,73763],[31,26]],[[51823,73789],[15,14]],[[51838,73803],[15,13]],[[51853,73816],[0,-13]],[[51853,73803],[15,0]],[[51868,73803],[30,-14]],[[51898,73789],[167,27]],[[52065,73816],[30,-13]],[[52095,73803],[0,-14]],[[52095,73789],[45,-40]],[[52140,73749],[16,-13]],[[52156,73736],[15,-14]],[[52171,73722],[60,-27]],[[52610,73521],[45,-13]],[[52958,73414],[30,-13]],[[53260,73360],[30,-53]],[[53290,73307],[61,0]],[[53351,73307],[91,0]],[[53442,73307],[75,0]],[[53517,73307],[31,-14]],[[53548,73293],[60,0]],[[53608,73293],[15,14]],[[53623,73307],[46,26]],[[53669,73333],[15,14]],[[53684,73347],[15,13]],[[53699,73360],[242,81]],[[53941,73441],[45,13]],[[53986,73454],[121,27]],[[54107,73481],[16,0]],[[54123,73481],[106,13]],[[54229,73494],[30,0]],[[54259,73494],[151,-13]],[[54410,73481],[30,0]],[[54682,73427],[31,0]],[[54955,73333],[75,-67]],[[55030,73266],[31,-26]],[[55333,73199],[106,-13]],[[55500,73132],[30,-53]],[[55560,73052],[15,-40]],[[55621,72422],[287,-255]],[[56150,70880],[-1937,-1770]],[[53638,68722],[-15,-67]],[[53563,68614],[-76,-13]],[[53321,68574],[-15,-40]],[[52655,68990],[30,107]],[[52715,69258],[76,121]],[[53729,69405],[-121,161]],[[53533,69660],[-636,496]],[[52897,70438],[0,120]],[[52882,70599],[-106,187]],[[52458,71148],[-166,242]],[[52337,71443],[167,201]],[[52504,71671],[-560,362]],[[51898,72060],[-1104,1756]],[[50794,73816],[91,0]],[[50885,73816],[30,14]],[[50915,73830],[151,13]],[[51066,73843],[15,13]],[[51081,73856],[31,27]],[[51112,73883],[15,0]],[[51127,73883],[15,14]],[[51142,73897],[227,0]],[[51369,73897],[15,-14]],[[51384,73883],[45,-13]],[[51429,73870],[31,-14]],[[51460,73856],[90,-13]],[[51550,73843],[16,-13]],[[49629,74111],[212,-54]],[[49825,73843],[-75,-121]],[[49704,73655],[-60,-80]],[[49599,73468],[-31,-41]],[[49553,73280],[-15,-54]],[[49538,73186],[-15,-40]],[[49296,72918],[-76,-27]],[[49114,72851],[-75,67]],[[48887,73119],[-15,67]],[[48857,73253],[-15,40]],[[48857,73830],[0,53]],[[48857,73950],[0,94]],[[48842,74071],[-30,67]],[[48736,74259],[-15,40]],[[49205,70116],[-60,0]],[[49145,70116],[0,-13]],[[49145,70103],[0,-81]],[[49145,70022],[0,-67]],[[49145,69955],[0,-67]],[[49145,69888],[-76,-27]],[[49069,69861],[-151,-27]],[[48918,69834],[287,282]],[[52246,68668],[-60,429]],[[52186,69097],[76,134]],[[52262,69231],[60,148]],[[52322,69379],[-76,-711]],[[52352,73655],[137,-134]],[[52489,73521],[45,0]],[[52534,73521],[76,0]],[[52610,73521],[30,-13]],[[52640,73508],[15,0]],[[52655,73508],[60,0]],[[52715,73508],[46,-67]],[[52761,73441],[15,-40]],[[52776,73401],[61,-14]],[[52837,73387],[15,0]],[[52852,73387],[60,27]],[[52912,73414],[46,0]],[[52958,73414],[30,-13]],[[52988,73401],[60,-14]],[[53048,73387],[76,-40]],[[53124,73347],[106,13]],[[53230,73360],[30,0]],[[53260,73360],[1422,-174]],[[54637,73240],[-197,241]],[[54440,73481],[16,0]],[[54456,73481],[30,-13]],[[54486,73468],[60,0]],[[54546,73468],[31,-14]],[[54577,73454],[15,0]],[[54592,73454],[30,-13]],[[54622,73441],[60,-14]],[[54682,73427],[31,0]],[[54713,73427],[15,0]],[[54728,73427],[15,-13]],[[54743,73414],[121,-94]],[[54909,73333],[16,14]],[[54925,73347],[15,13]],[[54955,73333],[75,-67]],[[55030,73266],[16,-13]],[[55136,73240],[46,-14]],[[55182,73226],[30,0]],[[55212,73226],[121,-27]],[[55333,73199],[106,-13]],[[55439,73186],[61,-54]],[[55500,73132],[30,-53]],[[55530,73079],[30,-27]],[[55560,73052],[15,-40]],[[55575,73012],[-166,-295]],[[55378,72703],[243,-281]],[[55621,72422],[-1332,-1140],[1619,885]],[[55908,72167],[242,-1287]],[[56150,70880],[-3253,-724]],[[52897,70156],[0,282]],[[52897,70438],[0,120]],[[52897,70558],[-15,41]],[[52882,70599],[-106,187]],[[52776,70786],[-318,362]],[[52458,71148],[-166,242]],[[52292,71390],[45,53]],[[52337,71443],[167,201]],[[52504,71644],[0,27]],[[52504,71671],[-560,362]],[[51944,72033],[-46,27]],[[51898,72060],[333,1635]],[[52231,73695],[121,-40]],[[52443,73561],[0,-13]],[[52443,73548],[30,-13]],[[52473,73535],[0,-14]],[[52473,73521],[-30,27]],[[52640,73320],[45,-13],[30,40],[-60,13],[-15,-40]],[[53230,73186],[-91,-54],[167,-53],[15,53],[-91,54]],[[54728,72677],[60,-14],[0,40],[-30,14],[-30,-40]],[[54607,72650],[-46,-14],[0,-26],[31,-14],[15,54]],[[54743,72623],[-45,-13],[15,-27],[45,13],[-15,27]],[[54561,72583],[-30,53],[-136,-13],[257,-80],[-91,40]],[[54350,72556],[-167,-54],[-60,-80],[211,67],[16,67]],[[55333,72435],[-227,-40],[-15,-54],[227,0],[15,94]],[[53759,72408],[46,27],[-30,67],[-76,-67],[60,-27]],[[54077,72502],[61,-27],[45,54],[-60,40],[-46,-67]],[[54062,72462],[-60,27],[0,-67],[45,13],[15,27]],[[53714,72221],[45,27],[-15,26],[-45,-26],[15,-27]],[[52927,72100],[46,0],[15,27],[-46,13],[-15,-40]],[[52973,71939],[-46,0],[-45,-40],[30,-27],[61,67]],[[53759,71819],[-45,-41],[136,14],[0,40],[-91,-13]],[[53926,71711],[15,-27],[61,-13],[-61,81],[-15,-41]],[[54077,71577],[-45,0],[-30,-13],[-46,-81],[121,94]],[[53654,71483],[-31,-13],[31,-27],[30,14],[-30,26]],[[54017,71470],[15,-80],[166,26],[-136,14],[-45,40]],[[53744,71390],[-45,13],[76,-54],[-16,14],[-15,27]],[[53306,71309],[-303,-107],[151,-188],[167,94],[-15,201]],[[54032,71282],[45,-27],[-75,81],[-16,-67],[46,13]],[[55878,71282],[227,67],[-15,54],[-167,-40],[-45,-81]],[[55197,71229],[-15,-14],[-30,-27],[105,27],[-60,14]],[[55605,71229],[16,-41],[75,0],[-15,27],[-76,14]],[[55484,71229],[-45,-41],[91,0],[0,27],[-46,14]],[[54123,71188],[-137,-26],[-15,-41],[106,0],[46,67]],[[54229,71121],[-46,-67],[136,94],[-60,14],[-30,-41]],[[53956,71095],[0,53],[-30,14],[-30,-108],[60,41]],[[53805,71068],[-15,13],[0,-53],[45,26],[-30,14]],[[53578,71054],[-45,14],[-16,-40],[61,13],[0,13]],[[53457,71068],[-15,27],[-61,0],[15,-41],[61,14]],[[53971,71175],[31,13],[-31,27],[-15,-40],[15,0]],[[54486,71188],[30,14],[-15,13],[-15,0],[0,-27]],[[54168,71028],[0,-27],[61,0],[-16,27],[-45,0]],[[52867,71229],[-15,0],[0,-27],[45,13],[-30,14]],[[52852,71269],[-15,40],[-31,-13],[61,-54],[-15,27]],[[52761,71269],[30,13],[-30,41],[-30,-27],[30,-27]],[[52821,71363],[46,40],[-61,27],[-60,-81],[75,14]],[[52882,71403],[45,-13],[31,26],[-46,14],[-30,-27]],[[53336,71430],[15,0],[30,53],[-75,-26],[30,-27]],[[53533,71483],[-46,-26],[-15,-54],[91,40],[-30,40]],[[53457,71443],[-15,27],[0,13],[-15,-40],[30,0]],[[53805,71524],[45,13],[-45,40],[-30,-13],[30,-40]],[[53971,70947],[31,-40],[30,40],[-30,14],[-31,-14]],[[53548,70920],[-137,14],[-272,-81],[424,41],[-15,26]],[[55454,70357],[-605,-442],[-999,241],[454,241],[1150,-40]],[[54788,70076],[16,0],[15,27],[-46,-27],[15,0]],[[54062,69459],[15,-13]],[[54107,69365],[16,-27]],[[54107,69245],[106,-135]],[[53729,68896],[-91,-174]],[[53638,68722],[-15,-67]],[[53623,68655],[-60,-41]],[[53563,68614],[-76,-13]],[[53487,68601],[-166,-27]],[[53321,68574],[-15,-40]],[[53306,68534],[-651,456]],[[52655,68990],[30,107]],[[52685,69097],[30,161]],[[52715,69258],[76,121]],[[52791,69379],[378,-242]],[[53275,69151],[91,13]],[[53457,69177],[136,27]],[[53820,69298],[-91,107]],[[53729,69405],[-121,161]],[[53608,69566],[-75,94]],[[53533,69660],[-16,14]],[[53669,69767],[317,-295]],[[49629,74111],[212,-54]],[[49841,74057],[-16,-214]],[[49825,73843],[-75,-121]],[[49750,73722],[-46,-67]],[[49704,73655],[-60,-80]],[[49644,73575],[-45,-107]],[[49599,73468],[-31,-41]],[[49568,73427],[-15,-147]],[[49553,73280],[-15,-54]],[[49538,73226],[0,-40]],[[49538,73186],[-15,-40]],[[49523,73146],[-227,-228]],[[49296,72918],[-76,-27]],[[49220,72891],[-106,-40]],[[49114,72851],[-75,67]],[[49039,72918],[-152,201]],[[48887,73119],[-15,67]],[[48872,73186],[-15,67]],[[48857,73253],[-15,40]],[[48842,73293],[15,537]],[[48857,73830],[0,53]],[[48857,73883],[0,67]],[[48857,73950],[0,94]],[[48857,74044],[-15,27]],[[48842,74071],[-30,67]],[[48812,74138],[-76,121]],[[48736,74259],[-15,40]],[[48721,74299],[908,-188]],[[50355,72569],[1014,-871]],[[51369,71698],[0,-121]],[[51369,71577],[15,-53]],[[51384,71524],[182,-295]],[[51566,71229],[211,-201]],[[51777,71028],[379,-362]],[[52186,70612],[30,-40]],[[52231,70518],[15,-27]],[[52246,70451],[16,-40]],[[52262,70371],[-16,-27]],[[52246,70304],[-45,-188]],[[52186,70062],[-15,-27]],[[52171,70009],[-152,-416]],[[52019,69593],[-30,-67]],[[51898,69338],[-317,-522]],[[51581,68816],[-152,-269]],[[51429,68547],[-45,-80]],[[51384,68467],[-45,-54]],[[51339,68413],[-984,966]],[[50355,69392],[-30,-255]],[[50325,69137],[-893,188]],[[49432,69325],[30,27]],[[49462,69352],[500,147]],[[49962,69499],[15,40]],[[49977,69539],[-61,121]],[[49916,69660],[-15,27]],[[49901,69687],[-30,13]],[[49871,69700],[-15,27]],[[49856,69727],[-46,107]],[[49810,69834],[923,1287],[-1921,-134]],[[48812,70987],[-121,121]],[[48691,71108],[-61,0]],[[48630,71108],[15,40]],[[48645,71148],[15,14]],[[48660,71162],[121,187]],[[48781,71349],[-15,27]],[[48766,71376],[76,349]],[[48842,71725],[106,-14]],[[48948,71711],[1210,41]],[[50158,71752],[16,53]],[[50174,71805],[-31,54]],[[50143,71859],[-302,281]],[[49841,72140],[-31,27]],[[49810,72167],[-469,577]],[[49341,72744],[454,120]],[[49795,72864],[61,-40]],[[49856,72824],[91,-174]],[[49962,72636],[45,-80]],[[50037,72529],[318,40]],[[50522,71349],[15,-13],[15,27],[-15,-14],[-15,0]],[[50627,71349],[-60,-13],[60,-54],[46,27],[-46,40]],[[49190,71135],[-45,-40],[15,-41],[75,41],[-45,40]],[[49084,70894],[15,40],[106,53],[-151,-40],[30,-53]],[[50552,71188],[15,0],[0,41],[-30,-14],[15,-27]],[[50794,70639],[151,53],[-60,94],[0,-80],[-91,-67]],[[50915,70652],[-106,-134],[197,-67],[0,148],[-91,53]],[[50900,70250],[30,67],[-76,40],[16,-80],[30,-27]],[[50900,70237],[15,-27],[30,13],[0,14],[-45,0]],[[51021,70210],[-15,-14],[45,-13],[-15,27],[-15,0]],[[51066,70089],[30,0],[-45,27],[15,-13],[0,-14]],[[50885,70022],[0,-27],[45,0],[0,40],[-45,-13]],[[50718,69995],[106,-161],[182,0],[-31,67],[-257,94]],[[50688,69767],[30,94],[-136,27],[-60,-147],[166,26]],[[51021,69727],[-106,-80],[30,-27],[136,80],[-60,27]],[[50446,69808],[-30,-27],[-61,-14],[76,-26],[15,67]],[[50370,69808],[30,26],[-90,14],[45,-40],[15,0]],[[50794,69580],[30,0],[30,13],[-60,27],[0,-40]],[[50643,69553],[-31,-67],[46,-14],[60,94],[-75,-13]],[[50522,69526],[-76,27],[-15,-107],[91,0],[0,80]],[[50128,69419],[0,-54],[151,-13],[-75,80],[-76,-13]],[[50355,69392],[0,-13]],[[50355,69379],[0,13]],[[49720,69352],[90,13],[-30,54],[-91,-40],[31,-27]],[[50174,69231],[-46,-27],[91,27],[-91,94],[46,-94]],[[51293,69285],[151,-40]],[[51248,69459],[45,-94]],[[51444,69365],[-30,14]],[[51414,69392],[-45,13]],[[50870,69177],[-31,27],[0,-67],[15,14],[16,26]],[[50703,69218],[-45,67],[-46,13],[15,-67],[76,-13]],[[50612,69084],[-60,-27],[30,-27],[76,40],[-46,14]],[[50885,68896],[-76,-80],[15,-54],[121,214],[-60,-80]],[[50718,68681],[76,14],[0,27],[-106,0],[30,-41]],[[50900,68614],[-46,0],[-30,-67],[121,41],[-45,26]],[[55257,70371],[16,26],[0,-13],[-16,-13]],[[50446,71269],[0,0]],[[50748,69955],[-15,-13],[15,26],[0,-13]],[[53986,69472],[76,-13]],[[54062,69459],[15,-13]],[[54077,69446],[30,-81]],[[54107,69365],[16,-27]],[[54123,69338],[-16,-93]],[[54107,69245],[106,-135]],[[54213,69110],[-484,-214]],[[53729,68896],[-560,241]],[[53169,69137],[106,14]],[[53275,69151],[91,13]],[[53366,69164],[91,13]],[[53457,69177],[136,27]],[[53593,69204],[227,94]],[[53820,69298],[-212,268]],[[53608,69566],[-91,108]],[[53517,69674],[152,93]],[[53669,69767],[317,-295]],[[49947,72650],[15,-14]],[[49962,72636],[45,-80]],[[50007,72556],[30,-27]],[[50037,72529],[-90,121]],[[51777,71028],[379,-362]],[[52156,70666],[30,-54]],[[52186,70612],[30,-40]],[[52216,70572],[15,-54]],[[52231,70518],[15,-27]],[[52246,70491],[0,-40]],[[52246,70451],[16,-40]],[[52262,70411],[0,-40]],[[52262,70371],[-16,-27]],[[52246,70344],[0,-40]],[[52246,70304],[-45,-188]],[[52201,70116],[-15,-54]],[[52186,70062],[-15,-27]],[[52171,70035],[0,-26]],[[52171,70009],[-182,-483]],[[51989,69526],[-91,-188]],[[51898,69338],[-454,-93]],[[51444,69245],[-151,40]],[[51293,69285],[0,80]],[[51293,69365],[151,0]],[[51444,69365],[-30,14]],[[51414,69379],[0,13]],[[51414,69392],[-45,13]],[[51369,69405],[-121,54]],[[51248,69459],[-303,1756],[832,-187]],[[53593,71752],[-696,26],[1180,604],[152,-175],[-636,-455]],[[54637,73240],[227,80]],[[54864,73320],[45,13]],[[54909,73333],[31,27]],[[54940,73360],[15,-27]],[[54955,73333],[91,-80]],[[55046,73253],[15,-13]],[[55061,73240],[30,13]],[[55091,73253],[45,-13]],[[55136,73240],[273,-523]],[[55409,72717],[-31,-14]],[[55378,72703],[-696,483]],[[54682,73186],[-45,54]],[[54773,55758],[15,-41]],[[54788,55691],[182,-121]],[[54970,55556],[91,-40]],[[55061,55476],[45,-80]],[[55106,55382],[1422,-2359]],[[56528,52915],[651,-737]],[[57179,52138],[1695,-1153]],[[58859,50931],[75,-214]],[[58934,50703],[-333,-683]],[[58601,49993],[182,-148]],[[58783,49832],[-878,-496]],[[57905,49349],[-968,-670]],[[56937,48666],[-2708,1166],[-651,2266],[-5750,1622],[-287,-3379],[-3722,148]],[[43758,50502],[-60,27]],[[43637,50529],[-3646,-1180],[1497,-683],[-302,-899],[1120,832],[226,-590],[-771,-2279],[-3087,-1918],[-2239,1944],[-2467,-482],[1150,804],[-938,121],[681,1287],[-1195,1045],[2133,1649],[-1013,1301],[3132,2869],[-893,161],[560,1045],[-1468,-40],[1014,885],[-863,1301],[1150,1608],[1241,-388],[212,3217],[2678,804],[2602,-1407],[4207,-81],[1467,1274],[-499,1207],[2542,831],[2920,-939],[1952,-6167],[-1967,-1877]],[[45604,59203],[106,-13]],[[45513,58425],[-45,54]],[[44923,58412],[46,-27]],[[44969,58332],[-409,-791],[-968,978],[953,-120]],[[44742,58546],[75,-67]],[[44832,58479],[61,40]],[[44984,59082],[-46,67]],[[45180,59243],[46,14]],[[38493,46588],[0,388]],[[50522,61147],[-848,-523],[681,992]],[[50431,61415],[-15,-27],[45,0],[0,14],[-30,13]],[[50461,61348],[-30,-13]],[[50204,61335],[-46,-27],[31,-27],[45,40],[-30,14]],[[50400,61308],[0,-81]],[[50037,60785],[61,40],[-15,14],[-46,-14],[0,-40]],[[48222,59337],[-31,-27]],[[48040,58694],[318,-1877],[-1574,-108]],[[47284,56213],[15,-26]],[[47329,55959],[60,-81]],[[47707,55449],[-121,-375]],[[48328,55302],[151,53]],[[48524,55369],[46,-81]],[[48660,55235],[31,13]],[[48948,55342],[76,-54]],[[49069,55302],[-348,1059]],[[49871,56696],[514,-13]],[[50370,56683],[-91,-108]],[[50491,56589],[46,-81]],[[50582,56415],[61,-54]],[[50779,56280],[-91,-80]],[[50537,56213],[-76,-26]],[[50446,56200],[-15,13]],[[50431,56213],[0,0]],[[50083,56160],[-31,40]],[[49689,55865],[-560,-550]],[[49190,55315],[30,-27]],[[49235,55275],[76,-27]],[[49326,55248],[30,-13]],[[49251,55208],[-182,-523]],[[48978,54631],[-75,-40]],[[48222,54698],[-15,41]],[[47753,54913],[-681,496]],[[46330,55476],[-75,-188]],[[46270,55288],[257,-509]],[[47223,54001],[-938,-549]],[[46240,53398],[-31,-27]],[[44742,52433],[-923,-1944]],[[43819,50489],[-61,13]],[[43758,50502],[-60,27]],[[43698,50529],[-61,0]],[[43637,50529],[605,1703]],[[44757,53840],[-15,41]],[[44757,53934],[-61,134]],[[44696,54068],[-60,242]],[[44681,54471],[15,53]],[[44711,54752],[-60,295]],[[44636,55060],[-757,-362]],[[43879,54698],[0,0]],[[43682,54752],[-2753,67],[2602,1663]],[[43516,56495],[-30,40]],[[43395,56656],[-15,27]],[[42850,57004],[-15,14]],[[42805,56991],[-61,-94]],[[42502,57045],[-817,348]],[[41004,57661],[-136,858],[863,-362]],[[42003,58144],[1165,-13]],[[43773,58010],[0,-14]],[[43819,57594],[-61,-67]],[[44030,56937],[61,-26]],[[44121,56897],[1604,-456]],[[45695,56508],[-136,255]],[[45543,56790],[-15,40]],[[45513,56991],[30,27]],[[46058,57004],[923,1636]],[[46875,58922],[15,80]],[[46951,59310],[45,14]],[[46996,57956],[30,14],[0,13],[-45,-13],[15,-14]],[[47057,57916],[15,-13],[60,0],[-60,40],[-15,-27]],[[47162,57849],[46,-13],[15,40],[-76,0],[15,-27]],[[46572,57836],[-15,-81],[212,40],[0,27],[-197,14]],[[47041,57487],[31,40],[-61,14],[0,-54],[30,0]],[[47299,57500],[15,0],[15,27],[-30,-13],[0,-14]],[[47359,57487],[-15,0],[-15,-27],[60,27],[-30,0]],[[46451,57273],[15,-94],[-60,-67],[-30,120],[75,41]],[[46285,56991],[15,-147],[212,-54],[-76,188],[-151,13]],[[46557,56870],[0,-40],[46,0],[0,54],[-46,-14]],[[46603,56790],[0,-81],[45,0],[15,67],[-60,14]],[[46557,56723],[-75,40],[45,-121],[45,0],[-15,81]],[[44802,56441],[-76,-40],[-30,-121],[76,0],[30,161]],[[44621,56401],[-16,14],[-15,-41],[31,0],[0,27]],[[44636,56415],[15,-14],[30,14],[-45,13],[0,-13]],[[44530,56415],[30,40],[-61,0],[16,-40],[15,0]],[[44651,56535],[-91,94],[-45,-13],[45,-94],[91,13]],[[44621,56616],[45,0],[0,40],[-76,-14],[31,-26]],[[43879,56106],[30,14],[-15,53],[-45,-40],[30,-27]],[[44757,56146],[-76,-53],[106,-148],[60,81],[-90,120]],[[44984,56066],[-46,-54],[61,-40],[45,94],[-60,0]],[[44696,55985],[-75,-40],[15,-94],[106,121],[-46,13]],[[43637,55985],[15,14],[-15,0],[0,-14]],[[43577,56039],[75,14],[0,26],[-106,-13],[31,-27]],[[44575,55436],[-30,-14]],[[41942,55154],[-45,0],[45,-40],[61,-13],[15,13],[-76,40]],[[46557,53921],[46,0],[0,13],[-46,0],[0,-13]],[[46572,53881],[46,0],[0,13],[-46,0],[0,-13]],[[46588,53854],[-31,-67],[46,-27],[30,107],[-45,-13]],[[46482,53827],[-16,-13]],[[46421,53747],[61,93]],[[46451,53666],[15,-13],[31,27],[-31,13],[-15,-27]],[[49992,56428],[272,80],[31,41],[-227,0],[-76,-121]],[[51732,54591],[212,-174],[-61,-429],[-590,362],[439,241]],[[37252,48907],[45,-121]],[[36707,48531],[-575,-13]],[[36102,48518],[620,402]],[[36601,49416],[76,-26]],[[36692,49430],[136,-14]],[[36132,48518],[-30,0]],[[36102,48518],[30,0]],[[52882,55530],[-424,-684]],[[52186,55878],[363,-94]],[[52821,55771],[242,-255]],[[43773,58010],[0,-14]],[[43773,57996],[46,-402]],[[43819,57594],[-61,-67]],[[43758,57527],[272,-590]],[[44030,56937],[61,-26]],[[44091,56911],[30,-14]],[[44121,56897],[-590,-415]],[[43531,56482],[-15,13]],[[43516,56495],[-30,40]],[[43486,56535],[-91,121]],[[43395,56656],[-15,27]],[[43380,56683],[-530,321]],[[42850,57004],[-15,14]],[[42835,57018],[-30,-27]],[[42805,56991],[-61,-94]],[[42744,56897],[-242,148]],[[42502,57045],[666,1086]],[[43168,58131],[605,-121]],[[37146,49081],[15,0]],[[37161,49081],[91,-174]],[[37252,48907],[45,-121]],[[37297,48786],[-590,-255]],[[36707,48531],[15,389]],[[36722,48920],[-121,496]],[[36601,49416],[76,-26]],[[36677,49390],[15,40]],[[36692,49430],[136,-14]],[[36828,49416],[333,-335]],[[45120,53680],[1165,-228]],[[46285,53452],[-45,-54]],[[46240,53398],[-31,-27]],[[46209,53371],[-1467,-938]],[[44742,52433],[-500,-201]],[[44242,52232],[515,1608]],[[44757,53840],[-15,41]],[[44742,53881],[0,53]],[[45180,53975],[31,0]],[[46103,53344],[61,-13],[0,40],[-46,0],[-15,-27]],[[45770,53197],[31,-27],[15,27],[-46,13],[0,-13]],[[45211,53197],[-212,-255],[242,-322],[-91,255],[61,322]],[[45332,52929],[60,0],[15,40],[-45,13],[-30,-53]],[[39718,46453],[-2,0]],[[39716,46453],[2,41]],[[39718,46494],[30,0],[16,13],[-31,14],[-15,-27]],[[39718,46494],[-393,-858],[-832,952]],[[38493,46588],[0,388]],[[38493,46976],[1225,-523]],[[39688,46534],[45,13],[-15,27],[-45,0],[15,-40]],[[48570,55288],[90,-53]],[[48660,55235],[31,13]],[[48691,55248],[257,94]],[[48948,55342],[76,-54]],[[49024,55288],[45,14]],[[49069,55302],[60,13]],[[49129,55315],[61,0]],[[49190,55315],[30,-27]],[[49220,55288],[15,-13]],[[49235,55275],[76,-27]],[[49311,55248],[15,0]],[[49326,55248],[30,-13]],[[49356,55235],[-105,-27]],[[49251,55208],[-182,-523]],[[49069,54685],[-91,-54]],[[48978,54631],[-75,-40]],[[48903,54591],[-575,268]],[[48312,54859],[16,0]],[[48328,54859],[-16,-26]],[[48312,54833],[16,0],[0,-14],[-16,14]],[[48312,54833],[-90,-135]],[[48222,54698],[-15,41]],[[48207,54739],[-454,174]],[[47753,54913],[-167,161]],[[47586,55074],[742,228]],[[48328,55302],[151,53]],[[48479,55355],[45,14]],[[48524,55369],[46,-81]],[[48449,54792],[-16,-53],[61,-41],[30,94],[-75,0]],[[48509,54645],[46,-14],[30,27],[-61,27],[-15,-40]],[[51581,62018],[75,-80],[-665,-13],[317,348],[273,-255]],[[45604,59203],[106,-13]],[[45710,59190],[-197,-765]],[[45513,58425],[-45,54]],[[45468,58479],[-545,-67]],[[44923,58412],[46,-27]],[[44969,58385],[0,-53]],[[44969,58332],[-424,67]],[[44545,58399],[197,147]],[[44742,58546],[75,-67]],[[44817,58479],[15,0]],[[44832,58479],[61,40]],[[44893,58519],[91,563]],[[44984,59082],[-46,67]],[[44938,59149],[242,94]],[[45180,59243],[46,14]],[[45226,59257],[378,-54]],[[44106,55784],[30,-13]],[[44242,55731],[-75,-228]],[[44151,55489],[61,-147]],[[44212,55329],[-333,-631]],[[43879,54698],[-197,54]],[[43682,54752],[348,1086]],[[47329,55959],[60,-81]],[[47389,55878],[318,-429]],[[47707,55449],[-635,-40]],[[47072,55409],[-530,617]],[[47147,56280],[-30,67]],[[47057,56455],[227,-242]],[[47284,56213],[15,-26]],[[47299,56187],[30,-228]],[[50385,56683],[-15,0]],[[50370,56683],[-91,-108]],[[50279,56575],[212,14]],[[50491,56589],[46,-81]],[[50537,56508],[45,-93]],[[50582,56415],[61,-54]],[[50643,56361],[136,-81]],[[50779,56280],[-91,-80]],[[50688,56200],[-151,13]],[[50537,56213],[-76,-26]],[[50461,56187],[-15,13]],[[50446,56200],[-15,13]],[[50431,56213],[-348,-53]],[[50083,56160],[-31,40]],[[50052,56200],[-363,-335]],[[49689,55865],[-968,496]],[[48721,56361],[1150,335]],[[49871,56696],[514,-13]],[[50113,56562],[-166,-80],[15,-81],[333,121],[-182,40]],[[50022,56334],[46,27],[-46,40],[-30,-13],[30,-54]],[[50431,56267],[30,-27],[15,40],[-15,14],[-30,-27]],[[48222,59337],[-31,-27]],[[48191,59310],[-151,-616]],[[48040,58694],[-1059,-54]],[[46981,58640],[-106,282]],[[46875,58922],[15,80]],[[46890,59002],[61,308]],[[46951,59310],[45,14]],[[46996,59324],[1226,13]],[[46058,57004],[726,-295]],[[46784,56709],[273,-254]],[[47057,56455],[60,-108]],[[47117,56347],[30,-67]],[[47147,56280],[-605,-254]],[[46542,56026],[-212,-550]],[[46330,55476],[-60,-188]],[[46270,55288],[-15,0]],[[46255,55288],[-303,-522]],[[45922,53921],[-802,-241]],[[45120,53680],[91,295]],[[45211,53975],[-31,0]],[[45180,53975],[-423,-41]],[[44757,53934],[-15,0]],[[44742,53934],[-46,134]],[[44696,54068],[-60,242]],[[44636,54310],[45,161]],[[44681,54471],[15,53]],[[44696,54524],[15,228]],[[44711,54752],[-60,295]],[[44651,55047],[-15,13]],[[44636,55060],[-424,269]],[[44212,55329],[0,13]],[[44212,55342],[-61,147]],[[44151,55489],[16,14]],[[44167,55503],[75,228]],[[44242,55731],[-106,40]],[[44136,55771],[-30,13]],[[44106,55784],[-76,54]],[[44030,55838],[1695,603]],[[45725,56441],[-30,67]],[[45695,56508],[-136,255]],[[45559,56763],[-16,27]],[[45543,56790],[-15,40]],[[45528,56830],[-15,161]],[[45513,56991],[30,27]],[[45543,57018],[515,-14]],[[44257,55556],[31,0],[-15,41],[-16,-14],[0,-27]],[[44575,55436],[-30,-14]],[[44545,55422],[30,14]],[[50522,61147],[-122,80]],[[50400,61227],[0,81]],[[50400,61308],[31,27]],[[50431,61335],[30,13]],[[50461,61348],[-106,268]],[[50355,61616],[167,-469]],[[41731,58157],[272,-13]],[[42003,58144],[-318,-751]],[[41685,57393],[-681,268]],[[41004,57661],[727,496]],[[52186,55878],[363,-94]],[[52549,55784],[272,-13]],[[52821,55771],[242,-255]],[[53063,55516],[-181,14]],[[52882,55530],[-424,-684]],[[52458,54846],[-272,1032]],[[47223,54001],[-741,-161]],[[46482,53840],[0,-13]],[[46482,53827],[-16,-13]],[[46466,53814],[-45,-67]],[[46421,53747],[-499,174]],[[45922,53921],[30,845]],[[45952,54766],[575,13]],[[46527,54779],[696,-778]],[[56937,48666],[0,13]],[[56937,48679],[968,670]],[[57905,49349],[0,-13]],[[57905,49336],[878,496]],[[58783,49832],[0,13]],[[58783,49845],[-182,148]],[[58601,49993],[0,27]],[[58601,50020],[333,683]],[[58934,50703],[0,14]],[[58934,50717],[-75,214]],[[58859,50931],[15,54]],[[58874,50985],[-1695,1153]],[[57179,52138],[0,40]],[[57179,52178],[-651,737]],[[56528,52915],[0,108]],[[56528,53023],[-1422,2359]],[[55106,55382],[0,14]],[[55106,55396],[-45,80]],[[55061,55476],[0,40]],[[55061,55516],[-91,40]],[[54970,55556],[0,14]],[[54970,55570],[-182,121]],[[54788,55691],[0,26]],[[54788,55717],[-15,41]],[[54773,55758],[0,26]],[[54773,55784],[6945,1408],[-968,2038],[3056,724],[-575,1113],[1226,2037],[2391,268],[-439,-4357],[1846,-536],[-1347,-1274],[2315,-817],[-1225,-1448],[1603,-2212],[-2057,-1609],[-5629,2386],[1014,-1461],[-560,-3995],[-1937,-1890],[-1937,375],[348,885],[-1906,1247]],[[64260,55731],[-166,-94]],[[65652,55918],[15,-53]],[[63141,55034],[-167,-161]],[[63186,54028],[-15,14],[30,13],[15,-13],[-30,-14]],[[64048,55181],[-287,121],[151,147],[152,-107],[-16,-161]],[[64850,56776],[121,94],[848,362],[-212,-804],[-757,348]],[[64109,55516],[15,54],[151,94],[-136,-94],[-30,-54]],[[63398,54980],[-91,27],[61,67],[90,-54],[-60,-40]],[[64109,56334],[0,13]],[[63110,54082],[31,40],[30,-27],[-46,-40],[-15,27]],[[64623,55918],[-378,-187]],[[63473,55758],[31,13]],[[62959,53961],[-1241,40],[136,1824],[817,-590],[1393,1354]],[[64169,56535],[-181,724],[772,-550]],[[65955,56146],[-2951,-2185]],[[63625,55208],[-394,-81]],[[64048,56187],[-242,-81],[-75,148],[121,40],[196,-107]],[[62853,55221],[151,81],[76,-175],[-106,121],[-121,-27]],[[63473,55758],[31,13]],[[63504,55771],[-31,-13]],[[63988,55664],[15,-81],[-151,14],[136,107],[0,-40]],[[64109,56334],[0,13]],[[64109,56347],[-45,242]],[[64064,56589],[105,-54]],[[64169,56535],[591,174]],[[64760,56709],[1195,-563]],[[65955,56146],[-303,-228]],[[65652,55918],[31,-80]],[[65698,55838],[-15,0]],[[65683,55838],[-16,27]],[[65667,55865],[-1044,53]],[[64623,55918],[-211,-40]],[[64412,55865],[0,13]],[[64412,55878],[-167,-53]],[[64245,55825],[-15,0]],[[64230,55825],[15,-94]],[[64245,55731],[15,0]],[[64260,55731],[-15,0]],[[64245,55731],[-151,-94]],[[64094,55637],[-469,-429]],[[63625,55208],[-197,-54]],[[63443,55154],[-15,0]],[[63428,55154],[-197,-27]],[[63231,55127],[-90,-93]],[[63141,55034],[-167,-161]],[[62974,54873],[30,-912]],[[63004,53961],[-45,0]],[[62959,53961],[-1165,483],[2315,1890]],[[63368,55315],[-106,-67],[-46,27],[257,80],[-105,-40]],[[64094,55677],[-46,-27],[-30,41],[76,26],[0,-40]],[[78771,70009],[454,509]],[[79225,70518],[30,67]],[[79255,70585],[7202,-1890]],[[86457,68708],[8927,1917],[-363,-2547],[1105,-121],[3722,-6234],[-5341,-1126],[-394,1609],[-817,-469],[-227,483],[787,375],[-1695,496],[-10440,-3003],[318,3593],[1589,1622],[-2270,1381],[-1453,-67],[-590,-1274],[-2345,3043]],[[76970,68386],[-15,0]],[[76955,68386],[15,14]],[[76970,68400],[15,0]],[[76985,68400],[61,80]],[[77046,68480],[45,67]],[[77091,68547],[15,27]],[[77106,68574],[0,27]],[[77106,68601],[-45,134]],[[77061,68735],[0,27]],[[77061,68762],[-15,27]],[[77046,68789],[0,27]],[[77046,68816],[-15,26]],[[77031,68842],[0,14]],[[77031,68856],[-16,13]],[[77015,68869],[0,14]],[[77015,68883],[-30,120]],[[76985,69003],[30,54]],[[77015,69057],[606,1072]],[[77621,70129],[0,14]],[[77621,70143],[45,80]],[[77666,70223],[30,40]],[[77696,70263],[681,496]],[[78377,70759],[-45,-13]],[[78332,70746],[-30,-67]],[[78302,70679],[15,-13]],[[78317,70666],[30,-54]],[[78347,70612],[0,-40]],[[78347,70572],[121,-67]],[[78468,70505],[30,-27]],[[78498,70478],[15,-13]],[[78513,70465],[15,-14]],[[78528,70451],[16,-27]],[[78544,70424],[0,-13]],[[78544,70411],[15,-27]],[[78559,70384],[0,-40]],[[78559,70344],[15,-14]],[[78574,70330],[0,-13]],[[78574,70317],[15,-13]],[[78589,70304],[76,-14]],[[78665,70290],[15,-13]],[[78680,70277],[0,-14]],[[78680,70263],[45,-26]],[[78725,70237],[0,-14]],[[78725,70223],[0,-13]],[[78725,70210],[0,-14]],[[78725,70196],[-15,-13]],[[78710,70183],[0,-54]],[[78710,70129],[30,-13]],[[78740,70116],[31,-107]],[[88636,67140],[-273,-54]],[[88333,67086],[-60,-13]],[[88258,67073],[15,-496]],[[88303,66523],[-348,630]],[[87910,67153],[-424,644]],[[87486,67877],[832,174]],[[88379,68051],[287,27]],[[88727,68078],[469,134]],[[89241,68212],[197,27]],[[89483,68239],[802,724],[1044,-617],[-2708,-1179]],[[90694,66965],[499,-1153],[-2134,-670],[-181,1596],[2512,1179],[-696,-952]],[[89392,68293],[-1104,-188]],[[88242,68105],[-877,-134]],[[87108,67971],[-651,724]],[[86457,68695],[0,13]],[[86457,68708],[3072,764],[-91,-1166]],[[87365,67971],[-257,0]],[[87108,67971],[2330,335]],[[89438,68306],[-46,-13]],[[89392,68293],[-1104,-188]],[[88288,68105],[-46,0]],[[88242,68105],[-877,-134]],[[88621,67167],[15,-27]],[[88636,67140],[-273,-54]],[[88363,67086],[-30,0]],[[88333,67086],[-60,-13]],[[88273,67073],[-15,0]],[[88258,67073],[15,-496]],[[88273,66577],[30,-54]],[[88303,66523],[-348,630]],[[87955,67153],[-45,0]],[[87910,67153],[-424,644]],[[87486,67797],[0,80]],[[87486,67877],[832,174]],[[88318,68051],[61,0]],[[88379,68051],[287,27]],[[88666,68078],[61,0]],[[88727,68078],[469,134]],[[89196,68212],[45,0]],[[89241,68212],[197,27]],[[89438,68239],[45,0]],[[89483,68239],[1044,-590],[-1906,-482]],[[15600,83040],[151,-27],[30,-67],[-151,27],[-30,67]],[[13829,84850],[1604,-805],[3677,791],[2663,2601],[-787,1823],[2784,-80],[1423,-2655],[2345,-1112],[121,-1569],[2043,-1113],[1286,-3003],[5069,322],[1800,-1113],[575,-2989],[-923,94],[-227,-1489],[-4055,-402],[-60,-1970],[-7687,-1649],[-2496,4008],[-2512,-710],[-3964,2641],[1619,2145],[-787,2761],[-1392,1891],[-923,-617],[-1196,2199]],[[29626,73561],[-15,-13],[0,13],[15,0]],[[22938,79393],[-771,550],[136,858],[317,416],[318,-1824]],[[29762,74567],[288,-483],[-258,-523],[-605,832],[575,174]],[[23680,78146],[332,-53]],[[24058,78200],[30,-13]],[[24179,78200],[151,121]],[[24754,78187],[-288,107]],[[24194,78066],[-439,-2132],[-2769,-737],[-151,2654],[1332,-576],[1331,898]],[[21576,77248],[31,-27]],[[21713,77168],[-212,134]],[[22363,76993],[-106,188],[-242,-188],[152,27],[196,-27]],[[21622,77034],[0,80]],[[21682,77114],[-45,40]],[[21440,77074],[-45,40]],[[21274,77248],[333,-241]],[[22091,77449],[-227,-27],[-30,-53],[121,-81],[136,161]],[[21092,77784],[212,-214],[121,13],[15,255],[-348,-54]],[[21909,77771],[-121,40],[-136,-120],[197,-27],[60,107]],[[22121,76859],[15,0]],[[22045,76270],[-166,134]],[[21985,76001],[-76,54]],[[21864,76055],[-499,228],[-379,-617],[969,309]],[[22106,75371],[-136,-27],[0,-53],[197,27],[-61,53]],[[32001,79045],[31,-27]],[[32471,79058],[-258,-657]],[[32047,78401],[-46,14]],[[32001,78508],[-1815,-1072],[983,-1314],[-1619,630],[-438,-871],[2451,-1462],[-1105,-281],[-2648,1944],[76,-1810],[-757,1193]],[[26842,75452],[-30,-14]],[[26797,75318],[-106,26]],[[26645,75304],[-15,40]],[[26524,75331],[-212,-121]],[[26206,75063],[-620,54]],[[25238,74969],[30,282]],[[25677,75452],[30,13]],[[25798,75519],[136,-94]],[[26282,75639],[-15,14]],[[26373,75680],[1483,549],[-1619,966],[756,187]],[[27356,77704],[182,67]],[[27553,77784],[-182,389]],[[26509,78374],[-91,14]],[[26388,78388],[-30,13]],[[26222,78401],[-348,-188],[-1075,202],[1241,53],[-1619,1207],[2300,657],[-121,-1234]],[[26600,79085],[166,-121]],[[26781,79152],[16,13]],[[26812,79232],[257,899],[2269,-456],[-257,-1341],[1680,416]],[[25813,79594],[136,-161],[136,255],[-227,27],[-45,-121]],[[26312,79232],[-272,148]],[[25011,79621],[-76,0],[-15,-107],[91,0],[0,107]],[[26600,79085],[0,13]],[[26600,79098],[0,-13]],[[27629,78937],[121,-174],[136,-40],[-45,228],[-212,-14]],[[27432,78736],[61,81],[-91,53],[-91,-147],[121,13]],[[26524,78629],[-15,-27]],[[27568,78669],[15,-107],[106,13],[-45,81],[-76,13]],[[26509,78844],[-30,67],[-273,-54],[212,-161],[91,148]],[[28007,77758],[182,-617],[317,-161],[-257,871],[2239,-214],[-1785,643]],[[31699,78468],[60,14]],[[30337,78321],[151,27],[-30,120],[-121,-27],[0,-120]],[[30579,78441],[46,108],[-61,13],[-60,-67],[75,-54]],[[30746,78549],[15,93],[-46,27],[-45,-94],[76,-26]],[[30367,77114],[-227,-80],[152,-148],[378,81],[-303,147]],[[28839,77101],[182,-14],[-212,175],[-61,-81],[91,-80]],[[29096,77436],[-106,94],[-181,-148],[257,-67],[30,121]],[[28370,76001],[30,-80],[106,0],[-15,54],[-121,26]],[[29142,75532],[30,-214],[242,-54],[-166,389],[-106,-121]],[[30867,76631],[-197,-26],[-30,-67],[106,-54],[121,147]],[[28552,79058],[0,94],[-61,27],[-45,-108],[106,-13]],[[28400,79460],[-60,188],[-439,-148],[272,-415],[227,375]],[[32228,76685],[696,-1059],[-363,-268],[-862,563],[529,764]],[[20729,76859],[0,0]],[[25526,80144],[0,0]],[[24603,75438],[-424,-107],[303,1448],[529,-550],[-408,-791]],[[23498,78173],[182,-27]],[[23680,78146],[332,-53]],[[24012,78093],[46,107]],[[24058,78200],[30,-13]],[[24088,78187],[91,13]],[[24179,78200],[151,121]],[[24330,78321],[424,-134]],[[24754,78187],[-288,107]],[[24466,78294],[-272,-228]],[[24194,78066],[-832,-858],[136,965]],[[25677,75452],[30,13]],[[25707,75465],[91,54]],[[25798,75519],[136,-94]],[[25934,75425],[348,214]],[[26282,75639],[-15,14]],[[26267,75653],[106,27]],[[26373,75680],[756,-215]],[[27129,75465],[-287,-13]],[[26842,75452],[-30,-14]],[[26812,75438],[-15,-120]],[[26797,75318],[-106,26]],[[26691,75344],[-46,-40]],[[26645,75304],[-15,40]],[[26630,75344],[-106,-13]],[[26524,75331],[-212,-121]],[[26312,75210],[-106,-147]],[[26206,75063],[-620,54]],[[25586,75117],[-348,-148]],[[25238,74969],[30,282]],[[25268,75251],[409,201]],[[30761,78750],[1240,295]],[[32001,79045],[31,-27]],[[32032,79018],[439,40]],[[32471,79058],[-258,-657]],[[32213,78401],[-166,0]],[[32047,78401],[-46,14]],[[32001,78415],[0,93]],[[32001,78508],[-242,-26]],[[31759,78482],[-60,-14]],[[31699,78468],[-1120,-858],[182,1140]],[[31532,78964],[0,-13],[31,0],[0,13],[-31,0]],[[31593,78991],[15,-13],[15,0],[-15,13],[-15,0]],[[32017,78763],[15,0],[0,14],[-15,0],[0,-14]],[[32047,78817],[15,0],[15,13],[-15,0],[-15,-13]],[[21682,77114],[-45,40]],[[21637,77154],[-91,-80]],[[21561,77060],[-15,14]],[[21546,77074],[-106,0]],[[21440,77074],[-45,40]],[[21395,77114],[-121,134]],[[21274,77248],[227,54]],[[21501,77302],[75,-54]],[[21576,77248],[31,-27]],[[21607,77221],[106,-53]],[[21713,77168],[166,-764]],[[21879,76404],[166,-134]],[[22045,76270],[1393,-41],[-1483,-254]],[[21955,75975],[30,26]],[[21985,76001],[-76,54]],[[21909,76055],[-45,0]],[[21864,76055],[-257,952]],[[21607,77007],[15,27]],[[21622,77034],[0,80]],[[21622,77114],[60,0]],[[22227,77034],[45,-14],[16,14],[-61,0]],[[22136,76859],[-15,0]],[[22121,76859],[15,0]],[[28627,76752],[212,308],[409,-227],[-606,-537],[-15,456]],[[26388,78388],[-30,13]],[[26358,78401],[-136,0]],[[26222,78401],[-182,979]],[[26040,79380],[272,-148]],[[26312,79232],[197,-630]],[[26509,78602],[15,27]],[[26524,78629],[242,335]],[[26766,78964],[15,188]],[[26781,79152],[16,13]],[[26797,79165],[15,67]],[[26812,79232],[1891,-952]],[[28703,78280],[-696,-522]],[[28007,77758],[-1014,-376]],[[26993,77382],[363,322]],[[27356,77704],[182,67]],[[27538,77771],[15,13]],[[27553,77784],[-182,389]],[[27371,78173],[-862,201]],[[26509,78374],[-91,14]],[[26418,78388],[-30,0]],[[4448,33570],[-2920,804],[605,1958],[2119,160],[-2875,1395],[1952,2024]],[[3919,40152],[91,94]],[[7717,39227],[499,-482]],[[9351,38208],[741,-3083],[-2148,670],[-1135,-2239],[-1907,54]],[[4902,33610],[1967,-1448],[-287,-1367],[-2134,2775]],[[4448,33570],[454,40]],[[9351,38208],[-1135,537]],[[8216,38745],[1135,-537]],[[7580,39563],[16,-27]],[[7611,39522],[-15,-40]],[[7611,39455],[30,-40]],[[7641,39388],[30,-13]],[[7656,39348],[15,-40]],[[7717,39201],[15,-41]],[[7747,39134],[484,-1810],[-1710,-845],[711,1341]],[[6067,37860],[-332,0]],[[5689,37860],[-499,-590]],[[5795,37029],[15,-40]],[[5084,37404],[76,523]],[[5160,37954],[181,509]],[[5402,38490],[-2073,1421]],[[3329,39911],[408,81]],[[3737,39992],[-30,0],[0,-14],[30,14]],[[3737,39992],[182,160]],[[3919,40152],[91,94]],[[4010,40246],[2194,818],[1104,-1032]],[[5704,40179],[0,-27],[46,14],[-15,27],[-31,-14]],[[4827,39750],[-46,-40],[136,13],[-30,54],[-60,-27]],[[4675,39710],[-15,13],[-60,-26],[30,-41],[45,54]],[[4418,39589],[167,-147],[90,0],[-181,201],[-76,-54]],[[4585,38879],[-46,-148],[91,-174],[212,215],[-257,107]],[[7263,37712],[30,27],[-61,54],[-30,-54],[61,-27]],[[7944,37565],[45,-40],[15,-40],[-45,160],[-15,-80]],[[7414,37552],[-91,0],[-91,-81],[76,-40],[106,121]],[[7989,37444],[15,-161],[76,-13],[15,107],[-106,67]],[[5190,37270],[605,-241]],[[5795,37029],[15,-40]],[[5810,36989],[-726,415]],[[5084,37404],[106,-134]],[[7580,39563],[16,-27]],[[7596,39536],[15,-14]],[[7611,39522],[-15,-40]],[[7596,39482],[15,-27]],[[7611,39455],[30,-40]],[[7641,39415],[0,-27]],[[7641,39388],[30,-13]],[[7671,39375],[-15,-27]],[[7656,39348],[15,-40]],[[7671,39308],[46,-81]],[[7717,39227],[0,-26]],[[7717,39201],[15,-41]],[[7732,39160],[15,-26]],[[7747,39134],[-515,-1314]],[[7232,37820],[-1210,94]],[[6007,37914],[15,0]],[[6022,37914],[45,-54]],[[6067,37860],[-332,0]],[[5735,37860],[-46,0]],[[5689,37860],[-529,67]],[[5160,37927],[0,27]],[[5160,37954],[181,509]],[[5341,38463],[61,27]],[[5402,38490],[-938,912],[2844,630]],[[7308,40032],[272,-469]],[[40202,84193],[-1982,-429],[742,2574],[3510,657],[1528,2359],[2224,-7561],[-7520,-3365],[-847,496],[1226,751],[-273,2185],[1498,1367]],[[40187,84850],[-15,13]],[[40142,84984],[1891,67]],[[42139,85051],[393,-67]],[[42593,85011],[287,107]],[[42926,85118],[60,0]],[[43168,85104],[1891,-2171],[-2027,-765]],[[43032,82075],[-288,-81]],[[42744,81994],[61,-134]],[[42880,81739],[-302,-911]],[[42548,80881],[-16,14]],[[42532,80935],[16,67]],[[42548,81029],[-31,53]],[[42502,81149],[-60,68]],[[42427,81257],[-16,27]],[[42411,81324],[-15,27]],[[42396,81619],[31,80]],[[42290,81954],[-317,335]],[[41958,82302],[-1650,925]],[[40308,83227],[-106,966]],[[40202,84193],[76,616]],[[43032,82168],[0,-93]],[[43032,82075],[-288,-81]],[[42805,81860],[75,-121]],[[42880,81739],[-302,-911]],[[42578,80828],[-30,53]],[[42548,80881],[-16,14]],[[42532,80895],[0,40]],[[42532,80935],[16,67]],[[42548,81002],[0,27]],[[42548,81029],[-31,53]],[[42517,81082],[-15,67]],[[42502,81149],[-60,68]],[[42442,81217],[-15,40]],[[42427,81257],[-16,27]],[[42411,81284],[0,40]],[[42411,81324],[-15,27]],[[42396,81351],[0,268]],[[42396,81619],[31,80]],[[42427,81699],[0,215]],[[42396,81954],[-106,0]],[[42290,81954],[-317,335]],[[41973,82289],[-15,13]],[[41958,82302],[1074,-134]],[[40278,84809],[-91,41]],[[40187,84850],[-15,13]],[[40172,84863],[-30,121]],[[40142,84984],[923,201],[-787,-376]],[[43017,82892],[348,335]],[[42366,83241],[-333,1810]],[[42033,85051],[106,0]],[[42139,85051],[393,-67]],[[42532,84984],[61,27]],[[42593,85011],[287,107]],[[42880,85118],[46,0]],[[42926,85118],[60,0]],[[42986,85118],[182,-14]],[[43168,85104],[1513,-1354],[-923,-187]],[[43788,83522],[348,-147]],[[44182,83375],[121,27]],[[42744,81994],[61,-134]],[[42805,81860],[-378,54]],[[42427,81914],[-31,40]],[[42396,81954],[348,40]],[[43758,83563],[30,-41]],[[43788,83522],[348,-147]],[[44136,83375],[46,0]],[[44182,83375],[121,27]],[[44303,83402],[-1286,-510]],[[43017,82892],[348,335]],[[43365,83227],[-999,14]],[[42366,83241],[363,1086],[1029,-764]]]}