{"type":"Topology","objects":{"data":{"geometries":[{"properties":{"type":"15100","name":"15"},"type":"Polygon","arcs":[[-1265,0,-1263,-121,119,-119,-105,-88,-13,-1897,1,-1895,2,-1893,3,-1891,4,-1889,5,-1887,6,-1885,7,-1883,8,-1881,9]],"id":"feature_000"},{"properties":{"type":"15100","name":"15"},"type":"Polygon","arcs":[[10,-1900,11,-1898,12,-91,13,-1496,14,-1494,15,-1492,16,-1490,17,-1488,18,-1486,19,-1484,20,-1482,21,-1480,22,-1478,23,-1476,24,-1474,25,-1472,26,-1470,27,-1468,28,-1466,29,-1464,30,-1462,31,-1460,32,-1458,33,-1456,34,-1454,35,-1452,36,-1450,37,-1986,38,-1984,39,-1982,40,-1980,41,-1978,42,-1976,43,-1974,44,-1972,45,-1970,46,-1968,47,-1966,48,-1964,49,-1962,50,-1960,51,-1958,52,-1956,53,-1954,54,-1952,55,-1950,56,-1948,57,-1946,58,-1944,59,-1942,60,-1940,61,-1938,62,-1936,63,-1934,64,-1932,65,-1930,66,-1928,67,-1926,68,-1924,69,-1922,70,-1920,71,-1918,72,-1916,73,-1914,74,-1912,75,-1910,76,-1908,77,-1906,78,-1904,79,-1902]],"id":"feature_001"},{"properties":{"type":"15100","name":"15"},"type":"MultiPolygon","arcs":[[[80]],[[-517,81,-515,82,-513,83,-483,84,-509,85,-89,-200,86]]],"id":"feature_002"},{"properties":{"type":"15100","name":"15"},"type":"Polygon","arcs":[[87,-104,-98,-197,-196,-195,88,89,90]],"id":"feature_003"},{"properties":{"type":"15100","name":"15"},"type":"MultiPolygon","arcs":[[[91]],[[92]],[[93]],[[94]],[[95]],[[96]],[[-198,97,-103,98]],[[99]],[[100]]],"id":"feature_004"},{"properties":{"type":"15100","name":"15"},"type":"Polygon","arcs":[[101,102,103,104,-189]],"id":"feature_005"},{"properties":{"type":"15100","name":"15"},"type":"MultiPolygon","arcs":[[[105]],[[106]],[[107]],[[108]],[[109]],[[110]],[[111]],[[112]],[[113]],[[114]],[[115]],[[116]],[[117]],[[118,119,120,-1262,121,-1260,122,-1258,123,-1256,124,-1254,125,-1252,126,-1250,127,-1248,128,-1246,129,-1244,130,-1242,131,-1240,132,-1238,133,-1236,134,-1234,135,-1232,136,-1230,137,-1228,138,-1226,139,-1224,140,-1222,141,-1220,142,-1218,143,-1216,144,-1214,145,-1212,146,-1210,147,-1208,148,-1206,149,-1204,150,-1202,151,-1200,152,-1198,153,-1196,154,-1194,155,-1192,156,-1190,157,-1188,158,-1186,159,-1184,160,-1182,161,-1180,162,-1178,163,-1176,164,-1174,165,-1310,166,-1308,167,-1306,168,-1304,169,-1302,170,-1300,171,-1298,172,-1296,173,-1294,174,-1292,175,-1290,176,-1288,177,-1286,178,-1284,179,-1282,180,-1280,181,-1278,182,-1276,183,-1274,184,-1272,185,-1270,186,-1268,187,188],[189]]],"id":"feature_006"},{"properties":{"type":"15100","name":"15"},"type":"MultiPolygon","arcs":[[[190]],[[191]],[[192]],[[193]],[[194,195,196,197,198,199]]],"id":"feature_007"},{"properties":{"type":"15100","name":"15"},"type":"Polygon","arcs":[[200]],"id":"feature_008"},{"properties":{"type":"15100","name":"15"},"type":"Polygon","arcs":[[201]],"id":"feature_009"},{"properties":{"type":"15100","name":"15"},"type":"Polygon","arcs":[[202]],"id":"feature_010"},{"properties":{"type":"15100","name":"15"},"type":"Polygon","arcs":[[203]],"id":"feature_011"},{"properties":{"type":"15100","name":"15"},"type":"Polygon","arcs":[[204]],"id":"feature_012"},{"properties":{"type":"15100","name":"15"},"type":"Polygon","arcs":[[205]],"id":"feature_013"},{"properties":{"type":"15100","name":"15"},"type":"Polygon","arcs":[[206]],"id":"feature_014"},{"properties":{"type":"15100","name":"15"},"type":"Polygon","arcs":[[207]],"id":"feature_015"},{"properties":{"type":"15100","name":"15"},"type":"Polygon","arcs":[[208]],"id":"feature_016"},{"properties":{"type":"15100","name":"15"},"type":"Polygon","arcs":[[209]],"id":"feature_017"},{"properties":{"type":"15100","name":"15"},"type":"Polygon","arcs":[[210]],"id":"feature_018"},{"properties":{"type":"15100","name":"15"},"type":"MultiPolygon","arcs":[[[211],[212]],[[213]]],"id":"feature_019"},{"properties":{"type":"15100","name":"15"},"type":"Polygon","arcs":[[214]],"id":"feature_020"},{"properties":{"type":"15100","name":"15"},"type":"Polygon","arcs":[[215],[216],[217],[218],[219],[220],[221],[222],[223],[224],[225],[226],[227]],"id":"feature_021"},{"properties":{"type":"15100","name":"15"},"type":"Polygon","arcs":[[228]],"id":"feature_022"},{"properties":{"type":"15100","name":"15"},"type":"Polygon","arcs":[[229]],"id":"feature_023"},{"properties":{"type":"15100","name":"15"},"type":"Polygon","arcs":[[230]],"id":"feature_024"},{"properties":{"type":"15100","name":"15"},"type":"Polygon","arcs":[[231]],"id":"feature_025"},{"properties":{"type":"15100","name":"15"},"type":"MultiPolygon","arcs":[[[232]],[[233]]],"id":"feature_026"},{"properties":{"type":"15100","name":"15"},"type":"MultiPolygon","arcs":[[[325,234,327,235,329,236,331,237,333,238,-336,323,239],[240],[241],[242]],[[243]],[[244]]],"id":"feature_027"},{"properties":{"type":"15100","name":"15"},"type":"Polygon","arcs":[[245]],"id":"feature_028"},{"properties":{"type":"15100","name":"15"},"type":"Polygon","arcs":[[246]],"id":"feature_029"},{"properties":{"type":"15100","name":"15"},"type":"Polygon","arcs":[[247],[248],[249],[250],[251],[252],[253],[254],[255],[256],[257],[258],[259],[260],[261],[262],[263],[-269,264],[265],[266],[267],[268,269],[270],[271],[272],[273]],"id":"feature_030"},{"properties":{"type":"15100","name":"15"},"type":"MultiPolygon","arcs":[[[274]],[[275],[276],[277],[278],[279,-282],[280,281],[282],[283],[284],[285],[286],[287],[288],[289],[290],[291]]],"id":"feature_031"},{"properties":{"type":"15100","name":"15"},"type":"Polygon","arcs":[[292]],"id":"feature_032"},{"properties":{"type":"15100","name":"15"},"type":"Polygon","arcs":[[293]],"id":"feature_033"},{"properties":{"type":"15100","name":"15"},"type":"Polygon","arcs":[[294]],"id":"feature_034"},{"properties":{"type":"15100","name":"15"},"type":"Polygon","arcs":[[295]],"id":"feature_035"},{"properties":{"type":"15100","name":"15"},"type":"Polygon","arcs":[[296]],"id":"feature_036"},{"properties":{"type":"15100","name":"15"},"type":"Polygon","arcs":[[297],[298]],"id":"feature_037"},{"properties":{"type":"15100","name":"15"},"type":"Polygon","arcs":[[299]],"id":"feature_038"},{"properties":{"type":"15100","name":"15"},"type":"Polygon","arcs":[[300]],"id":"feature_039"},{"properties":{"type":"15100","name":"15"},"type":"Polygon","arcs":[[301],[302],[303],[304],[305],[306],[307],[308]],"id":"feature_040"},{"properties":{"type":"15100","name":"15"},"type":"Polygon","arcs":[[-346,309,347,310,-320,311,317,312],[313],[314,343],[315],[316]],"id":"feature_041"},{"properties":{"type":"15100","name":"15"},"type":"Polygon","arcs":[[317,318,319,320]],"id":"feature_042"},{"properties":{"type":"15100","name":"15"},"type":"Polygon","arcs":[[321,-339,322,-337,-336,323,324,325,326,327,328,329,330,-341]],"id":"feature_043"},{"properties":{"type":"15100","name":"15"},"type":"Polygon","arcs":[[331,332,333,334,335,336,337,338,339,340,341]],"id":"feature_044"},{"properties":{"type":"15100","name":"15"},"type":"Polygon","arcs":[[342,343,344,345,346,347]],"id":"feature_045"},{"properties":{"type":"15202","name":"15"},"type":"Polygon","arcs":[[-379,-378,348,-847,349]],"id":"feature_046"},{"properties":{"type":"15202","name":"15"},"type":"Polygon","arcs":[[-1875,350,-1873,351,-1871,352,-1869,353,-1867,354,-1865,355,-1863,356,-1861,357,-1859,358,-1857,359,-611,360,-609,361,-607,362,-605,363,-603,364,-601,365,-599,366]],"id":"feature_047"},{"properties":{"type":"15202","name":"15"},"type":"Polygon","arcs":[[997,367,848,368,712,369,714,370,716,371,821,372,823,373,865,-888,374,911,912,907,-740,-979,-978,-844,375,-842,376,377,378,379,727,380,729,381,731,382,733,383,384,918,385,920,386,922,387,924,388,926,389,-929,390,878,391]],"id":"feature_048"},{"properties":{"type":"15202","name":"15"},"type":"Polygon","arcs":[[459,392]],"id":"feature_049"},{"properties":{"type":"15202","name":"15"},"type":"Polygon","arcs":[[393,463,394,461]],"id":"feature_050"},{"properties":{"type":"15202","name":"15"},"type":"Polygon","arcs":[[457,395,453,396,-948,397,-946,398,-944,399,-942,400,455,401]],"id":"feature_051"},{"properties":{"type":"15202","name":"15"},"type":"Polygon","arcs":[[402,-694,403,-804,-1128,404,-1151,-1126,-1125,405,-1123]],"id":"feature_052"},{"properties":{"type":"15202","name":"15"},"type":"Polygon","arcs":[[440,406,442,-444,443,444,407]],"id":"feature_053"},{"properties":{"type":"15202","name":"15"},"type":"Polygon","arcs":[[435,436,437,438,408,434,-436]],"id":"feature_054"},{"properties":{"type":"15202","name":"15"},"type":"Polygon","arcs":[[433,409,431,410]],"id":"feature_055"},{"properties":{"type":"15202","name":"15"},"type":"Polygon","arcs":[[411]],"id":"feature_056"},{"properties":{"type":"15202","name":"15"},"type":"Polygon","arcs":[[472,412,474,413,476,414,429,415,427,416,448,417,450,418,470,419],[420],[421],[464,422,466,423,468,424]],"id":"feature_057"},{"properties":{"type":"15202","name":"15"},"type":"Polygon","arcs":[[-448,425]],"id":"feature_058"},{"properties":{"type":"15202","name":"15"},"type":"Polygon","arcs":[[426,427,428,429]],"id":"feature_059"},{"properties":{"type":"15202","name":"15"},"type":"Polygon","arcs":[[430,431,432,433]],"id":"feature_060"},{"properties":{"type":"15202","name":"15"},"type":"Polygon","arcs":[[434,-436,435,436,437,438,439]],"id":"feature_061"},{"properties":{"type":"15202","name":"15"},"type":"Polygon","arcs":[[440,441,442,-444,443,444,445]],"id":"feature_062"},{"properties":{"type":"15202","name":"15"},"type":"Polygon","arcs":[[446,447]],"id":"feature_063"},{"properties":{"type":"15202","name":"15"},"type":"Polygon","arcs":[[448,449,450,451]],"id":"feature_064"},{"properties":{"type":"15202","name":"15"},"type":"Polygon","arcs":[[452,453,454,455,456,457]],"id":"feature_065"},{"properties":{"type":"15202","name":"15"},"type":"Polygon","arcs":[[458,459]],"id":"feature_066"},{"properties":{"type":"15202","name":"15"},"type":"Polygon","arcs":[[460,461,462,463]],"id":"feature_067"},{"properties":{"type":"15202","name":"15"},"type":"Polygon","arcs":[[464,465,466,467,468,469,470,471,472,473,474,475,476,477]],"id":"feature_068"},{"properties":{"type":"15206","name":"15"},"type":"Polygon","arcs":[[478]],"id":"feature_069"},{"properties":{"type":"15206","name":"15"},"type":"MultiPolygon","arcs":[[[479]],[[495,480,497,481,505,506,507,508,509,482,483,511,512,513,514,515,516,517,484,519,485,521,486,523,487,525,488,527,489,529,490,531,491,533,492,535,493,537,494]]],"id":"feature_070"},{"properties":{"type":"15206","name":"15"},"type":"Polygon","arcs":[[495,496,497,498]],"id":"feature_071"},{"properties":{"type":"15206","name":"15"},"type":"MultiPolygon","arcs":[[[499]],[[500]],[[583,-585,584,585,-587,586,587,-589,588,589,-591,590,591,-593,592,593,-595,594,595,-597,596,597,-540,539,540,-542,541,542,-544,543,544,-546,545,546,-548,547,548,549,550,-552,551,552,-554,553,554,-556,555,556,-558,557,558,-560,559,560,-562,561,562,-564,563,564,-566,565,566,-568,567,568,569,570,-572,571,572,-574,573,574,-576,575,576,577,-579,578,579,580,581,501]]],"id":"feature_072"},{"properties":{"type":"15206","name":"15"},"type":"Polygon","arcs":[[502]],"id":"feature_073"},{"properties":{"type":"15206","name":"15"},"type":"Polygon","arcs":[[503]],"id":"feature_074"},{"properties":{"type":"15206","name":"15"},"type":"MultiPolygon","arcs":[[[504]],[[505,506,507,508,509,510,511,512,513,514,515,516,517,518,519,520,521,522,523,524,525,526,527,528,529,530,531,532,533,534,535,536,537,538]]],"id":"feature_075"},{"properties":{"type":"15206","name":"15"},"type":"Polygon","arcs":[[-540,539,540,-542,541,542,-544,543,544,-546,545,546,-548,547,548,549,550,-552,551,552,-554,553,554,-556,555,556,-558,557,558,-560,559,560,-562,561,562,-564,563,564,-566,565,566,-568,567,568,569,570,-572,571,572,-574,573,574,-576,575,576,577,-579,578,579,580,581,582,583,-585,584,585,-587,586,587,-589,588,589,-591,590,591,-593,592,593,-595,594,595,-597,596,597]],"id":"feature_076"},{"properties":{"type":"15208","name":"15"},"type":"Polygon","arcs":[[598,599,600,601,602,603,604,605,606,607,608,609,610,611]],"id":"feature_077"},{"properties":{"type":"15208","name":"15"},"type":"Polygon","arcs":[[612,676,613,678,614,680,615,682,616,684,617,686,618,688,619,648,620,650,621,652,622,654,623,656,624,658,625,660,626,662,627,664,628,666,629,668,630,670,631,672,632,674]],"id":"feature_078"},{"properties":{"type":"15208","name":"15"},"type":"Polygon","arcs":[[637,633,639,634,641,635]],"id":"feature_079"},{"properties":{"type":"15208","name":"15"},"type":"Polygon","arcs":[[643,644,636,646],[647]],"id":"feature_080"},{"properties":{"type":"15208","name":"15"},"type":"Polygon","arcs":[[637,638,639,640,641,642]],"id":"feature_081"},{"properties":{"type":"15208","name":"15"},"type":"Polygon","arcs":[[643,644,645,646],[647]],"id":"feature_082"},{"properties":{"type":"15208","name":"15"},"type":"Polygon","arcs":[[648,649,650,651,652,653,654,655,656,657,658,659,660,661,662,663,664,665,666,667,668,669,670,671,672,673,674,675,676,677,678,679,680,681,682,683,684,685,686,687,688,689]],"id":"feature_083"},{"properties":{"type":"15211","name":"15"},"type":"Polygon","arcs":[[-769,-775,-963,-1087,-885,-697,-721]],"id":"feature_084"},{"properties":{"type":"15211","name":"15"},"type":"Polygon","arcs":[[-1017,-777,-898,-798]],"id":"feature_085"},{"properties":{"type":"15211","name":"15"},"type":"Polygon","arcs":[[-872,-1100,-871,-1098,-870,-703,-707,-706,-987,-723]],"id":"feature_086"},{"properties":{"type":"15211","name":"15"},"type":"Polygon","arcs":[[-702,-836,-783,-708]],"id":"feature_087"},{"properties":{"type":"15211","name":"15"},"type":"Polygon","arcs":[[-814,-768,-1056,-785,-939,-751,-855]],"id":"feature_088"},{"properties":{"type":"15211","name":"15"},"type":"Polygon","arcs":[[-951,1139,690,691,1117,692,693,694,695,-809,1152,-808,-750,1137,-749,-754]],"id":"feature_089"},{"properties":{"type":"15211","name":"15"},"type":"Polygon","arcs":[[-759,-722,696,-1044,-753,-704,-743]],"id":"feature_090"},{"properties":{"type":"15211","name":"15"},"type":"Polygon","arcs":[[-698,-1026,-969,-720,-827,-894,-701,1062,-700,1064,-699,1059]],"id":"feature_091"},{"properties":{"type":"15211","name":"15"},"type":"Polygon","arcs":[[697,-1060,698,-1065,699,-1063,700,-893,-890,-910,-1027]],"id":"feature_092"},{"properties":{"type":"15211","name":"15"},"type":"Polygon","arcs":[[-812,1101,-811,1103,-810,1161,-907,701,702,-869]],"id":"feature_093"},{"properties":{"type":"15211","name":"15"},"type":"Polygon","arcs":[[-937,-756,-1011,-1112,-1010,-1110,-1009,-1108,-1008,-903,-1002,-744,703,-752]],"id":"feature_094"},{"properties":{"type":"15211","name":"15"},"type":"Polygon","arcs":[[704,-763,-739,-726,-864]],"id":"feature_095"},{"properties":{"type":"15211","name":"15"},"type":"Polygon","arcs":[[-971,-988,705,-709,-972,-1095]],"id":"feature_096"},{"properties":{"type":"15211","name":"15"},"type":"Polygon","arcs":[[706,707,-782,708]],"id":"feature_097"},{"properties":{"type":"15211","name":"15"},"type":"Polygon","arcs":[[-844,-843,-842,-841,709,-736,-978]],"id":"feature_098"},{"properties":{"type":"15211","name":"15"},"type":"Polygon","arcs":[[-772,-757,-859,-711]],"id":"feature_099"},{"properties":{"type":"15211","name":"15"},"type":"Polygon","arcs":[[-820,-774,-773,710,-858,-851,711,712,713,714,715,716,717]],"id":"feature_100"},{"properties":{"type":"15211","name":"15"},"type":"Polygon","arcs":[[-1054,-954,718,-786]],"id":"feature_101"},{"properties":{"type":"15211","name":"15"},"type":"Polygon","arcs":[[719,-968,-797,-742,-828]],"id":"feature_102"},{"properties":{"type":"15211","name":"15"},"type":"Polygon","arcs":[[-770,720,721,-758]],"id":"feature_103"},{"properties":{"type":"15211","name":"15"},"type":"Polygon","arcs":[[-986,1083,-985,-1082,-984,-801,-738,-747,-873,722]],"id":"feature_104"},{"properties":{"type":"15211","name":"15"},"type":"Polygon","arcs":[[-724,-833,-1168,-781,-766]],"id":"feature_105"},{"properties":{"type":"15211","name":"15"},"type":"Polygon","arcs":[[-784,-834,723,-765,1170,-764,-790]],"id":"feature_106"},{"properties":{"type":"15211","name":"15"},"type":"Polygon","arcs":[[-933,-806,724,-877,-994]],"id":"feature_107"},{"properties":{"type":"15211","name":"15"},"type":"Polygon","arcs":[[725,-741,-913,-889,-866,-865]],"id":"feature_108"},{"properties":{"type":"15211","name":"15"},"type":"Polygon","arcs":[[726,727,728,729,730,731,732,733,734,-917,-1014,-909,-740,-979,735]],"id":"feature_109"},{"properties":{"type":"15211","name":"15"},"type":"Polygon","arcs":[[-800,-779,736,1011,-1046,-748,737]],"id":"feature_110"},{"properties":{"type":"15211","name":"15"},"type":"Polygon","arcs":[[738,-762,-980,739,-908,740]],"id":"feature_111"},{"properties":{"type":"15211","name":"15"},"type":"Polygon","arcs":[[-796,-794,-1157,-793,-1155,-792,-767,-829,741]],"id":"feature_112"},{"properties":{"type":"15211","name":"15"},"type":"Polygon","arcs":[[815]],"id":"feature_113"},{"properties":{"type":"15211","name":"15"},"type":"Polygon","arcs":[[-760,742,743,-1001,-745,-861]],"id":"feature_114"},{"properties":{"type":"15211","name":"15"},"type":"Polygon","arcs":[[-852,-862,744,-1000,745]],"id":"feature_115"},{"properties":{"type":"15211","name":"15"},"type":"Polygon","arcs":[[746,747,-1050,-981,-874]],"id":"feature_116"},{"properties":{"type":"15211","name":"15"},"type":"Polygon","arcs":[[-755,748,-1138,749,-807,-935,-1004]],"id":"feature_117"},{"properties":{"type":"15211","name":"15"},"type":"Polygon","arcs":[[-815,-856,750,-938,751,752,-1043]],"id":"feature_118"},{"properties":{"type":"15211","name":"15"},"type":"Polygon","arcs":[[-952,753,754,-1003,755]],"id":"feature_119"},{"properties":{"type":"15211","name":"15"},"type":"Polygon","arcs":[[756,-771,757,758,759,-860]],"id":"feature_120"},{"properties":{"type":"15211","name":"15"},"type":"Polygon","arcs":[[-1006,-934,-992,-826,-901]],"id":"feature_121"},{"properties":{"type":"15211","name":"15"},"type":"Polygon","arcs":[[760,-845,-976,761,762]],"id":"feature_122"},{"properties":{"type":"15211","name":"15"},"type":"Polygon","arcs":[[-791,763,-1171,764,765,-780,-817,-830,766]],"id":"feature_123"},{"properties":{"type":"15211","name":"15"},"type":"Polygon","arcs":[[-875,-1057,767,-813]],"id":"feature_124"},{"properties":{"type":"15211","name":"15"},"type":"Polygon","arcs":[[-776,768,769,770,771,772]],"id":"feature_125"},{"properties":{"type":"15211","name":"15"},"type":"Polygon","arcs":[[773,-819,-956,-964,774,775]],"id":"feature_126"},{"properties":{"type":"15211","name":"15"},"type":"Polygon","arcs":[[-899,776,-1016,-932,-916,777,778,-799]],"id":"feature_127"},{"properties":{"type":"15211","name":"15"},"type":"Polygon","arcs":[[-837,1088,-959,1090,-958,-818,779,780]],"id":"feature_128"},{"properties":{"type":"15211","name":"15"},"type":"Polygon","arcs":[[-788,-973,781,782,-835,783,-789,1158]],"id":"feature_129"},{"properties":{"type":"15211","name":"15"},"type":"Polygon","arcs":[[784,-1055,785,786,-940]],"id":"feature_130"},{"properties":{"type":"15211","name":"15"},"type":"Polygon","arcs":[[-974,787,-1159,788,789,790,791,1154,792,1156,793,-795]],"id":"feature_131"},{"properties":{"type":"15211","name":"15"},"type":"Polygon","arcs":[[-967,-975,794,795,796]],"id":"feature_132"},{"properties":{"type":"15211","name":"15"},"type":"Polygon","arcs":[[797,-900,798,799,800,-1018]],"id":"feature_133"},{"properties":{"type":"15211","name":"15"},"type":"Polygon","arcs":[[801,1124,802,1127,803,804,805,-936,806,807,-1153,808]],"id":"feature_134"},{"properties":{"type":"15211","name":"15"},"type":"Polygon","arcs":[[-1162,809,-1104,810,-1102,811,-876,812,813,-854,814,-1042,-884,-839,-904],[815]],"id":"feature_135"},{"properties":{"type":"15211","name":"15"},"type":"Polygon","arcs":[[-1035,-1038,-831,816,817,-957,818,819,820,821,822,823,824,-867,-891,-897]],"id":"feature_136"},{"properties":{"type":"15211","name":"15"},"type":"Polygon","arcs":[[-902,825,-991]],"id":"feature_137"},{"properties":{"type":"15211","name":"15"},"type":"Polygon","arcs":[[-895,826,827,828,829,830,-1037]],"id":"feature_138"},{"properties":{"type":"15211","name":"15"},"type":"Polygon","arcs":[[-996,-881,831]],"id":"feature_139"},{"properties":{"type":"15211","name":"15"},"type":"Polygon","arcs":[[-840,-882,1164,1165,-838,1167,832,833,834,835,-906]],"id":"feature_140"},{"properties":{"type":"15211","name":"15"},"type":"Polygon","arcs":[[-886,-961,-955,-1089,836,837,-1166]],"id":"feature_141"},{"properties":{"type":"15211","name":"15"},"type":"Polygon","arcs":[[838,-883,839,-905]],"id":"feature_142"},{"properties":{"type":"15211","name":"15"},"type":"Polygon","arcs":[[840,841,842,843,-977,844,845,846,847]],"id":"feature_143"},{"properties":{"type":"15211","name":"15"},"type":"Polygon","arcs":[[848,849,850,-863,851,852]],"id":"feature_144"},{"properties":{"type":"15211","name":"15"},"type":"Polygon","arcs":[[853,854,855]],"id":"feature_145"},{"properties":{"type":"15211","name":"15"},"type":"Polygon","arcs":[[1073,-1021,1075,-1020,856,1018,-983,1079,-989,-1029,-966,1067,-965,-1024,1069,-1023,1071,-1022]],"id":"feature_146"},{"properties":{"type":"15211","name":"15"},"type":"Polygon","arcs":[[857,858,859,860,861,862]],"id":"feature_147"},{"properties":{"type":"15211","name":"15"},"type":"Polygon","arcs":[[863,864,865,-888,-887,866,867]],"id":"feature_148"},{"properties":{"type":"15211","name":"15"},"type":"Polygon","arcs":[[868,869,1097,870,1099,871,872,873,-982,-1058,874,875]],"id":"feature_149"},{"properties":{"type":"15211","name":"15"},"type":"Polygon","arcs":[[-995,876,877,878,879,880]],"id":"feature_150"},{"properties":{"type":"15211","name":"15"},"type":"Polygon","arcs":[[-1165,881,882,883,-1041,-1136,-1045,884,1086,-962,885]],"id":"feature_151"},{"properties":{"type":"15211","name":"15"},"type":"Polygon","arcs":[[886,887,888,-912,-911,889,-892,-1033,-896,890]],"id":"feature_152"},{"properties":{"type":"15211","name":"15"},"type":"Polygon","arcs":[[891,892,893,894,-1040,-1034]],"id":"feature_153"},{"properties":{"type":"15211","name":"15"},"type":"Polygon","arcs":[[895,-1036,896]],"id":"feature_154"},{"properties":{"type":"15211","name":"15"},"type":"Polygon","arcs":[[897,898,899]],"id":"feature_155"},{"properties":{"type":"15211","name":"15"},"type":"Polygon","arcs":[[-1007,900,901,-990,902]],"id":"feature_156"},{"properties":{"type":"15211","name":"15"},"type":"Polygon","arcs":[[903,904,905,906]],"id":"feature_157"},{"properties":{"type":"15211","name":"15"},"type":"Polygon","arcs":[[907,908,-1028,909,910,911,912]],"id":"feature_158"},{"properties":{"type":"15211","name":"15"},"type":"Polygon","arcs":[[913]],"id":"feature_159"},{"properties":{"type":"15211","name":"15"},"type":"Polygon","arcs":[[914,915,-931]],"id":"feature_160"},{"properties":{"type":"15211","name":"15"},"type":"Polygon","arcs":[[916,917,918,919,920,921,922,923,924,925,926,927,928,929,930,931,-1015]],"id":"feature_161"},{"properties":{"type":"15211","name":"15"},"type":"Polygon","arcs":[[932,-993,933,-1005,934,935]],"id":"feature_162"},{"properties":{"type":"15211","name":"15"},"type":"Polygon","arcs":[[936,937,938,939,940,941,942,943,944,945,946,947,948,1113,949,950,951]],"id":"feature_163"},{"properties":{"type":"15211","name":"15"},"type":"Polygon","arcs":[[952,953,-1053]],"id":"feature_164"},{"properties":{"type":"15211","name":"15"},"type":"Polygon","arcs":[[954,-960,955,956,957,-1091,958]],"id":"feature_165"},{"properties":{"type":"15211","name":"15"},"type":"Polygon","arcs":[[959,960,961,962,963]],"id":"feature_166"},{"properties":{"type":"15211","name":"15"},"type":"Polygon","arcs":[[964,-1068,965,-1032,-970,966,967,968,-1025]],"id":"feature_167"},{"properties":{"type":"15211","name":"15"},"type":"Polygon","arcs":[[969,-1031,970,1094,971,972,973,974]],"id":"feature_168"},{"properties":{"type":"15211","name":"15"},"type":"Polygon","arcs":[[975,976,977,978,979]],"id":"feature_169"},{"properties":{"type":"15211","name":"15"},"type":"Polygon","arcs":[[980,-1049,-1059,981]],"id":"feature_170"},{"properties":{"type":"15211","name":"15"},"type":"Polygon","arcs":[[-1080,982,-1019,983,1081,984,-1084,985,986,987,-1030,988]],"id":"feature_171"},{"properties":{"type":"15211","name":"15"},"type":"Polygon","arcs":[[989,990,991,992,993,994,995,996,997,998,999,1000,1001]],"id":"feature_172"},{"properties":{"type":"15211","name":"15"},"type":"Polygon","arcs":[[1002,1003,1004,1005,1006,1007,1107,1008,1109,1009,1111,1010]],"id":"feature_173"},{"properties":{"type":"15211","name":"15"},"type":"Polygon","arcs":[[1011,1046,1012]],"id":"feature_174"},{"properties":{"type":"15211","name":"15"},"type":"Polygon","arcs":[[1013,1014,1015,1016,1017,1018,-1078,1019,-1076,1020,-1074,1021,-1072,1022,-1070,1023,1024,1025,1026,1027]],"id":"feature_175"},{"properties":{"type":"15211","name":"15"},"type":"Polygon","arcs":[[1028,1029,1030,1031]],"id":"feature_176"},{"properties":{"type":"15211","name":"15"},"type":"Polygon","arcs":[[1032,1033,-1039,1034,1035]],"id":"feature_177"},{"properties":{"type":"15211","name":"15"},"type":"Polygon","arcs":[[1036,1037,1038,1039]],"id":"feature_178"},{"properties":{"type":"15211","name":"15"},"type":"Polygon","arcs":[[1040,1041,1042,1043,1044,1135]],"id":"feature_179"},{"properties":{"type":"15211","name":"15"},"type":"Polygon","arcs":[[1045,1046,1047,-1051,1048,1049]],"id":"feature_180"},{"properties":{"type":"15211","name":"15"},"type":"Polygon","arcs":[[1050,1051,1052,1053,1054,1055,1056,1057,1058]],"id":"feature_181"},{"properties":{"type":"15211","name":"15"},"type":"MultiPolygon","arcs":[[[1059,1060,1061,1062,1063,1064,1065]],[[1066,1067,1068,1069,1070,1071,1072,1073,1074,1075,1076,1077,1078,1079,1080,1081,1082,1083,1084]],[[1085]],[[1086,1087,1088,1089,1090,1091,-1135,1092,-1132,1093,1094,1095,1096,1097,1098,1099,1100,1101,1102,1103,1104,1105]],[[1106,1107,1108,1109,1110,1111,1112,1113,1114,1115,1141,1116,1117,1118,1143,1119,1145,1120,1147,1121,1122,1123,1124,1125,1126,1127,1128,1129]]],"id":"feature_182"},{"properties":{"type":"15211","name":"15"},"type":"Polygon","arcs":[[1130]],"id":"feature_183"},{"properties":{"type":"15211","name":"15"},"type":"Polygon","arcs":[[1131,1132]],"id":"feature_184"},{"properties":{"type":"15211","name":"15"},"type":"Polygon","arcs":[[1133,1134]],"id":"feature_185"},{"properties":{"type":"15211","name":"15"},"type":"Polygon","arcs":[[1135,1136]],"id":"feature_186"},{"properties":{"type":"15211","name":"15"},"type":"Polygon","arcs":[[1137,1138,1139,1140,1141,1142,1143,1144,1145,1146,1147,1148,1149,1150,1151,1152,1153]],"id":"feature_187"},{"properties":{"type":"15211","name":"15"},"type":"Polygon","arcs":[[1154,1155,1156,1157,1158,1159,1160,1161,1162,1163,1164,1165,1166,1167,1168,1169,1170,1171]],"id":"feature_188"},{"properties":{"type":"15213","name":"15"},"type":"Polygon","arcs":[[1172,1173,1174,1175,1176,1177,1178,1179,1180,1181,1182,1183,1184,1185,1186,1187,1188,1189,1190,1191,1192,1193,1194,1195,1196,1197,1198,1199,1200,1201,1202,1203,1204,1205,1206,1207,1208,1209,1210,1211,1212,1213,1214,1215,1216,1217,1218,1219,1220,1221,1222,1223,1224,1225,1226,1227,1228,1229,1230,1231,1232,1233,1234,1235,1236,1237,1238,1239,1240,1241,1242,1243,1244,1245,1246,1247,1248,1249,1250,1251,1252,1253,1254,1255,1256,1257,1258,1259,1260,1261,1262,1263,1264,1265,1315,1327,1316,1266,1267,1268,1269,1270,1271,1272,1273,1274,1275,1276,1277,1278,1279,1280,1281,1282,1283,1284,1285,1286,1287,1288,1289,1290,1291,1292,1293,1294,1295,1296,1297,1298,1299,1300,1301,1302,1303,1304,1305,1306,1307,1308,1309]],"id":"feature_189"},{"properties":{"type":"15213","name":"15"},"type":"Polygon","arcs":[[1310]],"id":"feature_190"},{"properties":{"type":"15213","name":"15"},"type":"Polygon","arcs":[[1328,1311,1330,1312,1332,1313]],"id":"feature_191"},{"properties":{"type":"15213","name":"15"},"type":"Polygon","arcs":[[1324,1314]],"id":"feature_192"},{"properties":{"type":"15213","name":"15"},"type":"Polygon","arcs":[[1315,1327,1316,1317]],"id":"feature_193"},{"properties":{"type":"15213","name":"15"},"type":"Polygon","arcs":[[1338,1318,1340,1319,1342,1320,1344,1321,1334,1322],[1323,1336]],"id":"feature_194"},{"properties":{"type":"15213","name":"15"},"type":"Polygon","arcs":[[1324,1325]],"id":"feature_195"},{"properties":{"type":"15213","name":"15"},"type":"Polygon","arcs":[[1326,1327]],"id":"feature_196"},{"properties":{"type":"15213","name":"15"},"type":"Polygon","arcs":[[1328,1329,1330,1331,1332,1333]],"id":"feature_197"},{"properties":{"type":"15213","name":"15"},"type":"Polygon","arcs":[[1334,1335,1336,1337,1338,1339,1340,1341,1342,1343,1344,1345]],"id":"feature_198"},{"properties":{"type":"15216","name":"15"},"type":"Polygon","arcs":[[1371,1346,1373,1347,1391,1348,1393,1349,1395,1350,1397,1398,1351,1400,1352,1378,1402,1353,1380,1354,1405,1381,1355,1407,1356,1383,1357,1385,1358,1387,1359,1389,1360,1365,1361,1367,1362,1369,1363]],"id":"feature_199"},{"properties":{"type":"15216","name":"15"},"type":"Polygon","arcs":[[1364]],"id":"feature_200"},{"properties":{"type":"15216","name":"15"},"type":"Polygon","arcs":[[1365,1366,1367,1368,1369,1370]],"id":"feature_201"},{"properties":{"type":"15216","name":"15"},"type":"Polygon","arcs":[[1371,1372,1373,1374,1391,1375,1394,1395,1376,1398,1399,1400,1377,1378,1402,1379,1380,1404,1405,1381,1382,1407,1408,1383,1384,1385,1386,1387,1388,1389,1390]],"id":"feature_202"},{"properties":{"type":"15216","name":"15"},"type":"Polygon","arcs":[[1391,1392,1393,1394,1395,1396,1397,1398,1399,1400,1401,1402,1403,1404,1405,1406,1407,1408,1409]],"id":"feature_203"},{"properties":{"type":"15217","name":"15"},"type":"Polygon","arcs":[[-1552,1410,-1550,1411,-1548,1412,-1546,1413,-1544,1414,-1542,1415,-1540,1416,-1538,1417,1431,1418,1433,1419,1435,1420,1421,1438,-1534,1439,1422,1441,1423,-1530,1424,-1528,1425,-1526,1426,-1524,1427,-1522,1428]],"id":"feature_204"},{"properties":{"type":"15217","name":"15"},"type":"Polygon","arcs":[[1429]],"id":"feature_205"},{"properties":{"type":"15217","name":"15"},"type":"Polygon","arcs":[[1443,1430]],"id":"feature_206"},{"properties":{"type":"15217","name":"15"},"type":"Polygon","arcs":[[1431,1432,1433,1434,1435,1436,-1536,1437,1438,-1534,1439,1440,1441,1442]],"id":"feature_207"},{"properties":{"type":"15217","name":"15"},"type":"Polygon","arcs":[[1443,1444]],"id":"feature_208"},{"properties":{"type":"15218","name":"15"},"type":"Polygon","arcs":[[-1994,1445,-1992,1446,-1990,1447,-1988,1448,1449,1450,1451,1452,1453,1454,1455,1456,1457,1458,1459,1460,1461,1462,1463,1464,1465,1466,1467,1468,1469,1470,1471,1472,1473,1474,1475,1476,1477,1478,1479,1480,1481,1482,1483,1484,1485,1486,1487,1488,1489,1490,1491,1492],[1493,1494,1495,1496]],"id":"feature_209"},{"properties":{"type":"15218","name":"15"},"type":"Polygon","arcs":[[1497,1514,1498,1516,1499,1518,1500,1520]],"id":"feature_210"},{"properties":{"type":"15218","name":"15"},"type":"Polygon","arcs":[[1505,1501,1507,1502,1509,1503,1511,1504]],"id":"feature_211"},{"properties":{"type":"15218","name":"15"},"type":"Polygon","arcs":[[1505,1506,1507,1508,1509,1510,1511,1512]],"id":"feature_212"},{"properties":{"type":"15218","name":"15"},"type":"Polygon","arcs":[[1513,1514,1515,1516,1517,1518,1519,1520]],"id":"feature_213"},{"properties":{"type":"15222","name":"15"},"type":"Polygon","arcs":[[1521,1522,1523,1524,1525,1526,1527,1528,1529,1530,1531,1532,1533,1534,1535,1536,1537,1538,1539,1540,1541,1542,1543,1544,1545,1546,1547,1548,1549,1550,1551,1552]],"id":"feature_214"},{"properties":{"type":"15222","name":"15"},"type":"MultiPolygon","arcs":[[[1553]],[[1554]],[[1766,1555,1768,1556,1790,1557,1792,1558,1794,1559,1763,1560,1765,1561,1796,1562],[1798,1563,1800,1564,1802,1565],[1566],[1567],[1770,1568,1772,1569,1774,1570,1776,1571,1778,1572,1780,1573,1782,1574,1784,1575,1786,1576,1788,1577],[1578],[1579],[1580],[1581]],[[1815,1582,-1822,1583,-1820,1584,-1818,1585,1805,1586,1807,1587,1809,1588,1811,1589,1813,1590]],[[1591]],[[1847,1592,1849,1593,1851,1594,1853,1595,1855,1596,1830,1597,1833,1598,1835,1599,1837,1600,1839,1601,1841,1602,1843,1603,1845,1604],[1605]],[[1606,1758,1607,1760,1608,1826,1609,1750,1610,1752,1611,1754,1612,1756],[1613],[1614],[1615],[1616],[1617],[1618],[1619]],[[1620]],[[1621]],[[1622]],[[1623]],[[1624]],[[1625]],[[1626]],[[1627]],[[1628]],[[1629]],[[1670,1630,1672,1631,1674,1632,1676,1633,1678,1634,1680,1635,1682,1636,1684,1637,1686,1638,1688,1639,1690,1640,1692,1641,1694,1642,1696,1643,1698,1644,1700,1645,1702,1646,1704,1647,1706,1648,1708,1649,1710,1650,1712,1651,1714,1652,1716,1653,1718,1654,1720,1655,1722,1656,1724,1657,1726,1658,1728,1659,1730,1660,1732,1661,1734,1662,1736,1663,1738,1664,1740,1665,1742,1666,1744,1667,1746,1668,1748,1669]]],"id":"feature_215"},{"properties":{"type":"15222","name":"15"},"type":"Polygon","arcs":[[1670,1671,1672,1673,1674,1675,1676,1677,1678,1679,1680,1681,1682,1683,1684,1685,1686,1687,1688,1689,1690,1691,1692,1693,1694,1695,1696,1697,1698,1699,1700,1701,1702,1703,1704,1705,1706,1707,1708,1709,1710,1711,1712,1713,1714,1715,1716,1717,1718,1719,1720,1721,1722,1723,1724,1725,1726,1727,1728,1729,1730,1731,1732,1733,1734,1735,1736,1737,1738,1739,1740,1741,1742,1743,1744,1745,1746,1747,1748,1749]],"id":"feature_216"},{"properties":{"type":"15222","name":"15"},"type":"Polygon","arcs":[[1750,1751,1752,1753,1754,1755,1756,1757,1758,1759,1760,1761]],"id":"feature_217"},{"properties":{"type":"15222","name":"15"},"type":"Polygon","arcs":[[1762,1763,1764,1765]],"id":"feature_218"},{"properties":{"type":"15222","name":"15"},"type":"Polygon","arcs":[[1766,1767,1768,1769,1770,1771,1772,1773,1774,1775,1776,1777,1778,1779,1780,1781,1782,1783,1784,1785,1786,1787,1788,1789,1790,1791,1792,1793,1794,1795,1796,1797,1798,1799,1800,1801,1802,1803]],"id":"feature_219"},{"properties":{"type":"15222","name":"15"},"type":"Polygon","arcs":[[-1821,-1820,-1819,-1818,1804,1805,1806,1807,1808,1809,1810,1811,1812,1813,1814,1815,1816,-1822]],"id":"feature_220"},{"properties":{"type":"15222","name":"15"},"type":"Polygon","arcs":[[1817,1818,1819,1820,1821,1822,-1834,-1833,1823,-1831,-1830,1824,1825]],"id":"feature_221"},{"properties":{"type":"15222","name":"15"},"type":"Polygon","arcs":[[1826,1827]],"id":"feature_222"},{"properties":{"type":"15222","name":"15"},"type":"Polygon","arcs":[[1828,1829,1830,1831,1832,1833,1834,1835,1836,1837,1838,1839,1840,1841,1842,1843,1844,1845,1846,1847,1848,1849,1850,1851,1852,1853,1854,1855]],"id":"feature_223"},{"properties":{"type":"15225","name":"15"},"type":"Polygon","arcs":[[1856,1857,1858,1859,1860,1861,1862,1863,1864,1865,1866,1867,1868,1869,1870,1871,1872,1873,1874,1875]],"id":"feature_224"},{"properties":{"type":"15227","name":"15"},"type":"Polygon","arcs":[[1876]],"id":"feature_225"},{"properties":{"type":"15227","name":"15"},"type":"Polygon","arcs":[[1877,1878]],"id":"feature_226"},{"properties":{"type":"15227","name":"15"},"type":"Polygon","arcs":[[1878,1879]],"id":"feature_227"},{"properties":{"type":"15361","name":"15"},"type":"Polygon","arcs":[[1880,1881,1882,1883,1884,1885,1886,1887,1888,1889,1890,1891,1892,1893,1894,1895,1896,1897,1898,1899,1900,1901,1902,1903,1904,1905,1906,1907,1908,1909,1910,1911,1912,1913,1914,1915,1916,1917,1918,1919,1920,1921,1922,1923,1924,1925,1926,1927,1928,1929,1930,1931,1932,1933,1934,1935,1936,1937,1938,1939,1940,1941,1942,1943,1944,1945,1946,1947,1948,1949,1950,1951,1952,1953,1954,1955,1956,1957,1958,1959,1960,1961,1962,1963,1964,1965,1966,1967,1968,1969,1970,1971,1972,1973,1974,1975,1976,1977,1978,1979,1980,1981,1982,1983,1984,1985,1986,1987,1988,1989,1990,1991,1992,1993,1994]],"id":"feature_228"},{"properties":{"type":"15361","name":"15"},"type":"Polygon","arcs":[[1999,1995,1997,1996]],"id":"feature_229"},{"properties":{"type":"15361","name":"15"},"type":"Polygon","arcs":[[2001]],"id":"feature_230"},{"properties":{"type":"15361","name":"15"},"type":"Polygon","arcs":[[1997,1998,1999,2000]],"id":"feature_231"},{"properties":{"type":"15361","name":"15"},"type":"Polygon","arcs":[[2001]],"id":"feature_232"},{"properties":{"type":"15461","name":"15"},"type":"Polygon","arcs":[[2002]],"id":"feature_233"},{"properties":{"type":"15461","name":"15"},"type":"Polygon","arcs":[[2005,2003,2007,2004]],"id":"feature_234"},{"properties":{"type":"15461","name":"15"},"type":"Polygon","arcs":[[2005,2006,2007,2008]],"id":"feature_235"}],"type":"GeometryCollection"}},"bbox":[137.7581,36.8431,139.4815,38.1499],"transform":{"scale":[1.7234172341723396e-05,1.306813068130684e-05],"translate":[137.7581,36.8431]},"arcs":[[[70244,64133],[116,31]],[[75466,67508],[-23,-16]],[[75432,67485],[-58,-38]],[[74828,67095],[-41,-69]],[[74683,66743],[-81,-207]],[[74555,66436],[-52,-76]],[[74346,66207],[-69,-54]],[[74022,65847],[-29,-46]],[[73952,65511],[17,-199]],[[73952,65074],[-1021,1294],[-1288,-1125],[0,-1217],[-1503,69]],[[75745,67485],[-12,76]],[[75704,67684],[-35,23]],[[75640,67730],[116,2517],[459,773],[-783,1079],[417,1959],[-191,1645]],[[81536,75007],[-679,-505],[75,-543],[1526,-406],[-255,-1714],[899,-429],[-1241,-130],[110,-382],[-911,-482]],[[81077,70416],[29,-31]],[[81106,70377],[-180,192]],[[80874,70569],[-168,-92]],[[80694,70477],[-168,-314]],[[80532,70155],[17,-61]],[[80549,70079],[-69,-528]],[[80474,69551],[-105,53]],[[80346,69604],[-267,-68]],[[80068,69536],[-24,7]],[[80039,69543],[-70,-191]],[[79969,69344],[-145,-237]],[[79818,69092],[-6,-23]],[[79812,69053],[169,-183]],[[79992,68870],[-52,-69]],[[79934,68801],[-87,23]],[[79830,68824],[-29,15]],[[79795,68839],[-168,-436]],[[79615,68403],[-145,-107]],[[79464,68296],[-180,-77]],[[79267,68212],[-319,-39]],[[78936,68173],[-214,-45]],[[78704,68128],[-41,-8]],[[78652,68120],[-302,-566]],[[78344,67554],[-23,-8]],[[78199,67615],[-11,-8]],[[78112,67760],[-40,39]],[[78043,67821],[-53,0]],[[77880,67829],[-11,8]],[[77758,67906],[12,7]],[[77857,68135],[-12,23]],[[77811,68181],[-6,15]],[[77671,68242],[-52,77]],[[77567,68395],[-23,-15]],[[77573,68281],[5,-16]],[[77544,68265],[46,-53]],[[77549,68181],[18,-8]],[[77567,68166],[-47,-31]],[[77520,68059],[-5,-23]],[[77486,68112],[-6,23]],[[77503,68235],[-23,84]],[[77364,68288],[11,-7]],[[77381,68227],[23,-31]],[[77428,68143],[23,-23]],[[77393,67952],[-6,-8]],[[77375,67952],[-11,23]],[[77120,67921],[-6,-8]],[[77074,67776],[5,-31]],[[77085,67730],[12,7]],[[77103,67737],[52,-7]],[[76801,67638],[-6,7]],[[76818,67867],[18,39]],[[76824,67952],[29,38]],[[76836,68028],[-12,-8]],[[76702,67791],[-75,30]],[[76488,67737],[-24,-46]],[[76180,67860],[-52,23]],[[76023,67890],[-17,-15]],[[75925,67867],[-18,-7]],[[75907,67799],[24,-31]],[[75948,67737],[17,-53]],[[75867,67592],[0,-15]],[[76000,67500],[-23,-46]],[[75878,67186],[-29,-46]],[[75832,67148],[-6,84]],[[75844,67577],[5,15]],[[75797,67623],[-6,-8]],[[85539,85995],[-34,-15],[34,23],[0,-8]],[[86166,84343],[133,38]],[[86311,84381],[12,-8]],[[86334,84373],[70,16]],[[86410,84389],[29,15]],[[86445,84411],[661,-650],[-557,-329],[-116,-1316],[1108,-1125],[-377,-1362],[-650,467],[-226,-1079],[-151,665],[-882,-1706],[-2855,214]],[[79725,85628],[4056,1592],[1706,2831],[-963,-2005],[789,-1385],[-377,-436],[493,23],[522,-1002],[-719,-819],[928,-84]],[[75658,75703],[-1938,750],[-464,957]],[[80625,81932],[1775,-3742]],[[82400,78190],[-1508,-1400],[1479,-1400],[-243,-567],[-592,184]],[[81536,75007],[-2960,1416],[-2918,-720]],[[75733,84396],[0,0]],[[75745,84396],[0,0]],[[75756,84404],[0,-8],[-5,8],[5,0]],[[75768,84404],[-6,7],[6,0],[0,-7]],[[75780,84411],[0,0]],[[75791,84411],[0,0]],[[77799,80111],[-1544,-1018],[-2860,-92]],[[72101,81511],[3510,2786],[441,1086],[-145,-1109]],[[76052,85422],[-5,0],[-6,91],[6,0],[5,-91]],[[76459,86539],[-128,-138],[-302,-842],[290,850],[140,130]],[[63920,75657],[3696,3130],[4485,2724]],[[72101,81511],[1294,-2510]],[[73395,79001],[-139,-1591]],[[73256,77410],[29,-781],[-691,-306],[-505,-1132],[337,-789],[-1567,-711]],[[59637,66161],[-5,-8],[-6,16],[11,0],[0,-8]],[[59713,66360],[-12,-8],[-6,16],[12,0],[6,-8]],[[59556,66796],[-6,0],[0,15],[6,0],[0,-15]],[[59556,66995],[-6,0],[6,15],[6,-7],[-6,-8]],[[59608,67033],[-11,0],[0,8],[11,-8]],[[59632,67148],[0,-8],[-12,0],[0,16],[12,-8]],[[59608,67148],[-5,0],[0,15],[11,-7],[-6,-8]],[[59632,67171],[-6,-8],[-6,8],[6,8],[6,-8]],[[59690,67209],[-12,0],[12,8],[0,-8]],[[59759,67447],[-23,15],[0,7],[12,8],[11,-30]],[[59777,67561],[-12,8],[6,15],[11,0],[-5,-23]],[[59748,67600],[-12,0],[-6,15],[12,-8],[6,-7]],[[61361,72153],[17,-23],[-35,0],[12,23],[6,0]],[[70859,73691],[395,-1783],[-435,0],[684,-582],[261,-1270],[-1044,-712],[-226,544],[-70,45],[75,-1637],[412,-421],[621,390],[-336,-1630]],[[71196,66635],[6,0],[-6,8],[0,-8]],[[71196,66635],[35,-1086],[-662,-1362]],[[70557,64256],[-5,45]],[[70476,64485],[-6,15]],[[70453,64531],[64,107]],[[70470,64692],[29,38]],[[70238,64799],[-17,-8]],[[69850,65005],[11,46]],[[69902,65067],[6,15]],[[69937,65235],[92,-8]],[[70041,65312],[6,61]],[[70053,65533],[11,39]],[[70087,65801],[6,39]],[[70099,65985],[-23,46]],[[69902,66184],[-6,-15]],[[69873,66107],[-29,-76]],[[69652,65962],[-64,-23]],[[69397,65778],[-6,16]],[[69333,65778],[-40,8]],[[69298,65755],[-34,-7]],[[69159,65740],[-11,-38]],[[69060,65694],[-40,31]],[[68985,66184],[-17,76]],[[68950,66873],[-6,38]],[[68863,66850],[-17,-16]],[[68823,66865],[-99,138]],[[68678,67079],[0,46]],[[68527,67133],[-70,23]],[[68289,67171],[-99,8]],[[68028,67194],[-12,15]],[[68010,67240],[-11,23]],[[67970,67332],[-12,-23]],[[67946,67301],[12,31]],[[68022,67485],[6,15]],[[68155,67860],[12,38]],[[68080,67921],[-6,8]],[[68039,68020],[-23,-7]],[[67732,67921],[-23,-122]],[[67070,67661],[-6,-16]],[[67024,67293],[-29,-38]],[[66983,67217],[-29,-130]],[[66914,66964],[-35,-15]],[[66774,66896],[-35,-16]],[[66681,66850],[-11,-8]],[[66316,66689],[-29,-15]],[[66130,66628],[-64,30]],[[65776,66620],[-52,-38]],[[65422,66528],[-11,31]],[[65364,66589],[-11,8]],[[65103,66536],[-174,-31]],[[64767,66490],[-24,-15]],[[64610,66421],[-70,-23]],[[64506,66375],[-70,-38]],[[64279,66153],[-40,-61]],[[64140,66146],[-139,0]],[[63856,66215],[-18,7]],[[63687,66215],[-145,30]],[[63154,66406],[-53,53]],[[62405,66681],[-17,-7]],[[62185,66735],[-116,38]],[[61900,66827],[-75,15]],[[61413,66980],[-23,-31]],[[61216,66788],[-6,-7]],[[61221,66643],[-11,-15]],[[61216,66597],[-12,-23]],[[61140,66444],[-29,-61]],[[61111,66352],[-11,-30]],[[60983,66176],[-34,-53]],[[60943,66092],[-1323,31],[394,2785],[2234,5142],[1672,1607]],[[63920,75657],[371,-298],[-546,-1599],[906,451],[-673,-444],[2262,-183],[430,505],[360,-613],[-174,643],[2767,643],[453,834],[783,-1905]],[[69966,65105],[-12,-107],[116,23],[-17,130],[-87,-46]],[[76081,84786],[-5,-23],[11,108],[6,0],[-12,-85]],[[76122,84978],[-12,-39],[-5,0],[11,46],[6,-7]],[[76116,84985],[0,0]],[[76151,85108],[-17,-38],[-18,-77],[-6,-8],[29,115],[24,54],[-12,-46]],[[80625,81932],[-2072,-1370]],[[78553,80562],[-1,1]],[[78552,80563],[-753,-452]],[[77799,80111],[-1416,834],[395,735],[-871,2594]],[[75907,84274],[505,321],[-319,214],[12,123],[3620,696]],[[79725,85628],[-261,-252],[940,-1669],[221,-1775]],[[80015,73216],[262,-650],[-888,405],[93,804],[533,-559]],[[67233,73469],[400,-987],[-586,-674],[-406,306],[505,215],[87,1140]],[[80137,82537],[0,-253],[-354,115],[35,138],[319,0]],[[64738,67531],[98,-299],[6,-222],[-244,398],[140,123]],[[80317,73499],[244,46],[128,-642],[-766,589],[394,7]],[[67888,72489],[12,-130],[-191,153],[197,16],[-18,-39]],[[75919,69788],[220,712],[447,-704],[-232,-459],[-435,451]],[[64981,70148],[285,268],[116,-1156],[-163,69],[-238,819]],[[79162,83264],[-46,0],[35,214],[23,-100],[-12,-114]],[[72426,79774],[273,291],[417,-3466],[-882,505],[534,344],[-267,1814],[-290,-261],[-162,536],[377,237]],[[80497,77211],[-99,-138],[-162,84],[87,161],[174,-107]],[[77915,69536],[-12,-697],[-679,-428],[337,818],[-278,345],[632,-38]],[[77880,68893],[-35,92],[-133,53],[23,-46],[145,-99]],[[77805,69099],[0,8],[6,-8],[-6,0]],[[65921,70285],[476,-650],[-975,-513],[-174,1852],[557,-61],[116,-628]],[[78478,73530],[360,788],[-262,1179],[-644,114],[296,743],[958,-681],[203,-2732],[580,-84],[812,-957],[-1328,436],[-325,-1584],[-784,230],[627,704],[-1044,1171],[551,673]],[[79006,73752],[-6,-31],[46,-7],[-23,76],[-17,-38]],[[79035,72734],[-372,-145],[76,-199],[186,76],[110,268]],[[79876,72696],[122,-100],[17,8],[-40,92],[-99,0]],[[79859,72673],[-35,0],[-12,-23],[70,-8],[-23,31]],[[80004,72566],[-35,0],[17,-15],[18,15]],[[80062,72558],[-6,-38],[41,-46],[0,38],[-35,46]],[[79975,72535],[58,-53],[35,15],[-53,46],[-40,-8]],[[79110,71617],[52,-23],[24,54],[-18,-31],[-58,0]],[[79267,71487],[-46,46],[-221,23],[110,-61],[157,-8]],[[78872,71464],[6,-8],[0,16],[-6,0],[0,-8]],[[78849,71372],[-98,-138],[116,-153],[75,222],[-93,69]],[[80068,72398],[-18,-8],[12,-23],[17,8],[-11,23]],[[64935,67194],[-180,551],[296,406],[429,-934],[-545,-23]],[[73319,76254],[93,-1285],[128,-222],[-354,-8],[-191,1194],[324,321]],[[77277,78603],[806,620],[-133,827],[1421,-1921],[-853,-497],[-1241,971]],[[81130,83294],[272,-329],[-626,-314],[81,651],[273,-8]],[[81350,82606],[81,-16],[64,-467],[-383,406],[238,77]],[[81275,82315],[34,-8],[12,-8],[-46,16]],[[74201,81703],[-5,-8]],[[73743,81542],[-110,-23]],[[73337,81396],[-604,-772],[-394,1002],[3226,2525],[-162,-1186]],[[75362,82889],[-279,-444]],[[75072,82430],[-157,-238]],[[74532,81894],[-11,-15]],[[74358,83149],[29,0],[58,69],[-17,15],[-70,-84]],[[74445,83241],[23,-8],[12,38],[-6,0],[-29,-30]],[[75124,83807],[12,-15],[5,7],[-11,16],[-6,-8]],[[74225,83172],[0,0],[0,0]],[[74201,83149],[-17,-15],[0,7],[17,8]],[[84849,81167],[-992,1033],[940,1217],[650,-1347],[-598,-903]],[[79957,77700],[378,115],[876,-336],[-360,-414],[-894,635]],[[72229,81481],[441,-1217],[-1033,-972],[220,-581],[-191,-123],[-569,-199],[470,429],[-290,482],[-760,-1072],[-540,245],[-214,-122],[-273,-429],[-284,238],[-146,38],[-87,-31],[-81,-115],[-87,-252],[-174,-207],[244,207],[145,383],[406,-352],[569,107],[-511,-391],[-516,215],[-447,-888],[-1921,-207],[1207,819],[-23,964],[1770,375],[-778,153],[3453,2503]],[[70865,80034],[0,-38],[58,38],[-12,23],[-46,-23]],[[70726,79897],[-23,-46],[92,61],[-17,23],[-52,-38]],[[70587,79812],[0,-15],[11,8],[-6,15],[-5,-8]],[[70621,79797],[0,-23],[29,16],[-23,15],[-6,-8]],[[70563,79751],[-145,-84],[-98,-207],[179,100],[64,191]],[[70969,79552],[70,39],[0,7],[-93,-38],[23,-8]],[[70929,79483],[40,39],[-11,15],[-47,-38],[18,-16]],[[70668,79376],[11,-23],[99,46],[-46,16],[-64,-39]],[[70674,79323],[-6,0],[-12,-23],[35,7],[-17,16]],[[70557,79070],[12,16],[-6,22],[-17,-15],[11,-23]],[[70534,79047],[6,8],[-12,15],[-5,-7],[11,-16]],[[70517,79024],[17,16],[-11,15],[-18,-15],[12,-16]],[[69937,78680],[-6,38],[-23,-15],[5,-15],[24,-8]],[[69235,78343],[69,46],[12,23],[-93,-53],[12,-16]],[[68985,78198],[157,53],[69,77],[-238,-115],[12,-15]],[[68939,78167],[17,8],[6,15],[-29,0],[6,-23]],[[68167,77838],[-6,-7]],[[68283,77991],[-12,-7],[18,-16],[6,8],[-12,15]],[[68312,77961],[23,-39],[29,23],[-58,39],[6,-23]],[[68237,77892],[5,-16],[47,16],[-6,15],[-46,-15]],[[68167,77838],[-6,-7]],[[68161,77831],[6,7]],[[67888,77846],[-5,-15],[17,-8],[6,23],[-18,0]],[[67854,77846],[0,23],[-12,0],[-6,-15],[18,-8]],[[68300,77785],[12,7],[12,23],[-41,-15],[17,-15]],[[68353,77777],[17,-8],[0,39],[-23,-8],[6,-23]],[[80520,85506],[70,-283],[-656,91],[418,437],[168,-245]],[[80944,84228],[-424,-123],[-441,827],[1486,910],[139,-505],[-708,-344],[-52,-765]],[[81437,85368],[0,-23],[29,23],[-17,8],[-12,-8]],[[80810,84978],[99,7],[6,23],[-35,0],[-70,-30]],[[80921,84978],[23,7],[0,16],[-12,0],[-11,-23]],[[80230,84894],[-6,0]],[[80224,84894],[6,0]],[[80230,84894],[-6,0]],[[80601,84848],[18,-16],[17,39],[-17,7],[-18,-30]],[[80253,84978],[6,7],[-29,-7],[12,-16],[11,16]],[[80219,84817],[23,-69],[17,0],[-17,77],[-23,-8]],[[80567,84817],[-47,-84],[-29,-15],[58,0],[18,99]],[[80468,84725],[-12,-7],[6,-16],[18,8],[-12,15]],[[80439,84718],[-12,15],[-52,-46],[47,0],[17,31]],[[80323,84672],[46,-8],[6,23],[-6,15],[-46,-30]],[[80259,84695],[6,-46],[23,-23],[-11,69],[-18,0]],[[80248,84733],[5,-31],[12,0],[6,23],[-23,8]],[[81141,84955],[18,0],[-6,23],[-23,-8],[11,-15]],[[66403,74379],[-296,46],[-64,329],[766,-176],[-406,-199]],[[74526,78435],[6,-1002],[-963,-85],[743,1095],[214,-8]],[[82731,82139],[-389,-23],[-296,53],[888,766],[226,-750],[-429,-46]],[[83369,84121],[-441,-459],[-226,482],[522,252],[145,-275]],[[67151,72803],[-197,-482],[-493,306],[395,444],[295,-268]],[[73644,70944],[412,191],[-591,-635],[464,-406],[-598,207],[-482,-918],[-52,2165],[847,-604]],[[73186,70890],[-180,84],[-17,-222],[226,-15],[-29,153]],[[67511,68939],[-75,444],[336,15],[633,-490],[-894,31]],[[78681,76820],[70,-374],[-250,38],[64,413],[116,-77]],[[77538,84955],[661,-38],[-435,-498],[1346,253],[-64,-1531],[-2999,444],[470,1140],[87,-574],[499,23],[435,781]],[[77393,84243],[23,-61],[17,-8],[-5,84],[-35,-15]],[[77457,84243],[0,-15],[92,-8],[0,23],[-92,0]],[[77805,83952],[261,39],[116,145],[-470,-122],[93,-62]],[[77253,83784],[128,54],[-6,137],[-214,-38],[92,-153]],[[77335,83738],[35,8],[23,15],[-58,-8],[0,-15]],[[76952,83815],[6,-115],[23,0],[6,61],[-35,54]],[[76528,83723],[93,38],[12,38],[-99,-38],[-6,-38]],[[73227,80532],[-244,115]],[[73395,81205],[1584,781]],[[75095,82108],[122,207]],[[75223,82338],[679,604],[591,-512],[1283,367],[-383,30],[110,222],[1387,-367],[226,574],[29,-574],[476,-8],[-662,-482],[343,-574],[-424,-727],[-2106,-857],[-116,-558],[-847,38],[446,283],[-580,260],[325,551],[186,-23],[226,146],[6,137],[-1335,-459],[-1607,-1377],[-313,1278]],[[78478,82276],[-1108,-512],[-465,-406],[929,-92],[1091,781],[-447,229]],[[73244,80578],[64,153]],[[73876,79629],[35,-107],[180,61],[-133,375],[-82,-329]],[[76035,80210],[-162,-84],[46,-99],[186,92],[-70,91]],[[75217,82315],[6,23]],[[75223,82338],[435,941],[-296,-957],[673,-696],[-644,-230],[-296,712]],[[75095,82108],[-116,-122]],[[74979,81986],[238,329]],[[74642,82192],[53,62]],[[74695,82261],[23,46]],[[74869,82131],[-337,-237]],[[74532,81894],[-11,-15]],[[74521,81879],[-320,-176]],[[74201,81703],[-5,-8]],[[74196,81695],[-453,-153]],[[73743,81542],[-110,-23]],[[73633,81519],[-296,-123]],[[73337,81396],[905,735]],[[75403,82965],[-41,-76]],[[75362,82889],[-279,-444]],[[75083,82445],[-11,-15]],[[75072,82430],[-203,-299]],[[74869,82131],[46,61]],[[74915,82192],[-197,115]],[[74718,82307],[-23,-46]],[[74695,82261],[0,-7]],[[74695,82254],[-53,-62]],[[74642,82192],[-400,-61]],[[74242,82131],[360,995],[452,-612],[349,451]],[[73395,81205],[-87,-474]],[[73308,80731],[-64,-153]],[[73244,80578],[-17,-46]],[[73227,80532],[-64,-222]],[[73163,80310],[-261,-283],[81,620]],[[72983,80647],[412,558]],[[70656,50237],[888,84]],[[71544,50344],[557,237],[-168,-513],[1508,-742],[70,-1423],[-986,-528],[243,-903],[-418,643],[-1085,-605],[-586,520],[169,2143],[-412,811]],[[65678,32683],[110,-1278]],[[65776,31366],[-301,-857]],[[65463,30494],[-313,-1278]],[[65144,29208],[-35,-53]],[[65051,29155],[-29,0]],[[65016,29155],[-98,-23]],[[64906,29132],[-337,-283]],[[64569,28818],[29,-99]],[[64598,28673],[12,-77]],[[64610,28589],[-731,229],[-232,1148],[-656,-138],[354,987]],[[63351,30823],[133,444],[-1456,2035]],[[62040,33302],[81,85]],[[62121,33402],[609,1086]],[[62736,34496],[46,199]],[[62776,34703],[291,313]],[[63096,35016],[214,383]],[[63310,35407],[1323,61],[-563,-903],[1596,-1852]],[[66420,55922],[238,-627],[923,-222]],[[67610,55073],[685,-651]],[[68300,54422],[128,0]],[[68434,54422],[64,16]],[[68515,54438],[696,-398]],[[69211,54017],[186,-207]],[[69397,53780],[551,-1140]],[[69559,52333],[-179,-130]],[[70656,50321],[-6,-15]],[[70650,50298],[6,-61]],[[70656,50237],[-139,-54]],[[70517,50183],[-81,-199]],[[70436,49984],[-586,-337]],[[69832,49647],[-122,-107]],[[69687,49540],[-75,-46]],[[69600,49502],[-23,15]],[[69559,49517],[-75,23]],[[69484,49540],[70,-183]],[[69554,49341],[0,-46]],[[69554,49288],[-64,-100]],[[69472,49173],[-220,-122]],[[69246,49043],[-69,-77]],[[69165,48951],[-493,-704]],[[68672,48209],[-53,-1584],[-620,-1309],[162,-1216],[-1311,336],[-203,-581],[-552,268],[64,-735],[-673,153],[197,-566],[-1050,-31],[151,-834],[-696,153],[-905,-3681],[-848,322],[-266,-628],[-146,1408],[-1682,597],[-430,980],[267,229],[41,100],[-1921,-834],[401,964],[-227,796],[-1148,971],[-511,192],[-801,-2005],[-1247,635],[-128,834],[598,926],[-1027,1684],[1172,2555],[499,582],[1416,-880],[1868,2739],[1329,4263],[1056,214],[-24,-903],[581,46],[365,2074],[1509,-107],[203,635],[609,7]],[[64691,57017],[464,382],[1196,-1507]],[[61129,53688],[226,337],[186,-1225],[-587,276]],[[64001,32598],[29,291]],[[64076,32866],[221,-551],[-250,245]],[[65103,53527],[-11,-38]],[[65080,53428],[-29,-54]],[[65039,53374],[-11,-8]],[[65022,53359],[-17,-31]],[[65010,53313],[18,-191]],[[65028,53099],[-360,53],[226,352]],[[64929,53948],[255,-199]],[[65266,53986],[-70,-15]],[[65184,53971],[-75,237]],[[65161,54185],[122,-122]],[[65289,54032],[-6,-15]],[[72049,48331],[232,-336],[23,-329],[-395,512]],[[71556,48997],[574,474],[-116,-1101]],[[59515,50352],[128,520],[284,-620],[-562,-597]],[[62005,46663],[-12,-15]],[[61993,46633],[18,-804],[-929,-742],[163,1438],[-488,85],[627,45],[249,1309],[569,8],[273,1017],[458,-237],[-389,-788]],[[61993,42921],[-6,-505],[-261,-176],[-29,352],[296,329]],[[62678,46181],[-81,306]],[[62631,46594],[644,1186],[499,-99]],[[63815,47681],[691,283],[359,-826]],[[64935,46931],[-6,-15]],[[64790,46862],[-255,-933],[1015,-528],[-2240,-873]],[[63188,44283],[-11,-92]],[[63171,44184],[-23,-1079],[-424,23],[-243,1041],[533,979]],[[62980,45133],[-1039,-1072],[748,1975]],[[65045,45439],[139,99],[-63,84],[-145,-45],[69,-138]],[[64912,45416],[-128,268],[-284,15],[-29,-222],[441,-61]],[[63409,45714],[-23,-130]],[[63380,45554],[-58,-123]],[[63188,45247],[41,-451],[250,1064]],[[59690,42133],[-401,-222],[-133,536],[690,520],[192,-635]],[[64935,46931],[-6,-15]],[[64929,46916],[-139,-54]],[[64790,46862],[-354,253],[429,23]],[[64865,47138],[70,-207]],[[62005,46663],[-12,-15]],[[61993,46648],[0,-15]],[[61993,46633],[-296,589],[847,742]],[[62544,47964],[-539,-1301]],[[59365,49655],[17,260]],[[59376,49915],[6,0]],[[59382,49915],[122,421]],[[59504,50336],[-6,0]],[[59498,50336],[17,16]],[[59515,50352],[-150,-697]],[[72014,48370],[35,-39]],[[72049,48331],[197,-321],[-337,168]],[[71909,48178],[-353,482]],[[71556,48668],[0,-8]],[[71556,48660],[0,337]],[[71556,48997],[458,-627]],[[60038,42332],[-737,92],[389,-291]],[[59690,42133],[348,199]],[[63310,44528],[-122,-245]],[[63188,44283],[-11,-92]],[[63177,44191],[-6,-7]],[[63171,44184],[-418,69],[557,275]],[[65103,53527],[-11,-38]],[[65092,53489],[-12,-61]],[[65080,53428],[-186,76]],[[64894,53504],[35,444]],[[64929,53948],[255,-199]],[[65184,53749],[-81,-222]],[[61129,53688],[-175,-612]],[[60954,53076],[175,612]],[[64076,32866],[-29,-306]],[[64047,32560],[-46,38]],[[64001,32598],[29,291]],[[64030,32889],[46,-23]],[[63479,45860],[-70,-146]],[[63409,45714],[-23,-130]],[[63386,45584],[-6,-30]],[[63380,45554],[-58,-123]],[[63322,45431],[-134,-184]],[[63188,45247],[192,574],[-366,-673]],[[63014,45148],[-34,-15]],[[62980,45133],[-291,903]],[[62689,46036],[-11,145]],[[62678,46181],[-81,306]],[[62597,46487],[34,107]],[[62631,46594],[790,153],[353,934]],[[63774,47681],[41,0]],[[63815,47681],[46,-1951],[-382,130]],[[89781,91796],[1799,-1094],[-1816,-2947],[-1109,-306],[-870,666],[1717,1515],[-841,-382],[551,566],[-435,1071],[1004,911]],[[87559,80034],[0,0]],[[87535,80042],[-11,8]],[[87518,80050],[-337,237],[285,880],[-1033,949],[116,1308],[557,337],[-580,566]],[[86410,84389],[-6,0]],[[86404,84389],[-29,-23]],[[86154,84343],[-34,153]],[[86137,84496],[23,30]],[[86149,84534],[0,38]],[[86154,84572],[6,0]],[[86178,84572],[-24,23]],[[86154,84603],[35,30]],[[86201,84649],[35,46]],[[86212,84679],[-63,-76]],[[86149,84595],[145,184]],[[86410,84878],[58,46]],[[86474,84924],[2338,-7],[1474,2425],[800,-30],[2147,-2457],[540,-3122],[690,-1148],[-1224,942],[-1537,-437],[-685,-642],[-151,-712],[435,-474],[-563,176],[128,-651],[-424,184],[-359,-1186],[-465,252],[-226,-551],[-1851,2556]],[[87541,80042],[-6,0]],[[87535,80042],[-11,8]],[[87524,80050],[-6,0]],[[87518,80050],[244,880],[168,-788],[-389,-100]],[[92409,82866],[0,0]],[[92566,82452],[0,0]],[[91986,84067],[795,-558],[-343,-444],[685,-819],[-1509,1370]],[[89955,91620],[197,-804],[-870,161],[110,245],[563,398]],[[90141,79591],[133,-513],[-563,115],[-17,214],[447,184]],[[86526,84320],[0,0]],[[86526,84327],[-70,77]],[[86456,84404],[6,-8],[-6,0],[0,8]],[[86456,84404],[-11,7]],[[86445,84411],[-6,-7]],[[86439,84404],[-29,-15]],[[86410,84389],[-35,-23]],[[86375,84366],[-41,7]],[[86334,84373],[-11,0]],[[86323,84373],[-12,8]],[[86311,84381],[-12,0]],[[86299,84381],[-133,-38]],[[86166,84343],[-6,0]],[[86160,84343],[-6,0]],[[86154,84343],[-34,153]],[[86120,84496],[17,0]],[[86137,84496],[23,30]],[[86160,84526],[-11,8]],[[86149,84534],[0,38]],[[86149,84572],[5,0]],[[86154,84572],[6,0]],[[86160,84572],[18,0]],[[86178,84572],[-24,23]],[[86154,84595],[0,8]],[[86154,84603],[35,30]],[[86189,84633],[12,16]],[[86201,84649],[35,46]],[[86236,84695],[-24,-16]],[[86212,84679],[-63,-76]],[[86149,84603],[0,-8]],[[86149,84595],[145,184]],[[86294,84779],[116,99]],[[86410,84878],[58,46]],[[86468,84924],[6,0]],[[86474,84924],[580,-107],[-528,-490]],[[89148,84672],[0,7]],[[89148,84679],[-69,352]],[[89079,85024],[0,7]],[[89079,85031],[893,643]],[[89967,85674],[5,0]],[[89972,85674],[209,92]],[[90187,85766],[-6,0]],[[90181,85766],[151,53]],[[90326,85819],[6,0]],[[90332,85819],[35,16]],[[90367,85835],[0,7]],[[90367,85842],[244,-30]],[[90616,85812],[-5,0]],[[90611,85812],[75,-8]],[[90686,85797],[0,7]],[[90686,85804],[41,-7]],[[90727,85789],[0,8]],[[90727,85797],[151,-23]],[[90872,85774],[6,0]],[[90878,85774],[145,-23]],[[91028,85751],[-5,0]],[[91023,85751],[110,-31]],[[91139,85720],[-6,0]],[[91133,85720],[319,-46]],[[91452,85666],[0,8]],[[91452,85674],[139,31]],[[91591,85697],[0,8]],[[91591,85705],[82,-69]],[[91673,85643],[0,-7]],[[91673,85636],[-18,-31]],[[91655,85605],[-6,8],[0,-8],[6,0]],[[91655,85605],[488,-673]],[[92143,84924],[0,8]],[[92143,84932],[203,-184]],[[92346,84741],[0,7]],[[92346,84748],[40,-99]],[[92380,84649],[6,0]],[[92386,84649],[-81,-176]],[[92305,84473],[-6,0]],[[92305,84473],[-6,0]],[[92299,84473],[-75,-161]],[[92224,84312],[0,8],[-6,-8],[6,0]],[[92224,84312],[-238,-245]],[[91986,84067],[-372,-451]],[[91614,83616],[-440,183]],[[91168,83799],[6,0]],[[91174,83799],[-383,-153]],[[90785,83646],[6,0]],[[90791,83646],[-140,0]],[[90657,83646],[-6,0]],[[90651,83646],[-1230,697]],[[89427,84343],[-6,0]],[[89421,84343],[389,-16]],[[89816,84327],[-6,0]],[[89810,84327],[-23,169]],[[89793,84496],[-6,0]],[[89787,84496],[-227,91]],[[89560,84595],[0,-8]],[[89560,84587],[-412,92]],[[63310,35407],[0,-8]],[[63310,35399],[-214,-383]],[[63096,35016],[-29,0]],[[63067,35016],[-291,-313]],[[62776,34703],[6,-8]],[[62782,34695],[-46,-199]],[[62736,34496],[-6,-8]],[[62730,34488],[-609,-1086]],[[62121,33402],[0,-15]],[[62121,33387],[-81,-85]],[[62040,33302],[-12,0]],[[62028,33302],[1451,-2035],[-128,-444]],[[63351,30823],[-6,-8]],[[63345,30815],[-1010,-474],[-162,-1087],[-1300,2235],[-3446,780],[-244,857],[493,406],[-354,582],[638,2303],[-301,589],[632,1676],[-348,536],[696,1989],[1387,207],[186,-1072],[708,-45],[777,-980],[343,-1699],[916,421],[87,-1148],[-980,-436],[1247,-1048]],[[60328,36509],[122,-8]],[[60508,36501],[5,8]],[[60525,36532],[12,7]],[[60641,36501],[41,-38]],[[60728,36333],[-162,-490]],[[60543,35766],[-41,-160]],[[60496,35453],[-23,-207]],[[60484,35055],[-702,-161]],[[59719,34902],[-24,23]],[[59684,34932],[-29,39]],[[59556,35024],[-23,38]],[[59515,35078],[-23,15]],[[59469,35131],[-93,452]],[[59411,35720],[-139,138]],[[59272,35896],[17,146]],[[59295,36050],[6,53]],[[59312,36164],[395,54]],[[59719,36218],[11,23]],[[59864,36302],[-6,23]],[[59858,36333],[-29,84]],[[59800,36463],[209,76]],[[61065,35950],[261,367],[-47,-757]],[[61424,35131],[151,-398],[-284,176]],[[61169,34863],[-360,414]],[[59045,40587],[117,750],[23,-864]],[[60809,35277],[256,673]],[[61065,35950],[214,-390]],[[61279,35560],[145,-429]],[[61424,35131],[-133,-222]],[[61291,34909],[-122,-46]],[[61169,34863],[-360,414]],[[59318,39975],[6,0]],[[59324,39975],[-534,-283],[255,895]],[[59045,40587],[140,-114]],[[59185,40473],[133,-498]],[[59092,39784],[0,0]],[[59782,34894],[-63,8]],[[59719,34902],[-24,23]],[[59695,34925],[-11,7]],[[59684,34932],[-29,39]],[[59655,34971],[-99,53]],[[59556,35024],[-23,38]],[[59533,35062],[-18,16]],[[59515,35078],[-23,15]],[[59492,35093],[-23,38]],[[59469,35131],[482,169],[-314,344],[-284,-482],[23,421]],[[59376,35583],[35,137]],[[59411,35720],[-139,138]],[[59272,35858],[0,38]],[[59272,35896],[17,146]],[[59289,36042],[6,8]],[[59295,36050],[6,53]],[[59301,36103],[11,61]],[[59312,36164],[395,54]],[[59707,36218],[12,0]],[[59719,36218],[11,23]],[[59730,36241],[134,61]],[[59864,36302],[-6,23]],[[59858,36325],[0,8]],[[59858,36333],[-29,84]],[[59829,36417],[-29,46]],[[59800,36463],[209,76]],[[60009,36539],[319,-30]],[[60328,36509],[122,-8]],[[60450,36501],[58,0]],[[60508,36501],[5,8]],[[60513,36509],[12,23]],[[60525,36532],[12,7]],[[60537,36539],[104,-38]],[[60641,36501],[41,-38]],[[60682,36463],[46,-130]],[[60728,36333],[-162,-490]],[[60566,35843],[-23,-77]],[[60543,35766],[-41,-160]],[[60502,35606],[-6,-153]],[[60496,35453],[-23,-207]],[[60473,35246],[11,-191]],[[60484,35055],[-266,390],[-436,-551]],[[65417,53826],[-12,15]],[[65405,53841],[-17,8]],[[65382,53849],[-198,122]],[[65184,53971],[12,0]],[[65196,53971],[41,8]],[[65237,53979],[46,15]],[[67308,53634],[-545,-145]],[[68173,51515],[87,-8]],[[68260,51515],[-52,76]],[[68225,51606],[12,31]],[[68237,51652],[-6,69]],[[67157,52471],[18,-176]],[[67175,52295],[-232,-107]],[[66374,54002],[-104,-199]],[[71973,51752],[-980,-245]],[[67239,51805],[-18,261]],[[67221,52066],[-46,229]],[[67175,52295],[249,0]],[[67436,52073],[-215,-7]],[[70517,50183],[-41,-145]],[[67575,54499],[-46,8]],[[67790,55027],[505,-605]],[[68295,54422],[5,0]],[[68300,54422],[128,0]],[[68428,54422],[6,0]],[[68434,54422],[64,16]],[[68498,54438],[17,0]],[[68515,54438],[511,-459]],[[65283,51798],[-168,972]],[[68126,51737],[-133,-46]],[[67453,53657],[-145,-23]],[[67308,53634],[-522,161]],[[66972,51775],[255,30]],[[67656,52548],[93,-77]],[[64993,54231],[-429,1209],[325,612]],[[70244,52632],[105,-482]],[[70476,50038],[-626,-391]],[[69850,49647],[-18,0]],[[69832,49647],[-122,-107]],[[69710,49540],[-23,0]],[[69687,49540],[-75,-46]],[[69612,49494],[-12,8]],[[69600,49502],[-23,15]],[[69577,49517],[-18,0]],[[69559,49517],[-75,23]],[[70325,50910],[151,-872]],[[66838,50550],[-354,391],[-185,-429]],[[66774,51629],[151,-795]],[[70349,52150],[243,-559]],[[69931,51354],[-122,122]],[[69786,51798],[563,352]],[[67970,52020],[-157,-92]],[[66647,53856],[-273,146]],[[66374,54002],[-52,834]],[[66710,54989],[-208,-69]],[[66565,55639],[186,-467]],[[66844,51691],[-70,-62]],[[66774,51629],[-650,-520]],[[65544,53917],[-35,23]],[[65475,53948],[-64,23]],[[66142,53099],[-296,321]],[[65892,53466],[378,337]],[[66270,53803],[342,-329]],[[65544,53734],[0,183]],[[65544,53917],[64,-7]],[[65916,53894],[-111,-336]],[[67215,54101],[273,-207]],[[67476,53864],[-690,-69]],[[66786,53795],[-139,61]],[[66647,53856],[406,436]],[[70993,51507],[-18,-8]],[[70604,51209],[-12,382]],[[70592,51591],[401,-84]],[[67813,52341],[-35,115]],[[67772,52464],[-23,7]],[[67749,52471],[105,306]],[[67952,52265],[-139,45]],[[66084,52517],[40,77]],[[67627,53550],[-174,107]],[[67453,53657],[23,207]],[[67476,53864],[12,30]],[[67488,53894],[87,605]],[[67575,54499],[395,-605]],[[67970,53894],[-58,-558]],[[67610,53313],[17,237]],[[67627,53550],[343,344]],[[67349,50359],[418,169]],[[67471,49426],[-1132,244],[499,880]],[[66838,50550],[47,77]],[[67964,52816],[-110,-39]],[[67854,52777],[-204,0]],[[67436,52073],[-12,222]],[[67424,52295],[12,207]],[[67540,52509],[47,-168]],[[65492,52892],[87,-184]],[[65463,52647],[-348,123]],[[65115,52770],[93,214]],[[67540,52081],[23,99]],[[67598,52242],[-11,99]],[[67587,52341],[226,0]],[[67813,52341],[0,-31]],[[67813,52310],[6,-15]],[[67743,52288],[0,-16]],[[67743,52257],[29,-161]],[[67679,52096],[93,0]],[[67772,52096],[41,-168]],[[67813,51928],[17,-260]],[[67761,50550],[-192,-122]],[[67256,50543],[-371,84]],[[66885,50627],[40,207]],[[66925,50834],[395,344]],[[65283,53994],[6,38]],[[65289,54040],[-128,145]],[[65138,54201],[-29,7]],[[65109,54208],[-116,23]],[[64993,54231],[255,69]],[[65480,54300],[-69,-329]],[[65411,53971],[0,-8]],[[65376,53971],[-93,23]],[[66803,52571],[-5,-176]],[[66763,52395],[-6,0]],[[66687,52395],[-35,-85]],[[66484,52387],[-360,207]],[[66124,52594],[76,130]],[[66403,53091],[29,54]],[[66449,52999],[35,-76],[64,38],[-29,61],[-70,-23]],[[68004,52486],[-40,330]],[[67964,52816],[40,91]],[[67883,53290],[29,46]],[[67912,53336],[1114,643]],[[69026,53979],[185,61]],[[69211,54040],[0,-23]],[[69211,54017],[186,-207]],[[69397,53810],[0,-30]],[[69397,53780],[12,-406]],[[65869,54912],[-226,31]],[[68196,51729],[-70,8]],[[68126,51737],[-156,283]],[[67970,52020],[-18,245]],[[67952,52265],[52,221]],[[68004,52486],[204,-176]],[[65318,57001],[818,-941]],[[67650,52617],[6,-69]],[[67656,52548],[-116,-39]],[[67540,52509],[-104,-7]],[[67436,52502],[-279,-31]],[[67650,52854],[0,-77]],[[67650,52777],[-278,-7]],[[66914,52670],[-99,268]],[[67064,52770],[12,-16]],[[70517,50183],[133,115]],[[70650,50298],[0,8]],[[70650,50306],[6,15]],[[70656,50321],[-220,528]],[[70674,51193],[301,306]],[[70975,51499],[569,-1155]],[[71544,50344],[0,-23]],[[71544,50321],[-1027,-138]],[[67581,55073],[29,0]],[[67610,55073],[180,-46]],[[67790,55027],[-261,-505]],[[66769,55104],[-18,68]],[[66751,55172],[830,-99]],[[66403,53091],[-203,-367]],[[66200,52724],[-58,375]],[[66142,53099],[261,-8]],[[67447,51178],[-127,0]],[[67529,54522],[0,-15]],[[67529,54507],[-314,-406]],[[67215,54101],[-162,191]],[[67053,54292],[-343,697]],[[66710,54989],[59,115]],[[66769,55104],[760,-582]],[[71973,51752],[-1729,880]],[[70244,52632],[-296,8]],[[69948,52640],[-383,-314]],[[69368,52494],[41,880]],[[69409,53374],[1555,1500],[145,-1599],[1004,-414],[-140,-1109]],[[66652,52310],[291,-122]],[[66943,52188],[-35,-92]],[[66914,52073],[23,-30]],[[66943,52020],[29,-245]],[[66972,51775],[-128,-84]],[[66844,51691],[-702,298]],[[66171,52150],[313,237]],[[66484,52387],[168,-77]],[[65173,55861],[-284,191]],[[64889,56052],[-198,926]],[[64691,56978],[0,39]],[[64691,57017],[325,405],[302,-421]],[[65318,57001],[-18,-757]],[[67134,52770],[-70,0]],[[67064,52770],[-249,168]],[[66815,52938],[-296,176]],[[66763,53489],[464,-191]],[[67279,53236],[-139,-466]],[[69368,52494],[191,-161]],[[69559,52333],[6,-7]],[[69565,52326],[105,-260]],[[69211,52089],[-214,-169]],[[69159,52464],[209,30]],[[68956,52165],[41,-245]],[[68997,51920],[-766,-199]],[[68231,51721],[-35,8]],[[68196,51729],[17,153]],[[69159,52464],[-400,-85]],[[68585,52364],[226,643],[348,-543]],[[67569,50428],[-220,-69]],[[67349,50359],[-93,184]],[[67256,50543],[313,-115]],[[65852,54598],[17,314]],[[65869,54912],[0,8]],[[66049,54667],[-203,-183]],[[66803,52609],[111,61]],[[66914,52670],[162,84]],[[67076,52754],[81,-283]],[[67157,52471],[-354,138]],[[69786,51798],[23,-322]],[[69809,51476],[-418,-130]],[[69217,51629],[-6,460]],[[69211,52089],[169,114]],[[69380,52203],[290,-137]],[[69670,52066],[116,-268]],[[69513,47474],[-174,-214],[-395,184],[35,114],[534,-84]],[[68213,49265],[-742,161]],[[67471,49426],[-6,413],[806,-100]],[[69159,50091],[325,-551]],[[69484,49540],[70,-183]],[[69554,49357],[0,-16]],[[69554,49341],[0,-46]],[[69554,49295],[0,-7]],[[69554,49288],[-64,-100]],[[69490,49188],[-18,-15]],[[69472,49173],[-220,-122]],[[69252,49051],[-6,-8]],[[69246,49043],[-69,-77]],[[69177,48966],[-12,-15]],[[69165,48951],[853,352],[29,-1018],[-1375,-76]],[[68672,48209],[0,38]],[[68672,48247],[-459,1018]],[[68213,49265],[58,474]],[[68271,49739],[488,-30],[-766,834]],[[65248,54300],[99,390]],[[65562,54629],[81,-23]],[[65596,54445],[-116,-145]],[[65480,54300],[-232,0]],[[65805,53558],[87,-92]],[[65892,53466],[-46,-46]],[[65846,53420],[-354,-528]],[[65492,52892],[-284,92]],[[65208,52984],[-180,115]],[[65028,53099],[0,23]],[[65028,53122],[-18,191]],[[65010,53313],[-5,15]],[[65005,53328],[17,31]],[[65022,53359],[6,7]],[[65028,53366],[11,8]],[[65039,53374],[12,0]],[[65051,53374],[325,390]],[[65399,53787],[18,23]],[[65417,53810],[127,-76]],[[65544,53734],[261,-176]],[[65434,51507],[-151,291]],[[65283,51798],[180,61]],[[67650,52930],[-197,107]],[[67610,53290],[273,0]],[[67883,53290],[586,-15],[-465,-368]],[[68004,52907],[-58,23]],[[67912,52930],[-262,0]],[[67610,53290],[-157,-253]],[[67453,53037],[-174,199]],[[67279,53236],[-6,8]],[[67273,53244],[337,69]],[[67610,53313],[0,-23]],[[67679,51339],[-23,38]],[[67656,51400],[12,46]],[[67709,51683],[121,-15]],[[67830,51668],[163,23]],[[67993,51691],[17,-169]],[[67709,51683],[-64,8]],[[67436,51752],[23,84]],[[67447,51951],[-11,122]],[[67436,52073],[104,8]],[[67540,52081],[139,15]],[[67679,52096],[30,-413]],[[70604,51209],[70,-16]],[[70674,51193],[-238,-344]],[[70436,50849],[-111,61]],[[70325,50910],[-394,444]],[[69931,51354],[673,-145]],[[66142,51989],[11,-237]],[[66148,52027],[-6,-38]],[[67349,51346],[-23,-168]],[[67320,51178],[-93,459]],[[67227,51645],[6,115]],[[67227,51760],[0,45]],[[67227,51805],[12,0]],[[67239,51805],[197,-53]],[[67424,51492],[-75,-130]],[[66049,54667],[-180,253]],[[65869,54920],[-226,23]],[[65643,54943],[-81,-314]],[[65562,54629],[-215,61]],[[65347,54690],[-174,1171]],[[65173,55861],[127,383]],[[65300,56244],[836,-184]],[[66136,56060],[215,-168]],[[66351,55892],[69,30]],[[66420,55922],[145,-283]],[[66565,55639],[-63,-719]],[[66502,54920],[-180,-84]],[[66322,54836],[-273,-169]],[[65916,53894],[-308,16]],[[65608,53910],[-12,535]],[[65596,54445],[47,161]],[[65643,54606],[209,-8]],[[65852,54598],[-6,-114]],[[65846,54484],[-6,-62]],[[65840,54361],[-6,-69]],[[65834,54277],[-5,-69]],[[65829,54170],[87,-276]],[[66299,50512],[-215,559]],[[65829,50665],[470,-153]],[[69391,51346],[-232,-1255]],[[69159,50091],[-1166,452]],[[67993,50543],[-226,-15]],[[67767,50528],[-6,22]],[[67761,50550],[-441,628]],[[67320,51178],[6,0]],[[67447,51178],[64,-8]],[[67511,51178],[6,46]],[[67517,51247],[145,-8]],[[67674,51239],[11,0]],[[67685,51247],[-6,92]],[[67679,51339],[331,183]],[[68010,51522],[163,-7]],[[68173,51515],[261,-375],[783,489]],[[69217,51629],[174,-283]],[[67668,51446],[-244,46]],[[67424,51492],[12,260]],[[67436,51752],[209,-61]],[[67645,51691],[23,-245]],[[68759,52379],[197,-214]],[[68956,52165],[-528,-107]],[[68469,52234],[116,130]],[[68585,52364],[174,15]],[[68213,51882],[-5,428]],[[68208,52310],[261,-76]],[[68469,52234],[-41,-176]],[[68428,52058],[-215,-176]],[[66699,53190],[-180,-76]],[[66519,53114],[-87,31]],[[66432,53145],[180,329]],[[66612,53474],[151,15]],[[66763,53489],[-35,-245]],[[66124,51109],[-40,-38]],[[66084,51071],[-255,-406]],[[65829,50665],[-337,-38],[128,681]],[[65985,51805],[168,-53]],[[66153,51752],[-29,-643]],[[65985,51805],[-365,-497]],[[65620,51308],[-186,199]],[[65434,51507],[29,352]],[[65463,51859],[0,788]],[[65463,52647],[116,61]],[[65579,52708],[505,-191]],[[66084,52517],[87,-367]],[[66171,52150],[-23,-123]],[[66148,52027],[-163,-222]],[[68260,51515],[0,-8]],[[68260,51507],[-87,8]],[[68173,51515],[64,137]],[[68237,51652],[0,-15]],[[68237,51637],[-12,-31]],[[68225,51606],[-17,-15]],[[68208,51591],[52,-76]],[[68010,51522],[-354,-122]],[[67656,51400],[0,-23]],[[67656,51377],[29,-130]],[[67685,51247],[0,-8]],[[67685,51239],[-11,0]],[[67674,51239],[-12,0]],[[67662,51239],[-145,8]],[[67517,51247],[0,-23]],[[67517,51224],[-6,-46]],[[67511,51178],[0,-8]],[[67511,51170],[-64,8]],[[67447,51178],[-121,0]],[[67326,51178],[23,168]],[[67349,51346],[0,16]],[[67349,51362],[-122,275]],[[67227,51637],[0,8]],[[67227,51645],[0,115]],[[67227,51760],[6,0]],[[67233,51760],[777,-238]],[[66124,53596],[-46,-107],[-215,130],[122,122],[139,-145]],[[67227,53298],[46,-54]],[[67273,53244],[377,-390]],[[67650,52854],[0,76]],[[67650,52930],[262,0]],[[67912,52930],[34,0]],[[67946,52930],[-17,-313]],[[67929,52609],[-87,-291]],[[67848,52303],[249,-559],[-638,92]],[[67459,51836],[-12,115]],[[67447,51951],[-226,115]],[[67221,52066],[-313,30]],[[66908,52096],[6,-23]],[[66914,52073],[23,-30]],[[66937,52043],[6,-23]],[[66943,52020],[-256,375]],[[66687,52395],[70,0]],[[66757,52395],[6,0]],[[66763,52395],[35,0]],[[66798,52395],[-395,696]],[[66403,53091],[-110,819],[934,-612]],[[65596,54445],[244,-23]],[[65840,54422],[0,-61]],[[65840,54361],[-6,-69]],[[65834,54292],[0,-15]],[[65834,54277],[-5,-69]],[[65829,54208],[0,-38]],[[65829,54170],[-279,-811],[-174,405]],[[65376,53764],[23,23]],[[65399,53787],[18,23]],[[65417,53810],[-12,31]],[[65393,53841],[-5,8]],[[65388,53849],[-6,0]],[[65382,53849],[-12,-8]],[[65347,53841],[-52,31]],[[65248,53872],[-17,7]],[[65237,53979],[29,7]],[[65266,53986],[17,31]],[[65283,54017],[6,15]],[[65289,54032],[0,8]],[[65289,54040],[-6,15]],[[65283,54055],[-122,130]],[[65161,54185],[-23,16]],[[65138,54201],[424,428]],[[65562,54629],[34,-184]],[[67941,52640],[0,-8],[-12,-8],[12,16]],[[67848,52303],[-6,15]],[[67842,52318],[6,-15]],[[67929,52617],[0,-8]],[[67929,52609],[0,8]],[[66728,53244],[-29,-54]],[[66699,53190],[-377,230],[406,-176]],[[65475,53948],[34,-8]],[[65509,53940],[-92,-130]],[[65417,53810],[0,16]],[[65417,53826],[-12,15]],[[65405,53841],[-12,0]],[[65393,53841],[-23,0]],[[65370,53841],[-23,0]],[[65347,53841],[-52,31]],[[65295,53872],[-47,0]],[[65248,53872],[-17,7]],[[65231,53879],[6,100]],[[65237,53979],[46,15]],[[65283,53994],[0,61]],[[65283,54055],[0,8]],[[65283,54063],[93,-92]],[[65376,53971],[35,-8]],[[65411,53963],[64,-15]],[[67819,52295],[-76,-7]],[[67743,52288],[0,-16]],[[67743,52272],[0,-15]],[[67743,52257],[-145,-15]],[[67598,52242],[-35,-62]],[[67563,52180],[-139,115]],[[67424,52295],[-621,276]],[[66803,52571],[0,38]],[[66803,52609],[273,145]],[[67076,52754],[58,16]],[[67134,52770],[6,0]],[[67140,52770],[232,0]],[[67372,52770],[278,7]],[[67650,52777],[0,-160]],[[67650,52617],[6,-69]],[[67656,52548],[116,-84]],[[67772,52464],[6,-8]],[[67778,52456],[41,-161]],[[65724,66582],[52,38]],[[65776,66620],[290,38]],[[66066,66658],[64,-30]],[[66130,66628],[157,46]],[[66287,66674],[29,15]],[[66316,66689],[354,153]],[[66670,66842],[11,8]],[[66681,66850],[58,30]],[[66739,66880],[35,16]],[[66774,66896],[105,53]],[[66879,66949],[35,15]],[[66914,66964],[40,123]],[[66954,67087],[29,130]],[[66983,67217],[12,38]],[[66995,67255],[29,38]],[[67024,67293],[40,352]],[[67064,67645],[6,16]],[[67070,67661],[639,138]],[[67709,67799],[23,122]],[[67732,67921],[284,92]],[[68016,68013],[23,7]],[[68039,68020],[35,-91]],[[68074,67929],[6,-8]],[[68080,67921],[87,-23]],[[68167,67898],[-12,-38]],[[68155,67860],[-127,-360]],[[68028,67500],[-6,-15]],[[68022,67485],[-64,-153]],[[67958,67332],[-12,-31]],[[67946,67301],[12,8]],[[67958,67309],[12,23]],[[67970,67332],[29,-69]],[[67999,67263],[11,-23]],[[68010,67240],[6,-31]],[[68016,67209],[12,-15]],[[68028,67194],[162,-15]],[[68190,67179],[99,-8]],[[68289,67171],[168,-15]],[[68457,67156],[70,-23]],[[68527,67133],[151,-8]],[[68678,67125],[0,-46]],[[68678,67079],[46,-76]],[[68724,67003],[99,-138]],[[68823,66865],[23,-31]],[[68846,66834],[17,16]],[[68863,66850],[81,61]],[[68944,66911],[6,-38]],[[68950,66873],[18,-613]],[[68968,66260],[17,-76]],[[68985,66184],[35,-459]],[[69020,65725],[40,-31]],[[69060,65694],[88,8]],[[69148,65702],[11,38]],[[69159,65740],[105,8]],[[69264,65748],[34,7]],[[69298,65755],[-5,31]],[[69293,65786],[40,-8]],[[69333,65778],[58,16]],[[69391,65794],[6,-16]],[[69397,65778],[191,161]],[[69588,65939],[64,23]],[[69652,65962],[192,69]],[[69844,66031],[29,76]],[[69873,66107],[23,62]],[[69896,66169],[6,15]],[[69902,66184],[174,-153]],[[70076,66031],[23,-46]],[[70099,65985],[-6,-145]],[[70093,65840],[-6,-39]],[[70087,65801],[-23,-229]],[[70064,65572],[-11,-39]],[[70053,65533],[-6,-160]],[[70047,65373],[-6,-61]],[[70041,65312],[-12,-85]],[[70029,65227],[-92,8]],[[69937,65235],[-29,-153]],[[69908,65082],[-6,-15]],[[69902,65067],[-41,-16]],[[69861,65051],[-11,-46]],[[69850,65005],[371,-214]],[[70221,64791],[17,8]],[[70238,64799],[261,-69]],[[70499,64730],[-29,-38]],[[70470,64692],[47,-54]],[[70517,64638],[-64,-107]],[[70453,64531],[17,-31]],[[70470,64500],[6,-15]],[[70476,64485],[76,-184]],[[70552,64301],[5,-45]],[[70557,64256],[12,-69]],[[70569,64187],[-209,-23]],[[70360,64164],[-116,-31]],[[70244,64133],[-104,-38]],[[70140,64095],[-1236,-2166]],[[68004,61914],[-545,245],[696,-1867],[-3487,-513],[-1822,-1140],[-1062,2747],[-783,574],[969,1186],[-1190,742],[163,2204]],[[60943,66092],[6,31]],[[60949,66123],[34,53]],[[60983,66176],[117,146]],[[61100,66322],[11,30]],[[61111,66352],[0,31]],[[61111,66383],[29,61]],[[61140,66444],[64,130]],[[61204,66574],[12,23]],[[61216,66597],[-6,31]],[[61210,66628],[11,15]],[[61221,66643],[-11,138]],[[61210,66781],[6,7]],[[61216,66788],[174,161]],[[61390,66949],[23,31]],[[61413,66980],[412,-138]],[[61825,66842],[75,-15]],[[61900,66827],[169,-54]],[[62069,66773],[116,-38]],[[62185,66735],[203,-61]],[[62388,66674],[17,7]],[[62405,66681],[696,-222]],[[63101,66459],[53,-53]],[[63154,66406],[388,-161]],[[63542,66245],[145,-30]],[[63687,66215],[151,7]],[[63838,66222],[18,-7]],[[63856,66215],[145,-69]],[[64001,66146],[139,0]],[[64140,66146],[99,-54]],[[64239,66092],[40,61]],[[64279,66153],[157,184]],[[64436,66337],[70,38]],[[64506,66375],[34,23]],[[64540,66398],[70,23]],[[64610,66421],[133,54]],[[64743,66475],[24,15]],[[64767,66490],[162,15]],[[64929,66505],[174,31]],[[65103,66536],[250,61]],[[65353,66597],[11,-8]],[[65364,66589],[47,-30]],[[65411,66559],[11,-31]],[[65422,66528],[302,54]],[[64836,65105],[41,-153],[-342,-276],[75,215],[226,214]],[[67488,63215],[650,184]],[[67476,62572],[-783,-505],[487,849]],[[67227,63024],[-99,382]],[[62846,59481],[-389,849],[488,-31],[-82,414],[737,-605],[-539,-421]],[[68904,61929],[-319,-298]],[[68074,61784],[-70,130]],[[68004,61914],[-266,673],[1166,-658]],[[64981,65059],[64,436]],[[65028,65633],[209,46]],[[65393,65526],[70,-337]],[[65573,64738],[-389,-536]],[[65005,63888],[-459,-895],[81,1484]],[[64755,64370],[-52,-183]],[[63061,59687],[-215,-206]],[[62846,59481],[-267,566],[424,275],[58,-635]],[[68074,61784],[511,-153]],[[68585,61631],[-511,153]],[[67128,63406],[360,-191]],[[67488,63215],[650,184]],[[68138,63399],[46,-666],[-708,-161]],[[67476,62572],[-296,344]],[[67180,62916],[47,108]],[[67227,63024],[-99,382]],[[65184,64202],[-179,-314]],[[65005,63888],[-302,299]],[[64703,64187],[464,176],[-412,7]],[[64755,64370],[-128,107]],[[64627,64477],[354,582]],[[64981,65059],[319,69],[-255,367]],[[65045,65495],[-17,138]],[[65028,65633],[209,46]],[[65237,65679],[156,-153]],[[65393,65526],[70,-337]],[[65463,65189],[110,-451]],[[65573,64738],[-389,-536]],[[5530,15496],[23,7]],[[5559,15503],[87,23]],[[5669,15534],[23,8]],[[5698,15542],[29,15]],[[5773,15565],[64,15]],[[5860,15580],[12,8]],[[5884,15588],[5,7]],[[5924,15595],[174,46]],[[6104,15641],[23,8]],[[6145,15649],[6,7]],[[6174,15656],[104,31]],[[6284,15687],[6,8]],[[6301,15695],[111,30]],[[6423,15725],[6,8]],[[6470,15741],[2646,1010],[3939,3061]],[[13073,19819],[197,100]],[[13276,19919],[17,15]],[[13311,19942],[1027,880],[522,-1133],[1747,-405],[-117,-1516],[-499,375],[-348,-398],[395,-1522],[-1329,130],[23,528],[-330,-329],[-801,704],[-1375,-880],[-476,788],[-464,-383],[122,658],[-691,613],[-1480,-1355],[1788,-2395],[-534,-742],[-1294,1239],[-1282,-38],[-320,-1132],[424,-483],[-458,-183],[-82,-1255],[-539,-543],[-1346,627],[-29,1255],[-790,880],[-435,-1844],[-1189,-15],[-586,-827],[-505,268],[-232,-696],[-1805,841],[598,1714],[4897,2128]],[[3429,14317],[604,528],[319,-612],[-981,-222],[58,306]],[[13055,19812],[18,7]],[[13073,19819],[197,100]],[[13270,19919],[6,0]],[[13276,19919],[17,15]],[[13293,19934],[18,8]],[[13311,19942],[168,-521],[-424,391]],[[5518,15496],[12,0]],[[5530,15496],[23,7]],[[5553,15503],[6,0]],[[5559,15503],[87,23]],[[5669,15534],[29,8]],[[5773,15565],[76,15]],[[5884,15588],[5,7]],[[5889,15595],[6,0]],[[5924,15595],[174,46]],[[6098,15641],[6,0]],[[6133,15649],[12,0]],[[6145,15649],[6,7]],[[6278,15687],[6,0]],[[6284,15687],[6,8]],[[6290,15695],[11,0]],[[6301,15695],[111,30]],[[6412,15725],[11,0]],[[6423,15725],[6,8]],[[6429,15733],[41,8]],[[6470,15741],[661,191],[145,-444],[-1503,-597],[-255,605]],[[5646,15526],[23,8]],[[5669,15534],[23,8]],[[5692,15542],[6,0]],[[5698,15542],[29,15]],[[5727,15557],[46,8]],[[5773,15565],[64,15]],[[5837,15580],[12,0]],[[5849,15580],[11,0]],[[5860,15580],[12,8]],[[5872,15588],[12,0]],[[5884,15588],[11,7]],[[5895,15595],[29,0]],[[5924,15595],[180,46]],[[6104,15641],[23,8]],[[6127,15649],[6,0]],[[6133,15649],[18,7]],[[6151,15656],[23,0]],[[6174,15656],[104,31]],[[6278,15687],[145,-451],[-534,-215],[-243,505]],[[26784,16965],[702,245]],[[27498,17210],[505,122]],[[28020,17332],[-261,-260],[354,0]],[[28142,17072],[243,-76]],[[28409,16996],[17,7]],[[28455,17003],[6,237]],[[28438,17240],[354,-551]],[[28797,16689],[320,-183]],[[29169,16445],[6,-8]],[[29192,16422],[6,-8]],[[29233,16391],[11,15]],[[29244,16406],[18,16]],[[29296,16422],[24,-23]],[[29331,16391],[18,406]],[[29349,16812],[272,145]],[[29621,16942],[70,107]],[[29708,17041],[18,8]],[[29749,17041],[279,-84]],[[30033,16957],[169,-995],[-650,-160],[917,-582],[-233,-650],[639,-1982],[-464,-15],[46,-643],[-1201,-490],[-731,-1163],[-366,979],[406,1523],[-708,-23],[-516,-1079],[-1317,-1262],[899,1117],[-162,627],[-2234,-1637],[157,1377],[-859,1186],[1300,765],[104,888],[1630,804],[-127,1423]],[[27440,7775],[81,-115],[110,-222],[12,-84],[-441,-559],[98,-1079],[1811,-696],[-586,-3275],[-2101,375],[-563,-1041],[-2019,-926],[-3156,398],[-668,-551],[250,1599],[2808,291],[-1218,857],[1247,291],[-1514,742],[644,628],[-186,773],[1474,405],[470,1347],[3447,842]],[[29082,13613],[104,-1209],[-174,850],[-1102,122],[841,1408],[-99,-490],[465,-84],[116,643],[-163,-1133]],[[29117,16506],[52,-61]],[[29169,16445],[6,-8]],[[29175,16437],[17,-15]],[[29192,16422],[6,-8]],[[29198,16414],[35,-23]],[[29233,16391],[5,8]],[[29244,16406],[18,16]],[[29262,16422],[5,7]],[[29285,16429],[11,-7]],[[29296,16422],[24,-23]],[[29320,16399],[11,-8]],[[29331,16391],[232,23],[-272,-1117],[-174,1209]],[[29070,13720],[12,-107]],[[29082,13613],[-697,-115],[-69,513],[801,207],[-47,-498]],[[77770,66949],[6,46]],[[77776,67018],[156,153]],[[77956,67179],[365,321]],[[78327,67515],[17,39]],[[78344,67554],[6,0]],[[78350,67554],[302,566]],[[78652,68120],[11,0]],[[78663,68120],[41,8]],[[78704,68128],[18,0]],[[78722,68128],[214,45]],[[78936,68173],[12,0]],[[78948,68173],[319,39]],[[79267,68212],[17,7]],[[79284,68219],[180,77]],[[79464,68296],[6,0]],[[79470,68296],[145,107]],[[79615,68403],[12,0]],[[79627,68403],[168,436]],[[79795,68839],[6,0]],[[79801,68839],[29,-15]],[[79830,68824],[17,0]],[[79847,68824],[87,-23]],[[79934,68801],[6,0]],[[79940,68801],[52,69]],[[79992,68870],[-11,0]],[[79981,68870],[-169,183]],[[79812,69053],[0,16]],[[79812,69069],[6,23]],[[79818,69092],[6,15]],[[79824,69107],[145,237]],[[79969,69344],[0,8]],[[79969,69352],[70,191]],[[80039,69543],[5,0]],[[80044,69543],[24,-7]],[[80068,69536],[11,0]],[[80079,69536],[267,68]],[[80346,69604],[23,0]],[[80369,69604],[105,-53]],[[80474,69551],[6,0]],[[80480,69551],[69,528]],[[80549,70079],[0,15]],[[80549,70094],[-17,61]],[[80532,70155],[-6,8]],[[80526,70163],[168,314]],[[80694,70477],[12,0]],[[80706,70477],[168,92]],[[80874,70569],[52,0]],[[80926,70569],[2113,887],[1589,-949],[465,-1614],[1827,138],[2513,-903],[-563,-873],[-2785,-773],[319,-926],[-609,-757],[232,-543],[-1329,-31],[290,-1967],[-1578,-1576],[-1114,-253],[-406,-1469],[-1022,-23],[-1212,3551],[-1143,-605],[-407,391],[273,497],[-626,1255],[446,1477],[-731,788],[302,650]],[[81106,70377],[0,8]],[[81106,70385],[-29,31]],[[81077,70416],[-17,0]],[[81060,70416],[46,-39]],[[82946,65097],[-1219,-444],[-93,460],[592,222]],[[82319,65625],[75,0]],[[82394,65587],[58,-245]],[[82505,65227],[800,383],[-237,-421]],[[82110,69367],[157,490],[423,-566]],[[82824,69015],[313,-298]],[[83131,68525],[192,-382],[-638,-322]],[[82325,67967],[-366,995]],[[81959,68962],[151,405]],[[82110,69367],[580,-76]],[[82690,69291],[134,-276]],[[82824,69015],[313,-298]],[[83137,68717],[-6,-192]],[[83131,68525],[-423,176],[-23,-880]],[[82685,67821],[-360,146]],[[82325,67967],[-366,995]],[[82946,65097],[-702,-352],[-18,590]],[[82226,65335],[93,290]],[[82319,65625],[75,0]],[[82394,65625],[0,-38]],[[82394,65587],[58,-245]],[[82452,65342],[53,-115]],[[82505,65227],[563,-38]],[[83068,65189],[-122,-92]],[[30033,16957],[-5,0]],[[30028,16957],[-279,84]],[[29749,17041],[-23,8]],[[29726,17049],[-18,-8]],[[29708,17041],[-17,8]],[[29691,17049],[-70,-107]],[[29621,16942],[0,15]],[[29621,16957],[-272,-145]],[[29349,16812],[0,-15]],[[29349,16797],[-29,-398]],[[29320,16399],[-24,23]],[[29296,16422],[-11,7]],[[29285,16429],[-18,0]],[[29267,16429],[-23,-23]],[[29244,16406],[-6,-7]],[[29238,16399],[-441,290]],[[28797,16689],[-5,0]],[[28792,16689],[-354,551]],[[28438,17240],[23,0]],[[28461,17240],[-6,-237]],[[28455,17003],[-29,0]],[[28426,17003],[-17,-7]],[[28409,16996],[-24,0]],[[28385,16996],[-243,76]],[[28142,17072],[-29,0]],[[28113,17072],[-348,38],[255,222]],[[28020,17332],[-17,0]],[[28003,17332],[-505,-122]],[[27498,17210],[-12,0]],[[27486,17210],[-702,-245]],[[26784,16965],[-52,0]],[[26732,16965],[-621,459],[-1764,-735],[313,-1201],[-284,-168],[-1335,2456],[-632,-956],[-1114,321],[-151,-888],[-975,1929],[894,3596],[-1428,3367],[3232,-803],[3876,673],[2060,1071],[-133,513],[1543,689],[4016,3780],[278,-934],[1340,-61],[-388,-803],[-232,275],[46,-1423],[-1973,53],[-2292,-1079],[725,-1714],[1956,322],[1352,-1339],[35,-551],[-1416,849],[-93,-888],[-847,-168],[400,-803],[-702,-207],[302,-298],[-313,-1500],[3028,-2350],[-63,-757],[-1846,520],[-423,796],[-99,-536],[-1056,-68],[134,-628],[-1851,865],[-198,-1684]],[[30434,21419],[98,-299],[-644,199],[256,-46],[290,146]],[[29668,21441],[435,-849],[75,-826],[-522,168],[12,1507]],[[29308,21135],[12,-46]],[[29325,21074],[24,-1324],[-621,-313]],[[28716,19414],[6,-8]],[[28612,19299],[-6,-107]],[[28606,19123],[122,-436],[244,413],[-192,-1125],[-1033,283],[482,176]],[[28229,18449],[180,131]],[[28414,18580],[24,520]],[[28432,19100],[-1062,-130],[406,872],[-360,-38],[-377,1607],[952,329],[-139,757],[-534,-420],[-110,558],[940,337],[-111,-497],[1259,-1317]],[[27776,20561],[12,85]],[[27782,20661],[6,31]],[[27788,20699],[-12,-168]],[[27405,20401],[40,-8],[-34,-61],[0,-54],[-6,123]],[[27486,20317],[12,15],[-6,8],[0,-8],[-6,-15]],[[28931,20110],[-6,-38]],[[28925,20049],[-12,-77]],[[28913,19957],[-5,-46]],[[28902,19888],[-18,-38]],[[28879,19842],[58,-30]],[[29018,19812],[12,7]],[[29070,19819],[6,8]],[[29088,19827],[58,23]],[[29169,19857],[17,8]],[[29192,19865],[-261,253]],[[27973,19681],[-377,-306],[64,-130],[308,176],[5,260]],[[28014,21518],[-139,-69],[180,-191],[35,92],[-76,168]],[[27208,21097],[5,8],[-5,0],[0,-8]],[[27010,20990],[12,0],[-18,15],[6,-7],[0,-8]],[[28972,23309],[-12,23]],[[28966,23339],[64,31]],[[29070,23393],[76,46]],[[29157,23446],[29,-91]],[[29180,23324],[-5,-8]],[[29175,23309],[-12,-8]],[[29157,23293],[-6,-7]],[[29146,23278],[-6,-15]],[[29140,23255],[243,-574],[-411,605]],[[29540,25007],[342,199],[494,-38],[-343,-543],[-493,382]],[[29001,24028],[40,-161]],[[29047,23852],[23,-84]],[[29070,23760],[70,-191]],[[29146,23553],[5,-22]],[[29157,23515],[-116,-76]],[[29035,23439],[-87,-54]],[[28942,23377],[-208,-114]],[[28693,23247],[-226,-107]],[[28461,23293],[-23,169]],[[28432,23492],[-18,77]],[[28420,23592],[145,229]],[[28560,23829],[-64,99]],[[28490,23944],[35,1721],[1178,69],[-708,-1706]],[[29076,25505],[278,160],[-713,-68],[23,-245],[412,153]],[[28414,24893],[-23,-69]],[[28333,24770],[-69,-61]],[[28188,24694],[-719,-437],[162,-619],[430,566],[-18,-941]],[[28037,23240],[-1363,-337],[330,1416],[-586,497],[819,367]],[[27254,25191],[360,199]],[[27637,25421],[661,466],[99,-642]],[[28397,25183],[12,-176]],[[27022,24862],[0,-8],[6,8],[-6,8],[0,-8]],[[27057,24770],[11,-23],[-5,38],[-18,23],[12,-38]],[[27080,24755],[0,-15],[6,0],[0,15],[-6,0]],[[27086,24724],[0,0]],[[26900,24678],[-23,0],[0,-15],[52,8],[-29,7]],[[26958,24663],[0,-15],[23,-16],[-6,0],[-17,16],[0,15]],[[26883,24564],[17,7],[-23,54],[-29,-31],[35,-30]],[[29151,26377],[-348,-666],[-272,0],[-204,467],[824,199]],[[31803,28451],[-284,-559],[452,360],[128,-344],[-859,-238],[-1503,-1714],[1173,107],[23,-298],[-1503,31],[191,987],[2182,1668]],[[32308,28627],[0,0]],[[32314,28635],[0,0]],[[32320,28635],[0,0]],[[32331,28642],[0,0]],[[32337,28650],[0,0]],[[32343,28658],[0,0]],[[33167,29109],[-180,-115],[-58,84],[122,100],[116,-69]],[[34205,29851],[-93,39],[24,122],[98,-77],[-29,-84]],[[32668,29346],[17,16]],[[32691,29400],[75,92]],[[32795,29492],[12,7]],[[32819,29507],[-12,15]],[[32871,29568],[52,23]],[[32998,29622],[35,38]],[[33033,29668],[29,23]],[[33132,29736],[35,39]],[[33184,29798],[41,46]],[[33236,29851],[6,8]],[[33271,29882],[6,15]],[[33289,29905],[17,15]],[[33312,29928],[6,7]],[[33341,29958],[6,8]],[[33381,29981],[12,23]],[[33434,30081],[11,15]],[[33445,30104],[18,30]],[[33474,30165],[35,61]],[[33521,30242],[29,38]],[[33561,30310],[18,23]],[[33590,30379],[116,107]],[[33724,30463],[104,100]],[[33834,30555],[23,-46]],[[33944,30525],[52,7]],[[34130,30471],[-18,-15]],[[34095,30433],[-325,-360]],[[33782,30073],[11,-7]],[[33811,30058],[220,-314],[-447,-314],[82,383]],[[33608,29805],[-35,-46]],[[33567,29759],[-128,-145]],[[33434,29606],[-18,-15]],[[33381,29553],[-5,-8]],[[33370,29545],[-12,-15]],[[33341,29507],[-116,-123]],[[33213,29377],[6,-8]],[[33230,29369],[12,-7]],[[33254,29362],[-192,-161]],[[33022,29170],[-99,-84]],[[32923,29094],[-6,7]],[[32894,29124],[-1097,-642],[859,857]],[[32656,29339],[12,7]],[[32668,29346],[17,16]],[[32685,29362],[6,38]],[[32691,29400],[75,92]],[[32766,29492],[29,0]],[[32795,29492],[12,7]],[[32807,29499],[12,8]],[[32819,29507],[-12,15]],[[32807,29522],[64,46]],[[32871,29568],[52,23]],[[32923,29591],[75,31]],[[32998,29622],[35,38]],[[33033,29660],[0,8]],[[33033,29668],[29,23]],[[33062,29691],[70,45]],[[33132,29736],[35,39]],[[33167,29775],[17,23]],[[33184,29798],[41,46]],[[33225,29844],[11,7]],[[33236,29851],[6,8]],[[33242,29859],[29,23]],[[33271,29882],[6,15]],[[33277,29897],[12,8]],[[33289,29905],[17,15]],[[33306,29920],[6,8]],[[33312,29928],[6,7]],[[33318,29935],[23,23]],[[33341,29958],[6,8]],[[33347,29966],[34,15]],[[33381,29981],[12,23]],[[33393,30004],[41,77]],[[33434,30081],[11,15]],[[33445,30096],[0,8]],[[33445,30104],[18,30]],[[33463,30134],[11,31]],[[33474,30165],[35,61]],[[33509,30226],[12,16]],[[33521,30242],[29,38]],[[33550,30280],[11,30]],[[33561,30310],[18,23]],[[33579,30333],[11,46]],[[33590,30379],[116,107]],[[33706,30486],[18,-23]],[[33724,30463],[104,100]],[[33828,30563],[6,-8]],[[33834,30555],[23,-46]],[[33857,30509],[87,16]],[[33944,30525],[52,7]],[[33996,30532],[134,-61]],[[34130,30471],[-18,-15]],[[34112,30456],[-17,-23]],[[34095,30433],[-615,-436],[290,76]],[[33770,30073],[12,0]],[[33782,30073],[11,-7]],[[33793,30066],[18,-8]],[[33811,30058],[-145,-245]],[[33666,29813],[-58,-8]],[[33608,29805],[-35,-46]],[[33573,29759],[-6,0]],[[33567,29759],[-128,-145]],[[33439,29614],[-5,-8]],[[33434,29606],[-18,-15]],[[33416,29591],[-35,-38]],[[33381,29553],[-5,-8]],[[33376,29545],[-6,0]],[[33370,29545],[-12,-15]],[[33358,29530],[-17,-23]],[[33341,29507],[-116,-123]],[[33225,29384],[-12,-7]],[[33213,29377],[6,-8]],[[33219,29369],[11,0]],[[33230,29369],[12,-7]],[[33242,29362],[12,0]],[[33254,29362],[-192,-161]],[[33062,29201],[-40,-31]],[[33022,29170],[-99,-84]],[[32923,29086],[0,8]],[[32923,29094],[-6,7]],[[32917,29101],[-23,23]],[[32894,29124],[-238,215]],[[27237,25183],[17,8]],[[27254,25191],[360,199]],[[27614,25390],[23,31]],[[27637,25421],[661,466],[99,-642]],[[28397,25245],[0,-62]],[[28397,25183],[12,-176]],[[28409,25007],[5,-114]],[[28414,24893],[-23,-69]],[[28391,24824],[-58,-54]],[[28333,24770],[-69,-61]],[[28264,24709],[-76,-15]],[[28188,24694],[-951,489]],[[28414,18580],[180,-551],[-365,405]],[[28229,18434],[0,15]],[[28229,18449],[180,131]],[[28409,18580],[5,0]],[[29296,21158],[12,-23]],[[29308,21135],[12,-46]],[[29320,21089],[5,-15]],[[29325,21074],[-394,-956]],[[28931,20118],[0,-8]],[[28931,20110],[-6,-38]],[[28925,20072],[0,-23]],[[28925,20049],[-12,-77]],[[28913,19972],[0,-15]],[[28913,19957],[-5,-46]],[[28908,19911],[-6,-23]],[[28902,19888],[-18,-38]],[[28884,19850],[-5,-8]],[[28879,19842],[58,-30]],[[28937,19812],[81,0]],[[29018,19812],[12,7]],[[29030,19819],[40,0]],[[29070,19819],[6,8]],[[29076,19827],[12,0]],[[29088,19827],[58,23]],[[29146,19850],[23,7]],[[29169,19857],[17,8]],[[29186,19865],[6,0]],[[29192,19865],[-464,-428]],[[28728,19437],[-12,-23]],[[28716,19414],[6,-8]],[[28722,19406],[-110,-107]],[[28612,19299],[-6,-107]],[[28606,19192],[0,-69]],[[28606,19123],[-168,-23]],[[28438,19100],[-6,0]],[[28432,19100],[-656,1431]],[[27776,20531],[0,30]],[[27776,20561],[12,85]],[[27788,20646],[-6,15]],[[27782,20661],[6,31]],[[27788,20692],[0,7]],[[27788,20699],[273,1577],[609,-1056],[626,-62]],[[29157,23446],[29,-91]],[[29186,23355],[-6,-31]],[[29180,23324],[-5,-8]],[[29175,23316],[0,-7]],[[29175,23309],[-12,-8]],[[29163,23301],[-6,-8]],[[29157,23293],[-6,-7]],[[29151,23286],[-5,-8]],[[29146,23278],[-6,-15]],[[29140,23263],[0,-8]],[[29140,23255],[-168,31]],[[28972,23286],[0,23]],[[28972,23309],[-12,23]],[[29157,23446],[-11,-7]],[[29146,23439],[-76,-46]],[[29070,23393],[-40,-23]],[[29030,23370],[-64,-31]],[[28966,23339],[-6,-7]],[[28960,23332],[-18,45]],[[29012,23423],[23,16]],[[29122,23492],[35,23]],[[29157,23515],[0,-69]],[[28043,23263],[-6,-23]],[[28037,23240],[-969,137],[232,429],[743,-543]],[[29157,23515],[-35,-23]],[[29122,23492],[-81,-53]],[[29041,23439],[-6,0]],[[29035,23439],[-23,-16]],[[29012,23423],[-64,-38]],[[28948,23385],[-6,-8]],[[28942,23377],[-208,-114]],[[28734,23263],[-41,-16]],[[28693,23247],[-226,-107]],[[28467,23140],[-6,153]],[[28461,23293],[-23,169]],[[28438,23462],[-6,30]],[[28432,23492],[-18,77]],[[28414,23569],[6,23]],[[28420,23592],[145,229]],[[28565,23821],[-5,8]],[[28560,23829],[-64,99]],[[28496,23928],[-6,16]],[[28490,23944],[505,84]],[[28995,24028],[6,0]],[[29001,24028],[40,-161]],[[29041,23867],[6,-15]],[[29047,23852],[23,-84]],[[29070,23768],[0,-8]],[[29070,23760],[70,-191]],[[29140,23569],[6,-16]],[[29146,23553],[5,-22]],[[29151,23531],[6,-16]],[[64610,28589],[0,7]],[[64610,28596],[-12,77]],[[64598,28673],[0,46]],[[64598,28719],[-29,99]],[[64569,28818],[0,31]],[[64569,28849],[337,283]],[[64906,29132],[12,0]],[[64918,29132],[98,23]],[[65016,29155],[6,0]],[[65022,29155],[29,0]],[[65051,29155],[58,0]],[[65109,29155],[35,53]],[[65144,29208],[6,8]],[[65150,29216],[313,1278]],[[65463,30494],[12,15]],[[65475,30509],[301,857]],[[65776,31366],[12,39]],[[65788,31405],[-110,1278]],[[65678,32683],[-12,30]],[[65666,32713],[-215,306],[1120,1431],[1747,-589],[1938,253],[-99,719],[865,367],[841,1906],[6,1056],[-882,206],[157,1355],[1270,512],[3168,-183],[1045,-383],[-209,-559],[586,-459],[1723,92],[267,2219],[4619,-2487],[-458,-336],[-1202,811],[-4096,-987],[-2408,1140],[6,-765],[-1503,-1294],[-87,-405],[516,7],[-127,-818],[-952,99],[-23,-505],[-1120,-444],[952,-688],[-227,-628],[-1027,46],[853,-612],[-586,-949],[841,-436],[233,-1959],[3017,-842],[1549,-1240],[-267,-1079],[-1143,-619],[-139,-1240],[-975,949],[522,1148],[-214,1063],[-2896,1179],[-464,-689],[1021,-987],[-139,-1026],[-3116,322],[-598,-1270],[-841,-276],[-638,689],[957,1339],[-690,796],[-1294,-1056],[-992,359],[-111,-451],[-1276,15],[-348,-1017],[-1231,-1095],[-411,788],[2129,3077]],[[90257,92316],[3133,3834],[2344,3849],[12,-2219],[1265,-1791],[-221,-444],[343,-260],[156,544],[-336,535],[940,138],[-70,-696],[2176,-1408],[-1955,-643],[104,-1301],[-986,53],[116,-956],[-192,520],[-824,-306],[319,-796],[-1735,-420],[-1897,420],[-313,-1071],[-2379,2418]],[[95171,93189],[-29,795],[279,-673],[1062,92],[-389,-521]],[[96094,92882],[-1155,-872],[232,1179]],[[95171,93189],[923,-307]],[[73952,65074],[17,238]],[[73969,65312],[-17,199]],[[73952,65511],[41,290]],[[73993,65801],[29,46]],[[74022,65847],[255,306]],[[74277,66153],[69,54]],[[74346,66207],[157,153]],[[74503,66360],[52,76]],[[74555,66436],[47,100]],[[74602,66536],[81,207]],[[74683,66743],[104,283]],[[74787,67026],[41,69]],[[74828,67095],[546,352]],[[75374,67447],[58,38]],[[75432,67485],[11,7]],[[75443,67492],[23,16]],[[75466,67508],[174,222]],[[75640,67730],[29,-23]],[[75669,67707],[35,-23]],[[75704,67684],[29,-123]],[[75733,67561],[12,-76]],[[75745,67485],[46,130]],[[75791,67615],[6,8]],[[75797,67623],[52,-31]],[[75849,67592],[-5,-15]],[[75844,67577],[-18,-345]],[[75826,67232],[6,-84]],[[75832,67148],[17,-8]],[[75849,67140],[29,46]],[[75878,67186],[99,268]],[[75977,67454],[23,46]],[[76000,67500],[-133,77]],[[75867,67577],[0,15]],[[75867,67592],[98,92]],[[75965,67684],[-17,53]],[[75948,67737],[-17,31]],[[75931,67768],[-24,31]],[[75907,67799],[0,61]],[[75907,67860],[18,7]],[[75925,67867],[81,8]],[[76006,67875],[17,15]],[[76023,67890],[105,-7]],[[76128,67883],[52,-23]],[[76180,67860],[284,-169]],[[76464,67691],[24,46]],[[76488,67737],[139,84]],[[76627,67821],[75,-30]],[[76702,67791],[122,229]],[[76824,68020],[12,8]],[[76836,68028],[17,-38]],[[76853,67990],[-29,-38]],[[76824,67952],[12,-46]],[[76836,67906],[-18,-39]],[[76818,67867],[-23,-222]],[[76795,67645],[6,-7]],[[76801,67638],[354,92]],[[77155,67730],[-52,7]],[[77103,67737],[-6,0]],[[77097,67737],[-12,-7]],[[77085,67730],[-6,15]],[[77079,67745],[-5,31]],[[77074,67776],[40,137]],[[77114,67913],[6,8]],[[77120,67921],[244,54]],[[77364,67975],[11,-23]],[[77375,67952],[12,-8]],[[77387,67944],[6,8]],[[77393,67952],[58,168]],[[77451,68120],[-23,23]],[[77428,68143],[-24,53]],[[77404,68196],[-23,31]],[[77381,68227],[-6,54]],[[77375,68281],[-11,7]],[[77364,68288],[116,31]],[[77480,68319],[23,-84]],[[77503,68235],[-23,-100]],[[77480,68135],[6,-23]],[[77486,68112],[29,-76]],[[77515,68036],[5,23]],[[77520,68059],[0,76]],[[77520,68135],[47,31]],[[77567,68166],[0,7]],[[77567,68173],[-18,8]],[[77549,68181],[41,31]],[[77590,68212],[-46,53]],[[77544,68265],[34,0]],[[77578,68265],[-5,16]],[[77573,68281],[-29,99]],[[77544,68380],[23,15]],[[77567,68395],[52,-76]],[[77619,68319],[52,-77]],[[77671,68242],[134,-46]],[[77805,68196],[6,-15]],[[77811,68181],[34,-23]],[[77845,68158],[12,-23]],[[77857,68135],[-87,-222]],[[77770,67913],[-12,-7]],[[77758,67906],[111,-69]],[[77869,67837],[11,-8]],[[77880,67829],[110,-8]],[[77990,67821],[53,0]],[[78043,67821],[29,-22]],[[78072,67799],[40,-39]],[[78112,67760],[76,-153]],[[78188,67607],[11,8]],[[78199,67615],[122,-69]],[[78321,67546],[6,-31]],[[78327,67515],[-6,-15]],[[78321,67500],[-365,-321]],[[77956,67179],[-24,-8]],[[77932,67171],[-156,-153]],[[77776,67018],[0,-23]],[[77776,66995],[-6,-46]],[[77770,66949],[0,-8]],[[77770,66941],[-609,-765],[261,-949],[-464,-1094],[-1161,-536],[29,-459],[-1085,222],[-789,1714]],[[75849,65174],[-232,-398]],[[75681,65403],[453,-130]],[[75617,64776],[64,627]],[[75681,65403],[453,-130]],[[76134,65273],[-285,-99]],[[75849,65174],[-232,-398]],[[75519,65533],[-41,-137],[-128,46],[41,137],[128,-46]],[[58657,7507],[940,1760],[1265,-161],[760,-849],[2019,681],[-17,-742],[847,-100],[452,-1760],[-777,-742],[481,-2166],[-841,-367],[-307,-1033],[-900,-123],[-377,306],[331,1401],[-586,918],[-1695,-490],[-719,1500],[244,796],[-1120,1171]],[[61227,7361],[1242,-1109],[-1306,734]],[[60949,7048],[-372,1010],[575,-742]],[[61152,7316],[75,45]],[[61227,7361],[-64,-375]],[[61163,6986],[-214,62]],[[60949,7048],[-174,329],[377,-61]]]}