{"type":"Topology","objects":{"data":{"geometries":[{"properties":{"type":"29202","name":"29"},"type":"Polygon","arcs":[[0,-520,-481,-463,1,5,2,7,3,-468,4,-466,-495,-474,-473,-472,-465,-464,-522,10]],"id":"feature_00"},{"properties":{"type":"29202","name":"29"},"type":"Polygon","arcs":[[5,6,7,8,-473,9,-464,-522,10,11],[12],[13],[14],[15],[16],[17]],"id":"feature_01"},{"properties":{"type":"29202","name":"29"},"type":"Polygon","arcs":[[18]],"id":"feature_02"},{"properties":{"type":"29203","name":"29"},"type":"Polygon","arcs":[[-60,113,-59,19,-526,20,-26,115,-25,120,21]],"id":"feature_03"},{"properties":{"type":"29203","name":"29"},"type":"Polygon","arcs":[[22,-53,160,127,-52,129,-51,131,-50,134,-49,136,-48,138,-47,140,-46,142,-45,165,-44,167,-43,-42,171,-41,175,-40,178,-39,180,-38,182,-37,184,-36,-150,-35,151,-34,187,188,-33,190,153,-32,155,-31,122,-30,124,-29]],"id":"feature_04"},{"properties":{"type":"29203","name":"29"},"type":"Polygon","arcs":[[-68,107,-67,109,-66,111,-65,79,-64,81,-63,83,-62,85,23,87,-78,89,-77,91,-76,93,-75,95,-74,97,-73,99,-72,101,-71,103,-70,105,-69]],"id":"feature_05"},{"properties":{"type":"29203","name":"29"},"type":"Polygon","arcs":[[24,-116,25,26,117,27,119]],"id":"feature_06"},{"properties":{"type":"29203","name":"29"},"type":"Polygon","arcs":[[28,-125,29,-123,30,-156,31,-154,-191,32,-189,-188,33,-152,34,149,35,-185,36,-183,37,-181,38,-179,39,-176,40,-172,41,42,-168,43,-166,44,-143,45,-141,46,-139,47,-137,48,-135,49,-132,50,-130,51,-128,-161,52,53,-217,54,-215,-257,-214,55,-212,56,-195,-204,-202,-194,-199,-193,-528,57,58,-114,59,60,-86,61,-84,62,-82,63,-80,64,-112,65,-110,66,-108,67,68,-106,69,-104,70,-102,71,-100,72,-98,73,-96,74,-94,75,-92,76,-90,77,-88,78]],"id":"feature_07"},{"properties":{"type":"29203","name":"29"},"type":"Polygon","arcs":[[79,80,81,82,83,84,85,86,87,88,89,90,91,92,93,94,95,96,97,98,99,100,101,102,103,104,105,106,107,108,109,110,111,112]],"id":"feature_08"},{"properties":{"type":"29203","name":"29"},"type":"Polygon","arcs":[[113,114,115,116,117,118,119,120,121]],"id":"feature_09"},{"properties":{"type":"29203","name":"29"},"type":"Polygon","arcs":[[122,123,124,125,157,126,159,160,127,128,129,130,131,132,162,133,134,135,136,137,138,139,140,141,142,143,164,165,166,167,168,144,170,145,172,146,174,175,176,147,179,180,181,182,183,184,185,148,149,150,151,152,188,189,190,153,154,155,156]],"id":"feature_10"},{"properties":{"type":"29203","name":"29"},"type":"Polygon","arcs":[[157,158,159,160,161]],"id":"feature_11"},{"properties":{"type":"29203","name":"29"},"type":"Polygon","arcs":[[162,163,164,165,166,167,168,169,170,171,172,173,174,175,176,177,178,179,180,181,182,183,184,185,186,187,188,189,190,191]],"id":"feature_12"},{"properties":{"type":"29204","name":"29"},"type":"Polygon","arcs":[[192,-274,-198,-272,-197,-270,-196,-529]],"id":"feature_13"},{"properties":{"type":"29204","name":"29"},"type":"Polygon","arcs":[[-246,345,326,-245,328,-244,330,-243,332,-242,334,-241,336,-240,338,-239,340,-238,342,-237,286,-236,288,-235,290,-234,297,-233,299,-232,301,-231,303,-230,-360,-229,362,-228,306,-227,308,-226,310,-225,312,-224,314,-223,316,-222,318,-221,320,-220,322,-219,324]],"id":"feature_14"},{"properties":{"type":"29204","name":"29"},"type":"Polygon","arcs":[[266,-251,258,-250,260,-249,262,-248,264,-252]],"id":"feature_15"},{"properties":{"type":"29204","name":"29"},"type":"Polygon","arcs":[[-201,-278,-200,-276,193]],"id":"feature_16"},{"properties":{"type":"29204","name":"29"},"type":"Polygon","arcs":[[-203,194,-210,-209,208,-208,-530,195,269,196,271,197,273,198,275,199,277,200,201]],"id":"feature_17"},{"properties":{"type":"29204","name":"29"},"type":"Polygon","arcs":[[202,203]],"id":"feature_18"},{"properties":{"type":"29204","name":"29"},"type":"Polygon","arcs":[[204]],"id":"feature_19"},{"properties":{"type":"29204","name":"29"},"type":"Polygon","arcs":[[-524,-539,-549,-538,205,-535,206,-531,207,-209,208,209,210,211,212,213,-256,-285,-255,282,-254,-281,-253,214,215,216,217],[-325,218,-323,219,-321,220,-319,221,-317,222,-315,223,-313,224,-311,225,-309,226,-307,227,-363,228,359,229,-304,230,-302,231,-300,232,-298,233,-291,234,-289,235,-287,236,-343,237,-341,238,-339,239,-337,240,-335,241,-333,242,-331,243,-329,244,-327,-346,245],[246],[-265,247,-263,248,-261,249,-259,250,-267,251]],"id":"feature_20"},{"properties":{"type":"29204","name":"29"},"type":"Polygon","arcs":[[252,280,253,-283,254,284,255,256]],"id":"feature_21"},{"properties":{"type":"29204","name":"29"},"type":"Polygon","arcs":[[257]],"id":"feature_22"},{"properties":{"type":"29204","name":"29"},"type":"Polygon","arcs":[[258,259,260,261,262,263,264,265,266,267],[268]],"id":"feature_23"},{"properties":{"type":"29204","name":"29"},"type":"Polygon","arcs":[[269,270,271,272,273,274,275,276,277,278],[279]],"id":"feature_24"},{"properties":{"type":"29204","name":"29"},"type":"Polygon","arcs":[[280,281,282,283,284,285]],"id":"feature_25"},{"properties":{"type":"29204","name":"29"},"type":"Polygon","arcs":[[286,287,288,289,290,291,349,292,351,293,353,294,355,295,357,296,297,298,299,300,301,302,303,304,361,362,363,305,306,307,308,309,310,311,312,313,314,315,316,317,318,319,320,321,322,323,324,325,348,345,326,327,328,329,330,331,332,333,334,335,336,337,338,339,340,341,342,343],[344]],"id":"feature_26"},{"properties":{"type":"29204","name":"29"},"type":"Polygon","arcs":[[345,346,-366,347,348]],"id":"feature_27"},{"properties":{"type":"29204","name":"29"},"type":"Polygon","arcs":[[349,350,351,352,353,354,355,356,357,358,359,360,361,362,363,364,365,366]],"id":"feature_28"},{"properties":{"type":"29206","name":"29"},"type":"Polygon","arcs":[[367]],"id":"feature_29"},{"properties":{"type":"29206","name":"29"},"type":"Polygon","arcs":[[381,368,383,369,387,370,404,389,371,391,372,393,373,395,374,397,375,399,376,379,377]],"id":"feature_30"},{"properties":{"type":"29206","name":"29"},"type":"Polygon","arcs":[[378]],"id":"feature_31"},{"properties":{"type":"29206","name":"29"},"type":"Polygon","arcs":[[379,380,381,382,383,384,406,385,408,386,387,388,389,390,391,392,393,394,395,396,397,398,399,400]],"id":"feature_32"},{"properties":{"type":"29206","name":"29"},"type":"Polygon","arcs":[[401],[402],[403]],"id":"feature_33"},{"properties":{"type":"29206","name":"29"},"type":"Polygon","arcs":[[404,405]],"id":"feature_34"},{"properties":{"type":"29206","name":"29"},"type":"Polygon","arcs":[[406,407,408,409]],"id":"feature_35"},{"properties":{"type":"29207","name":"29"},"type":"Polygon","arcs":[[425,410,427,-429,428,429,411,420,412,422,-424,423,424,458]],"id":"feature_36"},{"properties":{"type":"29207","name":"29"},"type":"Polygon","arcs":[[413]],"id":"feature_37"},{"properties":{"type":"29207","name":"29"},"type":"Polygon","arcs":[[414]],"id":"feature_38"},{"properties":{"type":"29207","name":"29"},"type":"Polygon","arcs":[[415]],"id":"feature_39"},{"properties":{"type":"29207","name":"29"},"type":"Polygon","arcs":[[416]],"id":"feature_40"},{"properties":{"type":"29207","name":"29"},"type":"Polygon","arcs":[[433,450,434,452,435,448,436,417,438,439,440,-442,441,442,418,444,454,445,457,446,419]],"id":"feature_41"},{"properties":{"type":"29207","name":"29"},"type":"Polygon","arcs":[[420,421,422,-424,423,424,458,425,426,427,-429,428,429,430],[431]],"id":"feature_42"},{"properties":{"type":"29207","name":"29"},"type":"Polygon","arcs":[[432,433,450,434,452,435,448,436,437,438,439,440,-442,441,442,443,444,454,445,457,446,447]],"id":"feature_43"},{"properties":{"type":"29207","name":"29"},"type":"Polygon","arcs":[[448,449]],"id":"feature_44"},{"properties":{"type":"29207","name":"29"},"type":"Polygon","arcs":[[450,451,452,453,454,455]],"id":"feature_45"},{"properties":{"type":"29207","name":"29"},"type":"Polygon","arcs":[[456,457]],"id":"feature_46"},{"properties":{"type":"29207","name":"29"},"type":"Polygon","arcs":[[458,459]],"id":"feature_47"},{"properties":{"type":"29211","name":"29"},"type":"Polygon","arcs":[[490,476,460,512,461,462,480,519,520,521,463,464,471,472,473,494,465,466,467,468]],"id":"feature_48"},{"properties":{"type":"29211","name":"29"},"type":"Polygon","arcs":[[492,469,499,470,471,472,473,494,495,474,497,475,489,490,476,477]],"id":"feature_49"},{"properties":{"type":"29211","name":"29"},"type":"Polygon","arcs":[[515,478,517,479,480,519,520,521,522,481,501,482,503,483,505,484,507,485,509,486,511,512,513,487]],"id":"feature_50"},{"properties":{"type":"29211","name":"29"},"type":"Polygon","arcs":[[488,489,490,491,492]],"id":"feature_51"},{"properties":{"type":"29211","name":"29"},"type":"Polygon","arcs":[[493,494,495,496,497,498,499]],"id":"feature_52"},{"properties":{"type":"29211","name":"29"},"type":"Polygon","arcs":[[500,501,502,503,504,505,506,507,508,509,510,511,512,513,514,515,516,517,518,519,520,521,522]],"id":"feature_53"},{"properties":{"type":"29361","name":"29"},"type":"Polygon","arcs":[[523,524,525,526,527,528,529,530,531,536,537,548,538]],"id":"feature_54"},{"properties":{"type":"29361","name":"29"},"type":"Polygon","arcs":[[544,532,550,533,534,535,536,537,548,538,539,546,540,542,541]],"id":"feature_55"},{"properties":{"type":"29361","name":"29"},"type":"Polygon","arcs":[[542,543,544,545,546,547]],"id":"feature_56"},{"properties":{"type":"29361","name":"29"},"type":"Polygon","arcs":[[548,549,550,551]],"id":"feature_57"},{"properties":{"type":"29425","name":"29"},"type":"Polygon","arcs":[[558,552,560,553,563,554,565,555]],"id":"feature_58"},{"properties":{"type":"29425","name":"29"},"type":"Polygon","arcs":[[578,556,580,557,558,559,560,561,575,562,563,564,565,566],[567],[568],[569],[570],[571],[572],[573],[574]],"id":"feature_59"},{"properties":{"type":"29425","name":"29"},"type":"Polygon","arcs":[[575,576]],"id":"feature_60"},{"properties":{"type":"29425","name":"29"},"type":"Polygon","arcs":[[577,578,579,580]],"id":"feature_61"}],"type":"GeometryCollection"}},"bbox":[135.6606,34.3379,135.9512,34.6668],"transform":{"scale":[2.9060290602907226e-06,3.2890328903289472e-06],"translate":[135.6606,34.3379]},"arcs":[[[20681,52386],[-103,0]],[[18548,55153],[3647,3496]],[[25980,57525],[9360,1033],[929,-3861],[-2477,-973]],[[33757,53055],[-722,-4804],[3166,-3922],[-2375,-2098],[-2821,1490]],[[28389,44420],[69,92]],[[22195,58649],[3785,-1124]],[[25980,57525],[7261,395],[551,-4196]],[[33792,53724],[-35,-669]],[[33757,53055],[-3028,-5047],[-5093,-821]],[[24845,48981],[1308,2219],[-2203,1217]],[[20922,52417],[-241,-31]],[[20681,52386],[172,2493],[2650,-2098],[3682,2767],[-4508,456],[-482,2645]],[[32037,52751],[-344,669],[-1136,0],[35,-274],[1445,-395]],[[30488,54058],[413,0],[35,1186],[-379,0],[-69,-1186]],[[23916,56430],[103,-334],[860,91],[-103,425],[-860,-182]],[[28665,48859],[-173,-577],[448,0],[137,608],[-412,-31]],[[30179,51839],[-69,-274],[447,0],[0,274],[-378,0]],[[27185,55852],[310,0],[-310,213],[0,-213]],[[25980,52113],[-412,2249],[4507,882],[-1410,-4621],[-2685,1490]],[[37680,78868],[-137,31]],[[36786,78807],[-482,1612]],[[34308,85435],[-1721,-243]],[[36407,97475],[5644,852]],[[32002,86682],[-2064,2584]],[[34446,85405],[481,122]],[[35891,85527],[413,-5108]],[[36304,80419],[-1617,4864]],[[34652,85314],[-34,30]],[[36407,97475],[1480,-2979]],[[38059,94313],[0,-60]],[[37921,94101],[-1273,-2037],[3200,760]],[[40089,92793],[551,-30]],[[40846,92763],[379,0]],[[41534,92763],[35,-183]],[[41706,92580],[35,-121]],[[41706,92459],[517,273]],[[42395,92763],[275,30]],[[42704,92793],[104,0]],[[43048,92732],[104,-30]],[[43186,92702],[241,0]],[[43565,92702],[791,1064]],[[44390,93736],[0,-122]],[[44390,93614],[413,-152]],[[44803,93584],[35,213]],[[45010,93797],[241,91]],[[45492,93888],[34,-31]],[[45629,93857],[35,-30]],[[45733,93827],[240,30]],[[45973,93827],[-68,1307]],[[45698,95134],[-1686,2189]],[[43978,97323],[-517,244]],[[43393,97567],[-173,30]],[[42429,97627],[-378,700]],[[42051,98327],[3957,0],[172,-2828],[7364,-1368],[-757,-2189],[3303,-943]],[[56125,87533],[69,-121]],[[52993,83246],[-103,31]],[[48451,83307],[-482,31]],[[37715,78868],[-35,0]],[[37680,78868],[4543,2676],[-276,3709],[1411,-1855],[1583,1338],[-3888,4530],[-3510,-2037],[3544,-973],[-3372,213]],[[37164,86469],[-2615,1004],[-1962,-2281]],[[32587,85192],[-2064,395],[482,2372],[997,-1277]],[[32140,86682],[1204,304]],[[33654,86986],[138,152]],[[33861,87138],[241,30]],[[34102,87138],[516,4439],[-5231,1916]],[[29353,93371],[-516,-213]],[[28768,93158],[-413,-517]],[[28320,92641],[-1686,-395]],[[26634,92246],[826,0]],[[27598,92246],[1032,-426]],[[28665,91820],[275,-486]],[[28802,91303],[-619,-1489]],[[28217,89814],[69,-31]],[[28320,89783],[379,-152]],[[28733,89601],[448,-183]],[[29250,89358],[103,-31]],[[29387,89358],[379,121]],[[29800,89418],[103,-91]],[[29938,89266],[516,-2250],[-7674,2828],[1067,2189],[-2856,1855],[1892,5594],[13524,-2007]],[[34102,87138],[0,30]],[[34102,87168],[-241,-30]],[[33861,87138],[-69,0]],[[33792,87138],[-138,-152]],[[33654,86986],[-310,0]],[[33344,86986],[-1204,-304]],[[32140,86682],[-138,0]],[[32002,86682],[-2064,2584]],[[29938,89266],[-35,61]],[[29903,89327],[-103,91]],[[29800,89418],[-34,61]],[[29766,89479],[-379,-121]],[[29387,89358],[-34,-31]],[[29353,89327],[-103,31]],[[29250,89358],[-69,60]],[[29181,89418],[-448,183]],[[28733,89601],[-34,30]],[[28699,89631],[-379,152]],[[28320,89783],[-34,0]],[[28286,89783],[-69,31]],[[28217,89814],[-34,0]],[[28183,89814],[619,1489]],[[28802,91303],[138,31]],[[28940,91334],[-275,486]],[[28665,91820],[-35,0]],[[28630,91820],[-1032,426]],[[27598,92246],[-138,0]],[[27460,92246],[860,395]],[[28320,92641],[35,0]],[[28355,92641],[413,517]],[[28768,93158],[69,0]],[[28837,93158],[516,213]],[[29353,93371],[34,122]],[[29387,93493],[4715,-6355]],[[37164,86469],[551,0]],[[37715,86469],[-1824,-942]],[[35891,85527],[-964,0]],[[34927,85527],[-240,-244]],[[34687,85283],[-35,31]],[[34652,85314],[-34,30]],[[34618,85344],[-172,61]],[[34446,85405],[-138,30]],[[34308,85435],[172,2007],[2684,-973]],[[37921,94101],[138,152]],[[38059,94253],[0,60]],[[38059,94313],[-172,183]],[[37887,94496],[-103,2311],[4026,1033]],[[41844,97932],[275,0]],[[42429,97597],[791,0]],[[43220,97597],[173,-30]],[[43393,97567],[68,0]],[[43461,97567],[517,-244]],[[43978,97323],[34,0]],[[44012,97323],[103,-1489]],[[44184,95834],[1514,-700]],[[45698,95134],[207,0]],[[45905,95134],[68,-1307]],[[45973,93827],[0,30]],[[45973,93857],[-240,-30]],[[45733,93827],[-69,0]],[[45664,93827],[-35,30]],[[45629,93857],[-103,0]],[[45526,93857],[-34,31]],[[45492,93888],[-241,0]],[[45251,93888],[-172,-61]],[[44356,93523],[34,91]],[[44390,93736],[-34,30]],[[43978,93219],[-69,-122]],[[43358,92702],[-206,0]],[[41844,92459],[-103,0]],[[41741,92459],[-35,0]],[[41706,92459],[0,121]],[[41706,92580],[-137,0]],[[41569,92580],[-69,183]],[[40777,92763],[-137,0]],[[40640,92763],[-551,30]],[[40089,92793],[-241,31]],[[39848,92824],[-1927,1277]],[[41810,97840],[34,92]],[[41844,97932],[275,0]],[[42119,97932],[310,-305]],[[42429,97627],[0,-30]],[[42429,97597],[-619,243]],[[44115,95834],[69,0]],[[44184,95834],[895,-2007]],[[45079,93827],[-69,-30]],[[45010,93797],[-172,0]],[[44838,93797],[-35,-213]],[[44803,93584],[0,-122]],[[44803,93462],[-447,61]],[[44356,93523],[34,91]],[[44390,93614],[0,122]],[[44390,93736],[-34,30]],[[44356,93766],[-378,-547]],[[43978,93219],[-69,-122]],[[43909,93097],[-344,-395]],[[43565,92702],[-138,0]],[[43427,92702],[-69,0]],[[43358,92702],[-172,0]],[[43186,92702],[-34,0]],[[43152,92702],[-104,30]],[[43048,92732],[-240,61]],[[42808,92793],[-104,0]],[[42704,92793],[-34,0]],[[42670,92793],[-275,-30]],[[42395,92763],[-172,-31]],[[42223,92732],[-379,-273]],[[41844,92459],[-310,304]],[[41534,92763],[-34,0]],[[41500,92763],[-275,0]],[[41225,92763],[-379,0]],[[40846,92763],[-69,0]],[[40777,92763],[-1239,3344],[4577,-273]],[[43289,78412],[2960,1764]],[[46283,80784],[0,1824]],[[46593,83429],[1376,-91]],[[46283,76861],[0,1794]],[[46283,79051],[0,425]],[[46283,79567],[-34,365]],[[46249,80176],[34,608]],[[46662,80784],[68,304]],[[46730,81361],[-447,1247]],[[46283,82608],[-34,243]],[[46593,83429],[-344,-578]],[[46249,82851],[344,578]],[[53991,71419],[3235,1642],[-895,-5108],[-2271,1794],[-69,1672]],[[44528,75037],[516,548]],[[45044,75615],[207,-61]],[[46283,76101],[1824,-1246],[-103,2493]],[[48004,77470],[0,-122]],[[48004,77348],[2512,2250],[-2547,3740]],[[47969,83338],[482,-31]],[[48451,83307],[4439,-30]],[[52890,83277],[103,-31]],[[52993,83246],[2306,1125],[-2753,1855]],[[53682,87229],[2512,183]],[[56194,87412],[-69,121]],[[56125,87533],[-35,3466]],[[56090,90999],[8018,487],[-413,-3709],[7915,-1825],[1342,-4074],[7467,1064],[826,7389],[9704,-1825],[654,4804],[4404,-851],[3992,-5625],[-6091,-3314],[2443,-1703],[-1101,-3831],[-9807,-881],[-2718,-5868],[-9291,-3406],[-2272,-3709],[-14177,-91],[-5058,4773],[-1411,7693],[-2891,-3831],[-4267,942]],[[52064,79020],[0,-152]],[[52064,78716],[35,-395]],[[52099,78138],[1651,61]],[[53750,77834],[69,-395]],[[53819,77318],[-378,-761]],[[53303,76557],[-791,-273]],[[52512,76253],[137,-273]],[[52959,75980],[791,365]],[[53922,76345],[104,273]],[[54335,76618],[1618,1551]],[[56262,78169],[757,-61]],[[57019,78047],[413,-121]],[[57673,77926],[482,304]],[[58224,78290],[172,31]],[[58602,78321],[-172,-487]],[[58361,77834],[-1961,-1489],[4508,-1764],[4060,4986],[3029,92],[-8225,5503],[7571,-821],[-3373,2645],[-4645,-243]],[[59325,86621],[-1067,-121]],[[58155,86500],[0,273]],[[58121,86804],[-1136,-578]],[[56882,86196],[-516,0]],[[56331,86196],[-516,-578]],[[55781,85618],[137,-608]],[[56125,85010],[2030,-2645]],[[57398,82365],[-310,-31]],[[56813,82334],[-172,-608]],[[56125,81726],[-1205,-243]],[[54920,81453],[-1101,-335]],[[53819,80540],[-1755,-638]],[[53991,71510],[69,-1763],[2271,-1794],[895,5108],[-3235,-1551]],[[61252,66524],[447,31]],[[61803,66555],[447,-61]],[[62663,66494],[69,304]],[[62904,66798],[-757,2067]],[[62112,68865],[-2374,-547],[1411,-1794]],[[53682,87229],[-138,-425]],[[54094,86804],[276,-304]],[[54163,86500],[-1307,-335]],[[52856,86408],[-310,-182]],[[52546,86226],[1136,1003]],[[50344,79902],[103,-578],[-1205,-30],[792,882],[310,-274]],[[62904,66798],[-172,0]],[[62732,66798],[-69,-304]],[[62663,66494],[-413,0]],[[62250,66494],[-447,61]],[[61803,66555],[-104,0]],[[61699,66555],[-447,-31]],[[61252,66524],[-103,0]],[[61149,66524],[-1273,1764],[2236,577]],[[62112,68865],[35,0]],[[62147,68865],[757,-2067]],[[62938,67740],[-482,-213],[861,-516],[-35,668],[-344,61]],[[46283,78655],[0,396]],[[46283,79051],[0,425]],[[46283,79476],[0,91]],[[46283,79567],[-34,365]],[[46249,79932],[0,244]],[[46249,80176],[34,608]],[[46283,80784],[379,0]],[[46662,80784],[68,304]],[[46730,81088],[0,273]],[[46730,81361],[3304,-1155],[-3751,-1551]],[[48451,80753],[-275,-213],[619,-30],[0,243],[-344,0]],[[53544,86804],[550,0]],[[54094,86804],[69,-304]],[[54163,86500],[207,0]],[[54370,86500],[-1514,-335]],[[52856,86165],[0,243]],[[52856,86408],[688,396]],[[58121,86804],[34,-31]],[[58155,86773],[0,-273]],[[58155,86500],[103,0]],[[58258,86500],[1067,121]],[[59325,86621],[0,122]],[[59325,86743],[1239,-4530]],[[60598,82213],[69,-31]],[[60701,82182],[69,-30]],[[60770,82121],[69,-30]],[[60942,82061],[207,-92]],[[61940,80024],[69,-4257],[-4852,882],[1204,1185]],[[58361,77834],[69,0]],[[58430,77834],[172,487]],[[58602,78321],[-206,0]],[[58396,78321],[-172,-31]],[[58224,78290],[-69,-60]],[[58155,78230],[-482,-304]],[[57673,77926],[-241,0]],[[57432,77926],[-447,121]],[[55884,78169],[-1549,-1551]],[[54335,76618],[-309,0]],[[54026,76618],[-104,-273]],[[53922,76345],[-172,0]],[[53750,76345],[-791,-365]],[[52959,75980],[-310,0]],[[52649,75980],[-137,273]],[[52512,76253],[0,31]],[[52512,76284],[791,273]],[[53303,76557],[138,0]],[[53441,76557],[378,761]],[[53819,77318],[0,121]],[[53819,77439],[-69,395]],[[53750,77834],[0,365]],[[53750,78199],[-1651,-61]],[[52099,78138],[0,183]],[[52099,78321],[-35,395]],[[52064,78716],[0,152]],[[52064,78868],[0,152]],[[52064,79020],[0,882]],[[52064,79902],[448,304]],[[53819,81088],[0,30]],[[53819,81118],[1101,335]],[[54920,81453],[0,30]],[[54920,81483],[1205,243]],[[56125,81726],[516,0]],[[56641,81726],[172,608]],[[56813,82334],[275,0]],[[57088,82334],[310,31]],[[57398,82365],[757,0]],[[58155,82365],[-2030,2645]],[[56125,85010],[-207,0]],[[55918,85010],[-137,608]],[[55781,85618],[34,0]],[[55815,85618],[516,578]],[[56331,86196],[35,0]],[[56366,86196],[516,0]],[[56882,86196],[103,30]],[[56985,86226],[1136,578]],[[58499,85922],[-138,-304],[482,-31],[-103,396],[-241,-61]],[[53819,80540],[0,548]],[[53819,81088],[1101,30]],[[54714,79659],[-2202,547]],[[52512,80206],[1307,334]],[[60564,82213],[34,0]],[[60598,82213],[69,-31]],[[60667,82182],[34,0]],[[60701,82182],[69,-30]],[[60770,82152],[0,-31]],[[60770,82121],[69,-30]],[[60839,82091],[103,-30]],[[60942,82061],[207,-92]],[[61149,81969],[791,-1945]],[[61940,80024],[-4921,-1916]],[[57019,78108],[0,-61]],[[57019,78047],[-34,0]],[[56985,78047],[-723,122]],[[56262,78169],[-309,0]],[[55953,78169],[-69,0]],[[55884,78169],[963,1490],[-2133,0]],[[54714,79659],[206,1459]],[[54920,81118],[5644,1095]],[[85443,59896],[585,-486],[-1583,-1004],[2030,760],[998,-425],[-6813,-2341],[4783,3496]],[[65622,57251],[0,-882]],[[66104,56369],[4645,-2341],[4267,1885],[964,-2159],[-8534,-790],[-482,-3831],[-4232,-1459],[-5093,3466]],[[57604,51140],[-585,1489]],[[56985,52660],[-206,0]],[[56572,52660],[-275,-31]],[[55264,52629],[-688,31]],[[54439,52660],[516,1216]],[[54955,54271],[0,274]],[[55196,55123],[2236,456]],[[57432,55396],[4439,943],[-2030,2189],[3166,2250],[2202,-3527]],[[80832,56430],[-447,638],[4748,2858],[-688,-1520],[3097,639],[-6710,-2615]],[[57432,55579],[0,-183]],[[57432,55396],[5609,669],[-722,3041],[2890,-1855]],[[65209,57251],[413,0]],[[65622,57251],[0,-882]],[[65622,56369],[482,0]],[[66104,56369],[482,-3040]],[[66655,53329],[68,-1034]],[[65966,52234],[-4852,-1216],[-68,2311],[-2891,-61],[-516,-2128]],[[57639,51140],[-35,0]],[[57604,51140],[-585,1520]],[[57019,52660],[-34,0]],[[56985,52660],[-206,0]],[[56779,52660],[-207,0]],[[56572,52660],[-275,-31]],[[56297,52629],[-1033,0]],[[55264,52629],[-688,31]],[[54576,52660],[-137,0]],[[54439,52660],[516,1216]],[[54955,53876],[0,395]],[[54955,54271],[0,274]],[[54955,54545],[241,578]],[[55196,55123],[2236,456]],[[74672,56004],[1239,-1915],[-516,-669],[-5540,-152],[4817,2736]],[[72160,54423],[1067,365],[1308,0],[-482,487],[-1893,-852]],[[71541,53238],[-69,820],[-998,-304],[585,-243],[482,-273]],[[57019,52629],[0,31]],[[57019,52660],[0,-31]],[[66586,53329],[69,0]],[[66655,53329],[68,-1034]],[[66723,52295],[-757,-61]],[[65966,52234],[-3166,456],[-103,3314],[3889,-2675]],[[15726,2615],[447,-639]],[[15898,730],[0,-426]],[[14590,426],[-1376,243]],[[2994,5321],[1135,-3284],[-3441,-1672],[1583,6324],[723,-1368]],[[7536,7540],[-3303,2676],[2615,-1034],[791,2493],[2960,-2919],[-3063,-1216]],[[16793,18546],[-207,-2523],[-1755,-182],[-585,2310],[2547,395]],[[21335,15415],[3820,-2189],[-7261,-517],[791,2645],[2650,61]],[[10977,1064],[-2890,335]],[[8362,4682],[1514,821]],[[15967,6506],[3441,1065],[-4267,-3953]],[[15898,304],[-1308,122]],[[14590,426],[-1376,243]],[[13214,669],[-551,-61]],[[12663,578],[0,30]],[[12663,608],[-550,2098]],[[12319,2736],[3407,-121]],[[15726,2615],[447,-639]],[[16173,1976],[-34,-182]],[[16104,1794],[35,0]],[[16139,1794],[-241,-1064]],[[15898,730],[0,-426]],[[14556,973],[-413,-91],[-69,-213],[620,30],[-138,274]],[[15141,3618],[0,0]],[[15141,3618],[-1927,-182]],[[13111,3436],[-482,30]],[[11906,3496],[-1583,-668]],[[10255,2797],[722,-1733]],[[10977,1064],[-2890,335]],[[8087,1399],[-2168,851]],[[5919,2250],[34,0]],[[5953,2250],[482,1429]],[[6435,3709],[0,-30]],[[6435,3679],[1927,1003]],[[8362,4682],[1514,821]],[[9876,5503],[791,-334]],[[10771,5230],[2202,851]],[[13248,6111],[2719,395]],[[15967,6506],[-826,-2888]],[[10323,2828],[-68,-31]],[[10255,2797],[-2340,-486],[2408,517]],[[13214,3436],[-103,0]],[[13111,3436],[-482,30]],[[12629,3466],[-723,30]],[[11906,3496],[-1239,1673]],[[10667,5169],[104,61]],[[10771,5230],[3269,547],[-826,-2341]],[[13248,6111],[-275,-30]],[[12973,6081],[275,30]],[[12113,2706],[206,30]],[[12319,2736],[757,-1824],[-963,1794]],[[22849,41258],[-15451,-2645],[895,6233],[-4026,5290],[1445,6750],[-3854,3040],[3304,1946],[894,-2432],[5816,851],[3854,-4986]],[[17378,55153],[1170,0]],[[18548,55153],[1307,-2341]],[[23124,52417],[826,0]],[[23950,52417],[207,-3679]],[[25636,46731],[4026,30],[-1204,-2249]],[[28458,44512],[-69,-92]],[[28389,44420],[2616,-699]],[[31005,43721],[-620,-2645],[-5162,-91]],[[23916,43387],[-6022,1185],[3441,1825]],[[25189,46761],[-1032,1977]],[[24157,48738],[688,243]],[[24845,48981],[791,-1794]],[[25636,47187],[0,-426]],[[25946,45302],[-310,-91]],[[25464,44998],[-585,-2189]],[[22883,41258],[-34,0]],[[22849,41258],[103,396]],[[15726,52873],[413,30]],[[18995,52781],[860,31]],[[19855,52812],[35,-365]],[[23124,51809],[-447,-2098],[-2409,881]],[[19752,50896],[-2959,122]],[[16758,51018],[-585,426]],[[16173,51505],[-894,273]],[[14281,51748],[-138,0]],[[14143,52660],[103,1915]],[[16552,54575],[-826,-912]],[[23916,43387],[963,-578]],[[24879,42809],[344,-1824]],[[25223,40985],[-2340,273]],[[22883,41258],[69,396]],[[22952,41654],[964,1733]],[[25189,46761],[447,0]],[[25636,46761],[0,-30]],[[25636,46731],[310,-1429]],[[25946,45302],[-310,-91]],[[25636,45211],[-172,-213]],[[25464,44998],[-4129,1399]],[[21335,46397],[3854,364]],[[23124,51809],[-2856,-1217]],[[20268,50592],[-516,304]],[[19752,50896],[-2959,122]],[[16793,51018],[-35,0]],[[16758,51018],[-585,426]],[[16173,51444],[0,61]],[[16173,51505],[-894,273]],[[15279,51778],[-998,-30]],[[14281,51748],[-138,0]],[[14143,51748],[0,912]],[[14143,52660],[103,1915]],[[14246,54575],[1480,730]],[[15726,55305],[1652,-152]],[[17378,55153],[-826,-578]],[[16552,54575],[-826,-912]],[[15726,53663],[0,-790]],[[15726,52873],[413,30]],[[16139,52903],[2856,-122]],[[18995,52781],[895,-334]],[[19890,52447],[688,-61]],[[20578,52386],[344,31]],[[20922,52417],[2202,0]],[[23124,52417],[0,-608]],[[43427,74338],[-69,-730]],[[43358,73608],[-12285,152],[-103,3254],[5816,1793]],[[36786,78807],[757,92]],[[37543,78899],[172,-31]],[[37715,78868],[5574,-456]],[[43289,78412],[2994,-1551]],[[46283,76861],[0,-760]],[[46283,76101],[-1032,-547]],[[45251,75554],[-138,0]],[[39022,75615],[4336,91]],[[44081,75676],[963,-61]],[[45044,75615],[0,-30]],[[45044,75585],[69,-31]],[[45113,75554],[-585,-517]],[[44528,75037],[-447,304]],[[43427,74703],[0,-365]],[[43427,74338],[-4577,-213]],[[38437,74551],[0,334]],[[38437,75037],[69,700]],[[38437,74885],[0,152]],[[38437,75037],[69,700]],[[38506,75737],[516,-122]],[[39022,75615],[-172,-1490]],[[38850,74125],[-413,426]],[[38437,74551],[0,334]],[[44081,75341],[-654,-638]],[[43427,74703],[-2134,61],[2065,942]],[[43358,75706],[723,-30]],[[44081,75676],[0,-335]],[[18857,77439],[35,-669]],[[16724,75919],[963,-1855],[-3372,-2371]],[[11872,71237],[-2822,851]],[[8981,72118],[-4680,-1337],[-860,1672],[9532,7449],[5884,-2402]],[[13764,78929],[-1651,-578],[1445,1429]],[[16586,79233],[2271,-1733]],[[18857,77500],[0,-61]],[[18857,77439],[35,-669]],[[18892,76770],[-2168,-851]],[[16724,75919],[-2202,-3588]],[[14487,72331],[-172,-638]],[[14315,71693],[-2443,-456]],[[11872,71237],[-2822,851]],[[9050,72088],[-69,30]],[[8981,72118],[4818,6142]],[[15107,77713],[-1446,-1368],[757,-943],[998,1277],[-309,1034]],[[11700,73699],[-35,-1003],[1514,-121],[-894,273],[-585,851]],[[13386,74095],[-103,0],[-585,-487],[413,0],[275,487]],[[12147,73882],[-378,-61],[-35,-122],[688,61],[-275,122]],[[12491,75250],[-481,-91],[-173,-274],[689,304],[-35,61]],[[12801,76253],[-69,122],[-310,91],[138,-213],[241,0]],[[15038,77895],[-138,91],[-103,-60],[206,-92],[35,61]],[[12870,72514],[-103,-61],[137,-61],[35,61],[-69,61]],[[14522,72331],[-35,0]],[[14487,72331],[-413,1247],[1170,213],[-722,-1460]],[[16586,79233],[-2787,-973]],[[13799,78260],[-35,669]],[[13764,78929],[-206,851]],[[13558,79780],[3028,-547]]]}