{"type":"Topology","objects":{"data":{"geometries":[{"properties":{"type":"06203","name":"06"},"type":"Polygon","arcs":[[0]],"id":"feature_00"},{"properties":{"type":"06203","name":"06"},"type":"Polygon","arcs":[[1]],"id":"feature_01"},{"properties":{"type":"06203","name":"06"},"type":"Polygon","arcs":[[2]],"id":"feature_02"},{"properties":{"type":"06203","name":"06"},"type":"Polygon","arcs":[[3]],"id":"feature_03"},{"properties":{"type":"06203","name":"06"},"type":"Polygon","arcs":[[6,4]],"id":"feature_04"},{"properties":{"type":"06203","name":"06"},"type":"Polygon","arcs":[[5]],"id":"feature_05"},{"properties":{"type":"06203","name":"06"},"type":"Polygon","arcs":[[8]],"id":"feature_06"},{"properties":{"type":"06203","name":"06"},"type":"Polygon","arcs":[[5]],"id":"feature_07"},{"properties":{"type":"06203","name":"06"},"type":"Polygon","arcs":[[6,7]],"id":"feature_08"},{"properties":{"type":"06203","name":"06"},"type":"Polygon","arcs":[[8]],"id":"feature_09"},{"properties":{"type":"06204","name":"06"},"type":"Polygon","arcs":[[9]],"id":"feature_10"},{"properties":{"type":"06204","name":"06"},"type":"Polygon","arcs":[[10]],"id":"feature_11"},{"properties":{"type":"06204","name":"06"},"type":"Polygon","arcs":[[11]],"id":"feature_12"},{"properties":{"type":"06204","name":"06"},"type":"Polygon","arcs":[[23,12,25,13,27,14],[15],[16],[17],[18],[19],[20],[21],[22]],"id":"feature_13"},{"properties":{"type":"06204","name":"06"},"type":"Polygon","arcs":[[23,24,25,26,27,28]],"id":"feature_14"},{"properties":{"type":"06208","name":"06"},"type":"Polygon","arcs":[[32,29]],"id":"feature_15"},{"properties":{"type":"06208","name":"06"},"type":"MultiPolygon","arcs":[[[-36,30]],[[31,32,33,-37]]],"id":"feature_16"},{"properties":{"type":"06208","name":"06"},"type":"Polygon","arcs":[[34,35,36]],"id":"feature_17"},{"properties":{"type":"06209","name":"06"},"type":"Polygon","arcs":[[37]],"id":"feature_18"},{"properties":{"type":"06209","name":"06"},"type":"Polygon","arcs":[[38]],"id":"feature_19"},{"properties":{"type":"06209","name":"06"},"type":"Polygon","arcs":[[39]],"id":"feature_20"},{"properties":{"type":"06302","name":"06"},"type":"Polygon","arcs":[[40],[41],[42],[43]],"id":"feature_21"},{"properties":{"type":"06302","name":"06"},"type":"Polygon","arcs":[[46,44,48,45]],"id":"feature_22"},{"properties":{"type":"06302","name":"06"},"type":"Polygon","arcs":[[46,47,48,49]],"id":"feature_23"}],"type":"GeometryCollection"}},"bbox":[139.5391,38.0415,140.4195,39.0083],"transform":{"scale":[8.804088040880497e-06,9.668096680966802e-06],"translate":[139.5391,38.0415]},"arcs":[[[13039,68442],[1716,1551],[4543,817],[-3692,-1417],[-829,-776],[954,-475],[-590,-300],[-2102,600]],[[8473,59091],[-1033,-765],[-1375,651],[-636,73],[-56,62],[-284,103],[-262,124],[-261,104],[1408,2007],[1579,-1573],[1613,-72],[-693,-714]],[[1068,53671],[465,962],[1647,-1189],[-1647,-1097],[-1533,1066],[1068,258]],[[19366,68462],[1522,1179],[-897,1086],[863,859],[3112,1148],[-1908,259],[-1249,1644],[1385,-31],[3101,3869],[2931,372],[636,1055],[2033,-610],[1533,1013],[-170,-1934],[-1420,-445],[34,-993],[3703,-268],[1181,-1604],[-488,-1624],[2351,-506],[-545,1344],[1669,766],[1034,2265],[-1522,672],[-625,1934],[-1226,786],[1135,507],[2068,-662],[6849,-5047],[-409,-1883],[2181,-569],[-398,-848],[-2953,-662],[-330,-1013],[1239,-1759],[-6577,-4478],[-2646,-2876],[499,-910],[-2726,-1355],[114,-1200],[-1204,828],[1113,1479],[-1408,1065],[522,2420],[-1158,1448],[-421,-372],[-783,2627],[-796,-62],[546,693],[-1488,166],[727,424],[-103,186],[-613,83],[-318,-1728],[-1965,714],[-920,-1779],[-1181,362],[-125,1324],[1545,21],[-841,651],[1227,569],[-614,486],[-2544,-1727],[-840,124],[136,797],[-818,-166],[364,-920],[-659,-321],[125,900],[-625,-776],[-363,1138],[-1602,-135]],[[33871,72248],[1385,621],[-1011,-1790],[1329,-869],[-5486,-775],[773,930],[-602,1335],[2760,579]],[[33507,73603],[534,538],[568,-42],[-636,-631],[-466,135]],[[33019,72279],[852,-31]],[[33871,72248],[-409,-1634],[-1659,41],[1784,1138],[-568,486]],[[32621,72920],[-136,-124],[-227,228],[159,93],[204,-197]],[[46433,97351],[170,-1262],[602,404],[932,-766],[-1670,-103],[307,-1190],[-3147,135],[46,1800],[2760,982]],[[36256,99844],[1692,-735],[114,-2296],[3055,-496],[80,-621],[-4475,-2100],[1806,-630],[-671,-1573],[1204,-786],[-568,-1086],[3010,-796],[-3271,-2121],[1715,569],[1738,-889],[-2521,-797],[897,-1468],[-886,-497],[-4100,1500],[1101,-1024],[-499,-1003],[1147,-1852],[-2499,-124],[-3214,1655],[1181,-3072],[-3442,310],[-579,-1055],[-2601,-320],[3816,6144],[-886,610],[2022,6123],[-931,331],[-591,745],[1522,-1066],[-91,1117],[1125,683],[-625,838],[2590,352],[272,889],[-1351,-579],[45,114],[-250,-62],[46,113],[-602,166],[22,93],[2022,1769],[1193,2844],[1238,83]],[[40629,81185],[-46,-135],[-590,114],[45,124],[591,-103]],[[33212,90349],[-443,941],[1704,248]],[[34518,91507],[216,-269]],[[34938,90990],[-749,-1117]],[[32814,90700],[-34,0],[102,-20],[-34,20],[-34,0]],[[33132,90824],[-11,-124],[136,321],[-68,-21],[-57,-176]],[[32962,90700],[-11,-20],[56,10],[-22,21],[-23,-11]],[[32951,90700],[-57,11],[-12,-21],[46,-10],[23,20]],[[32894,91145],[34,0],[0,21],[-34,0],[0,-21]],[[33484,91052],[12,-21],[34,11],[0,10],[-46,0]],[[33030,90597],[-11,21],[-171,51],[-11,-41],[193,-31]],[[33484,91021],[0,-21],[35,0],[0,21],[-35,0]],[[34189,89873],[-977,476]],[[33212,90349],[1261,1189]],[[34473,91538],[45,-31]],[[34518,91507],[216,-269]],[[34734,91238],[204,-248]],[[34938,90990],[-749,-1117]],[[96285,44259],[-3056,134],[250,890],[-1419,-248],[-784,1189],[1692,579],[2090,-475],[988,641],[341,2389],[1193,-217],[181,-1438],[2170,-2399],[-648,-1159],[-2305,-20]],[[95819,45190],[-352,569],[750,-145]],[[96217,45614],[658,848],[796,-817],[-693,-1520]],[[96978,44125],[-693,134]],[[96285,44259],[-443,662]],[[95842,44921],[-23,269]],[[95819,45190],[398,424]],[[96217,45614],[806,-838],[-1181,145]],[[56008,7954],[602,2172],[1465,579],[-420,-3020],[1261,-207],[182,-1251],[-761,-2379],[1340,-1376],[-1022,-1624],[-2601,-848],[1158,1676],[-1556,1592],[579,1697],[-1715,-269],[-693,1748],[2181,1510]],[[56542,8016],[625,-165],[11,-2700],[-875,-10],[-386,1624],[-965,196],[1590,1055]],[[57076,7178],[204,-507],[-1067,-362],[-80,652],[943,217]],[[80167,29106],[829,2875],[1363,921],[898,-414],[-171,-1075],[2181,-166],[409,1107],[2170,-1386],[-1398,-2638],[-4668,-113],[-420,951],[-1193,-62]],[[82723,32571],[68,-145],[239,-62],[-159,404],[-148,-197]],[[86948,30937],[148,-176],[91,269],[-227,-41],[-12,-52]],[[86846,31268],[114,-83],[68,72],[-68,63],[-114,-52]],[[84347,30854],[1136,-600],[-647,-683],[-932,331]],[[83393,30306],[-715,486],[829,-41]],[[83507,30751],[840,103]],[[84347,30854],[-443,-952]],[[83904,29902],[-511,404]],[[83393,30306],[114,445]]]}