{"type":"Topology","objects":{"data":{"geometries":[{"properties":{"type":"36201","name":"36"},"type":"MultiPolygon","arcs":[[[0]],[[1]],[[2]],[[3]],[[4]],[[5]],[[6]],[[7]],[[8]],[[9]],[[10]],[[-90,11]],[[12]],[[13]],[[14,-92]],[[15]],[[16]],[[17]],[[18]],[[19]],[[20]],[[-23,21]],[[22,23,24]],[[25]],[[26]],[[27]],[[-94,28]],[[29]],[[30]],[[31]],[[32]],[[33]],[[-96,34]],[[35]],[[-98,36]],[[37]],[[37]],[[-42,38]],[[39]],[[40,-41]],[[41,-42]],[[42]],[[43]],[[44]],[[-101,45]],[[46]],[[47]],[[48]],[[49]],[[50]],[[51]],[[52]],[[53]],[[54]],[[55]],[[56]],[[57]],[[58]],[[59]],[[60]],[[61]],[[62]],[[63]],[[64]],[[65]],[[66]],[[67]],[[68]],[[69]],[[70]],[[71]],[[72]],[[73]],[[74]],[[75]],[[-103,76]],[[-79,77]],[[78,79]],[[80]],[[81]],[[82]],[[-87,83]],[[84]],[[85]],[[86,87]],[[88]],[[89,90,91,92,93,94,95,96,97,98,99,100,101,102,103,192,104]]],"id":"feature_00"},{"properties":{"type":"36201","name":"36"},"type":"Polygon","arcs":[[212,213,-215,214,215,216,217,218,219]],"id":"feature_01"},{"properties":{"type":"36201","name":"36"},"type":"Polygon","arcs":[[105]],"id":"feature_02"},{"properties":{"type":"36201","name":"36"},"type":"Polygon","arcs":[[176]],"id":"feature_03"},{"properties":{"type":"36201","name":"36"},"type":"Polygon","arcs":[[180]],"id":"feature_04"},{"properties":{"type":"36201","name":"36"},"type":"Polygon","arcs":[[186]],"id":"feature_05"},{"properties":{"type":"36201","name":"36"},"type":"MultiPolygon","arcs":[[[127]],[[128]],[[129,130,131,132,133,134,135,136,137,138,139,140,141,142,-163,143,-171,144,145,146,147,148,149,150,151,152,153,154,155,156,157,158,159,160,222,161],[162,163],[164],[165],[166],[167],[168],[169],[170,171],[172],[173],[174]],[[175]]],"id":"feature_06"},{"properties":{"type":"36201","name":"36"},"type":"Polygon","arcs":[[196],[197],[198,199],[200,201,202,203,204,205],[206]],"id":"feature_07"},{"properties":{"type":"36201","name":"36"},"type":"Polygon","arcs":[[207,208,209,210]],"id":"feature_08"},{"properties":{"type":"36201","name":"36"},"type":"Polygon","arcs":[[194]],"id":"feature_09"},{"properties":{"type":"36201","name":"36"},"type":"Polygon","arcs":[[177]],"id":"feature_10"},{"properties":{"type":"36201","name":"36"},"type":"Polygon","arcs":[[222,223]],"id":"feature_11"},{"properties":{"type":"36201","name":"36"},"type":"Polygon","arcs":[[181]],"id":"feature_12"},{"properties":{"type":"36201","name":"36"},"type":"Polygon","arcs":[[107]],"id":"feature_13"},{"properties":{"type":"36201","name":"36"},"type":"Polygon","arcs":[[179]],"id":"feature_14"},{"properties":{"type":"36201","name":"36"},"type":"Polygon","arcs":[[207,183,209,184]],"id":"feature_15"},{"properties":{"type":"36201","name":"36"},"type":"Polygon","arcs":[[106]],"id":"feature_16"},{"properties":{"type":"36201","name":"36"},"type":"Polygon","arcs":[[200,123,202,124,204,125,198,126]],"id":"feature_17"},{"properties":{"type":"36201","name":"36"},"type":"Polygon","arcs":[[192,193]],"id":"feature_18"},{"properties":{"type":"36201","name":"36"},"type":"Polygon","arcs":[[220]],"id":"feature_19"},{"properties":{"type":"36201","name":"36"},"type":"Polygon","arcs":[[211]],"id":"feature_20"},{"properties":{"type":"36201","name":"36"},"type":"Polygon","arcs":[[221]],"id":"feature_21"},{"properties":{"type":"36201","name":"36"},"type":"Polygon","arcs":[[178]],"id":"feature_22"},{"properties":{"type":"36201","name":"36"},"type":"Polygon","arcs":[[214,187,216,188,218,189,212,190]],"id":"feature_23"},{"properties":{"type":"36201","name":"36"},"type":"Polygon","arcs":[[185]],"id":"feature_24"},{"properties":{"type":"36201","name":"36"},"type":"Polygon","arcs":[[195]],"id":"feature_25"},{"properties":{"type":"36201","name":"36"},"type":"Polygon","arcs":[[129,108,131,109,133,110,135,111,137,112,139,113,141,114,145,115,147,116,149,117,151,118,153,119,155,120,157,121,159,122]],"id":"feature_26"},{"properties":{"type":"36201","name":"36"},"type":"Polygon","arcs":[[191]],"id":"feature_27"},{"properties":{"type":"36201","name":"36"},"type":"Polygon","arcs":[[182]],"id":"feature_28"},{"properties":{"type":"36201","name":"36"},"type":"Polygon","arcs":[[105]],"id":"feature_29"},{"properties":{"type":"36201","name":"36"},"type":"Polygon","arcs":[[106]],"id":"feature_30"},{"properties":{"type":"36201","name":"36"},"type":"Polygon","arcs":[[107]],"id":"feature_31"},{"properties":{"type":"36201","name":"36"},"type":"Polygon","arcs":[[129,108,131,109,133,110,135,111,137,112,139,113,141,114,145,115,147,116,149,117,151,118,153,119,155,120,157,121,159,122]],"id":"feature_32"},{"properties":{"type":"36201","name":"36"},"type":"Polygon","arcs":[[200,123,202,124,204,125,198,126]],"id":"feature_33"},{"properties":{"type":"36201","name":"36"},"type":"MultiPolygon","arcs":[[[127]],[[128]],[[129,130,131,132,133,134,135,136,137,138,139,140,141,142,-163,143,-171,144,145,146,147,148,149,150,151,152,153,154,155,156,157,158,159,160,222,161],[162,163],[164],[165],[166],[167],[168],[169],[170,171],[172],[173],[174]],[[175]]],"id":"feature_34"},{"properties":{"type":"36201","name":"36"},"type":"Polygon","arcs":[[176]],"id":"feature_35"},{"properties":{"type":"36201","name":"36"},"type":"Polygon","arcs":[[177]],"id":"feature_36"},{"properties":{"type":"36201","name":"36"},"type":"Polygon","arcs":[[178]],"id":"feature_37"},{"properties":{"type":"36201","name":"36"},"type":"Polygon","arcs":[[179]],"id":"feature_38"},{"properties":{"type":"36201","name":"36"},"type":"Polygon","arcs":[[180]],"id":"feature_39"},{"properties":{"type":"36201","name":"36"},"type":"Polygon","arcs":[[181]],"id":"feature_40"},{"properties":{"type":"36201","name":"36"},"type":"Polygon","arcs":[[182]],"id":"feature_41"},{"properties":{"type":"36201","name":"36"},"type":"Polygon","arcs":[[207,183,209,184]],"id":"feature_42"},{"properties":{"type":"36201","name":"36"},"type":"Polygon","arcs":[[185]],"id":"feature_43"},{"properties":{"type":"36201","name":"36"},"type":"Polygon","arcs":[[186]],"id":"feature_44"},{"properties":{"type":"36201","name":"36"},"type":"Polygon","arcs":[[214,187,216,188,218,189,212,190]],"id":"feature_45"},{"properties":{"type":"36201","name":"36"},"type":"Polygon","arcs":[[191]],"id":"feature_46"},{"properties":{"type":"36201","name":"36"},"type":"Polygon","arcs":[[192,193]],"id":"feature_47"},{"properties":{"type":"36201","name":"36"},"type":"Polygon","arcs":[[194]],"id":"feature_48"},{"properties":{"type":"36201","name":"36"},"type":"Polygon","arcs":[[195]],"id":"feature_49"},{"properties":{"type":"36201","name":"36"},"type":"Polygon","arcs":[[196],[197],[198,199],[200,201,202,203,204,205],[206]],"id":"feature_50"},{"properties":{"type":"36201","name":"36"},"type":"Polygon","arcs":[[207,208,209,210]],"id":"feature_51"},{"properties":{"type":"36201","name":"36"},"type":"Polygon","arcs":[[211]],"id":"feature_52"},{"properties":{"type":"36201","name":"36"},"type":"Polygon","arcs":[[212,213,-215,214,215,216,217,218,219]],"id":"feature_53"},{"properties":{"type":"36201","name":"36"},"type":"Polygon","arcs":[[220]],"id":"feature_54"},{"properties":{"type":"36201","name":"36"},"type":"Polygon","arcs":[[221]],"id":"feature_55"},{"properties":{"type":"36201","name":"36"},"type":"Polygon","arcs":[[222,223]],"id":"feature_56"},{"properties":{"type":"36204","name":"36"},"type":"Polygon","arcs":[[288,224,290,225,292,226,227,294,228]],"id":"feature_57"},{"properties":{"type":"36204","name":"36"},"type":"Polygon","arcs":[[357,229,359,230,361,231,363,232,365,233,367,234,369,235]],"id":"feature_58"},{"properties":{"type":"36204","name":"36"},"type":"Polygon","arcs":[[420,236,422,237,424,238,426,239,428,240,430,241,432,242,434,243,436,244,438,245]],"id":"feature_59"},{"properties":{"type":"36204","name":"36"},"type":"Polygon","arcs":[[352,246,354,247,356,248,332,249,334,250,336,251,338,252,340,253,342,254,344,255,346,256,348,257,350,258]],"id":"feature_60"},{"properties":{"type":"36204","name":"36"},"type":"MultiPolygon","arcs":[[[259]],[[260,416,261,418,262,412,263,414]]],"id":"feature_61"},{"properties":{"type":"36204","name":"36"},"type":"Polygon","arcs":[[311,264,313,265,315,266,317,267,319,268,321,269,323,270,325,271,327,272,329,273,307,274,309,275]],"id":"feature_62"},{"properties":{"type":"36204","name":"36"},"type":"MultiPolygon","arcs":[[[276]],[[387,277,389,278,391,279,393,280,395,281,397,282,399,283,401,284,371,285,373,286,375,287,288,289,290,291,292,293,294,295,377,296,379,297,381,298,383,299,385,300]]],"id":"feature_63"},{"properties":{"type":"36204","name":"36"},"type":"MultiPolygon","arcs":[[[301]],[[302]]],"id":"feature_64"},{"properties":{"type":"36204","name":"36"},"type":"Polygon","arcs":[[405,303,407,304,409,305,411,306]],"id":"feature_65"},{"properties":{"type":"36204","name":"36"},"type":"Polygon","arcs":[[307,308,309,310,311,312,313,314,315,316,317,318,319,320,321,322,323,324,325,326,327,328,329,330]],"id":"feature_66"},{"properties":{"type":"36204","name":"36"},"type":"Polygon","arcs":[[331,332,333,334,335,336,337,338,339,340,341,342,343,344,345,346,347,348,349,350,351,352,353,354,355,356]],"id":"feature_67"},{"properties":{"type":"36204","name":"36"},"type":"Polygon","arcs":[[357,358,359,360,361,362,363,364,365,366,367,368,369,370]],"id":"feature_68"},{"properties":{"type":"36204","name":"36"},"type":"Polygon","arcs":[[371,372,373,374,375,376,377,378,379,380,381,382,383,384,385,386,387,388,389,390,391,392,393,394,395,396,397,398,399,400,401,402]],"id":"feature_69"},{"properties":{"type":"36204","name":"36"},"type":"MultiPolygon","arcs":[[[403,-404]],[[404,405,406,407,408,409,410,411]]],"id":"feature_70"},{"properties":{"type":"36204","name":"36"},"type":"Polygon","arcs":[[412,413,414,415,416,417,418,419]],"id":"feature_71"},{"properties":{"type":"36204","name":"36"},"type":"Polygon","arcs":[[420,421,422,423,424,425,426,427,428,429,430,431,432,433,434,435,436,437,438,439]],"id":"feature_72"}],"type":"GeometryCollection"}},"bbox":[134.4222,33.8453,134.7116,34.1303],"transform":{"scale":[2.8940289402894084e-06,2.850028500284969e-06],"translate":[134.4222,33.8453]},"arcs":[[[60988,78034],[-69,35],[311,457],[-242,-492]],[[58742,71964],[1347,-386],[-829,-1894],[-1382,1929],[864,351]],[[59986,70526],[0,35],[276,-70],[207,-71],[-69,-210],[-138,-421],[-276,-737],[-242,-737],[-139,-316],[-794,211],[1175,2316]],[[64650,70561],[-1451,-106],[-2004,-3017],[1970,3053],[1485,70]],[[61644,60912],[0,0],[0,0]],[[61644,60877],[0,0]],[[57601,66526],[-34,0],[0,35],[34,0],[0,-35]],[[57567,66491],[34,0],[0,-36],[-34,0],[0,36]],[[57705,66385],[0,0]],[[57843,66385],[0,0]],[[57912,66385],[-34,0],[0,35],[34,0],[0,-35]],[[59260,66561],[35,0]],[[59847,66455],[0,0]],[[59916,66455],[0,0]],[[60020,66526],[-34,0]],[[60020,66420],[0,-35],[-34,0],[0,35],[34,0]],[[59986,66210],[-35,-35],[-35,0],[0,70],[70,-35]],[[60055,66245],[0,-35],[0,35]],[[60124,66210],[34,-35],[-69,0],[0,35],[35,0]],[[60020,66175],[0,0]],[[59882,66105],[0,0]],[[60020,65964],[35,0]],[[60020,65964],[35,0]],[[60055,65964],[-35,0]],[[60020,65964],[0,0]],[[59986,65929],[34,0],[0,-35],[-69,35],[35,0]],[[59951,65964],[0,-35],[-35,35],[35,0]],[[60020,65684],[-242,0],[0,70],[242,-35],[0,-35]],[[59571,65684],[-35,0]],[[59536,65648],[0,-35],[-34,0],[0,35],[34,0]],[[59675,65613],[0,0],[0,0]],[[59536,65508],[35,0],[0,-35],[-69,0],[34,35]],[[59433,65438],[34,0],[0,-35],[-69,35],[35,0]],[[59225,65719],[0,0]],[[58776,65648],[-34,-35]],[[58845,65508],[35,0],[0,-35],[-69,0],[34,35]],[[57912,65438],[-34,0]],[[57601,64175],[0,0]],[[57740,64140],[34,0]],[[57843,64245],[0,0]],[[57774,64140],[0,0]],[[57740,64140],[34,0]],[[57740,64140],[0,0]],[[57774,64105],[0,0]],[[58051,64034],[0,0]],[[58085,63964],[35,0]],[[58189,64070],[0,0]],[[58223,64070],[0,0]],[[58431,63789],[0,0]],[[58396,63754],[0,0]],[[58465,63824],[0,0]],[[58500,63859],[34,-35],[-69,0],[0,35],[35,0]],[[58569,63859],[0,0]],[[58707,63894],[-34,0],[0,35],[34,0],[0,-35]],[[58500,63754],[0,0]],[[58534,63754],[35,0],[0,-35],[-35,0],[0,35]],[[58949,63719],[0,0]],[[58603,63578],[-34,35],[69,-35],[-35,0]],[[58569,63578],[0,0]],[[58569,63543],[0,0]],[[58603,63578],[0,0]],[[58603,63508],[0,35],[35,0],[0,-35],[-35,0]],[[61091,62420],[0,-70],[-172,0],[34,70],[138,0]],[[61160,62385],[0,0]],[[61126,62350],[0,0]],[[61057,62315],[0,0]],[[61022,62315],[0,0]],[[60988,62245],[0,0]],[[61126,62175],[0,-35],[-35,0],[0,35],[35,0]],[[61022,62070],[-34,0],[0,35],[34,0],[0,-35]],[[60988,61999],[0,35],[34,0],[0,-35],[-34,0]],[[60953,61999],[0,0]],[[60884,61964],[0,-35],[-35,35],[35,0]],[[60780,61894],[0,0]],[[60815,61368],[0,0]],[[60780,61368],[0,0]],[[61264,61052],[35,0]],[[61437,61157],[34,0]],[[61437,61157],[34,0]],[[61471,61157],[-34,0]],[[61610,61157],[-69,0],[0,35],[34,0],[35,-35]],[[61541,61122],[-35,0],[35,35],[0,-35]],[[61610,61122],[0,0]],[[61575,61052],[-34,0]],[[61506,61087],[0,0]],[[61541,61087],[0,0]],[[61575,61052],[-34,0]],[[61541,61052],[34,0]],[[61541,61017],[0,0]],[[59260,66561],[35,0]],[[59295,66561],[725,-35]],[[60020,66526],[-34,0]],[[59986,66526],[-415,-842]],[[59571,65684],[-35,0]],[[59536,65684],[-760,-36]],[[58776,65648],[-34,-35]],[[58742,65613],[-830,-175]],[[57912,65438],[-34,0]],[[57878,65438],[0,0]],[[57878,65438],[207,-1474]],[[58085,63964],[35,0]],[[58120,63964],[3144,-2912]],[[61264,61052],[35,0]],[[61299,61052],[-10090,597]],[[49412,61578],[-1106,2842],[-5183,-14315],[6980,351],[2419,-8702],[-13442,-3158],[-12266,5088],[-4561,-702],[-1693,5333],[5286,4070],[-1313,4807],[1970,1825],[-5494,3158],[-7568,-5684],[-3628,561],[1141,4316],[-6289,-772],[-4665,10316],[16240,5298],[-1174,8596],[-4493,-70],[2074,8561],[12577,-1508],[7153,5964],[6081,492],[2212,-4176],[5667,-1684],[414,4491],[6600,3123],[10643,-10316],[-2488,-10947],[-726,491],[-3006,-4947],[3836,4351],[2107,-2597],[-1105,-3859],[-1313,2140],[-830,-2246],[-4008,562],[-242,-4351],[2937,1158],[-2246,-2807],[2350,-70]],[[36523,74245],[-34,0],[34,0]],[[31651,79297],[69,71],[-138,105],[69,-176]],[[37733,71438],[34,70],[35,0],[-35,-35],[-69,-35],[35,0]],[[46682,77683],[35,-35]],[[46786,77648],[311,-70]],[[47270,77543],[242,-35]],[[47581,77508],[207,-70]],[[47995,77403],[69,35]],[[48203,77438],[311,0]],[[48928,77543],[-2142,-6561],[-6289,2772]],[[40946,73789],[139,-35]],[[41223,74069],[138,-35]],[[42190,73859],[899,667]],[[43192,75017],[35,316]],[[43296,75543],[-484,2947]],[[42778,78490],[-2212,2562]],[[40324,81087],[-1555,70]],[[38562,81157],[-1244,3509],[8017,-35],[3490,-1228],[-277,-5474]],[[51796,70245],[139,140]],[[51969,70420],[173,141]],[[52211,70631],[138,772]],[[52453,71824],[-864,-1684]],[[42225,76666],[207,-105],[138,-71],[-483,-35],[138,211]],[[41637,80034],[0,0]],[[48548,77929],[-1866,-246]],[[46682,77683],[35,-35]],[[46717,77648],[69,0]],[[46786,77648],[311,-70]],[[47097,77578],[173,-35]],[[47270,77543],[242,-35]],[[47512,77508],[69,0]],[[47581,77508],[207,-70]],[[47788,77438],[207,-35]],[[47995,77403],[69,35]],[[48064,77438],[139,0]],[[48203,77438],[311,0]],[[48514,77438],[414,105]],[[48928,77543],[3007,-4210],[-9710,-2281],[-1037,-3053]],[[41154,67999],[3317,-5684],[-5149,6702],[-4768,1123],[1831,2561]],[[36385,72736],[4112,1018]],[[40497,73754],[449,35]],[[40946,73789],[139,-35]],[[41085,73754],[138,315]],[[41223,74069],[138,-35]],[[41361,74034],[829,-175]],[[42190,73859],[899,667]],[[43089,74526],[103,491]],[[43192,75017],[35,316]],[[43227,75333],[69,210]],[[43296,75543],[-484,2947]],[[42812,78490],[-34,0]],[[42778,78490],[-2212,2562]],[[40566,81052],[-242,35]],[[40324,81087],[-1555,70]],[[38769,81157],[-207,0]],[[38562,81157],[-4665,-1017]],[[33828,80140],[-6841,-2211],[-450,-4281],[-4215,-2315],[7256,13473],[3801,1474],[10297,351],[15515,-9053],[-2834,-2877],[-7809,3228]],[[41154,67999],[34,0]],[[41188,67999],[-34,0]],[[37387,73017],[69,105],[-138,70],[0,-175],[69,0]],[[36938,73754],[104,0],[-35,105],[-103,-35],[34,-70]],[[37837,71052],[345,667],[-933,0],[138,-702],[450,35]],[[38078,71613],[0,-140],[139,-35],[0,175],[-139,0]],[[40981,68105],[34,175],[-172,0],[0,-105],[138,-70]],[[36627,71122],[-138,176],[173,-527],[380,0],[-415,351]],[[36385,72736],[0,-35]],[[36385,72701],[0,35]],[[38631,72982],[0,-211],[242,0],[207,141],[-449,70]],[[38113,73789],[-35,35],[-138,-35],[35,-70],[138,70]],[[38286,73719],[-208,-36],[35,-210],[0,140],[173,106]],[[37629,71333],[173,-106],[-276,-210],[34,175],[69,141]],[[55424,77719],[-2004,631],[-1727,-526],[1244,1684],[4422,-1930],[-1935,141]],[[39219,73789],[0,0]],[[23773,73192],[0,-35],[-69,0],[0,35],[69,0]],[[36523,74140],[-34,35],[0,35],[69,-70],[-35,0]],[[30477,78666],[0,0]],[[39599,73719],[-35,0],[0,35],[35,0],[0,-35]],[[23531,72666],[-34,35],[69,35],[-35,-35],[0,-35]],[[45646,89718],[-933,316]],[[44540,90455],[346,1509],[2798,-491],[2937,526],[346,0],[311,-70],[-4768,-2456]],[[22598,71403],[35,35],[0,-35],[-35,0]],[[33552,79543],[0,35],[34,0],[-34,-35]],[[19868,80175],[139,35]],[[22287,80420],[104,35]],[[22460,80455],[3766,492],[-3386,-1895]],[[21873,78911],[-4803,-1017],[2764,2281]],[[30096,78245],[70,0],[34,-35],[-34,0],[-35,35],[-35,0]],[[51209,61649],[-1797,-71]],[[49412,61578],[-1313,4421],[2661,1930],[449,-6280]],[[24188,72982],[0,0]],[[35936,73578],[0,0]],[[54492,69543],[-588,-596],[-8535,-281],[4734,4316],[5494,70],[-1105,-3509]],[[52453,72280],[34,35],[-138,35],[173,-386],[-69,316]],[[52349,71403],[104,421]],[[52453,71824],[-104,-421]],[[51589,70140],[207,105]],[[51796,70245],[139,140]],[[51935,70385],[34,35]],[[51969,70420],[173,141]],[[52142,70561],[69,70]],[[52211,70631],[-622,-491]],[[52073,72245],[138,0],[69,35],[-104,70],[-103,-105]],[[46510,89473],[-864,245]],[[45646,89718],[-933,316]],[[44713,90034],[-173,421]],[[44540,90455],[1970,-982]],[[37387,71438],[-69,0],[35,35],[34,-35]],[[22840,79052],[-967,-141]],[[21873,78911],[-2005,1264]],[[19834,80175],[34,0]],[[19868,80175],[139,35]],[[20007,80210],[2280,210]],[[22287,80420],[104,35]],[[22391,80455],[69,0]],[[22460,80455],[380,-1403]],[[35971,72175],[-35,0],[-34,35],[34,0],[0,-35],[35,0]],[[37837,74175],[-35,0],[35,70],[34,-35],[-34,-35]],[[33897,80140],[-69,0]],[[33828,80140],[-5425,105],[6738,1824],[-1244,-1929]],[[77090,10421],[-104,-70]],[[77021,10351],[34,-70]],[[76986,10246],[0,0]],[[76986,10246],[-380,-211]],[[76606,10000],[-5218,-5930],[6186,3404],[-484,-4000],[-10608,-3474],[1071,5930],[6876,5544],[-311,4771],[-21285,-2070],[-346,3123],[5978,2597],[-864,4982],[-4042,1017],[-2627,5930],[1797,3088],[12820,2035],[4388,6702],[3836,-2106],[5666,7755],[5598,-8316],[10643,-2737],[4319,-10456],[-3455,-842],[-899,-5509],[-8224,-9368],[-760,175],[864,1229],[35,771],[-311,281],[-173,0],[-2730,-2772],[-4492,1263],[2592,-2315],[-2315,-1579],[-3007,1263]],[[80856,15298],[-311,-140]],[[80269,15052],[-311,71]],[[79820,14596],[-795,492]],[[79094,15123],[207,140]],[[79336,15263],[138,70]],[[79681,15438],[277,176]],[[80061,15684],[761,1368],[1831,-1649],[-1728,-70]],[[69384,40701],[-380,211]],[[68970,40912],[-484,316]],[[68451,41263],[-69,70]],[[68348,41368],[-35,70]],[[68175,41719],[-35,70]],[[68140,41824],[415,-35]],[[68555,41543],[2557,-2561]],[[71043,38982],[345,-561]],[[71388,37789],[-1174,737]],[[70455,38772],[-4837,386],[967,2315],[3041,-877]],[[81340,26526],[69,-105]],[[81755,26386],[69,175]],[[82307,27017],[691,106]],[[83068,27158],[138,70]],[[83344,27298],[138,35]],[[83551,27368],[69,35]],[[83690,27403],[1071,-1017]],[[84795,26210],[-1520,-1263]],[[83171,24982],[-138,70]],[[82860,25087],[-138,36]],[[82653,25123],[-242,70]],[[82238,25158],[-34,-35]],[[82135,25123],[-3525,280],[2730,1193]],[[86074,20351],[0,0]],[[84657,20351],[35,105]],[[84864,20456],[242,421]],[[85383,20737],[-139,-2316]],[[85037,18491],[-138,1825]],[[82377,36526],[-104,175]],[[82273,36947],[311,-35]],[[83206,37122],[173,-315]],[[83448,36736],[138,-210]],[[83586,36421],[-69,-1123]],[[83517,35052],[587,-1508]],[[84104,33438],[-34,-70]],[[83966,33333],[-69,-35]],[[83897,33263],[-242,70]],[[83517,33403],[-69,141]],[[83413,33544],[-104,35]],[[83206,33579],[-2350,210],[1555,2702]],[[73116,9649],[0,0]],[[75328,9684],[587,491]],[[75949,10246],[415,350]],[[76433,10631],[104,71]],[[76641,10702],[69,-71]],[[76848,10772],[-35,70]],[[76848,10877],[104,35]],[[77228,10947],[138,0]],[[77539,10947],[829,351]],[[78334,11263],[-449,-281]],[[77850,10842],[-346,-211]],[[77332,10526],[-208,-140]],[[77124,10386],[-34,35]],[[77090,10421],[-104,-70]],[[76986,10351],[35,0]],[[77021,10351],[34,-70]],[[77055,10281],[-69,-35]],[[76986,10246],[-380,-211]],[[76606,10035],[0,-35]],[[76606,10000],[-207,70]],[[76295,9965],[-138,-141]],[[76088,9754],[-277,-175]],[[75708,9544],[-70,-35]],[[75604,9509],[-35,-35]],[[75362,9474],[-2246,175],[2177,35]],[[81789,27368],[0,0]],[[79889,27754],[552,526],[1348,-912],[-1106,0],[-794,386]],[[77885,28140],[241,-386]],[[77815,27228],[-725,631]],[[76986,28105],[138,140]],[[77574,28280],[241,-35]],[[83448,33544],[-35,0]],[[83413,33544],[-104,35]],[[83309,33579],[-103,0]],[[83206,33579],[-795,2912]],[[82411,36491],[-34,35]],[[82377,36526],[-104,175]],[[82273,36701],[0,246]],[[82273,36947],[311,-35]],[[82584,36912],[622,210]],[[83206,37122],[173,-315]],[[83379,36807],[69,-71]],[[83448,36736],[138,-210]],[[83586,36526],[0,-105]],[[83586,36421],[-69,-1123]],[[83517,35298],[0,-246]],[[83517,35052],[587,-1508]],[[84104,33544],[0,-106]],[[84104,33438],[-34,-70]],[[84070,33368],[-104,-35]],[[83966,33333],[-69,-35]],[[83897,33298],[0,-35]],[[83897,33263],[-242,70]],[[83655,33333],[-138,70]],[[83517,33403],[-69,141]],[[82307,27017],[691,106]],[[82998,27123],[70,35]],[[83068,27158],[138,70]],[[83206,27228],[138,70]],[[83344,27298],[138,35]],[[83482,27333],[69,35]],[[83551,27368],[69,35]],[[83620,27403],[70,0]],[[83690,27403],[1071,-1017]],[[84761,26386],[34,-176]],[[84795,26210],[-1520,-1263]],[[83275,24947],[-104,35]],[[83171,24982],[-138,70]],[[83033,25052],[-173,35]],[[82860,25087],[-138,36]],[[82722,25123],[-69,0]],[[82653,25123],[-242,70]],[[82411,25193],[-173,-35]],[[82238,25158],[-34,-35]],[[82204,25123],[-69,0]],[[82135,25123],[-795,1473]],[[81340,26596],[0,-70]],[[81340,26526],[69,-105]],[[81409,26421],[346,-35]],[[81755,26386],[69,175]],[[81824,26561],[483,456]],[[80925,15333],[-69,-35]],[[80856,15298],[-311,-140]],[[80545,15158],[-276,-106]],[[80269,15052],[-311,71]],[[79958,15123],[-138,-527]],[[79820,14596],[-795,492]],[[79025,15088],[69,35]],[[79094,15123],[207,140]],[[79301,15263],[35,0]],[[79336,15263],[138,70]],[[79474,15333],[207,105]],[[79681,15438],[277,176]],[[79958,15614],[103,70]],[[80061,15684],[864,-351]],[[78368,11298],[-34,-35]],[[78334,11263],[-449,-281]],[[77885,10982],[-35,-140]],[[77850,10842],[-346,-211]],[[77504,10631],[-172,-105]],[[77332,10526],[-933,-456]],[[76399,10070],[-104,-105]],[[76295,9965],[-138,-141]],[[76157,9824],[-69,-70]],[[76088,9754],[-277,-175]],[[75811,9579],[-103,-35]],[[75708,9544],[-70,-35]],[[75638,9509],[-34,0]],[[75604,9509],[-35,-35]],[[75569,9474],[-207,0]],[[75362,9474],[-69,210]],[[75293,9684],[35,0]],[[75328,9684],[587,491]],[[75915,10175],[34,71]],[[75949,10246],[415,350]],[[76364,10596],[69,35]],[[76433,10631],[104,71]],[[76537,10702],[104,0]],[[76641,10702],[69,-71]],[[76710,10631],[138,141]],[[76848,10772],[-35,70]],[[76813,10842],[35,35]],[[76848,10877],[104,35]],[[76952,10912],[276,35]],[[77228,10947],[138,0]],[[77366,10947],[173,0]],[[77539,10947],[829,351]],[[77815,27228],[0,0]],[[77574,28280],[241,-35]],[[77815,28245],[70,-105]],[[77885,28140],[241,-386]],[[78126,27754],[-311,-526]],[[77815,27228],[-725,631]],[[77090,27859],[-104,246]],[[76986,28105],[138,140]],[[77124,28245],[450,35]],[[85244,18421],[-207,70]],[[85037,18491],[-138,1825]],[[84899,20316],[-242,35]],[[84657,20351],[35,105]],[[84692,20456],[172,0]],[[84864,20456],[242,421]],[[85106,20877],[277,-140]],[[85383,20737],[-139,-2316]],[[69626,40596],[-242,105]],[[69384,40701],[-380,211]],[[69004,40912],[-34,0]],[[68970,40912],[-484,316]],[[68486,41228],[-35,35]],[[68451,41263],[-69,70]],[[68382,41333],[-34,35]],[[68348,41368],[-35,70]],[[68313,41438],[-138,281]],[[68175,41719],[-35,70]],[[68140,41789],[0,35]],[[68140,41824],[415,-35]],[[68555,41789],[0,-246]],[[68555,41543],[2557,-2561]],[[71112,38982],[-69,0]],[[71043,38982],[345,-561]],[[71388,38421],[0,-632]],[[71388,37789],[-1174,737]],[[70214,38526],[241,246]],[[70455,38772],[-829,1824]]]}