{"type":"Topology","objects":{"data":{"geometries":[{"properties":{"type":"43100","name":"43"},"type":"Polygon","arcs":[[858,0,-857,-856,855,-897,1,-895,2,-893,3,-891,4,-889,5,-887,6,884,7,-883,8,-881,9,-879,10,-877,11,-875,12,-873,13,-871,14,-869,15,-867,16,-865,17,-863,18,-861,19,249,250,251,252,253,20,256,21,258,74,22,260,23,262,24,264,25,130,131,132,133,134,135,26,138,27,140,28,142,29,144,30,146,31,148,32,60,33,62,34,64,35,84,36,86,37,88,38,90,39,92,40,95,41,97,42]],"id":"feature_000"},{"properties":{"type":"43100","name":"43"},"type":"MultiPolygon","arcs":[[[191]],[[152,43]],[[153]],[[227,228,229,44,231,45,233,46,235,47]],[[118,48,120,49,122,50]],[[51]],[[225]],[[224,52]],[[53]],[[54]],[[55]],[[123]],[[56,270,-272,271,272,57,268]],[[124]],[[58]],[[59,60,61,62,63,64]],[[192,65,194,66,199,-201,200,201,-203,202,203,196,197,67,176,68,178,69,180,70,248,249,71,251,72,253,254,73,256,257,258,74,75,260,261,262,263,264,265,76,182,77,125,126,127,128,129,130,78,132,79,134,135,136,137,138,139,140,141,142,143,144,145,146,147,148,149,80,155,81,157,82,83,84,85,86,87,88,89,90,91,92,93,169,94,95,96,97,98,165,99,238,100,173,101,171,102,-222,103,-220,104,-218,105,240,241,106,243,-215,107,190,108,184,109,186,209,110],[175],[167,111]],[[204]],[[205]],[[206,112]],[[113]],[[114]],[[161,-163,162,163,115,159,116],[164]]],"id":"feature_001"},{"properties":{"type":"43100","name":"43"},"type":"Polygon","arcs":[[117,118,119,120,121,122]],"id":"feature_002"},{"properties":{"type":"43100","name":"43"},"type":"MultiPolygon","arcs":[[[123]],[[124]],[[125,126,127,128,129,130,131,132,133,134,135,136,137,138,139,140,141,142,143,144,145,146,147,148,149,150]]],"id":"feature_003"},{"properties":{"type":"43100","name":"43"},"type":"MultiPolygon","arcs":[[[151,152]],[[153]]],"id":"feature_004"},{"properties":{"type":"43100","name":"43"},"type":"Polygon","arcs":[[154,155,156,157]],"id":"feature_005"},{"properties":{"type":"43100","name":"43"},"type":"Polygon","arcs":[[158,159,160,161,-163,162,163],[164]],"id":"feature_006"},{"properties":{"type":"43100","name":"43"},"type":"Polygon","arcs":[[165,166,167,168,169,170]],"id":"feature_007"},{"properties":{"type":"43100","name":"43"},"type":"Polygon","arcs":[[171,172,173,174],[175]],"id":"feature_008"},{"properties":{"type":"43100","name":"43"},"type":"MultiPolygon","arcs":[[[176,177,178,179,180,181,182,183,184,185,186,-209,187]],[[188,-237,189,-212,190]]],"id":"feature_009"},{"properties":{"type":"43100","name":"43"},"type":"Polygon","arcs":[[191]],"id":"feature_010"},{"properties":{"type":"43100","name":"43"},"type":"Polygon","arcs":[[192,193,194,195]],"id":"feature_011"},{"properties":{"type":"43100","name":"43"},"type":"MultiPolygon","arcs":[[[196,197,198,199,-201,200,201,-203,202,203]],[[204]],[[205]],[[206,207]]],"id":"feature_012"},{"properties":{"type":"43100","name":"43"},"type":"Polygon","arcs":[[208,209,210,211,212,-247,213,214,215,-242,216,217,218,219,220,221,222]],"id":"feature_013"},{"properties":{"type":"43100","name":"43"},"type":"MultiPolygon","arcs":[[[223,224]],[[225]]],"id":"feature_014"},{"properties":{"type":"43100","name":"43"},"type":"Polygon","arcs":[[226,227,228,229,230,231,232,233,234,235]],"id":"feature_015"},{"properties":{"type":"43100","name":"43"},"type":"Polygon","arcs":[[236,237,238,239,240,241,242,243,244,245,246,247]],"id":"feature_016"},{"properties":{"type":"43100","name":"43"},"type":"MultiPolygon","arcs":[[[248,249,250,251,252,253,254,255,256,257,258,259,260,261,262,263,264,265,266]],[[267,268]],[[269,270,-272,271,272]]],"id":"feature_017"},{"properties":{"type":"43204","name":"43"},"type":"Polygon","arcs":[[273]],"id":"feature_018"},{"properties":{"type":"43204","name":"43"},"type":"Polygon","arcs":[[274,455,275,613]],"id":"feature_019"},{"properties":{"type":"43204","name":"43"},"type":"Polygon","arcs":[[276,461]],"id":"feature_020"},{"properties":{"type":"43204","name":"43"},"type":"Polygon","arcs":[[713,535,277,458,393,278,395,396,397,398,676,777,778,379,607,279,609,280,648,759,748,281,751,282,313,306,315,848,849,-851,389,283,376,687,-689,377,333,284,551,285]],"id":"feature_021"},{"properties":{"type":"43204","name":"43"},"type":"Polygon","arcs":[[-321,404,-326,-542,408,-410,409,410]],"id":"feature_022"},{"properties":{"type":"43204","name":"43"},"type":"Polygon","arcs":[[753,-301,750,751,752]],"id":"feature_023"},{"properties":{"type":"43204","name":"43"},"type":"Polygon","arcs":[[344,286,346,-348,-323,-683]],"id":"feature_024"},{"properties":{"type":"43204","name":"43"},"type":"Polygon","arcs":[[357,-786,-785,-784,-783,-572,-526]],"id":"feature_025"},{"properties":{"type":"43204","name":"43"},"type":"Polygon","arcs":[[-322,-556]],"id":"feature_026"},{"properties":{"type":"43204","name":"43"},"type":"Polygon","arcs":[[-331,780,-656]],"id":"feature_027"},{"properties":{"type":"43204","name":"43"},"type":"Polygon","arcs":[[334,335,336,-494,338,339,-308,333]],"id":"feature_028"},{"properties":{"type":"43204","name":"43"},"type":"Polygon","arcs":[[-736,287,-734,288,-732,289,-730,290,-728,291,-726,-725,-454,292,303,-382,293,-499,294,-422,295,-420,296,-418,-478,297,-476,298,-474,299,-472,-744,-433,-790]],"id":"feature_029"},{"properties":{"type":"43204","name":"43"},"type":"Polygon","arcs":[[300,754,-306,760,761,-762,-738,301,-741,-329,-328,842,-327,748,749]],"id":"feature_030"},{"properties":{"type":"43204","name":"43"},"type":"Polygon","arcs":[[485,486,-480,479,480,502,423,302,303,382,483,426]],"id":"feature_031"},{"properties":{"type":"43204","name":"43"},"type":"Polygon","arcs":[[-621,-712,-310,362,304]],"id":"feature_032"},{"properties":{"type":"43204","name":"43"},"type":"Polygon","arcs":[[367,-582,-332]],"id":"feature_033"},{"properties":{"type":"43204","name":"43"},"type":"Polygon","arcs":[[-547,-461,-393,-638]],"id":"feature_034"},{"properties":{"type":"43204","name":"43"},"type":"Polygon","arcs":[[315,848,-389,852,-388,374,-386,-385,-392,-810,-809,376,-687,-686,685,-685,-764,-763,-762,-761,305,-755,-754,312,313,306]],"id":"feature_035"},{"properties":{"type":"43204","name":"43"},"type":"Polygon","arcs":[[307,-340,339,340,-692,-691,690,-690,-689,377]],"id":"feature_036"},{"properties":{"type":"43204","name":"43"},"type":"Polygon","arcs":[[-701,308]],"id":"feature_037"},{"properties":{"type":"43204","name":"43"},"type":"Polygon","arcs":[[-711,-444,361,309]],"id":"feature_038"},{"properties":{"type":"43204","name":"43"},"type":"Polygon","arcs":[[310,-549,311,-703]],"id":"feature_039"},{"properties":{"type":"43204","name":"43"},"type":"Polygon","arcs":[[368,-584]],"id":"feature_040"},{"properties":{"type":"43204","name":"43"},"type":"Polygon","arcs":[[-319,414,-416,415,416]],"id":"feature_041"},{"properties":{"type":"43204","name":"43"},"type":"Polygon","arcs":[[748,749,750,751,752,312,313,314,315,-848,-847,-846,316,755,-844,-843,-842,818,756,-840,-839,-838,-837,-836,-835,-834,-833,-832,-831,-830,-829,-828,-827,757,-825,-824,-823,-822,648,759]],"id":"feature_042"},{"properties":{"type":"43204","name":"43"},"type":"Polygon","arcs":[[317,-595,-509,-597]],"id":"feature_043"},{"properties":{"type":"43204","name":"43"},"type":"Polygon","arcs":[[318,399,319,401,-403,402,403,320,411,-467,413],[321,-557]],"id":"feature_044"},{"properties":{"type":"43204","name":"43"},"type":"Polygon","arcs":[[-560,-616,784]],"id":"feature_045"},{"properties":{"type":"43204","name":"43"},"type":"Polygon","arcs":[[322,347,348,-350,349,350,-770,-769,768,-768,-767,766,-766,-684]],"id":"feature_046"},{"properties":{"type":"43204","name":"43"},"type":"Polygon","arcs":[[405,323,-705,324,407,-538,325]],"id":"feature_047"},{"properties":{"type":"43204","name":"43"},"type":"Polygon","arcs":[[326,-843,327,328,-740,-534,329,-532,-531,-530,771,772,773,-593,-673,778,779,330,-655,-839,-654,-837,-653,-835,-652,-833,-651,-831,-650,-829,-658,-827,757,-379,-644,758,759]],"id":"feature_048"},{"properties":{"type":"43204","name":"43"},"type":"Polygon","arcs":[[-577,-497,365,-669,366,331,-581,-543]],"id":"feature_049"},{"properties":{"type":"43204","name":"43"},"type":"Polygon","arcs":[[332,-588,-625,-590]],"id":"feature_050"},{"properties":{"type":"43204","name":"43"},"type":"Polygon","arcs":[[333,334,335,336,494,487,488,-490,489,490,337,492,338,339,340,692,-694,693,694,695,427,-429,428,429,341,431,697,-699,698,699,554,342,553,678,343,681,344,345,346,-348,347,348,-350,349,350,598,-665,664,665,351,658,601,503,352,505,353,507,603,803,804,805,354,605,526,-514,513,514,-516,515,516,517,518,355,520,-522,521,522,356,524,357,786,717,718,719,-721,720,721,358,359,439,-447,445,-445,470,-793,792,793,794,-452,567,557,707,-451,-450,-449,435,360,437,442,361,362,363,621,364,623,495,365,667,366,367,582,368,584,369,586,670,626,509,-511,510,511,370,-631,371,640,372,528,591,675,676,777,778,779,780,781,-820,-819,-818,-817,846,373,-815,814,-814,-388,374,-386,375,-812,-392,-810,-809,376,687,-689,377]],"id":"feature_051"},{"properties":{"type":"43204","name":"43"},"type":"Polygon","arcs":[[-645,378,-758,826,-657,-782,-781,-780,379,-607,-646,822]],"id":"feature_052"},{"properties":{"type":"43204","name":"43"},"type":"Polygon","arcs":[[380,381,382,-483,-501,-500]],"id":"feature_053"},{"properties":{"type":"43204","name":"43"},"type":"Polygon","arcs":[[383]],"id":"feature_054"},{"properties":{"type":"43204","name":"43"},"type":"Polygon","arcs":[[384,385,386,387,-853,388,849,-851,389,390,809,391]],"id":"feature_055"},{"properties":{"type":"43204","name":"43"},"type":"Polygon","arcs":[[-592,-529,-528,-639,392,-460,393,394,395,396,397,398,-676]],"id":"feature_056"},{"properties":{"type":"43204","name":"43"},"type":"Polygon","arcs":[[399,400,401,-403,402,403,404,405,406,407,538,-540,539,540,408,-410,409,410,411,463,412,465,413,414,-416,415,416]],"id":"feature_057"},{"properties":{"type":"43204","name":"43"},"type":"Polygon","arcs":[[417,418,419,420,421,422,-498,423,424,-468]],"id":"feature_058"},{"properties":{"type":"43204","name":"43"},"type":"Polygon","arcs":[[425]],"id":"feature_059"},{"properties":{"type":"43204","name":"43"},"type":"Polygon","arcs":[[-486,-485,426]],"id":"feature_060"},{"properties":{"type":"43204","name":"43"},"type":"Polygon","arcs":[[-696,695,427,-429,428,429,430,431,-697]],"id":"feature_061"},{"properties":{"type":"43204","name":"43"},"type":"Polygon","arcs":[[788,789,432,433,-742,794,-452,-567,-566,565,-565,434,-563,-562,561,-561]],"id":"feature_062"},{"properties":{"type":"43204","name":"43"},"type":"Polygon","arcs":[[435,436,437,-442,-449]],"id":"feature_063"},{"properties":{"type":"43204","name":"43"},"type":"Polygon","arcs":[[438,439,-447,445,-445,-470]],"id":"feature_064"},{"properties":{"type":"43204","name":"43"},"type":"Polygon","arcs":[[-451,-441,-709]],"id":"feature_065"},{"properties":{"type":"43204","name":"43"},"type":"Polygon","arcs":[[-710,440,-450,441,442,443]],"id":"feature_066"},{"properties":{"type":"43204","name":"43"},"type":"Polygon","arcs":[[792,-471,444,445,446,447,448,449,450,-708,-558,-568,451,-795,-794,-793]],"id":"feature_067"},{"properties":{"type":"43204","name":"43"},"type":"Polygon","arcs":[[452,453,724,-725,-724]],"id":"feature_068"},{"properties":{"type":"43204","name":"43"},"type":"Polygon","arcs":[[-612,454,455,456]],"id":"feature_069"},{"properties":{"type":"43204","name":"43"},"type":"Polygon","arcs":[[457,458,459,460,-546]],"id":"feature_070"},{"properties":{"type":"43204","name":"43"},"type":"Polygon","arcs":[[461,462]],"id":"feature_071"},{"properties":{"type":"43204","name":"43"},"type":"Polygon","arcs":[[463,464,465,466]],"id":"feature_072"},{"properties":{"type":"43204","name":"43"},"type":"Polygon","arcs":[[467,468,469,470,-793,-792,471,472,473,474,475,476,477]],"id":"feature_073"},{"properties":{"type":"43204","name":"43"},"type":"Polygon","arcs":[[-716,-535,478]],"id":"feature_074"},{"properties":{"type":"43204","name":"43"},"type":"Polygon","arcs":[[-480,479,480,481,500,482,483,484,485,486]],"id":"feature_075"},{"properties":{"type":"43204","name":"43"},"type":"Polygon","arcs":[[487,488,-490,489,490,491,492,493,494]],"id":"feature_076"},{"properties":{"type":"43204","name":"43"},"type":"Polygon","arcs":[[-799,-798,797,-797,-570,-559,-619,495,496,-576]],"id":"feature_077"},{"properties":{"type":"43204","name":"43"},"type":"Polygon","arcs":[[497,498,499,500,501,502]],"id":"feature_078"},{"properties":{"type":"43204","name":"43"},"type":"Polygon","arcs":[[-603,503,504,505,506,507]],"id":"feature_079"},{"properties":{"type":"43204","name":"43"},"type":"Polygon","arcs":[[-598,508,-594,-773]],"id":"feature_080"},{"properties":{"type":"43204","name":"43"},"type":"Polygon","arcs":[[782,-618,-573,805,806]],"id":"feature_081"},{"properties":{"type":"43204","name":"43"},"type":"Polygon","arcs":[[628,-628,509,-511,510,511,512,-548,-636,-635,634,-634,-633,632,-632,-631,-630]],"id":"feature_082"},{"properties":{"type":"43204","name":"43"},"type":"Polygon","arcs":[[-514,513,514,-516,515,516,517,518,519,520,-522,521,522,523,524,525,-571,526]],"id":"feature_083"},{"properties":{"type":"43204","name":"43"},"type":"Polygon","arcs":[[-642,-641,-640,527,528,-591]],"id":"feature_084"},{"properties":{"type":"43204","name":"43"},"type":"Polygon","arcs":[[763,764,765,-767,766,767,-769,768,769,770,529,530,531,532,533,-739]],"id":"feature_085"},{"properties":{"type":"43204","name":"43"},"type":"Polygon","arcs":[[534,-715,535,536]],"id":"feature_086"},{"properties":{"type":"43204","name":"43"},"type":"Polygon","arcs":[[537,538,-540,539,540,541]],"id":"feature_087"},{"properties":{"type":"43204","name":"43"},"type":"Polygon","arcs":[[542,-580,543,-578]],"id":"feature_088"},{"properties":{"type":"43204","name":"43"},"type":"Polygon","arcs":[[544,545,546,-637,547]],"id":"feature_089"},{"properties":{"type":"43204","name":"43"},"type":"Polygon","arcs":[[548,549]],"id":"feature_090"},{"properties":{"type":"43204","name":"43"},"type":"Polygon","arcs":[[550,551]],"id":"feature_091"},{"properties":{"type":"43204","name":"43"},"type":"Polygon","arcs":[[552,553,-678,554]],"id":"feature_092"},{"properties":{"type":"43204","name":"43"},"type":"Polygon","arcs":[[555,556]],"id":"feature_093"},{"properties":{"type":"43204","name":"43"},"type":"Polygon","arcs":[[-569,557,-707,-620,558]],"id":"feature_094"},{"properties":{"type":"43204","name":"43"},"type":"Polygon","arcs":[[800,801,-574,559,785,786,787,560,-562,561,562,563,564,-566,565,566,567,568,569,796,-798,797,798,799]],"id":"feature_095"},{"properties":{"type":"43204","name":"43"},"type":"Polygon","arcs":[[570,571,-807,-806,572,-617,573,-802,574,-800,575,576,577,578,579,580,581,582,583,584,585,586,-670,-626,587,588,589,-643,590,591,-675,775,-674,592,-774,593,594,595,596,597,-772,-771,598,-665,-664,599,-662,600,-660,601,602,603,803,604,605]],"id":"feature_096"},{"properties":{"type":"43204","name":"43"},"type":"Polygon","arcs":[[606,607,608,609,610,-647]],"id":"feature_097"},{"properties":{"type":"43204","name":"43"},"type":"Polygon","arcs":[[611,612,613,614]],"id":"feature_098"},{"properties":{"type":"43204","name":"43"},"type":"Polygon","arcs":[[615,616,617,783]],"id":"feature_099"},{"properties":{"type":"43204","name":"43"},"type":"Polygon","arcs":[[618,619,-713,620,621,622,623]],"id":"feature_100"},{"properties":{"type":"43204","name":"43"},"type":"Polygon","arcs":[[624,625,-672,626,627,-629,629,630,631,-633,632,633,-635,634,635,636,637,638,639,640,641,642]],"id":"feature_101"},{"properties":{"type":"43204","name":"43"},"type":"Polygon","arcs":[[643,644,-823,645,646,647,648,-759]],"id":"feature_102"},{"properties":{"type":"43204","name":"43"},"type":"Polygon","arcs":[[828,649,830,650,832,651,834,652,836,653,838,654,655,781,656,657]],"id":"feature_103"},{"properties":{"type":"43204","name":"43"},"type":"Polygon","arcs":[[658,659,660,661,662,663,664,665,666]],"id":"feature_104"},{"properties":{"type":"43204","name":"43"},"type":"Polygon","arcs":[[667,668]],"id":"feature_105"},{"properties":{"type":"43204","name":"43"},"type":"Polygon","arcs":[[669,670,671]],"id":"feature_106"},{"properties":{"type":"43204","name":"43"},"type":"Polygon","arcs":[[672,673,-776,674,675,676,777]],"id":"feature_107"},{"properties":{"type":"43204","name":"43"},"type":"Polygon","arcs":[[677,678,679,-748,-747,746,-746,680,681,682,683,-765,684,-686,685,686,687,-689,688,689,-691,690,691,692,-694,693,694,695,696,697,-699,698,699]],"id":"feature_108"},{"properties":{"type":"43204","name":"43"},"type":"Polygon","arcs":[[700,701,702,703,704,705]],"id":"feature_109"},{"properties":{"type":"43204","name":"43"},"type":"Polygon","arcs":[[706,707,708,709,710,711,712]],"id":"feature_110"},{"properties":{"type":"43204","name":"43"},"type":"Polygon","arcs":[[713,714,715,716]],"id":"feature_111"},{"properties":{"type":"43204","name":"43"},"type":"Polygon","arcs":[[717,718,719,-721,720,721,722,723,724,725,726,727,728,729,730,731,732,733,734,735,-789,-788]],"id":"feature_112"},{"properties":{"type":"43204","name":"43"},"type":"Polygon","arcs":[[736,737,761,762,738,739,740]],"id":"feature_113"},{"properties":{"type":"43204","name":"43"},"type":"Polygon","arcs":[[791,792,793,741,742,743]],"id":"feature_114"},{"properties":{"type":"43204","name":"43"},"type":"Polygon","arcs":[[744,745,-747,746,747]],"id":"feature_115"},{"properties":{"type":"43204","name":"43"},"type":"Polygon","arcs":[[748,749,750,751,752,753,754,755,-844,-843,-842,818,756,-840,-839,-838,-837,-836,-835,-834,-833,-832,-831,-830,-829,-828,-827,757,-825,758,759]],"id":"feature_116"},{"properties":{"type":"43204","name":"43"},"type":"Polygon","arcs":[[-819,-818,760,761,762,763,764,765,-767,766,767,-769,768,769,770,771,772,773,774,775,776,777,778,779,780,781,-820]],"id":"feature_117"},{"properties":{"type":"43204","name":"43"},"type":"Polygon","arcs":[[782,783,784,785,786,787,788,789,790,791,792,793,794,795,796,-798,797,798,799,800,801,802,803,804,805,806]],"id":"feature_118"},{"properties":{"type":"43204","name":"43"},"type":"Polygon","arcs":[[-853,-852,-851,-855,807,808,809,810,811,812]],"id":"feature_119"},{"properties":{"type":"43204","name":"43"},"type":"Polygon","arcs":[[813,-815,814,815,816,817,818,819,820,821,822,823,824,825,826,827,828,829,830,831,832,833,834,835,836,837,838,839,840,841,842,843,844,845,846,847,848,849,-851,850,851,852]],"id":"feature_120"},{"properties":{"type":"43204","name":"43"},"type":"Polygon","arcs":[[853,854]],"id":"feature_121"},{"properties":{"type":"43210","name":"43"},"type":"Polygon","arcs":[[-856,855,856,857,858,859,860,861,862,863,864,865,866,867,868,869,870,871,872,873,874,875,876,877,878,879,880,881,882,883,884,885,886,887,888,889,890,891,892,893,894,895,896]],"id":"feature_122"},{"properties":{"type":"43210","name":"43"},"type":"Polygon","arcs":[[906,897,908,898,910,899]],"id":"feature_123"},{"properties":{"type":"43210","name":"43"},"type":"Polygon","arcs":[[902,900,904,901]],"id":"feature_124"},{"properties":{"type":"43210","name":"43"},"type":"Polygon","arcs":[[902,903,904,905]],"id":"feature_125"},{"properties":{"type":"43210","name":"43"},"type":"Polygon","arcs":[[906,907,908,909,910,911]],"id":"feature_126"}],"type":"GeometryCollection"}},"bbox":[130.414,32.6603,130.8422,33.0122],"transform":{"scale":[4.2820428204282435e-06,3.519035190351909e-06],"translate":[130.414,32.6603]},"arcs":[[[73867,82182],[-24,-29]],[[73376,80789],[24,-85]],[[73400,80619],[163,-398]],[[73563,80192],[0,-28]],[[73586,80107],[24,-57]],[[73610,80022],[23,-28]],[[73656,79994],[0,-29]],[[73680,79965],[23,-57]],[[73703,79880],[47,-57]],[[73750,79738],[47,-228]],[[73797,79482],[116,-114]],[[73890,79368],[70,-199]],[[73960,78743],[-23,-57]],[[73937,78630],[-24,-228]],[[73890,78402],[70,-227]],[[73960,78146],[-23,-198]],[[73937,77805],[-211,-568]],[[73586,77152],[-46,-171]],[[73563,76896],[187,-426]],[[73726,76441],[-2241,-9292],[3316,-5001],[-1658,-6593]],[[72816,54390],[163,-85]],[[73166,54333],[210,0]],[[73656,54333],[187,-28]],[[73890,54333],[187,28]],[[74380,54390],[47,114]],[[74474,54589],[6422,1392],[-934,-1136]],[[80896,54759],[163,86]],[[81573,55100],[94,-28]],[[82040,54901],[140,29]],[[82250,55242],[-46,199]],[[82297,55470],[117,113]],[[82554,55612],[140,142]],[[84866,56010],[1355,-86]],[[86314,55953],[817,312]],[[87388,55782],[24,-56]],[[87575,55015],[3643,-483],[654,-4234],[3643,-142],[1378,-6280],[-3713,0],[-6259,-4405],[-1378,1535]],[[85473,41062],[-117,29]],[[85123,41062],[-70,-28]],[[84983,40977],[23,-28]],[[85100,40750],[23,-57]],[[85170,40608],[1634,-5939]],[[86944,34271],[94,-284]],[[87295,33390],[1915,-2529],[-6492,-2615],[-2242,1222],[-2779,-3722],[-3830,113],[-4157,-3694],[-3176,1478],[-911,-1819],[12284,-568],[2639,-2785],[607,-4120],[-1915,-569],[47,-2500],[5721,-9264],[-5908,-370],[-1191,2302],[-2476,-3950],[-4787,5911],[1424,2756],[-1961,-1023],[-94,2671],[-1518,-2500],[-8197,1790],[-1728,3609],[-2102,-1336],[94,2245],[-2826,1989],[-3176,-2245],[-5301,2046],[-1752,13811],[-1868,-170],[444,-57],[116,-1535],[-163,1535],[-4904,-370],[2102,1791],[4250,-1166],[-584,3268],[2265,3808],[-1751,1648],[3456,-994],[-2359,3865],[3947,3125],[-303,2046],[5161,-4774],[3806,682],[1051,3638],[-1635,2785],[4975,4859],[-1752,-57],[70,3637],[-6399,-1051],[-233,284],[-1028,171],[-840,398],[3573,9434],[-537,3978],[-2616,2643],[1401,3609],[5418,1336],[1098,3950],[3176,2557],[3059,-852],[2756,7104],[5908,-2302],[-724,-6365]],[[61162,15288],[187,938]],[[62120,24325],[140,994]],[[61886,25149],[117,-171]],[[61910,24950],[-94,28]],[[63755,21995],[-1261,-398]],[[64152,29326],[-94,-85]],[[63474,28019],[47,-85]],[[60999,29838],[1448,1250]],[[64946,33390],[23,-57],[0,-568],[-47,142],[24,483]],[[56515,35265],[1938,1109],[-1027,-1450]],[[75338,43137],[-584,57],[-957,-256],[747,710],[794,-511]],[[65156,47343],[-561,426],[-210,454],[0,285],[771,-1165]],[[66837,48536],[-817,-1193],[-1191,1221],[1004,1251],[1004,-1279]],[[71041,52145],[117,227]],[[71274,52259],[0,-29]],[[68075,55186],[-374,-86],[0,597],[257,29],[117,-540]],[[87575,55015],[-1354,909]],[[86221,55924],[93,29]],[[86314,55953],[817,312]],[[87131,56265],[257,-483]],[[87388,55782],[24,-56]],[[87412,55726],[163,-711]],[[65973,46774],[187,57]],[[66253,46803],[2149,1847],[-257,8809]],[[69219,58084],[748,-10372],[1237,0],[-2288,-1961],[373,-2273]],[[69663,44444],[47,114]],[[69803,44643],[47,85]],[[70107,44927],[1775,3353]],[[72792,54901],[-46,-85]],[[72699,54418],[93,-28]],[[72909,54333],[70,-28]],[[73633,54333],[23,0]],[[73656,54333],[187,-28]],[[73516,51633],[3503,1279],[-4484,-8042]],[[72862,44501],[4951,1534],[2756,5428]],[[80149,54617],[23,-85]],[[80499,54504],[23,-29]],[[83628,53083],[-6375,-8866],[8664,2756],[-12097,-6507],[6422,483]],[[83301,43421],[724,-1364]],[[84025,41631],[0,0]],[[84025,41631],[1518,-625]],[[85543,41006],[-70,56]],[[85473,41062],[-117,29]],[[85356,41091],[-233,-29]],[[85123,41062],[-70,-28]],[[85053,41034],[-70,-57]],[[84983,40977],[23,-28]],[[85006,40949],[94,-199]],[[85100,40750],[23,-57]],[[85123,40693],[47,-85]],[[85170,40608],[-10159,-2671],[6726,-2473]],[[82904,34186],[3900,483]],[[86804,34669],[140,-398]],[[86944,34271],[94,-284]],[[87038,33987],[257,-597]],[[87295,33390],[-4554,-767]],[[79074,32964],[-5674,2955]],[[70037,37596],[-47,-143]],[[70083,33504],[3153,-6622],[-4484,5911]],[[65973,35635],[350,1676]],[[66347,37311],[187,29]],[[66627,37368],[2405,1364]],[[69149,38789],[164,114]],[[69756,39301],[47,28]],[[69873,39414],[1261,2075]],[[73073,42398],[2895,-341],[794,2444],[-3503,-1478]],[[71368,42313],[-24,-86]],[[70994,41574],[-5908,-4291],[-771,-5826],[-3083,739],[1075,2359],[-2219,-2330],[-1378,1563],[6166,5029],[163,4803]],[[80125,35436],[-93,-57]],[[67608,61494],[70,29]],[[67001,62716],[46,0],[24,-28],[-47,0],[-23,28]],[[66954,62744],[23,-28],[-23,0],[0,28]],[[65156,65217],[-94,-29]],[[64992,65188],[1565,-3154],[-2522,3410]],[[60999,29838],[1448,1250]],[[62447,31088],[1705,-1762]],[[64152,29326],[-94,-85]],[[64058,29241],[-584,-1222]],[[63474,28019],[47,-85]],[[63521,27934],[-1868,-512],[-654,2416]],[[79401,51662],[0,0]],[[80195,55555],[164,0],[117,-28],[-164,-29],[-117,57]],[[80569,51463],[-1004,114]],[[79565,51577],[23,0]],[[79588,51577],[-1308,2131],[1565,1222]],[[79845,54930],[-23,0],[0,-29],[23,29]],[[79845,54930],[117,-85]],[[79962,54845],[187,-228]],[[80149,54617],[23,-85]],[[80172,54532],[327,-28]],[[80499,54504],[23,-29]],[[80522,54475],[234,142]],[[80756,54617],[140,142]],[[80896,54759],[-140,-142]],[[80756,54617],[303,228]],[[81059,54845],[514,255]],[[81573,55100],[94,-28]],[[81667,55072],[373,-171]],[[82040,54901],[140,29]],[[82180,54930],[70,312]],[[82250,55242],[-46,199]],[[82204,55441],[93,29]],[[82297,55470],[117,113]],[[82414,55583],[140,29]],[[82554,55612],[140,142]],[[82694,55754],[2172,256]],[[84866,56010],[-1238,-2927]],[[83628,53083],[-3059,-1620]],[[61162,15288],[187,938]],[[61349,16226],[1308,1080],[187,-2359],[-1682,341]],[[60882,17562],[794,227],[654,-85],[-1541,-739],[93,597]],[[84025,41631],[-1494,-1791],[-2289,1109]],[[80242,40949],[514,2472],[2545,0]],[[83301,43421],[724,-1364]],[[84025,42057],[0,-426]],[[65156,65217],[-94,-29]],[[65062,65188],[-70,0]],[[64992,65188],[-957,256]],[[64035,65444],[-421,3325],[2803,-625]],[[66440,68144],[-23,0]],[[66417,68144],[-1261,-2927]],[[64852,67206],[0,0]],[[82741,32623],[-3667,341]],[[79074,32964],[958,2415]],[[80032,35379],[93,57]],[[80125,35436],[1612,28]],[[81737,35464],[1167,-1278]],[[82904,34186],[-163,-1563]],[[68752,32793],[-2288,-85],[-491,2927]],[[65973,35635],[4017,1818]],[[69990,37453],[1495,-1790],[-1402,-2159]],[[70083,33504],[-1331,-711]],[[69126,34271],[-724,597],[-257,-1308],[841,285],[140,426]],[[69289,43478],[374,966]],[[69663,44444],[47,114]],[[69710,44558],[93,85]],[[69803,44643],[47,85]],[[69850,44728],[257,199]],[[70107,44927],[2428,-57]],[[72535,44870],[327,-369]],[[72862,44501],[397,-1478]],[[73259,43023],[-1891,-710]],[[71368,42313],[-24,-86]],[[71344,42227],[-116,-284]],[[69640,42114],[-351,1364]],[[73073,42398],[-1588,-1165]],[[71064,41233],[70,85]],[[71134,41489],[1939,909]],[[75291,13896],[-1308,-1932],[-2125,539],[1822,2899],[1611,-1506]],[[65039,43620],[934,3154]],[[65973,46774],[187,57]],[[66160,46831],[93,-28]],[[66253,46803],[2242,-2728],[-3456,-455]],[[69733,59363],[0,28]],[[69733,59391],[-1705,-227],[1191,-1080]],[[69219,58084],[-1074,-625]],[[68145,57459],[-1144,2984]],[[67024,60443],[-23,0]],[[67001,60443],[-140,341]],[[66837,60784],[24,0]],[[66861,60784],[2872,-1421]],[[68075,61494],[47,-28],[-47,0],[0,28]],[[67818,61523],[117,-29],[0,-28],[-94,28],[-23,29]],[[67678,61523],[-70,-29]],[[67608,61494],[70,29]],[[69640,42114],[1588,-171]],[[71228,41943],[-234,-369]],[[70994,41574],[140,-85]],[[71134,41489],[0,-171]],[[71134,41318],[-93,-142]],[[70013,39585],[-140,-171]],[[69873,39414],[-70,-57]],[[69803,39357],[-47,-56]],[[69756,39272],[-607,-483]],[[69149,38789],[-117,-57]],[[69032,38732],[-2405,-1364]],[[66627,37368],[-93,-28]],[[66534,37340],[-187,-29]],[[66347,37311],[-24,0]],[[66323,37311],[-817,-2102],[-2592,142],[3433,7331],[3293,-568]],[[56515,35265],[911,-341]],[[57426,34924],[-2219,-1591],[1308,1932]],[[57940,34413],[233,-398],[24,-85],[-281,28],[24,455]],[[63755,21995],[-1261,-398]],[[62494,21597],[-1425,710],[1004,1847]],[[62073,24154],[-23,0]],[[62050,24154],[70,171]],[[62120,24325],[140,994]],[[62260,25319],[-374,-170]],[[61886,25149],[117,-171]],[[62003,24978],[-93,-28]],[[61910,24950],[-94,28]],[[61816,24978],[2242,29],[-303,-3012]],[[71064,41233],[421,0]],[[71485,41233],[3269,-2529],[-1354,-2785]],[[73400,35919],[-3363,1677]],[[70037,37596],[-724,1307]],[[69313,38903],[443,369]],[[69756,39272],[0,29]],[[69756,39301],[47,28]],[[69803,39329],[0,28]],[[69803,39357],[70,57]],[[69873,39414],[140,171]],[[70013,39585],[1028,1591]],[[71041,41176],[23,57]],[[71882,48280],[-514,6252],[1775,1023]],[[73143,55555],[-351,-654]],[[72792,54901],[-46,-85]],[[72746,54816],[-47,-398]],[[72699,54418],[93,-28]],[[72792,54390],[24,0]],[[72816,54390],[93,-57]],[[72909,54333],[70,-28]],[[72979,54305],[187,28]],[[73166,54333],[210,0]],[[73376,54333],[257,0]],[[73633,54333],[210,-28]],[[73843,54305],[47,28]],[[73890,54333],[187,28]],[[74077,54361],[303,29]],[[74380,54390],[47,114]],[[74427,54504],[47,85]],[[74474,54589],[-958,-2956]],[[73516,51633],[-1634,-3353]],[[71041,52145],[233,85]],[[71274,52230],[-303,-3666],[70,3581]],[[71274,52259],[-116,113]],[[71158,52372],[-444,1506],[233,768],[397,511],[-233,-1762]],[[71088,53395],[23,0]],[[71111,53395],[163,-1136]],[[9271,97925],[-46,-29],[93,284],[0,-85],[-47,-170]],[[5581,98123],[-303,114]],[[5278,98294],[350,-114]],[[7963,98294],[-23,-57]],[[10719,79368],[-1588,1819],[-2896,-824]],[[5605,80079],[-24,85]],[[70,97072],[-70,171]],[[2616,97981],[70,29]],[[5628,97811],[94,-29]],[[5838,97782],[47,-28]],[[8524,97555],[117,29]],[[10999,97470],[1752,-114]],[[14969,97129],[6399,170],[2663,2700],[3246,-10031],[-6025,-10458],[-3083,-142],[747,3723],[-4484,-369],[-2498,-3496]],[[6189,95026],[-211,-483]],[[11630,89939],[47,-85]],[[11793,89655],[24,-85]],[[11817,89343],[-24,-142]],[[11817,88973],[117,-256]],[[11934,88661],[23,-29]],[[12004,87751],[-211,-540]],[[10976,85933],[187,369]],[[11326,86643],[351,682]],[[11700,87382],[47,85]],[[11747,87581],[-70,398]],[[11490,89598],[-47,57]],[[11350,89797],[-24,57]],[[11326,89911],[-23,114]],[[5675,97782],[70,-937]],[[5325,95850],[-70,57]],[[11140,87297],[653,-86]],[[11793,87211],[-864,-1392]],[[6656,89854],[770,142]],[[5745,96504],[0,28]],[[6539,97555],[374,-142]],[[10532,97555],[0,-142]],[[18869,84256],[141,-398]],[[6843,89343],[46,-29]],[[18729,83517],[374,-199]],[[19173,83148],[-630,511]],[[5862,97782],[23,-28]],[[5885,97754],[654,-199]],[[6539,97555],[374,-142]],[[6913,97413],[1074,-57]],[[5768,96532],[-23,0]],[[5465,92696],[93,-512]],[[16044,87780],[654,-853]],[[17025,86359],[-24,-483]],[[16277,85648],[-677,569]],[[16231,86643],[23,-284]],[[6002,95111],[-140,-454]],[[16184,84995],[1705,-313]],[[18356,84086],[-2195,795]],[[14619,85194],[1238,-85]],[[3970,97981],[887,-1307]],[[4787,96674],[-23,-28]],[[4764,96646],[140,-654]],[[4741,95424],[-24,-57]],[[3643,95566],[187,28]],[[8477,91758],[-233,512]],[[5675,91474],[23,-114]],[[10532,97555],[467,-85]],[[10999,97470],[1005,-853]],[[12004,96617],[-24,0]],[[11980,96617],[304,-170]],[[12284,95253],[-140,-28]],[[11186,96504],[-630,909]],[[10556,97413],[-24,0]],[[10532,97413],[-116,0]],[[10626,96191],[-584,568]],[[7520,95708],[-374,85]],[[6562,95538],[-373,-455]],[[6119,95083],[70,-57]],[[6189,95026],[-211,-483]],[[5978,94543],[-116,85]],[[5862,94657],[0,-29]],[[5862,94628],[-981,-682]],[[4881,93918],[0,28]],[[4881,93946],[-24,29]],[[5652,94031],[420,-539]],[[6749,92866],[117,29]],[[7076,92952],[117,28]],[[12704,93719],[-1121,767]],[[16044,93889],[70,-625]],[[15904,92923],[-164,-113]],[[15273,92582],[-911,-511]],[[12961,89684],[-1471,-86]],[[11490,89598],[-3293,-1051]],[[8360,87837],[47,-256]],[[6866,89030],[-23,313]],[[6843,89343],[-187,511]],[[6656,89854],[770,142]],[[7777,90053],[467,199]],[[8851,90820],[93,341]],[[8781,91616],[-304,142]],[[8477,91758],[-724,398]],[[6749,91843],[-467,-142]],[[5908,91019],[211,-1108]],[[6562,88178],[-1378,312]],[[5161,88490],[-327,114]],[[4834,88632],[-350,114]],[[6446,96447],[677,256]],[[7870,96902],[47,-29]],[[8174,96788],[0,-29]],[[8641,97584],[327,-57]],[[9435,97555],[1097,0]],[[3129,97356],[70,-85]],[[3573,95339],[-584,56]],[[11163,86302],[-187,-369]],[[10976,85933],[-47,-114]],[[10929,85819],[-257,369]],[[10252,85450],[-140,-1421],[-887,-228],[210,1563],[817,86]],[[8477,97214],[-303,-426]],[[8174,96788],[-257,85]],[[7917,96873],[-47,29]],[[7870,96902],[-140,85]],[[7683,96987],[351,369]],[[8150,97356],[374,199]],[[8524,97555],[117,0]],[[8571,97385],[-94,-171]],[[4460,87183],[24,-938]],[[5862,80249],[-257,-170]],[[5605,80079],[-24,85]],[[5581,80164],[-1611,9264]],[[3970,89428],[-27,47]],[[3943,89475],[27,-47]],[[3970,89428],[0,2842]],[[16698,86927],[327,-568]],[[17025,86359],[-24,-483]],[[17001,85876],[-280,-85]],[[16721,85819],[0,-28]],[[16721,85791],[-444,-143]],[[16277,85648],[-420,-539]],[[15857,85109],[327,-114]],[[16184,84995],[-23,-114]],[[16161,84881],[-1402,142]],[[14549,85563],[374,398]],[[14899,85961],[24,0]],[[14923,85961],[677,256]],[[15600,86217],[47,341]],[[15413,86728],[-23,228]],[[15530,87012],[514,768]],[[16044,87780],[163,113]],[[16231,87893],[-24,0]],[[16207,87893],[491,-966]],[[11653,88604],[24,-625]],[[11677,87979],[70,-398]],[[11747,87581],[0,-114]],[[11747,87467],[-47,-85]],[[11700,87382],[-23,-57]],[[11677,87325],[-351,-682]],[[11163,87069],[-23,228]],[[11140,87297],[93,1392]],[[9295,98152],[23,-57],[-93,-199],[23,114],[47,142]],[[9225,87098],[1261,426]],[[10369,96987],[70,-341]],[[10416,96646],[23,0]],[[10439,96646],[187,-455]],[[10626,96191],[-584,568]],[[10042,96759],[140,256]],[[11466,90082],[-163,227]],[[11303,90309],[-23,-29]],[[12471,91531],[-24,28]],[[7940,88291],[420,-454]],[[8360,87837],[47,-256]],[[8407,87581],[-490,-682]],[[10719,88547],[-2522,0]],[[8197,88547],[-187,28]],[[7169,89030],[281,-625]],[[7496,88320],[421,-1421]],[[7917,86899],[-1051,2131]],[[6866,89030],[210,142]],[[9528,89570],[-1541,-1023]],[[7987,88547],[-24,-28],[24,0],[0,28]],[[7987,88547],[23,28]],[[8010,88575],[-70,-284]],[[7940,88291],[-444,29]],[[7496,88320],[-46,85]],[[7450,88405],[303,625]],[[9552,89797],[980,313]],[[12517,88149],[-513,-398]],[[12004,87751],[-24,739]],[[5558,98123],[-280,114]],[[5278,98237],[0,57]],[[5278,98294],[327,-85]],[[6119,81954],[116,-1591]],[[6235,80363],[-373,-114]],[[5862,80249],[-1378,5996]],[[4484,86245],[163,0]],[[7940,98237],[23,57]],[[7963,98294],[-23,-57]],[[15647,86558],[-234,170]],[[15413,86728],[-23,228]],[[15390,86956],[140,56]],[[15530,87012],[117,-454]],[[11653,88604],[-420,85]],[[11233,88689],[-514,-142]],[[10719,88547],[-1191,1023]],[[9528,89570],[1355,455]],[[11303,90082],[0,-57]],[[11303,90025],[23,-114]],[[11326,89911],[0,-57]],[[11326,89854],[24,-57]],[[11350,89797],[93,-142]],[[11443,89655],[47,-57]],[[11490,89598],[163,-994]],[[11513,80505],[771,1876]],[[10649,87297],[-23,0]],[[10626,87297],[23,-256]],[[10649,87041],[117,-881]],[[10766,86188],[-94,0]],[[10672,86188],[-1447,910]],[[9225,87098],[1261,426]],[[10486,87524],[23,0]],[[10509,87524],[117,-227]],[[12961,96589],[23,85],[71,-28],[-47,-57],[-47,0]],[[12961,96589],[280,-739]],[[13218,95850],[23,0]],[[13241,95850],[-957,-597]],[[12284,95253],[-140,-28]],[[12144,95225],[-958,1279]],[[11186,96504],[1098,-57]],[[12284,96447],[677,142]],[[8477,90280],[374,540]],[[8851,90820],[514,1023]],[[11163,87069],[163,-426]],[[11326,86643],[-163,-341]],[[11163,86302],[-397,-142]],[[10766,86160],[0,28]],[[10766,86188],[-117,853]],[[10649,87041],[514,28]],[[6329,92071],[420,795]],[[6749,92866],[117,29]],[[6866,92895],[210,57]],[[7076,92952],[117,28]],[[7193,92980],[-537,-909]],[[5021,93264],[47,-1165]],[[6399,89002],[257,-427]],[[6632,88575],[24,0]],[[6656,88575],[-94,-397]],[[6562,88178],[-373,28]],[[15016,94685],[0,-28]],[[15016,94657],[607,-967]],[[15647,93690],[-24,0]],[[15623,93690],[421,86]],[[16044,93776],[-24,0]],[[16020,93776],[24,113]],[[16044,93889],[70,-625]],[[16114,93264],[-257,114]],[[15880,93378],[-23,0]],[[15857,93378],[47,-455]],[[15904,92923],[-164,-113]],[[15740,92810],[-467,-228]],[[15273,92582],[-887,1052]],[[14362,93634],[654,1023]],[[4554,88433],[-70,313]],[[4484,88746],[23,3097]],[[4694,94003],[-23,682]],[[4671,94685],[0,-28]],[[4671,94657],[46,710]],[[4717,95367],[24,57]],[[4741,95424],[116,284]],[[11513,80505],[164,-170]],[[11443,79567],[-724,-199]],[[10719,79368],[794,1137]],[[14619,85194],[140,-171]],[[14759,85023],[-607,29]],[[14129,85052],[23,0]],[[14152,85052],[397,511]],[[14549,85563],[70,-369]],[[9038,91787],[-561,511]],[[8804,92326],[47,29]],[[6189,88206],[-70,-6252]],[[6119,81954],[-1472,4291]],[[4647,86245],[0,824]],[[5441,88121],[748,85]],[[19173,83148],[-70,170]],[[19103,83318],[887,313],[654,-1904],[-1471,1421]],[[14969,97129],[-2218,227]],[[12751,97356],[2218,-227]],[[7520,95708],[-374,85]],[[7146,95793],[-93,57]],[[6983,96077],[537,-369]],[[16254,86359],[-23,284]],[[16231,86643],[23,-284]],[[8991,89570],[-1238,-455]],[[8524,89741],[374,113]],[[13965,92639],[210,-57]],[[12868,90906],[-304,852]],[[12587,91758],[-23,0]],[[12564,91758],[-117,-199]],[[12447,91559],[24,-28]],[[12471,91531],[-514,-910]],[[11980,90621],[-23,0]],[[11957,90621],[-2405,-824]],[[9552,89797],[-561,-227]],[[8991,89570],[-93,284]],[[8898,89854],[1074,426]],[[14362,93634],[24,0]],[[14386,93634],[-514,-142]],[[12798,92980],[1121,-313]],[[13965,92639],[-3129,-57]],[[10743,92497],[-71,-28]],[[9972,92156],[-607,-313]],[[9365,91843],[-327,-56]],[[9038,91787],[-187,568]],[[8851,92355],[-47,-29]],[[8804,92326],[-327,-28]],[[8477,92298],[-233,-28]],[[8244,92270],[-491,-114]],[[7753,92156],[-1004,-313]],[[6749,91843],[-467,-142]],[[6282,91701],[-374,-682]],[[5908,91019],[211,-1108]],[[6119,89911],[93,-341]],[[5955,89883],[-257,1477]],[[5698,91360],[-23,114]],[[5675,91474],[-654,313]],[[4717,91843],[-210,0]],[[4507,91843],[-420,427]],[[3713,95253],[467,-2642]],[[4577,92611],[491,-512]],[[5068,92099],[490,85]],[[5558,92184],[-93,512]],[[5465,92696],[-444,568]],[[5021,93264],[-350,284]],[[4857,93975],[211,-455]],[[5114,93463],[187,-142]],[[5395,93264],[23,-28]],[[5581,93065],[748,-994]],[[6329,92071],[327,0]],[[6656,92071],[3993,682]],[[10766,92866],[817,1620]],[[11583,94486],[2779,-852]],[[2779,97839],[210,-2444]],[[2989,95395],[-1961,-767],[-958,2444]],[[70,97072],[-70,171]],[[0,97243],[2616,738]],[[2616,97981],[46,29]],[[5558,98123],[47,86]],[[5605,98209],[23,-29]],[[5628,98180],[-47,-57]],[[5581,98123],[-23,0]],[[14199,92781],[-234,-142]],[[13965,92639],[-46,28]],[[13919,92667],[-24,398]],[[8477,90280],[47,-539]],[[8524,89741],[-794,-540]],[[7660,89400],[-234,596]],[[7426,89996],[351,57]],[[7777,90053],[467,199]],[[8244,90252],[233,28]],[[5021,91787],[934,-1904]],[[5955,89883],[164,-313]],[[6212,89286],[187,-284]],[[6399,89002],[-514,-114]],[[5885,88888],[23,28],[-23,0],[0,-28]],[[5885,88888],[-724,-398]],[[5161,88490],[23,0]],[[5184,88490],[234,-256]],[[5418,88206],[0,28]],[[5418,88234],[70,0]],[[5488,88263],[0,-29]],[[5488,88234],[-47,-113]],[[5441,88121],[-794,-1052]],[[4647,87069],[-187,114]],[[4460,87183],[94,1250]],[[4554,88433],[280,171]],[[4834,88604],[0,28]],[[4834,88632],[-117,3211]],[[4717,91843],[304,-56]],[[3129,97385],[0,-29]],[[3129,97356],[-140,199]],[[2943,97612],[-164,227]],[[2779,97839],[-117,171]],[[2662,98010],[24,0]],[[2686,98010],[490,28]],[[3550,96930],[116,-85]],[[3690,96845],[210,-57]],[[3947,96788],[46,0]],[[4017,96788],[117,-29]],[[4157,96759],[140,-28]],[[4344,96731],[-514,-1137]],[[3830,95594],[-467,1137]],[[3386,96930],[24,85]],[[3410,97015],[116,-85]],[[6072,93492],[-491,-427]],[[5581,93065],[-163,171]],[[5418,93236],[-23,28]],[[5395,93264],[-94,57]],[[5301,93321],[-187,142]],[[5114,93463],[-46,29]],[[5068,93492],[0,28]],[[5068,93520],[584,511]],[[5652,94031],[420,-539]],[[8944,91161],[-163,455]],[[8781,91616],[163,-455]],[[6119,89570],[93,0]],[[6212,89570],[0,-284]],[[6212,89286],[-93,284]],[[3666,95310],[47,-57]],[[3713,95253],[350,-2273]],[[4063,92611],[24,-341]],[[4087,92270],[-117,0]],[[3970,92270],[-93,738]],[[6983,96077],[70,-227]],[[7053,95850],[-491,-312]],[[6562,95538],[164,-143]],[[6446,95111],[-257,-28]],[[6189,95083],[-70,0]],[[6119,95083],[-117,28]],[[6002,95111],[-164,142]],[[5581,95680],[211,85]],[[5792,95793],[0,-28]],[[5792,95765],[3176,1762]],[[8968,97527],[397,28]],[[9435,97555],[-70,0]],[[9365,97555],[-24,-227]],[[9318,97328],[23,0]],[[9341,97328],[1075,85]],[[10416,97413],[46,-256]],[[10439,97157],[23,0]],[[10462,97157],[-93,-142]],[[10369,97015],[0,-28]],[[10369,96987],[-187,28]],[[10182,97015],[-1214,-454]],[[8944,96561],[24,0]],[[8968,96561],[-1985,-484]],[[18869,84256],[141,-398]],[[19010,83858],[-281,-341]],[[18729,83517],[-186,142]],[[18543,83659],[-187,427]],[[18356,84086],[-467,596]],[[17889,84682],[980,-426]],[[7730,89201],[23,-86]],[[7753,89115],[0,-85]],[[7753,89030],[-584,0]],[[7169,89030],[-93,142]],[[7076,89172],[-187,142]],[[6889,89314],[771,86]],[[7660,89400],[70,-199]],[[11934,79226],[-491,341]],[[11443,79567],[234,768]],[[11677,80335],[607,2046]],[[12284,82381],[-350,-3155]],[[13078,90621],[187,-596]],[[13265,90025],[0,28]],[[13265,90053],[-257,29]],[[12984,90082],[24,0]],[[13008,90082],[-47,-398]],[[12961,89684],[-444,-1535]],[[12517,88149],[-537,341]],[[11980,88490],[-23,0]],[[11957,88490],[0,142]],[[11957,88632],[-23,29]],[[11934,88661],[0,56]],[[11934,88717],[-117,256]],[[11817,88973],[-24,228]],[[11793,89201],[24,142]],[[11817,89343],[0,227]],[[11817,89570],[-24,85]],[[11793,89655],[-116,199]],[[11677,89854],[-47,85]],[[11630,89939],[-23,86]],[[5255,95907],[70,-57]],[[5325,95850],[280,-57]],[[5581,95708],[-724,0]],[[4857,95708],[47,284]],[[4904,95992],[351,-85]],[[10859,90195],[421,85]],[[11280,90280],[23,29]],[[11303,90309],[0,-227]],[[6726,95395],[93,-1818],[-373,1534]],[[6446,95111],[46,86]],[[6469,95197],[23,0]],[[6492,95197],[234,198]],[[3970,97981],[1658,-170]],[[5628,97811],[47,-29]],[[5675,97782],[47,0]],[[5722,97782],[116,0]],[[5838,97782],[24,0]],[[5862,97782],[-117,-937]],[[5745,96845],[0,-313]],[[5745,96532],[-23,29]],[[4764,96646],[-23,28]],[[3340,97072],[-141,199]],[[3129,97385],[47,653]],[[3176,98038],[794,-57]],[[5745,96504],[-140,-711]],[[5605,95793],[0,-28]],[[5605,95765],[-24,-57]],[[5581,95708],[0,-28]],[[5581,95680],[257,-427]],[[5838,95253],[-303,-255]],[[5511,94998],[24,0]],[[5535,94998],[-47,-199]],[[5488,94770],[0,29]],[[5488,94799],[-631,-824]],[[4857,93975],[-163,28]],[[4694,94003],[-23,-455]],[[4671,93548],[-94,-937]],[[4577,92611],[-397,0]],[[4180,92611],[-117,0]],[[4063,92611],[0,369]],[[4063,92980],[-186,28]],[[3877,93008],[-211,2302]],[[3666,95310],[-93,29]],[[3573,95339],[70,227]],[[3643,95566],[-280,1165]],[[3363,96731],[23,199]],[[13872,93492],[23,-427]],[[13895,93065],[304,-284]],[[14199,92781],[-24,-199]],[[14175,92582],[187,-511]],[[14362,92071],[-1284,-1450]],[[13078,90621],[-210,285]],[[12868,90906],[-1261,-881]],[[11607,90025],[-141,57]],[[11466,90082],[-163,0]],[[11303,90082],[-397,-57]],[[10906,90025],[-23,0]],[[10883,90025],[-24,170]],[[10859,90195],[-327,-85]],[[10532,90110],[-560,170]],[[9972,90280],[677,853]],[[10672,91133],[-23,0]],[[10649,91133],[-677,1023]],[[9972,92156],[700,313]],[[10672,92469],[71,28]],[[10743,92497],[93,85]],[[10836,92582],[-187,171]],[[10649,92753],[117,113]],[[10766,92866],[2032,114]],[[12798,92980],[-94,739]],[[12704,93719],[1168,-227]],[[8501,97555],[140,29]],[[8641,97584],[0,-29]],[[8641,97555],[-70,-170]],[[8571,97385],[-94,-171]],[[8477,97214],[-303,-455]],[[8174,96759],[-444,228]],[[7730,96987],[-607,-284]],[[7123,96731],[0,-28]],[[7123,96703],[-701,-256]],[[6422,96447],[-677,57]],[[5745,96504],[-958,142]],[[4787,96646],[-23,0]],[[4764,96646],[-1378,284]],[[3386,96930],[-700,1080]],[[2686,98010],[257,-398]],[[2943,97612],[46,-57]],[[2989,97555],[140,-170]],[[3129,97385],[70,-114]],[[3199,97271],[141,-199]],[[3340,97072],[70,-57]],[[3410,97015],[116,-85]],[[3526,96930],[24,0]],[[3550,96930],[116,-85]],[[3666,96845],[24,0]],[[3690,96845],[210,-57]],[[3900,96788],[47,0]],[[3947,96788],[46,0]],[[3993,96788],[24,0]],[[4017,96788],[117,-29]],[[4134,96759],[23,0]],[[4157,96759],[140,-28]],[[4297,96731],[47,0]],[[4344,96731],[397,-57]],[[4741,96674],[46,-28]],[[4787,96646],[0,28]],[[4787,96674],[70,0]],[[4857,96674],[865,-113]],[[5722,96561],[46,-29]],[[5768,96532],[654,-85]],[[6422,96447],[24,0]],[[6446,96447],[1541,909]],[[7987,97356],[47,0]],[[8034,97356],[93,0]],[[8150,97356],[-23,0]],[[8127,97356],[-444,-369]],[[7683,96987],[47,0]],[[8150,97356],[351,199]],[[8501,97555],[-351,-199]],[[73703,81926],[23,0]],[[73726,81926],[117,227]],[[73843,82153],[0,29]],[[73843,82182],[24,0]],[[73867,82182],[8921,-313],[2802,1705],[210,2558],[-2078,1108],[4390,3666],[187,4319],[490,-1790],[4438,3580],[3596,-1591],[3106,1392],[-654,-5967],[-6936,-7985],[4601,-1222],[-841,-1677],[3293,-7559],[-1588,-3808],[-18846,7190],[-2873,-1847],[-2359,2500]],[[73726,76441],[24,29]],[[73750,76470],[-187,426]],[[73563,76896],[-23,85]],[[73540,76981],[46,171]],[[73586,77152],[140,85]],[[73726,77237],[211,568]],[[73937,77805],[0,143]],[[73937,77948],[23,198]],[[73960,78146],[0,29]],[[73960,78175],[-70,227]],[[73890,78402],[23,0]],[[73913,78402],[24,228]],[[73937,78630],[0,56]],[[73937,78686],[23,57]],[[73960,78743],[0,426]],[[73960,79169],[-70,199]],[[73890,79368],[23,0]],[[73913,79368],[-116,114]],[[73797,79482],[0,28]],[[73797,79510],[-47,228]],[[73750,79738],[0,85]],[[73750,79823],[-47,57]],[[73703,79880],[0,28]],[[73703,79908],[-47,57]],[[73656,79965],[24,0]],[[73680,79965],[-24,29]],[[73656,79994],[-23,0]],[[73633,79994],[-23,28]],[[73610,80022],[0,28]],[[73610,80050],[-24,57]],[[73586,80107],[-23,57]],[[73563,80164],[0,28]],[[73563,80192],[0,29]],[[73563,80221],[-163,398]],[[73400,80619],[0,85]],[[73400,80704],[-24,85]],[[73376,80789],[350,1137]],[[83208,75674],[4671,5911],[910,-3723],[-1494,1023],[-3386,-3381]],[[84959,74225],[-700,199]],[[83371,74424],[-256,966]],[[93857,92611],[70,-86]],[[94347,92156],[981,-2870],[-5184,-1705],[-374,2842],[4904,4092],[-1074,-1705]],[[93600,92810],[257,-199]],[[93857,92611],[70,-86]],[[93927,92525],[420,-369]],[[94347,92156],[-677,-2046],[-2989,-313],[2919,3013]],[[83115,75390],[93,284]],[[83208,75674],[701,-170]],[[83909,75504],[1050,-1279]],[[84959,74225],[-700,199]],[[84259,74424],[-888,0]],[[83371,74424],[-256,966]]]}