{"type":"Topology","objects":{"data":{"geometries":[{"properties":{"type":"46201","name":"46"},"type":"Polygon","arcs":[[-59,0,620,389,1,624,2,392,3,394,627,4,629,5,635,636,637,378,6,381,7,383,644,8,385,9,123,-125,124,125,654,10,127,11,658,12,477,13,334,14,336,15,338,16,340,17,342,18,344,19,346,20,348,21,350,22,352,23,354,480,355,482,483,484,485,486,24,684,685,686,687,688,25,691,692,693,694,-696,695,696,697,698,699,700,701,26,370,-372,371,372,27,364,28,366,29]],"id":"feature_00"},{"properties":{"type":"46201","name":"46"},"type":"Polygon","arcs":[[415,-417,416,417,30,419,31,421,32,423,33,425,34,427,35,409,36,411,37,-68,38,430,39,432,40,434,41,436,42,438,-440,439,440,43,442,44,444,45]],"id":"feature_01"},{"properties":{"type":"46201","name":"46"},"type":"Polygon","arcs":[[400,46,402,47,404,48,-66,-65,64,-64,-63,62,-62,49]],"id":"feature_02"},{"properties":{"type":"46201","name":"46"},"type":"MultiPolygon","arcs":[[[50]],[[51]],[[195,52,163,53,197,54,160,55,202,56,204,57,58,59,-100,-464,-99,-462,-98,-460,-97,-458,-96,-456,-95,-454,-94,-452,-531,-530,-529,-528,-527,-526,-93,-92,91,-91,-524,-523,-522,-521,-520,-90,60,61,-63,62,63,-65,64,65,66,67,68,-740,69,208,70,210,-212,211,212,71,214,72,216,73,218,74,220,75,222,540,76,542,77,179,78,181,79,183,80,185,81,187,82,189,83,191,84,193,85]]],"id":"feature_03"},{"properties":{"type":"46201","name":"46"},"type":"MultiPolygon","arcs":[[[86]],[[467,468,446,87,448,88,89,519,520,521,522,523,90,-92,91,92,525,526,527,528,529,530,451,93,453,94,455,95,457,96,459,97,461,98,463,99,100]]],"id":"feature_04"},{"properties":{"type":"46201","name":"46"},"type":"Polygon","arcs":[[519,101,521,102,523,524,103,526,104,528,105,530,531,532,-518,517,518]],"id":"feature_05"},{"properties":{"type":"46201","name":"46"},"type":"Polygon","arcs":[[679,106,681,107,683,684,108,686,109,688,110,690,691,111,693,112,-696,695,113,697,114,699,115,701,702,116,677,117],[118,671,119,673,120,675,121,704]],"id":"feature_06"},{"properties":{"type":"46201","name":"46"},"type":"Polygon","arcs":[[661,122,123,-125,124,125,654,655,126,127,128,657,658,659,129]],"id":"feature_07"},{"properties":{"type":"46201","name":"46"},"type":"Polygon","arcs":[[602,130,612,131,590,132],[616],[133,606,607,134,609,610,135,618,136,604],[614,137],[600,138],[139],[592,140,596,141,598,142],[143],[144],[145],[146,587],[147],[148],[594,149],[150],[151]],"id":"feature_08"},{"properties":{"type":"46201","name":"46"},"type":"Polygon","arcs":[[582,152,571,-573,572,573,153],[154],[578,155],[156],[157],[575,158],[580,159]],"id":"feature_09"},{"properties":{"type":"46201","name":"46"},"type":"MultiPolygon","arcs":[[[160,161]],[[162,-163]],[[163,164,165]],[[650,166],[167],[168]],[[169],[170]],[[171]],[[172]],[[173]],[[174]],[[175]],[[176]],[[177]],[[540,541,542,543,495,178,179,180,181,182,183,184,185,186,187,188,189,190,191,192,193,194,195,196,197,198,559,199,561,200,563,201,202,203,204,205,-312,206,533,207,208,209,210,-212,211,212,213,214,215,216,217,218,219,220,221,222],[223],[224],[225],[226],[227],[228],[663,229],[230],[231],[232],[233],[234],[235],[236],[237],[238],[239],[240],[241],[242],[243],[244],[245],[246],[247],[248],[249],[250],[251],[252],[253],[254],[255],[256],[257],[258],[259],[260],[261],[262],[263],[264],[265],[266],[267],[268],[269],[569,270],[271],[272],[273],[274],[275],[276],[277],[278],[279],[280],[281],[282],[283],[284],[285],[286],[287],[288],[289],[290],[291],[292],[293],[294],[295],[296],[297],[298],[299],[300],[301],[302],[303],[304],[305],[306],[307],[308],[309],[310],[311,312],[313],[314],[315],[316],[317],[318],[319],[320],[321],[322],[323],[324],[325],[326],[327],[328]],[[329]],[[330]]],"id":"feature_10"},{"properties":{"type":"46201","name":"46"},"type":"MultiPolygon","arcs":[[[331]],[[476,332,478,333,334,335,336,337,338,339,340,341,342,343,344,345,346,347,348,349,350,351,352,353,354,480,355,482,356,484,357,486,487,358,472,-474,473,474,359],[360]]],"id":"feature_11"},{"properties":{"type":"46201","name":"46"},"type":"MultiPolygon","arcs":[[[361]],[[362]],[[363,364,365,366]],[[367]],[[546,368,548,369,370,-372,371,372,373,550,374,552,375]]],"id":"feature_12"},{"properties":{"type":"46201","name":"46"},"type":"MultiPolygon","arcs":[[[376]],[[648,635,377,637,378,379,639,380,381,382,383,644,384,385,386,646,387]]],"id":"feature_13"},{"properties":{"type":"46201","name":"46"},"type":"MultiPolygon","arcs":[[[388]],[[634,620,389,622,390,624,625,391,392,393,394,627,628,629,630,395,632,396],[397],[398]]],"id":"feature_14"},{"properties":{"type":"46201","name":"46"},"type":"Polygon","arcs":[[500,399,400,401,402,403,404,405,502,406,504,407,506,408]],"id":"feature_15"},{"properties":{"type":"46201","name":"46"},"type":"Polygon","arcs":[[409,410,411,412]],"id":"feature_16"},{"properties":{"type":"46201","name":"46"},"type":"Polygon","arcs":[[544,413]],"id":"feature_17"},{"properties":{"type":"46201","name":"46"},"type":"Polygon","arcs":[[705,414,415,-417,416,417,418,419,420,421,422,423,424,425,426,427,428,707,429,430,431,432,433,434,435,436,437,438,-440,439,440,441,442,443,444,445]],"id":"feature_18"},{"properties":{"type":"46201","name":"46"},"type":"Polygon","arcs":[[446,447,448,449,511,450,-532,451,452,453,454,455,456,457,458,459,460,461,462,463,464,509,465,513,466,467,468],[469],[507,470],[471],[-516,515]],"id":"feature_19"},{"properties":{"type":"46201","name":"46"},"type":"Polygon","arcs":[[472,-474,473,474,475,476,477,478,479,480,481,482,483,484,485,486,487,488]],"id":"feature_20"},{"properties":{"type":"46201","name":"46"},"type":"Polygon","arcs":[[489,-558,490,-556]],"id":"feature_21"},{"properties":{"type":"46201","name":"46"},"type":"Polygon","arcs":[[491]],"id":"feature_22"},{"properties":{"type":"46201","name":"46"},"type":"Polygon","arcs":[[-670,492,-668,493,-666,494,-539,495,496],[497],[498]],"id":"feature_23"},{"properties":{"type":"46201","name":"46"},"type":"Polygon","arcs":[[499,500,501,502,503,504,505,506]],"id":"feature_24"},{"properties":{"type":"46201","name":"46"},"type":"Polygon","arcs":[[507,508,509,510]],"id":"feature_25"},{"properties":{"type":"46201","name":"46"},"type":"Polygon","arcs":[[511,512,513,514,515,516]],"id":"feature_26"},{"properties":{"type":"46201","name":"46"},"type":"Polygon","arcs":[[-518,517,518,519,520,521,522,523,524,525,526,527,528,529,530,531,532]],"id":"feature_27"},{"properties":{"type":"46201","name":"46"},"type":"Polygon","arcs":[[533,534]],"id":"feature_28"},{"properties":{"type":"46201","name":"46"},"type":"Polygon","arcs":[[535]],"id":"feature_29"},{"properties":{"type":"46201","name":"46"},"type":"Polygon","arcs":[[536]],"id":"feature_30"},{"properties":{"type":"46201","name":"46"},"type":"Polygon","arcs":[[537]],"id":"feature_31"},{"properties":{"type":"46201","name":"46"},"type":"Polygon","arcs":[[538,539,540,541,542,543]],"id":"feature_32"},{"properties":{"type":"46201","name":"46"},"type":"Polygon","arcs":[[544,545]],"id":"feature_33"},{"properties":{"type":"46201","name":"46"},"type":"Polygon","arcs":[[546,547,548,549,550,551,552,553]],"id":"feature_34"},{"properties":{"type":"46201","name":"46"},"type":"Polygon","arcs":[[554]],"id":"feature_35"},{"properties":{"type":"46201","name":"46"},"type":"Polygon","arcs":[[555,556,557,558,559,560,561,562,563,564]],"id":"feature_36"},{"properties":{"type":"46201","name":"46"},"type":"Polygon","arcs":[[565]],"id":"feature_37"},{"properties":{"type":"46201","name":"46"},"type":"Polygon","arcs":[[566]],"id":"feature_38"},{"properties":{"type":"46201","name":"46"},"type":"Polygon","arcs":[[567]],"id":"feature_39"},{"properties":{"type":"46201","name":"46"},"type":"Polygon","arcs":[[568,569]],"id":"feature_40"},{"properties":{"type":"46201","name":"46"},"type":"Polygon","arcs":[[570]],"id":"feature_41"},{"properties":{"type":"46201","name":"46"},"type":"Polygon","arcs":[[571,-573,572,573,574,575,576,577,578,579,580,581,582,583]],"id":"feature_42"},{"properties":{"type":"46201","name":"46"},"type":"Polygon","arcs":[[584]],"id":"feature_43"},{"properties":{"type":"46201","name":"46"},"type":"Polygon","arcs":[[585]],"id":"feature_44"},{"properties":{"type":"46201","name":"46"},"type":"Polygon","arcs":[[586]],"id":"feature_45"},{"properties":{"type":"46201","name":"46"},"type":"MultiPolygon","arcs":[[[587,588,589,590,591,592,593,594,595,596,597,598,599,600,601,602,603,604,605,606,607,608,609,610,611,612,613,614,615],[616]],[[617,618]]],"id":"feature_46"},{"properties":{"type":"46201","name":"46"},"type":"Polygon","arcs":[[619]],"id":"feature_47"},{"properties":{"type":"46201","name":"46"},"type":"Polygon","arcs":[[620,621,622,623,624,625,626,627,628,629,630,631,632,633,634]],"id":"feature_48"},{"properties":{"type":"46201","name":"46"},"type":"Polygon","arcs":[[635,636,637,638,639,640,641,642,643,644,645,646,647,648]],"id":"feature_49"},{"properties":{"type":"46201","name":"46"},"type":"Polygon","arcs":[[649]],"id":"feature_50"},{"properties":{"type":"46201","name":"46"},"type":"Polygon","arcs":[[650,651]],"id":"feature_51"},{"properties":{"type":"46201","name":"46"},"type":"Polygon","arcs":[[652]],"id":"feature_52"},{"properties":{"type":"46201","name":"46"},"type":"Polygon","arcs":[[653,654,655,656,657,658,659,660,661]],"id":"feature_53"},{"properties":{"type":"46201","name":"46"},"type":"Polygon","arcs":[[662,663,664,665,666,667,668,669]],"id":"feature_54"},{"properties":{"type":"46201","name":"46"},"type":"Polygon","arcs":[[670,671,672,673,674,675,676,677,678,679,680,681,682,683,684,685,686,687,688,689,690,691,692,693,694,-696,695,696,697,698,699,700,701,702,703,704]],"id":"feature_55"},{"properties":{"type":"46201","name":"46"},"type":"Polygon","arcs":[[705,706,707,708]],"id":"feature_56"},{"properties":{"type":"46201","name":"46"},"type":"Polygon","arcs":[[709]],"id":"feature_57"},{"properties":{"type":"46215","name":"46"},"type":"Polygon","arcs":[[710]],"id":"feature_58"},{"properties":{"type":"46215","name":"46"},"type":"Polygon","arcs":[[711]],"id":"feature_59"},{"properties":{"type":"46215","name":"46"},"type":"MultiPolygon","arcs":[[[725,712,727,713],[714],[715],[716],[717]],[[728,718,730,719],[720,732,-734,733,734,-736,735,736],[721],[722],[723]]],"id":"feature_60"},{"properties":{"type":"46215","name":"46"},"type":"MultiPolygon","arcs":[[[724,725,726,727]],[[728,729,730,731,732,-734,733,734,-736,735,736,737]]],"id":"feature_61"},{"properties":{"type":"46225","name":"46"},"type":"Polygon","arcs":[[763,738,739,740]],"id":"feature_62"},{"properties":{"type":"46225","name":"46"},"type":"Polygon","arcs":[[741]],"id":"feature_63"},{"properties":{"type":"46225","name":"46"},"type":"Polygon","arcs":[[742]],"id":"feature_64"},{"properties":{"type":"46225","name":"46"},"type":"Polygon","arcs":[[743]],"id":"feature_65"},{"properties":{"type":"46225","name":"46"},"type":"Polygon","arcs":[[744]],"id":"feature_66"},{"properties":{"type":"46225","name":"46"},"type":"Polygon","arcs":[[745]],"id":"feature_67"},{"properties":{"type":"46225","name":"46"},"type":"Polygon","arcs":[[762,763,764,746]],"id":"feature_68"},{"properties":{"type":"46225","name":"46"},"type":"Polygon","arcs":[[747]],"id":"feature_69"},{"properties":{"type":"46225","name":"46"},"type":"Polygon","arcs":[[756,748,758,749,760,750,773,751]],"id":"feature_70"},{"properties":{"type":"46225","name":"46"},"type":"Polygon","arcs":[[752]],"id":"feature_71"},{"properties":{"type":"46225","name":"46"},"type":"Polygon","arcs":[[766,753,768,754,770,755]],"id":"feature_72"},{"properties":{"type":"46225","name":"46"},"type":"Polygon","arcs":[[756,757,758,759,760,761]],"id":"feature_73"},{"properties":{"type":"46225","name":"46"},"type":"Polygon","arcs":[[762,763,764,765]],"id":"feature_74"},{"properties":{"type":"46225","name":"46"},"type":"Polygon","arcs":[[766,767,768,769,770,771]],"id":"feature_75"},{"properties":{"type":"46225","name":"46"},"type":"Polygon","arcs":[[772]],"id":"feature_76"},{"properties":{"type":"46225","name":"46"},"type":"Polygon","arcs":[[773,774]],"id":"feature_77"}],"type":"GeometryCollection"}},"bbox":[130.1814,31.2954,130.7215,31.8982],"transform":{"scale":[5.401054010540059e-06,6.028060280602791e-06],"translate":[130.1814,31.2954]},"arcs":[[[62784,23059],[463,-1327]],[[63395,21499],[19,-66]],[[63432,21400],[19,-50]],[[63395,21284],[19,-33]],[[63377,20322],[18,-34]],[[63414,20239],[1814,-3467]],[[65469,16672],[426,-564]],[[65932,16075],[37,-50]],[[66024,15909],[56,66]],[[66228,15826],[2036,946],[1500,-1726],[-1888,-1061],[-926,829]],[[67542,13819],[-55,-166]],[[67746,13752],[-259,-514]],[[67672,12608],[1481,-3384]],[[69190,9190],[56,-83]],[[69283,9041],[37,17]],[[69357,9024],[55,-33]],[[69394,8958],[18,-16]],[[69412,8908],[19,-66]],[[69449,8709],[19,-33]],[[69449,8626],[19,-16]],[[69505,8477],[37,-66]],[[69560,8361],[19,-17]],[[69579,8295],[19,-34]],[[69635,8145],[18,-50]],[[69838,7548],[1981,-4164]],[[71986,3218],[93,-66]],[[72949,2356],[1629,-880],[-4332,-1426],[-1296,1144],[1777,1012],[-1278,1394],[667,1526],[-6647,3417]],[[63191,8776],[-92,-1012],[-445,1028]],[[62636,8792],[-185,-16]],[[62395,8792],[-2777,780],[-426,-1991],[-2111,1012],[2426,2853],[3444,-995],[1962,3003],[-2092,5375],[-2962,2488],[333,1377]],[[68246,65908],[259,-149]],[[68820,65278],[130,50]],[[69005,65328],[185,33]],[[69283,65361],[74,-33]],[[69542,65361],[56,0]],[[70375,65096],[3407,-17],[1537,-2488]],[[75319,62574],[37,-182]],[[75356,62375],[1111,-1344]],[[69857,62143],[-926,1260]],[[68764,63768],[-74,166]],[[68672,63951],[-37,66]],[[68709,64167],[-259,66]],[[68357,64283],[-111,116]],[[68042,64449],[-55,0]],[[67987,64465],[0,100]],[[67913,64930],[-2592,-50],[2499,1377]],[[60636,64034],[0,-83]],[[60507,63636],[-19,-33]],[[60877,63238],[481,-233]],[[51657,59472],[-4018,945],[1129,5508],[1074,249],[-1351,2538],[5313,-2571],[111,1742],[3555,1327],[3629,-3401],[-518,-1742]],[[68783,40394],[870,-265],[-259,-514],[-1093,365],[482,414]],[[95315,54678],[3906,-3716],[-814,-647],[-519,215],[-74,0],[-18,-66],[1536,-2090],[-1795,-813],[1999,-3434],[-6258,-1360],[370,-963],[-1833,-580],[-259,1675],[-6813,-1476],[-4944,2853],[-74,1012],[11165,5309],[1925,3981],[2500,100]],[[70264,43580],[-55,-100]],[[70227,43049],[-74,-382]],[[68764,42617],[-3147,-3832],[1518,747],[-981,-1908],[-2111,581],[1889,-1029],[-1148,-1974]],[[64432,35202],[-1926,-746]],[[62599,34422],[2685,-265],[-463,-2804],[-3055,1593]],[[61692,32979],[962,-1443],[-851,398],[-389,-1676],[3740,-1310],[-204,-1261],[-3481,697],[1315,-5325]],[[62784,23059],[-2592,-365]],[[60192,22694],[-3370,-1725],[-851,6569],[-5944,746],[-3369,4645],[2795,2572],[-296,3483],[2981,5027]],[[52971,55076],[611,1476],[-1925,2920]],[[51657,59472],[425,1393]],[[52101,60865],[-19,0]],[[52082,60865],[2907,498],[1204,2472],[3758,-2837]],[[59933,60998],[18,0]],[[59951,60998],[1407,2007]],[[61358,63005],[1537,2356],[6962,-3218]],[[69857,62143],[6610,-1112]],[[76467,61031],[1573,2207],[833,-515]],[[79522,62723],[1703,-2903],[-2352,-1128],[-870,-3168],[-4925,-2373]],[[72949,53019],[-37,-67]],[[72930,52521],[-18,-17]],[[72819,52173],[-18,-34]],[[72467,51575],[56,50]],[[72560,51293],[-56,-82]],[[72041,51327],[-18,-17]],[[71967,51161],[-888,-515]],[[71079,50630],[-463,-2422],[1240,-1112]],[[72023,46184],[-19,-17]],[[70357,46715],[-111,-199]],[[71190,46084],[129,-49]],[[71412,45985],[315,-183]],[[71764,45670],[-19,-17]],[[71727,45603],[-111,-232]],[[70857,43994],[-19,-50]],[[70597,43497],[-222,49]],[[46213,46947],[0,0]],[[46084,51808],[148,49]],[[46213,51891],[-1777,1310],[1148,1543],[7387,332]],[[52971,55076],[-611,-2323]],[[52342,52621],[0,-17]],[[52360,52604],[-18,0]],[[52342,52604],[-19,0]],[[52342,51990],[37,-50]],[[52527,51692],[37,-133]],[[52601,51476],[1055,-1029]],[[53064,49535],[-74,-83]],[[52953,49319],[-19,-49]],[[52916,49270],[-19,-17]],[[52434,48241],[1296,-2140],[-1592,-2090]],[[52138,44011],[-2370,315],[111,2090],[-1388,-763],[-2019,1443],[-1240,-1957],[-2426,199],[37,2040],[-2592,1958],[2722,149],[3111,2290]],[[52323,52687],[19,-17]],[[52323,52637],[-18,-16]],[[52323,52604],[-37,-33]],[[52212,52372],[-18,-33]],[[52175,52339],[-37,-50]],[[71708,2638],[426,232]],[[72004,3019],[-185,199]],[[71838,3351],[18,-17]],[[71893,3318],[74,-83]],[[71986,3218],[74,-49]],[[72097,3135],[56,-33]],[[72356,2820],[37,-33]],[[72393,2787],[111,-100]],[[72597,2621],[74,-66]],[[72801,2472],[37,-33]],[[72875,2240],[-1148,-233]],[[71616,2040],[18,598]],[[72079,2571],[-56,-49]],[[71949,2488],[-37,17]],[[71838,2505],[-93,-216]],[[71875,2256],[833,133]],[[66228,14963],[722,-149]],[[66950,14814],[222,-381]],[[67154,14433],[18,0]],[[67172,14433],[204,-382]],[[67376,13620],[111,33]],[[67487,13653],[259,99]],[[67746,13752],[-185,-414]],[[67561,12575],[-1055,-581],[-537,995],[981,846]],[[43306,48623],[1407,49]],[[44843,48689],[852,-1261]],[[45639,47345],[-2629,-50],[241,1145]],[[44658,47777],[37,83]],[[44769,47992],[-18,33]],[[44769,48241],[-389,-531]],[[44251,47660],[-74,34]],[[45028,47909],[-37,216]],[[43343,48191],[93,-166]],[[43177,47295],[-56,0],[56,-33],[74,17],[-74,16]],[[45158,47644],[-426,16]],[[44732,47644],[-130,-33]],[[44602,47594],[685,17]],[[43473,47378],[37,0],[0,17],[-37,0],[0,-17]],[[43436,47528],[-37,16],[-259,-199],[185,67],[111,116]],[[43492,47528],[-56,-116],[222,16],[-37,83],[-129,17]],[[45565,47594],[-92,83]],[[43473,47577],[315,-182],[111,66],[-222,150],[-204,-34]],[[43251,47611],[-19,-17],[0,-33],[37,0],[-18,50]],[[45028,47727],[56,-50]],[[44195,47876],[-37,-66],[56,-67],[37,67],[-56,66]],[[45454,48390],[-148,17],[-19,-50],[93,-33],[74,66]],[[57063,68530],[1592,-979]],[[58581,67468],[-1444,-166],[-167,1161]],[[57248,67368],[19,83],[-130,-50],[56,-66],[55,33]],[[58044,67866],[74,-149]],[[57285,68032],[19,66],[37,0],[0,-66],[-56,0]],[[58359,67866],[56,0],[0,33],[-56,0],[0,-33]],[[58211,67683],[166,-49]],[[57452,68082],[129,-83]],[[64784,35202],[-352,0]],[[64432,35202],[352,0]],[[70375,43546],[0,0]],[[70209,43480],[18,-431]],[[70227,43049],[37,531]],[[70264,43580],[-55,-100]],[[58211,44061],[963,-50],[-1574,-1012],[-3055,1675],[963,664],[2240,-1294]],[[55748,44956],[0,0]],[[56896,43795],[19,-33],[55,50],[-18,16],[-56,-33]],[[56711,47428],[1056,349],[1907,-1361],[666,-1261],[-2611,1129],[-685,-863],[-129,1427],[-1296,-730],[1092,1310]],[[58359,46483],[0,0]],[[59026,48407],[-500,-265],[-93,165],[111,166],[482,-66]],[[60044,48523],[0,0]],[[60044,48523],[55,183],[223,-83],[-75,-117],[-203,17]],[[60099,48706],[0,0]],[[58489,49253],[-186,17],[-388,348],[1092,17],[-518,-382]],[[72301,51857],[-56,0],[0,17],[37,17],[19,-34]],[[63710,58377],[-482,780],[1204,547],[148,-1310],[-870,-17]],[[70486,48540],[1370,-1444]],[[71856,47096],[167,-912]],[[72023,46184],[-19,-17]],[[72004,46167],[-1647,548]],[[70357,46715],[-111,-199]],[[70246,46516],[944,-432]],[[71190,46084],[129,-49]],[[71319,46035],[93,-50]],[[71412,45985],[-1611,-995],[1926,812]],[[71727,45802],[37,-132]],[[71764,45670],[-19,-17]],[[71745,45653],[-18,-50]],[[71727,45603],[-111,-232]],[[71616,45371],[-759,-1377]],[[70857,43994],[-19,-50]],[[70838,43944],[-241,-447]],[[70597,43497],[-222,49]],[[70375,43546],[-111,34]],[[70264,43580],[-1296,564],[1185,-1477]],[[70153,42667],[-537,-1045],[-852,995]],[[68764,42617],[-1573,-83],[-2963,-3981]],[[63321,37475],[-56,-50]],[[63136,37259],[-93,-166]],[[63006,37027],[-500,-2571]],[[62506,34456],[93,-34]],[[62599,34422],[-833,-1476]],[[61766,32946],[-74,33]],[[61692,32979],[-3389,-863],[-1092,2970],[2870,282],[-1204,3616],[1852,2323],[-1000,1924],[352,33],[518,-962],[1426,-796],[-1352,1145],[371,2040]],[[61192,44691],[1536,33],[-1314,1510],[2000,1144],[-1278,830],[555,-979],[-1907,-597],[-2184,1360],[2203,249],[-1703,1908],[1610,-1062],[-796,1443],[2148,-530],[463,2339],[-1185,580],[2092,-116],[-1000,3766],[1556,-1460],[-982,2173],[4944,3135],[-3648,-5059],[1352,1061],[3333,-1775],[1536,465],[-574,3086],[1611,2305]],[[71708,60484],[2981,-913],[-926,-1758],[2444,-2123],[-2629,-133],[-1351,-2489],[-463,2024],[-1315,-215],[1019,-183],[-463,-2040],[1111,696],[-445,-1741],[1407,1542]],[[73078,53151],[-129,-132]],[[72949,53019],[-37,-67]],[[72912,52952],[-19,-16]],[[72875,52936],[18,0]],[[72893,52936],[37,-415]],[[72930,52521],[-18,-17]],[[72912,52504],[-93,-331]],[[72819,52173],[-18,-34]],[[72801,52139],[-334,-564]],[[72467,51575],[56,50]],[[72523,51625],[37,-332]],[[72560,51293],[-56,-82]],[[72504,51211],[-463,116]],[[72041,51327],[-18,-17]],[[72023,51310],[-444,116]],[[70005,51642],[-593,415],[-185,16],[870,-647],[-92,216]],[[69912,51443],[-37,-83],[-166,16],[92,-83],[204,67],[-93,83]],[[69727,51293],[-74,67],[-18,-17],[37,-50],[55,0]],[[68098,51360],[315,-398],[481,83],[-611,580],[-185,-265]],[[68153,50564],[500,0],[537,298],[-926,33],[-111,-331]],[[69042,50564],[-37,16],[-204,-99],[37,-17],[204,100]],[[69190,50464],[-352,-498]],[[67302,49369],[240,0],[574,398],[-777,-33],[-37,-365]],[[63784,48938],[-111,-199],[666,-448],[1074,647],[-1000,1111],[-1314,-298],[685,-813]],[[65376,46980],[130,-83],[18,498],[-166,166],[203,133],[-203,232],[222,149],[-445,0],[-55,514],[-278,-16],[574,-1593]],[[65006,46980],[166,-99],[93,50],[-204,66],[-55,-17]],[[64210,47030],[351,-249],[167,216],[-74,33],[-444,0]],[[71338,46831],[0,0]],[[71097,46798],[37,16],[-37,0],[0,-16]],[[64062,47627],[129,-514],[352,-66],[-74,846],[-407,-266]],[[63488,48175],[-93,-299],[204,-50],[166,199],[-277,150]],[[63284,48075],[-481,614],[-1111,332],[314,-515],[1278,-431]],[[60933,48291],[-149,133],[-37,-17],[111,-149],[75,33]],[[62080,48506],[19,-49],[204,132],[-130,17],[-93,-100]],[[60710,48871],[167,-315],[130,0],[-19,332],[-278,-17]],[[63895,48291],[148,83],[-18,166],[-371,-116],[241,-133]],[[62654,50016],[19,0],[111,33],[-93,50],[-37,-83]],[[63210,50199],[1092,16],[37,249],[-1166,66],[-870,-481],[907,150]],[[64784,50680],[-148,-631],[370,-199],[-167,1045],[-55,-215]],[[67191,50713],[-93,-67],[389,-99],[18,33],[-314,133]],[[68227,50364],[93,-16],[-19,133],[-92,-17],[18,-100]],[[66598,50331],[56,-232],[222,-249],[537,199],[-815,282]],[[64450,50331],[-74,-83],[371,-149],[-93,133],[-204,99]],[[64450,51111],[37,17],[297,-117],[0,117],[-278,83],[-56,-100]],[[64321,51211],[92,0],[19,66],[-93,0],[-18,-66]],[[62358,51360],[-111,0],[130,-149],[55,99],[-74,50]],[[64599,51310],[92,17],[-92,166],[-93,-50],[93,-133]],[[65043,51542],[-19,-66],[204,-50],[0,149],[-185,-33]],[[67042,51476],[-129,66],[-74,-66],[259,-50],[-56,50]],[[64913,51177],[259,-83],[75,249],[-167,-166],[-167,0]],[[68598,51592],[463,-33],[-1445,746],[-37,-431],[1019,-282]],[[64580,51974],[-500,165],[-241,-464],[611,100],[130,199]],[[62673,51808],[-19,166],[-74,16],[0,-215],[93,33]],[[62877,52156],[-74,50],[-186,-149],[56,-67],[204,166]],[[62932,52222],[74,-66],[148,66],[-92,100],[-130,-100]],[[63876,51974],[241,282],[19,331],[-852,-497],[592,-116]],[[67079,52604],[297,-149],[555,381],[148,398],[-1000,-630]],[[66357,52820],[-37,248],[-203,-199],[-204,166],[-148,-99],[574,-232],[685,464],[-667,-348]],[[65487,53085],[185,-166],[241,415],[278,-216],[315,50],[-704,365],[-315,-448]],[[65802,53898],[-389,66],[-629,-564],[685,465],[333,33]],[[64210,53898],[-74,-83],[-19,-166],[241,133],[-148,116]],[[64839,53931],[167,-66],[55,99],[-166,33],[-56,-66]],[[63969,54097],[0,50]],[[69746,53881],[203,-83],[-370,432],[0,-282],[167,-67]],[[66209,53782],[74,-166],[93,66],[-130,166],[-37,-66]],[[70616,53483],[241,-83],[-186,382],[56,-249],[-111,-50]],[[66117,53467],[18,-50],[167,-33],[-111,182],[-74,-99]],[[70005,53102],[-19,166],[-296,-83],[74,-117],[241,34]],[[69098,53135],[0,66],[-74,-33],[18,-50],[56,17]],[[70727,52737],[-1018,-133],[129,-481],[-240,282],[-278,-83],[851,-365],[556,780]],[[71523,52438],[56,-50],[18,17],[0,33],[-74,0]],[[69190,52504],[-592,34],[-37,-116],[592,-166],[37,248]],[[67598,52471],[-389,-182],[167,-315],[129,33],[93,464]],[[66469,52156],[-38,17],[149,49],[-278,17],[204,-232],[-37,149]],[[67005,52189],[167,83],[-37,83],[-93,0],[-37,-166]],[[69431,52886],[-278,0],[222,-332],[148,282],[-92,50]],[[69320,51841],[203,-33],[-74,66],[-129,-33]],[[69894,51841],[-148,83],[277,-166],[167,116],[-296,-33]],[[72004,51459],[-55,150],[-352,-133],[167,-33],[240,16]],[[66561,54230],[315,232],[18,282],[-222,50],[-111,-564]],[[65858,54346],[0,215],[-75,50],[-37,-215],[112,-50]],[[64432,54644],[-37,-83],[296,-16],[0,50],[-259,49]],[[70838,54926],[148,0],[167,83],[-333,17],[18,-100]],[[72634,54844],[74,232],[-185,0],[0,-183],[111,-49]],[[66302,54860],[129,17],[-333,16],[0,-49],[204,16]],[[65358,55739],[74,83],[-19,67],[-148,-116],[93,-34]],[[64932,56237],[55,-17],[56,199],[-37,0],[-74,-182]],[[62766,46383],[92,232],[-370,183],[240,-216],[38,-199]],[[63025,46532],[-74,-199],[129,-166],[130,399],[-185,-34]],[[63469,46516],[19,-83],[222,83],[-37,50],[-204,-50]],[[64043,46217],[241,83],[203,-232],[37,83],[-185,166],[-259,0],[-241,-299],[204,199]],[[65617,46118],[-56,-166],[148,199],[-166,166],[74,-199]],[[65450,45686],[-333,531],[-889,-232],[611,-299],[611,0]],[[63488,45852],[314,315],[-74,67],[-314,-266],[74,-116]],[[65487,45355],[-55,0],[-93,99],[0,-116],[148,17]],[[64450,45222],[19,-50],[55,0],[0,33],[-74,17]],[[65413,45073],[204,-34],[203,50],[-74,50],[-333,-66]],[[65358,45006],[-56,67],[-55,-34],[74,-49],[37,16]],[[64876,45006],[111,-133],[222,183],[-185,-66],[-148,16]],[[65543,44724],[-37,33],[-19,-16],[19,-17],[37,0]],[[65783,44509],[-55,82],[-74,-49],[18,-67],[111,34]],[[62118,44409],[370,-17],[500,-149],[-463,282],[-407,-116]],[[67079,44094],[-425,149],[-74,116],[129,-215],[370,-50]],[[61192,44691],[-148,0]],[[61044,44691],[759,-1377],[777,-680],[-1388,2057]],[[67283,43679],[56,-166],[129,282],[-203,67],[18,-183]],[[64173,42816],[240,-33],[130,-83],[-111,150],[-259,-34]],[[63469,42252],[-352,448],[-481,-182],[167,-149],[666,-117]],[[64969,42319],[148,-116],[55,49],[-92,117],[-111,-50]],[[65543,42269],[-296,-448],[314,-249],[204,83],[-222,614]],[[64932,41357],[129,16],[-74,166],[-74,-33],[19,-149]],[[63339,41506],[38,-149],[203,-150],[19,50],[-260,249]],[[63247,41307],[55,215],[-111,0],[-18,-99],[74,-116]],[[64469,41041],[259,-116],[74,50],[-352,199],[19,-133]],[[62506,39764],[-777,846],[-648,-332],[333,-215],[1092,-299]],[[63636,40129],[37,-50],[37,17],[-19,50],[-55,-17]],[[61710,34605],[-74,315],[-37,0],[-167,-166],[278,-149]],[[61858,34057],[-129,216],[-111,0],[55,-199],[185,-17]],[[61284,33079],[111,83],[93,365],[-426,464],[-389,66],[611,-978]],[[58785,34256],[129,-33],[37,33],[-55,34],[-111,-34]],[[71597,46964],[0,0]],[[65135,49120],[56,-166],[-204,17],[-37,50],[185,99]],[[63969,49983],[315,0],[-296,-232],[-19,232]],[[67987,7332],[-74,34],[18,82],[37,-16],[19,-100]],[[69153,9224],[37,-34]],[[69209,9174],[37,-67]],[[69246,9107],[37,-66]],[[69283,9041],[37,17]],[[69320,9058],[37,-34]],[[69357,9024],[55,-33]],[[69412,8991],[-18,-33]],[[69394,8958],[18,-16]],[[69412,8942],[0,-34]],[[69412,8908],[19,-66]],[[69431,8842],[18,-133]],[[69449,8709],[19,-33]],[[69468,8676],[-19,-50]],[[69449,8626],[19,-16]],[[69468,8610],[37,-133]],[[69505,8477],[37,-66]],[[69542,8411],[18,-50]],[[69560,8361],[19,-17]],[[69579,8344],[0,-49]],[[69579,8295],[19,-34]],[[69598,8261],[37,-116]],[[69635,8145],[18,-50]],[[69653,8095],[19,-49]],[[69690,7979],[19,-33]],[[69727,7847],[19,-50]],[[69764,7797],[19,-33]],[[69746,7415],[-1482,332]],[[68190,7847],[815,1377]],[[68931,8427],[93,116],[-278,150],[92,-199],[93,-67]],[[63802,10070],[167,-83],[148,-100],[-222,-66],[-93,249]],[[62266,8991],[-19,33],[204,-33],[-19,-16],[-166,16]],[[62395,8792],[259,0]],[[62654,8792],[-18,0]],[[62636,8792],[-185,-16]],[[62451,8776],[-56,16]],[[62654,8942],[-129,49],[444,-16],[-92,-100],[-223,67]],[[62210,9340],[1055,796]],[[63358,9871],[1000,-382],[-889,-946]],[[63469,8543],[-278,216]],[[63210,8759],[-19,0]],[[63191,8759],[0,17]],[[63191,8776],[-203,497]],[[62451,9306],[-56,-33]],[[62266,9323],[-74,-83]],[[64210,16141],[55,116],[111,116],[-55,-182],[-111,-50]],[[65247,16738],[37,-33]],[[65358,16606],[111,66]],[[65469,16672],[351,-481]],[[65858,16091],[37,17]],[[65895,16108],[37,-33]],[[65932,16075],[37,-50]],[[65969,16025],[18,-33]],[[66024,15909],[56,66]],[[66080,15975],[148,-149]],[[66228,15826],[-74,-249]],[[65987,15428],[-1796,232],[889,1095]],[[63080,20206],[-92,0],[92,165],[-37,-99],[37,-66]],[[63265,21715],[130,-216]],[[63395,21483],[19,-50]],[[63432,21367],[19,-17]],[[63451,21350],[-56,-66]],[[63395,21284],[19,-33]],[[63414,21251],[-37,-614]],[[63321,20222],[-204,332]],[[63025,20604],[-259,-382],[-945,548],[1204,978]],[[62895,21151],[-185,0],[-74,-50],[333,0],[-74,50]],[[62451,20952],[129,-17],[111,34],[-55,49],[-185,-66]],[[59266,64017],[1315,50]],[[60581,64067],[55,-33]],[[60636,64034],[0,-83]],[[60636,63951],[-129,-315]],[[60507,63636],[-19,-33]],[[60488,63603],[389,-365]],[[60877,63238],[-704,49]],[[60210,63072],[19,-116]],[[60229,62939],[-19,-33]],[[59988,62757],[-426,879]],[[75319,62591],[0,-17]],[[75319,62574],[37,-182]],[[75356,62392],[0,-17]],[[75356,62375],[-1759,66],[1240,1327],[482,-1177]],[[54545,64017],[1166,581],[926,-531],[-2166,-531],[259,-1576],[-2388,1792],[944,1028],[833,-879]],[[67672,66141],[148,116]],[[67820,66257],[444,-216]],[[68283,66041],[-19,0]],[[68264,66041],[-18,-133]],[[68246,65908],[259,-149]],[[68505,65759],[315,-481]],[[68820,65278],[130,50]],[[68950,65328],[55,0]],[[69005,65328],[185,33]],[[69190,65361],[93,0]],[[69283,65361],[74,-33]],[[69357,65328],[185,33]],[[69542,65361],[56,0]],[[69598,65361],[777,-265]],[[70375,65096],[-740,-1294]],[[69598,63719],[-667,-316]],[[68931,63403],[-167,365]],[[68764,63768],[-74,166]],[[68690,63934],[-18,17]],[[68672,63951],[-37,66]],[[68635,64017],[74,150]],[[68709,64167],[-259,66]],[[68450,64233],[-93,50]],[[68357,64283],[-111,116]],[[68246,64399],[-130,50]],[[68098,64449],[18,0]],[[68116,64449],[-74,0]],[[68042,64449],[-55,0]],[[67987,64449],[0,16]],[[67987,64465],[0,100]],[[67987,64565],[-74,365]],[[67913,64930],[-352,1194]],[[46084,51791],[0,17]],[[46084,51808],[148,49]],[[46232,51857],[-19,34]],[[46213,51891],[926,-299]],[[47694,51410],[3759,-1145],[666,1991]],[[52138,52256],[204,-266]],[[52342,51990],[37,-50]],[[52379,51940],[148,-248]],[[52527,51692],[37,-133]],[[52564,51559],[37,-83]],[[52601,51476],[-167,-1676],[1222,647]],[[53656,50447],[-592,-912]],[[53064,49535],[-74,-83]],[[52990,49452],[-37,-133]],[[52953,49319],[-19,-49]],[[52934,49270],[-18,0]],[[52916,49270],[-19,-17]],[[52897,49253],[-463,-1012]],[[52434,48241],[-1851,-1277],[-870,1310],[1684,-381],[1222,1028],[-1407,597]],[[50749,49535],[-3073,1725]],[[47417,51277],[-574,-1195],[-759,1693]],[[46084,51775],[0,16]],[[46084,51791],[18,0],[0,17],[-18,-17]],[[52045,50049],[37,-149],[56,17],[0,165],[-93,-33]],[[51268,49502],[444,-166]],[[51249,47196],[-37,50],[19,-50],[18,0]],[[68264,7747],[0,83]],[[68283,7830],[-19,0]],[[68264,7830],[-74,17]],[[68190,7847],[815,1377]],[[69005,9224],[148,0]],[[69153,9224],[37,-34]],[[69190,9190],[19,-16]],[[69209,9174],[463,-1128]],[[69672,8046],[18,-67]],[[69690,7979],[19,-33]],[[69709,7946],[18,-99]],[[69727,7847],[19,-50]],[[69746,7797],[18,0]],[[69764,7797],[19,-33]],[[69783,7764],[55,-216]],[[69838,7548],[-92,-133]],[[69746,7415],[-537,979],[-945,-647]],[[61840,36446],[-222,1958],[1907,531]],[[62691,38238],[-185,-830]],[[63525,51211],[-223,-365],[-314,116],[203,365],[334,-116]],[[70116,50663],[-56,83]],[[69986,50812],[-74,100]],[[70153,51144],[1481,448]],[[70690,50398],[-204,-1858]],[[70486,48540],[-3869,-2771],[-500,2472],[2629,1228]],[[66654,47395],[0,166],[-519,66],[-37,-166],[556,-66]],[[67024,47030],[722,-182],[37,232],[-722,215],[-37,-265]],[[59988,62757],[-426,879]],[[59562,63636],[-296,381]],[[59266,64017],[907,-730]],[[60173,63287],[37,-215]],[[60210,63072],[19,-116]],[[60229,62956],[0,-17]],[[60229,62939],[-19,-33]],[[60210,62906],[-222,-149]],[[51712,49336],[-444,166]],[[51268,49502],[-56,16]],[[51212,49518],[-463,17]],[[50749,49535],[963,-199]],[[47139,51592],[555,-182]],[[47694,51410],[-18,-150]],[[47676,51260],[-259,17]],[[47417,51277],[-371,166]],[[47046,51443],[-37,16]],[[47009,51459],[130,133]],[[51971,52455],[19,-17]],[[51990,52438],[-907,448],[1277,-133]],[[52360,52753],[-37,-66]],[[52323,52687],[19,-17]],[[52342,52670],[-19,-33]],[[52323,52637],[-18,-16]],[[52305,52621],[37,0]],[[52342,52621],[-19,-17]],[[52323,52604],[-37,-33]],[[52286,52571],[-74,-199]],[[52212,52372],[-18,-33]],[[52194,52339],[-19,0]],[[52175,52339],[-37,-50]],[[52138,52289],[0,-33]],[[52138,52256],[-19,0]],[[52119,52256],[-129,182]],[[71560,60500],[148,-16]],[[71708,60484],[389,-2173],[-537,2189]],[[65321,57912],[129,0],[0,-132],[-148,0],[19,132]],[[61803,42286],[370,182],[130,-149],[-371,-199],[-129,166]],[[50786,47312],[352,315],[111,-50],[-370,-364],[-93,99]],[[70690,50398],[944,1194]],[[71634,51592],[-55,-166]],[[71579,51426],[388,-265]],[[71967,51161],[-888,-515]],[[71079,50646],[0,-16]],[[71079,50630],[-389,-232]],[[54119,63901],[426,116]],[[54545,64017],[-426,-116]],[[62192,9240],[18,100]],[[62210,9340],[1055,796]],[[63265,10136],[93,-265]],[[63358,9871],[-370,-598]],[[62988,9273],[-537,33]],[[62451,9306],[-56,-33]],[[62395,9273],[-129,50]],[[62266,9323],[-74,-83]],[[67505,60119],[167,-216],[-241,-83],[-37,133],[111,166]],[[61840,36446],[666,962]],[[62506,37408],[185,830]],[[62691,38238],[834,697]],[[63525,38935],[703,-382]],[[64228,38553],[-907,-1078]],[[63321,37475],[-56,-50]],[[63265,37425],[-129,-166]],[[63136,37259],[-93,-166]],[[63043,37093],[-37,-66]],[[63006,37027],[-1166,-581]],[[64210,59173],[-111,-199],[-74,-16],[-93,182],[278,33]],[[74856,63022],[148,-116],[-74,-50],[-222,66],[148,100]],[[61673,47478],[-185,-133],[-74,67],[204,132],[55,-66]],[[63969,54097],[-426,1095],[426,-1045]],[[63969,54147],[0,-50]],[[55804,44807],[222,-50],[-55,-116],[-204,33],[37,133]],[[58655,67551],[-74,-67]],[[58563,67484],[18,0]],[[58581,67484],[0,-16]],[[58581,67468],[-204,166]],[[58377,67634],[-166,49]],[[58211,67683],[0,0]],[[58211,67683],[-93,34]],[[58118,67717],[-74,149]],[[58044,67866],[-463,133]],[[57581,67999],[-129,83]],[[57452,68082],[-482,381]],[[56970,68463],[93,67]],[[57063,68530],[1592,-979]],[[60692,49917],[166,66],[112,-199],[-167,-33],[-111,166]],[[65969,55275],[129,-83],[-629,-448],[37,249],[463,282]],[[57692,46748],[297,149],[148,-166],[-500,-182],[55,199]],[[45473,47677],[92,-83]],[[45565,47594],[0,17],[19,-17],[-19,0]],[[45565,47594],[130,-166]],[[45695,47428],[-56,-83]],[[45639,47345],[-352,266]],[[45287,47611],[-129,33]],[[45158,47644],[-74,33]],[[45084,47677],[-56,50]],[[45028,47727],[-296,-67]],[[44732,47660],[0,-16]],[[44732,47644],[-130,-33]],[[44602,47611],[0,-17]],[[44602,47594],[-1166,431]],[[43436,48025],[-93,166]],[[43343,48191],[-92,249]],[[43251,48440],[55,183]],[[43306,48623],[871,-929]],[[44177,47694],[481,83]],[[44658,47777],[37,83]],[[44695,47860],[74,165]],[[44769,48025],[0,-33]],[[44769,47992],[-18,33]],[[44751,48025],[18,0]],[[44769,48025],[0,216]],[[44769,48241],[-56,431]],[[44713,48672],[130,17]],[[44843,48689],[148,-564]],[[44991,48125],[37,-216]],[[45028,47909],[445,-232]],[[44676,47777],[19,-50],[74,33],[-74,33],[-19,-16]],[[44251,47660],[129,50]],[[44380,47710],[-129,-50]],[[59729,47810],[259,-349],[-55,-116],[-296,266],[92,199]],[[63247,21732],[18,-17]],[[63265,21715],[130,-216]],[[63395,21499],[0,-16]],[[63395,21483],[19,-50]],[[63414,21433],[18,-33]],[[63432,21400],[0,-33]],[[63432,21367],[-55,-730]],[[63377,20637],[0,-315]],[[63377,20322],[18,-34]],[[63395,20288],[19,-49]],[[63414,20239],[-93,-17]],[[63321,20222],[-204,332]],[[63117,20554],[-92,50]],[[63025,20604],[0,1144]],[[63025,21748],[222,-16]],[[65228,16772],[19,-34]],[[65247,16738],[37,-33]],[[65284,16705],[74,-99]],[[65358,16606],[462,-415]],[[65820,16191],[38,-100]],[[65858,16091],[37,17]],[[65895,16108],[37,-33]],[[65932,16075],[37,-50]],[[65969,16025],[18,-33]],[[65987,15992],[37,-83]],[[66024,15909],[130,-332]],[[66154,15577],[-167,-149]],[[65987,15428],[-907,1327]],[[65080,16755],[148,17]],[[61784,49203],[37,100],[278,-133],[-148,-99],[-167,132]],[[57748,44044],[463,17]],[[58211,44061],[-463,-17]],[[67505,53865],[278,-249],[-111,-149],[-333,33],[166,365]],[[66228,14963],[1148,-912]],[[67376,14051],[166,-232]],[[67542,13819],[-166,-199]],[[67376,13620],[185,-282]],[[67561,13338],[-74,-100]],[[67487,13238],[185,-630]],[[67672,12608],[-111,-33]],[[67561,12575],[-611,1260]],[[66950,13835],[-722,1128]],[[68746,49469],[92,497]],[[68838,49966],[352,498]],[[69190,50464],[963,680]],[[70153,51144],[-241,-232]],[[69912,50912],[74,-100]],[[69986,50812],[74,-66]],[[70060,50746],[56,-83]],[[70116,50663],[-1370,-1194]],[[72079,2571],[-56,-49]],[[72023,2522],[-74,-34]],[[71949,2488],[-37,17]],[[71912,2505],[-74,0]],[[71838,2505],[-93,-216]],[[71745,2289],[130,-33]],[[71875,2256],[-148,-249]],[[71727,2007],[-111,33]],[[71616,2040],[18,598]],[[71634,2638],[74,0]],[[71708,2638],[426,232]],[[72134,2870],[-130,149]],[[72004,3019],[-185,199]],[[71819,3218],[0,166]],[[71819,3384],[19,-33]],[[71838,3351],[18,-17]],[[71856,3334],[37,-16]],[[71893,3318],[74,-83]],[[71967,3235],[19,-17]],[[71986,3218],[74,-49]],[[72060,3169],[19,-17]],[[72079,3152],[18,-17]],[[72097,3135],[56,-33]],[[72153,3102],[203,-282]],[[72356,2820],[37,-33]],[[72375,2787],[18,0]],[[72393,2787],[111,-100]],[[72504,2687],[93,-66]],[[72597,2621],[74,-66]],[[72671,2555],[130,-83]],[[72801,2472],[37,-33]],[[72838,2439],[111,-83]],[[72949,2356],[-74,-116]],[[72875,2240],[-167,149]],[[72708,2389],[-629,182]],[[67561,66124],[111,17]],[[67672,66141],[1963,-2339]],[[69635,63802],[-37,-83]],[[69598,63719],[-2037,2405]],[[64247,56718],[55,431],[74,0],[167,-448],[-296,17]],[[0,92252],[5758,7747],[4092,-896],[-574,-4545],[5962,-2223],[1388,2073],[1500,-530],[3351,1758],[2722,-647],[889,1344],[1851,-796],[1352,2372],[1259,-448],[55,-2173],[5647,-647],[-2018,-2704],[-888,1476],[-7055,-66],[3111,-2107],[1277,-3882],[3481,1493],[2185,-1244],[1796,1543],[4369,614],[889,-3086],[1666,-829],[1148,1658],[-1092,747],[1981,1028],[2629,-1393],[-963,-1941],[1408,-249],[-852,-398],[-167,-448],[1463,-2588],[-1092,-713],[-3796,1294],[1777,-1593],[-2703,-16],[-759,-1261],[-444,-1941],[1611,-2472],[-2259,1079],[-648,-830],[-5147,3517],[2684,4330],[-3018,1990],[-6239,-3649],[963,-1278],[-1074,-812],[2110,-548],[-3480,-945],[629,-1941],[-1203,1111],[-2222,-1592],[-5740,3450],[1148,879],[-1833,-66],[1074,929],[-1092,1924],[-2703,-730],[1147,1261],[-851,2887],[-2777,-1079],[-1500,2605],[-12183,4197]],[[47472,87806],[371,-547],[-1297,-382],[-37,597],[963,332]],[[22199,85981],[-18,730]],[[24032,86943],[2000,3633],[833,-215],[-1166,-1394],[1536,-83],[-351,-2140],[-1907,-1393]],[[25791,87839],[-259,-215],[481,-34],[19,332],[-241,-83]],[[25495,86927],[111,16],[-129,100],[-56,-50],[74,-66]],[[25291,86462],[-185,-49],[130,-415],[185,215],[-130,249]],[[24828,85782],[56,-50],[56,17],[-37,66],[-75,-33]],[[22181,87109],[-741,33]],[[20996,87690],[-926,-415],[-1203,2356],[4591,-299],[1685,1510],[-1851,-3617]],[[20644,88718],[130,-149]],[[20292,88635],[-18,17],[-74,-17],[37,-49],[55,49]],[[20274,88702],[18,50],[-55,16],[18,-66],[19,0]],[[20311,88735],[0,-33],[74,33],[-19,17],[-55,-17]],[[24032,86943],[945,-1592]],[[24977,85351],[-2778,630]],[[22199,85981],[-18,730]],[[22181,86711],[1851,232]],[[23292,87225],[-1111,-116]],[[22181,87109],[-741,33]],[[21440,87142],[-444,548]],[[20996,87690],[-222,879]],[[20774,88569],[222,116]],[[20977,88685],[19,0]],[[20996,88685],[-56,133]],[[20922,88818],[18,0]],[[20940,88818],[-296,-100]],[[20644,88718],[-574,946],[3314,-929],[-92,-1510]],[[81132,68082],[-1610,-5359]],[[79522,62723],[-649,0]],[[78873,62723],[-1684,763],[185,1991],[-6295,2970],[-371,1642],[1907,1792],[2241,-216],[1000,3268],[-3537,1592],[-2721,-1260],[1647,2073],[-2832,946],[722,3003],[2777,-83],[555,-1775],[1407,-17],[1278,531],[481,4330],[2630,-830],[2184,1443],[3777,-2173],[-1796,-1426],[2296,-5657],[5869,1327],[-92,-1145],[2833,-514],[-2296,-3583],[-2296,431],[-7610,-4048]],[[87761,74054],[-445,16],[667,432],[92,-399],[-314,-49]],[[77763,73125],[981,-680],[222,-1012],[-2129,846],[926,846]],[[91297,75530],[259,-16],[-963,-581],[130,315],[130,166],[444,116]],[[87520,75480],[370,-879],[-685,-464],[-352,1128],[667,215]],[[88372,73639],[351,-1394],[-2869,-1244],[-667,1643],[1463,1493],[1722,-498]],[[80373,67236],[-3073,1758],[2518,1476],[963,-1841]],[[81854,73954],[1389,-232],[-2518,-1958],[-704,1377],[1833,813]],[[81225,69741],[-19,16]],[[81132,69857],[-18,16]],[[81095,69906],[-2425,83],[352,1344],[3036,1045]],[[82836,73075],[1925,-266],[167,-2339],[-3481,-2023],[-111,1128]],[[91575,73971],[74,-813],[-574,-398],[-185,2140],[685,-929]],[[89297,73257],[-18,17]],[[89260,73291],[-55,33]],[[88853,73423],[-481,1327],[2370,150],[-93,-2704],[-1296,779]],[[81336,69575],[-111,166]],[[81225,69741],[-19,16]],[[81206,69757],[-74,100]],[[81132,69857],[-18,16]],[[81114,69873],[-19,33]],[[81095,69906],[241,-331]],[[80781,68629],[351,-531]],[[81132,68098],[0,-16]],[[81132,68082],[-759,-846]],[[80373,67236],[408,1393]],[[89353,72975],[-56,282]],[[89297,73257],[-18,17]],[[89279,73274],[-19,17]],[[89260,73291],[-55,33]],[[89205,73324],[-352,99]],[[88853,73423],[1870,515],[-1370,-963]],[[88038,73241],[-185,-282],[-629,215],[759,266],[55,-199]],[[82058,72378],[778,697]],[[82836,73075],[1333,-465],[-945,-1410],[-1166,1178]]]}