{"type":"Topology","objects":{"data":{"geometries":[{"properties":{"type":"17201","name":"17"},"type":"Polygon","arcs":[[-7,0]],"id":"feature_000"},{"properties":{"type":"17201","name":"17"},"type":"MultiPolygon","arcs":[[[-70,1,-68,203,-67,205,-66,207,-65,209,-64,211,2,-62,3]],[[-76,4,-74,-73,72,-72,5,6,7]],[[-57,8,226,9,228,10,-805,11,-803,12,-801,13,14,-798,-797,-796,15,-794,16,99,17,-789,100,-787,101,18,-785,-784,19,-600,20,-782,21,-780,22,-778,23,-776,24,-774,25,-758,-757,-756,-755,-754,-753,-752,-751,86,-749,87,-668,-745,88,26,90,-739,-738,-737,27,-733,-732,-731,28,103,-729,-728,-727,-726,-725,-724,-723,105,106,-720,107,-718,108,-715,-714,-713,-712,-711,-710,29,-706,30,195,-702,-701,196,-699,-698,-914,-913,-912,198,-695,-910,-909,-693,31,-690,-689,-688,-687,-686,-685,-684,111,-904,112,-902,113,-900,114,115,-896,-895,-894,117,-891,118,-888,-887,-640,-885,-884,-638,-637,32,-880,33,-878,34,-875,35,-873,36,-870,-869,37,-865,-864,-863,-862,38,-629,-860,-859,39,855,40,854,41,-853,42,-851,43,-848,-847,-846,44,-843,45,-838,46,121,-621,122,-619,-836,-835,123,-833,-832,-831,-830,124,-615,125,-825,-824,47,-820,48,127,49,165,50,167,51,169,52,171,53,-60,220,-59,222,-58,224,-78,54]]],"id":"feature_001"},{"properties":{"type":"17201","name":"17"},"type":"Polygon","arcs":[[55,56]],"id":"feature_002"},{"properties":{"type":"17201","name":"17"},"type":"Polygon","arcs":[[-225,57,-223,58,-221,59,60,61,62,-213,-212,63,-210,64,-208,65,-206,66,-204,67,68,69,70,71,-73,72,73,74,75,76,77]],"id":"feature_003"},{"properties":{"type":"17201","name":"17"},"type":"Polygon","arcs":[[78]],"id":"feature_004"},{"properties":{"type":"17201","name":"17"},"type":"Polygon","arcs":[[79]],"id":"feature_005"},{"properties":{"type":"17201","name":"17"},"type":"Polygon","arcs":[[80]],"id":"feature_006"},{"properties":{"type":"17201","name":"17"},"type":"Polygon","arcs":[[81]],"id":"feature_007"},{"properties":{"type":"17201","name":"17"},"type":"Polygon","arcs":[[82]],"id":"feature_008"},{"properties":{"type":"17201","name":"17"},"type":"Polygon","arcs":[[83]],"id":"feature_009"},{"properties":{"type":"17201","name":"17"},"type":"Polygon","arcs":[[84,85,-751,86,-749,87,-668,-745,88,89,-665,90,-739,-738]],"id":"feature_010"},{"properties":{"type":"17201","name":"17"},"type":"Polygon","arcs":[[91]],"id":"feature_011"},{"properties":{"type":"17201","name":"17"},"type":"Polygon","arcs":[[268]],"id":"feature_012"},{"properties":{"type":"17201","name":"17"},"type":"Polygon","arcs":[[350,92,345,324,325,326,327,328,329,330,331,93,335,94,246,95,244,96,360,97,362,98,99,-791,-790,-789,100,-787,101,102,103,-729,-728,-727,104,-725,-724,-723,105,106,-720,107,-718,108,-715,-714,-713,-712,-711,109,110,-687,-686,-685,-684,111,-904,112,-902,113,-900,114,115,-896,116,-894,117,-891,118,-888,-887,-640,-885,-884,-638,119,120,121,-621,122,-619,-836,-835,123,-833,-832,-831,-830,124,-615,125,-825,-824,126,127,128,305,129,307,130,303,131],[132,337],[133,333]],"id":"feature_013"},{"properties":{"type":"17201","name":"17"},"type":"Polygon","arcs":[[320,134,349,346,347,135,265,136,253,137,255,138,257,139,250,140,259,141,261,142,263,143,288,144,290,145,293,146],[147],[148],[149],[150],[151]],"id":"feature_014"},{"properties":{"type":"17201","name":"17"},"type":"Polygon","arcs":[[152]],"id":"feature_015"},{"properties":{"type":"17201","name":"17"},"type":"Polygon","arcs":[[359,353,153]],"id":"feature_016"},{"properties":{"type":"17201","name":"17"},"type":"Polygon","arcs":[[154]],"id":"feature_017"},{"properties":{"type":"17201","name":"17"},"type":"Polygon","arcs":[[155]],"id":"feature_018"},{"properties":{"type":"17201","name":"17"},"type":"Polygon","arcs":[[316,-318,317,318,156,371,157,373,158,375,159,313,160,377,249,161,380,162,382,163,384,164,165,166,167,168,169,170,171,172,386,173,388,174,390,175,392,176,394,177,396,178,367,179,369,180,314,181],[182],[398],[399],[400],[401],[402],[403],[404],[405],[183],[184],[185],[186],[187]],"id":"feature_019"},{"properties":{"type":"17201","name":"17"},"type":"Polygon","arcs":[[188]],"id":"feature_020"},{"properties":{"type":"17201","name":"17"},"type":"Polygon","arcs":[[189]],"id":"feature_021"},{"properties":{"type":"17201","name":"17"},"type":"Polygon","arcs":[[190]],"id":"feature_022"},{"properties":{"type":"17201","name":"17"},"type":"Polygon","arcs":[[191]],"id":"feature_023"},{"properties":{"type":"17201","name":"17"},"type":"Polygon","arcs":[[192]],"id":"feature_024"},{"properties":{"type":"17201","name":"17"},"type":"Polygon","arcs":[[365]],"id":"feature_025"},{"properties":{"type":"17201","name":"17"},"type":"Polygon","arcs":[[193]],"id":"feature_026"},{"properties":{"type":"17201","name":"17"},"type":"Polygon","arcs":[[194]],"id":"feature_027"},{"properties":{"type":"17201","name":"17"},"type":"Polygon","arcs":[[195,-702,-701,196,-699,-698,-914,197,-912,198,-695,-910,-909,-693,199]],"id":"feature_028"},{"properties":{"type":"17201","name":"17"},"type":"Polygon","arcs":[[241]],"id":"feature_029"},{"properties":{"type":"17201","name":"17"},"type":"Polygon","arcs":[[200]],"id":"feature_030"},{"properties":{"type":"17201","name":"17"},"type":"Polygon","arcs":[[201]],"id":"feature_031"},{"properties":{"type":"17201","name":"17"},"type":"Polygon","arcs":[[202]],"id":"feature_032"},{"properties":{"type":"17201","name":"17"},"type":"Polygon","arcs":[[203,204,205,206,207,208,209,210,211,212,213]],"id":"feature_033"},{"properties":{"type":"17201","name":"17"},"type":"Polygon","arcs":[[214]],"id":"feature_034"},{"properties":{"type":"17201","name":"17"},"type":"Polygon","arcs":[[215]],"id":"feature_035"},{"properties":{"type":"17201","name":"17"},"type":"Polygon","arcs":[[283,216,285,217,279,218,281,219]],"id":"feature_036"},{"properties":{"type":"17201","name":"17"},"type":"Polygon","arcs":[[220,221,222,223,224,225]],"id":"feature_037"},{"properties":{"type":"17201","name":"17"},"type":"Polygon","arcs":[[226,227,228,229,-805,230]],"id":"feature_038"},{"properties":{"type":"17201","name":"17"},"type":"Polygon","arcs":[[231]],"id":"feature_039"},{"properties":{"type":"17201","name":"17"},"type":"Polygon","arcs":[[232]],"id":"feature_040"},{"properties":{"type":"17201","name":"17"},"type":"Polygon","arcs":[[233]],"id":"feature_041"},{"properties":{"type":"17201","name":"17"},"type":"Polygon","arcs":[[234]],"id":"feature_042"},{"properties":{"type":"17201","name":"17"},"type":"Polygon","arcs":[[269]],"id":"feature_043"},{"properties":{"type":"17201","name":"17"},"type":"Polygon","arcs":[[235]],"id":"feature_044"},{"properties":{"type":"17201","name":"17"},"type":"Polygon","arcs":[[301,236,297,237,299,238]],"id":"feature_045"},{"properties":{"type":"17201","name":"17"},"type":"Polygon","arcs":[[406]],"id":"feature_046"},{"properties":{"type":"17201","name":"17"},"type":"Polygon","arcs":[[239]],"id":"feature_047"},{"properties":{"type":"17201","name":"17"},"type":"Polygon","arcs":[[240]],"id":"feature_048"},{"properties":{"type":"17201","name":"17"},"type":"Polygon","arcs":[[241]],"id":"feature_049"},{"properties":{"type":"17201","name":"17"},"type":"Polygon","arcs":[[242]],"id":"feature_050"},{"properties":{"type":"17201","name":"17"},"type":"Polygon","arcs":[[243,244,245,246]],"id":"feature_051"},{"properties":{"type":"17201","name":"17"},"type":"Polygon","arcs":[[247]],"id":"feature_052"},{"properties":{"type":"17201","name":"17"},"type":"Polygon","arcs":[[248,-379,249]],"id":"feature_053"},{"properties":{"type":"17201","name":"17"},"type":"Polygon","arcs":[[250,251]],"id":"feature_054"},{"properties":{"type":"17201","name":"17"},"type":"Polygon","arcs":[[252,253,254,255,256,257,258,259,260,261,262,263,264,265]],"id":"feature_055"},{"properties":{"type":"17201","name":"17"},"type":"Polygon","arcs":[[266]],"id":"feature_056"},{"properties":{"type":"17201","name":"17"},"type":"Polygon","arcs":[[267,-358]],"id":"feature_057"},{"properties":{"type":"17201","name":"17"},"type":"Polygon","arcs":[[268]],"id":"feature_058"},{"properties":{"type":"17201","name":"17"},"type":"Polygon","arcs":[[269]],"id":"feature_059"},{"properties":{"type":"17201","name":"17"},"type":"Polygon","arcs":[[-344,270,-342,271,-340,272]],"id":"feature_060"},{"properties":{"type":"17201","name":"17"},"type":"Polygon","arcs":[[273]],"id":"feature_061"},{"properties":{"type":"17201","name":"17"},"type":"Polygon","arcs":[[274,-356]],"id":"feature_062"},{"properties":{"type":"17201","name":"17"},"type":"Polygon","arcs":[[275]],"id":"feature_063"},{"properties":{"type":"17201","name":"17"},"type":"Polygon","arcs":[[276]],"id":"feature_064"},{"properties":{"type":"17201","name":"17"},"type":"Polygon","arcs":[[277]],"id":"feature_065"},{"properties":{"type":"17201","name":"17"},"type":"Polygon","arcs":[[278,279,280,281,282,283,284,285]],"id":"feature_066"},{"properties":{"type":"17201","name":"17"},"type":"Polygon","arcs":[[286,-323,287,288,289,290,291,292,293]],"id":"feature_067"},{"properties":{"type":"17201","name":"17"},"type":"Polygon","arcs":[[294]],"id":"feature_068"},{"properties":{"type":"17201","name":"17"},"type":"Polygon","arcs":[[295,296]],"id":"feature_069"},{"properties":{"type":"17201","name":"17"},"type":"Polygon","arcs":[[297,298,299,300,301,302]],"id":"feature_070"},{"properties":{"type":"17201","name":"17"},"type":"Polygon","arcs":[[303,304,305,306,307,308]],"id":"feature_071"},{"properties":{"type":"17201","name":"17"},"type":"Polygon","arcs":[[309]],"id":"feature_072"},{"properties":{"type":"17201","name":"17"},"type":"Polygon","arcs":[[310]],"id":"feature_073"},{"properties":{"type":"17201","name":"17"},"type":"Polygon","arcs":[[311]],"id":"feature_074"},{"properties":{"type":"17201","name":"17"},"type":"Polygon","arcs":[[312,313]],"id":"feature_075"},{"properties":{"type":"17201","name":"17"},"type":"Polygon","arcs":[[314,315,316,-318,317,318,319]],"id":"feature_076"},{"properties":{"type":"17201","name":"17"},"type":"Polygon","arcs":[[320,321,322,323]],"id":"feature_077"},{"properties":{"type":"17201","name":"17"},"type":"Polygon","arcs":[[324,325,326,327,328,329,330,331,332,333,334,335,336,337,338,339,340,341,342,343,344,345]],"id":"feature_078"},{"properties":{"type":"17201","name":"17"},"type":"Polygon","arcs":[[346,347,348,349]],"id":"feature_079"},{"properties":{"type":"17201","name":"17"},"type":"Polygon","arcs":[[350,-351]],"id":"feature_080"},{"properties":{"type":"17201","name":"17"},"type":"Polygon","arcs":[[351]],"id":"feature_081"},{"properties":{"type":"17201","name":"17"},"type":"Polygon","arcs":[[352]],"id":"feature_082"},{"properties":{"type":"17201","name":"17"},"type":"Polygon","arcs":[[353,354,355,356,357,358,359]],"id":"feature_083"},{"properties":{"type":"17201","name":"17"},"type":"Polygon","arcs":[[360,361,362,363]],"id":"feature_084"},{"properties":{"type":"17201","name":"17"},"type":"Polygon","arcs":[[364]],"id":"feature_085"},{"properties":{"type":"17201","name":"17"},"type":"Polygon","arcs":[[365]],"id":"feature_086"},{"properties":{"type":"17201","name":"17"},"type":"Polygon","arcs":[[366]],"id":"feature_087"},{"properties":{"type":"17201","name":"17"},"type":"Polygon","arcs":[[367,368,369,370,371,372,373,374,375,376,377,378,379,380,381,382,383,384,385,386,387,388,389,390,391,392,393,394,395,396,397],[398],[399],[400],[401],[402],[403],[404],[405]],"id":"feature_088"},{"properties":{"type":"17201","name":"17"},"type":"Polygon","arcs":[[406]],"id":"feature_089"},{"properties":{"type":"17203","name":"17"},"type":"Polygon","arcs":[[-545,407,-543,408,-541,409,-539,410,-537,411,-535,412,-533,413,-531,414,-529,415,-527,416,-525,417,-523,418]],"id":"feature_090"},{"properties":{"type":"17203","name":"17"},"type":"Polygon","arcs":[[419]],"id":"feature_091"},{"properties":{"type":"17203","name":"17"},"type":"Polygon","arcs":[[420],[421],[422]],"id":"feature_092"},{"properties":{"type":"17203","name":"17"},"type":"Polygon","arcs":[[485,423,487,424,469,425,471,426,473,427,475,428,477,429,479,430,481,431,483,432,455,433,457,-459,458,459,434,461,435,451,436,453,437],[463,438,465,439,467,440],[441],[442],[443]],"id":"feature_093"},{"properties":{"type":"17203","name":"17"},"type":"MultiPolygon","arcs":[[[444]],[[445]],[[446]]],"id":"feature_094"},{"properties":{"type":"17203","name":"17"},"type":"Polygon","arcs":[[447]],"id":"feature_095"},{"properties":{"type":"17203","name":"17"},"type":"Polygon","arcs":[[448]],"id":"feature_096"},{"properties":{"type":"17203","name":"17"},"type":"Polygon","arcs":[[449]],"id":"feature_097"},{"properties":{"type":"17203","name":"17"},"type":"Polygon","arcs":[[450]],"id":"feature_098"},{"properties":{"type":"17203","name":"17"},"type":"Polygon","arcs":[[451,452,453,454,455,456,457,-459,458,459,460,461,462,463,464,465,466,467,468]],"id":"feature_099"},{"properties":{"type":"17203","name":"17"},"type":"Polygon","arcs":[[469,470,471,472,473,474,475,476,477,478,479,480,481,482,483,484,485,486,487,488]],"id":"feature_100"},{"properties":{"type":"17204","name":"17"},"type":"Polygon","arcs":[[513,489,515,490,496,491,498,492,508,493]],"id":"feature_101"},{"properties":{"type":"17204","name":"17"},"type":"Polygon","arcs":[[510,494,512,513,514,515,516,495,496,497,498,499]],"id":"feature_102"},{"properties":{"type":"17204","name":"17"},"type":"Polygon","arcs":[[520,500,518,501]],"id":"feature_103"},{"properties":{"type":"17204","name":"17"},"type":"Polygon","arcs":[[502,505,503,507,508,509]],"id":"feature_104"},{"properties":{"type":"17204","name":"17"},"type":"Polygon","arcs":[[504,505,506,507,508,509]],"id":"feature_105"},{"properties":{"type":"17204","name":"17"},"type":"Polygon","arcs":[[510,511,512,513,514,515,516,517]],"id":"feature_106"},{"properties":{"type":"17204","name":"17"},"type":"Polygon","arcs":[[518,519,520,521]],"id":"feature_107"},{"properties":{"type":"17206","name":"17"},"type":"Polygon","arcs":[[522,523,524,525,526,527,528,529,530,531,-533,532,533,534,535,536,537,538,539,540,541,542,543,544,545]],"id":"feature_108"},{"properties":{"type":"17206","name":"17"},"type":"Polygon","arcs":[[575,546,577,547]],"id":"feature_109"},{"properties":{"type":"17206","name":"17"},"type":"Polygon","arcs":[[571,548]],"id":"feature_110"},{"properties":{"type":"17206","name":"17"},"type":"Polygon","arcs":[[573,549]],"id":"feature_111"},{"properties":{"type":"17206","name":"17"},"type":"Polygon","arcs":[[580,-582,581,582,550,584,551,586,552,588,553]],"id":"feature_112"},{"properties":{"type":"17206","name":"17"},"type":"Polygon","arcs":[[554]],"id":"feature_113"},{"properties":{"type":"17206","name":"17"},"type":"Polygon","arcs":[[561,-563,562,563,-565,564,565,555,567,556,569,557],[559,558]],"id":"feature_114"},{"properties":{"type":"17206","name":"17"},"type":"Polygon","arcs":[[559,560,561,-563,562,563,-565,564,565,566,567,568,569,570]],"id":"feature_115"},{"properties":{"type":"17206","name":"17"},"type":"Polygon","arcs":[[571,572]],"id":"feature_116"},{"properties":{"type":"17206","name":"17"},"type":"Polygon","arcs":[[573,574]],"id":"feature_117"},{"properties":{"type":"17206","name":"17"},"type":"Polygon","arcs":[[575,576,577,578]],"id":"feature_118"},{"properties":{"type":"17206","name":"17"},"type":"Polygon","arcs":[[579,580,-582,581,582,583,584,585,586,587,588]],"id":"feature_119"},{"properties":{"type":"17207","name":"17"},"type":"Polygon","arcs":[[589]],"id":"feature_120"},{"properties":{"type":"17207","name":"17"},"type":"Polygon","arcs":[[592]],"id":"feature_121"},{"properties":{"type":"17207","name":"17"},"type":"Polygon","arcs":[[594,590,596,591]],"id":"feature_122"},{"properties":{"type":"17207","name":"17"},"type":"Polygon","arcs":[[592]],"id":"feature_123"},{"properties":{"type":"17207","name":"17"},"type":"Polygon","arcs":[[593,594,595,596]],"id":"feature_124"},{"properties":{"type":"17212","name":"17"},"type":"Polygon","arcs":[[-674,806,807,808,773,774,775,776,777,778,779,780,597,598,599,600,601,784,785,786,787,602,603,790,791,604,605,796,606,799,800,801,802,803,804,607]],"id":"feature_125"},{"properties":{"type":"17212","name":"17"},"type":"Polygon","arcs":[[811,608,813,609,815,610,817,611,819,820,612,822,823,613,614,827,615,830,616,832,833,834,617,618,619,620,621,839,840,841,622,843,623,624,846,625,849,850,626,855,856,627,859,628,629,862,630,864,865,631,867,868,632,871,633,873,634,876,635,879,880,636,637,883,638,639,640,887,641,889,890,891,642,896,643,898,899,900,901,902,903,904,905,906,-683,644]],"id":"feature_126"},{"properties":{"type":"17212","name":"17"},"type":"Polygon","arcs":[[-772,-906,683,645,685,646,687,647,689,690,648,-908,693,909,694,695,649,914,650,698,699,700,651,703,704,705,706,652,708,709,710,653,712,654,714,715,655,656,721,657,723,658,727,659,731,660,733,661,735,662,738,663,664,665,741,666,743,744,667,746,668,669,752,670,754,671,756,672,-808]],"id":"feature_127"},{"properties":{"type":"17212","name":"17"},"type":"Polygon","arcs":[[-807,673,674,763,675,765,676,761,677,759,678,679,680,769,681,682,-907,771]],"id":"feature_128"},{"properties":{"type":"17212","name":"17"},"type":"Polygon","arcs":[[683,684,685,686,687,688,689,690,691,692,-908,693,909,694,695,696,911,912,913,697,698,699,700,701,702,703,704,705,706,707,708,709,710,711,712,713,714,715,716,717,718,719,720,721,722,723,724,725,726,727,728,729,730,731,732,733,734,735,736,737,738,739,740,741,742,743,744,745,746,747,748,749,750,751,752,753,754,755,756,757,758,-808,-772,-906]],"id":"feature_129"},{"properties":{"type":"17212","name":"17"},"type":"MultiPolygon","arcs":[[[759,760,761,762]],[[763,764,765,766,767,768,769,770,-907,771,-807,772]]],"id":"feature_130"},{"properties":{"type":"17212","name":"17"},"type":"Polygon","arcs":[[773,774,775,776,777,778,779,780,781,782,783,784,785,786,787,788,789,790,791,792,793,794,795,796,797,798,799,800,801,802,803,804,805,806,807,808]],"id":"feature_131"},{"properties":{"type":"17212","name":"17"},"type":"Polygon","arcs":[[809,917,810,811,812,813,814,815,816,817,818,819,820,821,822,823,824,825,826,827,828,829,830,831,832,833,834,835,836,837,838,839,840,841,842,843,844,845,846,847,848,849,850,851,852,853,-855,854,855,856,857,858,859,860,861,862,863,864,865,866,867,868,869,870,871,872,873,874,875,876,877,878,879,880,881,882,883,884,885,886,887,888,889,890,891,892,893,894,895,896,897,898,899,900,901,902,903,904,905,906]],"id":"feature_132"},{"properties":{"type":"17212","name":"17"},"type":"MultiPolygon","arcs":[[[907,908,909,910,911,912,913,914,915]],[[916,917]],[[918]]],"id":"feature_133"},{"properties":{"type":"17461","name":"17"},"type":"Polygon","arcs":[[919]],"id":"feature_134"},{"properties":{"type":"17461","name":"17"},"type":"Polygon","arcs":[[-951,929,-949,930,-947,931,932,933,934,935]],"id":"feature_135"},{"properties":{"type":"17461","name":"17"},"type":"Polygon","arcs":[[920]],"id":"feature_136"},{"properties":{"type":"17461","name":"17"},"type":"Polygon","arcs":[[-935,922]],"id":"feature_137"},{"properties":{"type":"17461","name":"17"},"type":"Polygon","arcs":[[921]],"id":"feature_138"},{"properties":{"type":"17461","name":"17"},"type":"Polygon","arcs":[[-933,923,-945,924,-943,925,-941,926,-939,927,-937,928]],"id":"feature_139"},{"properties":{"type":"17461","name":"17"},"type":"Polygon","arcs":[[936,937,938,939,940,941,942,943,944,945,946,947,948,949,950,951]],"id":"feature_140"},{"properties":{"type":"17461","name":"17"},"type":"Polygon","arcs":[[-935,922]],"id":"feature_141"},{"properties":{"type":"17461","name":"17"},"type":"Polygon","arcs":[[-933,923,-945,924,-943,925,-941,926,-939,927,-937,928]],"id":"feature_142"},{"properties":{"type":"17461","name":"17"},"type":"Polygon","arcs":[[-951,929,-949,930,-947,931,932,933,934,935]],"id":"feature_143"},{"properties":{"type":"17461","name":"17"},"type":"Polygon","arcs":[[936,937,938,939,940,941,942,943,944,945,946,947,948,949,950,951]],"id":"feature_144"}],"type":"GeometryCollection"}},"bbox":[136.244,36.221,136.9377,37.4071],"transform":{"scale":[6.9370693706937756e-06,1.1861118611186145e-05],"translate":[136.244,36.221]},"arcs":[[[52126,34525],[2176,539]],[[52083,33530],[57,-26]],[[51881,33412],[-15,25]],[[51737,33530],[230,59]],[[55773,34036],[-58,-17]],[[52558,34078],[-432,447]],[[52126,34525],[850,-279],[1326,818]],[[54302,35064],[1658,-910]],[[57632,22241],[-3906,969]],[[53538,23202],[-43,8]],[[53351,23227],[-144,186]],[[53207,23472],[-15,101]],[[53192,23876],[87,161]],[[53279,24045],[29,67]],[[53308,24112],[29,26]],[[53365,24197],[44,67]],[[53423,24273],[87,109]],[[53538,24433],[-14,42]],[[53510,24618],[-44,211]],[[53452,24905],[29,101]],[[53481,25015],[14,50]],[[53495,25183],[15,68]],[[53510,25259],[14,67]],[[53524,25343],[-14,26]],[[53510,25377],[-15,42]],[[53495,25478],[15,9]],[[54129,25664],[217,17]],[[54519,25655],[202,-50]],[[54836,25596],[144,-17]],[[55571,26338],[-274,9]],[[55081,26347],[-447,16]],[[54735,26616],[216,-8]],[[53365,27358],[-72,51]],[[53192,27409],[-144,-9]],[[53020,27400],[0,-151]],[[53005,27190],[58,-26]],[[52976,27089],[44,-26]],[[52947,26996],[-100,-9]],[[52702,26970],[-201,9]],[[52356,26962],[-43,-34]],[[52328,26928],[-15,-8]],[[52313,26928],[-29,-8]],[[52270,26920],[-101,-17]],[[52054,26970],[-15,9]],[[51967,27114],[-43,118]],[[51780,27249],[-58,126]],[[51679,27459],[-173,363]],[[50511,27932],[15,-287]],[[50526,27375],[-909,388]],[[49387,27814],[-966,-346],[-461,1366],[-2869,404],[4512,2816]],[[49603,32063],[-14,17]],[[49589,32096],[57,34]],[[49661,32164],[548,320]],[[50353,32569],[1384,885]],[[66296,36278],[476,-674],[966,573],[3156,-784]],[[70894,35393],[7223,-911],[-375,-1222],[1744,-2622],[-620,-1256],[1485,0],[2278,-1442],[-3201,-3524],[-158,-1147],[1297,-995],[-1095,-978],[432,-1011],[-1456,-742],[1211,-708],[-3892,-1147],[-188,-615],[318,-768],[3546,-1104],[1542,-3870],[-5002,-1349],[-187,599],[-7756,2099],[-850,1695],[-2408,-262],[-4483,1450],[447,945],[-2407,2352],[793,590],[-2682,2099],[1226,0],[-44,692]],[[57632,22241],[1932,109],[980,-910],[2970,1408],[1730,-253],[274,-1231],[10480,995],[591,767],[-2509,1003],[404,574],[-2941,2445],[880,497],[-3806,2158],[1715,160],[2148,1476],[188,801],[-1485,-152],[-1672,666],[43,734],[-1067,-93],[2407,1998]],[[52054,33167],[-15,17]],[[51982,33218],[-29,17]],[[51910,33277],[-173,177]],[[51737,33454],[0,76]],[[51737,33530],[129,-93]],[[51866,33437],[15,-8]],[[51938,33353],[44,-34]],[[51996,33311],[173,-135]],[[52183,33167],[72,-42]],[[52313,33100],[72,-26]],[[52630,33226],[-490,278]],[[52140,33504],[-57,26]],[[52083,33530],[-116,59]],[[51967,33589],[591,489]],[[52558,34078],[836,-911],[1845,565]],[[55239,33740],[0,-8]],[[55239,33732],[476,287]],[[55715,34019],[58,17]],[[55773,34036],[187,118]],[[55960,34154],[7784,4046],[1500,-505],[-981,-683],[2033,-734]],[[66296,36278],[-2321,-50],[-2321,-717],[44,-582],[-1572,953],[-5910,-3162],[-1831,295]],[[65316,28244],[158,-17],[-201,-127],[14,127],[29,17]],[[61597,29702],[0,0]],[[62663,28960],[-43,0],[-29,9],[29,-9],[43,0]],[[62606,30132],[-15,-8],[0,16],[15,-8]],[[63053,29930],[0,0]],[[62548,30107],[14,8],[29,9],[-14,-17],[-29,0]],[[54447,25664],[86,-9]],[[54533,25655],[-231,-759],[-490,515]],[[53899,25487],[29,16]],[[53928,25512],[129,101]],[[54101,25664],[28,0]],[[54129,25664],[202,17]],[[54346,25681],[43,-9]],[[54850,23826],[-86,-9],[-15,42],[116,-25],[-15,-8]],[[58541,28446],[-15,-9]],[[59910,27670],[1168,-1070],[-2235,1070]],[[58555,27822],[115,-1324]],[[58656,26439],[-548,-421]],[[58022,26026],[-245,978]],[[57503,26760],[14,-85]],[[57503,26675],[-2782,-2934],[-1211,641]],[[53510,24382],[28,51]],[[53495,24526],[15,67]],[[53510,24610],[0,8]],[[53510,24618],[1470,961]],[[54980,25579],[43,9]],[[55066,25596],[58,-8]],[[55427,25579],[144,228]],[[55571,25807],[43,67]],[[55730,26068],[28,43]],[[55758,26119],[15,25]],[[55614,26237],[0,0]],[[55614,26237],[894,784],[-1600,-261]],[[54677,26844],[15,8]],[[54692,26895],[14,16]],[[54706,26928],[43,42]],[[54706,27013],[-43,42]],[[54663,27055],[-43,67]],[[54591,27156],[-72,101]],[[54418,27417],[-72,0]],[[54216,27384],[-43,-26]],[[53438,27384],[-145,25]],[[53293,27409],[-1787,413]],[[51506,27822],[-159,337]],[[51203,28159],[-115,-42]],[[50929,28075],[-57,-9]],[[50727,28050],[-158,-43]],[[50583,27982],[29,-25]],[[50511,27932],[-894,-169]],[[49617,27763],[-230,51]],[[49387,27814],[4281,354]],[[54850,28260],[43,-33]],[[54908,28218],[29,-17]],[[54288,27628],[2652,-135],[433,725],[-4699,1079],[4166,-531],[-563,523],[2249,-826]],[[58007,27468],[231,67]],[[59982,27502],[-14,59]],[[61683,30621],[0,-126]],[[61525,30343],[-130,-93]],[[61683,30022],[72,-8]],[[62000,29871],[-29,0]],[[61467,29837],[-15,-17]],[[61323,29727],[115,-269]],[[61409,29500],[-202,152]],[[60328,29719],[-29,17]],[[60227,29921],[-14,9]],[[60170,30014],[-995,354],[-216,245],[14,67],[-14,9],[0,33],[-15,26],[2047,-456],[822,793]],[[60804,31135],[432,262]],[[61265,31498],[706,160]],[[62159,31506],[1009,1130],[735,-101],[-1802,-1872]],[[63514,32383],[-58,-17],[-29,-42],[116,0],[-29,59]],[[63168,31852],[-72,-8],[-29,-17],[144,-34],[-43,59]],[[62476,30764],[-29,-33],[87,17],[-29,16],[-29,0]],[[62418,30714],[-129,-17],[-44,-25],[116,-17],[57,59]],[[61409,29584],[43,17],[-115,0],[29,-17],[43,0]],[[61712,29458],[-58,-17],[-72,0],[58,50],[72,-33]],[[63831,32653],[-533,93],[187,118],[-43,168],[72,118],[72,51],[1211,59]],[[65489,28185],[144,-59],[29,8],[115,-17],[-288,68]],[[63370,29154],[0,0]],[[57805,31717],[1154,-1222]],[[59867,30107],[259,-101]],[[61986,29036],[72,-17]],[[62635,28749],[1412,-1028],[-1672,674]],[[62375,28421],[14,8]],[[62635,28185],[1081,-1956],[-3590,1526]],[[59060,28218],[-116,51]],[[58641,28463],[-43,25]],[[57070,29196],[548,430],[-8015,2428]],[[49603,32054],[0,9]],[[49603,32063],[-14,17]],[[49589,32080],[0,16]],[[49589,32096],[57,34]],[[49646,32130],[15,34]],[[49661,32164],[548,320]],[[50209,32484],[144,85]],[[50353,32569],[5420,-1821]],[[55701,30849],[72,278]],[[55658,31203],[-808,168]],[[54591,31523],[-649,869]],[[53985,32392],[130,8]],[[54230,32400],[58,25]],[[54317,32442],[1398,-716]],[[55917,31548],[0,-295]],[[55975,31228],[1758,-658],[-317,591]],[[57286,31228],[-1484,1223],[793,236],[1095,-1004]],[[56176,30621],[0,8],[-28,-8],[57,-8],[-29,8]],[[62144,27670],[116,-118],[115,-17],[-115,102],[-116,33]],[[61006,27544],[43,-42],[259,-68],[-86,42],[-216,68]],[[63110,27257],[87,-101],[129,0],[-115,42],[-101,59]],[[62332,27198],[-260,34],[404,-194],[0,59],[-144,101]],[[63370,27105],[14,-16],[43,16],[-14,17],[-43,-17]],[[62519,29913],[0,0]],[[62534,28969],[0,0]],[[63269,29129],[0,0]],[[62620,28851],[-14,-9],[-116,110],[173,-76],[-43,-25]],[[63110,31675],[-29,-9],[-14,0],[14,17],[29,-8]],[[63024,29879],[14,-17],[-29,9],[-43,59],[58,-51]],[[62663,30200],[0,0],[0,0]],[[54634,26363],[-72,9]],[[54475,26397],[-14,34]],[[54432,26498],[15,17]],[[54461,26566],[29,8]],[[54735,26616],[-101,-253]],[[63053,29888],[0,0]],[[61899,29795],[-14,-51],[-115,51],[43,25],[86,-25]],[[62548,29980],[-14,-8],[0,17],[14,-9]],[[52630,33226],[-245,-152]],[[52385,33074],[-72,26]],[[52313,33100],[-58,25]],[[52255,33125],[-72,42]],[[52183,33167],[-14,9]],[[52169,33176],[-173,135]],[[51996,33311],[-14,8]],[[51982,33319],[-44,34]],[[51938,33353],[-57,59]],[[51881,33412],[0,17]],[[51881,33429],[749,-203]],[[63053,29879],[0,0]],[[56076,31312],[-116,26],[202,67],[58,-34],[-144,-59]],[[62894,28800],[72,-59]],[[63600,28328],[1600,-59],[-1066,-523]],[[64134,27771],[-1125,860]],[[62980,28648],[-158,152]],[[51910,33277],[43,-42]],[[51953,33235],[29,-17]],[[51982,33218],[57,-34]],[[52039,33184],[15,-17]],[[52054,33167],[331,-152]],[[52385,33015],[-951,-177],[476,439]],[[53726,23210],[-188,-8]],[[53538,23202],[-43,8]],[[53495,23210],[-144,17]],[[53351,23227],[-144,186]],[[53207,23472],[519,-262]],[[58036,32712],[505,-413],[-188,-354],[-533,210],[216,557]],[[62894,31456],[0,-9],[-14,9],[14,0]],[[56176,27797],[-504,202],[476,261],[490,-202],[-462,-261]],[[61496,29432],[57,0],[29,-59],[-173,9],[87,50]],[[57834,33015],[130,-151],[43,-127],[-576,135],[403,143]],[[50684,29365],[-43,-25]],[[50410,29340],[-43,-9]],[[50338,29323],[-1614,-51],[1903,101]],[[52472,29306],[302,-194],[635,-253],[-2076,329],[1139,118]],[[63053,29955],[0,0]],[[59550,27873],[-44,16],[44,-8],[0,-8]],[[49906,29188],[-144,0],[28,109],[116,0],[0,-109]],[[58656,26439],[-548,-421]],[[58108,26018],[-86,8]],[[58022,26026],[648,472]],[[58670,26498],[-14,-59]],[[63744,32703],[0,0]],[[62635,28185],[-433,-68]],[[62361,28353],[274,-168]],[[61438,29458],[-29,42]],[[61409,29500],[29,-42]],[[61683,30022],[72,-8]],[[61755,30014],[245,-143]],[[62000,29871],[-29,0]],[[61971,29871],[-504,-34]],[[61467,29837],[-15,-17]],[[61452,29820],[-129,-93]],[[61323,29727],[-116,-75]],[[61207,29652],[-879,67]],[[60328,29719],[-29,17]],[[60299,29736],[-72,185]],[[60227,29921],[-14,9]],[[60213,29930],[-43,84]],[[60170,30014],[1225,236]],[[61395,30250],[288,-228]],[[51967,32973],[-245,-8],[519,93],[-187,-68],[-87,-17]],[[64408,33058],[28,8]],[[59795,27738],[57,-34],[-14,0],[-43,25],[-130,76],[0,9],[130,-76]],[[61020,28159],[0,0]],[[58050,28353],[-259,-261]],[[57791,28083],[-14,-17]],[[57877,27898],[-1225,607],[1427,-135]],[[54865,29112],[720,-202],[-1628,269],[331,17],[577,-84]],[[63802,32729],[245,126]],[[61352,29719],[0,0]],[[61928,27915],[-86,33],[115,34],[43,-34],[-72,-33]],[[63125,27628],[201,-177],[-850,93],[432,177],[217,-93]],[[63600,28328],[534,-582]],[[64134,27746],[0,25]],[[64134,27771],[-1125,860]],[[63009,28631],[-29,17]],[[62980,28648],[-158,152]],[[62822,28800],[72,0]],[[62894,28800],[72,-59]],[[62966,28741],[634,-413]],[[62159,31506],[-58,-269]],[[61957,31144],[-144,-59]],[[61813,31085],[-1009,50]],[[60804,31135],[432,262]],[[61236,31397],[29,101]],[[61265,31498],[706,160]],[[61971,31658],[0,0]],[[61971,31658],[188,-152]],[[50237,32147],[836,-261],[-28,-59],[-1226,253],[750,269],[-332,-202]],[[58541,28446],[-15,17]],[[58526,28463],[15,-17]],[[50641,29340],[-231,0]],[[50410,29340],[-43,-9]],[[50367,29331],[-29,-8]],[[50338,29323],[289,50]],[[50627,29373],[57,-8]],[[50684,29365],[-43,-25]],[[54937,28201],[-649,-573]],[[54288,27628],[-620,540]],[[53668,28168],[1182,92]],[[54850,28260],[43,-33]],[[54893,28227],[15,-9]],[[54908,28218],[29,-17]],[[55326,25225],[-447,-716],[-173,0],[317,666],[490,362],[-187,-312]],[[53611,31102],[331,-17],[288,-245],[-432,76],[-187,186]],[[59939,27409],[504,-287],[289,-185],[-908,463],[115,9]],[[62375,28421],[0,-26]],[[62375,28395],[0,26]],[[57416,31161],[-130,67]],[[57286,31228],[404,455]],[[57690,31683],[115,-42]],[[57805,31633],[0,8]],[[57805,31641],[0,76]],[[57805,31717],[-389,-556]],[[62101,30663],[-418,-42]],[[61683,30621],[274,523]],[[61957,31144],[144,93]],[[62101,31237],[0,-574]],[[58887,28109],[14,8]],[[58901,28117],[43,17]],[[58944,28134],[15,-8],[-15,0],[0,8]],[[58944,28134],[-43,-17]],[[58901,28117],[-14,-8]],[[58887,28109],[173,-26]],[[59060,28083],[-58,17],[-15,9],[29,-9],[44,-17]],[[59060,28083],[850,-413]],[[59910,27670],[58,-109]],[[59968,27561],[14,-59]],[[59982,27502],[-1139,168]],[[58843,27670],[-288,152]],[[58555,27822],[-317,-287]],[[58238,27535],[-231,-67]],[[58007,27468],[-130,430]],[[57877,27898],[-100,168]],[[57777,28066],[14,17]],[[57791,28083],[0,9]],[[57791,28092],[259,261]],[[58050,28353],[29,17]],[[58079,28370],[447,67]],[[58526,28437],[361,-328]],[[61784,30393],[14,0]],[[61798,30393],[-273,-50]],[[61525,30343],[158,152]],[[61683,30495],[101,-102]],[[58526,28463],[15,-17]],[[64681,33192],[-144,-67],[188,93],[-44,-26]],[[56321,26043],[591,-67],[-1240,0],[43,67],[606,0]],[[64715,32740],[-884,-87]],[[63831,32653],[-29,76]],[[63802,32729],[245,126]],[[64047,32855],[361,203]],[[64408,33058],[28,8]],[[64436,33066],[361,194]],[[64797,33260],[-82,-520]],[[57777,27004],[-274,-244]],[[57503,26760],[14,-85]],[[57517,26675],[-14,0]],[[57503,26675],[274,329]],[[57546,28884],[0,0]],[[61207,28539],[29,-9],[-14,-17],[-15,17],[0,9]],[[58411,27266],[115,16],[0,-92],[-245,33],[130,43]],[[55715,31726],[202,-178]],[[55917,31548],[0,-295]],[[55917,31253],[58,-25]],[[55975,31228],[2984,-733]],[[58959,30495],[908,-388]],[[59867,30107],[259,-101]],[[60126,30006],[1860,-970]],[[61986,29036],[72,-17]],[[62058,29019],[577,-270]],[[62635,28749],[-246,-320]],[[62389,28429],[-1153,245],[1125,-321]],[[62361,28353],[-159,-236]],[[62202,28117],[-2076,-362]],[[60126,27755],[-1066,463]],[[59060,28218],[-116,51]],[[58944,28269],[-303,194]],[[58641,28463],[-43,25]],[[58598,28488],[-1528,708]],[[57070,29196],[649,970],[-1946,582]],[[55773,30748],[-72,101]],[[55701,30849],[72,278]],[[55773,31127],[-115,76]],[[55658,31203],[-808,168]],[[54850,31371],[-259,152]],[[54591,31523],[-649,869]],[[53942,32392],[43,0]],[[53985,32392],[130,8]],[[54115,32400],[115,0]],[[54230,32400],[58,25]],[[54288,32425],[29,17]],[[54317,32442],[1398,-716]],[[60415,28901],[57,9],[-130,50],[29,-34],[44,-25]],[[60616,28800],[58,0],[0,17],[-58,0],[0,-17]],[[60775,28800],[-72,-8],[58,-43],[72,26],[-58,25]],[[60905,28758],[72,-169],[259,-118],[173,-8],[-504,295]],[[60227,28370],[534,-169],[86,17],[-231,127],[-389,25]],[[60847,28218],[202,-101],[72,34],[-87,42],[-187,25]],[[61395,28159],[-159,-50],[116,-85],[-44,59],[87,76]],[[61135,28117],[0,9],[-14,8],[0,-17],[14,0]],[[59449,27923],[-44,9],[0,8],[44,-17]],[[24708,6922],[-115,101]],[[24621,7040],[-259,126]],[[24333,7166],[-577,245]],[[23670,7411],[-750,185]],[[22906,7596],[29,582],[2104,236],[-288,809]],[[24766,9223],[-635,506]],[[24117,9729],[-721,346]],[[23382,10075],[-202,-8]],[[23122,10067],[-966,-161],[-1499,1257],[692,1121]],[[21349,12292],[-1715,51]],[[19634,12334],[-15,-16]],[[19605,12309],[490,506],[-1629,860],[7784,3962],[6689,439],[447,666],[1989,-152],[-1499,-1408],[490,-767],[1009,750],[750,-371],[4483,860],[2537,-1391],[-865,-447],[2148,-151],[1542,-1105],[-5204,-598],[159,-903],[-1038,380],[-1023,-514],[-865,1290],[-2581,-388],[-216,-1568],[-3013,-1265],[289,-1535],[1657,-809],[-1254,-1964],[-3488,-321],[-490,447],[937,169],[-1413,396],[-3705,-464]],[[25385,16179],[-836,17],[923,506],[605,-354],[-692,-169]],[[29551,9561],[346,-506],[-2047,-287],[231,548],[1470,245]],[[29018,9400],[144,-50],[-447,-68],[447,26],[58,67],[-202,25]],[[29494,9266],[72,-43],[14,9],[-14,34],[-72,0]],[[27029,10969],[14,-9]],[[27144,10682],[-663,-691],[-375,556]],[[25140,10758],[-72,17]],[[25054,10783],[43,17]],[[25241,10851],[130,42]],[[25342,10910],[-58,16]],[[24535,10825],[202,211]],[[24823,11078],[58,-8]],[[25400,11188],[29,17]],[[26164,12006],[-375,421],[-750,-447],[-533,970],[3272,615],[966,1265]],[[27908,15100],[43,8]],[[28355,15977],[1903,421],[288,-531]],[[31267,15791],[1312,202],[1311,-969],[1442,177],[2191,-76],[101,-312],[-1052,-438],[-678,699],[-303,-986],[-1513,556],[504,-480],[-937,-143],[-937,699]],[[32276,14569],[-115,-9]],[[31324,14628],[-821,-279],[1470,-421],[-2422,-304],[-101,675],[-2191,-2386]],[[31642,15066],[432,-135]],[[32665,14855],[15,-25]],[[32752,14771],[648,405],[-1859,362]],[[26697,12343],[375,-101],[649,539],[-1831,-17],[807,-421]],[[26366,12941],[0,-16],[14,0],[0,16],[-14,0]],[[26409,12967],[0,-9],[43,17],[-14,0],[-29,-8]],[[32824,16407],[14,0],[72,-9],[-86,9]],[[33833,15960],[-1067,320],[1283,438],[187,-497],[-403,-261]],[[33213,16761],[-706,-447],[-606,84],[389,261],[923,102]],[[33184,15985],[649,-211],[57,-109],[-1081,16],[375,304]],[[30517,16786],[1038,337],[-288,-421],[-332,-177],[-2003,-102],[1585,363]],[[39700,16575],[230,-295],[-562,-185],[-274,362],[606,118]],[[25587,16845],[-360,135],[3229,775],[-1240,-1037],[-1629,127]],[[32708,14720],[-432,-151]],[[32276,14569],[-115,-9]],[[32161,14560],[-837,68]],[[31324,14628],[-2580,202]],[[28744,14830],[-836,270]],[[27908,15100],[43,8]],[[27951,15108],[58,17]],[[28009,15117],[0,8]],[[28009,15125],[346,852]],[[28355,15977],[2191,-110]],[[30546,15867],[721,-76]],[[31267,15791],[274,-253]],[[31541,15538],[101,-472]],[[31642,15066],[432,-135]],[[32074,14931],[591,-76]],[[32665,14855],[15,-25]],[[32680,14830],[72,-59]],[[32752,14771],[-44,-51]],[[26106,10547],[-966,211]],[[25140,10758],[-72,17]],[[25068,10775],[-14,8]],[[25054,10783],[43,17]],[[25097,10800],[144,51]],[[25241,10851],[130,42]],[[25371,10893],[-29,17]],[[25342,10910],[-58,16]],[[25284,10926],[-749,-101]],[[24535,10825],[202,211]],[[24737,11036],[86,42]],[[24823,11078],[58,-8]],[[24881,11070],[519,118]],[[25400,11188],[29,17]],[[25429,11205],[735,801]],[[26164,12006],[1095,-93]],[[27259,11913],[-230,-944]],[[27029,10969],[14,-9]],[[27043,10960],[101,-278]],[[27144,10682],[-1038,-135]],[[94694,99873],[29,0]],[[94824,99822],[14,-34]],[[94853,99780],[14,-9]],[[94766,99358],[462,-211]],[[96856,98954],[3143,50],[-4080,-2276],[-634,455],[-4642,-261],[-749,809],[1658,1416],[3085,734]],[[94161,98532],[-1326,-346],[706,523]],[[94824,99814],[14,-26]],[[94838,99788],[15,-8]],[[94853,99780],[14,-9]],[[94867,99771],[-101,-413]],[[94766,99358],[-115,-76]],[[94420,98684],[130,0]],[[95386,98229],[-735,16]],[[95862,98861],[-101,-439]],[[95847,98094],[173,-363],[-216,-126],[-288,-43],[14,582]],[[95862,98861],[951,-498],[-1052,59]],[[95761,98422],[86,-328]],[[95847,98094],[-317,50]],[[95530,98144],[-1009,818],[707,185]],[[95228,99147],[1628,-193]],[[96856,98954],[-994,-93]],[[94651,99282],[-490,-750]],[[94161,98532],[-620,177]],[[93541,98709],[1096,1172]],[[94637,99881],[57,-8]],[[94694,99873],[29,0]],[[94723,99873],[101,-51]],[[94824,99822],[0,-8]],[[94824,99814],[-173,-532]],[[94550,98684],[836,-455]],[[95386,98229],[-735,16]],[[94651,98245],[-231,439]],[[94420,98684],[130,0]],[[19605,12309],[14,9]],[[19619,12318],[15,16]],[[19634,12334],[0,9]],[[19634,12343],[1715,-51]],[[21349,12292],[0,-8]],[[21349,12284],[-692,-1113],[1485,-1273],[980,169]],[[23122,10067],[58,0]],[[23180,10067],[202,8]],[[23382,10075],[14,0]],[[23396,10075],[735,-346]],[[24117,9729],[14,0]],[[24131,9729],[635,-506]],[[24766,9223],[-15,0]],[[24751,9223],[202,-657],[-2047,-970]],[[22906,7596],[14,0]],[[22920,7596],[750,-185]],[[23670,7411],[86,0]],[[23756,7411],[577,-245]],[[24333,7166],[29,0]],[[24362,7166],[259,-126]],[[24621,7040],[-28,-17]],[[24593,7023],[115,-101]],[[24708,6922],[14,-9]],[[24722,6913],[-562,-1500],[2624,-1788],[-4657,-1905],[-1081,860],[-475,-1121],[-1370,244],[-3013,-1703],[1600,2167],[-2032,2175],[-3849,-759],[-980,1062],[-1687,9],[-1773,-194],[-822,-1130],[-3272,363],[-461,1138],[-1153,118],[346,809],[-2105,506],[4512,1990],[3474,2824],[4887,531],[5579,2108],[1614,-885],[-461,-523]],[[16448,8026],[-952,-8]],[[15323,8018],[-1182,784],[2220,-51],[159,-725]],[[10278,6745],[-1240,640],[1730,194],[58,-590]],[[16174,6171],[404,658],[115,-1416],[-533,750]],[[18971,2437],[-418,-127]],[[18581,2352],[15,42]],[[18682,2470],[29,51]],[[18725,2555],[173,67]],[[18380,2656],[-620,-59],[-44,33],[563,296],[101,-270]],[[18134,10260],[-403,-92]],[[17659,10303],[-15,59]],[[17414,10446],[-764,582],[879,-405]],[[17284,10589],[144,-67]],[[17428,10522],[-144,67]],[[17284,10589],[245,34]],[[17529,10623],[159,-34]],[[17688,10581],[0,8]],[[17688,10589],[302,-236]],[[17976,10353],[14,0]],[[17990,10353],[144,-93]],[[18134,10260],[-403,-92]],[[17731,10168],[-72,135]],[[17659,10303],[-15,59]],[[17644,10362],[-230,84]],[[17414,10446],[14,76]],[[10826,6989],[-548,-244]],[[10278,6745],[-836,143],[1384,101]],[[16160,6163],[14,8]],[[16174,6171],[778,-514],[-792,506]],[[16520,8026],[-72,0]],[[16448,8026],[-952,-8]],[[15496,8018],[-173,0]],[[15323,8018],[1183,523],[14,-515]],[[18725,2555],[173,67]],[[18898,2622],[58,-169]],[[18942,2453],[14,0]],[[18956,2453],[15,-16]],[[18971,2437],[-418,-127]],[[18553,2310],[28,42]],[[18581,2352],[15,42]],[[18596,2394],[86,76]],[[18682,2470],[29,51]],[[18711,2521],[14,34]],[[72841,59725],[1297,935],[2955,-826],[2263,683],[-447,-1770],[303,-456],[1773,413],[923,-2487],[-2076,245],[-1932,-2184],[-3820,110],[1312,4156],[-2551,1181]],[[77756,56774],[-706,-236]],[[76646,56420],[-1095,387],[245,599],[966,-169]],[[77021,57305],[591,160],[101,-329],[-505,144],[-187,25]],[[76646,56420],[116,817]],[[76762,57237],[994,-463]],[[77756,56774],[-706,-236]],[[77050,56538],[-404,-118]],[[53495,25183],[0,-118]],[[53495,25065],[-14,-50]],[[53481,25015],[0,-9]],[[53481,25006],[-29,-101]],[[53452,24905],[14,-68]],[[53495,24526],[29,-51]],[[53524,24475],[14,-34]],[[53481,24357],[-58,-84]],[[53423,24273],[-86,-118]],[[53337,24146],[-29,-34]],[[53207,23413],[-3085,303],[505,1754]],[[50396,27072],[-14,8]],[[50382,27089],[-15,8]],[[50353,27097],[-15,25]],[[50338,27131],[188,244]],[[50526,27729],[-15,144]],[[50511,27982],[72,0]],[[50583,27982],[-14,25]],[[50670,28033],[72,17]],[[50785,28058],[58,8]],[[51102,28075],[15,8]],[[51117,28083],[-29,34]],[[51088,28117],[115,42]],[[51203,28159],[144,0]],[[51347,28159],[375,-792]],[[51780,27249],[144,-17]],[[51938,27215],[29,-101]],[[51967,27114],[29,-118]],[[52025,26979],[14,-9]],[[52169,26903],[144,25]],[[52342,26954],[29,25]],[[52400,26979],[101,0]],[[52501,26979],[245,-9]],[[52789,26970],[43,9]],[[52875,26970],[44,-16]],[[52976,27004],[29,76]],[[52976,27089],[87,75]],[[53005,27190],[15,76]],[[53020,27400],[172,9]],[[53365,27358],[73,26]],[[53438,27384],[28,8]],[[53582,27426],[173,50]],[[53755,27476],[72,17]],[[53827,27493],[331,-143]],[[54173,27358],[29,17]],[[54346,27409],[274,-287]],[[54648,27089],[15,-34]],[[50122,26633],[389,396]],[[54692,26836],[29,-17]],[[54764,26802],[144,-42]],[[54922,26675],[72,-75]],[[54937,26608],[-389,17]],[[54475,26566],[-43,-76]],[[54447,26473],[14,-34]],[[54562,26397],[14,-25]],[[55355,26347],[115,-9]],[[55614,26229],[29,-51]],[[55658,26178],[72,-8]],[[55773,26136],[-15,-25]],[[55758,26111],[-187,-304]],[[55427,25579],[-101,9]],[[55239,25588],[-173,0]],[[55038,25588],[-274,8]],[[54749,25596],[-28,9]],[[54677,25647],[-144,8]],[[54519,25655],[-87,17]],[[54389,25672],[-43,9]],[[54346,25681],[-15,0]],[[54331,25681],[-29,8]],[[54274,25689],[-145,-25]],[[54101,25655],[-44,-42]],[[53971,25554],[-43,-42]],[[53928,25512],[-159,-110]],[[53755,25411],[14,59]],[[53697,25470],[-43,8]],[[53611,25478],[-116,9]],[[51347,25706],[-720,-236]],[[50627,25470],[-159,168]],[[50223,25630],[-87,-8]],[[50079,25638],[-1197,338]],[[48897,25976],[115,8]],[[49228,25799],[750,328]],[[49978,26127],[-274,110]],[[49704,26237],[-245,-42]],[[49445,26195],[677,438]],[[50122,26633],[115,-17]],[[54677,26844],[15,-8]],[[54692,26836],[29,-17]],[[54721,26819],[43,-17]],[[54764,26802],[144,-42]],[[54908,26760],[14,-85]],[[54922,26675],[72,-75]],[[54994,26600],[-43,8]],[[54951,26608],[-14,0]],[[54937,26608],[-202,8]],[[54735,26616],[-187,9]],[[54533,26625],[0,-34]],[[54519,26591],[-29,-17]],[[54490,26574],[-15,-8]],[[54475,26566],[-14,0]],[[54432,26490],[29,-51]],[[54461,26439],[0,-8]],[[54461,26431],[14,-34]],[[54475,26397],[87,0]],[[54562,26397],[0,-25]],[[54562,26372],[14,0]],[[54576,26372],[58,-9]],[[54634,26363],[447,-16]],[[55081,26347],[216,0]],[[55297,26347],[58,0]],[[55355,26347],[115,-9]],[[55470,26338],[101,0]],[[55571,26338],[43,-101]],[[55614,26237],[0,-8]],[[55614,26229],[29,-51]],[[55643,26178],[15,0]],[[55658,26178],[72,-8]],[[55730,26170],[43,-26]],[[55773,26144],[0,-8]],[[55773,26136],[-15,-17]],[[55758,26119],[0,-8]],[[55758,26111],[-28,-43]],[[55730,26068],[-116,-194]],[[55614,25874],[-43,-67]],[[55571,25807],[-144,-228]],[[55427,25579],[-101,9]],[[55326,25588],[-87,0]],[[55239,25588],[-115,0]],[[55124,25588],[-58,8]],[[55066,25596],[0,-8]],[[55066,25588],[-28,0]],[[55038,25588],[-15,0]],[[55023,25588],[-187,8]],[[54836,25596],[-72,0]],[[54764,25596],[-15,0]],[[54749,25596],[-28,9]],[[54721,25605],[-44,42]],[[54677,25647],[-144,8]],[[54533,25655],[-14,0]],[[54519,25655],[-72,9]],[[54447,25664],[-15,8]],[[54432,25672],[-43,0]],[[54389,25672],[-43,9]],[[54346,25681],[-44,8]],[[54302,25689],[-28,0]],[[54274,25689],[-145,-25]],[[54129,25664],[-28,0]],[[54101,25664],[0,-9]],[[54101,25655],[-44,-42]],[[54057,25613],[-86,-59]],[[53971,25554],[-43,-42]],[[53928,25512],[0,-9]],[[53928,25503],[-29,-16]],[[53899,25487],[-87,-76]],[[53812,25411],[-43,-9]],[[53769,25402],[-14,9]],[[53755,25411],[14,59]],[[53769,25470],[-72,0]],[[53697,25470],[-43,8]],[[53654,25478],[-43,0]],[[53611,25478],[-101,9]],[[53510,25487],[-15,0]],[[49012,25984],[216,-185]],[[49228,25799],[-346,177]],[[48882,25976],[15,0]],[[48897,25976],[115,8]],[[50468,25638],[-245,-8]],[[50223,25630],[-87,-8]],[[50136,25622],[-57,16]],[[50079,25638],[-101,489]],[[49978,26127],[-274,110]],[[49704,26237],[-245,-42]],[[49459,26195],[-14,0]],[[49445,26195],[792,421]],[[52198,26675],[-620,-961]],[[51347,25706],[-879,-68]],[[53495,25478],[0,-59]],[[53495,25419],[15,-42]],[[53510,25377],[0,-8]],[[53510,25369],[14,-26]],[[53524,25343],[0,-17]],[[53524,25326],[-14,-67]],[[53510,25259],[0,-8]],[[53510,25251],[-15,-68]],[[53495,25183],[0,-118]],[[53495,25065],[-43,-160]],[[53452,24905],[14,-68]],[[53466,24837],[0,-8]],[[53466,24829],[44,-219]],[[53510,24610],[0,-17]],[[53510,24593],[-15,-67]],[[53495,24526],[29,-51]],[[53524,24475],[14,-34]],[[53538,24441],[0,-8]],[[53538,24433],[-57,-76]],[[53481,24357],[-58,-84]],[[53423,24273],[-14,-9]],[[53409,24264],[-44,-67]],[[53365,24197],[-28,-42]],[[53337,24155],[0,-9]],[[53337,24146],[0,-8]],[[53337,24138],[-29,-26]],[[53308,24112],[-29,-67]],[[53279,24045],[0,-8]],[[53279,24037],[-87,-161]],[[53192,23876],[0,-303]],[[53192,23573],[15,-101]],[[53207,23472],[0,-59]],[[53207,23413],[-2047,565],[1470,682],[-1283,1046]],[[51347,25706],[231,8]],[[51578,25714],[1917,-227]],[[53495,25487],[0,-9]],[[50237,26616],[692,397]],[[50857,27063],[-346,-34]],[[50511,27029],[-115,43]],[[50396,27072],[-14,8]],[[50382,27080],[0,9]],[[50382,27089],[-15,8]],[[50367,27097],[-14,0]],[[50353,27097],[-15,25]],[[50338,27122],[0,9]],[[50338,27131],[188,244]],[[50526,27375],[0,270]],[[50526,27645],[0,84]],[[50526,27729],[-15,144]],[[50511,27873],[0,59]],[[50511,27932],[0,50]],[[50511,27982],[101,-25]],[[50612,27957],[-29,25]],[[50583,27982],[-14,25]],[[50569,28007],[101,26]],[[50670,28033],[57,17]],[[50727,28050],[15,0]],[[50742,28050],[43,8]],[[50785,28058],[58,8]],[[50843,28066],[29,0]],[[50872,28066],[57,9]],[[50929,28075],[173,0]],[[51102,28075],[15,8]],[[51117,28083],[562,-624]],[[51679,27459],[43,-84]],[[51722,27375],[0,-8]],[[51722,27367],[43,-118]],[[51765,27249],[-14,0]],[[51751,27249],[29,0]],[[51780,27249],[144,-17]],[[51924,27232],[14,-17]],[[51938,27215],[29,-101]],[[51967,27114],[29,-118]],[[51996,26996],[29,-17]],[[52025,26979],[14,0]],[[52039,26979],[0,-9]],[[52039,26970],[15,0]],[[52054,26970],[115,-67]],[[52169,26903],[101,17]],[[52270,26920],[14,0]],[[52284,26920],[29,8]],[[52313,26920],[0,8]],[[52313,26928],[15,0]],[[52328,26928],[14,26]],[[52342,26954],[14,8]],[[52356,26962],[15,17]],[[52371,26979],[29,0]],[[52400,26979],[302,-9]],[[52702,26970],[44,0]],[[52746,26970],[43,0]],[[52789,26970],[43,9]],[[52832,26979],[15,8]],[[52847,26987],[28,-17]],[[52875,26970],[44,-16]],[[52919,26954],[28,42]],[[52947,26996],[29,8]],[[52976,27004],[44,59]],[[53020,27063],[-15,17]],[[53005,27080],[-29,9]],[[52976,27089],[87,75]],[[53063,27164],[-58,26]],[[53005,27190],[15,59]],[[53020,27249],[0,17]],[[53020,27266],[0,134]],[[53020,27400],[28,0]],[[53048,27400],[144,9]],[[53192,27409],[101,0]],[[53293,27409],[72,-51]],[[53365,27358],[73,26]],[[53438,27384],[28,8]],[[53466,27392],[116,34]],[[53582,27426],[173,50]],[[53755,27476],[72,17]],[[53827,27493],[331,-143]],[[54158,27350],[15,8]],[[54173,27358],[29,17]],[[54202,27375],[14,9]],[[54216,27384],[130,33]],[[54346,27417],[0,-8]],[[54346,27409],[72,8]],[[54418,27417],[101,-160]],[[54519,27257],[72,-101]],[[54591,27156],[29,-34]],[[54620,27122],[28,-33]],[[54648,27089],[15,-34]],[[54663,27055],[43,-42]],[[54706,27013],[43,-43]],[[54749,26970],[-43,-42]],[[54706,26928],[0,-17]],[[54706,26911],[-14,-16]],[[54692,26895],[0,-43]],[[54692,26852],[-15,-8]],[[54677,26844],[-2479,-169]],[[52198,26675],[-1961,-59]],[[54533,26625],[15,0]],[[54548,26625],[-15,-34]],[[54533,26591],[-14,0]],[[54519,26591],[-58,-25]],[[54461,26566],[-14,-51]],[[54447,26515],[-15,-17]],[[54432,26498],[0,-8]],[[54432,26490],[15,-17]],[[54447,26473],[-2105,-514],[2191,666]],[[50857,27063],[72,-50]],[[50929,27013],[-72,50]],[[52890,25234],[-303,-152],[87,531],[619,-126],[-403,-253]],[[96179,84461],[-706,-422],[3430,-969],[-547,-624],[-274,582],[-2609,-220],[-145,1214],[-2335,734],[908,2512],[2465,-1526],[2264,-126],[-793,-481],[1657,-640],[-3315,-34]],[[95833,85287],[-706,59],[-303,177],[663,76],[346,-312]],[[94665,85414],[101,75],[361,-185],[-447,-93],[-15,203]],[[95574,85051],[389,-211],[-346,-286],[-1355,522],[1297,-25]],[[95617,85118],[-29,17]],[[95574,85135],[-29,9]],[[95530,85144],[-101,0]],[[95386,85144],[-14,-9]],[[95314,85135],[-58,9]],[[95228,85144],[403,-26]],[[95343,85127],[29,-9]],[[95429,85118],[116,9]],[[95588,85127],[29,-9]],[[95617,85118],[14,0]],[[95631,85118],[-57,-67]],[[95574,85051],[-15,0]],[[95559,85051],[-303,76]],[[95228,85144],[28,0]],[[95256,85144],[58,-9]],[[95314,85135],[58,0]],[[95372,85135],[14,9]],[[95386,85144],[43,0]],[[95429,85144],[101,0]],[[95530,85144],[15,0]],[[95545,85144],[29,-9]],[[95574,85135],[14,0]],[[95588,85135],[0,-8]],[[95588,85127],[-43,0]],[[95545,85127],[-116,-9]],[[95429,85118],[-57,0]],[[95372,85118],[-29,9]],[[95343,85127],[-87,0]],[[95256,85127],[-28,17]]]}