{"type":"Topology","objects":{"data":{"geometries":[{"properties":{"type":"01100","name":"01"},"type":"Polygon","arcs":[[-34,-33,-32,-95,-31,-93,-143,-30,-141,-92,-29,-90,-28,-531,0,-11,-76,-10,-74,-9,-72,-26,-25,-24,-149,-23,-147,-22,-155,-21,-83,-20,-19,18,-18,-67,-163,-17,-475,-474,1,-472,-481,2,-479,3,-477,4,-42,5],[7],[6]],"id":"feature_000"},{"properties":{"type":"01100","name":"01"},"type":"Polygon","arcs":[[6]],"id":"feature_001"},{"properties":{"type":"01100","name":"01"},"type":"Polygon","arcs":[[7]],"id":"feature_002"},{"properties":{"type":"01100","name":"01"},"type":"Polygon","arcs":[[71,8,73,9,75,10,11,-59,12,-486,-495,13,-484,14,15,474,16,162,66,17,-19,18,19,82,20,154,21,146,22,148,23,24,25],[80,-44,68,-45],[42]],"id":"feature_003"},{"properties":{"type":"01100","name":"01"},"type":"Polygon","arcs":[[26,-532,27,89,28,91,140,29,142,92,30,94,31,32,33,34,-56],[60],[36],[61],[59],[35]],"id":"feature_004"},{"properties":{"type":"01100","name":"01"},"type":"Polygon","arcs":[[35]],"id":"feature_005"},{"properties":{"type":"01100","name":"01"},"type":"Polygon","arcs":[[36]],"id":"feature_006"},{"properties":{"type":"01100","name":"01"},"type":"Polygon","arcs":[[-40,37]],"id":"feature_007"},{"properties":{"type":"01100","name":"01"},"type":"Polygon","arcs":[[38,39,40,41]],"id":"feature_008"},{"properties":{"type":"01100","name":"01"},"type":"Polygon","arcs":[[42]],"id":"feature_009"},{"properties":{"type":"01100","name":"01"},"type":"Polygon","arcs":[[-69,43,-81,44]],"id":"feature_010"},{"properties":{"type":"01100","name":"01"},"type":"Polygon","arcs":[[-529,45,-552,46,-550,47,-548,48,-546,49,-544,50,-542,51,-540,-557,-539,52,-537,53,-535,-553,-534,54,55,56]],"id":"feature_011"},{"properties":{"type":"01100","name":"01"},"type":"Polygon","arcs":[[57,58]],"id":"feature_012"},{"properties":{"type":"01100","name":"01"},"type":"Polygon","arcs":[[59]],"id":"feature_013"},{"properties":{"type":"01100","name":"01"},"type":"Polygon","arcs":[[60]],"id":"feature_014"},{"properties":{"type":"01100","name":"01"},"type":"Polygon","arcs":[[61]],"id":"feature_015"},{"properties":{"type":"01100","name":"01"},"type":"Polygon","arcs":[[126,62,117,63,119,64,124,65,161,162,66,67,68,69,157,70,71,72,73,74,75,76],[86],[84],[77],[85]],"id":"feature_016"},{"properties":{"type":"01100","name":"01"},"type":"Polygon","arcs":[[77]],"id":"feature_017"},{"properties":{"type":"01100","name":"01"},"type":"Polygon","arcs":[[123]],"id":"feature_018"},{"properties":{"type":"01100","name":"01"},"type":"Polygon","arcs":[[146,147,148,149,78,151,79,80,81,82,83,153,154,155]],"id":"feature_019"},{"properties":{"type":"01100","name":"01"},"type":"Polygon","arcs":[[84]],"id":"feature_020"},{"properties":{"type":"01100","name":"01"},"type":"Polygon","arcs":[[85]],"id":"feature_021"},{"properties":{"type":"01100","name":"01"},"type":"Polygon","arcs":[[86]],"id":"feature_022"},{"properties":{"type":"01100","name":"01"},"type":"Polygon","arcs":[[134,87,136,137,138,88,89,90,91,140,141,142,92,93,94,95,164,96,128,97,166,98,144,99,132,100,121,101]],"id":"feature_023"},{"properties":{"type":"01100","name":"01"},"type":"Polygon","arcs":[[116,102,110,103,112,104,114,105]],"id":"feature_024"},{"properties":{"type":"01100","name":"01"},"type":"Polygon","arcs":[[130]],"id":"feature_025"},{"properties":{"type":"01100","name":"01"},"type":"Polygon","arcs":[[-160,106]],"id":"feature_026"},{"properties":{"type":"01100","name":"01"},"type":"Polygon","arcs":[[107]],"id":"feature_027"},{"properties":{"type":"01100","name":"01"},"type":"Polygon","arcs":[[108]],"id":"feature_028"},{"properties":{"type":"01100","name":"01"},"type":"Polygon","arcs":[[109,110,111,112,113,114,115,116]],"id":"feature_029"},{"properties":{"type":"01100","name":"01"},"type":"Polygon","arcs":[[117,118,119,120]],"id":"feature_030"},{"properties":{"type":"01100","name":"01"},"type":"Polygon","arcs":[[121,122]],"id":"feature_031"},{"properties":{"type":"01100","name":"01"},"type":"Polygon","arcs":[[123]],"id":"feature_032"},{"properties":{"type":"01100","name":"01"},"type":"Polygon","arcs":[[124,125,126,127]],"id":"feature_033"},{"properties":{"type":"01100","name":"01"},"type":"Polygon","arcs":[[128,129]],"id":"feature_034"},{"properties":{"type":"01100","name":"01"},"type":"Polygon","arcs":[[130]],"id":"feature_035"},{"properties":{"type":"01100","name":"01"},"type":"Polygon","arcs":[[131]],"id":"feature_036"},{"properties":{"type":"01100","name":"01"},"type":"Polygon","arcs":[[132,133]],"id":"feature_037"},{"properties":{"type":"01100","name":"01"},"type":"Polygon","arcs":[[134,135,136,137,138,139,140,141,142,143,144,145]],"id":"feature_038"},{"properties":{"type":"01100","name":"01"},"type":"Polygon","arcs":[[146,147,148,149,150,151,152,153,154,155]],"id":"feature_039"},{"properties":{"type":"01100","name":"01"},"type":"Polygon","arcs":[[156]],"id":"feature_040"},{"properties":{"type":"01100","name":"01"},"type":"Polygon","arcs":[[157,158]],"id":"feature_041"},{"properties":{"type":"01100","name":"01"},"type":"Polygon","arcs":[[159,160,161,162,163]],"id":"feature_042"},{"properties":{"type":"01100","name":"01"},"type":"Polygon","arcs":[[164,165,166,167]],"id":"feature_043"},{"properties":{"type":"01202","name":"01"},"type":"MultiPolygon","arcs":[[[235,236,-238,237,238,168,241,183,169,185,170,187,171,189,172,191,173,193,174,195,175,199,176,201,177]],[[178]]],"id":"feature_044"},{"properties":{"type":"01202","name":"01"},"type":"Polygon","arcs":[[246,179,243,180,234,181,236,-238,237,238,182,240,241,183,184,185,186,187,188,189,190,191,192,193,194,195,196,219,225,197,227,198,199,200,201,202],[220,203,222,204],[205],[206],[-230,229,230,207,232],[244],[208],[209],[210],[211],[212],[213],[214],[215],[216],[217]],"id":"feature_045"},{"properties":{"type":"01202","name":"01"},"type":"Polygon","arcs":[[-225,218,219]],"id":"feature_046"},{"properties":{"type":"01202","name":"01"},"type":"Polygon","arcs":[[220,221,222,223,224,225,226,227,228],[-230,229,230,231,232]],"id":"feature_047"},{"properties":{"type":"01202","name":"01"},"type":"Polygon","arcs":[[233,234,235,236,-238,237,238,239,240,241,242,243],[244]],"id":"feature_048"},{"properties":{"type":"01202","name":"01"},"type":"Polygon","arcs":[[245,246]],"id":"feature_049"},{"properties":{"type":"01204","name":"01"},"type":"Polygon","arcs":[[612,247]],"id":"feature_050"},{"properties":{"type":"01204","name":"01"},"type":"Polygon","arcs":[[355,248,357,249,359,250,345,251,347,252,349,253,351,254,353,255],[256],[257]],"id":"feature_051"},{"properties":{"type":"01204","name":"01"},"type":"Polygon","arcs":[[258]],"id":"feature_052"},{"properties":{"type":"01204","name":"01"},"type":"Polygon","arcs":[[259]],"id":"feature_053"},{"properties":{"type":"01204","name":"01"},"type":"Polygon","arcs":[[260]],"id":"feature_054"},{"properties":{"type":"01204","name":"01"},"type":"Polygon","arcs":[[313,261,315,262,317,263,319,264,321,265,323,266,325,267,327,268,329,269,331,270,333,271,335,272,337,273,339,274,341,275,343,276,293,277,295,278,297,279,299,280,301,281,303,282,305,283,307,284,309,285,311,286]],"id":"feature_055"},{"properties":{"type":"01204","name":"01"},"type":"Polygon","arcs":[[287]],"id":"feature_056"},{"properties":{"type":"01204","name":"01"},"type":"Polygon","arcs":[[288]],"id":"feature_057"},{"properties":{"type":"01204","name":"01"},"type":"Polygon","arcs":[[289]],"id":"feature_058"},{"properties":{"type":"01204","name":"01"},"type":"Polygon","arcs":[[290],[291]],"id":"feature_059"},{"properties":{"type":"01204","name":"01"},"type":"Polygon","arcs":[[292]],"id":"feature_060"},{"properties":{"type":"01204","name":"01"},"type":"Polygon","arcs":[[293,294,295,296,297,298,299,300,301,302,303,304,305,306,307,308,309,310,311,312,313,314,315,316,317,318,319,320,321,322,323,324,325,326,327,328,329,330,331,332,333,334,335,336,337,338,339,340,341,342,343,344]],"id":"feature_061"},{"properties":{"type":"01204","name":"01"},"type":"Polygon","arcs":[[345,346,347,348,349,350,351,352,353,354,355,356,357,358,359,360]],"id":"feature_062"},{"properties":{"type":"01205","name":"01"},"type":"Polygon","arcs":[[361,383,362,377,363,379,364,381],[385]],"id":"feature_063"},{"properties":{"type":"01205","name":"01"},"type":"Polygon","arcs":[[365]],"id":"feature_064"},{"properties":{"type":"01205","name":"01"},"type":"Polygon","arcs":[[366]],"id":"feature_065"},{"properties":{"type":"01205","name":"01"},"type":"Polygon","arcs":[[367]],"id":"feature_066"},{"properties":{"type":"01205","name":"01"},"type":"Polygon","arcs":[[368]],"id":"feature_067"},{"properties":{"type":"01205","name":"01"},"type":"Polygon","arcs":[[393,369,395,370,397,371,399,372,387,373,389,374],[391,375]],"id":"feature_068"},{"properties":{"type":"01205","name":"01"},"type":"Polygon","arcs":[[376]],"id":"feature_069"},{"properties":{"type":"01205","name":"01"},"type":"Polygon","arcs":[[377,378,379,380,381,382,383,384],[385]],"id":"feature_070"},{"properties":{"type":"01205","name":"01"},"type":"Polygon","arcs":[[386,387,388,389,390,391,392,393,394,395,396,397,398,399]],"id":"feature_071"},{"properties":{"type":"01206","name":"01"},"type":"MultiPolygon","arcs":[[[435,400,440,401,442,402],[403],[433,404]],[[428,405,430,406,424,407,426,408,436,409]],[[410,422,411,444,412,420],[413]],[[414]],[[438,415]],[[416]],[[417]],[[418]],[[419]]],"id":"feature_072"},{"properties":{"type":"01206","name":"01"},"type":"Polygon","arcs":[[420,421,422,423]],"id":"feature_073"},{"properties":{"type":"01206","name":"01"},"type":"Polygon","arcs":[[424,425,426,427,428,429,430,431]],"id":"feature_074"},{"properties":{"type":"01206","name":"01"},"type":"Polygon","arcs":[[432,433,434,435]],"id":"feature_075"},{"properties":{"type":"01206","name":"01"},"type":"Polygon","arcs":[[436,437]],"id":"feature_076"},{"properties":{"type":"01206","name":"01"},"type":"Polygon","arcs":[[438,439]],"id":"feature_077"},{"properties":{"type":"01206","name":"01"},"type":"Polygon","arcs":[[440,441,442,443]],"id":"feature_078"},{"properties":{"type":"01206","name":"01"},"type":"Polygon","arcs":[[444,445]],"id":"feature_079"},{"properties":{"type":"01206","name":"01"},"type":"Polygon","arcs":[[446]],"id":"feature_080"},{"properties":{"type":"01215","name":"01"},"type":"Polygon","arcs":[[447]],"id":"feature_081"},{"properties":{"type":"01215","name":"01"},"type":"Polygon","arcs":[[448]],"id":"feature_082"},{"properties":{"type":"01215","name":"01"},"type":"Polygon","arcs":[[449]],"id":"feature_083"},{"properties":{"type":"01220","name":"01"},"type":"Polygon","arcs":[[453,450]],"id":"feature_084"},{"properties":{"type":"01220","name":"01"},"type":"Polygon","arcs":[[461,451,459,452,453,454,456,455]],"id":"feature_085"},{"properties":{"type":"01220","name":"01"},"type":"Polygon","arcs":[[456,457]],"id":"feature_086"},{"properties":{"type":"01220","name":"01"},"type":"Polygon","arcs":[[458,459,460,461]],"id":"feature_087"},{"properties":{"type":"01221","name":"01"},"type":"Polygon","arcs":[[462]],"id":"feature_088"},{"properties":{"type":"01221","name":"01"},"type":"Polygon","arcs":[[463]],"id":"feature_089"},{"properties":{"type":"01221","name":"01"},"type":"Polygon","arcs":[[468,464,466,465]],"id":"feature_090"},{"properties":{"type":"01221","name":"01"},"type":"Polygon","arcs":[[466,467,468,469]],"id":"feature_091"},{"properties":{"type":"01234","name":"01"},"type":"Polygon","arcs":[[470,-482,471,472,473,474,475]],"id":"feature_092"},{"properties":{"type":"01234","name":"01"},"type":"Polygon","arcs":[[488]],"id":"feature_093"},{"properties":{"type":"01234","name":"01"},"type":"Polygon","arcs":[[476,477,478,479,480,481,482,483,484,-496,485,486],[487],[-504,-491,-490,505,-492],[488]],"id":"feature_094"},{"properties":{"type":"01234","name":"01"},"type":"Polygon","arcs":[[-506,489,490,503,491]],"id":"feature_095"},{"properties":{"type":"01234","name":"01"},"type":"Polygon","arcs":[[492]],"id":"feature_096"},{"properties":{"type":"01234","name":"01"},"type":"Polygon","arcs":[[493,494,495]],"id":"feature_097"},{"properties":{"type":"01234","name":"01"},"type":"Polygon","arcs":[[524,496,526,497,510,498,512,499,514,500,516,501,518,502,503,504,505,506,520,507,522,508]],"id":"feature_098"},{"properties":{"type":"01234","name":"01"},"type":"Polygon","arcs":[[509,510,511,512,513,514,515,516,517,518,519,520,521,522,523,524,525,526]],"id":"feature_099"},{"properties":{"type":"01235","name":"01"},"type":"Polygon","arcs":[[527,528,529,530,531,532,533,552,534,535,536,537,538,556,539,540,541,542,543,544,545,546,547,548,549,550,551]],"id":"feature_100"},{"properties":{"type":"01235","name":"01"},"type":"Polygon","arcs":[[552,553,554,555,556,557]],"id":"feature_101"},{"properties":{"type":"01235","name":"01"},"type":"Polygon","arcs":[[558]],"id":"feature_102"},{"properties":{"type":"01235","name":"01"},"type":"Polygon","arcs":[[559]],"id":"feature_103"},{"properties":{"type":"01346","name":"01"},"type":"Polygon","arcs":[[560]],"id":"feature_104"},{"properties":{"type":"01346","name":"01"},"type":"Polygon","arcs":[[572,561,566,562,568,563,570,564]],"id":"feature_105"},{"properties":{"type":"01346","name":"01"},"type":"Polygon","arcs":[[565]],"id":"feature_106"},{"properties":{"type":"01346","name":"01"},"type":"Polygon","arcs":[[566,567,568,569,570,571,572,573]],"id":"feature_107"},{"properties":{"type":"01361","name":"01"},"type":"Polygon","arcs":[[574]],"id":"feature_108"},{"properties":{"type":"01361","name":"01"},"type":"Polygon","arcs":[[587,575,589,576,608,577,610,578,591,579,593,580,595,581,597,582,599,583,601,584,603,585,605,586]],"id":"feature_109"},{"properties":{"type":"01361","name":"01"},"type":"Polygon","arcs":[[587,588,589,590,591,592,593,594,595,596,597,598,599,600,601,602,603,604,605,606]],"id":"feature_110"},{"properties":{"type":"01361","name":"01"},"type":"Polygon","arcs":[[607,608,609,610]],"id":"feature_111"},{"properties":{"type":"01406","name":"01"},"type":"Polygon","arcs":[[611]],"id":"feature_112"},{"properties":{"type":"01452","name":"01"},"type":"Polygon","arcs":[[612,613]],"id":"feature_113"},{"properties":{"type":"01452","name":"01"},"type":"Polygon","arcs":[[619,614,615]],"id":"feature_114"},{"properties":{"type":"01452","name":"01"},"type":"Polygon","arcs":[[617,616]],"id":"feature_115"},{"properties":{"type":"01452","name":"01"},"type":"Polygon","arcs":[[617,618]],"id":"feature_116"},{"properties":{"type":"01452","name":"01"},"type":"Polygon","arcs":[[619,620]],"id":"feature_117"},{"properties":{"type":"01453","name":"01"},"type":"Polygon","arcs":[[621,622]],"id":"feature_118"},{"properties":{"type":"01453","name":"01"},"type":"Polygon","arcs":[[622,623,628,624]],"id":"feature_119"},{"properties":{"type":"01453","name":"01"},"type":"Polygon","arcs":[[625]],"id":"feature_120"},{"properties":{"type":"01453","name":"01"},"type":"Polygon","arcs":[[626]],"id":"feature_121"},{"properties":{"type":"01453","name":"01"},"type":"Polygon","arcs":[[627,628]],"id":"feature_122"},{"properties":{"type":"01637","name":"01"},"type":"Polygon","arcs":[[629]],"id":"feature_123"},{"properties":{"type":"01637","name":"01"},"type":"Polygon","arcs":[[630]],"id":"feature_124"},{"properties":{"type":"01637","name":"01"},"type":"Polygon","arcs":[[634,631,636,632,638,633]],"id":"feature_125"},{"properties":{"type":"01637","name":"01"},"type":"Polygon","arcs":[[634,635,636,637,638,639]],"id":"feature_126"}],"type":"GeometryCollection"}},"bbox":[140.1101,41.7402,144.4553,44.3922],"transform":{"scale":[4.34524345243453e-05,2.6520265202652038e-05],"translate":[140.1101,41.7402]},"arcs":[[[29810,54645],[92,-166],[-212,-532],[729,-22],[106,-332],[302,170],[129,-1478],[-249,-973],[295,-287],[71,249],[320,-155],[-46,-1014]],[[31227,46425],[3,-27]],[[30866,45169],[-9,-30]],[[30638,44811],[-7,-19]],[[30047,43872],[-1041,-49],[-57,-320],[-513,320],[-550,-426],[-122,268],[228,373],[-284,-147],[143,336],[-313,-272],[-78,-562],[-189,302],[161,354],[-110,87],[343,132],[-237,373],[-514,-347],[-379,683],[-343,-385],[-555,298],[-391,-430],[299,713],[-294,1101],[-744,147]],[[24208,46361],[-364,7],[-561,498],[640,-369],[350,37],[-116,230],[17,19],[492,-396],[1217,23],[155,-336],[646,585],[-223,1704],[-239,222],[-263,-233],[-520,113],[-158,630],[315,426],[-769,373],[-488,863],[-324,49],[320,249],[398,909],[347,185]],[[30295,46632],[210,177],[55,-165],[-88,-159],[-177,147]],[[29674,52213],[156,437],[258,-362],[-101,-181],[-313,106]],[[28703,48872],[9,30]],[[28947,49683],[6,19]],[[29382,49992],[1081,822],[-191,-683],[350,-207],[-9,-294],[766,136],[-32,339]],[[31347,50105],[456,-456]],[[32081,48619],[30,-328]],[[31681,48374],[-5,-3]],[[31370,46802],[-5,-4]],[[31365,46798],[-138,-362]],[[31225,46440],[-686,422],[-354,-128],[225,370],[-241,-110],[-97,317],[262,460],[-446,403]],[[29869,48148],[-699,-1135]],[[29168,47013],[2,0]],[[29170,47013],[-396,438]],[[28746,47330],[-4,-49]],[[28733,47190],[-5,-30]],[[28723,47092],[-2,-11]],[[28714,47017],[-276,-668],[205,-957],[-189,-129],[85,-369],[-205,151]],[[28334,45045],[0,-4]],[[28334,45041],[58,1444],[-430,-667],[-332,166],[-147,-381],[-1114,403],[1850,362],[145,359],[-129,399],[392,841],[69,867]],[[28581,53657],[2,0]],[[28597,53710],[163,253],[-55,-389],[304,-320],[472,784],[552,-87],[115,-166],[-288,-577],[-833,27],[65,-679],[-300,-268],[557,-773],[562,-139],[221,426],[501,-498],[-973,-1131],[-442,-189]],[[29119,49939],[-23,-11]],[[28804,49570],[-7,-8]],[[28719,49170],[-7,-79]],[[28627,48838],[-56,-841],[-393,-878],[127,-445],[-198,-298],[11,317],[-637,346],[329,215],[290,-445],[-108,457],[-311,192],[276,430],[387,-279],[-182,222],[235,95],[-51,463],[-242,340],[-230,-128],[0,294],[-258,-38],[42,245],[-175,-245],[11,328],[-356,-158],[-51,222],[237,158],[-193,129],[-72,611],[-545,-970],[46,483],[-274,-211],[-209,196],[384,426],[-87,136]],[[26374,50207],[-3,0]],[[26371,50207],[348,445],[-267,-87],[-557,1271],[-815,313]],[[25080,52149],[-230,418]],[[27580,49321],[57,177],[221,-238],[-129,-75],[-149,136]],[[26284,52383],[28,30],[98,-53],[-52,-64],[-74,87]],[[24125,46025],[-149,-237],[230,-310],[-152,-490],[-193,-105],[-97,648],[-502,-509],[861,1146]],[[24507,46421],[-382,-396]],[[24125,46025],[-2,143]],[[24123,46168],[85,193]],[[24208,46361],[-152,151],[451,-91]],[[30493,47458],[53,-15],[62,-339],[-101,83],[-14,271]],[[28804,47537],[-37,-86]],[[28753,47451],[-205,282],[122,317],[152,-177]],[[26790,52775],[19,-23]],[[27354,52812],[12,16]],[[27368,52824],[2,-4]],[[27529,52933],[7,8]],[[28180,53250],[7,-4]],[[28293,53352],[9,3]],[[28344,53401],[-5,7]],[[28509,53570],[3,8]],[[28528,53601],[7,7]],[[28576,53650],[5,7]],[[28581,53657],[-265,-735],[-557,109],[-375,-931],[127,-272],[-859,849],[-354,143],[-194,-234],[168,264],[-317,377],[-341,-539],[-771,94],[7,-215]],[[24850,52567],[-53,227],[822,750],[338,-313],[219,264]],[[31803,49649],[211,-223],[67,-807]],[[32081,48619],[-288,600],[10,430]],[[27301,49253],[101,109],[49,-94],[-118,-91],[-32,76]],[[25810,52952],[50,68],[37,-181],[-57,71],[-30,42]],[[26733,52303],[46,57],[85,-98],[-42,-64],[-89,105]],[[30907,48665],[122,482],[316,178],[103,-279]],[[31398,48846],[-83,-49]],[[31294,48785],[51,-233],[-373,-178]],[[30831,48503],[-145,-159],[-994,634],[207,-781]],[[29879,48163],[-10,-15]],[[29869,48148],[-538,622],[-329,-403],[-198,-830]],[[28804,47537],[18,336]],[[28822,47873],[85,347]],[[28924,48235],[-30,449],[-198,150]],[[28696,48834],[7,38]],[[28703,48872],[9,30]],[[28712,48902],[235,781]],[[28947,49683],[6,19]],[[28953,49702],[429,290]],[[29382,49992],[1403,-1425]],[[28845,48815],[-2,-41],[-25,-41],[32,135],[-5,-53]],[[28670,47051],[-29,49]],[[28608,47258],[145,193]],[[28753,47451],[14,0]],[[28767,47451],[7,0]],[[28774,47451],[-28,-121]],[[28746,47330],[-4,-45]],[[29361,49328],[-44,-56],[-44,45],[16,23],[72,-12]],[[29138,48563],[0,-42],[-46,12],[2,22],[44,8]],[[29269,49509],[37,-49],[-49,-128],[-80,83],[92,94]],[[29168,50116],[46,8]],[[29214,50094],[4,-110]],[[29218,49984],[-99,-45]],[[29119,49939],[-23,-11]],[[29096,49928],[-163,-125]],[[28719,49287],[0,-117]],[[28719,49170],[-7,-79]],[[28712,49091],[-85,-253]],[[28627,48838],[-375,-192],[-886,1565]],[[27340,50230],[-536,565]],[[26753,50844],[28,249],[308,-45],[385,-381]],[[27527,50708],[193,-34],[122,-490],[230,385],[129,-453],[207,4]],[[28477,50230],[-163,595]],[[28293,50957],[-182,773]],[[28146,51787],[315,-132],[143,-958],[324,68],[-172,1142],[296,34],[152,-1327],[463,-215],[-598,-286]],[[26196,52066],[-6,-27]],[[26141,51983],[5,-109]],[[26130,51855],[-88,60]],[[25966,52006],[-57,312],[232,-196]],[[29655,48442],[-117,370],[154,-336]],[[29713,49291],[-83,-166],[-147,181],[149,68],[81,-83]],[[28963,48914],[96,-170],[-165,-60],[-19,165],[88,65]],[[26196,52066],[-6,-27]],[[26190,52039],[-49,-56]],[[26141,51983],[5,-109]],[[26146,51874],[-16,-19]],[[26130,51855],[-88,60]],[[26042,51915],[-76,91]],[[25966,52006],[175,116]],[[26141,52122],[55,-56]],[[31448,49046],[-50,-200]],[[31398,48846],[-83,-49]],[[31315,48797],[-21,-12]],[[31294,48785],[154,261]],[[28111,51730],[35,57]],[[28146,51787],[170,-268],[-205,211]],[[30721,47413],[-81,-27],[-57,189],[101,-30],[37,-132]],[[30972,48374],[-141,129]],[[30831,48503],[-46,64]],[[30785,48567],[122,98]],[[30907,48665],[65,-291]],[[26804,50795],[-51,49]],[[26753,50844],[178,136],[-127,-185]],[[28914,53035],[10,-155],[-115,30],[36,129],[69,-4]],[[28947,51828],[62,-45],[-79,-151],[-87,128],[104,68]],[[28314,50825],[-21,132]],[[28293,50957],[203,-117],[-182,-15]],[[29069,50113],[99,3]],[[29168,50116],[46,8]],[[29214,50124],[4,-19]],[[29218,50105],[-2,0]],[[29216,50105],[-2,-11]],[[29214,50094],[-281,-291]],[[28933,49803],[-129,-233]],[[28804,49570],[-7,-8]],[[28797,49562],[-78,-275]],[[28719,49287],[-472,256],[161,577]],[[28408,50120],[69,110]],[[28477,50230],[592,-117]],[[28728,47160],[-5,-68]],[[28723,47092],[-2,-11]],[[28721,47081],[-7,-64]],[[28714,47017],[-44,34]],[[28670,47051],[-29,49]],[[28641,47100],[-33,158]],[[28608,47258],[134,27]],[[28742,47285],[0,-4]],[[28742,47281],[-9,-91]],[[28733,47190],[-5,-30]],[[28813,50301],[-34,215],[154,38],[41,-125],[-161,-128]],[[28907,48220],[17,15]],[[28924,48235],[50,-200],[-67,185]],[[29655,48442],[37,34]],[[29692,48476],[207,-279]],[[29899,48197],[-11,-23]],[[29888,48174],[-9,-11]],[[29879,48163],[-224,279]],[[27366,50211],[-26,19]],[[27340,50230],[134,437]],[[27474,50667],[53,41]],[[27527,50708],[135,-132],[-296,-365]],[[15509,1286],[-9,4]],[[14515,1105],[-7,-15]],[[14262,897],[-7,-11]],[[14147,735],[-10,-15]],[[14089,622],[-5,-11]],[[14022,339],[-393,-324],[-205,928]],[[13449,995],[2,19]],[[13596,1286],[72,392],[317,-690],[217,528],[-60,513],[-304,294],[30,369]],[[13866,2707],[2,4]],[[14027,2881],[-557,1014],[808,332],[287,607],[532,324],[460,-305],[62,-803],[806,-95],[-90,-199],[207,15],[145,-453],[695,340],[-101,-151],[170,-166],[-237,-113],[28,-438],[290,-418],[462,354],[592,-550],[-891,-449],[937,-807],[-488,-626],[-2451,950]],[[13932,1139],[-18,-45],[-64,60],[59,71],[23,-86]],[[15076,2726],[571,-1029]],[[15810,1531],[3,-83]],[[15693,1244],[-18,8]],[[15509,1286],[-5,4]],[[15461,1293],[-946,-188]],[[14515,1105],[-7,-15]],[[14508,1090],[-246,-193]],[[14262,897],[-7,-11]],[[14255,886],[-108,-151]],[[14147,735],[-10,-15]],[[14137,720],[-48,-98]],[[14089,622],[-5,-11]],[[14084,611],[-62,-272]],[[14022,339],[-239,91],[-16,494],[-343,19]],[[13424,943],[25,52]],[[13449,995],[2,19]],[[13451,1014],[145,272]],[[13596,1286],[288,-272]],[[14241,1418],[2,64]],[[14248,1542],[163,736],[-543,414]],[[13868,2692],[-2,15]],[[13866,2707],[2,4]],[[13868,2711],[159,170]],[[14027,2881],[230,-91],[-221,423],[594,-245]],[[14795,2104],[30,-19]],[[14825,2070],[150,45],[-163,42]],[[15058,2085],[0,-102],[4,0],[-6,174],[2,-72]],[[14991,1961],[48,0],[0,7],[-48,-3],[0,-4]],[[14683,1738],[-23,8]],[[13866,973],[-7,4],[23,-23],[-7,11],[-9,8]],[[13714,962],[-2,3],[-19,-3],[2,-8],[19,8]],[[13663,1011],[-4,0],[18,-4],[-14,4]],[[13518,1071],[37,30],[-2,8],[-67,-53],[32,15]],[[13553,1109],[23,7],[23,42],[-16,-4],[-30,-45]],[[13682,943],[4,0],[7,3],[-7,0],[-4,-3]],[[13792,946],[0,-3],[5,-4],[2,4],[-7,3]],[[13767,946],[-3,-3],[10,-12],[2,8],[-9,7]],[[13926,630],[-37,-57],[66,-19],[10,98],[-39,-22]],[[13861,622],[-2,4],[-5,-8],[-2,-11],[9,15]],[[14153,860],[-133,-132],[-136,286]],[[13884,1014],[184,34]],[[14812,2157],[-17,-53]],[[14795,2104],[30,-19]],[[14825,2085],[0,-15]],[[14825,2070],[157,-268],[-829,-942]],[[14153,860],[-85,188]],[[14068,1048],[173,370]],[[14241,1418],[2,64]],[[14243,1482],[5,60]],[[14248,1542],[186,-98],[263,834],[115,-121]],[[14683,1674],[2,0]],[[14685,1674],[-2,64]],[[14683,1738],[-23,8]],[[14660,1746],[25,-72]],[[15810,1531],[3,-83]],[[15813,1448],[-120,-204]],[[15693,1244],[-18,8]],[[15675,1252],[-42,11]],[[15633,1267],[0,-4]],[[15633,1263],[-124,23]],[[15509,1286],[-5,4]],[[15504,1290],[-4,0]],[[15500,1290],[-39,3]],[[15461,1293],[-42,302],[228,102]],[[15647,1697],[163,-166]],[[15661,1644],[2,-11],[5,45],[-7,-8],[0,-26]],[[15076,2726],[-322,-166],[-124,408]],[[14630,2968],[283,98],[163,-340]],[[51302,79535],[1052,800],[531,-140],[279,366],[759,-562],[113,-886],[1073,-1482],[-155,91],[-513,-939],[306,-83],[562,-811],[-849,-388],[-171,-2783],[-421,-535],[-1312,380],[-345,498],[-382,1459],[-345,-109],[23,370],[-272,328],[-324,-53],[-99,-411],[-1197,437],[-953,-878],[-1077,260],[-96,520],[591,113],[-53,868],[704,822],[-122,437],[424,403],[-111,476],[1248,169],[106,690],[-138,374],[375,124],[545,-290],[244,350]],[[51376,76176],[-7,15]],[[51367,76198],[-5,12]],[[51362,76213],[115,114]],[[51594,76274],[21,-12]],[[51631,76251],[32,-23]],[[51696,76195],[9,-12]],[[51709,76176],[10,-15]],[[51721,76161],[60,-389],[287,-200],[72,-256],[-297,407],[74,-509],[-217,143],[-320,811]],[[51785,75708],[5,-4],[5,4],[-7,4],[-3,-4]],[[51778,75667],[10,-4],[11,26],[-9,8],[-12,-30]],[[51861,77643],[-177,-212],[329,-316],[-274,-234],[-497,105],[-419,498],[442,-343],[154,181],[-232,287],[299,-208],[228,453],[368,3],[-193,268],[370,-339],[463,388],[-527,-795],[-334,264]],[[51868,78476],[-287,-449],[-72,125],[196,411],[163,-87]],[[52414,77145],[-166,-532],[-375,215],[713,535],[-172,-218]],[[51942,75995],[-7,11]],[[51933,76010],[-14,26]],[[51917,76036],[-12,12]],[[51900,76059],[-2,7]],[[51891,76070],[-34,19]],[[51845,76097],[-18,15]],[[51818,76115],[-10,15]],[[51801,76138],[-6,8]],[[51790,76153],[-14,23]],[[51774,76179],[-12,16]],[[51762,76198],[-41,57]],[[51719,76255],[-16,11]],[[51696,76270],[-28,26]],[[51661,76300],[-16,11]],[[51643,76311],[-5,4]],[[51636,76315],[-433,340],[481,135]],[[51709,76794],[26,8]],[[51829,76813],[78,-34]],[[51919,76775],[11,-7]],[[51935,76768],[16,-8]],[[51956,76760],[4,-4]],[[51974,76753],[30,-15]],[[52039,76722],[4,-3]],[[52045,76719],[3,-4]],[[52064,76704],[4,-4]],[[52071,76696],[1671,49],[-47,-298],[-978,72],[260,-294],[-234,-883],[-516,362],[-53,336],[-230,-49]],[[51383,75719],[135,-105],[-115,-57],[-184,517],[-179,-91],[145,170],[-97,275],[-495,460],[60,125],[458,-396],[272,-898]],[[52904,78947],[30,-128],[198,-140],[-325,155],[97,113]],[[53760,78223],[-140,-305],[-620,-637],[-82,-359],[-228,200],[831,713],[-3,203],[-285,-98],[329,340],[198,-57]],[[52287,75399],[214,-211],[-255,41],[244,-256],[-148,-290],[-271,471],[216,245]],[[52324,75350],[-23,11],[11,-22],[12,11]],[[52471,73457],[32,-98],[81,-226],[-166,34],[53,290]],[[51684,76790],[25,4]],[[51709,76794],[26,8]],[[51735,76802],[94,11]],[[51829,76813],[78,-34]],[[51907,76779],[12,-4]],[[51919,76775],[11,-7]],[[51930,76768],[5,0]],[[51935,76768],[16,-8]],[[51951,76760],[5,0]],[[51956,76760],[4,-4]],[[51960,76756],[14,-3]],[[51974,76753],[30,-15]],[[52004,76738],[35,-16]],[[52039,76722],[4,-3]],[[52043,76719],[2,0]],[[52045,76719],[3,-4]],[[52048,76715],[16,-11]],[[52064,76704],[4,-4]],[[52068,76700],[3,-4]],[[52071,76696],[161,-249],[-288,-456]],[[51944,75991],[-2,4]],[[51942,75995],[-7,11]],[[51935,76006],[-2,4]],[[51933,76010],[-14,26]],[[51919,76036],[-2,0]],[[51917,76036],[-12,12]],[[51905,76048],[-5,11]],[[51900,76059],[-2,7]],[[51898,76066],[-7,4]],[[51891,76070],[-34,19]],[[51857,76089],[-12,8]],[[51845,76097],[-18,15]],[[51827,76112],[-9,3]],[[51818,76115],[-10,15]],[[51808,76130],[-7,8]],[[51801,76138],[-6,8]],[[51795,76146],[-5,7]],[[51790,76153],[-14,23]],[[51776,76176],[-2,3]],[[51774,76179],[-12,16]],[[51762,76195],[0,3]],[[51762,76198],[-41,57]],[[51721,76255],[-2,0]],[[51719,76255],[-16,11]],[[51703,76266],[-7,4]],[[51696,76270],[-28,26]],[[51668,76296],[-7,4]],[[51661,76300],[-16,11]],[[51645,76311],[-2,0]],[[51643,76311],[-5,4]],[[51638,76315],[-2,0]],[[51636,76315],[48,475]],[[51477,76327],[117,-53]],[[51594,76274],[21,-12]],[[51615,76262],[16,-11]],[[51631,76251],[32,-23]],[[51663,76228],[33,-33]],[[51696,76195],[9,-12]],[[51705,76183],[4,-7]],[[51709,76176],[10,-15]],[[51719,76161],[2,0]],[[51721,76161],[-341,7]],[[51380,76168],[-4,8]],[[51376,76176],[-7,15]],[[51369,76191],[-2,7]],[[51367,76198],[-5,12]],[[51362,76210],[0,3]],[[51362,76213],[115,114]],[[19766,22032],[5,-37]],[[19778,22002],[272,-253]],[[20137,21746],[324,90],[-177,-87],[85,-267],[-172,207]],[[19863,21534],[-110,200]],[[19615,22387],[-224,-166],[76,294],[-260,139],[120,38],[288,-305]],[[19083,23944],[-154,-23],[142,362],[201,-132],[-189,-207]],[[20726,23955],[90,193],[87,-253],[-322,-675],[-85,196],[230,539]],[[20323,23544],[72,79],[14,-22],[-210,-272],[-219,42],[97,283],[246,-110]],[[21274,22911],[-23,-170]],[[21166,22651],[-26,-23]],[[21124,22617],[-165,-170],[-26,234]],[[20919,22888],[-214,98]],[[20685,23179],[165,139]],[[20906,23265],[324,1162],[124,-566],[-168,-19],[171,4],[108,-490]],[[21175,23292],[25,354],[-83,-411]],[[20611,22345],[212,200],[62,-230],[-65,68],[-209,-38]],[[20050,21749],[87,-3]],[[20137,21746],[60,-57]],[[20197,21689],[-334,-155]],[[19863,21534],[-110,200]],[[19753,21734],[13,298]],[[19766,22032],[5,-37]],[[19771,21995],[7,7]],[[19778,22002],[168,155],[104,-408]],[[19760,21991],[-12,37],[0,-26],[30,-64],[-18,53]],[[20919,22888],[-214,98]],[[20705,22986],[-20,193]],[[20685,23179],[165,139]],[[20850,23318],[56,-53]],[[20906,23265],[211,-30]],[[21117,23235],[58,57]],[[21175,23292],[290,64]],[[21465,23356],[115,-200],[-306,-245]],[[21274,22911],[-23,-170]],[[21251,22741],[-85,-90]],[[21166,22651],[-26,-23]],[[21140,22628],[-16,-11]],[[21124,22617],[-191,64]],[[20933,22681],[-14,207]],[[98986,46696],[-441,-237],[227,-117]],[[98816,46338],[320,53]],[[99141,46391],[858,-385],[-854,-56],[-1091,479],[1137,984],[359,-487],[-39,-343],[-219,-7]],[[99410,46941],[-37,98],[-127,53],[5,-203],[159,52]],[[99049,46678],[-42,22]],[[98393,46817],[2,-8]],[[98383,46809],[-145,72]],[[98206,46874],[-106,294]],[[98142,47258],[-214,226],[41,264]],[[97985,47794],[359,746],[295,-207],[159,275],[333,-283],[-455,-479],[9,-603],[-159,-173]],[[97905,47790],[-106,87]],[[97767,47918],[-962,72]],[[96798,48039],[-341,-19],[532,520],[805,-475]],[[96777,48212],[0,0]],[[98105,48420],[-161,-521],[-603,438],[389,516],[375,-433]],[[95912,47846],[-233,-22]],[[95748,48114],[-193,-207],[-99,234],[62,75],[230,-102]],[[97721,47552],[-152,23],[-83,113],[189,-11],[46,-125]],[[96473,47877],[-188,-19],[0,154],[174,-52],[14,-83]],[[99339,46463],[-49,-57],[-27,45],[50,42],[26,-30]],[[97794,48065],[111,-275]],[[97905,47790],[-106,87]],[[97799,47877],[-32,41]],[[97767,47918],[-484,207],[511,-60]],[[98238,46881],[-32,-7]],[[98206,46874],[-106,294]],[[98100,47168],[42,90]],[[98142,47258],[267,117],[117,-305]],[[98526,47070],[-133,-253]],[[98393,46817],[2,-8]],[[98395,46809],[-12,0]],[[98383,46809],[-145,72]],[[98986,46696],[21,4]],[[99007,46700],[42,-22]],[[99049,46678],[243,-102]],[[99292,46576],[-306,120]],[[97969,47748],[16,46]],[[97985,47794],[288,-38],[301,418],[-225,-652],[-380,226]],[[95679,47824],[148,219],[85,-197]],[[95912,47846],[-233,-22]],[[98772,46342],[44,-4]],[[98816,46338],[320,53]],[[99136,46391],[5,0]],[[99141,46391],[280,-170],[-649,121]],[[96805,47990],[-7,49]],[[96798,48039],[218,7],[-211,-56]],[[97803,48601],[97,-87],[-198,-294],[-34,162],[135,219]],[[40757,62443],[702,-136],[39,-1135],[-163,-562],[152,-188],[-145,-223],[1376,-520],[16,-309],[-391,-249],[-281,-728],[-690,132],[-1070,-1241],[-564,-33],[-362,-381],[-697,1074],[373,328],[166,-165],[315,475],[-327,305],[479,1478],[-3,1207],[217,912],[858,-41]],[[40688,60312],[152,-169],[-62,-343],[-693,-163],[3,826],[600,-151]],[[40145,60271],[221,-53],[-12,-343],[-264,83],[55,313]],[[52902,91685],[-90,-920],[-191,-204],[-104,566],[-573,120],[-115,1384],[276,339],[638,0],[2,-535],[373,-196],[-196,-536]],[[52892,91975],[14,-19]],[[52906,91945],[16,-242]],[[52922,91703],[-20,-18]],[[52902,91685],[-277,-396]],[[52598,91281],[-309,411],[23,287],[231,358],[223,-305]],[[52625,91289],[-27,-8]],[[52598,91281],[-127,739],[253,-53],[-161,-248],[62,-430]],[[52892,91975],[14,-19]],[[52906,91956],[0,-11]],[[52906,91945],[-140,87]],[[52766,92032],[126,-57]],[[51627,95516],[386,486],[-126,324],[227,547],[937,920],[2,1312],[316,110],[-28,339],[493,42],[331,403],[173,-592],[0,279],[547,147],[-92,-464],[-396,-151],[90,-727],[334,-294],[-281,-370],[21,-501],[-382,0],[-171,-385],[-149,-1320],[-2232,-105]],[[53164,96225],[-108,-132],[-108,64],[322,218],[-106,-150]],[[54206,98272],[-163,-192],[-189,192]],[[53997,98694],[320,178],[-111,-283]],[[53854,98272],[143,422]],[[53997,98694],[209,-105]],[[54206,98589],[0,-317]],[[54206,98272],[-352,0]],[[31365,46798],[3,0]],[[31227,46387],[3,11]],[[31230,46398],[-3,27]],[[31227,46425],[0,11]],[[31227,46436],[-2,4]],[[31225,46440],[140,358]],[[30047,43872],[584,920]],[[30631,44792],[7,19]],[[30638,44811],[219,328]],[[30857,45139],[9,30]],[[30866,45169],[196,196],[165,1022]],[[31227,46387],[244,-581],[357,197],[-127,1006],[-333,-211]],[[31368,46798],[2,4]],[[31370,46802],[368,1214],[-62,355]],[[31676,48371],[2,3]],[[31846,48374],[265,-83]],[[32111,48291],[437,-181],[985,332],[304,-294],[-7,-437],[403,-928],[-364,-1240],[-534,-732],[-702,-456],[-679,15],[-487,-694],[-601,91],[-700,-355],[-168,147],[49,313]],[[31575,45678],[184,-230],[189,155],[138,-396],[152,60],[-122,555],[-541,-144]],[[33163,46840],[37,-76],[96,166],[-129,-60],[-4,-30]],[[32815,46357],[479,460]],[[33294,46817],[78,222],[-366,264],[440,611],[-21,-463],[334,-302],[-152,-781],[-368,-407]],[[33200,45954],[-346,56],[-39,343]],[[31575,45671],[541,151],[122,-555],[-152,-60],[-138,396],[-373,68]],[[31678,48374],[3,0]],[[31681,48374],[165,0]],[[31846,48374],[403,-350],[-292,-155],[-279,505]],[[33457,47107],[3,-15]],[[33462,47077],[2,-11]],[[33469,47024],[2,-7]],[[33471,47009],[2,-15]],[[33476,46975],[2,-11]],[[33478,46896],[32,-132]],[[33545,46640],[-306,-679]],[[33239,45961],[-39,-7]],[[33200,45954],[-226,-76],[-159,479]],[[32815,46357],[0,-4]],[[32815,46353],[481,460]],[[33294,46817],[-2,30]],[[33285,46881],[-33,373],[148,136],[57,-279]],[[33462,47077],[2,-11]],[[33464,47066],[5,-42]],[[33469,47024],[2,-7]],[[33471,47017],[0,-8]],[[33471,47009],[2,-15]],[[33473,46994],[3,-19]],[[33476,46975],[2,-11]],[[33478,46964],[0,-68]],[[33478,46896],[32,-132]],[[33510,46764],[35,-124]],[[33545,46640],[-136,-125],[-113,298]],[[33296,46813],[-2,4]],[[33294,46817],[-2,30]],[[33292,46847],[-7,34]],[[33285,46881],[172,230]],[[33457,47111],[0,-4]],[[33457,47107],[3,-15]],[[33460,47092],[2,-15]],[[26809,52752],[-19,23]],[[26790,52775],[-614,720]],[[26176,53495],[1031,886],[-67,980],[350,53],[-134,181],[249,8],[-111,218],[431,189],[1081,1727],[307,-739],[-111,-275],[948,-408],[53,-1285],[-366,-42],[-27,-343]],[[29810,54645],[-470,-641],[-637,117],[-106,-411]],[[28597,53710],[-14,-53]],[[28583,53657],[-7,-7]],[[28576,53650],[-32,-27]],[[28542,53619],[-7,-11]],[[28535,53608],[-7,-7]],[[28528,53601],[-16,-23]],[[28512,53578],[-3,-8]],[[28509,53570],[-177,-143]],[[28332,53420],[7,-12]],[[28339,53408],[5,-7]],[[28344,53401],[-42,-46]],[[28302,53355],[-9,-3]],[[28293,53352],[-106,-106]],[[28187,53246],[-7,4]],[[28180,53250],[-644,-309]],[[27536,52941],[-7,-8]],[[27529,52933],[-159,-113]],[[27370,52820],[-2,4]],[[27368,52824],[-2,4]],[[27366,52828],[-12,-16]],[[27354,52812],[-366,-271],[-179,211]],[[28544,53623],[-2,-4]],[[28542,53619],[-7,-11]],[[28535,53608],[-23,-30]],[[28512,53578],[-180,-151]],[[28332,53427],[0,-7]],[[28332,53420],[-182,79],[161,203],[-36,80],[-449,-280],[-263,291],[217,494],[149,-389],[325,19],[290,-294]],[[27439,52960],[92,82],[-145,-18],[-112,-287],[-325,-143],[-235,426],[836,754],[315,-400],[-527,-535],[101,121]],[[27759,54053],[88,-4],[23,-56],[-106,-98],[-5,158]],[[4110,19306],[187,-347],[966,-592],[-14,-128],[-379,185],[-730,-196],[-361,569],[-663,19],[0,780],[-780,245],[1250,197],[211,520],[313,-1252]],[[3862,19257],[-311,-64]],[[3546,19174],[-39,15]],[[3507,19197],[-62,34]],[[3445,19234],[-163,181],[511,238],[221,-351],[-125,-45]],[[3378,19479],[56,16],[11,-65],[-57,-34],[-10,83]],[[3551,19193],[-5,-19]],[[3546,19174],[-39,15]],[[3507,19189],[0,8]],[[3507,19197],[-62,34]],[[3445,19231],[0,3]],[[3445,19234],[444,23]],[[3889,19257],[-27,0]],[[3862,19257],[-311,-64]],[[665,7157],[366,-475],[-265,-962],[362,-611],[-46,-856],[-357,-124],[-88,-524],[-225,15],[-71,882],[-341,147],[87,272],[399,53],[179,2183]],[[474,4909],[-28,-45]],[[437,4849],[127,-26],[-150,-132]],[[449,4630],[4,-15]],[[458,4612],[90,-306],[-177,-483],[-134,902]],[[214,4751],[28,-11]],[[255,4766],[26,11]],[[283,4766],[18,11]],[[331,4815],[35,19]],[[361,4853],[53,26]],[[410,4898],[23,11]],[[451,4913],[21,27]],[[492,5011],[251,-94],[-253,8]],[[490,4925],[-16,-16]],[[474,4909],[-28,-45]],[[446,4864],[-9,-15]],[[437,4849],[-200,-124]],[[237,4725],[-23,26]],[[214,4751],[28,-11]],[[242,4740],[13,26]],[[255,4766],[26,11]],[[281,4777],[2,-11]],[[283,4766],[18,11]],[[301,4777],[30,38]],[[331,4815],[35,19]],[[366,4834],[-5,19]],[[361,4853],[53,26]],[[414,4879],[-4,19]],[[410,4898],[23,11]],[[433,4909],[18,4]],[[451,4913],[21,27]],[[472,4940],[20,71]],[[492,5011],[-2,-86]],[[458,4612],[-168,41],[124,38]],[[414,4691],[35,-61]],[[449,4630],[4,-15]],[[453,4615],[5,-3]],[[12478,57356],[437,-143],[-221,-355],[-241,204],[-642,-166],[135,1708],[97,-347],[129,-117],[145,91],[2,0],[12,-4],[-217,-437],[364,-434]],[[51302,79520],[0,15]],[[51302,79535],[709,393],[508,-626],[-865,-566],[-826,-1188],[-239,-45],[55,-275],[-350,-61],[-177,1516],[154,505],[-156,163],[939,-185],[248,354]],[[51272,78472],[-64,-60],[-104,128],[157,-11]],[[51261,78529],[-35,37],[21,23],[14,-60]],[[51622,79305],[94,200],[102,-75],[-180,-143]],[[51638,79287],[-16,18]],[[51622,79305],[97,245],[170,-199],[-378,-178],[127,114]],[[51261,78529],[11,-57]],[[51272,78472],[-216,75],[117,219],[88,-237]],[[52745,75048],[1680,-1176],[-2,-988],[-336,-419],[-1156,1041],[-430,1244],[200,234]],[[52701,74984],[44,64]],[[52745,75048],[433,-362],[-164,-294],[-207,411]],[[52796,74822],[-95,162]],[[53985,73876],[132,83],[-233,-393],[-205,355],[306,-45]],[[53951,73710],[-25,-57],[-83,113],[96,76],[12,-132]],[[52796,74822],[149,-79],[-138,60]],[[52807,74803],[-11,19]],[[69032,44592],[80,-1037],[790,-94],[-734,-1535],[-1020,928],[-23,581],[-1489,-174],[-154,1772],[-368,434],[3601,422],[180,-230],[-389,65],[-364,-362],[-110,-770]],[[68127,44129],[-11,196],[145,60],[23,-260],[-157,4]],[[67596,44419],[34,4]],[[67630,44434],[28,87]],[[67660,44521],[368,22],[-492,-886],[67,449],[-260,-4],[-33,377],[258,-64]],[[67568,44415],[28,4]],[[67596,44419],[34,4]],[[67630,44423],[0,11]],[[67630,44434],[28,87]],[[67658,44521],[2,0]],[[67660,44521],[175,22],[-39,-411],[-209,-22],[-19,305]]]}