{"type":"Topology","objects":{"data":{"geometries":[{"properties":{"name":"\u5e73\u539f","line":"\u3057\u306a\u306e\u9244\u9053\u7dda","riders":194},"type":"Point","coordinates":[87224,54275],"id":"feature_000"},{"properties":{"name":"\u5c4b\u4ee3\u9ad8\u6821\u524d","line":"\u3057\u306a\u306e\u9244\u9053\u7dda","riders":2036},"type":"Point","coordinates":[57747,70341],"id":"feature_001"},{"properties":{"name":"\u4e2d\u8efd\u4e95\u6ca2","line":"\u3057\u306a\u306e\u9244\u9053\u7dda","riders":1640},"type":"Point","coordinates":[99999,56888],"id":"feature_002"},{"properties":{"name":"\u5fa1\u4ee3\u7530","line":"\u3057\u306a\u306e\u9244\u9053\u7dda","riders":1619},"type":"Point","coordinates":[92030,54970],"id":"feature_003"},{"properties":{"name":"\u4fe1\u6fc3\u8ffd\u5206","line":"\u3057\u306a\u306e\u9244\u9053\u7dda","riders":546},"type":"Point","coordinates":[96815,56075],"id":"feature_004"},{"properties":{"name":"\u7530\u4e2d","line":"\u3057\u306a\u306e\u9244\u9053\u7dda","riders":2500},"type":"Point","coordinates":[75788,57348],"id":"feature_005"},{"properties":{"name":"\u4e0a\u7530","line":"\u3057\u306a\u306e\u9244\u9053\u7dda","riders":11524},"type":"Point","coordinates":[68548,60123],"id":"feature_006"},{"properties":{"name":"\u897f\u4e0a\u7530","line":"\u3057\u306a\u306e\u9244\u9053\u7dda","riders":1984},"type":"Point","coordinates":[64769,61541],"id":"feature_007"},{"properties":{"name":"\u6238\u5009","line":"\u3057\u306a\u306e\u9244\u9053\u7dda","riders":2700},"type":"Point","coordinates":[59635,66643],"id":"feature_008"},{"properties":{"name":"\u5742\u57ce","line":"\u3057\u306a\u306e\u9244\u9053\u7dda","riders":2000},"type":"Point","coordinates":[62237,64569],"id":"feature_009"},{"properties":{"name":"\u4fe1\u6fc3\u56fd\u5206\u5bfa","line":"\u3057\u306a\u306e\u9244\u9053\u7dda","riders":1269},"type":"Point","coordinates":[70710,58953],"id":"feature_010"},{"properties":{"name":"\u5927\u5c4b","line":"\u3057\u306a\u306e\u9244\u9053\u7dda","riders":2388},"type":"Point","coordinates":[72846,58367],"id":"feature_011"},{"properties":{"name":"\u6ecb\u91ce","line":"\u3057\u306a\u306e\u9244\u9053\u7dda","riders":800},"type":"Point","coordinates":[78970,56536],"id":"feature_012"},{"properties":{"name":"\u5c4b\u4ee3","line":"\u3057\u306a\u306e\u9244\u9053\u7dda","riders":4677},"type":"Point","coordinates":[57354,69298],"id":"feature_013"},{"properties":{"name":"\u30c6\u30af\u30ce\u3055\u304b\u304d","line":"\u3057\u306a\u306e\u9244\u9053\u7dda","riders":1000},"type":"Point","coordinates":[62856,63132],"id":"feature_014"},{"properties":{"name":"\u5c0f\u8af8","line":"\u3057\u306a\u306e\u9244\u9053\u7dda","riders":8130},"type":"Point","coordinates":[84380,55416],"id":"feature_015"},{"properties":{"name":"\u7be0\u30ce\u4e95","line":"\u3057\u306a\u306e\u9244\u9053\u7dda","riders":20376},"type":"Point","coordinates":[58259,72288],"id":"feature_016"},{"properties":{"name":"\u732b\u53c8","line":"\u672c\u7dda","riders":0},"type":"Point","coordinates":[12741,83875],"id":"feature_017"},{"properties":{"name":"\u7b39\u5e73","line":"\u672c\u7dda","riders":0},"type":"Point","coordinates":[11106,86135],"id":"feature_018"},{"properties":{"name":"\u6b05\u5e73","line":"\u672c\u7dda","riders":3000},"type":"Point","coordinates":[14245,80332],"id":"feature_019"},{"properties":{"name":"\u68ee\u77f3","line":"\u672c\u7dda","riders":0},"type":"Point","coordinates":[10126,86722],"id":"feature_020"},{"properties":{"name":"\u9ed2\u8599","line":"\u672c\u7dda","riders":120},"type":"Point","coordinates":[11191,86363],"id":"feature_021"},{"properties":{"name":"\u5b87\u5948\u6708","line":"\u672c\u7dda","riders":4600},"type":"Point","coordinates":[7595,88279],"id":"feature_022"},{"properties":{"name":"\u5c0f\u5c4b\u5e73","line":"\u672c\u7dda","riders":0},"type":"Point","coordinates":[13232,81292],"id":"feature_023"},{"properties":{"name":"\u9418\u91e3","line":"\u672c\u7dda","riders":1334},"type":"Point","coordinates":[13621,82858],"id":"feature_024"},{"properties":{"name":"\u67f3\u6a4b","line":"\u672c\u7dda","riders":0},"type":"Point","coordinates":[8180,87486],"id":"feature_025"},{"properties":{"name":"\u51fa\u5e73","line":"\u672c\u7dda","riders":0},"type":"Point","coordinates":[12003,85063],"id":"feature_026"},{"properties":{"name":"\u4e09\u6e9d","line":"\u4e0a\u9ad8\u5730\u7dda","riders":393},"type":"Point","coordinates":[35629,47831],"id":"feature_027"},{"properties":{"name":"\u4fe1\u6fc3\u8352\u4e95","line":"\u4e0a\u9ad8\u5730\u7dda","riders":94},"type":"Point","coordinates":[40967,48933],"id":"feature_028"},{"properties":{"name":"\u897f\u677e\u672c","line":"\u4e0a\u9ad8\u5730\u7dda","riders":108},"type":"Point","coordinates":[42219,48794],"id":"feature_029"},{"properties":{"name":"\u6e1a","line":"\u4e0a\u9ad8\u5730\u7dda","riders":155},"type":"Point","coordinates":[41570,48803],"id":"feature_030"},{"properties":{"name":"\u5927\u5ead","line":"\u4e0a\u9ad8\u5730\u7dda","riders":387},"type":"Point","coordinates":[40210,48792],"id":"feature_031"},{"properties":{"name":"\u677e\u672c","line":"\u4e0a\u9ad8\u5730\u7dda","riders":37177},"type":"Point","coordinates":[42275,49066],"id":"feature_032"},{"properties":{"name":"\u4e0b\u65b0","line":"\u4e0a\u9ad8\u5730\u7dda","riders":183},"type":"Point","coordinates":[38500,48670],"id":"feature_033"},{"properties":{"name":"\u5317\u65b0\u30fb\u677e\u672c\u5927\u5b66\u524d","line":"\u4e0a\u9ad8\u5730\u7dda","riders":1394},"type":"Point","coordinates":[37667,48300],"id":"feature_034"},{"properties":{"name":"\u65b0\u6751","line":"\u4e0a\u9ad8\u5730\u7dda","riders":287},"type":"Point","coordinates":[36915,48087],"id":"feature_035"},{"properties":{"name":"\u6e15\u6771","line":"\u4e0a\u9ad8\u5730\u7dda","riders":71},"type":"Point","coordinates":[30918,46659],"id":"feature_036"},{"properties":{"name":"\u6ce2\u7530","line":"\u4e0a\u9ad8\u5730\u7dda","riders":1142},"type":"Point","coordinates":[32432,47009],"id":"feature_037"},{"properties":{"name":"\u65b0\u5cf6\u3005","line":"\u4e0a\u9ad8\u5730\u7dda","riders":646},"type":"Point","coordinates":[29250,46297],"id":"feature_038"},{"properties":{"name":"\u4e0b\u5cf6","line":"\u4e0a\u9ad8\u5730\u7dda","riders":436},"type":"Point","coordinates":[33848,47394],"id":"feature_039"},{"properties":{"name":"\u68ee\u53e3","line":"\u4e0a\u9ad8\u5730\u7dda","riders":578},"type":"Point","coordinates":[34714,47520],"id":"feature_040"},{"properties":{"name":"\u4e2d\u91ce","line":"\u5225\u6240\u7dda","riders":112},"type":"Point","coordinates":[63327,57757],"id":"feature_041"},{"properties":{"name":"\u516b\u6728\u6ca2","line":"\u5225\u6240\u7dda","riders":90},"type":"Point","coordinates":[61715,57614],"id":"feature_042"},{"properties":{"name":"\u795e\u7551","line":"\u5225\u6240\u7dda","riders":140},"type":"Point","coordinates":[65493,58921],"id":"feature_043"},{"properties":{"name":"\u4e0b\u4e4b\u90f7","line":"\u5225\u6240\u7dda","riders":344},"type":"Point","coordinates":[65516,57940],"id":"feature_044"},{"properties":{"name":"\u4e2d\u5869\u7530","line":"\u5225\u6240\u7dda","riders":85},"type":"Point","coordinates":[64367,57940],"id":"feature_045"},{"properties":{"name":"\u5869\u7530\u753a","line":"\u5225\u6240\u7dda","riders":362},"type":"Point","coordinates":[63794,57784],"id":"feature_046"},{"properties":{"name":"\u57ce\u4e0b","line":"\u5225\u6240\u7dda","riders":123},"type":"Point","coordinates":[67849,59903],"id":"feature_047"},{"properties":{"name":"\u821e\u7530","line":"\u5225\u6240\u7dda","riders":84},"type":"Point","coordinates":[62359,57699],"id":"feature_048"},{"properties":{"name":"\u5bfa\u4e0b","line":"\u5225\u6240\u7dda","riders":183},"type":"Point","coordinates":[65435,59327],"id":"feature_049"},{"properties":{"name":"\u5927\u5b66\u524d","line":"\u5225\u6240\u7dda","riders":799},"type":"Point","coordinates":[65326,58482],"id":"feature_050"},{"properties":{"name":"\u4e0a\u7530\u539f","line":"\u5225\u6240\u7dda","riders":917},"type":"Point","coordinates":[65929,59763],"id":"feature_051"},{"properties":{"name":"\u8d64\u5742\u4e0a","line":"\u5225\u6240\u7dda","riders":253},"type":"Point","coordinates":[66430,59828],"id":"feature_052"},{"properties":{"name":"\u5225\u6240\u6e29\u6cc9","line":"\u5225\u6240\u7dda","riders":642},"type":"Point","coordinates":[60442,57266],"id":"feature_053"},{"properties":{"name":"\u4e09\u597d\u753a","line":"\u5225\u6240\u7dda","riders":104},"type":"Point","coordinates":[67198,59850],"id":"feature_054"},{"properties":{"name":"\u4e2d\u571f","line":"\u5927\u7cf8\u7dda","riders":11},"type":"Point","coordinates":[37149,87638],"id":"feature_055"},{"properties":{"name":"\u5357\u5c0f\u8c37","line":"\u5927\u7cf8\u7dda","riders":246},"type":"Point","coordinates":[37192,85556],"id":"feature_056"},{"properties":{"name":"\u5317\u5c0f\u8c37","line":"\u5927\u7cf8\u7dda","riders":11},"type":"Point","coordinates":[37017,90119],"id":"feature_057"},{"properties":{"name":"\u5c0f\u6edd","line":"\u5927\u7cf8\u7dda","riders":11},"type":"Point","coordinates":[32712,96537],"id":"feature_058"},{"properties":{"name":"\u6839\u77e5","line":"\u5927\u7cf8\u7dda","riders":28},"type":"Point","coordinates":[33410,98449],"id":"feature_059"},{"properties":{"name":"\u5e73\u5ca9","line":"\u5927\u7cf8\u7dda","riders":16},"type":"Point","coordinates":[33273,93093],"id":"feature_060"},{"properties":{"name":"\u6cca","line":"\u3042\u3044\u306e\u98a8\u3068\u3084\u307e\u9244\u9053\u7dda","riders":1491},"type":"Point","coordinates":[4879,97459],"id":"feature_061"},{"properties":{"name":"\u5e02\u632f","line":"\u65e5\u672c\u6d77\u3072\u3059\u3044\u30e9\u30a4\u30f3","riders":123},"type":"Point","coordinates":[13544,99375],"id":"feature_062"},{"properties":{"name":"\u8d8a\u4e2d\u5bae\u5d0e","line":"\u3042\u3044\u306e\u98a8\u3068\u3084\u307e\u9244\u9053\u7dda","riders":171},"type":"Point","coordinates":[8867,98933],"id":"feature_063"},{"properties":{"name":"\u9808\u5742","line":"\u9577\u91ce\u7dda","riders":6463},"type":"Point","coordinates":[73494,77646],"id":"feature_064"},{"properties":{"name":"\u5584\u5149\u5bfa\u4e0b","line":"\u9577\u91ce\u7dda","riders":1340},"type":"Point","coordinates":[63358,77754],"id":"feature_065"},{"properties":{"name":"\u67f3\u539f","line":"\u9577\u91ce\u7dda","riders":1318},"type":"Point","coordinates":[69284,78092],"id":"feature_066"},{"properties":{"name":"\u9577\u91ce","line":"\u9577\u91ce\u7dda","riders":10752},"type":"Point","coordinates":[62918,76819],"id":"feature_067"},{"properties":{"name":"\u672c\u90f7","line":"\u9577\u91ce\u7dda","riders":2731},"type":"Point","coordinates":[64313,78038],"id":"feature_068"},{"properties":{"name":"\u685c\u6ca2","line":"\u9577\u91ce\u7dda","riders":120},"type":"Point","coordinates":[77661,81396],"id":"feature_069"},{"properties":{"name":"\u4fe1\u6fc3\u5409\u7530","line":"\u9577\u91ce\u7dda","riders":3053},"type":"Point","coordinates":[65857,78362],"id":"feature_070"},{"properties":{"name":"\u6751\u5c71","line":"\u9577\u91ce\u7dda","riders":799},"type":"Point","coordinates":[71300,77814],"id":"feature_071"},{"properties":{"name":"\u591c\u9593\u702c","line":"\u9577\u91ce\u7dda","riders":234},"type":"Point","coordinates":[82586,84574],"id":"feature_072"},{"properties":{"name":"\u5e02\u5f79\u6240\u524d","line":"\u9577\u91ce\u7dda","riders":1388},"type":"Point","coordinates":[63133,77063],"id":"feature_073"},{"properties":{"name":"\u90fd\u4f4f","line":"\u9577\u91ce\u7dda","riders":239},"type":"Point","coordinates":[75141,80820],"id":"feature_074"},{"properties":{"name":"\u65e5\u91ce","line":"\u9577\u91ce\u7dda","riders":408},"type":"Point","coordinates":[72081,77590],"id":"feature_075"},{"properties":{"name":"\u5ef6\u5fb3","line":"\u9577\u91ce\u7dda","riders":307},"type":"Point","coordinates":[78841,82343],"id":"feature_076"},{"properties":{"name":"\u6850\u539f","line":"\u9577\u91ce\u7dda","riders":2134},"type":"Point","coordinates":[65137,78243],"id":"feature_077"},{"properties":{"name":"\u4fe1\u6fc3\u7af9\u539f","line":"\u9577\u91ce\u7dda","riders":91},"type":"Point","coordinates":[81699,84649],"id":"feature_078"},{"properties":{"name":"\u9644\u5c5e\u4e2d\u5b66\u524d","line":"\u9577\u91ce\u7dda","riders":2263},"type":"Point","coordinates":[68331,78053],"id":"feature_079"},{"properties":{"name":"\u4e0a\u6761","line":"\u9577\u91ce\u7dda","riders":75},"type":"Point","coordinates":[82977,83878],"id":"feature_080"},{"properties":{"name":"\u5c0f\u5e03\u65bd","line":"\u9577\u91ce\u7dda","riders":1850},"type":"Point","coordinates":[74282,80480],"id":"feature_081"},{"properties":{"name":"\u6e6f\u7530\u4e2d","line":"\u9577\u91ce\u7dda","riders":1255},"type":"Point","coordinates":[83646,83344],"id":"feature_082"},{"properties":{"name":"\u5317\u9808\u5742","line":"\u9577\u91ce\u7dda","riders":887},"type":"Point","coordinates":[73908,79097],"id":"feature_083"},{"properties":{"name":"\u6a29\u5802","line":"\u9577\u91ce\u7dda","riders":2652},"type":"Point","coordinates":[63215,77409],"id":"feature_084"},{"properties":{"name":"\u671d\u967d","line":"\u9577\u91ce\u7dda","riders":2197},"type":"Point","coordinates":[67671,78287],"id":"feature_085"},{"properties":{"name":"\u4fe1\u5dde\u4e2d\u91ce","line":"\u9577\u91ce\u7dda","riders":3154},"type":"Point","coordinates":[79064,83545],"id":"feature_086"},{"properties":{"name":"\u4e2d\u91ce\u677e\u5ddd","line":"\u9577\u91ce\u7dda","riders":184},"type":"Point","coordinates":[79923,83949],"id":"feature_087"},{"properties":{"name":"\u5869\u5c3b","line":"\u4e2d\u592e\u7dda","riders":8594},"type":"Point","coordinates":[40817,41262],"id":"feature_088"},{"properties":{"name":"\u65e5\u51fa\u5869","line":"\u4e2d\u592e\u7dda","riders":13},"type":"Point","coordinates":[35954,36849],"id":"feature_089"},{"properties":{"name":"\u6d17\u99ac","line":"\u4e2d\u592e\u7dda","riders":122},"type":"Point","coordinates":[37968,39405],"id":"feature_090"},{"properties":{"name":"\u8d04\u5ddd","line":"\u4e2d\u592e\u7dda","riders":216},"type":"Point","coordinates":[32844,34494],"id":"feature_091"},{"properties":{"name":"\u6728\u66fd\u5e73\u6ca2","line":"\u4e2d\u592e\u7dda","riders":91},"type":"Point","coordinates":[30216,32149],"id":"feature_092"},{"properties":{"name":"\u5948\u826f\u4e95","line":"\u4e2d\u592e\u7dda","riders":136},"type":"Point","coordinates":[28741,31506],"id":"feature_093"},{"properties":{"name":"\u7530\u7acb","line":"\u4e2d\u592e\u7dda","riders":123},"type":"Point","coordinates":[4239,5913],"id":"feature_094"},{"properties":{"name":"\u5357\u6728\u66fd","line":"\u4e2d\u592e\u7dda","riders":583},"type":"Point","coordinates":[9711,6639],"id":"feature_095"},{"properties":{"name":"\u5927\u6851","line":"\u4e2d\u592e\u7dda","riders":125},"type":"Point","coordinates":[14792,12370],"id":"feature_096"},{"properties":{"name":"\u6728\u66fd\u798f\u5cf6","line":"\u4e2d\u592e\u7dda","riders":1394},"type":"Point","coordinates":[17479,23065],"id":"feature_097"},{"properties":{"name":"\u5341\u4e8c\u517c","line":"\u4e2d\u592e\u7dda","riders":16},"type":"Point","coordinates":[10524,9744],"id":"feature_098"},{"properties":{"name":"\u4e2d\u6d25\u5ddd","line":"\u4e2d\u592e\u7dda","riders":6701},"type":"Point","coordinates":[0,0],"id":"feature_099"},{"properties":{"name":"\u5742\u4e0b","line":"\u4e2d\u592e\u7dda","riders":693},"type":"Point","coordinates":[2602,4997],"id":"feature_100"},{"properties":{"name":"\u9808\u539f","line":"\u4e2d\u592e\u7dda","riders":106},"type":"Point","coordinates":[17620,13272],"id":"feature_101"},{"properties":{"name":"\u85ea\u539f","line":"\u4e2d\u592e\u7dda","riders":226},"type":"Point","coordinates":[25813,28850],"id":"feature_102"},{"properties":{"name":"\u5bae\u30ce\u8d8a","line":"\u4e2d\u592e\u7dda","riders":91},"type":"Point","coordinates":[23947,26069],"id":"feature_103"},{"properties":{"name":"\u843d\u5408\u5ddd","line":"\u4e2d\u592e\u7dda","riders":63},"type":"Point","coordinates":[2499,1690],"id":"feature_104"},{"properties":{"name":"\u91ce\u5c3b","line":"\u4e2d\u592e\u7dda","riders":142},"type":"Point","coordinates":[12229,11606],"id":"feature_105"},{"properties":{"name":"\u539f\u91ce","line":"\u4e2d\u592e\u7dda","riders":86},"type":"Point","coordinates":[21893,24914],"id":"feature_106"},{"properties":{"name":"\u4e0a\u677e","line":"\u4e2d\u592e\u7dda","riders":325},"type":"Point","coordinates":[17467,19061],"id":"feature_107"},{"properties":{"name":"\u5009\u672c","line":"\u4e2d\u592e\u7dda","riders":33},"type":"Point","coordinates":[19398,15628],"id":"feature_108"},{"properties":{"name":"\u8fb0\u91ce","line":"\u98ef\u7530\u7dda","riders":1192},"type":"Point","coordinates":[45338,32516],"id":"feature_109"},{"properties":{"name":"\u4f0a\u90a3\u5317","line":"\u98ef\u7530\u7dda","riders":2050},"type":"Point","coordinates":[42327,23166],"id":"feature_110"},{"properties":{"name":"\u4f0a\u90a3\u65b0\u753a","line":"\u98ef\u7530\u7dda","riders":145},"type":"Point","coordinates":[44135,31460],"id":"feature_111"},{"properties":{"name":"\u4f0a\u90a3\u5e02","line":"\u98ef\u7530\u7dda","riders":2377},"type":"Point","coordinates":[41859,22711],"id":"feature_112"},{"properties":{"name":"\u6ca2","line":"\u98ef\u7530\u7dda","riders":724},"type":"Point","coordinates":[44263,29281],"id":"feature_113"},{"properties":{"name":"\u8d64\u6728","line":"\u98ef\u7530\u7dda","riders":117},"type":"Point","coordinates":[40457,18648],"id":"feature_114"},{"properties":{"name":"\u4e0a\u7247\u6850","line":"\u98ef\u7530\u7dda","riders":689},"type":"Point","coordinates":[36799,7878],"id":"feature_115"},{"properties":{"name":"\u5bae\u6728","line":"\u98ef\u7530\u7dda","riders":1219},"type":"Point","coordinates":[44725,31962],"id":"feature_116"},{"properties":{"name":"\u4f0a\u90a3\u5927\u5cf6","line":"\u98ef\u7530\u7dda","riders":702},"type":"Point","coordinates":[37637,6414],"id":"feature_117"},{"properties":{"name":"\u4f0a\u90a3\u798f\u5ca1","line":"\u98ef\u7530\u7dda","riders":647},"type":"Point","coordinates":[39541,14237],"id":"feature_118"},{"properties":{"name":"\u98ef\u5cf6","line":"\u98ef\u7530\u7dda","riders":509},"type":"Point","coordinates":[39084,11912],"id":"feature_119"},{"properties":{"name":"\u5bae\u7530","line":"\u98ef\u7530\u7dda","riders":641},"type":"Point","coordinates":[39990,17932],"id":"feature_120"},{"properties":{"name":"\u7530\u5207","line":"\u98ef\u7530\u7dda","riders":87},"type":"Point","coordinates":[39458,13124],"id":"feature_121"},{"properties":{"name":"\u4e0b\u5cf6","line":"\u98ef\u7530\u7dda","riders":144},"type":"Point","coordinates":[40108,21014],"id":"feature_122"},{"properties":{"name":"\u5c0f\u753a\u5c4b","line":"\u98ef\u7530\u7dda","riders":1279},"type":"Point","coordinates":[39650,15214],"id":"feature_123"},{"properties":{"name":"\u4e03\u4e45\u4fdd","line":"\u98ef\u7530\u7dda","riders":269},"type":"Point","coordinates":[37469,10374],"id":"feature_124"},{"properties":{"name":"\u5927\u7530\u5207","line":"\u98ef\u7530\u7dda","riders":201},"type":"Point","coordinates":[40103,16652],"id":"feature_125"},{"properties":{"name":"\u4f0a\u90a3\u7530\u5cf6","line":"\u98ef\u7530\u7dda","riders":31},"type":"Point","coordinates":[37365,8546],"id":"feature_126"},{"properties":{"name":"\u4f0a\u90a3\u677e\u5cf6","line":"\u98ef\u7530\u7dda","riders":995},"type":"Point","coordinates":[44557,27772],"id":"feature_127"},{"properties":{"name":"\u4f0a\u90a3\u672c\u90f7","line":"\u98ef\u7530\u7dda","riders":82},"type":"Point","coordinates":[39405,11093],"id":"feature_128"},{"properties":{"name":"\u7fbd\u5834","line":"\u98ef\u7530\u7dda","riders":387},"type":"Point","coordinates":[44236,30405],"id":"feature_129"},{"properties":{"name":"\u99d2\u30f6\u6839","line":"\u98ef\u7530\u7dda","riders":949},"type":"Point","coordinates":[39806,15852],"id":"feature_130"},{"properties":{"name":"\u5317\u6bbf","line":"\u98ef\u7530\u7dda","riders":563},"type":"Point","coordinates":[44135,25467],"id":"feature_131"},{"properties":{"name":"\u5c71\u5439","line":"\u98ef\u7530\u7dda","riders":142},"type":"Point","coordinates":[36733,5211],"id":"feature_132"},{"properties":{"name":"\u6ca2\u6e21","line":"\u98ef\u7530\u7dda","riders":919},"type":"Point","coordinates":[40464,20379],"id":"feature_133"},{"properties":{"name":"\u4e0b\u5e73","line":"\u98ef\u7530\u7dda","riders":188},"type":"Point","coordinates":[36051,4863],"id":"feature_134"},{"properties":{"name":"\u6728\u30ce\u4e0b","line":"\u98ef\u7530\u7dda","riders":863},"type":"Point","coordinates":[44496,26898],"id":"feature_135"},{"properties":{"name":"\u9ad8\u9060\u539f","line":"\u98ef\u7530\u7dda","riders":43},"type":"Point","coordinates":[36476,9699],"id":"feature_136"},{"properties":{"name":"\u7530\u7551","line":"\u98ef\u7530\u7dda","riders":304},"type":"Point","coordinates":[43563,24211],"id":"feature_137"},{"properties":{"name":"\u5143\u5584\u5149\u5bfa","line":"\u98ef\u7530\u7dda","riders":471},"type":"Point","coordinates":[32888,2263],"id":"feature_138"},{"properties":{"name":"\u4e0b\u5c71\u6751","line":"\u98ef\u7530\u7dda","riders":80},"type":"Point","coordinates":[30899,272],"id":"feature_139"},{"properties":{"name":"\u9f0e","line":"\u98ef\u7530\u7dda","riders":1298},"type":"Point","coordinates":[29856,440],"id":"feature_140"},{"properties":{"name":"\u98ef\u7530","line":"\u98ef\u7530\u7dda","riders":1654},"type":"Point","coordinates":[29206,1314],"id":"feature_141"},{"properties":{"name":"\u4f0a\u90a3\u4e0a\u90f7","line":"\u98ef\u7530\u7dda","riders":1351},"type":"Point","coordinates":[30834,1345],"id":"feature_142"},{"properties":{"name":"\u5e02\u7530","line":"\u98ef\u7530\u7dda","riders":781},"type":"Point","coordinates":[35195,3303],"id":"feature_143"},{"properties":{"name":"\u5207\u77f3","line":"\u98ef\u7530\u7dda","riders":226},"type":"Point","coordinates":[28094,822],"id":"feature_144"},{"properties":{"name":"\u4e0b\u5e02\u7530","line":"\u98ef\u7530\u7dda","riders":137},"type":"Point","coordinates":[34256,2954],"id":"feature_145"},{"properties":{"name":"\u685c\u753a","line":"\u98ef\u7530\u7dda","riders":189},"type":"Point","coordinates":[29984,1479],"id":"feature_146"},{"properties":{"name":"\u4e07\u5ea7\u30fb\u9e7f\u6ca2\u53e3","line":"\u543e\u59bb\u7dda","riders":592},"type":"Point","coordinates":[96155,69263],"id":"feature_147"},{"properties":{"name":"\u5927\u524d","line":"\u543e\u59bb\u7dda","riders":11},"type":"Point","coordinates":[94112,68033],"id":"feature_148"},{"properties":{"name":"\u888b\u5009","line":"\u543e\u59bb\u7dda","riders":11},"type":"Point","coordinates":[98711,70077],"id":"feature_149"},{"properties":{"name":"\u51a0\u7740","line":"\u7be0\u30ce\u4e95\u7dda","riders":154},"type":"Point","coordinates":[52874,64249],"id":"feature_150"},{"properties":{"name":"\u8056\u9ad8\u539f","line":"\u7be0\u30ce\u4e95\u7dda","riders":630},"type":"Point","coordinates":[49959,64104],"id":"feature_151"},{"properties":{"name":"\u5742\u5317","line":"\u7be0\u30ce\u4e95\u7dda","riders":348},"type":"Point","coordinates":[47042,62470],"id":"feature_152"},{"properties":{"name":"\u897f\u6761","line":"\u7be0\u30ce\u4e95\u7dda","riders":398},"type":"Point","coordinates":[46742,60439],"id":"feature_153"},{"properties":{"name":"\u59e8\u6368","line":"\u7be0\u30ce\u4e95\u7dda","riders":128},"type":"Point","coordinates":[54139,67315],"id":"feature_154"},{"properties":{"name":"\u660e\u79d1","line":"\u7be0\u30ce\u4e95\u7dda","riders":2188},"type":"Point","coordinates":[39211,57338],"id":"feature_155"},{"properties":{"name":"\u6751\u4e95","line":"\u7be0\u30ce\u4e95\u7dda","riders":4028},"type":"Point","coordinates":[41567,45259],"id":"feature_156"},{"properties":{"name":"\u7a32\u8377\u5c71","line":"\u7be0\u30ce\u4e95\u7dda","riders":820},"type":"Point","coordinates":[55509,70656],"id":"feature_157"},{"properties":{"name":"\u677e\u672c","line":"\u7be0\u30ce\u4e95\u7dda","riders":37281},"type":"Point","coordinates":[42353,49014],"id":"feature_158"},{"properties":{"name":"\u5357\u677e\u672c","line":"\u7be0\u30ce\u4e95\u7dda","riders":3190},"type":"Point","coordinates":[42810,47701],"id":"feature_159"},{"properties":{"name":"\u7530\u6ca2","line":"\u7be0\u30ce\u4e95\u7dda","riders":1092},"type":"Point","coordinates":[40189,53809],"id":"feature_160"},{"properties":{"name":"\u5e83\u4e18","line":"\u7be0\u30ce\u4e95\u7dda","riders":5444},"type":"Point","coordinates":[40974,43486],"id":"feature_161"},{"properties":{"name":"\u9752\u6cbc","line":"\u5c0f\u6d77\u7dda","riders":11},"type":"Point","coordinates":[90459,45727],"id":"feature_162"},{"properties":{"name":"\u7f8e\u91cc","line":"\u5c0f\u6d77\u7dda","riders":11},"type":"Point","coordinates":[86887,53178],"id":"feature_163"},{"properties":{"name":"\u9f8d\u5ca1\u57ce","line":"\u5c0f\u6d77\u7dda","riders":11},"type":"Point","coordinates":[90600,47265],"id":"feature_164"},{"properties":{"name":"\u4e09\u5ca1","line":"\u5c0f\u6d77\u7dda","riders":11},"type":"Point","coordinates":[86722,53976],"id":"feature_165"},{"properties":{"name":"\u5317\u4e2d\u8fbc","line":"\u5c0f\u6d77\u7dda","riders":11},"type":"Point","coordinates":[89314,50668],"id":"feature_166"},{"properties":{"name":"\u4e59\u5973","line":"\u5c0f\u6d77\u7dda","riders":11},"type":"Point","coordinates":[85996,54454],"id":"feature_167"},{"properties":{"name":"\u4e2d\u8fbc","line":"\u5c0f\u6d77\u7dda","riders":2050},"type":"Point","coordinates":[89562,49040],"id":"feature_168"},{"properties":{"name":"\u5ca9\u6751\u7530","line":"\u5c0f\u6d77\u7dda","riders":2628},"type":"Point","coordinates":[88923,51982],"id":"feature_169"},{"properties":{"name":"\u5c0f\u8af8","line":"\u5c0f\u6d77\u7dda","riders":6518},"type":"Point","coordinates":[84365,55419],"id":"feature_170"},{"properties":{"name":"\u4f50\u4e45\u5e73","line":"\u5c0f\u6d77\u7dda","riders":6226},"type":"Point","coordinates":[88086,52189],"id":"feature_171"},{"properties":{"name":"\u4e2d\u4f50\u90fd","line":"\u5c0f\u6d77\u7dda","riders":11},"type":"Point","coordinates":[87196,52412],"id":"feature_172"},{"properties":{"name":"\u6771\u5c0f\u8af8","line":"\u5c0f\u6d77\u7dda","riders":11},"type":"Point","coordinates":[85223,54837],"id":"feature_173"},{"properties":{"name":"\u6ed1\u6d25","line":"\u5c0f\u6d77\u7dda","riders":11},"type":"Point","coordinates":[89159,49581],"id":"feature_174"},{"properties":{"name":"\u592a\u7530\u90e8","line":"\u5c0f\u6d77\u7dda","riders":11},"type":"Point","coordinates":[90329,48347],"id":"feature_175"},{"properties":{"name":"\u81fc\u7530","line":"\u5c0f\u6d77\u7dda","riders":530},"type":"Point","coordinates":[90372,46579],"id":"feature_176"},{"properties":{"name":"\u6d77\u702c","line":"\u5c0f\u6d77\u7dda","riders":11},"type":"Point","coordinates":[90161,44013],"id":"feature_177"},{"properties":{"name":"\u677e\u539f\u6e56","line":"\u5c0f\u6d77\u7dda","riders":11},"type":"Point","coordinates":[88750,37651],"id":"feature_178"},{"properties":{"name":"\u5c0f\u6d77","line":"\u5c0f\u6d77\u7dda","riders":470},"type":"Point","coordinates":[89882,39509],"id":"feature_179"},{"properties":{"name":"\u6d77\u5c3b","line":"\u5c0f\u6d77\u7dda","riders":11},"type":"Point","coordinates":[89026,36329],"id":"feature_180"},{"properties":{"name":"\u9ad8\u5ca9","line":"\u5c0f\u6d77\u7dda","riders":11},"type":"Point","coordinates":[89390,41325],"id":"feature_181"},{"properties":{"name":"\u4f50\u4e45\u6d77\u30ce\u53e3","line":"\u5c0f\u6d77\u7dda","riders":11},"type":"Point","coordinates":[90609,34978],"id":"feature_182"},{"properties":{"name":"\u99ac\u6d41","line":"\u5c0f\u6d77\u7dda","riders":11},"type":"Point","coordinates":[90165,40392],"id":"feature_183"},{"properties":{"name":"\u7fbd\u9ed2\u4e0b","line":"\u5c0f\u6d77\u7dda","riders":238},"type":"Point","coordinates":[90501,44726],"id":"feature_184"},{"properties":{"name":"\u516b\u5343\u7a42","line":"\u5c0f\u6d77\u7dda","riders":272},"type":"Point","coordinates":[89380,42506],"id":"feature_185"},{"properties":{"name":"\u4f50\u4e45\u5e83\u702c","line":"\u5c0f\u6d77\u7dda","riders":11},"type":"Point","coordinates":[93229,33803],"id":"feature_186"},{"properties":{"name":"\u4e8c\u672c\u6728","line":"\u5999\u9ad8\u306f\u306d\u3046\u307e\u30e9\u30a4\u30f3","riders":294},"type":"Point","coordinates":[66938,99999],"id":"feature_187"},{"properties":{"name":"\u9577\u91ce","line":"\u5317\u3057\u306a\u306e\u7dda","riders":42818},"type":"Point","coordinates":[62916,76752],"id":"feature_188"},{"properties":{"name":"\u9ed2\u59eb","line":"\u5317\u3057\u306a\u306e\u7dda","riders":836},"type":"Point","coordinates":[63673,87752],"id":"feature_189"},{"properties":{"name":"\u95a2\u5c71","line":"\u5999\u9ad8\u306f\u306d\u3046\u307e\u30e9\u30a4\u30f3","riders":382},"type":"Point","coordinates":[66394,96156],"id":"feature_190"},{"properties":{"name":"\u4eca\u4e95","line":"\u4fe1\u8d8a\u7dda","riders":3988},"type":"Point","coordinates":[58902,73491],"id":"feature_191"},{"properties":{"name":"\u53e4\u9593","line":"\u5317\u3057\u306a\u306e\u7dda","riders":289},"type":"Point","coordinates":[66734,86751],"id":"feature_192"},{"properties":{"name":"\u5999\u9ad8\u9ad8\u539f","line":"\u5999\u9ad8\u306f\u306d\u3046\u307e\u30e9\u30a4\u30f3","riders":780},"type":"Point","coordinates":[65055,92114],"id":"feature_193"},{"properties":{"name":"\u5b89\u8302\u91cc","line":"\u4fe1\u8d8a\u7dda","riders":2166},"type":"Point","coordinates":[60437,75867],"id":"feature_194"},{"properties":{"name":"\u4e09\u624d","line":"\u5317\u3057\u306a\u306e\u7dda","riders":2992},"type":"Point","coordinates":[67960,79640],"id":"feature_195"},{"properties":{"name":"\u5ddd\u4e2d\u5cf6","line":"\u4fe1\u8d8a\u7dda","riders":3200},"type":"Point","coordinates":[59417,74780],"id":"feature_196"},{"properties":{"name":"\u5317\u9577\u91ce","line":"\u5317\u3057\u306a\u306e\u7dda","riders":4488},"type":"Point","coordinates":[66015,78203],"id":"feature_197"},{"properties":{"name":"\u725f\u793c","line":"\u5317\u3057\u306a\u306e\u7dda","riders":1630},"type":"Point","coordinates":[68231,84120],"id":"feature_198"},{"properties":{"name":"\u8c4a\u91ce","line":"\u5317\u3057\u306a\u306e\u7dda","riders":4419},"type":"Point","coordinates":[70868,81293],"id":"feature_199"},{"properties":{"name":"\u4e00\u65e5\u5e02\u5834","line":"\u5927\u7cf8\u7dda","riders":1636},"type":"Point","coordinates":[36791,51015],"id":"feature_200"},{"properties":{"name":"\u5cf6\u5185","line":"\u5927\u7cf8\u7dda","riders":11},"type":"Point","coordinates":[40531,50131],"id":"feature_201"},{"properties":{"name":"\u4e2d\u8431","line":"\u5927\u7cf8\u7dda","riders":800},"type":"Point","coordinates":[36728,51942],"id":"feature_202"},{"properties":{"name":"\u5cf6\u9ad8\u677e","line":"\u5927\u7cf8\u7dda","riders":11},"type":"Point","coordinates":[39326,50092],"id":"feature_203"},{"properties":{"name":"\u5343\u56fd","line":"\u5927\u7cf8\u7dda","riders":11},"type":"Point","coordinates":[36504,84793],"id":"feature_204"},{"properties":{"name":"\u5357\u8c4a\u79d1","line":"\u5927\u7cf8\u7dda","riders":1862},"type":"Point","coordinates":[36746,53090],"id":"feature_205"},{"properties":{"name":"\u5317\u677e\u672c","line":"\u5927\u7cf8\u7dda","riders":1512},"type":"Point","coordinates":[42029,49459],"id":"feature_206"},{"properties":{"name":"\u6893\u6a4b","line":"\u5927\u7cf8\u7dda","riders":1020},"type":"Point","coordinates":[38084,50351],"id":"feature_207"},{"properties":{"name":"\u8c4a\u79d1","line":"\u5927\u7cf8\u7dda","riders":2206},"type":"Point","coordinates":[36512,53696],"id":"feature_208"},{"properties":{"name":"\u7d30\u91ce","line":"\u5927\u7cf8\u7dda","riders":11},"type":"Point","coordinates":[33288,60212],"id":"feature_209"},{"properties":{"name":"\u4fe1\u6fc3\u5e38\u76e4","line":"\u5927\u7cf8\u7dda","riders":11},"type":"Point","coordinates":[31580,64931],"id":"feature_210"},{"properties":{"name":"\u7a32\u5c3e","line":"\u5927\u7cf8\u7dda","riders":11},"type":"Point","coordinates":[31163,70754],"id":"feature_211"},{"properties":{"name":"\u4fe1\u6fc3\u6728\u5d0e","line":"\u5927\u7cf8\u7dda","riders":11},"type":"Point","coordinates":[31496,69514],"id":"feature_212"},{"properties":{"name":"\u5317\u5927\u753a","line":"\u5927\u7cf8\u7dda","riders":11},"type":"Point","coordinates":[32580,68304],"id":"feature_213"},{"properties":{"name":"\u5b89\u66c7\u6c93\u639b","line":"\u5927\u7cf8\u7dda","riders":11},"type":"Point","coordinates":[32277,63618],"id":"feature_214"},{"properties":{"name":"\u98ef\u68ee","line":"\u5927\u7cf8\u7dda","riders":11},"type":"Point","coordinates":[31855,78575],"id":"feature_215"},{"properties":{"name":"\u795e\u57ce","line":"\u5927\u7cf8\u7dda","riders":116},"type":"Point","coordinates":[31529,77743],"id":"feature_216"},{"properties":{"name":"\u5357\u795e\u57ce","line":"\u5927\u7cf8\u7dda","riders":11},"type":"Point","coordinates":[31073,76330],"id":"feature_217"},{"properties":{"name":"\u767d\u99ac\u5927\u6c60","line":"\u5927\u7cf8\u7dda","riders":11},"type":"Point","coordinates":[35100,83230],"id":"feature_218"},{"properties":{"name":"\u4fe1\u6fc3\u677e\u5ddd","line":"\u5927\u7cf8\u7dda","riders":1294},"type":"Point","coordinates":[32627,62052],"id":"feature_219"},{"properties":{"name":"\u5b89\u66c7\u8ffd\u5206","line":"\u5927\u7cf8\u7dda","riders":640},"type":"Point","coordinates":[33928,58519],"id":"feature_220"},{"properties":{"name":"\u5317\u7d30\u91ce","line":"\u5927\u7cf8\u7dda","riders":11},"type":"Point","coordinates":[33008,60841],"id":"feature_221"},{"properties":{"name":"\u767d\u99ac","line":"\u5927\u7cf8\u7dda","riders":662},"type":"Point","coordinates":[33115,80280],"id":"feature_222"},{"properties":{"name":"\u6d77\u30ce\u53e3","line":"\u5927\u7cf8\u7dda","riders":11},"type":"Point","coordinates":[31093,71531],"id":"feature_223"},{"properties":{"name":"\u7a42\u9ad8","line":"\u5927\u7cf8\u7dda","riders":2520},"type":"Point","coordinates":[34769,56317],"id":"feature_224"},{"properties":{"name":"\u4fe1\u6fc3\u5927\u753a","line":"\u5927\u7cf8\u7dda","riders":2746},"type":"Point","coordinates":[32912,67136],"id":"feature_225"},{"properties":{"name":"\u67cf\u77e2\u753a","line":"\u5927\u7cf8\u7dda","riders":1074},"type":"Point","coordinates":[35358,55204],"id":"feature_226"},{"properties":{"name":"\u5357\u5927\u753a","line":"\u5927\u7cf8\u7dda","riders":11},"type":"Point","coordinates":[32415,66553],"id":"feature_227"},{"properties":{"name":"\u4fe1\u6fc3\u68ee\u4e0a","line":"\u5927\u7cf8\u7dda","riders":11},"type":"Point","coordinates":[33843,81285],"id":"feature_228"},{"properties":{"name":"\u7c17\u5834","line":"\u5927\u7cf8\u7dda","riders":11},"type":"Point","coordinates":[31366,73493],"id":"feature_229"},{"properties":{"name":"\u6709\u660e","line":"\u5927\u7cf8\u7dda","riders":520},"type":"Point","coordinates":[34431,57724],"id":"feature_230"},{"properties":{"name":"\u5ddd\u5cb8","line":"\u4e2d\u592e\u7dda","riders":11},"type":"Point","coordinates":[47610,35770],"id":"feature_231"},{"properties":{"name":"\u9752\u67f3","line":"\u4e2d\u592e\u7dda","riders":11},"type":"Point","coordinates":[63712,29710],"id":"feature_232"},{"properties":{"name":"\u5ca1\u8c37","line":"\u4e2d\u592e\u7dda","riders":6540},"type":"Point","coordinates":[49734,37366],"id":"feature_233"},{"properties":{"name":"\u307f\u3069\u308a\u6e56","line":"\u4e2d\u592e\u7dda","riders":11},"type":"Point","coordinates":[43943,39883],"id":"feature_234"},{"properties":{"name":"\u5c0f\u91ce","line":"\u4e2d\u592e\u7dda","riders":372},"type":"Point","coordinates":[42919,36703],"id":"feature_235"},{"properties":{"name":"\u4e0a\u8acf\u8a2a","line":"\u4e2d\u592e\u7dda","riders":8786},"type":"Point","coordinates":[56259,36695],"id":"feature_236"},{"properties":{"name":"\u4fe1\u6fc3\u5ddd\u5cf6","line":"\u4e2d\u592e\u7dda","riders":11},"type":"Point","coordinates":[43018,34474],"id":"feature_237"},{"properties":{"name":"\u4e0b\u8acf\u8a2a","line":"\u4e2d\u592e\u7dda","riders":4280},"type":"Point","coordinates":[53449,38386],"id":"feature_238"},{"properties":{"name":"\u8305\u91ce","line":"\u4e2d\u592e\u7dda","riders":7582},"type":"Point","coordinates":[59532,33204],"id":"feature_239"},{"properties":{"name":"\u68ee\u5bae\u91ce\u539f","line":"\u98ef\u5c71\u7dda","riders":166},"type":"Point","coordinates":[98554,99979],"id":"feature_240"},{"properties":{"name":"\u4e0a\u6851\u540d\u5ddd","line":"\u98ef\u5c71\u7dda","riders":11},"type":"Point","coordinates":[86078,98199],"id":"feature_241"},{"properties":{"name":"\u897f\u5927\u6edd","line":"\u98ef\u5c71\u7dda","riders":11},"type":"Point","coordinates":[89696,99293],"id":"feature_242"},{"properties":{"name":"\u6a2a\u5009","line":"\u98ef\u5c71\u7dda","riders":44},"type":"Point","coordinates":[96067,99338],"id":"feature_243"},{"properties":{"name":"\u4fe1\u6fc3\u767d\u9ce5","line":"\u98ef\u5c71\u7dda","riders":20},"type":"Point","coordinates":[91730,99586],"id":"feature_244"},{"properties":{"name":"\u5e73\u6edd","line":"\u98ef\u5c71\u7dda","riders":26},"type":"Point","coordinates":[94546,99750],"id":"feature_245"},{"properties":{"name":"\u6851\u540d\u5ddd","line":"\u98ef\u5c71\u7dda","riders":11},"type":"Point","coordinates":[87596,99069],"id":"feature_246"},{"properties":{"name":"\u7acb\u30f6\u82b1","line":"\u98ef\u5c71\u7dda","riders":11},"type":"Point","coordinates":[73752,82649],"id":"feature_247"},{"properties":{"name":"\u4e0a\u5883","line":"\u98ef\u5c71\u7dda","riders":11},"type":"Point","coordinates":[84026,96524],"id":"feature_248"},{"properties":{"name":"\u66ff\u4f50","line":"\u98ef\u5c71\u7dda","riders":256},"type":"Point","coordinates":[75323,85200],"id":"feature_249"},{"properties":{"name":"\u6238\u72e9\u91ce\u6ca2\u6e29\u6cc9","line":"\u98ef\u5c71\u7dda","riders":602},"type":"Point","coordinates":[81633,95092],"id":"feature_250"},{"properties":{"name":"\u5317\u98ef\u5c71","line":"\u98ef\u5c71\u7dda","riders":11},"type":"Point","coordinates":[78966,91209],"id":"feature_251"},{"properties":{"name":"\u84ee","line":"\u98ef\u5c71\u7dda","riders":11},"type":"Point","coordinates":[77620,87854],"id":"feature_252"},{"properties":{"name":"\u4fe1\u6fc3\u5e73","line":"\u98ef\u5c71\u7dda","riders":11},"type":"Point","coordinates":[80307,92967],"id":"feature_253"},{"properties":{"name":"\u4e0a\u4eca\u4e95","line":"\u98ef\u5c71\u7dda","riders":500},"type":"Point","coordinates":[74895,84129],"id":"feature_254"},{"properties":{"name":"\u98ef\u5c71","line":"\u98ef\u5c71\u7dda","riders":2024},"type":"Point","coordinates":[78501,90351],"id":"feature_255"},{"properties":{"name":"\u4fe1\u6fc3\u6d45\u91ce","line":"\u98ef\u5c71\u7dda","riders":452},"type":"Point","coordinates":[72604,82009],"id":"feature_256"},{"properties":{"name":"\u4f50\u4e45\u5e73","line":"\u5317\u9678\u65b0\u5e79\u7dda","riders":11},"type":"Point","coordinates":[88219,52232],"id":"feature_257"},{"properties":{"name":"\u4e0a\u7530","line":"\u5317\u9678\u65b0\u5e79\u7dda","riders":5842},"type":"Point","coordinates":[68545,60149],"id":"feature_258"},{"properties":{"name":"\u9577\u91ce","line":"\u5317\u9678\u65b0\u5e79\u7dda","riders":11},"type":"Point","coordinates":[62918,76708],"id":"feature_259"},{"properties":{"name":"\u97f3\u6ca2","line":"\u672c\u7dda","riders":83},"type":"Point","coordinates":[5237,89996],"id":"feature_260"},{"properties":{"name":"\u6d66\u5c71","line":"\u672c\u7dda","riders":265},"type":"Point","coordinates":[1532,91518],"id":"feature_261"},{"properties":{"name":"\u5b87\u5948\u6708\u6e29\u6cc9","line":"\u672c\u7dda","riders":1058},"type":"Point","coordinates":[7407,88325],"id":"feature_262"},{"properties":{"name":"\u4e0b\u7acb","line":"\u672c\u7dda","riders":93},"type":"Point","coordinates":[3542,91136],"id":"feature_263"},{"properties":{"name":"\u611b\u672c","line":"\u672c\u7dda","riders":248},"type":"Point","coordinates":[4659,91005],"id":"feature_264"},{"properties":{"name":"\u6803\u5c4b","line":"\u672c\u7dda","riders":82},"type":"Point","coordinates":[290,91945],"id":"feature_265"},{"properties":{"name":"\u5185\u5c71","line":"\u672c\u7dda","riders":193},"type":"Point","coordinates":[4948,90404],"id":"feature_266"},{"properties":{"name":"\u4e0b\u7acb\u53e3","line":"\u672c\u7dda","riders":52},"type":"Point","coordinates":[2767,91263],"id":"feature_267"},{"properties":{"name":"\u9ed2\u90e8\u5e73","line":"\u92fc\u7d22\u7dda","riders":3382},"type":"Point","coordinates":[13552,71623],"id":"feature_268"},{"properties":{"name":"\u9ed2\u90e8\u6e56","line":"\u92fc\u7d22\u7dda","riders":3382},"type":"Point","coordinates":[14271,71588],"id":"feature_269"},{"properties":{"name":"\u5ba4\u5802","line":"\u7121\u8ecc\u6761\u96fb\u8eca\u7dda","riders":3308},"type":"Point","coordinates":[8500,72315],"id":"feature_270"},{"properties":{"name":"\u5927\u89b3\u5cf0","line":"\u7121\u8ecc\u6761\u96fb\u8eca\u7dda","riders":3308},"type":"Point","coordinates":[11822,71802],"id":"feature_271"},{"properties":{"name":"\u5e73\u7530","line":"\u7be0\u30ce\u4e95\u7dda","riders":3076},"type":"Point","coordinates":[42163,46425],"id":"feature_272"},{"properties":{"name":"\u5343\u66f2","line":"\u3057\u306a\u306e\u9244\u9053\u7dda","riders":1039},"type":"Point","coordinates":[58568,67740],"id":"feature_273"},{"properties":{"name":"\u98ef\u5c71","line":"\u5317\u9678\u65b0\u5e79\u7dda","riders":11},"type":"Point","coordinates":[78521,90291],"id":"feature_274"}],"type":"GeometryCollection"}},"bbox":[137.50281,35.50015,138.59321,36.98975],"transform":{"scale":[1.0904109041090294e-05,1.4896148961489644e-05],"translate":[137.50281,35.50015]},"arcs":[]}