{"type":"Topology","objects":{"data":{"geometries":[{"properties":{"name":"\u57fa\u5c71","line":"\u7518\u6728\u7dda","riders":7750},"type":"Point","coordinates":[44688,45631],"id":"feature_000"},{"properties":{"name":"\u677e\u5d0e","line":"\u7518\u6728\u7dda","riders":416},"type":"Point","coordinates":[48872,43148],"id":"feature_001"},{"properties":{"name":"\u5927\u677f\u4e95","line":"\u7518\u6728\u7dda","riders":151},"type":"Point","coordinates":[47106,43006],"id":"feature_002"},{"properties":{"name":"\u9ad8\u7530","line":"\u7518\u6728\u7dda","riders":95},"type":"Point","coordinates":[53231,44815],"id":"feature_003"},{"properties":{"name":"\u5c0f\u90e1","line":"\u7518\u6728\u7dda","riders":1140},"type":"Point","coordinates":[46441,42889],"id":"feature_004"},{"properties":{"name":"\u7acb\u91ce","line":"\u7518\u6728\u7dda","riders":112},"type":"Point","coordinates":[45275,44625],"id":"feature_005"},{"properties":{"name":"\u4eca\u9688","line":"\u7518\u6728\u7dda","riders":125},"type":"Point","coordinates":[49894,43656],"id":"feature_006"},{"properties":{"name":"\u897f\u592a\u5200\u6d17","line":"\u7518\u6728\u7dda","riders":206},"type":"Point","coordinates":[50311,44084],"id":"feature_007"},{"properties":{"name":"\u5c71\u9688","line":"\u7518\u6728\u7dda","riders":243},"type":"Point","coordinates":[51220,44799],"id":"feature_008"},{"properties":{"name":"\u7518\u6728","line":"\u7518\u6728\u7dda","riders":695},"type":"Point","coordinates":[54812,45361],"id":"feature_009"},{"properties":{"name":"\u592a\u5200\u6d17","line":"\u7518\u6728\u7dda","riders":260},"type":"Point","coordinates":[51960,44783],"id":"feature_010"},{"properties":{"name":"\u7b51\u5f8c\u5409\u4e95","line":"\u4e45\u5927\u7dda","riders":986},"type":"Point","coordinates":[63209,36377],"id":"feature_011"},{"properties":{"name":"\u65e5\u7530","line":"\u4e45\u5927\u7dda","riders":1300},"type":"Point","coordinates":[78770,33719],"id":"feature_012"},{"properties":{"name":"\u6749\u6cb3\u5185","line":"\u4e45\u5927\u7dda","riders":20},"type":"Point","coordinates":[89462,27550],"id":"feature_013"},{"properties":{"name":"\u6075\u826f","line":"\u4e45\u5927\u7dda","riders":79},"type":"Point","coordinates":[98613,26478],"id":"feature_014"},{"properties":{"name":"\u7b51\u5f8c\u5927\u77f3","line":"\u4e45\u5927\u7dda","riders":200},"type":"Point","coordinates":[68589,37095],"id":"feature_015"},{"properties":{"name":"\u5149\u5ca1","line":"\u4e45\u5927\u7dda","riders":238},"type":"Point","coordinates":[77241,34838],"id":"feature_016"},{"properties":{"name":"\u8c4a\u5f8c\u4e2d\u5ddd","line":"\u4e45\u5927\u7dda","riders":47},"type":"Point","coordinates":[84460,29868],"id":"feature_017"},{"properties":{"name":"\u5929\u30f6\u702c","line":"\u4e45\u5927\u7dda","riders":106},"type":"Point","coordinates":[85966,26455],"id":"feature_018"},{"properties":{"name":"\u8c4a\u5f8c\u68ee","line":"\u4e45\u5927\u7dda","riders":595},"type":"Point","coordinates":[97040,29648],"id":"feature_019"},{"properties":{"name":"\u5f15\u6cbb","line":"\u4e45\u5927\u7dda","riders":76},"type":"Point","coordinates":[99416,23477],"id":"feature_020"},{"properties":{"name":"\u7530\u4e3b\u4e38","line":"\u4e45\u5927\u7dda","riders":1182},"type":"Point","coordinates":[58138,36128],"id":"feature_021"},{"properties":{"name":"\u8c4a\u5f8c\u4e09\u82b3","line":"\u4e45\u5927\u7dda","riders":11},"type":"Point","coordinates":[79893,32339],"id":"feature_022"},{"properties":{"name":"\u5317\u5c71\u7530","line":"\u4e45\u5927\u7dda","riders":97},"type":"Point","coordinates":[92441,29587],"id":"feature_023"},{"properties":{"name":"\u3046\u304d\u306f","line":"\u4e45\u5927\u7dda","riders":507},"type":"Point","coordinates":[66259,35695],"id":"feature_024"},{"properties":{"name":"\u591c\u660e","line":"\u4e45\u5927\u7dda","riders":57},"type":"Point","coordinates":[72731,33916],"id":"feature_025"},{"properties":{"name":"\u5fa1\u4e95","line":"\u4e45\u5927\u7dda","riders":581},"type":"Point","coordinates":[47239,33118],"id":"feature_026"},{"properties":{"name":"\u5357\u4e45\u7559\u7c73","line":"\u4e45\u5927\u7dda","riders":866},"type":"Point","coordinates":[44677,31981],"id":"feature_027"},{"properties":{"name":"\u7b51\u5f8c\u8349\u91ce","line":"\u4e45\u5927\u7dda","riders":240},"type":"Point","coordinates":[53917,34206],"id":"feature_028"},{"properties":{"name":"\u5584\u5c0e\u5bfa","line":"\u4e45\u5927\u7dda","riders":600},"type":"Point","coordinates":[51108,33966],"id":"feature_029"},{"properties":{"name":"\u4e45\u7559\u7c73\u5927\u5b66\u524d","line":"\u4e45\u5927\u7dda","riders":2546},"type":"Point","coordinates":[45975,32903],"id":"feature_030"},{"properties":{"name":"\u4e45\u7559\u7c73","line":"\u4e45\u5927\u7dda","riders":16141},"type":"Point","coordinates":[42092,34047],"id":"feature_031"},{"properties":{"name":"\u8239\u5c3e","line":"\u5f8c\u85e4\u5bfa\u7dda","riders":46},"type":"Point","coordinates":[64436,69701],"id":"feature_032"},{"properties":{"name":"\u4e0a\u4e09\u7dd2","line":"\u5f8c\u85e4\u5bfa\u7dda","riders":117},"type":"Point","coordinates":[59937,68782],"id":"feature_033"},{"properties":{"name":"\u4e0b\u9d28\u751f","line":"\u5f8c\u85e4\u5bfa\u7dda","riders":319},"type":"Point","coordinates":[61152,67919],"id":"feature_034"},{"properties":{"name":"\u7b51\u524d\u5e84\u5185","line":"\u5f8c\u85e4\u5bfa\u7dda","riders":101},"type":"Point","coordinates":[62018,68103],"id":"feature_035"},{"properties":{"name":"\u7530\u5ddd\u5f8c\u85e4\u5bfa","line":"\u5f8c\u85e4\u5bfa\u7dda","riders":1707},"type":"Point","coordinates":[67188,69719],"id":"feature_036"},{"properties":{"name":"\u65b0\u98ef\u585a","line":"\u5f8c\u85e4\u5bfa\u7dda","riders":8986},"type":"Point","coordinates":[58294,71322],"id":"feature_037"},{"properties":{"name":"\u571f\u4e95","line":"\u9999\u690e\u7dda","riders":3108},"type":"Point","coordinates":[39133,70266],"id":"feature_038"},{"properties":{"name":"\u897f\u6238\u5d0e","line":"\u9999\u690e\u7dda","riders":1838},"type":"Point","coordinates":[30058,72055],"id":"feature_039"},{"properties":{"name":"\u9808\u6075","line":"\u9999\u690e\u7dda","riders":1388},"type":"Point","coordinates":[41815,65856],"id":"feature_040"},{"properties":{"name":"\u548c\u767d","line":"\u9999\u690e\u7dda","riders":3272},"type":"Point","coordinates":[36075,76450],"id":"feature_041"},{"properties":{"name":"\u821e\u677e\u539f","line":"\u9999\u690e\u7dda","riders":2080},"type":"Point","coordinates":[38248,71370],"id":"feature_042"},{"properties":{"name":"\u9999\u690e\u795e\u5bae","line":"\u9999\u690e\u7dda","riders":2040},"type":"Point","coordinates":[38004,71942],"id":"feature_043"},{"properties":{"name":"\u65b0\u539f","line":"\u9999\u690e\u7dda","riders":565},"type":"Point","coordinates":[42714,63822],"id":"feature_044"},{"properties":{"name":"\u4f0a\u8cc0","line":"\u9999\u690e\u7dda","riders":1650},"type":"Point","coordinates":[39763,68646],"id":"feature_045"},{"properties":{"name":"\u9152\u6bbf","line":"\u9999\u690e\u7dda","riders":1346},"type":"Point","coordinates":[40829,66523],"id":"feature_046"},{"properties":{"name":"\u9577\u8005\u539f","line":"\u9999\u690e\u7dda","riders":11},"type":"Point","coordinates":[40114,67660],"id":"feature_047"},{"properties":{"name":"\u96c1\u30ce\u5de3","line":"\u9999\u690e\u7dda","riders":800},"type":"Point","coordinates":[33813,75872],"id":"feature_048"},{"properties":{"name":"\u5b87\u7f8e","line":"\u9999\u690e\u7dda","riders":3802},"type":"Point","coordinates":[43104,62676],"id":"feature_049"},{"properties":{"name":"\u9999\u690e","line":"\u9999\u690e\u7dda","riders":11},"type":"Point","coordinates":[37297,73078],"id":"feature_050"},{"properties":{"name":"\u6d77\u30ce\u4e2d\u9053","line":"\u9999\u690e\u7dda","riders":1560},"type":"Point","coordinates":[30343,73609],"id":"feature_051"},{"properties":{"name":"\u9808\u6075\u4e2d\u592e","line":"\u9999\u690e\u7dda","riders":2786},"type":"Point","coordinates":[42400,64783],"id":"feature_052"},{"properties":{"name":"\u5948\u591a","line":"\u9999\u690e\u7dda","riders":2247},"type":"Point","coordinates":[34606,76186],"id":"feature_053"},{"properties":{"name":"\u6c5f\u5317","line":"\u4f50\u4e16\u4fdd\u7dda","riders":2438},"type":"Point","coordinates":[13517,22339],"id":"feature_054"},{"properties":{"name":"\u9ad8\u6a4b","line":"\u4f50\u4e16\u4fdd\u7dda","riders":265},"type":"Point","coordinates":[3546,21071],"id":"feature_055"},{"properties":{"name":"\u5317\u65b9","line":"\u4f50\u4e16\u4fdd\u7dda","riders":223},"type":"Point","coordinates":[6980,22006],"id":"feature_056"},{"properties":{"name":"\u5927\u753a","line":"\u4f50\u4e16\u4fdd\u7dda","riders":481},"type":"Point","coordinates":[8929,21572],"id":"feature_057"},{"properties":{"name":"\u6b66\u96c4\u6e29\u6cc9","line":"\u4f50\u4e16\u4fdd\u7dda","riders":3591},"type":"Point","coordinates":[1958,19756],"id":"feature_058"},{"properties":{"name":"\u516b\u5e61","line":"\u9e7f\u5150\u5cf6\u7dda","riders":13399},"type":"Point","coordinates":[66763,97243],"id":"feature_059"},{"properties":{"name":"\u6298\u5c3e","line":"\u9e7f\u5150\u5cf6\u7dda","riders":11},"type":"Point","coordinates":[60004,96620],"id":"feature_060"},{"properties":{"name":"\u6298\u5c3e","line":"\u9e7f\u5150\u5cf6\u7dda","riders":31523},"type":"Point","coordinates":[59749,96625],"id":"feature_061"},{"properties":{"name":"\u9ed2\u5d0e","line":"\u9e7f\u5150\u5cf6\u7dda","riders":31058},"type":"Point","coordinates":[64362,96971],"id":"feature_062"},{"properties":{"name":"\u6c34\u5dfb","line":"\u9e7f\u5150\u5cf6\u7dda","riders":4241},"type":"Point","coordinates":[58460,95322],"id":"feature_063"},{"properties":{"name":"\u9663\u539f","line":"\u9e7f\u5150\u5cf6\u7dda","riders":4483},"type":"Point","coordinates":[62425,97118],"id":"feature_064"},{"properties":{"name":"\u9663\u539f","line":"\u9e7f\u5150\u5cf6\u7dda","riders":11},"type":"Point","coordinates":[62419,97096],"id":"feature_065"},{"properties":{"name":"\u6d77\u8001\u6d25","line":"\u9e7f\u5150\u5cf6\u7dda","riders":7630},"type":"Point","coordinates":[52350,93879],"id":"feature_066"},{"properties":{"name":"\u7b39\u539f","line":"\u9e7f\u5150\u5cf6\u7dda","riders":11060},"type":"Point","coordinates":[37668,60836],"id":"feature_067"},{"properties":{"name":"\u897f\u725f\u7530","line":"\u9e7f\u5150\u5cf6\u7dda","riders":861},"type":"Point","coordinates":[42062,25468],"id":"feature_068"},{"properties":{"name":"\u8352\u6728","line":"\u9e7f\u5150\u5cf6\u7dda","riders":2886},"type":"Point","coordinates":[42203,28991],"id":"feature_069"},{"properties":{"name":"\u702c\u9ad8","line":"\u9e7f\u5150\u5cf6\u7dda","riders":2276},"type":"Point","coordinates":[40755,15182],"id":"feature_070"},{"properties":{"name":"\u9060\u8cc0\u5ddd","line":"\u9e7f\u5150\u5cf6\u7dda","riders":5098},"type":"Point","coordinates":[56558,94649],"id":"feature_071"},{"properties":{"name":"\u6771\u798f\u9593","line":"\u9e7f\u5150\u5cf6\u7dda","riders":5048},"type":"Point","coordinates":[42876,86250],"id":"feature_072"},{"properties":{"name":"\u5343\u9ce5","line":"\u9e7f\u5150\u5cf6\u7dda","riders":7628},"type":"Point","coordinates":[39991,83393],"id":"feature_073"},{"properties":{"name":"\u5409\u585a","line":"\u9e7f\u5150\u5cf6\u7dda","riders":30410},"type":"Point","coordinates":[35570,67050],"id":"feature_074"},{"properties":{"name":"\u5357\u798f\u5ca1","line":"\u9e7f\u5150\u5cf6\u7dda","riders":20776},"type":"Point","coordinates":[38647,59558],"id":"feature_075"},{"properties":{"name":"\u8d64\u9593","line":"\u9e7f\u5150\u5cf6\u7dda","riders":17975},"type":"Point","coordinates":[47821,90211],"id":"feature_076"},{"properties":{"name":"\u7530\u4ee3","line":"\u9e7f\u5150\u5cf6\u7dda","riders":1162},"type":"Point","coordinates":[44064,41397],"id":"feature_077"},{"properties":{"name":"\u798f\u5de5\u5927\u524d","line":"\u9e7f\u5150\u5cf6\u7dda","riders":23497},"type":"Point","coordinates":[37000,77589],"id":"feature_078"},{"properties":{"name":"\u6c34\u57ce","line":"\u9e7f\u5150\u5cf6\u7dda","riders":4190},"type":"Point","coordinates":[41154,56752],"id":"feature_079"},{"properties":{"name":"\u4e8c\u65e5\u5e02","line":"\u9e7f\u5150\u5cf6\u7dda","riders":15151},"type":"Point","coordinates":[43565,54062],"id":"feature_080"},{"properties":{"name":"\u7fbd\u72ac\u585a","line":"\u9e7f\u5150\u5cf6\u7dda","riders":6030},"type":"Point","coordinates":[41779,21281],"id":"feature_081"},{"properties":{"name":"\u5927\u91ce\u57ce","line":"\u9e7f\u5150\u5cf6\u7dda","riders":16738},"type":"Point","coordinates":[40303,57576],"id":"feature_082"},{"properties":{"name":"\u6625\u65e5","line":"\u9e7f\u5150\u5cf6\u7dda","riders":9437},"type":"Point","coordinates":[39405,58694],"id":"feature_083"},{"properties":{"name":"\u4e5d\u7523\u5927\u524d","line":"\u9e7f\u5150\u5cf6\u7dda","riders":15720},"type":"Point","coordinates":[37035,74715],"id":"feature_084"},{"properties":{"name":"\u80a5\u524d\u65ed","line":"\u9e7f\u5150\u5cf6\u7dda","riders":1480},"type":"Point","coordinates":[41649,37392],"id":"feature_085"},{"properties":{"name":"\u9999\u690e","line":"\u9e7f\u5150\u5cf6\u7dda","riders":25596},"type":"Point","coordinates":[37276,73102],"id":"feature_086"},{"properties":{"name":"\u7af9\u4e0b","line":"\u9e7f\u5150\u5cf6\u7dda","riders":17386},"type":"Point","coordinates":[36237,62608],"id":"feature_087"},{"properties":{"name":"\u6559\u80b2\u5927\u524d","line":"\u9e7f\u5150\u5cf6\u7dda","riders":4835},"type":"Point","coordinates":[49561,90204],"id":"feature_088"},{"properties":{"name":"\u535a\u591a","line":"\u9e7f\u5150\u5cf6\u7dda","riders":253252},"type":"Point","coordinates":[35305,65069],"id":"feature_089"},{"properties":{"name":"\u90fd\u5e9c\u697c\u5357","line":"\u9e7f\u5150\u5cf6\u7dda","riders":2336},"type":"Point","coordinates":[42542,55062],"id":"feature_090"},{"properties":{"name":"\u5343\u65e9","line":"\u9e7f\u5150\u5cf6\u7dda","riders":25730},"type":"Point","coordinates":[36995,71913],"id":"feature_091"},{"properties":{"name":"\u53e4\u8cc0","line":"\u9e7f\u5150\u5cf6\u7dda","riders":13716},"type":"Point","coordinates":[39196,81493],"id":"feature_092"},{"properties":{"name":"\u5f25\u751f\u304c\u4e18","line":"\u9e7f\u5150\u5cf6\u7dda","riders":2448},"type":"Point","coordinates":[44383,43498],"id":"feature_093"},{"properties":{"name":"\u7bb1\u5d0e","line":"\u9e7f\u5150\u5cf6\u7dda","riders":12280},"type":"Point","coordinates":[35808,68298],"id":"feature_094"},{"properties":{"name":"\u3051\u3084\u304d\u53f0","line":"\u9e7f\u5150\u5cf6\u7dda","riders":2636},"type":"Point","coordinates":[44778,47110],"id":"feature_095"},{"properties":{"name":"\u5357\u702c\u9ad8","line":"\u9e7f\u5150\u5cf6\u7dda","riders":451},"type":"Point","coordinates":[39560,12460],"id":"feature_096"},{"properties":{"name":"\u798f\u9593","line":"\u9e7f\u5150\u5cf6\u7dda","riders":18296},"type":"Point","coordinates":[40903,85088],"id":"feature_097"},{"properties":{"name":"\u539f\u7530","line":"\u9e7f\u5150\u5cf6\u7dda","riders":8005},"type":"Point","coordinates":[45280,49143],"id":"feature_098"},{"properties":{"name":"\u6771\u90f7","line":"\u9e7f\u5150\u5cf6\u7dda","riders":10586},"type":"Point","coordinates":[44399,88628],"id":"feature_099"},{"properties":{"name":"\u5929\u62dd\u5c71","line":"\u9e7f\u5150\u5cf6\u7dda","riders":5446},"type":"Point","coordinates":[44545,52581],"id":"feature_100"},{"properties":{"name":"\u9ce5\u6816","line":"\u9e7f\u5150\u5cf6\u7dda","riders":14397},"type":"Point","coordinates":[43643,40209],"id":"feature_101"},{"properties":{"name":"\u6e21\u702c","line":"\u9e7f\u5150\u5cf6\u7dda","riders":512},"type":"Point","coordinates":[38626,8565],"id":"feature_102"},{"properties":{"name":"\u5409\u91ce","line":"\u9e7f\u5150\u5cf6\u7dda","riders":1017},"type":"Point","coordinates":[39155,5797],"id":"feature_103"},{"properties":{"name":"\u9280\u6c34","line":"\u9e7f\u5150\u5cf6\u7dda","riders":1255},"type":"Point","coordinates":[38694,3422],"id":"feature_104"},{"properties":{"name":"\u5927\u725f\u7530","line":"\u9e7f\u5150\u5cf6\u7dda","riders":5674},"type":"Point","coordinates":[37261,482],"id":"feature_105"},{"properties":{"name":"\u539f\u753a","line":"\u7be0\u6817\u7dda","riders":3036},"type":"Point","coordinates":[39558,67586],"id":"feature_106"},{"properties":{"name":"\u7be0\u6817","line":"\u7be0\u6817\u7dda","riders":9948},"type":"Point","coordinates":[43996,68977],"id":"feature_107"},{"properties":{"name":"\u7b51\u524d\u5c71\u624b","line":"\u7be0\u6817\u7dda","riders":57},"type":"Point","coordinates":[46782,68779],"id":"feature_108"},{"properties":{"name":"\u4e5d\u90ce\u539f","line":"\u7be0\u6817\u7dda","riders":17},"type":"Point","coordinates":[51418,65348],"id":"feature_109"},{"properties":{"name":"\u9577\u8005\u539f","line":"\u7be0\u6817\u7dda","riders":8136},"type":"Point","coordinates":[40151,67813],"id":"feature_110"},{"properties":{"name":"\u7b51\u524d\u5927\u5206","line":"\u7be0\u6817\u7dda","riders":1389},"type":"Point","coordinates":[52880,65086],"id":"feature_111"},{"properties":{"name":"\u67da\u9808","line":"\u7be0\u6817\u7dda","riders":8444},"type":"Point","coordinates":[37287,67757],"id":"feature_112"},{"properties":{"name":"\u57ce\u6238\u5357\u8535\u9662\u524d","line":"\u7be0\u6817\u7dda","riders":606},"type":"Point","coordinates":[48031,68290],"id":"feature_113"},{"properties":{"name":"\u9580\u677e","line":"\u7be0\u6817\u7dda","riders":2764},"type":"Point","coordinates":[41637,68582],"id":"feature_114"},{"properties":{"name":"\u6842\u5ddd","line":"\u7be0\u6817\u7dda","riders":3720},"type":"Point","coordinates":[55628,64452],"id":"feature_115"},{"properties":{"name":"\u4e5d\u5927\u5b66\u7814\u90fd\u5e02","line":"\u7b51\u80a5\u7dda","riders":19320},"type":"Point","coordinates":[21693,63686],"id":"feature_116"},{"properties":{"name":"\u6ce2\u591a\u6c5f","line":"\u7b51\u80a5\u7dda","riders":6139},"type":"Point","coordinates":[18995,62046],"id":"feature_117"},{"properties":{"name":"\u4eca\u5bbf","line":"\u7b51\u80a5\u7dda","riders":10957},"type":"Point","coordinates":[23013,63834],"id":"feature_118"},{"properties":{"name":"\u5468\u8239\u5bfa","line":"\u7b51\u80a5\u7dda","riders":10452},"type":"Point","coordinates":[20680,62849],"id":"feature_119"},{"properties":{"name":"\u4e0b\u5c71\u9580","line":"\u7b51\u80a5\u7dda","riders":5792},"type":"Point","coordinates":[25853,64115],"id":"feature_120"},{"properties":{"name":"\u59ea\u6d5c","line":"\u7b51\u80a5\u7dda","riders":99913},"type":"Point","coordinates":[27285,64329],"id":"feature_121"},{"properties":{"name":"\u798f\u5409","line":"\u7b51\u80a5\u7dda","riders":850},"type":"Point","coordinates":[6741,54890],"id":"feature_122"},{"properties":{"name":"\u7f8e\u54b2\u304c\u4e18","line":"\u7b51\u80a5\u7dda","riders":2062},"type":"Point","coordinates":[15591,60480],"id":"feature_123"},{"properties":{"name":"\u8679\u30ce\u677e\u539f","line":"\u7b51\u80a5\u7dda","riders":344},"type":"Point","coordinates":[1358,47902],"id":"feature_124"},{"properties":{"name":"\u9e7f\u5bb6","line":"\u7b51\u80a5\u7dda","riders":124},"type":"Point","coordinates":[4012,52904],"id":"feature_125"},{"properties":{"name":"\u52a0\u5e03\u91cc","line":"\u7b51\u80a5\u7dda","riders":1328},"type":"Point","coordinates":[14833,59748],"id":"feature_126"},{"properties":{"name":"\u5927\u5165","line":"\u7b51\u80a5\u7dda","riders":257},"type":"Point","coordinates":[8854,55715],"id":"feature_127"},{"properties":{"name":"\u7b51\u524d\u524d\u539f","line":"\u7b51\u80a5\u7dda","riders":15118},"type":"Point","coordinates":[16714,61268],"id":"feature_128"},{"properties":{"name":"\u4e00\u8cb4\u5c71","line":"\u7b51\u80a5\u7dda","riders":920},"type":"Point","coordinates":[14123,58653],"id":"feature_129"},{"properties":{"name":"\u80a5\u524d\u4e45\u4fdd","line":"\u7b51\u80a5\u7dda","riders":45},"type":"Point","coordinates":[0,38078],"id":"feature_130"},{"properties":{"name":"\u6d5c\u5d0e","line":"\u7b51\u80a5\u7dda","riders":1271},"type":"Point","coordinates":[3121,48581],"id":"feature_131"},{"properties":{"name":"\u7b51\u524d\u6df1\u6c5f","line":"\u7b51\u80a5\u7dda","riders":1804},"type":"Point","coordinates":[11728,56478],"id":"feature_132"},{"properties":{"name":"\u6298\u5c3e","line":"\u7b51\u8c4a\u7dda","riders":11},"type":"Point","coordinates":[59807,96621],"id":"feature_133"},{"properties":{"name":"\u7b51\u524d\u57a3\u751f","line":"\u7b51\u8c4a\u7dda","riders":815},"type":"Point","coordinates":[58971,91387],"id":"feature_134"},{"properties":{"name":"\u672c\u57ce","line":"\u7b51\u8c4a\u7dda","riders":2318},"type":"Point","coordinates":[60703,97909],"id":"feature_135"},{"properties":{"name":"\u85e4\u30ce\u6728","line":"\u7b51\u8c4a\u7dda","riders":477},"type":"Point","coordinates":[65648,99999],"id":"feature_136"},{"properties":{"name":"\u4e2d\u9593","line":"\u7b51\u8c4a\u7dda","riders":3463},"type":"Point","coordinates":[59558,92461],"id":"feature_137"},{"properties":{"name":"\u5965\u6d1e\u6d77","line":"\u7b51\u8c4a\u7dda","riders":688},"type":"Point","coordinates":[64154,99506],"id":"feature_138"},{"properties":{"name":"\u6771\u6c34\u5dfb","line":"\u7b51\u8c4a\u7dda","riders":820},"type":"Point","coordinates":[59458,93889],"id":"feature_139"},{"properties":{"name":"\u6771\u6c34\u5dfb","line":"\u7b51\u8c4a\u7dda","riders":11},"type":"Point","coordinates":[59446,93891],"id":"feature_140"},{"properties":{"name":"\u978d\u624b","line":"\u7b51\u8c4a\u7dda","riders":1437},"type":"Point","coordinates":[58723,89037],"id":"feature_141"},{"properties":{"name":"\u4e8c\u5cf6","line":"\u7b51\u8c4a\u7dda","riders":2647},"type":"Point","coordinates":[62870,99567],"id":"feature_142"},{"properties":{"name":"\u98ef\u585a","line":"\u7b51\u8c4a\u7dda","riders":2252},"type":"Point","coordinates":[57896,69501],"id":"feature_143"},{"properties":{"name":"\u52dd\u91ce","line":"\u7b51\u8c4a\u7dda","riders":105},"type":"Point","coordinates":[60116,81007],"id":"feature_144"},{"properties":{"name":"\u9bf0\u7530","line":"\u7b51\u8c4a\u7dda","riders":722},"type":"Point","coordinates":[59034,74208],"id":"feature_145"},{"properties":{"name":"\u6d66\u7530","line":"\u7b51\u8c4a\u7dda","riders":524},"type":"Point","coordinates":[58714,72646],"id":"feature_146"},{"properties":{"name":"\u76f4\u65b9","line":"\u7b51\u8c4a\u7dda","riders":6704},"type":"Point","coordinates":[60829,83344],"id":"feature_147"},{"properties":{"name":"\u65b0\u5165","line":"\u7b51\u8c4a\u7dda","riders":758},"type":"Point","coordinates":[59965,85044],"id":"feature_148"},{"properties":{"name":"\u7b51\u524d\u690d\u6728","line":"\u7b51\u8c4a\u7dda","riders":1092},"type":"Point","coordinates":[59447,86622],"id":"feature_149"},{"properties":{"name":"\u5c0f\u7af9","line":"\u7b51\u8c4a\u7dda","riders":1389},"type":"Point","coordinates":[59639,77420],"id":"feature_150"},{"properties":{"name":"\u7b51\u524d\u5185\u91ce","line":"\u7b51\u8c4a\u7dda","riders":18},"type":"Point","coordinates":[53575,59303],"id":"feature_151"},{"properties":{"name":"\u4e0a\u7a42\u6ce2","line":"\u7b51\u8c4a\u7dda","riders":46},"type":"Point","coordinates":[54176,62410],"id":"feature_152"},{"properties":{"name":"\u7b51\u524d\u5c71\u5bb6","line":"\u7b51\u8c4a\u7dda","riders":35},"type":"Point","coordinates":[48199,52093],"id":"feature_153"},{"properties":{"name":"\u5929\u9053","line":"\u7b51\u8c4a\u7dda","riders":1130},"type":"Point","coordinates":[56913,66838],"id":"feature_154"},{"properties":{"name":"\u5409\u91ce\u30f6\u91cc\u516c\u5712","line":"\u9577\u5d0e\u7dda","riders":2672},"type":"Point","coordinates":[33483,34490],"id":"feature_155"},{"properties":{"name":"\u80a5\u524d\u9e93","line":"\u9577\u5d0e\u7dda","riders":1105},"type":"Point","coordinates":[40089,39241],"id":"feature_156"},{"properties":{"name":"\u4e2d\u539f","line":"\u9577\u5d0e\u7dda","riders":2110},"type":"Point","coordinates":[36948,36991],"id":"feature_157"},{"properties":{"name":"\u4f0a\u8cc0\u5c4b","line":"\u9577\u5d0e\u7dda","riders":538},"type":"Point","coordinates":[28275,30536],"id":"feature_158"},{"properties":{"name":"\u795e\u57fc","line":"\u9577\u5d0e\u7dda","riders":3288},"type":"Point","coordinates":[31473,33497],"id":"feature_159"},{"properties":{"name":"\u4e45\u4fdd\u7530","line":"\u9577\u5d0e\u7dda","riders":1274},"type":"Point","coordinates":[19254,26553],"id":"feature_160"},{"properties":{"name":"\u4f50\u8cc0","line":"\u9577\u5d0e\u7dda","riders":25211},"type":"Point","coordinates":[24960,27525],"id":"feature_161"},{"properties":{"name":"\u934b\u5cf6","line":"\u9577\u5d0e\u7dda","riders":1266},"type":"Point","coordinates":[22300,26940],"id":"feature_162"},{"properties":{"name":"\u725b\u6d25","line":"\u9577\u5d0e\u7dda","riders":1539},"type":"Point","coordinates":[16895,25648],"id":"feature_163"},{"properties":{"name":"\u80a5\u524d\u7adc\u738b","line":"\u9577\u5d0e\u7dda","riders":334},"type":"Point","coordinates":[10098,13984],"id":"feature_164"},{"properties":{"name":"\u80a5\u524d\u767d\u77f3","line":"\u9577\u5d0e\u7dda","riders":1439},"type":"Point","coordinates":[11400,18632],"id":"feature_165"},{"properties":{"name":"\u80a5\u524d\u4e03\u6d66","line":"\u9577\u5d0e\u7dda","riders":58},"type":"Point","coordinates":[12186,5260],"id":"feature_166"},{"properties":{"name":"\u591a\u826f","line":"\u9577\u5d0e\u7dda","riders":561},"type":"Point","coordinates":[14777,0],"id":"feature_167"},{"properties":{"name":"\u80a5\u524d\u98ef\u7530","line":"\u9577\u5d0e\u7dda","riders":88},"type":"Point","coordinates":[13321,3513],"id":"feature_168"},{"properties":{"name":"\u80a5\u524d\u6d5c","line":"\u9577\u5d0e\u7dda","riders":376},"type":"Point","coordinates":[9795,8088],"id":"feature_169"},{"properties":{"name":"\u80a5\u524d\u9e7f\u5cf6","line":"\u9577\u5d0e\u7dda","riders":2449},"type":"Point","coordinates":[8221,10159],"id":"feature_170"},{"properties":{"name":"\u76f8\u77e5","line":"\u5510\u6d25\u7dda","riders":452},"type":"Point","coordinates":[1645,37067],"id":"feature_171"},{"properties":{"name":"\u5ca9\u5c4b","line":"\u5510\u6d25\u7dda","riders":174},"type":"Point","coordinates":[3221,35207],"id":"feature_172"},{"properties":{"name":"\u591a\u4e45","line":"\u5510\u6d25\u7dda","riders":682},"type":"Point","coordinates":[8073,30320],"id":"feature_173"},{"properties":{"name":"\u5c0f\u57ce","line":"\u5510\u6d25\u7dda","riders":2100},"type":"Point","coordinates":[16705,29988],"id":"feature_174"},{"properties":{"name":"\u4e2d\u591a\u4e45","line":"\u5510\u6d25\u7dda","riders":837},"type":"Point","coordinates":[9417,29738],"id":"feature_175"},{"properties":{"name":"\u53b3\u6728","line":"\u5510\u6d25\u7dda","riders":542},"type":"Point","coordinates":[5051,34354],"id":"feature_176"},{"properties":{"name":"\u6771\u591a\u4e45","line":"\u5510\u6d25\u7dda","riders":367},"type":"Point","coordinates":[12011,29977],"id":"feature_177"},{"properties":{"name":"\u5b9d\u73e0\u5c71","line":"\u65e5\u7530\u5f66\u5c71\u7dda","riders":15},"type":"Point","coordinates":[73844,40742],"id":"feature_178"},{"properties":{"name":"\u6c60\u5c3b","line":"\u65e5\u7530\u5f66\u5c71\u7dda","riders":121},"type":"Point","coordinates":[67658,67720],"id":"feature_179"},{"properties":{"name":"\u5927\u9db4","line":"\u65e5\u7530\u5f66\u5c71\u7dda","riders":27},"type":"Point","coordinates":[74349,39375],"id":"feature_180"},{"properties":{"name":"\u897f\u6dfb\u7530","line":"\u65e5\u7530\u5f66\u5c71\u7dda","riders":144},"type":"Point","coordinates":[71130,63153],"id":"feature_181"},{"properties":{"name":"\u6dfb\u7530","line":"\u65e5\u7530\u5f66\u5c71\u7dda","riders":265},"type":"Point","coordinates":[71917,62456],"id":"feature_182"},{"properties":{"name":"\u4e00\u672c\u677e","line":"\u65e5\u7530\u5f66\u5c71\u7dda","riders":685},"type":"Point","coordinates":[70152,72674],"id":"feature_183"},{"properties":{"name":"\u8c4a\u524d\u5ddd\u5d0e","line":"\u65e5\u7530\u5f66\u5c71\u7dda","riders":418},"type":"Point","coordinates":[69027,65845],"id":"feature_184"},{"properties":{"name":"\u9999\u6625","line":"\u65e5\u7530\u5f66\u5c71\u7dda","riders":572},"type":"Point","coordinates":[71109,73818],"id":"feature_185"},{"properties":{"name":"\u4eca\u5c71","line":"\u65e5\u7530\u5f66\u5c71\u7dda","riders":16},"type":"Point","coordinates":[73631,36860],"id":"feature_186"},{"properties":{"name":"\u8c4a\u524d\u685d\u7530","line":"\u65e5\u7530\u5f66\u5c71\u7dda","riders":25},"type":"Point","coordinates":[72397,58824],"id":"feature_187"},{"properties":{"name":"\u7b51\u524d\u5ca9\u5c4b","line":"\u65e5\u7530\u5f66\u5c71\u7dda","riders":17},"type":"Point","coordinates":[74019,46725],"id":"feature_188"},{"properties":{"name":"\u5f66\u5c71","line":"\u65e5\u7530\u5f66\u5c71\u7dda","riders":16},"type":"Point","coordinates":[72968,54784],"id":"feature_189"},{"properties":{"name":"\u5927\u884c\u53f8","line":"\u65e5\u7530\u5f66\u5c71\u7dda","riders":41},"type":"Point","coordinates":[73447,42822],"id":"feature_190"},{"properties":{"name":"\u7530\u5ddd\u4f0a\u7530","line":"\u65e5\u7530\u5f66\u5c71\u7dda","riders":1299},"type":"Point","coordinates":[68670,71078],"id":"feature_191"},{"properties":{"name":"\u5b87\u5cf6","line":"\u65e5\u8c4a\u7dda","riders":3476},"type":"Point","coordinates":[94587,68674],"id":"feature_192"},{"properties":{"name":"\u8c4a\u524d\u677e\u6c5f","line":"\u65e5\u8c4a\u7dda","riders":465},"type":"Point","coordinates":[91975,68806],"id":"feature_193"},{"properties":{"name":"\u65b0\u7530\u539f","line":"\u65e5\u8c4a\u7dda","riders":1817},"type":"Point","coordinates":[84665,77181],"id":"feature_194"},{"properties":{"name":"\u7bc9\u57ce","line":"\u65e5\u8c4a\u7dda","riders":1508},"type":"Point","coordinates":[87154,74642],"id":"feature_195"},{"properties":{"name":"\u4e2d\u6d25","line":"\u65e5\u8c4a\u7dda","riders":6068},"type":"Point","coordinates":[99999,66128],"id":"feature_196"},{"properties":{"name":"\u690e\u7530","line":"\u65e5\u8c4a\u7dda","riders":1720},"type":"Point","coordinates":[88829,72378],"id":"feature_197"},{"properties":{"name":"\u4e09\u6bdb\u9580","line":"\u65e5\u8c4a\u7dda","riders":357},"type":"Point","coordinates":[97163,67875],"id":"feature_198"},{"properties":{"name":"\u5409\u5bcc","line":"\u65e5\u8c4a\u7dda","riders":718},"type":"Point","coordinates":[98538,66788],"id":"feature_199"},{"properties":{"name":"\u5bae\u306e\u9663","line":"\u7518\u6728\u7dda","riders":12},"type":"Point","coordinates":[44561,34996],"id":"feature_200"},{"properties":{"name":"\u5927\u5830","line":"\u7518\u6728\u7dda","riders":396},"type":"Point","coordinates":[52395,39979],"id":"feature_201"},{"properties":{"name":"\u53e4\u8cc0\u8336\u5c4b","line":"\u7518\u6728\u7dda","riders":647},"type":"Point","coordinates":[47602,36680],"id":"feature_202"},{"properties":{"name":"\u99ac\u7530","line":"\u7518\u6728\u7dda","riders":123},"type":"Point","coordinates":[53790,44048],"id":"feature_203"},{"properties":{"name":"\u5b66\u6821\u524d","line":"\u7518\u6728\u7dda","riders":368},"type":"Point","coordinates":[45965,35840],"id":"feature_204"},{"properties":{"name":"\u4e0a\u6d66","line":"\u7518\u6728\u7dda","riders":159},"type":"Point","coordinates":[53494,43031],"id":"feature_205"},{"properties":{"name":"\u4e94\u90ce\u4e38","line":"\u7518\u6728\u7dda","riders":756},"type":"Point","coordinates":[45331,35169],"id":"feature_206"},{"properties":{"name":"\u672c\u90f7","line":"\u7518\u6728\u7dda","riders":423},"type":"Point","coordinates":[52796,41433],"id":"feature_207"},{"properties":{"name":"\u91d1\u5cf6","line":"\u7518\u6728\u7dda","riders":763},"type":"Point","coordinates":[52314,37792],"id":"feature_208"},{"properties":{"name":"\u7518\u6728","line":"\u7518\u6728\u7dda","riders":1496},"type":"Point","coordinates":[54976,45283],"id":"feature_209"},{"properties":{"name":"\u5927\u57ce","line":"\u7518\u6728\u7dda","riders":759},"type":"Point","coordinates":[51031,37533],"id":"feature_210"},{"properties":{"name":"\u5317\u91ce","line":"\u7518\u6728\u7dda","riders":1762},"type":"Point","coordinates":[48928,36886],"id":"feature_211"},{"properties":{"name":"\u8c9d\u585a","line":"\u8c9d\u585a\u7dda","riders":22249},"type":"Point","coordinates":[35730,69920],"id":"feature_212"},{"properties":{"name":"\u9999\u690e\u82b1\u5712\u524d","line":"\u8c9d\u585a\u7dda","riders":3340},"type":"Point","coordinates":[36484,74287],"id":"feature_213"},{"properties":{"name":"\u897f\u9244\u65b0\u5bae","line":"\u8c9d\u585a\u7dda","riders":1428},"type":"Point","coordinates":[36665,79351],"id":"feature_214"},{"properties":{"name":"\u548c\u767d","line":"\u8c9d\u585a\u7dda","riders":2270},"type":"Point","coordinates":[36070,76411],"id":"feature_215"},{"properties":{"name":"\u5510\u306e\u539f","line":"\u8c9d\u585a\u7dda","riders":1134},"type":"Point","coordinates":[36474,75480],"id":"feature_216"},{"properties":{"name":"\u9999\u690e\u5bae\u524d","line":"\u8c9d\u585a\u7dda","riders":2442},"type":"Point","coordinates":[37157,72571],"id":"feature_217"},{"properties":{"name":"\u4e09\u82eb","line":"\u8c9d\u585a\u7dda","riders":3574},"type":"Point","coordinates":[35471,78051],"id":"feature_218"},{"properties":{"name":"\u897f\u9244\u9999\u690e","line":"\u8c9d\u585a\u7dda","riders":4108},"type":"Point","coordinates":[37056,73151],"id":"feature_219"},{"properties":{"name":"\u897f\u9244\u5343\u65e9","line":"\u8c9d\u585a\u7dda","riders":6296},"type":"Point","coordinates":[36972,71925],"id":"feature_220"},{"properties":{"name":"\u540d\u5cf6","line":"\u8c9d\u585a\u7dda","riders":3294},"type":"Point","coordinates":[36240,71120],"id":"feature_221"},{"properties":{"name":"\u897f\u9244\u4e8c\u65e5\u5e02","line":"\u592a\u5bb0\u5e9c\u7dda","riders":23182},"type":"Point","coordinates":[43478,54947],"id":"feature_222"},{"properties":{"name":"\u592a\u5bb0\u5e9c","line":"\u592a\u5bb0\u5e9c\u7dda","riders":12139},"type":"Point","coordinates":[44597,56813],"id":"feature_223"},{"properties":{"name":"\u897f\u9244\u4e94\u6761","line":"\u592a\u5bb0\u5e9c\u7dda","riders":6351},"type":"Point","coordinates":[44166,55973],"id":"feature_224"},{"properties":{"name":"\u5473\u5742","line":"\u5929\u795e\u5927\u725f\u7530\u7dda","riders":248},"type":"Point","coordinates":[45385,37760],"id":"feature_225"},{"properties":{"name":"\u84b2\u6c60","line":"\u5929\u795e\u5927\u725f\u7530\u7dda","riders":439},"type":"Point","coordinates":[35499,18978],"id":"feature_226"},{"properties":{"name":"\u6625\u65e5\u539f","line":"\u5929\u795e\u5927\u725f\u7530\u7dda","riders":22379},"type":"Point","coordinates":[39718,59072],"id":"feature_227"},{"properties":{"name":"\u7aef\u9593","line":"\u5929\u795e\u5927\u725f\u7530\u7dda","riders":1760},"type":"Point","coordinates":[46244,40741],"id":"feature_228"},{"properties":{"name":"\u897f\u9244\u4e2d\u5cf6","line":"\u5929\u795e\u5927\u725f\u7530\u7dda","riders":986},"type":"Point","coordinates":[36944,11210],"id":"feature_229"},{"properties":{"name":"\u4e09\u56fd\u304c\u4e18","line":"\u5929\u795e\u5927\u725f\u7530\u7dda","riders":5980},"type":"Point","coordinates":[47282,47405],"id":"feature_230"},{"properties":{"name":"\u5b89\u6b66","line":"\u5929\u795e\u5927\u725f\u7530\u7dda","riders":1075},"type":"Point","coordinates":[41081,30108],"id":"feature_231"},{"properties":{"name":"\u897f\u9244\u67f3\u5ddd","line":"\u5929\u795e\u5927\u725f\u7530\u7dda","riders":11853},"type":"Point","coordinates":[35195,16118],"id":"feature_232"},{"properties":{"name":"\u5fb3\u76ca","line":"\u5929\u795e\u5927\u725f\u7530\u7dda","riders":250},"type":"Point","coordinates":[35810,15004],"id":"feature_233"},{"properties":{"name":"\u90fd\u5e9c\u697c\u524d","line":"\u5929\u795e\u5927\u725f\u7530\u7dda","riders":7163},"type":"Point","coordinates":[42649,56041],"id":"feature_234"},{"properties":{"name":"\u5927\u4fdd","line":"\u5929\u795e\u5927\u725f\u7530\u7dda","riders":2915},"type":"Point","coordinates":[46857,44499],"id":"feature_235"},{"properties":{"name":"\u96d1\u9909\u9688","line":"\u5929\u795e\u5927\u725f\u7530\u7dda","riders":16089},"type":"Point","coordinates":[38816,60146],"id":"feature_236"},{"properties":{"name":"\u5927\u6a4b","line":"\u5929\u795e\u5927\u725f\u7530\u7dda","riders":39102},"type":"Point","coordinates":[35830,61508],"id":"feature_237"},{"properties":{"name":"\u8a66\u9a13\u5834\u524d","line":"\u5929\u795e\u5927\u725f\u7530\u7dda","riders":3118},"type":"Point","coordinates":[42809,31889],"id":"feature_238"},{"properties":{"name":"\u7b51\u7d2b","line":"\u5929\u795e\u5927\u725f\u7530\u7dda","riders":6821},"type":"Point","coordinates":[46424,50415],"id":"feature_239"},{"properties":{"name":"\u4e0b\u5927\u5229","line":"\u5929\u795e\u5927\u725f\u7530\u7dda","riders":15962},"type":"Point","coordinates":[41069,57291],"id":"feature_240"},{"properties":{"name":"\u4e09\u6f74","line":"\u5929\u795e\u5927\u725f\u7530\u7dda","riders":918},"type":"Point","coordinates":[39413,26593],"id":"feature_241"},{"properties":{"name":"\u897f\u9244\u5c0f\u90e1","line":"\u5929\u795e\u5927\u725f\u7530\u7dda","riders":11926},"type":"Point","coordinates":[46482,42761],"id":"feature_242"},{"properties":{"name":"\u516b\u4e01\u725f\u7530","line":"\u5929\u795e\u5927\u725f\u7530\u7dda","riders":1295},"type":"Point","coordinates":[36730,21159],"id":"feature_243"},{"properties":{"name":"\u5927\u5584\u5bfa","line":"\u5929\u795e\u5927\u725f\u7530\u7dda","riders":3631},"type":"Point","coordinates":[39798,28253],"id":"feature_244"},{"properties":{"name":"\u897f\u9244\u5e73\u5c3e","line":"\u5929\u795e\u5927\u725f\u7530\u7dda","riders":13580},"type":"Point","coordinates":[34109,63202],"id":"feature_245"},{"properties":{"name":"\u85ac\u9662","line":"\u5929\u795e\u5927\u725f\u7530\u7dda","riders":42239},"type":"Point","coordinates":[33731,64137],"id":"feature_246"},{"properties":{"name":"\u4e95\u5c3b","line":"\u5929\u795e\u5927\u725f\u7530\u7dda","riders":23881},"type":"Point","coordinates":[37191,60716],"id":"feature_247"},{"properties":{"name":"\u897f\u9244\u4e45\u7559\u7c73","line":"\u5929\u795e\u5927\u725f\u7530\u7dda","riders":36495},"type":"Point","coordinates":[43744,33071],"id":"feature_248"},{"properties":{"name":"\u6d25\u798f","line":"\u5929\u795e\u5927\u725f\u7530\u7dda","riders":2647},"type":"Point","coordinates":[41786,31255],"id":"feature_249"},{"properties":{"name":"\u897f\u9244\u798f\u5ca1\uff08\u5929\u795e\uff09","line":"\u5929\u795e\u5927\u725f\u7530\u7dda","riders":136277},"type":"Point","coordinates":[33527,65014],"id":"feature_250"},{"properties":{"name":"\u4e09\u6ca2","line":"\u5929\u795e\u5927\u725f\u7530\u7dda","riders":2108},"type":"Point","coordinates":[47046,45807],"id":"feature_251"},{"properties":{"name":"\u77e2\u52a0\u90e8","line":"\u5929\u795e\u5927\u725f\u7530\u7dda","riders":190},"type":"Point","coordinates":[34912,17126],"id":"feature_252"},{"properties":{"name":"\u6d25\u53e4","line":"\u5929\u795e\u5927\u725f\u7530\u7dda","riders":3015},"type":"Point","coordinates":[47483,48529],"id":"feature_253"},{"properties":{"name":"\u9ad8\u5bae","line":"\u5929\u795e\u5927\u725f\u7530\u7dda","riders":21252},"type":"Point","coordinates":[34839,62404],"id":"feature_254"},{"properties":{"name":"\u82b1\u7551","line":"\u5929\u795e\u5927\u725f\u7530\u7dda","riders":7791},"type":"Point","coordinates":[43240,32333],"id":"feature_255"},{"properties":{"name":"\u6adb\u539f","line":"\u5929\u795e\u5927\u725f\u7530\u7dda","riders":1082},"type":"Point","coordinates":[44020,33905],"id":"feature_256"},{"properties":{"name":"\u5bae\u306e\u9663","line":"\u5929\u795e\u5927\u725f\u7530\u7dda","riders":2335},"type":"Point","coordinates":[44574,35040],"id":"feature_257"},{"properties":{"name":"\u5927\u6e9d","line":"\u5929\u795e\u5927\u725f\u7530\u7dda","riders":1048},"type":"Point","coordinates":[37760,23241],"id":"feature_258"},{"properties":{"name":"\u5869\u585a","line":"\u5929\u795e\u5927\u725f\u7530\u7dda","riders":558},"type":"Point","coordinates":[36197,13681],"id":"feature_259"},{"properties":{"name":"\u767d\u6728\u539f","line":"\u5929\u795e\u5927\u725f\u7530\u7dda","riders":9814},"type":"Point","coordinates":[40533,57992],"id":"feature_260"},{"properties":{"name":"\u671d\u5009\u8857\u9053","line":"\u5929\u795e\u5927\u725f\u7530\u7dda","riders":13317},"type":"Point","coordinates":[44714,52860],"id":"feature_261"},{"properties":{"name":"\u685c\u53f0","line":"\u5929\u795e\u5927\u725f\u7530\u7dda","riders":2226},"type":"Point","coordinates":[45539,51429],"id":"feature_262"},{"properties":{"name":"\u72ac\u585a","line":"\u5929\u795e\u5927\u725f\u7530\u7dda","riders":1083},"type":"Point","coordinates":[38859,25589],"id":"feature_263"},{"properties":{"name":"\u897f\u9244\u6e21\u702c","line":"\u5929\u795e\u5927\u725f\u7530\u7dda","riders":398},"type":"Point","coordinates":[38517,7086],"id":"feature_264"},{"properties":{"name":"\u5009\u6c38","line":"\u5929\u795e\u5927\u725f\u7530\u7dda","riders":1296},"type":"Point","coordinates":[38936,5376],"id":"feature_265"},{"properties":{"name":"\u897f\u9244\u9280\u6c34","line":"\u5929\u795e\u5927\u725f\u7530\u7dda","riders":830},"type":"Point","coordinates":[38464,2967],"id":"feature_266"},{"properties":{"name":"\u5927\u725f\u7530","line":"\u5929\u795e\u5927\u725f\u7530\u7dda","riders":8860},"type":"Point","coordinates":[37248,569],"id":"feature_267"},{"properties":{"name":"\u958b","line":"\u5929\u795e\u5927\u725f\u7530\u7dda","riders":685},"type":"Point","coordinates":[38036,8303],"id":"feature_268"},{"properties":{"name":"\u65b0\u6804\u753a","line":"\u5929\u795e\u5927\u725f\u7530\u7dda","riders":4678},"type":"Point","coordinates":[37769,1523],"id":"feature_269"},{"properties":{"name":"\u6c5f\u306e\u6d66","line":"\u5929\u795e\u5927\u725f\u7530\u7dda","riders":337},"type":"Point","coordinates":[37493,9652],"id":"feature_270"},{"properties":{"name":"\u6771\u7518\u6728","line":"\u5929\u795e\u5927\u725f\u7530\u7dda","riders":586},"type":"Point","coordinates":[38974,4264],"id":"feature_271"},{"properties":{"name":"\u535a\u591a","line":"\u5c71\u967d\u65b0\u5e79\u7dda","riders":45912},"type":"Point","coordinates":[35357,65020],"id":"feature_272"},{"properties":{"name":"\u535a\u591a\u5357","line":"\u535a\u591a\u5357\u7dda","riders":16096},"type":"Point","coordinates":[36677,56769],"id":"feature_273"},{"properties":{"name":"\u7b51\u8c4a\u9999\u6708","line":"\u7b51\u8c4a\u96fb\u6c17\u9244\u9053\u7dda","riders":715},"type":"Point","coordinates":[60370,89209],"id":"feature_274"},{"properties":{"name":"\u5e0c\u671b\u304c\u4e18\u9ad8\u6821\u524d","line":"\u7b51\u8c4a\u96fb\u6c17\u9244\u9053\u7dda","riders":1096},"type":"Point","coordinates":[59740,90242],"id":"feature_275"},{"properties":{"name":"\u9ed2\u5d0e\u99c5\u524d","line":"\u7b51\u8c4a\u96fb\u6c17\u9244\u9053\u7dda","riders":8850},"type":"Point","coordinates":[64249,96910],"id":"feature_276"},{"properties":{"name":"\u7b51\u8c4a\u4e2d\u9593","line":"\u7b51\u8c4a\u96fb\u6c17\u9244\u9053\u7dda","riders":1023},"type":"Point","coordinates":[60187,91211],"id":"feature_277"},{"properties":{"name":"\u6771\u4e2d\u9593","line":"\u7b51\u8c4a\u96fb\u6c17\u9244\u9053\u7dda","riders":751},"type":"Point","coordinates":[60609,91622],"id":"feature_278"},{"properties":{"name":"\u4eca\u6c60","line":"\u7b51\u8c4a\u96fb\u6c17\u9244\u9053\u7dda","riders":1674},"type":"Point","coordinates":[62111,94510],"id":"feature_279"},{"properties":{"name":"\u4e09\u30f6\u68ee","line":"\u7b51\u8c4a\u96fb\u6c17\u9244\u9053\u7dda","riders":2645},"type":"Point","coordinates":[61803,93280],"id":"feature_280"},{"properties":{"name":"\u68ee\u4e0b","line":"\u7b51\u8c4a\u96fb\u6c17\u9244\u9053\u7dda","riders":550},"type":"Point","coordinates":[62220,95476],"id":"feature_281"},{"properties":{"name":"\u6c38\u72ac\u4e38","line":"\u7b51\u8c4a\u96fb\u6c17\u9244\u9053\u7dda","riders":1493},"type":"Point","coordinates":[61975,93740],"id":"feature_282"},{"properties":{"name":"\u718a\u897f","line":"\u7b51\u8c4a\u96fb\u6c17\u9244\u9053\u7dda","riders":686},"type":"Point","coordinates":[63643,96881],"id":"feature_283"},{"properties":{"name":"\u897f\u9ed2\u5d0e","line":"\u7b51\u8c4a\u96fb\u6c17\u9244\u9053\u7dda","riders":155},"type":"Point","coordinates":[63952,96904],"id":"feature_284"},{"properties":{"name":"\u897f\u5c71","line":"\u7b51\u8c4a\u96fb\u6c17\u9244\u9053\u7dda","riders":372},"type":"Point","coordinates":[61495,92726],"id":"feature_285"},{"properties":{"name":"\u8429\u539f","line":"\u7b51\u8c4a\u96fb\u6c17\u9244\u9053\u7dda","riders":1324},"type":"Point","coordinates":[62902,96307],"id":"feature_286"},{"properties":{"name":"\u7a74\u751f","line":"\u7b51\u8c4a\u96fb\u6c17\u9244\u9053\u7dda","riders":1324},"type":"Point","coordinates":[62545,95872],"id":"feature_287"},{"properties":{"name":"\u901a\u8c37","line":"\u7b51\u8c4a\u96fb\u6c17\u9244\u9053\u7dda","riders":2196},"type":"Point","coordinates":[61041,91916],"id":"feature_288"},{"properties":{"name":"\u6960\u6a4b","line":"\u7b51\u8c4a\u96fb\u6c17\u9244\u9053\u7dda","riders":559},"type":"Point","coordinates":[60831,88038],"id":"feature_289"},{"properties":{"name":"\u611f\u7530","line":"\u7b51\u8c4a\u96fb\u6c17\u9244\u9053\u7dda","riders":439},"type":"Point","coordinates":[61556,84524],"id":"feature_290"},{"properties":{"name":"\u65b0\u6728\u5c4b\u702c","line":"\u7b51\u8c4a\u96fb\u6c17\u9244\u9053\u7dda","riders":247},"type":"Point","coordinates":[60831,87380],"id":"feature_291"},{"properties":{"name":"\u7b51\u8c4a\u76f4\u65b9","line":"\u7b51\u8c4a\u96fb\u6c17\u9244\u9053\u7dda","riders":962},"type":"Point","coordinates":[60989,83912],"id":"feature_292"},{"properties":{"name":"\u6728\u5c4b\u702c","line":"\u7b51\u8c4a\u96fb\u6c17\u9244\u9053\u7dda","riders":986},"type":"Point","coordinates":[60868,86781],"id":"feature_293"},{"properties":{"name":"\u9060\u8cc0\u91ce","line":"\u7b51\u8c4a\u96fb\u6c17\u9244\u9053\u7dda","riders":431},"type":"Point","coordinates":[61370,85650],"id":"feature_294"},{"properties":{"name":"\u5c71\u9e93","line":"\u5e06\u67f1\u30b1\u30fc\u30d6\u30eb\u7dda","riders":846},"type":"Point","coordinates":[66874,95773],"id":"feature_295"},{"properties":{"name":"\u5c71\u4e0a","line":"\u5e06\u67f1\u30b1\u30fc\u30d6\u30eb\u7dda","riders":846},"type":"Point","coordinates":[66766,94648],"id":"feature_296"},{"properties":{"name":"\u85e4\u5d0e","line":"1\u53f7\u7dda(\u7a7a\u6e2f\u7dda)","riders":24714},"type":"Point","coordinates":[29252,64073],"id":"feature_297"},{"properties":{"name":"\u6771\u6bd4\u6075","line":"1\u53f7\u7dda(\u7a7a\u6e2f\u7dda)","riders":23720},"type":"Point","coordinates":[36203,65041],"id":"feature_298"},{"properties":{"name":"\u7947\u5712","line":"1\u53f7\u7dda(\u7a7a\u6e2f\u7dda)","riders":16269},"type":"Point","coordinates":[34786,65538],"id":"feature_299"},{"properties":{"name":"\u5510\u4eba\u753a","line":"1\u53f7\u7dda(\u7a7a\u6e2f\u7dda)","riders":24810},"type":"Point","coordinates":[31054,65079],"id":"feature_300"},{"properties":{"name":"\u8d64\u5742","line":"1\u53f7\u7dda(\u7a7a\u6e2f\u7dda)","riders":33638},"type":"Point","coordinates":[32782,64956],"id":"feature_301"},{"properties":{"name":"\u798f\u5ca1\u7a7a\u6e2f","line":"1\u53f7\u7dda(\u7a7a\u6e2f\u7dda)","riders":54861},"type":"Point","coordinates":[37608,65918],"id":"feature_302"},{"properties":{"name":"\u5929\u795e","line":"1\u53f7\u7dda(\u7a7a\u6e2f\u7dda)","riders":148957},"type":"Point","coordinates":[33464,65214],"id":"feature_303"},{"properties":{"name":"\u897f\u65b0","line":"1\u53f7\u7dda(\u7a7a\u6e2f\u7dda)","riders":49694},"type":"Point","coordinates":[30180,64350],"id":"feature_304"},{"properties":{"name":"\u4e2d\u6d32\u5ddd\u7aef","line":"1\u53f7\u7dda(\u7a7a\u6e2f\u7dda)","riders":39166},"type":"Point","coordinates":[34111,65600],"id":"feature_305"},{"properties":{"name":"\u5927\u6fe0\u516c\u5712","line":"1\u53f7\u7dda(\u7a7a\u6e2f\u7dda)","riders":22715},"type":"Point","coordinates":[31867,65064],"id":"feature_306"},{"properties":{"name":"\u5ba4\u898b","line":"1\u53f7\u7dda(\u7a7a\u6e2f\u7dda)","riders":16903},"type":"Point","coordinates":[28528,63994],"id":"feature_307"},{"properties":{"name":"\u535a\u591a","line":"1\u53f7\u7dda(\u7a7a\u6e2f\u7dda)","riders":162210},"type":"Point","coordinates":[35321,65077],"id":"feature_308"},{"properties":{"name":"\u7bb1\u5d0e\u4e5d\u5927\u524d","line":"2\u53f7\u7dda(\u7bb1\u5d0e\u7dda)","riders":7555},"type":"Point","coordinates":[35347,68758],"id":"feature_309"},{"properties":{"name":"\u5449\u670d\u753a","line":"2\u53f7\u7dda(\u7bb1\u5d0e\u7dda)","riders":8386},"type":"Point","coordinates":[34382,65972],"id":"feature_310"},{"properties":{"name":"\u7bb1\u5d0e\u5bae\u524d","line":"2\u53f7\u7dda(\u7bb1\u5d0e\u7dda)","riders":9037},"type":"Point","coordinates":[35205,68073],"id":"feature_311"},{"properties":{"name":"\u5343\u4ee3\u770c\u5e81\u53e3","line":"2\u53f7\u7dda(\u7bb1\u5d0e\u7dda)","riders":9709},"type":"Point","coordinates":[34768,66487],"id":"feature_312"},{"properties":{"name":"\u99ac\u51fa\u4e5d\u5927\u75c5\u9662\u524d","line":"2\u53f7\u7dda(\u7bb1\u5d0e\u7dda)","riders":12735},"type":"Point","coordinates":[35229,67329],"id":"feature_313"},{"properties":{"name":"\u6a4b\u672c","line":"3\u53f7\u7dda(\u4e03\u9688\u7dda)","riders":8817},"type":"Point","coordinates":[26942,61050],"id":"feature_314"},{"properties":{"name":"\u6885\u6797","line":"3\u53f7\u7dda(\u4e03\u9688\u7dda)","riders":3342},"type":"Point","coordinates":[29781,59959],"id":"feature_315"},{"properties":{"name":"\u685c\u5742","line":"3\u53f7\u7dda(\u4e03\u9688\u7dda)","riders":3863},"type":"Point","coordinates":[32498,63600],"id":"feature_316"},{"properties":{"name":"\u8cc0\u8302","line":"3\u53f7\u7dda(\u4e03\u9688\u7dda)","riders":6222},"type":"Point","coordinates":[28361,60516],"id":"feature_317"},{"properties":{"name":"\u8336\u5c71","line":"3\u53f7\u7dda(\u4e03\u9688\u7dda)","riders":5064},"type":"Point","coordinates":[30679,62327],"id":"feature_318"},{"properties":{"name":"\u91ce\u82a5","line":"3\u53f7\u7dda(\u4e03\u9688\u7dda)","riders":8332},"type":"Point","coordinates":[29105,60255],"id":"feature_319"},{"properties":{"name":"\u798f\u5927\u524d","line":"3\u53f7\u7dda(\u4e03\u9688\u7dda)","riders":14272},"type":"Point","coordinates":[30409,60167],"id":"feature_320"},{"properties":{"name":"\u6e21\u8fba\u901a","line":"3\u53f7\u7dda(\u4e03\u9688\u7dda)","riders":8296},"type":"Point","coordinates":[33995,64384],"id":"feature_321"},{"properties":{"name":"\u85ac\u9662\u5927\u901a","line":"3\u53f7\u7dda(\u4e03\u9688\u7dda)","riders":6258},"type":"Point","coordinates":[33298,63981],"id":"feature_322"},{"properties":{"name":"\u4e03\u9688","line":"3\u53f7\u7dda(\u4e03\u9688\u7dda)","riders":10107},"type":"Point","coordinates":[30362,60798],"id":"feature_323"},{"properties":{"name":"\u85ac\u9662","line":"3\u53f7\u7dda(\u4e03\u9688\u7dda)","riders":20041},"type":"Point","coordinates":[33764,64119],"id":"feature_324"},{"properties":{"name":"\u5929\u795e\u5357","line":"3\u53f7\u7dda(\u4e03\u9688\u7dda)","riders":30238},"type":"Point","coordinates":[33756,64871],"id":"feature_325"},{"properties":{"name":"\u5225\u5e9c","line":"3\u53f7\u7dda(\u4e03\u9688\u7dda)","riders":11696},"type":"Point","coordinates":[30999,63222],"id":"feature_326"},{"properties":{"name":"\u91d1\u5c71","line":"3\u53f7\u7dda(\u4e03\u9688\u7dda)","riders":6183},"type":"Point","coordinates":[30366,61568],"id":"feature_327"},{"properties":{"name":"\u516d\u672c\u677e","line":"3\u53f7\u7dda(\u4e03\u9688\u7dda)","riders":14228},"type":"Point","coordinates":[31680,63640],"id":"feature_328"},{"properties":{"name":"\u6b21\u90ce\u4e38","line":"3\u53f7\u7dda(\u4e03\u9688\u7dda)","riders":6275},"type":"Point","coordinates":[27683,60738],"id":"feature_329"},{"properties":{"name":"\u4e0a\u91d1\u7530","line":"\u4f0a\u7530\u7dda","riders":225},"type":"Point","coordinates":[66280,74565],"id":"feature_330"},{"properties":{"name":"\u7530\u5ddd\u5e02\u7acb\u75c5\u9662","line":"\u4f0a\u7530\u7dda","riders":229},"type":"Point","coordinates":[67383,73199],"id":"feature_331"},{"properties":{"name":"\u7cd2","line":"\u4f0a\u7530\u7dda","riders":217},"type":"Point","coordinates":[67100,73688],"id":"feature_332"},{"properties":{"name":"\u3075\u308c\u3042\u3044\u751f\u529b","line":"\u4f0a\u7530\u7dda","riders":250},"type":"Point","coordinates":[64310,77714],"id":"feature_333"},{"properties":{"name":"\u4e2d\u6cc9","line":"\u4f0a\u7530\u7dda","riders":99},"type":"Point","coordinates":[62374,80155],"id":"feature_334"},{"properties":{"name":"\u76f4\u65b9","line":"\u4f0a\u7530\u7dda","riders":1534},"type":"Point","coordinates":[60882,83226],"id":"feature_335"},{"properties":{"name":"\u5357\u76f4\u65b9\u5fa1\u6bbf\u53e3","line":"\u4f0a\u7530\u7dda","riders":75},"type":"Point","coordinates":[60873,82207],"id":"feature_336"},{"properties":{"name":"\u3042\u304b\u3062","line":"\u4f0a\u7530\u7dda","riders":61},"type":"Point","coordinates":[60838,80886],"id":"feature_337"},{"properties":{"name":"\u91d1\u7530","line":"\u4f0a\u7530\u7dda","riders":1036},"type":"Point","coordinates":[65204,75753],"id":"feature_338"},{"properties":{"name":"\u5e02\u5834","line":"\u4f0a\u7530\u7dda","riders":77},"type":"Point","coordinates":[63756,78670],"id":"feature_339"},{"properties":{"name":"\u85e4\u68da","line":"\u4f0a\u7530\u7dda","riders":228},"type":"Point","coordinates":[61745,80278],"id":"feature_340"},{"properties":{"name":"\u8d64\u6c60","line":"\u4f0a\u7530\u7dda","riders":381},"type":"Point","coordinates":[64537,76832],"id":"feature_341"},{"properties":{"name":"\u4eba\u898b","line":"\u4f0a\u7530\u7dda","riders":144},"type":"Point","coordinates":[64731,76294],"id":"feature_342"},{"properties":{"name":"\u4e0b\u4f0a\u7530","line":"\u4f0a\u7530\u7dda","riders":323},"type":"Point","coordinates":[67738,72223],"id":"feature_343"},{"properties":{"name":"\u8c4a\u524d\u5927\u718a","line":"\u7cf8\u7530\u7dda","riders":70},"type":"Point","coordinates":[65520,74586],"id":"feature_344"},{"properties":{"name":"\u5927\u85ea","line":"\u7cf8\u7530\u7dda","riders":328},"type":"Point","coordinates":[66948,71686],"id":"feature_345"},{"properties":{"name":"\u677e\u5c71","line":"\u7cf8\u7530\u7dda","riders":35},"type":"Point","coordinates":[65559,74033],"id":"feature_346"},{"properties":{"name":"\u7cf8\u7530","line":"\u7cf8\u7530\u7dda","riders":220},"type":"Point","coordinates":[65970,72744],"id":"feature_347"},{"properties":{"name":"\u7280\u5ddd","line":"\u7530\u5ddd\u7dda","riders":444},"type":"Point","coordinates":[78868,72049],"id":"feature_348"},{"properties":{"name":"\u65b0\u8c4a\u6d25","line":"\u7530\u5ddd\u7dda","riders":311},"type":"Point","coordinates":[80935,75396],"id":"feature_349"},{"properties":{"name":"\u6cb9\u9808\u539f","line":"\u7530\u5ddd\u7dda","riders":129},"type":"Point","coordinates":[74250,67690],"id":"feature_350"},{"properties":{"name":"\u52fe\u91d1","line":"\u7530\u5ddd\u7dda","riders":354},"type":"Point","coordinates":[70700,72173],"id":"feature_351"},{"properties":{"name":"\u4e0a\u4f0a\u7530","line":"\u7530\u5ddd\u7dda","riders":85},"type":"Point","coordinates":[69767,71794],"id":"feature_352"},{"properties":{"name":"\u8d64","line":"\u7530\u5ddd\u7dda","riders":64},"type":"Point","coordinates":[73189,68347],"id":"feature_353"},{"properties":{"name":"\u5185\u7530","line":"\u7530\u5ddd\u7dda","riders":55},"type":"Point","coordinates":[72562,70583],"id":"feature_354"},{"properties":{"name":"\u6e90\u3058\u3044\u306e\u68ee","line":"\u7530\u5ddd\u7dda","riders":56},"type":"Point","coordinates":[75188,68061],"id":"feature_355"},{"properties":{"name":"\u8c4a\u6d25","line":"\u7530\u5ddd\u7dda","riders":79},"type":"Point","coordinates":[80854,76312],"id":"feature_356"},{"properties":{"name":"\u5d0e\u5c71","line":"\u7530\u5ddd\u7dda","riders":56},"type":"Point","coordinates":[77069,70393],"id":"feature_357"},{"properties":{"name":"\u67ff\u4e0b\u6e29\u6cc9\u53e3","line":"\u7530\u5ddd\u7dda","riders":43},"type":"Point","coordinates":[71703,72170],"id":"feature_358"},{"properties":{"name":"\u6771\u7280\u5ddd\u4e09\u56db\u90ce","line":"\u7530\u5ddd\u7dda","riders":107},"type":"Point","coordinates":[79683,73294],"id":"feature_359"},{"properties":{"name":"\u3057\u3057\u3076","line":"\u9e7f\u5150\u5cf6\u7dda","riders":3232},"type":"Point","coordinates":[38394,80152],"id":"feature_360"},{"properties":{"name":"\u4e45\u7559\u7c73\u9ad8\u6821\u524d","line":"\u4e45\u5927\u7dda","riders":1353},"type":"Point","coordinates":[43412,31473],"id":"feature_361"},{"properties":{"name":"\u6b53\u904a\u820e\u3072\u3053\u3055\u3093","line":"\u65e5\u7530\u5f66\u5c71\u7dda","riders":11},"type":"Point","coordinates":[72148,61048],"id":"feature_362"},{"properties":{"name":"\u65b0\u5bae\u4e2d\u592e","line":"\u9e7f\u5150\u5cf6\u7dda","riders":10202},"type":"Point","coordinates":[37731,79128],"id":"feature_363"},{"properties":{"name":"\u7d2b","line":"\u5929\u795e\u5927\u725f\u7530\u7dda","riders":6056},"type":"Point","coordinates":[43871,54243],"id":"feature_364"},{"properties":{"name":"\u65b0\u9ce5\u6816","line":"\u9577\u5d0e\u7dda","riders":3335},"type":"Point","coordinates":[41215,39687],"id":"feature_365"},{"properties":{"name":"\u7b51\u5f8c\u8239\u5c0f\u5c4b","line":"\u9e7f\u5150\u5cf6\u7dda","riders":2364},"type":"Point","coordinates":[41279,17611],"id":"feature_366"},{"properties":{"name":"\u65b0\u5927\u725f\u7530","line":"\u4e5d\u5dde\u65b0\u5e79\u7dda","riders":1218},"type":"Point","coordinates":[41032,5312],"id":"feature_367"},{"properties":{"name":"\u7b51\u5f8c\u8239\u5c0f\u5c4b","line":"\u4e5d\u5dde\u65b0\u5e79\u7dda","riders":11},"type":"Point","coordinates":[41341,17600],"id":"feature_368"},{"properties":{"name":"\u4e45\u7559\u7c73","line":"\u4e5d\u5dde\u65b0\u5e79\u7dda","riders":11},"type":"Point","coordinates":[42067,34037],"id":"feature_369"},{"properties":{"name":"\u65b0\u9ce5\u6816","line":"\u4e5d\u5dde\u65b0\u5e79\u7dda","riders":11},"type":"Point","coordinates":[41224,39784],"id":"feature_370"},{"properties":{"name":"\u7cf8\u5cf6\u9ad8\u6821\u524d","line":"\u7b51\u80a5\u7dda","riders":3014},"type":"Point","coordinates":[17925,61702],"id":"feature_371"},{"properties":{"name":"\u6b66\u96c4\u6e29\u6cc9","line":"\u897f\u4e5d\u5dde\u65b0\u5e79\u7dda","riders":0},"type":"Point","coordinates":[1926,19701],"id":"feature_372"}],"type":"GeometryCollection"}},"bbox":[130.00015,33.02521,131.19092,33.89319],"transform":{"scale":[1.190781907819093e-05,8.679886798867946e-06],"translate":[130.00015,33.02521]},"arcs":[]}