{"type":"Topology","objects":{"data":{"geometries":[{"properties":{"name":"\u89d2\u7530","line":"\u963f\u6b66\u9688\u6025\u884c\u7dda","riders":1485},"type":"Point","coordinates":[65170,19721],"id":"feature_000"},{"properties":{"name":"\u5357\u89d2\u7530","line":"\u963f\u6b66\u9688\u6025\u884c\u7dda","riders":40},"type":"Point","coordinates":[65024,18116],"id":"feature_001"},{"properties":{"name":"\u5927\u6cc9","line":"\u963f\u6b66\u9688\u6025\u884c\u7dda","riders":552},"type":"Point","coordinates":[54494,1953],"id":"feature_002"},{"properties":{"name":"\u4fdd\u539f","line":"\u963f\u6b66\u9688\u6025\u884c\u7dda","riders":1095},"type":"Point","coordinates":[53963,1360],"id":"feature_003"},{"properties":{"name":"\u9ad8\u5b50","line":"\u963f\u6b66\u9688\u6025\u884c\u7dda","riders":137},"type":"Point","coordinates":[52435,671],"id":"feature_004"},{"properties":{"name":"\u702c\u4e0a","line":"\u963f\u6b66\u9688\u6025\u884c\u7dda","riders":382},"type":"Point","coordinates":[50949,0],"id":"feature_005"},{"properties":{"name":"\u515c","line":"\u963f\u6b66\u9688\u6025\u884c\u7dda","riders":12},"type":"Point","coordinates":[58632,10369],"id":"feature_006"},{"properties":{"name":"\u5ca1","line":"\u963f\u6b66\u9688\u6025\u884c\u7dda","riders":125},"type":"Point","coordinates":[65582,24150],"id":"feature_007"},{"properties":{"name":"\u4e0a\u4fdd\u539f","line":"\u963f\u6b66\u9688\u6025\u884c\u7dda","riders":456},"type":"Point","coordinates":[53247,807],"id":"feature_008"},{"properties":{"name":"\u4e8c\u4e95\u7530","line":"\u963f\u6b66\u9688\u6025\u884c\u7dda","riders":79},"type":"Point","coordinates":[55197,2837],"id":"feature_009"},{"properties":{"name":"\u5317\u4e38\u68ee","line":"\u963f\u6b66\u9688\u6025\u884c\u7dda","riders":29},"type":"Point","coordinates":[65139,15688],"id":"feature_010"},{"properties":{"name":"\u4e38\u68ee","line":"\u963f\u6b66\u9688\u6025\u884c\u7dda","riders":498},"type":"Point","coordinates":[64615,14307],"id":"feature_011"},{"properties":{"name":"\u69fb\u6728","line":"\u963f\u6b66\u9688\u6025\u884c\u7dda","riders":5686},"type":"Point","coordinates":[67131,30852],"id":"feature_012"},{"properties":{"name":"\u6a2a\u5009","line":"\u963f\u6b66\u9688\u6025\u884c\u7dda","riders":25},"type":"Point","coordinates":[65359,21694],"id":"feature_013"},{"properties":{"name":"\u5bcc\u91ce","line":"\u963f\u6b66\u9688\u6025\u884c\u7dda","riders":78},"type":"Point","coordinates":[57643,8067],"id":"feature_014"},{"properties":{"name":"\u6771\u8239\u5ca1","line":"\u963f\u6b66\u9688\u6025\u884c\u7dda","riders":179},"type":"Point","coordinates":[66074,27618],"id":"feature_015"},{"properties":{"name":"\u6881\u5ddd","line":"\u963f\u6b66\u9688\u6025\u884c\u7dda","riders":506},"type":"Point","coordinates":[56397,4863],"id":"feature_016"},{"properties":{"name":"\u5411\u702c\u4e0a","line":"\u963f\u6b66\u9688\u6025\u884c\u7dda","riders":66},"type":"Point","coordinates":[51560,469],"id":"feature_017"},{"properties":{"name":"\u65b0\u7530","line":"\u963f\u6b66\u9688\u6025\u884c\u7dda","riders":314},"type":"Point","coordinates":[55854,3945],"id":"feature_018"},{"properties":{"name":"\u3084\u306a\u304c\u308f\u5e0c\u671b\u306e\u68ee\u516c\u5712\u524d","line":"\u963f\u6b66\u9688\u6025\u884c\u7dda","riders":443},"type":"Point","coordinates":[57029,6187],"id":"feature_019"},{"properties":{"name":"\u3042\u3076\u304f\u307e","line":"\u963f\u6b66\u9688\u6025\u884c\u7dda","riders":15},"type":"Point","coordinates":[60670,12377],"id":"feature_020"},{"properties":{"name":"\u8d64\u6e6f","line":"\u30d5\u30e9\u30ef\u30fc\u9577\u4e95\u7dda","riders":3372},"type":"Point","coordinates":[32796,27295],"id":"feature_021"},{"properties":{"name":"\u4eca\u6cc9","line":"\u30d5\u30e9\u30ef\u30fc\u9577\u4e95\u7dda","riders":498},"type":"Point","coordinates":[27355,28350],"id":"feature_022"},{"properties":{"name":"\u8352\u7825","line":"\u30d5\u30e9\u30ef\u30fc\u9577\u4e95\u7dda","riders":158},"type":"Point","coordinates":[30117,42990],"id":"feature_023"},{"properties":{"name":"\u68a8\u90f7","line":"\u30d5\u30e9\u30ef\u30fc\u9577\u4e95\u7dda","riders":19},"type":"Point","coordinates":[30153,28415],"id":"feature_024"},{"properties":{"name":"\u304a\u308a\u306f\u305f","line":"\u30d5\u30e9\u30ef\u30fc\u9577\u4e95\u7dda","riders":36},"type":"Point","coordinates":[31418,29437],"id":"feature_025"},{"properties":{"name":"\u897f\u5927\u585a","line":"\u30d5\u30e9\u30ef\u30fc\u9577\u4e95\u7dda","riders":18},"type":"Point","coordinates":[28415,28210],"id":"feature_026"},{"properties":{"name":"\u9577\u4e95","line":"\u30d5\u30e9\u30ef\u30fc\u9577\u4e95\u7dda","riders":271},"type":"Point","coordinates":[26801,33905],"id":"feature_027"},{"properties":{"name":"\u8695\u6851","line":"\u30d5\u30e9\u30ef\u30fc\u9577\u4e95\u7dda","riders":26},"type":"Point","coordinates":[27487,40030],"id":"feature_028"},{"properties":{"name":"\u9b8e\u8c9d","line":"\u30d5\u30e9\u30ef\u30fc\u9577\u4e95\u7dda","riders":56},"type":"Point","coordinates":[28747,42381],"id":"feature_029"},{"properties":{"name":"\u3042\u3084\u3081\u516c\u5712","line":"\u30d5\u30e9\u30ef\u30fc\u9577\u4e95\u7dda","riders":98},"type":"Point","coordinates":[26761,34749],"id":"feature_030"},{"properties":{"name":"\u5357\u9577\u4e95","line":"\u30d5\u30e9\u30ef\u30fc\u9577\u4e95\u7dda","riders":205},"type":"Point","coordinates":[26852,32912],"id":"feature_031"},{"properties":{"name":"\u5357\u967d\u5e02\u5f79\u6240","line":"\u30d5\u30e9\u30ef\u30fc\u9577\u4e95\u7dda","riders":12},"type":"Point","coordinates":[32796,28217],"id":"feature_032"},{"properties":{"name":"\u6642\u5ead","line":"\u30d5\u30e9\u30ef\u30fc\u9577\u4e95\u7dda","riders":12},"type":"Point","coordinates":[26595,30576],"id":"feature_033"},{"properties":{"name":"\u7fbd\u524d\u6210\u7530","line":"\u30d5\u30e9\u30ef\u30fc\u9577\u4e95\u7dda","riders":50},"type":"Point","coordinates":[26882,36639],"id":"feature_034"},{"properties":{"name":"\u5bae\u5185","line":"\u30d5\u30e9\u30ef\u30fc\u9577\u4e95\u7dda","riders":248},"type":"Point","coordinates":[32084,29929],"id":"feature_035"},{"properties":{"name":"\u767d\u514e","line":"\u30d5\u30e9\u30ef\u30fc\u9577\u4e95\u7dda","riders":15},"type":"Point","coordinates":[27192,38747],"id":"feature_036"},{"properties":{"name":"\u6cc9\u4e2d\u592e","line":"\u5357\u5317\u7dda","riders":53548},"type":"Point","coordinates":[70792,58032],"id":"feature_037"},{"properties":{"name":"\u5317\u4ed9\u53f0","line":"\u5357\u5317\u7dda","riders":17022},"type":"Point","coordinates":[70177,53514],"id":"feature_038"},{"properties":{"name":"\u611b\u5b95\u6a4b","line":"\u5357\u5317\u7dda","riders":5192},"type":"Point","coordinates":[70830,49612],"id":"feature_039"},{"properties":{"name":"\u5e83\u702c\u901a","line":"\u5357\u5317\u7dda","riders":21832},"type":"Point","coordinates":[70519,51329],"id":"feature_040"},{"properties":{"name":"\u4e94\u6a4b","line":"\u5357\u5317\u7dda","riders":12720},"type":"Point","coordinates":[70815,50107],"id":"feature_041"},{"properties":{"name":"\u9577\u753a\u4e00\u4e01\u76ee","line":"\u5357\u5317\u7dda","riders":8408},"type":"Point","coordinates":[71147,48149],"id":"feature_042"},{"properties":{"name":"\u53f0\u539f","line":"\u5357\u5317\u7dda","riders":12636},"type":"Point","coordinates":[70662,54153],"id":"feature_043"},{"properties":{"name":"\u5bcc\u6ca2","line":"\u5357\u5317\u7dda","riders":15396},"type":"Point","coordinates":[70269,45901],"id":"feature_044"},{"properties":{"name":"\u9ed2\u677e","line":"\u5357\u5317\u7dda","riders":8548},"type":"Point","coordinates":[71083,55822],"id":"feature_045"},{"properties":{"name":"\u9577\u753a","line":"\u5357\u5317\u7dda","riders":17528},"type":"Point","coordinates":[71005,47514],"id":"feature_046"},{"properties":{"name":"\u9577\u753a\u5357","line":"\u5357\u5317\u7dda","riders":23686},"type":"Point","coordinates":[70601,47080],"id":"feature_047"},{"properties":{"name":"\u6cb3\u539f\u753a","line":"\u5357\u5317\u7dda","riders":10636},"type":"Point","coordinates":[71163,48846],"id":"feature_048"},{"properties":{"name":"\u52fe\u5f53\u53f0\u516c\u5712","line":"\u5357\u5317\u7dda","riders":33926},"type":"Point","coordinates":[70300,51762],"id":"feature_049"},{"properties":{"name":"\u5317\u56db\u756a\u4e01","line":"\u5357\u5317\u7dda","riders":17154},"type":"Point","coordinates":[70191,52361],"id":"feature_050"},{"properties":{"name":"\u4ed9\u53f0","line":"\u5357\u5317\u7dda","riders":159866},"type":"Point","coordinates":[70753,50979],"id":"feature_051"},{"properties":{"name":"\u65ed\u30f6\u4e18","line":"\u5357\u5317\u7dda","riders":14702},"type":"Point","coordinates":[70949,54994],"id":"feature_052"},{"properties":{"name":"\u516b\u4e59\u5973","line":"\u5357\u5317\u7dda","riders":16916},"type":"Point","coordinates":[70966,56923],"id":"feature_053"},{"properties":{"name":"\u3042\u3064\u307f\u6e29\u6cc9","line":"\u7fbd\u8d8a\u7dda","riders":266},"type":"Point","coordinates":[3658,91615],"id":"feature_054"},{"properties":{"name":"\u5c0f\u5ca9\u5ddd","line":"\u7fbd\u8d8a\u7dda","riders":11},"type":"Point","coordinates":[2519,87843],"id":"feature_055"},{"properties":{"name":"\u5c0f\u6ce2\u6e21","line":"\u7fbd\u8d8a\u7dda","riders":11},"type":"Point","coordinates":[6866,99213],"id":"feature_056"},{"properties":{"name":"\u4e94\u5341\u5ddd","line":"\u7fbd\u8d8a\u7dda","riders":11},"type":"Point","coordinates":[5122,96786],"id":"feature_057"},{"properties":{"name":"\u4e09\u702c","line":"\u7fbd\u8d8a\u7dda","riders":11},"type":"Point","coordinates":[8098,99999],"id":"feature_058"},{"properties":{"name":"\u9f20\u30f6\u95a2","line":"\u7fbd\u8d8a\u7dda","riders":11},"type":"Point","coordinates":[1628,83962],"id":"feature_059"},{"properties":{"name":"\u52dd\u6728","line":"\u7fbd\u8d8a\u7dda","riders":11},"type":"Point","coordinates":[0,76681],"id":"feature_060"},{"properties":{"name":"\u5e9c\u5c4b","line":"\u7fbd\u8d8a\u7dda","riders":242},"type":"Point","coordinates":[673,79268],"id":"feature_061"},{"properties":{"name":"\u9ad8\u7560","line":"\u5965\u7fbd\u7dda","riders":1862},"type":"Point","coordinates":[32994,21175],"id":"feature_062"},{"properties":{"name":"\u6751\u5c71","line":"\u5965\u7fbd\u7dda","riders":2612},"type":"Point","coordinates":[45125,75212],"id":"feature_063"},{"properties":{"name":"\u304b\u307f\u306e\u3084\u307e\u6e29\u6cc9","line":"\u5965\u7fbd\u7dda","riders":3548},"type":"Point","coordinates":[39518,38962],"id":"feature_064"},{"properties":{"name":"\u82a6\u6ca2","line":"\u5965\u7fbd\u7dda","riders":132},"type":"Point","coordinates":[43808,95094],"id":"feature_065"},{"properties":{"name":"\u6f06\u5c71","line":"\u5965\u7fbd\u7dda","riders":11},"type":"Point","coordinates":[43113,57068],"id":"feature_066"},{"properties":{"name":"\u5927\u6ca2","line":"\u5965\u7fbd\u7dda","riders":11},"type":"Point","coordinates":[35462,3895],"id":"feature_067"},{"properties":{"name":"\u8896\u5d0e","line":"\u5965\u7fbd\u7dda","riders":11},"type":"Point","coordinates":[45382,83146],"id":"feature_068"},{"properties":{"name":"\u7fbd\u524d\u5343\u6b73","line":"\u5965\u7fbd\u7dda","riders":11},"type":"Point","coordinates":[42826,54063],"id":"feature_069"},{"properties":{"name":"\u8302\u5409\u8a18\u5ff5\u9928\u524d","line":"\u5965\u7fbd\u7dda","riders":11},"type":"Point","coordinates":[40547,41131],"id":"feature_070"},{"properties":{"name":"\u5927\u77f3\u7530","line":"\u5965\u7fbd\u7dda","riders":1808},"type":"Point","coordinates":[44552,88446],"id":"feature_071"},{"properties":{"name":"\u821f\u5f62","line":"\u5965\u7fbd\u7dda","riders":202},"type":"Point","coordinates":[41474,99135],"id":"feature_072"},{"properties":{"name":"\u5ce0","line":"\u5965\u7fbd\u7dda","riders":11},"type":"Point","coordinates":[37309,1071],"id":"feature_073"},{"properties":{"name":"\u5ce0","line":"\u5965\u7fbd\u7dda","riders":11},"type":"Point","coordinates":[37304,1090],"id":"feature_074"},{"properties":{"name":"\u4e2d\u5ddd","line":"\u5965\u7fbd\u7dda","riders":11},"type":"Point","coordinates":[35625,32435],"id":"feature_075"},{"properties":{"name":"\u95a2\u6839","line":"\u5965\u7fbd\u7dda","riders":11},"type":"Point","coordinates":[32654,6937],"id":"feature_076"},{"properties":{"name":"\u3055\u304f\u3089\u3093\u307c\u6771\u6839","line":"\u5965\u7fbd\u7dda","riders":2726},"type":"Point","coordinates":[44831,69807],"id":"feature_077"},{"properties":{"name":"\u4e71\u5ddd","line":"\u5965\u7fbd\u7dda","riders":11},"type":"Point","coordinates":[44520,65148],"id":"feature_078"},{"properties":{"name":"\u5357\u51fa\u7fbd","line":"\u5965\u7fbd\u7dda","riders":11},"type":"Point","coordinates":[42956,55758],"id":"feature_079"},{"properties":{"name":"\u8535\u738b","line":"\u5965\u7fbd\u7dda","riders":2210},"type":"Point","coordinates":[40812,44981],"id":"feature_080"},{"properties":{"name":"\u677f\u8c37","line":"\u5965\u7fbd\u7dda","riders":11},"type":"Point","coordinates":[38984,999],"id":"feature_081"},{"properties":{"name":"\u5929\u7ae5","line":"\u5965\u7fbd\u7dda","riders":3598},"type":"Point","coordinates":[44243,62166],"id":"feature_082"},{"properties":{"name":"\u5c71\u5f62","line":"\u5965\u7fbd\u7dda","riders":22442},"type":"Point","coordinates":[42064,49725],"id":"feature_083"},{"properties":{"name":"\u7fbd\u524d\u4e2d\u5c71","line":"\u5965\u7fbd\u7dda","riders":11},"type":"Point","coordinates":[36417,35976],"id":"feature_084"},{"properties":{"name":"\u6771\u6839","line":"\u5965\u7fbd\u7dda","riders":11},"type":"Point","coordinates":[45004,72296],"id":"feature_085"},{"properties":{"name":"\u795e\u753a","line":"\u5965\u7fbd\u7dda","riders":11},"type":"Point","coordinates":[44713,67990],"id":"feature_086"},{"properties":{"name":"\u5317\u5927\u77f3\u7530","line":"\u5965\u7fbd\u7dda","riders":11},"type":"Point","coordinates":[44338,92213],"id":"feature_087"},{"properties":{"name":"\u7c73\u6ca2","line":"\u5965\u7fbd\u7dda","riders":5148},"type":"Point","coordinates":[31720,11933],"id":"feature_088"},{"properties":{"name":"\u9ad8\u64f6","line":"\u5965\u7fbd\u7dda","riders":11},"type":"Point","coordinates":[43692,58894],"id":"feature_089"},{"properties":{"name":"\u5317\u5c71\u5f62","line":"\u5965\u7fbd\u7dda","riders":3242},"type":"Point","coordinates":[42335,51673],"id":"feature_090"},{"properties":{"name":"\u7f6e\u8cdc","line":"\u5965\u7fbd\u7dda","riders":11},"type":"Point","coordinates":[32461,16908],"id":"feature_091"},{"properties":{"name":"\u306e\u306e\u5cb3","line":"\u6c17\u4ed9\u6cbc\u7dda","riders":11},"type":"Point","coordinates":[88716,83635],"id":"feature_092"},{"properties":{"name":"\u9678\u524d\u8c4a\u91cc","line":"\u6c17\u4ed9\u6cbc\u7dda","riders":280},"type":"Point","coordinates":[89634,86940],"id":"feature_093"},{"properties":{"name":"\u548c\u6e15","line":"\u6c17\u4ed9\u6cbc\u7dda","riders":11},"type":"Point","coordinates":[88437,80651],"id":"feature_094"},{"properties":{"name":"\u67f3\u6d25","line":"\u6c17\u4ed9\u6cbc\u7dda","riders":116},"type":"Point","coordinates":[92897,90231],"id":"feature_095"},{"properties":{"name":"\u5fa1\u5cb3\u5802","line":"\u6c17\u4ed9\u6cbc\u7dda","riders":11},"type":"Point","coordinates":[90737,89552],"id":"feature_096"},{"properties":{"name":"\u524d\u8c37\u5730","line":"\u6c17\u4ed9\u6cbc\u7dda","riders":360},"type":"Point","coordinates":[87083,79113],"id":"feature_097"},{"properties":{"name":"\u5de6\u6ca2","line":"\u5de6\u6ca2\u7dda","riders":784},"type":"Point","coordinates":[35864,64634],"id":"feature_098"},{"properties":{"name":"\u7fbd\u524d\u91d1\u6ca2","line":"\u5de6\u6ca2\u7dda","riders":11},"type":"Point","coordinates":[39103,57797],"id":"feature_099"},{"properties":{"name":"\u5317\u5c71\u5f62","line":"\u5de6\u6ca2\u7dda","riders":11},"type":"Point","coordinates":[42312,51619],"id":"feature_100"},{"properties":{"name":"\u5357\u5bd2\u6cb3\u6c5f","line":"\u5de6\u6ca2\u7dda","riders":11},"type":"Point","coordinates":[39464,61712],"id":"feature_101"},{"properties":{"name":"\u897f\u5bd2\u6cb3\u6c5f","line":"\u5de6\u6ca2\u7dda","riders":11},"type":"Point","coordinates":[38902,64342],"id":"feature_102"},{"properties":{"name":"\u7fbd\u524d\u9ad8\u677e","line":"\u5de6\u6ca2\u7dda","riders":11},"type":"Point","coordinates":[37968,66343],"id":"feature_103"},{"properties":{"name":"\u67f4\u6a4b","line":"\u5de6\u6ca2\u7dda","riders":11},"type":"Point","coordinates":[36786,64487],"id":"feature_104"},{"properties":{"name":"\u5bd2\u6cb3\u6c5f","line":"\u5de6\u6ca2\u7dda","riders":1898},"type":"Point","coordinates":[39323,63501],"id":"feature_105"},{"properties":{"name":"\u7fbd\u524d\u5c71\u8fba","line":"\u5de6\u6ca2\u7dda","riders":1672},"type":"Point","coordinates":[39161,54869],"id":"feature_106"},{"properties":{"name":"\u7fbd\u524d\u9577\u5d0e","line":"\u5de6\u6ca2\u7dda","riders":934},"type":"Point","coordinates":[39239,59140],"id":"feature_107"},{"properties":{"name":"\u6771\u91d1\u4e95","line":"\u5de6\u6ca2\u7dda","riders":11},"type":"Point","coordinates":[40781,52899],"id":"feature_108"},{"properties":{"name":"\u99d2\u30f6\u5dba","line":"\u5e38\u78d0\u7dda","riders":11},"type":"Point","coordinates":[73098,4459],"id":"feature_109"},{"properties":{"name":"\u5742\u5143","line":"\u5e38\u78d0\u7dda","riders":662},"type":"Point","coordinates":[71850,13567],"id":"feature_110"},{"properties":{"name":"\u6d5c\u5409\u7530","line":"\u5e38\u78d0\u7dda","riders":1492},"type":"Point","coordinates":[71280,22278],"id":"feature_111"},{"properties":{"name":"\u76f8\u99ac","line":"\u5e38\u78d0\u7dda","riders":3004},"type":"Point","coordinates":[73131,12],"id":"feature_112"},{"properties":{"name":"\u65b0\u5730","line":"\u5e38\u78d0\u7dda","riders":634},"type":"Point","coordinates":[73127,8567],"id":"feature_113"},{"properties":{"name":"\u9022\u9688","line":"\u5e38\u78d0\u7dda","riders":11},"type":"Point","coordinates":[69446,29568],"id":"feature_114"},{"properties":{"name":"\u5c71\u4e0b","line":"\u5e38\u78d0\u7dda","riders":1702},"type":"Point","coordinates":[71223,18276],"id":"feature_115"},{"properties":{"name":"\u5ca9\u6cbc","line":"\u5e38\u78d0\u7dda","riders":14292},"type":"Point","coordinates":[69908,34500],"id":"feature_116"},{"properties":{"name":"\u4e98\u7406","line":"\u5e38\u78d0\u7dda","riders":5216},"type":"Point","coordinates":[69785,26475],"id":"feature_117"},{"properties":{"name":"\u6d8c\u8c37","line":"\u77f3\u5dfb\u7dda","riders":1192},"type":"Point","coordinates":[83599,82001],"id":"feature_118"},{"properties":{"name":"\u6e21\u6ce2","line":"\u77f3\u5dfb\u7dda","riders":1110},"type":"Point","coordinates":[95953,68846],"id":"feature_119"},{"properties":{"name":"\u4e07\u77f3\u6d66","line":"\u77f3\u5dfb\u7dda","riders":11},"type":"Point","coordinates":[96137,69835],"id":"feature_120"},{"properties":{"name":"\u6ca2\u7530","line":"\u77f3\u5dfb\u7dda","riders":11},"type":"Point","coordinates":[96847,70225],"id":"feature_121"},{"properties":{"name":"\u4e0a\u6d8c\u8c37","line":"\u77f3\u5dfb\u7dda","riders":11},"type":"Point","coordinates":[82160,83246],"id":"feature_122"},{"properties":{"name":"\u9678\u524d\u7a32\u4e95","line":"\u77f3\u5dfb\u7dda","riders":11},"type":"Point","coordinates":[94380,71681],"id":"feature_123"},{"properties":{"name":"\u6d66\u5bbf","line":"\u77f3\u5dfb\u7dda","riders":11},"type":"Point","coordinates":[98875,70688],"id":"feature_124"},{"properties":{"name":"\u66fd\u6ce2\u795e","line":"\u77f3\u5dfb\u7dda","riders":11},"type":"Point","coordinates":[91937,73954],"id":"feature_125"},{"properties":{"name":"\u4f73\u666f\u5c71","line":"\u77f3\u5dfb\u7dda","riders":11},"type":"Point","coordinates":[89433,77539],"id":"feature_126"},{"properties":{"name":"\u9e7f\u53c8","line":"\u77f3\u5dfb\u7dda","riders":11},"type":"Point","coordinates":[91702,76189],"id":"feature_127"},{"properties":{"name":"\u5c0f\u725b\u7530","line":"\u77f3\u5dfb\u7dda","riders":4254},"type":"Point","coordinates":[80333,82297],"id":"feature_128"},{"properties":{"name":"\u77f3\u5dfb","line":"\u77f3\u5dfb\u7dda","riders":7254},"type":"Point","coordinates":[92752,70559],"id":"feature_129"},{"properties":{"name":"\u5317\u4ed9\u53f0","line":"\u4ed9\u5c71\u7dda","riders":9650},"type":"Point","coordinates":[70236,53422],"id":"feature_130"},{"properties":{"name":"\u4ed9\u53f0","line":"\u4ed9\u5c71\u7dda","riders":182556},"type":"Point","coordinates":[70889,51022],"id":"feature_131"},{"properties":{"name":"\u5317\u5c71","line":"\u4ed9\u5c71\u7dda","riders":4998},"type":"Point","coordinates":[69298,53815],"id":"feature_132"},{"properties":{"name":"\u6771\u7167\u5bae","line":"\u4ed9\u5c71\u7dda","riders":6892},"type":"Point","coordinates":[71106,52937],"id":"feature_133"},{"properties":{"name":"\u56fd\u898b","line":"\u4ed9\u5c71\u7dda","riders":7322},"type":"Point","coordinates":[68331,52659],"id":"feature_134"},{"properties":{"name":"\u9762\u767d\u5c71\u9ad8\u539f","line":"\u4ed9\u5c71\u7dda","riders":11},"type":"Point","coordinates":[50879,59144],"id":"feature_135"},{"properties":{"name":"\u718a\u30f6\u6839","line":"\u4ed9\u5c71\u7dda","riders":11},"type":"Point","coordinates":[60401,55250],"id":"feature_136"},{"properties":{"name":"\u696f\u5c71","line":"\u4ed9\u5c71\u7dda","riders":11},"type":"Point","coordinates":[44306,55657],"id":"feature_137"},{"properties":{"name":"\u845b\u5ca1","line":"\u4ed9\u5c71\u7dda","riders":11},"type":"Point","coordinates":[67569,52000],"id":"feature_138"},{"properties":{"name":"\u9678\u524d\u843d\u5408","line":"\u4ed9\u5c71\u7dda","riders":7790},"type":"Point","coordinates":[66086,52509],"id":"feature_139"},{"properties":{"name":"\u611b\u5b50","line":"\u4ed9\u5c71\u7dda","riders":8368},"type":"Point","coordinates":[64600,52420],"id":"feature_140"},{"properties":{"name":"\u4f5c\u4e26","line":"\u4ed9\u5c71\u7dda","riders":412},"type":"Point","coordinates":[57907,57455],"id":"feature_141"},{"properties":{"name":"\u5965\u65b0\u5ddd","line":"\u4ed9\u5c71\u7dda","riders":11},"type":"Point","coordinates":[55928,58367],"id":"feature_142"},{"properties":{"name":"\u9678\u524d\u767d\u6ca2","line":"\u4ed9\u5c71\u7dda","riders":11},"type":"Point","coordinates":[61528,53028],"id":"feature_143"},{"properties":{"name":"\u5c71\u5bfa","line":"\u4ed9\u5c71\u7dda","riders":1096},"type":"Point","coordinates":[47636,56539],"id":"feature_144"},{"properties":{"name":"\u9ad8\u702c","line":"\u4ed9\u5c71\u7dda","riders":11},"type":"Point","coordinates":[45625,55638],"id":"feature_145"},{"properties":{"name":"\u591a\u8cc0\u57ce","line":"\u4ed9\u77f3\u7dda","riders":14402},"type":"Point","coordinates":[77268,54544],"id":"feature_146"},{"properties":{"name":"\u677e\u5cf6\u6d77\u5cb8","line":"\u4ed9\u77f3\u7dda","riders":2388},"type":"Point","coordinates":[80044,63092],"id":"feature_147"},{"properties":{"name":"\u798f\u7530\u753a","line":"\u4ed9\u77f3\u7dda","riders":8020},"type":"Point","coordinates":[74825,52682],"id":"feature_148"},{"properties":{"name":"\u9678\u524d\u6d5c\u7530","line":"\u4ed9\u77f3\u7dda","riders":11},"type":"Point","coordinates":[79154,61140],"id":"feature_149"},{"properties":{"name":"\u3042\u304a\u3070\u901a","line":"\u4ed9\u77f3\u7dda","riders":45302},"type":"Point","coordinates":[70685,51086],"id":"feature_150"},{"properties":{"name":"\u4e2d\u91ce\u6804","line":"\u4ed9\u77f3\u7dda","riders":11160},"type":"Point","coordinates":[76225,53335],"id":"feature_151"},{"properties":{"name":"\u4e0b\u99ac","line":"\u4ed9\u77f3\u7dda","riders":7582},"type":"Point","coordinates":[77767,56122],"id":"feature_152"},{"properties":{"name":"\u9678\u524d\u539f\u30ce\u753a","line":"\u4ed9\u77f3\u7dda","riders":8562},"type":"Point","coordinates":[72359,51691],"id":"feature_153"},{"properties":{"name":"\u69b4\u30f6\u5ca1","line":"\u4ed9\u77f3\u7dda","riders":6590},"type":"Point","coordinates":[71474,50873],"id":"feature_154"},{"properties":{"name":"\u9678\u524d\u5c71\u4e0b","line":"\u4ed9\u77f3\u7dda","riders":1888},"type":"Point","coordinates":[91988,70824],"id":"feature_155"},{"properties":{"name":"\u672c\u5869\u91dc","line":"\u4ed9\u77f3\u7dda","riders":5984},"type":"Point","coordinates":[78155,57445],"id":"feature_156"},{"properties":{"name":"\u9678\u524d\u8d64\u4e95","line":"\u4ed9\u77f3\u7dda","riders":1366},"type":"Point","coordinates":[89400,70232],"id":"feature_157"},{"properties":{"name":"\u5bae\u57ce\u91ce\u539f","line":"\u4ed9\u77f3\u7dda","riders":12558},"type":"Point","coordinates":[72043,51089],"id":"feature_158"},{"properties":{"name":"\u624b\u6a3d","line":"\u4ed9\u77f3\u7dda","riders":11},"type":"Point","coordinates":[81805,65180],"id":"feature_159"},{"properties":{"name":"\u86c7\u7530","line":"\u4ed9\u77f3\u7dda","riders":1706},"type":"Point","coordinates":[91401,70885],"id":"feature_160"},{"properties":{"name":"\u9678\u524d\u5bcc\u5c71","line":"\u4ed9\u77f3\u7dda","riders":11},"type":"Point","coordinates":[82559,65091],"id":"feature_161"},{"properties":{"name":"\u897f\u5869\u91dc","line":"\u4ed9\u77f3\u7dda","riders":11},"type":"Point","coordinates":[77943,56803],"id":"feature_162"},{"properties":{"name":"\u6771\u77e2\u672c","line":"\u4ed9\u77f3\u7dda","riders":11},"type":"Point","coordinates":[88532,69739],"id":"feature_163"},{"properties":{"name":"\u77e2\u672c","line":"\u4ed9\u77f3\u7dda","riders":2432},"type":"Point","coordinates":[87847,68898],"id":"feature_164"},{"properties":{"name":"\u9678\u524d\u5927\u585a","line":"\u4ed9\u77f3\u7dda","riders":11},"type":"Point","coordinates":[83697,64279],"id":"feature_165"},{"properties":{"name":"\u9e7f\u59bb","line":"\u4ed9\u77f3\u7dda","riders":11},"type":"Point","coordinates":[86861,66984],"id":"feature_166"},{"properties":{"name":"\u9ad8\u57ce\u753a","line":"\u4ed9\u77f3\u7dda","riders":2892},"type":"Point","coordinates":[80808,64703],"id":"feature_167"},{"properties":{"name":"\u5c0f\u9db4\u65b0\u7530","line":"\u4ed9\u77f3\u7dda","riders":12572},"type":"Point","coordinates":[73611,52506],"id":"feature_168"},{"properties":{"name":"\u6771\u5869\u91dc","line":"\u4ed9\u77f3\u7dda","riders":5080},"type":"Point","coordinates":[78633,58328],"id":"feature_169"},{"properties":{"name":"\u82e6\u7af9","line":"\u4ed9\u77f3\u7dda","riders":5852},"type":"Point","coordinates":[72786,51996],"id":"feature_170"},{"properties":{"name":"\u4ed9\u53f0","line":"\u4ed9\u77f3\u7dda","riders":11},"type":"Point","coordinates":[70972,51032],"id":"feature_171"},{"properties":{"name":"\u9678\u524d\u5c0f\u91ce","line":"\u4ed9\u77f3\u7dda","riders":692},"type":"Point","coordinates":[86065,66176],"id":"feature_172"},{"properties":{"name":"\u9678\u524d\u9ad8\u7802","line":"\u4ed9\u77f3\u7dda","riders":10876},"type":"Point","coordinates":[75315,52523],"id":"feature_173"},{"properties":{"name":"\u53e4\u5ddd","line":"\u6771\u5317\u65b0\u5e79\u7dda","riders":11},"type":"Point","coordinates":[75316,85652],"id":"feature_174"},{"properties":{"name":"\u4ed9\u53f0","line":"\u6771\u5317\u65b0\u5e79\u7dda","riders":11},"type":"Point","coordinates":[70869,51120],"id":"feature_175"},{"properties":{"name":"\u767d\u77f3\u8535\u738b","line":"\u6771\u5317\u65b0\u5e79\u7dda","riders":1786},"type":"Point","coordinates":[57928,21470],"id":"feature_176"},{"properties":{"name":"\u5869\u91dc","line":"\u6771\u5317\u7dda","riders":6332},"type":"Point","coordinates":[77484,56547],"id":"feature_177"},{"properties":{"name":"\u56fd\u5e9c\u591a\u8cc0\u57ce","line":"\u6771\u5317\u7dda","riders":2236},"type":"Point","coordinates":[76715,55591],"id":"feature_178"},{"properties":{"name":"\u9e7f\u5cf6\u53f0","line":"\u6771\u5317\u7dda","riders":3802},"type":"Point","coordinates":[82076,74924],"id":"feature_179"},{"properties":{"name":"\u54c1\u4e95\u6cbc","line":"\u6771\u5317\u7dda","riders":686},"type":"Point","coordinates":[81264,70128],"id":"feature_180"},{"properties":{"name":"\u5ca9\u5207","line":"\u6771\u5317\u7dda","riders":9220},"type":"Point","coordinates":[74669,55576],"id":"feature_181"},{"properties":{"name":"\u5229\u5e9c","line":"\u6771\u5317\u7dda","riders":5600},"type":"Point","coordinates":[76199,58743],"id":"feature_182"},{"properties":{"name":"\u677e\u5cf6","line":"\u6771\u5317\u7dda","riders":2876},"type":"Point","coordinates":[80381,64312],"id":"feature_183"},{"properties":{"name":"\u9928\u8170","line":"\u6771\u5317\u7dda","riders":4700},"type":"Point","coordinates":[70765,37979],"id":"feature_184"},{"properties":{"name":"\u6771\u4ed9\u53f0","line":"\u6771\u5317\u7dda","riders":7256},"type":"Point","coordinates":[72815,52822],"id":"feature_185"},{"properties":{"name":"\u7530\u5c3b","line":"\u6771\u5317\u7dda","riders":1090},"type":"Point","coordinates":[80054,88496],"id":"feature_186"},{"properties":{"name":"\u6885\u30f6\u6ca2","line":"\u6771\u5317\u7dda","riders":11},"type":"Point","coordinates":[81415,98011],"id":"feature_187"},{"properties":{"name":"\u677e\u5c71\u753a","line":"\u6771\u5317\u7dda","riders":1376},"type":"Point","coordinates":[80879,79181],"id":"feature_188"},{"properties":{"name":"\u702c\u5cf0","line":"\u6771\u5317\u7dda","riders":1136},"type":"Point","coordinates":[80824,95111],"id":"feature_189"},{"properties":{"name":"\u65b0\u5229\u5e9c","line":"\u6771\u5317\u7dda","riders":11},"type":"Point","coordinates":[75592,57393],"id":"feature_190"},{"properties":{"name":"\u540d\u53d6","line":"\u6771\u5317\u7dda","riders":25854},"type":"Point","coordinates":[70900,41325],"id":"feature_191"},{"properties":{"name":"\u5357\u4ed9\u53f0","line":"\u6771\u5317\u7dda","riders":19996},"type":"Point","coordinates":[70928,44014],"id":"feature_192"},{"properties":{"name":"\u9577\u753a","line":"\u6771\u5317\u7dda","riders":19026},"type":"Point","coordinates":[71082,47372],"id":"feature_193"},{"properties":{"name":"\u611b\u5b95","line":"\u6771\u5317\u7dda","riders":11},"type":"Point","coordinates":[80370,66336],"id":"feature_194"},{"properties":{"name":"\u9678\u524d\u5c71\u738b","line":"\u6771\u5317\u7dda","riders":11},"type":"Point","coordinates":[75923,55425],"id":"feature_195"},{"properties":{"name":"\u6771\u767d\u77f3","line":"\u6771\u5317\u7dda","riders":11},"type":"Point","coordinates":[58870,25947],"id":"feature_196"},{"properties":{"name":"\u6851\u6298","line":"\u6771\u5317\u7dda","riders":1390},"type":"Point","coordinates":[51922,5886],"id":"feature_197"},{"properties":{"name":"\u767d\u77f3","line":"\u6771\u5317\u7dda","riders":5970},"type":"Point","coordinates":[57580,22379],"id":"feature_198"},{"properties":{"name":"\u8239\u5ca1","line":"\u6771\u5317\u7dda","riders":6714},"type":"Point","coordinates":[64910,28643],"id":"feature_199"},{"properties":{"name":"\u5317\u767d\u5ddd","line":"\u6771\u5317\u7dda","riders":11},"type":"Point","coordinates":[61023,25647],"id":"feature_200"},{"properties":{"name":"\u85e4\u7530","line":"\u6771\u5317\u7dda","riders":1416},"type":"Point","coordinates":[53070,8529],"id":"feature_201"},{"properties":{"name":"\u5927\u6cb3\u539f","line":"\u6771\u5317\u7dda","riders":6788},"type":"Point","coordinates":[63504,27314],"id":"feature_202"},{"properties":{"name":"\u8c9d\u7530","line":"\u6771\u5317\u7dda","riders":11},"type":"Point","coordinates":[55229,11787],"id":"feature_203"},{"properties":{"name":"\u8d8a\u6cb3","line":"\u6771\u5317\u7dda","riders":11},"type":"Point","coordinates":[56454,14615],"id":"feature_204"},{"properties":{"name":"\u4f0a\u9054","line":"\u6771\u5317\u7dda","riders":1966},"type":"Point","coordinates":[50680,2442],"id":"feature_205"},{"properties":{"name":"\u7fbd\u524d\u677e\u5ca1","line":"\u7c73\u5742\u7dda","riders":11},"type":"Point","coordinates":[13656,27090],"id":"feature_206"},{"properties":{"name":"\u72ac\u5ddd","line":"\u7c73\u5742\u7dda","riders":11},"type":"Point","coordinates":[27764,24861],"id":"feature_207"},{"properties":{"name":"\u6210\u5cf6","line":"\u7c73\u5742\u7dda","riders":11},"type":"Point","coordinates":[28982,15717],"id":"feature_208"},{"properties":{"name":"\u7fbd\u524d\u5c0f\u677e","line":"\u7c73\u5742\u7dda","riders":690},"type":"Point","coordinates":[27579,22553],"id":"feature_209"},{"properties":{"name":"\u5c0f\u56fd","line":"\u7c73\u5742\u7dda","riders":280},"type":"Point","coordinates":[12084,28880],"id":"feature_210"},{"properties":{"name":"\u4e2d\u90e1","line":"\u7c73\u5742\u7dda","riders":11},"type":"Point","coordinates":[28552,18595],"id":"feature_211"},{"properties":{"name":"\u4f0a\u4f50\u9818","line":"\u7c73\u5742\u7dda","riders":11},"type":"Point","coordinates":[15848,27720],"id":"feature_212"},{"properties":{"name":"\u7fbd\u524d\u693f","line":"\u7c73\u5742\u7dda","riders":172},"type":"Point","coordinates":[24761,26335],"id":"feature_213"},{"properties":{"name":"\u7fbd\u524d\u6cbc\u6ca2","line":"\u7c73\u5742\u7dda","riders":11},"type":"Point","coordinates":[18436,25239],"id":"feature_214"},{"properties":{"name":"\u8429\u751f","line":"\u7c73\u5742\u7dda","riders":11},"type":"Point","coordinates":[25280,28931],"id":"feature_215"},{"properties":{"name":"\u624b\u30ce\u5b50","line":"\u7c73\u5742\u7dda","riders":11},"type":"Point","coordinates":[23046,23341],"id":"feature_216"},{"properties":{"name":"\u5357\u7c73\u6ca2","line":"\u7c73\u5742\u7dda","riders":11},"type":"Point","coordinates":[30681,10443],"id":"feature_217"},{"properties":{"name":"\u897f\u7c73\u6ca2","line":"\u7c73\u5742\u7dda","riders":11},"type":"Point","coordinates":[29463,12806],"id":"feature_218"},{"properties":{"name":"\u8d8a\u5f8c\u5927\u5cf6","line":"\u7c73\u5742\u7dda","riders":11},"type":"Point","coordinates":[45,33138],"id":"feature_219"},{"properties":{"name":"\u8d8a\u5f8c\u4e0b\u95a2","line":"\u7c73\u5742\u7dda","riders":220},"type":"Point","coordinates":[2216,32060],"id":"feature_220"},{"properties":{"name":"\u8d8a\u5f8c\u7247\u8c9d","line":"\u7c73\u5742\u7dda","riders":11},"type":"Point","coordinates":[5450,29919],"id":"feature_221"},{"properties":{"name":"\u8d8a\u5f8c\u91d1\u4e38","line":"\u7c73\u5742\u7dda","riders":11},"type":"Point","coordinates":[7584,29444],"id":"feature_222"},{"properties":{"name":"\u6709\u5099\u9928","line":"\u9678\u7fbd\u6771\u7dda","riders":11},"type":"Point","coordinates":[69945,95383],"id":"feature_223"},{"properties":{"name":"\u5ca9\u51fa\u5c71","line":"\u9678\u7fbd\u6771\u7dda","riders":462},"type":"Point","coordinates":[70319,94764],"id":"feature_224"},{"properties":{"name":"\u585a\u76ee","line":"\u9678\u7fbd\u6771\u7dda","riders":11},"type":"Point","coordinates":[73722,85846],"id":"feature_225"},{"properties":{"name":"\u4e0a\u91ce\u76ee","line":"\u9678\u7fbd\u6771\u7dda","riders":11},"type":"Point","coordinates":[69685,97889],"id":"feature_226"},{"properties":{"name":"\u6771\u5927\u5d0e","line":"\u9678\u7fbd\u6771\u7dda","riders":11},"type":"Point","coordinates":[71643,89544],"id":"feature_227"},{"properties":{"name":"\u897f\u5927\u5d0e","line":"\u9678\u7fbd\u6771\u7dda","riders":11},"type":"Point","coordinates":[71260,92260],"id":"feature_228"},{"properties":{"name":"\u897f\u53e4\u5ddd","line":"\u9678\u7fbd\u6771\u7dda","riders":11},"type":"Point","coordinates":[71560,86478],"id":"feature_229"},{"properties":{"name":"\u53e4\u5ddd","line":"\u9678\u7fbd\u6771\u7dda","riders":10202},"type":"Point","coordinates":[75315,85635],"id":"feature_230"},{"properties":{"name":"\u5317\u6d66","line":"\u9678\u7fbd\u6771\u7dda","riders":11},"type":"Point","coordinates":[78190,84439],"id":"feature_231"},{"properties":{"name":"\u9678\u524d\u8c37\u5730","line":"\u9678\u7fbd\u6771\u7dda","riders":11},"type":"Point","coordinates":[76965,85025],"id":"feature_232"},{"properties":{"name":"\u98ef\u5742\u6e29\u6cc9","line":"\u98ef\u5742\u7dda","riders":1181},"type":"Point","coordinates":[48670,3094],"id":"feature_233"},{"properties":{"name":"\u533b\u738b\u5bfa\u524d","line":"\u98ef\u5742\u7dda","riders":745},"type":"Point","coordinates":[48236,1523],"id":"feature_234"},{"properties":{"name":"\u82b1\u6c34\u5742","line":"\u98ef\u5742\u7dda","riders":584},"type":"Point","coordinates":[48469,2752],"id":"feature_235"},{"properties":{"name":"\u5e73\u91ce","line":"\u98ef\u5742\u7dda","riders":756},"type":"Point","coordinates":[48050,303],"id":"feature_236"},{"properties":{"name":"\u592a\u5b50\u5802","line":"\u6771\u5317\u7dda","riders":7872},"type":"Point","coordinates":[70949,46289],"id":"feature_237"},{"properties":{"name":"\u6771\u5317\u798f\u7949\u5927\u524d","line":"\u4ed9\u5c71\u7dda","riders":7290},"type":"Point","coordinates":[68825,53291],"id":"feature_238"},{"properties":{"name":"\u7f8e\u7530\u5712","line":"\u4ed9\u53f0\u7a7a\u6e2f\u7dda","riders":1480},"type":"Point","coordinates":[72701,39831],"id":"feature_239"},{"properties":{"name":"\u4ed9\u53f0\u7a7a\u6e2f","line":"\u4ed9\u53f0\u7a7a\u6e2f\u7dda","riders":5385},"type":"Point","coordinates":[73341,37333],"id":"feature_240"},{"properties":{"name":"\u675c\u305b\u304d\u306e\u3057\u305f","line":"\u4ed9\u53f0\u7a7a\u6e2f\u7dda","riders":3556},"type":"Point","coordinates":[71585,40464],"id":"feature_241"},{"properties":{"name":"\u56db\u5b63\u306e\u90f7","line":"\u30d5\u30e9\u30ef\u30fc\u9577\u4e95\u7dda","riders":32},"type":"Point","coordinates":[29141,42765],"id":"feature_242"},{"properties":{"name":"\u5973\u5ddd","line":"\u77f3\u5dfb\u7dda","riders":628},"type":"Point","coordinates":[99999,71848],"id":"feature_243"},{"properties":{"name":"\u5929\u7ae5\u5357","line":"\u5965\u7fbd\u7dda","riders":11},"type":"Point","coordinates":[44050,60149],"id":"feature_244"},{"properties":{"name":"\u6771\u540d","line":"\u4ed9\u77f3\u7dda","riders":11},"type":"Point","coordinates":[84463,63863],"id":"feature_245"},{"properties":{"name":"\u91ce\u849c","line":"\u4ed9\u77f3\u7dda","riders":956},"type":"Point","coordinates":[85120,64266],"id":"feature_246"},{"properties":{"name":"\u516b\u6728\u5c71\u52d5\u7269\u516c\u5712","line":"\u6771\u897f\u7dda","riders":11434},"type":"Point","coordinates":[68888,49154],"id":"feature_247"},{"properties":{"name":"\u9752\u8449\u5c71","line":"\u6771\u897f\u7dda","riders":8946},"type":"Point","coordinates":[68438,50472],"id":"feature_248"},{"properties":{"name":"\u5ddd\u5185","line":"\u6771\u897f\u7dda","riders":7230},"type":"Point","coordinates":[69218,51105],"id":"feature_249"},{"properties":{"name":"\u56fd\u969b\u30bb\u30f3\u30bf\u30fc","line":"\u6771\u897f\u7dda","riders":7158},"type":"Point","coordinates":[69554,51035],"id":"feature_250"},{"properties":{"name":"\u9752\u8449\u901a\u4e00\u756a\u753a","line":"\u6771\u897f\u7dda","riders":15174},"type":"Point","coordinates":[70345,50975],"id":"feature_251"},{"properties":{"name":"\u5927\u753a\u897f\u516c\u5712","line":"\u6771\u897f\u7dda","riders":4648},"type":"Point","coordinates":[69957,50893],"id":"feature_252"},{"properties":{"name":"\u4ed9\u53f0","line":"\u6771\u897f\u7dda","riders":12},"type":"Point","coordinates":[70767,50985],"id":"feature_253"},{"properties":{"name":"\u5bae\u57ce\u91ce\u901a","line":"\u6771\u897f\u7dda","riders":6522},"type":"Point","coordinates":[71059,50795],"id":"feature_254"},{"properties":{"name":"\u9023\u574a","line":"\u6771\u897f\u7dda","riders":7626},"type":"Point","coordinates":[71444,50025],"id":"feature_255"},{"properties":{"name":"\u85ac\u5e2b\u5802","line":"\u6771\u897f\u7dda","riders":11334},"type":"Point","coordinates":[72110,49850],"id":"feature_256"},{"properties":{"name":"\u5378\u753a","line":"\u6771\u897f\u7dda","riders":9450},"type":"Point","coordinates":[72881,50070],"id":"feature_257"},{"properties":{"name":"\u516d\u4e01\u306e\u76ee","line":"\u6771\u897f\u7dda","riders":7426},"type":"Point","coordinates":[73648,50001],"id":"feature_258"},{"properties":{"name":"\u8352\u4e95","line":"\u6771\u897f\u7dda","riders":6554},"type":"Point","coordinates":[74309,49328],"id":"feature_259"},{"properties":{"name":"\u77f3\u5dfb\u3042\u3086\u307f\u91ce","line":"\u4ed9\u77f3\u7dda","riders":11},"type":"Point","coordinates":[90450,70634],"id":"feature_260"}],"type":"GeometryCollection"}},"bbox":[139.51747,37.80237,141.4431,38.69946],"transform":{"scale":[1.925649256492549e-05,8.970989709897086e-06],"translate":[139.51747,37.80237]},"arcs":[]}