{"type":"Topology","objects":{"data":{"geometries":[{"properties":{"name":"\u5409\u7965\u5bfa","line":"\u4e95\u306e\u982d\u7dda","riders":148187},"type":"Point","coordinates":[87740,722],"id":"feature_000"},{"properties":{"name":"\u5fa1\u5cb3\u5c71","line":"\u30b1\u30fc\u30d6\u30eb\u30ab\u30fc","riders":1503},"type":"Point","coordinates":[43489,29901],"id":"feature_001"},{"properties":{"name":"\u6edd\u672c","line":"\u30b1\u30fc\u30d6\u30eb\u30ab\u30fc","riders":1503},"type":"Point","coordinates":[44297,32039],"id":"feature_002"},{"properties":{"name":"\u539f\u5e02","line":"\u4f0a\u5948\u7dda","riders":3116},"type":"Point","coordinates":[92085,88102],"id":"feature_003"},{"properties":{"name":"\u52a0\u8302\u5bae","line":"\u4f0a\u5948\u7dda","riders":6051},"type":"Point","coordinates":[91540,78724],"id":"feature_004"},{"properties":{"name":"\u6cbc\u5357","line":"\u4f0a\u5948\u7dda","riders":3899},"type":"Point","coordinates":[92222,90501],"id":"feature_005"},{"properties":{"name":"\u4eca\u7fbd","line":"\u4f0a\u5948\u7dda","riders":5330},"type":"Point","coordinates":[91817,83482],"id":"feature_006"},{"properties":{"name":"\u5409\u91ce\u539f","line":"\u4f0a\u5948\u7dda","riders":3705},"type":"Point","coordinates":[91951,85820],"id":"feature_007"},{"properties":{"name":"\u5927\u5bae","line":"\u4f0a\u5948\u7dda","riders":48654},"type":"Point","coordinates":[92091,69380],"id":"feature_008"},{"properties":{"name":"\u4e38\u5c71","line":"\u4f0a\u5948\u7dda","riders":3248},"type":"Point","coordinates":[92328,93367],"id":"feature_009"},{"properties":{"name":"\u4f0a\u5948\u4e2d\u592e","line":"\u4f0a\u5948\u7dda","riders":2234},"type":"Point","coordinates":[91549,99999],"id":"feature_010"},{"properties":{"name":"\u9244\u9053\u535a\u7269\u9928","line":"\u4f0a\u5948\u7dda","riders":10569},"type":"Point","coordinates":[91632,73546],"id":"feature_011"},{"properties":{"name":"\u6771\u5bae\u539f","line":"\u4f0a\u5948\u7dda","riders":4925},"type":"Point","coordinates":[91673,81033],"id":"feature_012"},{"properties":{"name":"\u5fd7\u4e45","line":"\u4f0a\u5948\u7dda","riders":4030},"type":"Point","coordinates":[92086,97183],"id":"feature_013"},{"properties":{"name":"\u897f\u6240\u6ca2","line":"\u72ed\u5c71\u7dda","riders":25814},"type":"Point","coordinates":[74869,29610],"id":"feature_014"},{"properties":{"name":"\u4e0b\u5c71\u53e3","line":"\u72ed\u5c71\u7dda","riders":8632},"type":"Point","coordinates":[73305,26500],"id":"feature_015"},{"properties":{"name":"\u897f\u6b66\u7403\u5834\u524d","line":"\u72ed\u5c71\u7dda","riders":12},"type":"Point","coordinates":[71155,23867],"id":"feature_016"},{"properties":{"name":"\u6771\u6751\u5c71","line":"\u56fd\u5206\u5bfa\u7dda","riders":49492},"type":"Point","coordinates":[75867,19992],"id":"feature_017"},{"properties":{"name":"\u5c0f\u5ddd","line":"\u56fd\u5206\u5bfa\u7dda","riders":30215},"type":"Point","coordinates":[75622,12508],"id":"feature_018"},{"properties":{"name":"\u9df9\u306e\u53f0","line":"\u56fd\u5206\u5bfa\u7dda","riders":27075},"type":"Point","coordinates":[75369,7644],"id":"feature_019"},{"properties":{"name":"\u56fd\u5206\u5bfa","line":"\u56fd\u5206\u5bfa\u7dda","riders":226736},"type":"Point","coordinates":[77392,0],"id":"feature_020"},{"properties":{"name":"\u604b\u30f6\u7aaa","line":"\u56fd\u5206\u5bfa\u7dda","riders":12851},"type":"Point","coordinates":[75662,3748],"id":"feature_021"},{"properties":{"name":"\u591a\u6469\u6e56","line":"\u5c71\u53e3\u7dda","riders":3079},"type":"Point","coordinates":[73466,21936],"id":"feature_022"},{"properties":{"name":"\u897f\u6b66\u7403\u5834\u524d","line":"\u5c71\u53e3\u7dda","riders":13869},"type":"Point","coordinates":[71133,23603],"id":"feature_023"},{"properties":{"name":"\u897f\u6b66\u5712\u3086\u3046\u3048\u3093\u3061","line":"\u5c71\u53e3\u7dda","riders":950},"type":"Point","coordinates":[73203,23019],"id":"feature_024"},{"properties":{"name":"\u4e0b\u4e95\u8349","line":"\u65b0\u5bbf\u7dda","riders":25181},"type":"Point","coordinates":[92348,7931],"id":"feature_025"},{"properties":{"name":"\u4e0b\u843d\u5408","line":"\u65b0\u5bbf\u7dda","riders":12479},"type":"Point","coordinates":[99668,5198],"id":"feature_026"},{"properties":{"name":"\u91ce\u65b9","line":"\u65b0\u5bbf\u7dda","riders":25560},"type":"Point","coordinates":[95332,6501],"id":"feature_027"},{"properties":{"name":"\u9dfa\u30ce\u5bae","line":"\u65b0\u5bbf\u7dda","riders":33147},"type":"Point","coordinates":[93916,7514],"id":"feature_028"},{"properties":{"name":"\u4e0a\u4e95\u8349","line":"\u65b0\u5bbf\u7dda","riders":21490},"type":"Point","coordinates":[90090,8392],"id":"feature_029"},{"properties":{"name":"\u4e2d\u4e95","line":"\u65b0\u5bbf\u7dda","riders":29834},"type":"Point","coordinates":[98771,4991],"id":"feature_030"},{"properties":{"name":"\u90fd\u7acb\u5bb6\u653f","line":"\u65b0\u5bbf\u7dda","riders":19236},"type":"Point","coordinates":[94495,7370],"id":"feature_031"},{"properties":{"name":"\u65b0\u4e95\u85ac\u5e2b\u524d","line":"\u65b0\u5bbf\u7dda","riders":23023},"type":"Point","coordinates":[97304,5235],"id":"feature_032"},{"properties":{"name":"\u4e95\u837b","line":"\u65b0\u5bbf\u7dda","riders":20299},"type":"Point","coordinates":[91396,8195],"id":"feature_033"},{"properties":{"name":"\u4e0a\u77f3\u795e\u4e95","line":"\u65b0\u5bbf\u7dda","riders":44959},"type":"Point","coordinates":[88983,8710],"id":"feature_034"},{"properties":{"name":"\u6cbc\u888b","line":"\u65b0\u5bbf\u7dda","riders":20641},"type":"Point","coordinates":[96509,6358],"id":"feature_035"},{"properties":{"name":"\u5c0f\u5e73","line":"\u65b0\u5bbf\u7dda","riders":39464},"type":"Point","coordinates":[78210,12291],"id":"feature_036"},{"properties":{"name":"\u72ed\u5c71\u5e02","line":"\u65b0\u5bbf\u7dda","riders":41832},"type":"Point","coordinates":[70423,52522],"id":"feature_037"},{"properties":{"name":"\u5165\u66fd","line":"\u65b0\u5bbf\u7dda","riders":18945},"type":"Point","coordinates":[71855,44186],"id":"feature_038"},{"properties":{"name":"\u5357\u5927\u585a","line":"\u65b0\u5bbf\u7dda","riders":16937},"type":"Point","coordinates":[74656,63333],"id":"feature_039"},{"properties":{"name":"\u822a\u7a7a\u516c\u5712","line":"\u65b0\u5bbf\u7dda","riders":28448},"type":"Point","coordinates":[75839,32811],"id":"feature_040"},{"properties":{"name":"\u672c\u5ddd\u8d8a","line":"\u65b0\u5bbf\u7dda","riders":53880},"type":"Point","coordinates":[77451,71341],"id":"feature_041"},{"properties":{"name":"\u65b0\u72ed\u5c71","line":"\u65b0\u5bbf\u7dda","riders":21605},"type":"Point","coordinates":[72540,58141],"id":"feature_042"},{"properties":{"name":"\u65b0\u6240\u6ca2","line":"\u65b0\u5bbf\u7dda","riders":55870},"type":"Point","coordinates":[74965,35303],"id":"feature_043"},{"properties":{"name":"\u6240\u6ca2","line":"\u65b0\u5bbf\u7dda","riders":12},"type":"Point","coordinates":[76636,28962],"id":"feature_044"},{"properties":{"name":"\u4e45\u7c73\u5ddd","line":"\u65b0\u5bbf\u7dda","riders":32882},"type":"Point","coordinates":[76575,16504],"id":"feature_045"},{"properties":{"name":"\u6b66\u8535\u95a2","line":"\u65b0\u5bbf\u7dda","riders":32351},"type":"Point","coordinates":[87331,9184],"id":"feature_046"},{"properties":{"name":"\u7530\u7121","line":"\u65b0\u5bbf\u7dda","riders":75996},"type":"Point","coordinates":[83452,9044],"id":"feature_047"},{"properties":{"name":"\u82b1\u5c0f\u91d1\u4e95","line":"\u65b0\u5bbf\u7dda","riders":59223},"type":"Point","coordinates":[80790,8693],"id":"feature_048"},{"properties":{"name":"\u897f\u6b66\u67f3\u6ca2","line":"\u65b0\u5bbf\u7dda","riders":16727},"type":"Point","coordinates":[84844,9505],"id":"feature_049"},{"properties":{"name":"\u6771\u4f0f\u898b","line":"\u65b0\u5bbf\u7dda","riders":25240},"type":"Point","coordinates":[86003,9562],"id":"feature_050"},{"properties":{"name":"\u897f\u6b66\u5712","line":"\u897f\u6b66\u5712\u7dda","riders":3998},"type":"Point","coordinates":[74106,22588],"id":"feature_051"},{"properties":{"name":"\u543e\u91ce","line":"\u897f\u6b66\u79e9\u7236\u7dda","riders":821},"type":"Point","coordinates":[50974,69550],"id":"feature_052"},{"properties":{"name":"\u6a2a\u702c","line":"\u897f\u6b66\u79e9\u7236\u7dda","riders":1878},"type":"Point","coordinates":[37733,95004],"id":"feature_053"},{"properties":{"name":"\u897f\u6b66\u79e9\u7236","line":"\u897f\u6b66\u79e9\u7236\u7dda","riders":7418},"type":"Point","coordinates":[36147,96845],"id":"feature_054"},{"properties":{"name":"\u897f\u543e\u91ce","line":"\u897f\u6b66\u79e9\u7236\u7dda","riders":409},"type":"Point","coordinates":[48537,75794],"id":"feature_055"},{"properties":{"name":"\u82a6\u30f6\u4e45\u4fdd","line":"\u897f\u6b66\u79e9\u7236\u7dda","riders":478},"type":"Point","coordinates":[41646,92298],"id":"feature_056"},{"properties":{"name":"\u6b63\u4e38","line":"\u897f\u6b66\u79e9\u7236\u7dda","riders":292},"type":"Point","coordinates":[46365,79570],"id":"feature_057"},{"properties":{"name":"\u5c0f\u7af9\u5411\u539f","line":"\u897f\u6b66\u6709\u697d\u753a\u7dda","riders":339614},"type":"Point","coordinates":[98032,14453],"id":"feature_058"},{"properties":{"name":"\u7df4\u99ac","line":"\u897f\u6b66\u6709\u697d\u753a\u7dda","riders":133700},"type":"Point","coordinates":[95430,12632],"id":"feature_059"},{"properties":{"name":"\u65b0\u685c\u53f0","line":"\u897f\u6b66\u6709\u697d\u753a\u7dda","riders":9923},"type":"Point","coordinates":[96896,13647],"id":"feature_060"},{"properties":{"name":"\u516b\u5742","line":"\u591a\u6469\u6e56\u7dda","riders":6171},"type":"Point","coordinates":[76063,14954],"id":"feature_061"},{"properties":{"name":"\u56fd\u5206\u5bfa","line":"\u591a\u6469\u6e56\u7dda","riders":12},"type":"Point","coordinates":[77259,314],"id":"feature_062"},{"properties":{"name":"\u4e00\u6a4b\u5b66\u5712","line":"\u591a\u6469\u6e56\u7dda","riders":21663},"type":"Point","coordinates":[77340,7340],"id":"feature_063"},{"properties":{"name":"\u8429\u5c71","line":"\u591a\u6469\u6e56\u7dda","riders":10332},"type":"Point","coordinates":[77009,13574],"id":"feature_064"},{"properties":{"name":"\u6b66\u8535\u5927\u548c","line":"\u591a\u6469\u6e56\u7dda","riders":7529},"type":"Point","coordinates":[73603,18812],"id":"feature_065"},{"properties":{"name":"\u9752\u6885\u8857\u9053","line":"\u591a\u6469\u6e56\u7dda","riders":8446},"type":"Point","coordinates":[76978,10310],"id":"feature_066"},{"properties":{"name":"\u6b66\u8535\u5883","line":"\u591a\u6469\u5ddd\u7dda","riders":30931},"type":"Point","coordinates":[84000,595],"id":"feature_067"},{"properties":{"name":"\u77f3\u795e\u4e95\u516c\u5712","line":"\u6c60\u888b\u7dda","riders":82902},"type":"Point","coordinates":[90462,14536],"id":"feature_068"},{"properties":{"name":"\u6c5f\u53e4\u7530","line":"\u6c60\u888b\u7dda","riders":35267},"type":"Point","coordinates":[97334,12475],"id":"feature_069"},{"properties":{"name":"\u5bcc\u58eb\u898b\u53f0","line":"\u6c60\u888b\u7dda","riders":27936},"type":"Point","coordinates":[92876,11934],"id":"feature_070"},{"properties":{"name":"\u4e2d\u6751\u6a4b","line":"\u6c60\u888b\u7dda","riders":41021},"type":"Point","coordinates":[93639,12208],"id":"feature_071"},{"properties":{"name":"\u685c\u53f0","line":"\u6c60\u888b\u7dda","riders":15087},"type":"Point","coordinates":[96256,12902],"id":"feature_072"},{"properties":{"name":"\u6771\u9577\u5d0e","line":"\u6c60\u888b\u7dda","riders":28113},"type":"Point","coordinates":[98412,9969],"id":"feature_073"},{"properties":{"name":"\u7df4\u99ac\u9ad8\u91ce\u53f0","line":"\u6c60\u888b\u7dda","riders":27327},"type":"Point","coordinates":[91530,13527],"id":"feature_074"},{"properties":{"name":"\u690e\u540d\u753a","line":"\u6c60\u888b\u7dda","riders":20723},"type":"Point","coordinates":[99567,8807],"id":"feature_075"},{"properties":{"name":"\u5927\u6cc9\u5b66\u5712","line":"\u6c60\u888b\u7dda","riders":88104},"type":"Point","coordinates":[88398,16464],"id":"feature_076"},{"properties":{"name":"\u5c0f\u624b\u6307","line":"\u6c60\u888b\u7dda","riders":49203},"type":"Point","coordinates":[72980,33559],"id":"feature_077"},{"properties":{"name":"\u6771\u543e\u91ce","line":"\u6c60\u888b\u7dda","riders":664},"type":"Point","coordinates":[54538,64258],"id":"feature_078"},{"properties":{"name":"\u5143\u52a0\u6cbb","line":"\u6c60\u888b\u7dda","riders":7120},"type":"Point","coordinates":[63360,46923],"id":"feature_079"},{"properties":{"name":"\u6e05\u702c","line":"\u6c60\u888b\u7dda","riders":70760},"type":"Point","coordinates":[81475,23997],"id":"feature_080"},{"properties":{"name":"\u4ecf\u5b50","line":"\u6c60\u888b\u7dda","riders":13235},"type":"Point","coordinates":[64904,45954],"id":"feature_081"},{"properties":{"name":"\u72ed\u5c71\u30f6\u4e18","line":"\u6c60\u888b\u7dda","riders":26238},"type":"Point","coordinates":[70800,36843],"id":"feature_082"},{"properties":{"name":"\u98ef\u80fd","line":"\u6c60\u888b\u7dda","riders":32929},"type":"Point","coordinates":[60614,50471],"id":"feature_083"},{"properties":{"name":"\u79cb\u6d25","line":"\u6c60\u888b\u7dda","riders":81556},"type":"Point","coordinates":[79080,26179],"id":"feature_084"},{"properties":{"name":"\u6771\u4e45\u7559\u7c73","line":"\u6c60\u888b\u7dda","riders":55076},"type":"Point","coordinates":[82910,20152],"id":"feature_085"},{"properties":{"name":"\u6b66\u8535\u6a2a\u624b","line":"\u6c60\u888b\u7dda","riders":463},"type":"Point","coordinates":[56660,61836],"id":"feature_086"},{"properties":{"name":"\u6b66\u8535\u85e4\u6ca2","line":"\u6c60\u888b\u7dda","riders":24544},"type":"Point","coordinates":[70358,40331],"id":"feature_087"},{"properties":{"name":"\u9ad8\u9e97","line":"\u6c60\u888b\u7dda","riders":3221},"type":"Point","coordinates":[59110,60780],"id":"feature_088"},{"properties":{"name":"\u6771\u98ef\u80fd","line":"\u6c60\u888b\u7dda","riders":5681},"type":"Point","coordinates":[61355,51079],"id":"feature_089"},{"properties":{"name":"\u7a32\u8377\u5c71\u516c\u5712","line":"\u6c60\u888b\u7dda","riders":10053},"type":"Point","coordinates":[68969,48296],"id":"feature_090"},{"properties":{"name":"\u5165\u9593\u5e02","line":"\u6c60\u888b\u7dda","riders":35881},"type":"Point","coordinates":[68030,47691],"id":"feature_091"},{"properties":{"name":"\u3072\u3070\u308a\u30f6\u4e18","line":"\u6c60\u888b\u7dda","riders":74392},"type":"Point","coordinates":[84157,17142],"id":"feature_092"},{"properties":{"name":"\u6240\u6ca2","line":"\u6c60\u888b\u7dda","riders":104984},"type":"Point","coordinates":[76653,28915],"id":"feature_093"},{"properties":{"name":"\u4fdd\u8c37","line":"\u6c60\u888b\u7dda","riders":63372},"type":"Point","coordinates":[86488,16080],"id":"feature_094"},{"properties":{"name":"\u62dd\u5cf6","line":"\u62dd\u5cf6\u7dda","riders":36770},"type":"Point","coordinates":[63242,7009],"id":"feature_095"},{"properties":{"name":"\u6771\u5927\u548c\u5e02","line":"\u62dd\u5cf6\u7dda","riders":26029},"type":"Point","coordinates":[72591,10951],"id":"feature_096"},{"properties":{"name":"\u897f\u6b66\u7acb\u5ddd","line":"\u62dd\u5cf6\u7dda","riders":11977},"type":"Point","coordinates":[65886,8703],"id":"feature_097"},{"properties":{"name":"\u6b66\u8535\u7802\u5ddd","line":"\u62dd\u5cf6\u7dda","riders":12255},"type":"Point","coordinates":[68239,9588],"id":"feature_098"},{"properties":{"name":"\u7389\u5ddd\u4e0a\u6c34","line":"\u62dd\u5cf6\u7dda","riders":42827},"type":"Point","coordinates":[70982,10550],"id":"feature_099"},{"properties":{"name":"\u8c4a\u5cf6\u5712","line":"\u8c4a\u5cf6\u7dda","riders":14537},"type":"Point","coordinates":[94764,14002],"id":"feature_100"},{"properties":{"name":"\u685c\u8857\u9053","line":"\u591a\u6469\u90fd\u5e02\u30e2\u30ce\u30ec\u30fc\u30eb\u7dda","riders":7063},"type":"Point","coordinates":[70752,12999],"id":"feature_101"},{"properties":{"name":"\u6cc9\u4f53\u80b2\u9928","line":"\u591a\u6469\u90fd\u5e02\u30e2\u30ce\u30ec\u30fc\u30eb\u7dda","riders":6479},"type":"Point","coordinates":[71064,6254],"id":"feature_102"},{"properties":{"name":"\u9ad8\u677e","line":"\u591a\u6469\u90fd\u5e02\u30e2\u30ce\u30ec\u30fc\u30eb\u7dda","riders":8236},"type":"Point","coordinates":[70411,3314],"id":"feature_103"},{"properties":{"name":"\u7389\u5ddd\u4e0a\u6c34","line":"\u591a\u6469\u90fd\u5e02\u30e2\u30ce\u30ec\u30fc\u30eb\u7dda","riders":24696},"type":"Point","coordinates":[70874,10687],"id":"feature_104"},{"properties":{"name":"\u4e0a\u5317\u53f0","line":"\u591a\u6469\u90fd\u5e02\u30e2\u30ce\u30ec\u30fc\u30eb\u7dda","riders":13031},"type":"Point","coordinates":[70679,15244],"id":"feature_105"},{"properties":{"name":"\u7acb\u98db","line":"\u591a\u6469\u90fd\u5e02\u30e2\u30ce\u30ec\u30fc\u30eb\u7dda","riders":12986},"type":"Point","coordinates":[70805,4724],"id":"feature_106"},{"properties":{"name":"\u7802\u5ddd\u4e03\u756a","line":"\u591a\u6469\u90fd\u5e02\u30e2\u30ce\u30ec\u30fc\u30eb\u7dda","riders":4914},"type":"Point","coordinates":[70913,7771],"id":"feature_107"},{"properties":{"name":"\u4e09\u5cf0\u53e3","line":"\u79e9\u7236\u672c\u7dda","riders":484},"type":"Point","coordinates":[25227,86876],"id":"feature_108"},{"properties":{"name":"\u6b66\u5dde\u65e5\u91ce","line":"\u79e9\u7236\u672c\u7dda","riders":245},"type":"Point","coordinates":[29822,84771],"id":"feature_109"},{"properties":{"name":"\u5fa1\u82b1\u7551","line":"\u79e9\u7236\u672c\u7dda","riders":2917},"type":"Point","coordinates":[36214,97630],"id":"feature_110"},{"properties":{"name":"\u5f71\u68ee","line":"\u79e9\u7236\u672c\u7dda","riders":532},"type":"Point","coordinates":[34631,90825],"id":"feature_111"},{"properties":{"name":"\u79e9\u7236","line":"\u79e9\u7236\u672c\u7dda","riders":1218},"type":"Point","coordinates":[36462,99782],"id":"feature_112"},{"properties":{"name":"\u6d66\u5c71\u53e3","line":"\u79e9\u7236\u672c\u7dda","riders":236},"type":"Point","coordinates":[33569,88129],"id":"feature_113"},{"properties":{"name":"\u767d\u4e45","line":"\u79e9\u7236\u672c\u7dda","riders":198},"type":"Point","coordinates":[26840,86458],"id":"feature_114"},{"properties":{"name":"\u6b66\u5dde\u4e2d\u5ddd","line":"\u79e9\u7236\u672c\u7dda","riders":320},"type":"Point","coordinates":[31214,86278],"id":"feature_115"},{"properties":{"name":"\u837b\u7aaa","line":"4\u53f7\u7dda\u4e38\u30ce\u5185\u7dda","riders":93426},"type":"Point","coordinates":[91832,1350],"id":"feature_116"},{"properties":{"name":"\u4e2d\u91ce","line":"5\u53f7\u7dda\u6771\u897f\u7dda","riders":379611},"type":"Point","coordinates":[96588,1874],"id":"feature_117"},{"properties":{"name":"\u843d\u5408","line":"5\u53f7\u7dda\u6771\u897f\u7dda","riders":27490},"type":"Point","coordinates":[98701,3511],"id":"feature_118"},{"properties":{"name":"\u5343\u5ddd","line":"8\u53f7\u7dda\u6709\u697d\u753a\u7dda","riders":40617},"type":"Point","coordinates":[99057,12709],"id":"feature_119"},{"properties":{"name":"\u5730\u4e0b\u9244\u6210\u5897","line":"8\u53f7\u7dda\u6709\u697d\u753a\u7dda","riders":53700},"type":"Point","coordinates":[93016,25594],"id":"feature_120"},{"properties":{"name":"\u5e73\u548c\u53f0","line":"8\u53f7\u7dda\u6709\u697d\u753a\u7dda","riders":44578},"type":"Point","coordinates":[95416,19187],"id":"feature_121"},{"properties":{"name":"\u6c37\u5ddd\u53f0","line":"8\u53f7\u7dda\u6709\u697d\u753a\u7dda","riders":41073},"type":"Point","coordinates":[96574,16534],"id":"feature_122"},{"properties":{"name":"\u8981\u753a","line":"8\u53f7\u7dda\u6709\u697d\u753a\u7dda","riders":41969},"type":"Point","coordinates":[99999,11055],"id":"feature_123"},{"properties":{"name":"\u5730\u4e0b\u9244\u8d64\u585a","line":"8\u53f7\u7dda\u6709\u697d\u753a\u7dda","riders":40635},"type":"Point","coordinates":[94306,23416],"id":"feature_124"},{"properties":{"name":"\u548c\u5149\u5e02","line":"8\u53f7\u7dda\u6709\u697d\u753a\u7dda","riders":180819},"type":"Point","coordinates":[91117,29473],"id":"feature_125"},{"properties":{"name":"\u897f\u9ad8\u5cf6\u5e73","line":"6\u53f7\u7dda\u4e09\u7530\u7dda","riders":13606},"type":"Point","coordinates":[94521,30656],"id":"feature_126"},{"properties":{"name":"\u65b0\u9ad8\u5cf6\u5e73","line":"6\u53f7\u7dda\u4e09\u7530\u7dda","riders":10025},"type":"Point","coordinates":[95419,30098],"id":"feature_127"},{"properties":{"name":"\u9ad8\u5cf6\u5e73","line":"6\u53f7\u7dda\u4e09\u7530\u7dda","riders":30767},"type":"Point","coordinates":[96141,29667],"id":"feature_128"},{"properties":{"name":"\u5fd7\u6751\u5742\u4e0a","line":"6\u53f7\u7dda\u4e09\u7530\u7dda","riders":31301},"type":"Point","coordinates":[99610,25461],"id":"feature_129"},{"properties":{"name":"\u897f\u53f0","line":"6\u53f7\u7dda\u4e09\u7530\u7dda","riders":27418},"type":"Point","coordinates":[97322,29049],"id":"feature_130"},{"properties":{"name":"\u84ee\u6839","line":"6\u53f7\u7dda\u4e09\u7530\u7dda","riders":19682},"type":"Point","coordinates":[97984,28037],"id":"feature_131"},{"properties":{"name":"\u5fd7\u6751\u4e09\u4e01\u76ee","line":"6\u53f7\u7dda\u4e09\u7530\u7dda","riders":33233},"type":"Point","coordinates":[98690,25835],"id":"feature_132"},{"properties":{"name":"\u65b0\u6c5f\u53e4\u7530","line":"12\u53f7\u7dda\u5927\u6c5f\u6238\u7dda","riders":30008},"type":"Point","coordinates":[97104,10811],"id":"feature_133"},{"properties":{"name":"\u7df4\u99ac","line":"12\u53f7\u7dda\u5927\u6c5f\u6238\u7dda","riders":82576},"type":"Point","coordinates":[95444,12421],"id":"feature_134"},{"properties":{"name":"\u843d\u5408\u5357\u9577\u5d0e","line":"12\u53f7\u7dda\u5927\u6c5f\u6238\u7dda","riders":28212},"type":"Point","coordinates":[98441,7788],"id":"feature_135"},{"properties":{"name":"\u5149\u304c\u4e18","line":"12\u53f7\u7dda\u5927\u6c5f\u6238\u7dda","riders":63584},"type":"Point","coordinates":[92816,19491],"id":"feature_136"},{"properties":{"name":"\u8c4a\u5cf6\u5712","line":"12\u53f7\u7dda\u5927\u6c5f\u6238\u7dda","riders":12410},"type":"Point","coordinates":[94887,13858],"id":"feature_137"},{"properties":{"name":"\u6771\u4e2d\u91ce","line":"12\u53f7\u7dda\u5927\u6c5f\u6238\u7dda","riders":27933},"type":"Point","coordinates":[98419,2419],"id":"feature_138"},{"properties":{"name":"\u7df4\u99ac\u6625\u65e5\u753a","line":"12\u53f7\u7dda\u5927\u6c5f\u6238\u7dda","riders":23110},"type":"Point","coordinates":[94011,17115],"id":"feature_139"},{"properties":{"name":"\u4e2d\u4e95","line":"12\u53f7\u7dda\u5927\u6c5f\u6238\u7dda","riders":25798},"type":"Point","coordinates":[98736,4587],"id":"feature_140"},{"properties":{"name":"\u6b66\u8535\u5f15\u7530","line":"\u4e94\u65e5\u5e02\u7dda","riders":8290},"type":"Point","coordinates":[55556,9876],"id":"feature_141"},{"properties":{"name":"\u6b66\u8535\u4e94\u65e5\u5e02","line":"\u4e94\u65e5\u5e02\u7dda","riders":9248},"type":"Point","coordinates":[51203,10697],"id":"feature_142"},{"properties":{"name":"\u6b66\u8535\u5897\u6238","line":"\u4e94\u65e5\u5e02\u7dda","riders":5362},"type":"Point","coordinates":[54126,10300],"id":"feature_143"},{"properties":{"name":"\u718a\u5ddd","line":"\u4e94\u65e5\u5e02\u7dda","riders":2954},"type":"Point","coordinates":[62367,9408],"id":"feature_144"},{"properties":{"name":"\u79cb\u5ddd","line":"\u4e94\u65e5\u5e02\u7dda","riders":14960},"type":"Point","coordinates":[57285,9328],"id":"feature_145"},{"properties":{"name":"\u62dd\u5cf6","line":"\u4e94\u65e5\u5e02\u7dda","riders":60860},"type":"Point","coordinates":[63160,7079],"id":"feature_146"},{"properties":{"name":"\u6771\u79cb\u7559","line":"\u4e94\u65e5\u5e02\u7dda","riders":9814},"type":"Point","coordinates":[59871,8619],"id":"feature_147"},{"properties":{"name":"\u5927\u5bae","line":"\u9ad8\u5d0e\u7dda","riders":11},"type":"Point","coordinates":[92311,68926],"id":"feature_148"},{"properties":{"name":"\u4e0a\u5c3e","line":"\u9ad8\u5d0e\u7dda","riders":84420},"type":"Point","coordinates":[88622,91169],"id":"feature_149"},{"properties":{"name":"\u5bae\u539f","line":"\u9ad8\u5d0e\u7dda","riders":48558},"type":"Point","coordinates":[90770,80315],"id":"feature_150"},{"properties":{"name":"\u5317\u4e0a\u5c3e","line":"\u9ad8\u5d0e\u7dda","riders":31568},"type":"Point","coordinates":[87456,95222],"id":"feature_151"},{"properties":{"name":"\u6876\u5ddd","line":"\u9ad8\u5d0e\u7dda","riders":54110},"type":"Point","coordinates":[86070,99662],"id":"feature_152"},{"properties":{"name":"\u5927\u5bae","line":"\u4e0a\u8d8a\u65b0\u5e79\u7dda","riders":11},"type":"Point","coordinates":[92179,68835],"id":"feature_153"},{"properties":{"name":"\u9ce9\u30ce\u5de3","line":"\u9752\u6885\u7dda","riders":440},"type":"Point","coordinates":[40914,38413],"id":"feature_154"},{"properties":{"name":"\u897f\u7acb\u5ddd","line":"\u9752\u6885\u7dda","riders":13656},"type":"Point","coordinates":[68348,1143],"id":"feature_155"},{"properties":{"name":"\u53e4\u91cc","line":"\u9752\u6885\u7dda","riders":586},"type":"Point","coordinates":[43217,38818],"id":"feature_156"},{"properties":{"name":"\u5c0f\u4f5c","line":"\u9752\u6885\u7dda","riders":34902},"type":"Point","coordinates":[58896,25364],"id":"feature_157"},{"properties":{"name":"\u8ecd\u7551","line":"\u9752\u6885\u7dda","riders":11},"type":"Point","coordinates":[49079,35898],"id":"feature_158"},{"properties":{"name":"\u767d\u4e38","line":"\u9752\u6885\u7dda","riders":11},"type":"Point","coordinates":[39450,37281],"id":"feature_159"},{"properties":{"name":"\u5965\u591a\u6469","line":"\u9752\u6885\u7dda","riders":1932},"type":"Point","coordinates":[37594,36506],"id":"feature_160"},{"properties":{"name":"\u6ca2\u4e95","line":"\u9752\u6885\u7dda","riders":11},"type":"Point","coordinates":[47601,35353],"id":"feature_161"},{"properties":{"name":"\u5ddd\u4e95","line":"\u9752\u6885\u7dda","riders":11},"type":"Point","coordinates":[44583,37966],"id":"feature_162"},{"properties":{"name":"\u6771\u9752\u6885","line":"\u9752\u6885\u7dda","riders":13746},"type":"Point","coordinates":[55839,29964],"id":"feature_163"},{"properties":{"name":"\u9752\u6885","line":"\u9752\u6885\u7dda","riders":14288},"type":"Point","coordinates":[54316,30208],"id":"feature_164"},{"properties":{"name":"\u6cb3\u8fba","line":"\u9752\u6885\u7dda","riders":27270},"type":"Point","coordinates":[57006,28280],"id":"feature_165"},{"properties":{"name":"\u5fa1\u5dbd","line":"\u9752\u6885\u7dda","riders":1412},"type":"Point","coordinates":[46496,33840],"id":"feature_166"},{"properties":{"name":"\u65e5\u5411\u548c\u7530","line":"\u9752\u6885\u7dda","riders":2030},"type":"Point","coordinates":[51349,29573],"id":"feature_167"},{"properties":{"name":"\u725b\u6d5c","line":"\u9752\u6885\u7dda","riders":9192},"type":"Point","coordinates":[62165,11429],"id":"feature_168"},{"properties":{"name":"\u4e2d\u795e","line":"\u9752\u6885\u7dda","riders":22816},"type":"Point","coordinates":[66514,2963],"id":"feature_169"},{"properties":{"name":"\u798f\u751f","line":"\u9752\u6885\u7dda","riders":33636},"type":"Point","coordinates":[61538,14152],"id":"feature_170"},{"properties":{"name":"\u6771\u4e2d\u795e","line":"\u9752\u6885\u7dda","riders":14378},"type":"Point","coordinates":[67435,2051],"id":"feature_171"},{"properties":{"name":"\u4e8c\u4fe3\u5c3e","line":"\u9752\u6885\u7dda","riders":1004},"type":"Point","coordinates":[49960,34682],"id":"feature_172"},{"properties":{"name":"\u662d\u5cf6","line":"\u9752\u6885\u7dda","riders":52806},"type":"Point","coordinates":[65055,4373],"id":"feature_173"},{"properties":{"name":"\u5bae\u30ce\u5e73","line":"\u9752\u6885\u7dda","riders":11},"type":"Point","coordinates":[52157,29219],"id":"feature_174"},{"properties":{"name":"\u77f3\u795e\u524d","line":"\u9752\u6885\u7dda","riders":11},"type":"Point","coordinates":[50893,32306],"id":"feature_175"},{"properties":{"name":"\u7fbd\u6751","line":"\u9752\u6885\u7dda","riders":28206},"type":"Point","coordinates":[60351,19314],"id":"feature_176"},{"properties":{"name":"\u65e5\u9032","line":"\u5ddd\u8d8a\u7dda","riders":27380},"type":"Point","coordinates":[90411,77308],"id":"feature_177"},{"properties":{"name":"\u6307\u6247","line":"\u5ddd\u8d8a\u7dda","riders":23406},"type":"Point","coordinates":[86148,72440],"id":"feature_178"},{"properties":{"name":"\u5357\u53e4\u8c37","line":"\u5ddd\u8d8a\u7dda","riders":16754},"type":"Point","coordinates":[81396,67836],"id":"feature_179"},{"properties":{"name":"\u5ddd\u8d8a","line":"\u5ddd\u8d8a\u7dda","riders":77064},"type":"Point","coordinates":[77659,69029],"id":"feature_180"},{"properties":{"name":"\u7b20\u5e61","line":"\u5ddd\u8d8a\u7dda","riders":6048},"type":"Point","coordinates":[69684,69306],"id":"feature_181"},{"properties":{"name":"\u897f\u5ddd\u8d8a","line":"\u5ddd\u8d8a\u7dda","riders":2806},"type":"Point","coordinates":[75252,73152],"id":"feature_182"},{"properties":{"name":"\u6b66\u8535\u9ad8\u8429","line":"\u5ddd\u8d8a\u7dda","riders":6752},"type":"Point","coordinates":[66052,67342],"id":"feature_183"},{"properties":{"name":"\u7684\u5834","line":"\u5ddd\u8d8a\u7dda","riders":6164},"type":"Point","coordinates":[72708,72634],"id":"feature_184"},{"properties":{"name":"\u9ad8\u9e97\u5ddd","line":"\u5ddd\u8d8a\u7dda","riders":9422},"type":"Point","coordinates":[62616,65561],"id":"feature_185"},{"properties":{"name":"\u6771\u4e2d\u91ce","line":"\u4e2d\u592e\u7dda","riders":82468},"type":"Point","coordinates":[98609,2045],"id":"feature_186"},{"properties":{"name":"\u4e2d\u91ce","line":"\u4e2d\u592e\u7dda","riders":11},"type":"Point","coordinates":[96639,1811],"id":"feature_187"},{"properties":{"name":"\u5409\u7965\u5bfa","line":"\u4e2d\u592e\u7dda","riders":287370},"type":"Point","coordinates":[87707,1009],"id":"feature_188"},{"properties":{"name":"\u897f\u837b\u7aaa","line":"\u4e2d\u592e\u7dda","riders":91556},"type":"Point","coordinates":[89752,1226],"id":"feature_189"},{"properties":{"name":"\u837b\u7aaa","line":"\u4e2d\u592e\u7dda","riders":181430},"type":"Point","coordinates":[91883,1437],"id":"feature_190"},{"properties":{"name":"\u4e2d\u91ce","line":"\u4e2d\u592e\u7dda","riders":11},"type":"Point","coordinates":[96587,1948],"id":"feature_191"},{"properties":{"name":"\u963f\u4f50\u30f6\u8c37","line":"\u4e2d\u592e\u7dda","riders":92178},"type":"Point","coordinates":[93544,1590],"id":"feature_192"},{"properties":{"name":"\u9ad8\u5186\u5bfa","line":"\u4e2d\u592e\u7dda","riders":103526},"type":"Point","coordinates":[94941,1737],"id":"feature_193"},{"properties":{"name":"\u5927\u4e45\u4fdd","line":"\u4e2d\u592e\u7dda","riders":56700},"type":"Point","coordinates":[99892,167],"id":"feature_194"},{"properties":{"name":"\u6b66\u8535\u5883","line":"\u4e2d\u592e\u7dda","riders":137970},"type":"Point","coordinates":[83926,655],"id":"feature_195"},{"properties":{"name":"\u6771\u5c0f\u91d1\u4e95","line":"\u4e2d\u592e\u7dda","riders":63106},"type":"Point","coordinates":[81873,478],"id":"feature_196"},{"properties":{"name":"\u6b66\u8535\u5c0f\u91d1\u4e95","line":"\u4e2d\u592e\u7dda","riders":125156},"type":"Point","coordinates":[80023,301],"id":"feature_197"},{"properties":{"name":"\u5869\u5c71","line":"\u4e2d\u592e\u7dda","riders":4468},"type":"Point","coordinates":[0,1754],"id":"feature_198"},{"properties":{"name":"\u4e09\u9df9","line":"\u4e2d\u592e\u7dda","riders":197414},"type":"Point","coordinates":[85706,855],"id":"feature_199"},{"properties":{"name":"\u6d66\u548c","line":"\u6771\u5317\u7dda","riders":190128},"type":"Point","coordinates":[95711,52929],"id":"feature_200"},{"properties":{"name":"\u5357\u6d66\u548c","line":"\u6771\u5317\u7dda","riders":11},"type":"Point","coordinates":[96900,49515],"id":"feature_201"},{"properties":{"name":"\u5317\u6238\u7530","line":"\u6771\u5317\u7dda","riders":44040},"type":"Point","coordinates":[96156,42305],"id":"feature_202"},{"properties":{"name":"\u5317\u4e0e\u91ce","line":"\u6771\u5317\u7dda","riders":20596},"type":"Point","coordinates":[92744,63690],"id":"feature_203"},{"properties":{"name":"\u4e0e\u91ce\u672c\u753a","line":"\u6771\u5317\u7dda","riders":30958},"type":"Point","coordinates":[92480,60403],"id":"feature_204"},{"properties":{"name":"\u3055\u3044\u305f\u307e\u65b0\u90fd\u5fc3","line":"\u6771\u5317\u7dda","riders":111102},"type":"Point","coordinates":[93299,64633],"id":"feature_205"},{"properties":{"name":"\u84ee\u7530","line":"\u6771\u5317\u7dda","riders":42420},"type":"Point","coordinates":[95277,93892],"id":"feature_206"},{"properties":{"name":"\u4e0e\u91ce","line":"\u6771\u5317\u7dda","riders":52996},"type":"Point","coordinates":[93827,61552],"id":"feature_207"},{"properties":{"name":"\u6771\u5927\u5bae","line":"\u6771\u5317\u7dda","riders":66702},"type":"Point","coordinates":[93959,82930],"id":"feature_208"},{"properties":{"name":"\u5317\u6d66\u548c","line":"\u6771\u5317\u7dda","riders":106264},"type":"Point","coordinates":[94529,57486],"id":"feature_209"},{"properties":{"name":"\u6b66\u8535\u6d66\u548c","line":"\u6771\u5317\u7dda","riders":11},"type":"Point","coordinates":[94644,48536],"id":"feature_210"},{"properties":{"name":"\u6238\u7530\u516c\u5712","line":"\u6771\u5317\u7dda","riders":69888},"type":"Point","coordinates":[97911,35961],"id":"feature_211"},{"properties":{"name":"\u5927\u5bae","line":"\u6771\u5317\u7dda","riders":516216},"type":"Point","coordinates":[92311,68682],"id":"feature_212"},{"properties":{"name":"\u5357\u4e0e\u91ce","line":"\u6771\u5317\u7dda","riders":37516},"type":"Point","coordinates":[93005,55869],"id":"feature_213"},{"properties":{"name":"\u6d6e\u9593\u821f\u6e21","line":"\u6771\u5317\u7dda","riders":44280},"type":"Point","coordinates":[99274,30445],"id":"feature_214"},{"properties":{"name":"\u6238\u7530","line":"\u6771\u5317\u7dda","riders":41822},"type":"Point","coordinates":[97004,39242],"id":"feature_215"},{"properties":{"name":"\u8568","line":"\u6771\u5317\u7dda","riders":123052},"type":"Point","coordinates":[99163,42696],"id":"feature_216"},{"properties":{"name":"\u571f\u5442","line":"\u6771\u5317\u7dda","riders":31542},"type":"Point","coordinates":[93122,77438],"id":"feature_217"},{"properties":{"name":"\u4e2d\u6d66\u548c","line":"\u6771\u5317\u7dda","riders":26680},"type":"Point","coordinates":[93652,51379],"id":"feature_218"},{"properties":{"name":"\u62dd\u5cf6","line":"\u516b\u9ad8\u7dda","riders":11},"type":"Point","coordinates":[63204,7053],"id":"feature_219"},{"properties":{"name":"\u91d1\u5b50","line":"\u516b\u9ad8\u7dda","riders":4252},"type":"Point","coordinates":[61628,36980],"id":"feature_220"},{"properties":{"name":"\u7bb1\u6839\u30f6\u5d0e","line":"\u516b\u9ad8\u7dda","riders":8980},"type":"Point","coordinates":[63508,23911],"id":"feature_221"},{"properties":{"name":"\u6bdb\u5442","line":"\u516b\u9ad8\u7dda","riders":1528},"type":"Point","coordinates":[59629,80385],"id":"feature_222"},{"properties":{"name":"\u6771\u98ef\u80fd","line":"\u516b\u9ad8\u7dda","riders":11388},"type":"Point","coordinates":[61371,51079],"id":"feature_223"},{"properties":{"name":"\u8d8a\u751f","line":"\u516b\u9ad8\u7dda","riders":5349},"type":"Point","coordinates":[58583,87775],"id":"feature_224"},{"properties":{"name":"\u6771\u798f\u751f","line":"\u516b\u9ad8\u7dda","riders":11},"type":"Point","coordinates":[62383,15241],"id":"feature_225"},{"properties":{"name":"\u5317\u671d\u971e","line":"\u6b66\u8535\u91ce\u7dda","riders":141768},"type":"Point","coordinates":[88458,38534],"id":"feature_226"},{"properties":{"name":"\u6b66\u8535\u6d66\u548c","line":"\u6b66\u8535\u91ce\u7dda","riders":107926},"type":"Point","coordinates":[94755,48750],"id":"feature_227"},{"properties":{"name":"\u5357\u6d66\u548c","line":"\u6b66\u8535\u91ce\u7dda","riders":120778},"type":"Point","coordinates":[96934,49261],"id":"feature_228"},{"properties":{"name":"\u897f\u6d66\u548c","line":"\u6b66\u8535\u91ce\u7dda","riders":29910},"type":"Point","coordinates":[92663,48129],"id":"feature_229"},{"properties":{"name":"\u65b0\u79cb\u6d25","line":"\u6b66\u8535\u91ce\u7dda","riders":77820},"type":"Point","coordinates":[78761,26119],"id":"feature_230"},{"properties":{"name":"\u6771\u6240\u6ca2","line":"\u6b66\u8535\u91ce\u7dda","riders":31064},"type":"Point","coordinates":[80917,31658],"id":"feature_231"},{"properties":{"name":"\u65b0\u5c0f\u5e73","line":"\u6b66\u8535\u91ce\u7dda","riders":23018},"type":"Point","coordinates":[76349,10293],"id":"feature_232"},{"properties":{"name":"\u65b0\u5ea7","line":"\u6b66\u8535\u91ce\u7dda","riders":42008},"type":"Point","coordinates":[85242,34628],"id":"feature_233"},{"properties":{"name":"\u897f\u5927\u5bb6","line":"\u8d8a\u751f\u7dda","riders":4020},"type":"Point","coordinates":[64517,77385],"id":"feature_234"},{"properties":{"name":"\u5742\u6238","line":"\u8d8a\u751f\u7dda","riders":12},"type":"Point","coordinates":[68417,85834],"id":"feature_235"},{"properties":{"name":"\u6b66\u5dde\u5510\u6ca2","line":"\u8d8a\u751f\u7dda","riders":3056},"type":"Point","coordinates":[59623,84213],"id":"feature_236"},{"properties":{"name":"\u8d8a\u751f","line":"\u8d8a\u751f\u7dda","riders":3967},"type":"Point","coordinates":[58619,87755],"id":"feature_237"},{"properties":{"name":"\u6771\u6bdb\u5442","line":"\u8d8a\u751f\u7dda","riders":5729},"type":"Point","coordinates":[60250,82526],"id":"feature_238"},{"properties":{"name":"\u5ddd\u89d2","line":"\u8d8a\u751f\u7dda","riders":15838},"type":"Point","coordinates":[63481,79339],"id":"feature_239"},{"properties":{"name":"\u6b66\u5dde\u9577\u702c","line":"\u8d8a\u751f\u7dda","riders":4920},"type":"Point","coordinates":[61377,80806],"id":"feature_240"},{"properties":{"name":"\u4e00\u672c\u677e","line":"\u8d8a\u751f\u7dda","riders":4451},"type":"Point","coordinates":[65930,80211],"id":"feature_241"},{"properties":{"name":"\u6210\u5897","line":"\u6771\u4e0a\u672c\u7dda","riders":59738},"type":"Point","coordinates":[93196,25878],"id":"feature_242"},{"properties":{"name":"\u4e0a\u677f\u6a4b","line":"\u6771\u4e0a\u672c\u7dda","riders":52252},"type":"Point","coordinates":[97688,21211],"id":"feature_243"},{"properties":{"name":"\u4e0b\u8d64\u585a","line":"\u6771\u4e0a\u672c\u7dda","riders":17655},"type":"Point","coordinates":[94435,23506],"id":"feature_244"},{"properties":{"name":"\u4e2d\u677f\u6a4b","line":"\u6771\u4e0a\u672c\u7dda","riders":29136},"type":"Point","coordinates":[99575,18759],"id":"feature_245"},{"properties":{"name":"\u3068\u304d\u308f\u53f0","line":"\u6771\u4e0a\u672c\u7dda","riders":48647},"type":"Point","coordinates":[98991,19634],"id":"feature_246"},{"properties":{"name":"\u671d\u971e\u53f0","line":"\u6771\u4e0a\u672c\u7dda","riders":163056},"type":"Point","coordinates":[88465,38159],"id":"feature_247"},{"properties":{"name":"\u671d\u971e","line":"\u6771\u4e0a\u672c\u7dda","riders":69779},"type":"Point","coordinates":[89814,32286],"id":"feature_248"},{"properties":{"name":"\u6771\u6b66\u7df4\u99ac","line":"\u6771\u4e0a\u672c\u7dda","riders":61196},"type":"Point","coordinates":[96271,22892],"id":"feature_249"},{"properties":{"name":"\u5ddd\u8d8a\u5e02","line":"\u6771\u4e0a\u672c\u7dda","riders":47600},"type":"Point","coordinates":[77032,71498],"id":"feature_250"},{"properties":{"name":"\u67f3\u702c\u5ddd","line":"\u6771\u4e0a\u672c\u7dda","riders":21436},"type":"Point","coordinates":[85888,43575],"id":"feature_251"},{"properties":{"name":"\u9db4\u702c","line":"\u6771\u4e0a\u672c\u7dda","riders":50210},"type":"Point","coordinates":[83486,48633],"id":"feature_252"},{"properties":{"name":"\u82e5\u8449","line":"\u6771\u4e0a\u672c\u7dda","riders":38498},"type":"Point","coordinates":[69915,83168],"id":"feature_253"},{"properties":{"name":"\u5317\u5742\u6238","line":"\u6771\u4e0a\u672c\u7dda","riders":20196},"type":"Point","coordinates":[68706,90822],"id":"feature_254"},{"properties":{"name":"\u5ddd\u8d8a","line":"\u6771\u4e0a\u672c\u7dda","riders":128021},"type":"Point","coordinates":[77644,69233],"id":"feature_255"},{"properties":{"name":"\u9db4\u30f6\u5cf6","line":"\u6771\u4e0a\u672c\u7dda","riders":34452},"type":"Point","coordinates":[71515,79065],"id":"feature_256"},{"properties":{"name":"\u307f\u305a\u307b\u53f0","line":"\u6771\u4e0a\u672c\u7dda","riders":41399},"type":"Point","coordinates":[84676,46127],"id":"feature_257"},{"properties":{"name":"\u5fd7\u6728","line":"\u6771\u4e0a\u672c\u7dda","riders":105694},"type":"Point","coordinates":[87220,40772],"id":"feature_258"},{"properties":{"name":"\u3075\u3058\u307f\u91ce","line":"\u6771\u4e0a\u672c\u7dda","riders":67543},"type":"Point","coordinates":[81804,53658],"id":"feature_259"},{"properties":{"name":"\u4e0a\u798f\u5ca1","line":"\u6771\u4e0a\u672c\u7dda","riders":56973},"type":"Point","coordinates":[80640,58044],"id":"feature_260"},{"properties":{"name":"\u971e\u30f6\u95a2","line":"\u6771\u4e0a\u672c\u7dda","riders":30046},"type":"Point","coordinates":[73583,75280],"id":"feature_261"},{"properties":{"name":"\u65b0\u6cb3\u5cb8","line":"\u6771\u4e0a\u672c\u7dda","riders":25833},"type":"Point","coordinates":[79128,63774],"id":"feature_262"},{"properties":{"name":"\u5742\u6238","line":"\u6771\u4e0a\u672c\u7dda","riders":29391},"type":"Point","coordinates":[68402,85897],"id":"feature_263"},{"properties":{"name":"\u5927\u5bae","line":"\u91ce\u7530\u7dda","riders":137763},"type":"Point","coordinates":[92298,69363],"id":"feature_264"},{"properties":{"name":"\u5927\u548c\u7530","line":"\u91ce\u7530\u7dda","riders":20038},"type":"Point","coordinates":[95075,76579],"id":"feature_265"},{"properties":{"name":"\u4e03\u91cc","line":"\u91ce\u7530\u7dda","riders":20818},"type":"Point","coordinates":[96630,78965],"id":"feature_266"},{"properties":{"name":"\u5317\u5927\u5bae","line":"\u91ce\u7530\u7dda","riders":6366},"type":"Point","coordinates":[92356,72768],"id":"feature_267"},{"properties":{"name":"\u5ca9\u69fb","line":"\u91ce\u7530\u7dda","riders":37052},"type":"Point","coordinates":[99444,83562],"id":"feature_268"},{"properties":{"name":"\u5927\u5bae\u516c\u5712","line":"\u91ce\u7530\u7dda","riders":10264},"type":"Point","coordinates":[93214,74752],"id":"feature_269"},{"properties":{"name":"\u897f\u5927\u5bae","line":"\u5ddd\u8d8a\u7dda","riders":20660},"type":"Point","coordinates":[87601,74117],"id":"feature_270"}],"type":"GeometryCollection"}},"bbox":[138.73456,35.70013,139.69848,35.99945],"transform":{"scale":[9.639296392963946e-06,2.993229932299339e-06],"translate":[138.73456,35.70013]},"arcs":[]}