{"type":"Topology","objects":{"data":{"geometries":[{"properties":{"name":"\u516b\u702c\u6bd4\u53e1\u5c71\u53e3","line":"\u53e1\u5c71\u672c\u7dda","riders":1261},"type":"Point","coordinates":[782,88901],"id":"feature_000"},{"properties":{"name":"\u5b87\u6cbb","line":"\u5b87\u6cbb\u7dda","riders":6209},"type":"Point","coordinates":[590,74696],"id":"feature_001"},{"properties":{"name":"\u9ec4\u6a97","line":"\u5b87\u6cbb\u7dda","riders":6377},"type":"Point","coordinates":[265,76273],"id":"feature_002"},{"properties":{"name":"\u4e09\u5ba4\u6238","line":"\u5b87\u6cbb\u7dda","riders":4430},"type":"Point","coordinates":[593,75013],"id":"feature_003"},{"properties":{"name":"\u4e0a\u6804\u753a","line":"\u4eac\u6d25\u7dda","riders":1877},"type":"Point","coordinates":[5737,83891],"id":"feature_004"},{"properties":{"name":"\u56db\u5bae","line":"\u4eac\u6d25\u7dda","riders":2385},"type":"Point","coordinates":[2275,82780],"id":"feature_005"},{"properties":{"name":"\u5927\u8c37","line":"\u4eac\u6d25\u7dda","riders":503},"type":"Point","coordinates":[5065,82983],"id":"feature_006"},{"properties":{"name":"\u4eac\u962a\u5c71\u79d1","line":"\u4eac\u6d25\u7dda","riders":4461},"type":"Point","coordinates":[1605,82791],"id":"feature_007"},{"properties":{"name":"\u8ffd\u5206","line":"\u4eac\u6d25\u7dda","riders":1777},"type":"Point","coordinates":[3568,82735],"id":"feature_008"},{"properties":{"name":"\u3073\u308f\u6e56\u6d5c\u5927\u6d25","line":"\u4eac\u6d25\u7dda","riders":6763},"type":"Point","coordinates":[6102,84403],"id":"feature_009"},{"properties":{"name":"\u5fa1\u9675","line":"\u4eac\u6d25\u7dda","riders":14766},"type":"Point","coordinates":[164,83122],"id":"feature_010"},{"properties":{"name":"\u5357\u6ecb\u8cc0","line":"\u77f3\u5c71\u5742\u672c\u7dda","riders":2032},"type":"Point","coordinates":[5498,86509],"id":"feature_011"},{"properties":{"name":"\u77f3\u5834","line":"\u77f3\u5c71\u5742\u672c\u7dda","riders":3710},"type":"Point","coordinates":[7204,83854],"id":"feature_012"},{"properties":{"name":"\u4e09\u4e95\u5bfa","line":"\u77f3\u5c71\u5742\u672c\u7dda","riders":1794},"type":"Point","coordinates":[5705,84533],"id":"feature_013"},{"properties":{"name":"\u81b3\u6240\u672c\u753a","line":"\u77f3\u5c71\u5742\u672c\u7dda","riders":4175},"type":"Point","coordinates":[8512,83053],"id":"feature_014"},{"properties":{"name":"\u9326","line":"\u77f3\u5c71\u5742\u672c\u7dda","riders":2267},"type":"Point","coordinates":[8181,83259],"id":"feature_015"},{"properties":{"name":"\u4eac\u962a\u77f3\u5c71","line":"\u77f3\u5c71\u5742\u672c\u7dda","riders":8427},"type":"Point","coordinates":[9506,81755],"id":"feature_016"},{"properties":{"name":"\u7c9f\u6d25","line":"\u77f3\u5c71\u5742\u672c\u7dda","riders":1515},"type":"Point","coordinates":[9124,82185],"id":"feature_017"},{"properties":{"name":"\u4eac\u962a\u5927\u6d25\u4eac","line":"\u77f3\u5c71\u5742\u672c\u7dda","riders":6751},"type":"Point","coordinates":[5306,85334],"id":"feature_018"},{"properties":{"name":"\u6ecb\u8cc0\u91cc","line":"\u77f3\u5c71\u5742\u672c\u7dda","riders":2144},"type":"Point","coordinates":[5646,87098],"id":"feature_019"},{"properties":{"name":"\u4eac\u962a\u81b3\u6240","line":"\u77f3\u5c71\u5742\u672c\u7dda","riders":7915},"type":"Point","coordinates":[7712,83440],"id":"feature_020"},{"properties":{"name":"\u5742\u672c\u6bd4\u53e1\u5c71\u53e3","line":"\u77f3\u5c71\u5742\u672c\u7dda","riders":3089},"type":"Point","coordinates":[6798,89358],"id":"feature_021"},{"properties":{"name":"\u677e\u30ce\u99ac\u5834","line":"\u77f3\u5c71\u5742\u672c\u7dda","riders":1464},"type":"Point","coordinates":[6706,88928],"id":"feature_022"},{"properties":{"name":"\u8fd1\u6c5f\u795e\u5bae\u524d","line":"\u77f3\u5c71\u5742\u672c\u7dda","riders":1492},"type":"Point","coordinates":[5311,85763],"id":"feature_023"},{"properties":{"name":"\u5927\u6d25\u5e02\u5f79\u6240\u524d","line":"\u77f3\u5c71\u5742\u672c\u7dda","riders":3762},"type":"Point","coordinates":[5304,84994],"id":"feature_024"},{"properties":{"name":"\u74e6\u30f6\u6d5c","line":"\u77f3\u5c71\u5742\u672c\u7dda","riders":1329},"type":"Point","coordinates":[9029,82483],"id":"feature_025"},{"properties":{"name":"\u4e2d\u30ce\u5e84","line":"\u77f3\u5c71\u5742\u672c\u7dda","riders":1647},"type":"Point","coordinates":[8733,82691],"id":"feature_026"},{"properties":{"name":"\u7a74\u592a","line":"\u77f3\u5c71\u5742\u672c\u7dda","riders":919},"type":"Point","coordinates":[6185,88105],"id":"feature_027"},{"properties":{"name":"\u5cf6\u30ce\u95a2","line":"\u77f3\u5c71\u5742\u672c\u7dda","riders":2412},"type":"Point","coordinates":[6767,84102],"id":"feature_028"},{"properties":{"name":"\u77f3\u5c71\u5bfa","line":"\u77f3\u5c71\u5742\u672c\u7dda","riders":3202},"type":"Point","coordinates":[9870,80725],"id":"feature_029"},{"properties":{"name":"\u5510\u6a4b\u524d","line":"\u77f3\u5c71\u5742\u672c\u7dda","riders":2175},"type":"Point","coordinates":[9829,81233],"id":"feature_030"},{"properties":{"name":"\u5c71\u79d1","line":"\u6771\u897f\u7dda","riders":44663},"type":"Point","coordinates":[1644,82734],"id":"feature_031"},{"properties":{"name":"\u6771\u91ce","line":"\u6771\u897f\u7dda","riders":12126},"type":"Point","coordinates":[1592,81987],"id":"feature_032"},{"properties":{"name":"\u5c0f\u91ce","line":"\u6771\u897f\u7dda","riders":7381},"type":"Point","coordinates":[1200,80218],"id":"feature_033"},{"properties":{"name":"\u6925\u8fbb","line":"\u6771\u897f\u7dda","riders":17084},"type":"Point","coordinates":[1410,81175],"id":"feature_034"},{"properties":{"name":"\u77f3\u7530","line":"\u6771\u897f\u7dda","riders":6943},"type":"Point","coordinates":[356,78489],"id":"feature_035"},{"properties":{"name":"\u918d\u9190","line":"\u6771\u897f\u7dda","riders":13263},"type":"Point","coordinates":[994,79306],"id":"feature_036"},{"properties":{"name":"\u30b1\u30fc\u30d6\u30eb\u6bd4\u53e1","line":"\u92fc\u7d22\u7dda","riders":716},"type":"Point","coordinates":[2103,88829],"id":"feature_037"},{"properties":{"name":"\u30b1\u30fc\u30d6\u30eb\u516b\u702c","line":"\u92fc\u7d22\u7dda","riders":716},"type":"Point","coordinates":[835,89052],"id":"feature_038"},{"properties":{"name":"\u8d8a\u90e8","line":"\u5409\u91ce\u7dda","riders":577},"type":"Point","coordinates":[260,32149],"id":"feature_039"},{"properties":{"name":"\u5409\u91ce\u795e\u5bae","line":"\u5409\u91ce\u7dda","riders":677},"type":"Point","coordinates":[4588,32490],"id":"feature_040"},{"properties":{"name":"\u516d\u7530","line":"\u5409\u91ce\u7dda","riders":1056},"type":"Point","coordinates":[2182,32480],"id":"feature_041"},{"properties":{"name":"\u5409\u91ce","line":"\u5409\u91ce\u7dda","riders":774},"type":"Point","coordinates":[5103,31387],"id":"feature_042"},{"properties":{"name":"\u5927\u548c\u4e0a\u5e02","line":"\u5409\u91ce\u7dda","riders":766},"type":"Point","coordinates":[4353,32944],"id":"feature_043"},{"properties":{"name":"\u677e\u30f6\u5d0e","line":"\u5c71\u7530\u7dda","riders":1053},"type":"Point","coordinates":[68691,49727],"id":"feature_044"},{"properties":{"name":"\u4f0a\u52e2\u4e2d\u5ddd","line":"\u5c71\u7530\u7dda","riders":7264},"type":"Point","coordinates":[64787,52977],"id":"feature_045"},{"properties":{"name":"\u660e\u91ce","line":"\u5c71\u7530\u7dda","riders":2090},"type":"Point","coordinates":[83013,43464],"id":"feature_046"},{"properties":{"name":"\u5c0f\u4fe3","line":"\u5c71\u7530\u7dda","riders":746},"type":"Point","coordinates":[84541,42741],"id":"feature_047"},{"properties":{"name":"\u658e\u5bae","line":"\u5c71\u7530\u7dda","riders":1767},"type":"Point","coordinates":[77899,44835],"id":"feature_048"},{"properties":{"name":"\u4f0a\u52e2\u5e02","line":"\u5c71\u7530\u7dda","riders":12315},"type":"Point","coordinates":[86995,40995],"id":"feature_049"},{"properties":{"name":"\u660e\u661f","line":"\u5c71\u7530\u7dda","riders":1310},"type":"Point","coordinates":[80501,44292],"id":"feature_050"},{"properties":{"name":"\u6771\u677e\u962a","line":"\u5c71\u7530\u7dda","riders":2263},"type":"Point","coordinates":[71286,47146],"id":"feature_051"},{"properties":{"name":"\u6f15\u4ee3","line":"\u5c71\u7530\u7dda","riders":337},"type":"Point","coordinates":[76538,45093],"id":"feature_052"},{"properties":{"name":"\u6adb\u7530","line":"\u5c71\u7530\u7dda","riders":1237},"type":"Point","coordinates":[74816,45754],"id":"feature_053"},{"properties":{"name":"\u5bae\u753a","line":"\u5c71\u7530\u7dda","riders":1645},"type":"Point","coordinates":[85856,41487],"id":"feature_054"},{"properties":{"name":"\u4f0a\u52e2\u4e2d\u539f","line":"\u5c71\u7530\u7dda","riders":412},"type":"Point","coordinates":[66683,51258],"id":"feature_055"},{"properties":{"name":"\u677e\u962a","line":"\u5c71\u7530\u7dda","riders":16401},"type":"Point","coordinates":[70341,48128],"id":"feature_056"},{"properties":{"name":"\u5b87\u6cbb\u5c71\u7530","line":"\u5c71\u7530\u7dda","riders":8870},"type":"Point","coordinates":[87333,40691],"id":"feature_057"},{"properties":{"name":"\u8239\u6d25","line":"\u5fd7\u6469\u7dda","riders":227},"type":"Point","coordinates":[99564,38063],"id":"feature_058"},{"properties":{"name":"\u5fd7\u6469\u795e\u660e","line":"\u5fd7\u6469\u7dda","riders":307},"type":"Point","coordinates":[98415,26305],"id":"feature_059"},{"properties":{"name":"\u7a74\u5ddd","line":"\u5fd7\u6469\u7dda","riders":69},"type":"Point","coordinates":[97067,29874],"id":"feature_060"},{"properties":{"name":"\u9d5c\u65b9","line":"\u5fd7\u6469\u7dda","riders":2012},"type":"Point","coordinates":[98008,27406],"id":"feature_061"},{"properties":{"name":"\u5fd7\u6469\u8d64\u5d0e","line":"\u5fd7\u6469\u7dda","riders":676},"type":"Point","coordinates":[99536,39146],"id":"feature_062"},{"properties":{"name":"\u6c93\u639b","line":"\u5fd7\u6469\u7dda","riders":38},"type":"Point","coordinates":[96929,32819],"id":"feature_063"},{"properties":{"name":"\u4e0a\u4e4b\u90f7","line":"\u5fd7\u6469\u7dda","riders":150},"type":"Point","coordinates":[96650,31582],"id":"feature_064"},{"properties":{"name":"\u677e\u5c3e","line":"\u5fd7\u6469\u7dda","riders":194},"type":"Point","coordinates":[99378,36031],"id":"feature_065"},{"properties":{"name":"\u8ce2\u5cf6","line":"\u5fd7\u6469\u7dda","riders":1197},"type":"Point","coordinates":[97406,25653],"id":"feature_066"},{"properties":{"name":"\u5fd7\u6469\u78ef\u90e8","line":"\u5fd7\u6469\u7dda","riders":1039},"type":"Point","coordinates":[96103,30765],"id":"feature_067"},{"properties":{"name":"\u4e2d\u4e4b\u90f7","line":"\u5fd7\u6469\u7dda","riders":651},"type":"Point","coordinates":[99889,39963],"id":"feature_068"},{"properties":{"name":"\u52a0\u8302","line":"\u5fd7\u6469\u7dda","riders":242},"type":"Point","coordinates":[99999,37004],"id":"feature_069"},{"properties":{"name":"\u767d\u6728","line":"\u5fd7\u6469\u7dda","riders":44},"type":"Point","coordinates":[98527,35751],"id":"feature_070"},{"properties":{"name":"\u4e94\u77e5","line":"\u5fd7\u6469\u7dda","riders":28},"type":"Point","coordinates":[96514,33868],"id":"feature_071"},{"properties":{"name":"\u5fd7\u6469\u6a2a\u5c71","line":"\u5fd7\u6469\u7dda","riders":185},"type":"Point","coordinates":[97304,27792],"id":"feature_072"},{"properties":{"name":"\u9ce5\u7fbd","line":"\u5fd7\u6469\u7dda","riders":5268},"type":"Point","coordinates":[99536,40602],"id":"feature_073"},{"properties":{"name":"\u5927\u4e09","line":"\u5927\u962a\u7dda","riders":488},"type":"Point","coordinates":[54348,55379],"id":"feature_074"},{"properties":{"name":"\u6771\u9752\u5c71","line":"\u5927\u962a\u7dda","riders":71},"type":"Point","coordinates":[49834,56348],"id":"feature_075"},{"properties":{"name":"\u8d64\u76ee\u53e3","line":"\u5927\u962a\u7dda","riders":1482},"type":"Point","coordinates":[26141,49971],"id":"feature_076"},{"properties":{"name":"\u4f0a\u52e2\u77f3\u6a4b","line":"\u5927\u962a\u7dda","riders":91},"type":"Point","coordinates":[58138,54781],"id":"feature_077"},{"properties":{"name":"\u897f\u9752\u5c71","line":"\u5927\u962a\u7dda","riders":12},"type":"Point","coordinates":[41855,56406],"id":"feature_078"},{"properties":{"name":"\u7f8e\u65d7","line":"\u5927\u962a\u7dda","riders":2054},"type":"Point","coordinates":[31809,55291],"id":"feature_079"},{"properties":{"name":"\u9752\u5c71\u753a","line":"\u5927\u962a\u7dda","riders":2434},"type":"Point","coordinates":[36082,56132],"id":"feature_080"},{"properties":{"name":"\u5ddd\u5408\u9ad8\u5ca1","line":"\u5927\u962a\u7dda","riders":987},"type":"Point","coordinates":[60838,54740],"id":"feature_081"},{"properties":{"name":"\u540d\u5f35","line":"\u5927\u962a\u7dda","riders":13677},"type":"Point","coordinates":[28247,51833],"id":"feature_082"},{"properties":{"name":"\u4f0a\u8cc0\u4e0a\u6d25","line":"\u5927\u962a\u7dda","riders":208},"type":"Point","coordinates":[38623,56926],"id":"feature_083"},{"properties":{"name":"\u698a\u539f\u6e29\u6cc9\u53e3","line":"\u5927\u962a\u7dda","riders":1281},"type":"Point","coordinates":[52431,56281],"id":"feature_084"},{"properties":{"name":"\u6854\u6897\u304c\u4e18","line":"\u5927\u962a\u7dda","riders":7307},"type":"Point","coordinates":[29874,53469],"id":"feature_085"},{"properties":{"name":"\u5ba4\u751f\u53e3\u5927\u91ce","line":"\u5927\u962a\u7dda","riders":1446},"type":"Point","coordinates":[20558,47195],"id":"feature_086"},{"properties":{"name":"\u699b\u539f","line":"\u5927\u962a\u7dda","riders":11265},"type":"Point","coordinates":[14760,44161],"id":"feature_087"},{"properties":{"name":"\u4e09\u672c\u677e","line":"\u5927\u962a\u7dda","riders":241},"type":"Point","coordinates":[22524,48233],"id":"feature_088"},{"properties":{"name":"\u5927\u548c\u671d\u5009","line":"\u5927\u962a\u7dda","riders":2344},"type":"Point","coordinates":[6576,43008],"id":"feature_089"},{"properties":{"name":"\u8033\u6210","line":"\u5927\u962a\u7dda","riders":3917},"type":"Point","coordinates":[1455,42705],"id":"feature_090"},{"properties":{"name":"\u685c\u4e95","line":"\u5927\u962a\u7dda","riders":18467},"type":"Point","coordinates":[4377,42780],"id":"feature_091"},{"properties":{"name":"\u9577\u8c37\u5bfa","line":"\u5927\u962a\u7dda","riders":1226},"type":"Point","coordinates":[10160,43912],"id":"feature_092"},{"properties":{"name":"\u5927\u798f","line":"\u5927\u962a\u7dda","riders":1794},"type":"Point","coordinates":[2839,42741],"id":"feature_093"},{"properties":{"name":"\u6c60\u306e\u6d66","line":"\u9ce5\u7fbd\u7dda","riders":1027},"type":"Point","coordinates":[97309,39923],"id":"feature_094"},{"properties":{"name":"\u4e94\u5341\u9234\u5ddd","line":"\u9ce5\u7fbd\u7dda","riders":2603},"type":"Point","coordinates":[88602,39699],"id":"feature_095"},{"properties":{"name":"\u671d\u718a","line":"\u9ce5\u7fbd\u7dda","riders":168},"type":"Point","coordinates":[91481,39764],"id":"feature_096"},{"properties":{"name":"\u524d\u683d","line":"\u5929\u7406\u7dda","riders":4012},"type":"Point","coordinates":[1522,50122],"id":"feature_097"},{"properties":{"name":"\u5929\u7406","line":"\u5929\u7406\u7dda","riders":10779},"type":"Point","coordinates":[2783,50125],"id":"feature_098"},{"properties":{"name":"\u6e6f\u306e\u5c71\u6e29\u6cc9","line":"\u6e6f\u306e\u5c71\u7dda","riders":803},"type":"Point","coordinates":[64366,84429],"id":"feature_099"},{"properties":{"name":"\u5927\u7fbd\u6839\u5712","line":"\u6e6f\u306e\u5c71\u7dda","riders":797},"type":"Point","coordinates":[66326,84508],"id":"feature_100"},{"properties":{"name":"\u65b0\u5927\u5bae","line":"\u5948\u826f\u7dda","riders":29375},"type":"Point","coordinates":[1005,57165],"id":"feature_101"},{"properties":{"name":"\u8fd1\u9244\u5948\u826f","line":"\u5948\u826f\u7dda","riders":67761},"type":"Point","coordinates":[2646,57044],"id":"feature_102"},{"properties":{"name":"\u5357\u304c\u4e18","line":"\u540d\u53e4\u5c4b\u7dda","riders":3265},"type":"Point","coordinates":[66537,57714],"id":"feature_103"},{"properties":{"name":"\u6d25\u65b0\u753a","line":"\u540d\u53e4\u5c4b\u7dda","riders":12295},"type":"Point","coordinates":[66871,59683],"id":"feature_104"},{"properties":{"name":"\u4e45\u5c45","line":"\u540d\u53e4\u5c4b\u7dda","riders":10174},"type":"Point","coordinates":[64759,56341],"id":"feature_105"},{"properties":{"name":"\u6843\u5712","line":"\u540d\u53e4\u5c4b\u7dda","riders":503},"type":"Point","coordinates":[64726,55323],"id":"feature_106"},{"properties":{"name":"\u516b\u65e5\u5e02","line":"\u516b\u65e5\u5e02\u7dda","riders":4205},"type":"Point","coordinates":[37689,93002],"id":"feature_107"},{"properties":{"name":"\u5e73\u7530","line":"\u516b\u65e5\u5e02\u7dda","riders":321},"type":"Point","coordinates":[33111,92668],"id":"feature_108"},{"properties":{"name":"\u592a\u90ce\u574a\u5bae\u524d","line":"\u516b\u65e5\u5e02\u7dda","riders":304},"type":"Point","coordinates":[36681,92530],"id":"feature_109"},{"properties":{"name":"\u65b0\u516b\u65e5\u5e02","line":"\u516b\u65e5\u5e02\u7dda","riders":1060},"type":"Point","coordinates":[37455,92692],"id":"feature_110"},{"properties":{"name":"\u6b66\u4f50","line":"\u516b\u65e5\u5e02\u7dda","riders":458},"type":"Point","coordinates":[31583,93059],"id":"feature_111"},{"properties":{"name":"\u5e02\u8fba","line":"\u516b\u65e5\u5e02\u7dda","riders":449},"type":"Point","coordinates":[34925,92137],"id":"feature_112"},{"properties":{"name":"\u8fd1\u6c5f\u516b\u5e61","line":"\u516b\u65e5\u5e02\u7dda","riders":5266},"type":"Point","coordinates":[28912,93673],"id":"feature_113"},{"properties":{"name":"\u9577\u8c37\u91ce","line":"\u672c\u7dda","riders":169},"type":"Point","coordinates":[37023,91447],"id":"feature_114"},{"properties":{"name":"\u6c34\u53e3\u677e\u5c3e","line":"\u672c\u7dda","riders":135},"type":"Point","coordinates":[36915,81806],"id":"feature_115"},{"properties":{"name":"\u685c\u5ddd","line":"\u672c\u7dda","riders":334},"type":"Point","coordinates":[37024,88887],"id":"feature_116"},{"properties":{"name":"\u6cb3\u8fba\u306e\u68ee","line":"\u672c\u7dda","riders":36},"type":"Point","coordinates":[37849,94769],"id":"feature_117"},{"properties":{"name":"\u671d\u65e5\u91ce","line":"\u672c\u7dda","riders":73},"type":"Point","coordinates":[38758,86094],"id":"feature_118"},{"properties":{"name":"\u8c4a\u90f7","line":"\u672c\u7dda","riders":310},"type":"Point","coordinates":[41172,99999],"id":"feature_119"},{"properties":{"name":"\u671d\u65e5\u5927\u585a","line":"\u672c\u7dda","riders":157},"type":"Point","coordinates":[37597,87720],"id":"feature_120"},{"properties":{"name":"\u4eac\u30bb\u30e9\u524d","line":"\u672c\u7dda","riders":121},"type":"Point","coordinates":[36339,89714],"id":"feature_121"},{"properties":{"name":"\u65e5\u91ce","line":"\u672c\u7dda","riders":944},"type":"Point","coordinates":[40070,84482],"id":"feature_122"},{"properties":{"name":"\u611b\u77e5\u5ddd","line":"\u672c\u7dda","riders":786},"type":"Point","coordinates":[39493,98182],"id":"feature_123"},{"properties":{"name":"\u4e94\u7b87\u8358","line":"\u672c\u7dda","riders":186},"type":"Point","coordinates":[37948,96400],"id":"feature_124"},{"properties":{"name":"\u5927\u5b66\u524d","line":"\u672c\u7dda","riders":211},"type":"Point","coordinates":[36746,90795],"id":"feature_125"},{"properties":{"name":"\u6c34\u53e3","line":"\u672c\u7dda","riders":739},"type":"Point","coordinates":[35996,81306],"id":"feature_126"},{"properties":{"name":"\u6c34\u53e3\u77f3\u6a4b","line":"\u672c\u7dda","riders":175},"type":"Point","coordinates":[35498,80952],"id":"feature_127"},{"properties":{"name":"\u8cb4\u751f\u5ddd","line":"\u672c\u7dda","riders":1612},"type":"Point","coordinates":[33739,79500],"id":"feature_128"},{"properties":{"name":"\u6c34\u53e3\u57ce\u5357","line":"\u672c\u7dda","riders":1047},"type":"Point","coordinates":[34923,80795],"id":"feature_129"},{"properties":{"name":"\u4fe1\u697d","line":"\u4fe1\u697d\u7dda","riders":892},"type":"Point","coordinates":[24962,73195],"id":"feature_130"},{"properties":{"name":"\u7d2b\u9999\u697d\u5bae\u8de1","line":"\u4fe1\u697d\u7dda","riders":133},"type":"Point","coordinates":[27504,76448],"id":"feature_131"},{"properties":{"name":"\u7389\u6842\u5bfa\u524d","line":"\u4fe1\u697d\u7dda","riders":20},"type":"Point","coordinates":[25718,73866],"id":"feature_132"},{"properties":{"name":"\u52c5\u65e8","line":"\u4fe1\u697d\u7dda","riders":214},"type":"Point","coordinates":[26086,74570],"id":"feature_133"},{"properties":{"name":"\u96f2\u4e95","line":"\u4fe1\u697d\u7dda","riders":373},"type":"Point","coordinates":[27159,76040],"id":"feature_134"},{"properties":{"name":"\u8cb4\u751f\u5ddd","line":"\u4fe1\u697d\u7dda","riders":9538},"type":"Point","coordinates":[33830,79442],"id":"feature_135"},{"properties":{"name":"\u65b0\u5802","line":"\u95a2\u897f\u7dda","riders":599},"type":"Point","coordinates":[38852,68500],"id":"feature_136"},{"properties":{"name":"\u5cf6\u30f6\u539f","line":"\u95a2\u897f\u7dda","riders":351},"type":"Point","coordinates":[24266,64037],"id":"feature_137"},{"properties":{"name":"\u4f0a\u8cc0\u4e0a\u91ce","line":"\u95a2\u897f\u7dda","riders":2143},"type":"Point","coordinates":[30824,65832],"id":"feature_138"},{"properties":{"name":"\u4f50\u90a3\u5177","line":"\u95a2\u897f\u7dda","riders":320},"type":"Point","coordinates":[34690,67092],"id":"feature_139"},{"properties":{"name":"\u67d8\u690d","line":"\u95a2\u897f\u7dda","riders":808},"type":"Point","coordinates":[43579,70649],"id":"feature_140"},{"properties":{"name":"\u95a2","line":"\u95a2\u897f\u7dda","riders":626},"type":"Point","coordinates":[56835,70845],"id":"feature_141"},{"properties":{"name":"\u52a0\u592a","line":"\u95a2\u897f\u7dda","riders":142},"type":"Point","coordinates":[51616,70300],"id":"feature_142"},{"properties":{"name":"\u4e80\u5c71","line":"\u95a2\u897f\u7dda","riders":4312},"type":"Point","coordinates":[62152,70929],"id":"feature_143"},{"properties":{"name":"\u5948\u826f","line":"\u95a2\u897f\u7dda","riders":36700},"type":"Point","coordinates":[1786,56754],"id":"feature_144"},{"properties":{"name":"\u7b20\u7f6e","line":"\u95a2\u897f\u7dda","riders":640},"type":"Point","coordinates":[12839,63326],"id":"feature_145"},{"properties":{"name":"\u5e73\u57ce\u5c71","line":"\u95a2\u897f\u7dda","riders":2846},"type":"Point","coordinates":[974,59264],"id":"feature_146"},{"properties":{"name":"\u52a0\u8302","line":"\u95a2\u897f\u7dda","riders":5247},"type":"Point","coordinates":[6636,62778],"id":"feature_147"},{"properties":{"name":"\u6708\u30f6\u702c\u53e3","line":"\u95a2\u897f\u7dda","riders":434},"type":"Point","coordinates":[21442,63623],"id":"feature_148"},{"properties":{"name":"\u5927\u6cb3\u539f","line":"\u95a2\u897f\u7dda","riders":143},"type":"Point","coordinates":[17973,64398],"id":"feature_149"},{"properties":{"name":"\u6728\u6d25","line":"\u95a2\u897f\u7dda","riders":9960},"type":"Point","coordinates":[2352,61359],"id":"feature_150"},{"properties":{"name":"\u5c71\u79d1","line":"\u6e56\u897f\u7dda","riders":69926},"type":"Point","coordinates":[1569,82840],"id":"feature_151"},{"properties":{"name":"\u84ec\u83b1","line":"\u6e56\u897f\u7dda","riders":2186},"type":"Point","coordinates":[10986,98714],"id":"feature_152"},{"properties":{"name":"\u5805\u7530","line":"\u6e56\u897f\u7dda","riders":16394},"type":"Point","coordinates":[10984,93572],"id":"feature_153"},{"properties":{"name":"\u6bd4\u53e1\u5c71\u5742\u672c","line":"\u6e56\u897f\u7dda","riders":11280},"type":"Point","coordinates":[7481,89384],"id":"feature_154"},{"properties":{"name":"\u548c\u9087","line":"\u6e56\u897f\u7dda","riders":5252},"type":"Point","coordinates":[11674,96969],"id":"feature_155"},{"properties":{"name":"\u5510\u5d0e","line":"\u6e56\u897f\u7dda","riders":7742},"type":"Point","coordinates":[6384,87621],"id":"feature_156"},{"properties":{"name":"\u5c0f\u91ce","line":"\u6e56\u897f\u7dda","riders":7324},"type":"Point","coordinates":[11710,95064],"id":"feature_157"},{"properties":{"name":"\u304a\u3054\u3068\u6e29\u6cc9","line":"\u6e56\u897f\u7dda","riders":13309},"type":"Point","coordinates":[9021,91557],"id":"feature_158"},{"properties":{"name":"\u5927\u6d25\u4eac","line":"\u6e56\u897f\u7dda","riders":19344},"type":"Point","coordinates":[5421,85475],"id":"feature_159"},{"properties":{"name":"\u4eac\u7d42","line":"\u685c\u4e95\u7dda","riders":1480},"type":"Point","coordinates":[2717,55872],"id":"feature_160"},{"properties":{"name":"\u4e09\u8f2a","line":"\u685c\u4e95\u7dda","riders":1430},"type":"Point","coordinates":[4610,43945],"id":"feature_161"},{"properties":{"name":"\u5e2f\u89e3","line":"\u685c\u4e95\u7dda","riders":988},"type":"Point","coordinates":[2489,53637],"id":"feature_162"},{"properties":{"name":"\u9999\u4e45\u5c71","line":"\u685c\u4e95\u7dda","riders":380},"type":"Point","coordinates":[2383,42561],"id":"feature_163"},{"properties":{"name":"\u685c\u4e95","line":"\u685c\u4e95\u7dda","riders":4243},"type":"Point","coordinates":[4361,42753],"id":"feature_164"},{"properties":{"name":"\u5929\u7406","line":"\u685c\u4e95\u7dda","riders":5568},"type":"Point","coordinates":[2889,50066],"id":"feature_165"},{"properties":{"name":"\u6adf\u672c","line":"\u685c\u4e95\u7dda","riders":1976},"type":"Point","coordinates":[2484,51790],"id":"feature_166"},{"properties":{"name":"\u9577\u67c4","line":"\u685c\u4e95\u7dda","riders":1218},"type":"Point","coordinates":[3336,47863],"id":"feature_167"},{"properties":{"name":"\u67f3\u672c","line":"\u685c\u4e95\u7dda","riders":1451},"type":"Point","coordinates":[3674,46616],"id":"feature_168"},{"properties":{"name":"\u5dfb\u5411","line":"\u685c\u4e95\u7dda","riders":780},"type":"Point","coordinates":[3892,45460],"id":"feature_169"},{"properties":{"name":"\u8349\u6d25","line":"\u8349\u6d25\u7dda","riders":59264},"type":"Point","coordinates":[15503,85350],"id":"feature_170"},{"properties":{"name":"\u4e09\u96f2","line":"\u8349\u6d25\u7dda","riders":3974},"type":"Point","coordinates":[30334,82048],"id":"feature_171"},{"properties":{"name":"\u7532\u897f","line":"\u8349\u6d25\u7dda","riders":4908},"type":"Point","coordinates":[26969,83509],"id":"feature_172"},{"properties":{"name":"\u624b\u539f","line":"\u8349\u6d25\u7dda","riders":6138},"type":"Point","coordinates":[19044,85751],"id":"feature_173"},{"properties":{"name":"\u8349\u6d25","line":"\u8349\u6d25\u7dda","riders":11},"type":"Point","coordinates":[15426,85338],"id":"feature_174"},{"properties":{"name":"\u77f3\u90e8","line":"\u8349\u6d25\u7dda","riders":3756},"type":"Point","coordinates":[24169,84938],"id":"feature_175"},{"properties":{"name":"\u7532\u8cc0","line":"\u8349\u6d25\u7dda","riders":1624},"type":"Point","coordinates":[39430,75209],"id":"feature_176"},{"properties":{"name":"\u7532\u5357","line":"\u8349\u6d25\u7dda","riders":2182},"type":"Point","coordinates":[35250,77754],"id":"feature_177"},{"properties":{"name":"\u6cb9\u65e5","line":"\u8349\u6d25\u7dda","riders":637},"type":"Point","coordinates":[41038,74239],"id":"feature_178"},{"properties":{"name":"\u5bfa\u5e84","line":"\u8349\u6d25\u7dda","riders":1628},"type":"Point","coordinates":[36858,76696],"id":"feature_179"},{"properties":{"name":"\u5927\u6d25","line":"\u6771\u6d77\u9053\u7dda","riders":35305},"type":"Point","coordinates":[6197,83710],"id":"feature_180"},{"properties":{"name":"\u91ce\u6d32","line":"\u6771\u6d77\u9053\u7dda","riders":30626},"type":"Point","coordinates":[21237,89179],"id":"feature_181"},{"properties":{"name":"\u5b89\u571f","line":"\u6771\u6d77\u9053\u7dda","riders":5538},"type":"Point","coordinates":[31884,95374],"id":"feature_182"},{"properties":{"name":"\u5b88\u5c71","line":"\u6771\u6d77\u9053\u7dda","riders":34566},"type":"Point","coordinates":[18759,87716],"id":"feature_183"},{"properties":{"name":"\u77f3\u5c71","line":"\u6771\u6d77\u9053\u7dda","riders":50008},"type":"Point","coordinates":[9426,81793],"id":"feature_184"},{"properties":{"name":"\u8fd1\u6c5f\u516b\u5e61","line":"\u6771\u6d77\u9053\u7dda","riders":36242},"type":"Point","coordinates":[28898,93700],"id":"feature_185"},{"properties":{"name":"\u702c\u7530","line":"\u6771\u6d77\u9053\u7dda","riders":36448},"type":"Point","coordinates":[12011,82395],"id":"feature_186"},{"properties":{"name":"\u81b3\u6240","line":"\u6771\u6d77\u9053\u7dda","riders":26149},"type":"Point","coordinates":[7716,83386],"id":"feature_187"},{"properties":{"name":"\u5357\u8349\u6d25","line":"\u6771\u6d77\u9053\u7dda","riders":61510},"type":"Point","coordinates":[14050,83758],"id":"feature_188"},{"properties":{"name":"\u80fd\u767b\u5ddd","line":"\u6771\u6d77\u9053\u7dda","riders":15511},"type":"Point","coordinates":[34962,98499],"id":"feature_189"},{"properties":{"name":"\u7be0\u539f","line":"\u6771\u6d77\u9053\u7dda","riders":4424},"type":"Point","coordinates":[25955,91756],"id":"feature_190"},{"properties":{"name":"\u6817\u6771","line":"\u6771\u6d77\u9053\u7dda","riders":26301},"type":"Point","coordinates":[17197,86592],"id":"feature_191"},{"properties":{"name":"\u7389\u6c34","line":"\u5948\u826f\u7dda","riders":2150},"type":"Point","coordinates":[652,66799],"id":"feature_192"},{"properties":{"name":"\u4e0a\u72db","line":"\u5948\u826f\u7dda","riders":894},"type":"Point","coordinates":[2020,62602],"id":"feature_193"},{"properties":{"name":"\u68da\u5009","line":"\u5948\u826f\u7dda","riders":1176},"type":"Point","coordinates":[1516,64622],"id":"feature_194"},{"properties":{"name":"\u5b87\u6cbb","line":"\u5948\u826f\u7dda","riders":17206},"type":"Point","coordinates":[62,74296],"id":"feature_195"},{"properties":{"name":"\u5c71\u57ce\u591a\u8cc0","line":"\u5948\u826f\u7dda","riders":906},"type":"Point","coordinates":[583,68212],"id":"feature_196"},{"properties":{"name":"\u9ec4\u6a97","line":"\u5948\u826f\u7dda","riders":7624},"type":"Point","coordinates":[337,76170],"id":"feature_197"},{"properties":{"name":"\u5c71\u57ce\u9752\u8c37","line":"\u5948\u826f\u7dda","riders":1972},"type":"Point","coordinates":[0,69094],"id":"feature_198"},{"properties":{"name":"\u897f\u6728\u6d25","line":"\u7247\u753a\u7dda","riders":916},"type":"Point","coordinates":[219,61571],"id":"feature_199"},{"properties":{"name":"\u4e95\u7530\u5ddd","line":"\u95a2\u897f\u7dda","riders":1377},"type":"Point","coordinates":[66171,72448],"id":"feature_200"},{"properties":{"name":"\u4e09\u6728\u91cc","line":"\u7d00\u52e2\u7dda","riders":96},"type":"Point","coordinates":[38454,0],"id":"feature_201"},{"properties":{"name":"\u7d00\u4f0a\u9577\u5cf6","line":"\u7d00\u52e2\u7dda","riders":433},"type":"Point","coordinates":[51583,17373],"id":"feature_202"},{"properties":{"name":"\u4e5d\u9b3c","line":"\u7d00\u52e2\u7dda","riders":33},"type":"Point","coordinates":[42287,1217],"id":"feature_203"},{"properties":{"name":"\u4e80\u5c71","line":"\u7d00\u52e2\u7dda","riders":11},"type":"Point","coordinates":[62150,70916],"id":"feature_204"},{"properties":{"name":"\u5c3e\u9df2","line":"\u7d00\u52e2\u7dda","riders":758},"type":"Point","coordinates":[37270,6090],"id":"feature_205"},{"properties":{"name":"\u76f8\u53ef","line":"\u7d00\u52e2\u7dda","riders":466},"type":"Point","coordinates":[71272,41928],"id":"feature_206"},{"properties":{"name":"\u963f\u66fd","line":"\u7d00\u52e2\u7dda","riders":77},"type":"Point","coordinates":[58386,27567],"id":"feature_207"},{"properties":{"name":"\u4e00\u8eab\u7530","line":"\u7d00\u52e2\u7dda","riders":2543},"type":"Point","coordinates":[66822,63630],"id":"feature_208"},{"properties":{"name":"\u4f0a\u52e2\u67cf\u5d0e","line":"\u7d00\u52e2\u7dda","riders":173},"type":"Point","coordinates":[56915,24915],"id":"feature_209"},{"properties":{"name":"\u5ddd\u6dfb","line":"\u7d00\u52e2\u7dda","riders":153},"type":"Point","coordinates":[64362,34971],"id":"feature_210"},{"properties":{"name":"\u6803\u539f","line":"\u7d00\u52e2\u7dda","riders":235},"type":"Point","coordinates":[67773,37033],"id":"feature_211"},{"properties":{"name":"\u677e\u962a","line":"\u7d00\u52e2\u7dda","riders":11},"type":"Point","coordinates":[70300,48091],"id":"feature_212"},{"properties":{"name":"\u76f8\u8cc0","line":"\u7d00\u52e2\u7dda","riders":244},"type":"Point","coordinates":[40803,9232],"id":"feature_213"},{"properties":{"name":"\u591a\u6c17","line":"\u7d00\u52e2\u7dda","riders":1120},"type":"Point","coordinates":[73867,42997],"id":"feature_214"},{"properties":{"name":"\u4e0b\u5e84","line":"\u7d00\u52e2\u7dda","riders":607},"type":"Point","coordinates":[64931,67934],"id":"feature_215"},{"properties":{"name":"\u4e09\u91ce\u702c","line":"\u7d00\u52e2\u7dda","riders":58},"type":"Point","coordinates":[46083,13893],"id":"feature_216"},{"properties":{"name":"\u5927\u66fd\u6839\u6d66","line":"\u7d00\u52e2\u7dda","riders":11},"type":"Point","coordinates":[40410,5051],"id":"feature_217"},{"properties":{"name":"\u4e09\u702c\u8c37","line":"\u7d00\u52e2\u7dda","riders":382},"type":"Point","coordinates":[58187,32871],"id":"feature_218"},{"properties":{"name":"\u6885\u30f6\u8c37","line":"\u7d00\u52e2\u7dda","riders":33},"type":"Point","coordinates":[53172,21444],"id":"feature_219"},{"properties":{"name":"\u5fb3\u548c","line":"\u7d00\u52e2\u7dda","riders":825},"type":"Point","coordinates":[71998,46184],"id":"feature_220"},{"properties":{"name":"\u8239\u6d25","line":"\u7d00\u52e2\u7dda","riders":137},"type":"Point","coordinates":[40955,11760],"id":"feature_221"},{"properties":{"name":"\u4f50\u5948","line":"\u7d00\u52e2\u7dda","riders":78},"type":"Point","coordinates":[70611,39867],"id":"feature_222"},{"properties":{"name":"\u6edd\u539f","line":"\u7d00\u52e2\u7dda","riders":73},"type":"Point","coordinates":[58474,29980],"id":"feature_223"},{"properties":{"name":"\u5927\u5185\u5c71","line":"\u7d00\u52e2\u7dda","riders":70},"type":"Point","coordinates":[53428,23124],"id":"feature_224"},{"properties":{"name":"\u9ce5\u7fbd","line":"\u53c2\u5bae\u7dda","riders":633},"type":"Point","coordinates":[99517,40587],"id":"feature_225"},{"properties":{"name":"\u677e\u4e0b","line":"\u53c2\u5bae\u7dda","riders":66},"type":"Point","coordinates":[95477,41346],"id":"feature_226"},{"properties":{"name":"\u4e94\u5341\u9234\u30f6\u4e18","line":"\u53c2\u5bae\u7dda","riders":503},"type":"Point","coordinates":[89800,41323],"id":"feature_227"},{"properties":{"name":"\u4e8c\u898b\u6d66","line":"\u53c2\u5bae\u7dda","riders":517},"type":"Point","coordinates":[93417,41975],"id":"feature_228"},{"properties":{"name":"\u5bae\u5ddd","line":"\u53c2\u5bae\u7dda","riders":556},"type":"Point","coordinates":[83305,41923],"id":"feature_229"},{"properties":{"name":"\u5c71\u7530\u4e0a\u53e3","line":"\u53c2\u5bae\u7dda","riders":240},"type":"Point","coordinates":[85447,41320],"id":"feature_230"},{"properties":{"name":"\u4f0a\u52e2\u5e02","line":"\u53c2\u5bae\u7dda","riders":11},"type":"Point","coordinates":[86916,40943],"id":"feature_231"},{"properties":{"name":"\u5916\u57ce\u7530","line":"\u53c2\u5bae\u7dda","riders":218},"type":"Point","coordinates":[76117,41472],"id":"feature_232"},{"properties":{"name":"\u7530\u4e38","line":"\u53c2\u5bae\u7dda","riders":1098},"type":"Point","coordinates":[79687,40702],"id":"feature_233"},{"properties":{"name":"\u4e0a\u30ce\u5e84","line":"\u540d\u677e\u7dda","riders":12},"type":"Point","coordinates":[66815,49859],"id":"feature_234"},{"properties":{"name":"\u5bb6\u57ce","line":"\u540d\u677e\u7dda","riders":464},"type":"Point","coordinates":[49604,52186],"id":"feature_235"},{"properties":{"name":"\u4e95\u95a2","line":"\u540d\u677e\u7dda","riders":11},"type":"Point","coordinates":[58546,53585],"id":"feature_236"},{"properties":{"name":"\u4f0a\u52e2\u5927\u4e95","line":"\u540d\u677e\u7dda","riders":15},"type":"Point","coordinates":[55907,54205],"id":"feature_237"},{"properties":{"name":"\u4e00\u5fd7","line":"\u540d\u677e\u7dda","riders":217},"type":"Point","coordinates":[60773,54614],"id":"feature_238"},{"properties":{"name":"\u4f0a\u52e2\u5965\u6d25","line":"\u540d\u677e\u7dda","riders":52},"type":"Point","coordinates":[43945,42685],"id":"feature_239"},{"properties":{"name":"\u6a29\u73fe\u524d","line":"\u540d\u677e\u7dda","riders":66},"type":"Point","coordinates":[65170,51509],"id":"feature_240"},{"properties":{"name":"\u4f0a\u52e2\u938c\u5009","line":"\u540d\u677e\u7dda","riders":15},"type":"Point","coordinates":[45700,47854],"id":"feature_241"},{"properties":{"name":"\u4f0a\u52e2\u516b\u77e5","line":"\u540d\u677e\u7dda","riders":11},"type":"Point","coordinates":[44308,46273],"id":"feature_242"},{"properties":{"name":"\u6bd4\u6d25","line":"\u540d\u677e\u7dda","riders":11},"type":"Point","coordinates":[44978,44367],"id":"feature_243"},{"properties":{"name":"\u4f0a\u52e2\u516b\u592a","line":"\u540d\u677e\u7dda","riders":43},"type":"Point","coordinates":[61816,53982],"id":"feature_244"},{"properties":{"name":"\u4f0a\u52e2\u7af9\u539f","line":"\u540d\u677e\u7dda","riders":20},"type":"Point","coordinates":[48647,50028],"id":"feature_245"},{"properties":{"name":"\u4f0a\u52e2\u5ddd\u53e3","line":"\u540d\u677e\u7dda","riders":22},"type":"Point","coordinates":[53189,54023],"id":"feature_246"},{"properties":{"name":"\u95a2\u30ce\u5bae","line":"\u540d\u677e\u7dda","riders":22},"type":"Point","coordinates":[51552,53177],"id":"feature_247"},{"properties":{"name":"\u30b1\u30fc\u30d6\u30eb\u5ef6\u66a6\u5bfa","line":"\u6bd4\u53e1\u5c71\u9244\u9053\u7dda","riders":700},"type":"Point","coordinates":[4208,89018],"id":"feature_248"},{"properties":{"name":"\u30b1\u30fc\u30d6\u30eb\u5742\u672c","line":"\u6bd4\u53e1\u5c71\u9244\u9053\u7dda","riders":700},"type":"Point","coordinates":[6097,89289],"id":"feature_249"},{"properties":{"name":"\u4f0a\u8cc0\u795e\u6238","line":"\u4f0a\u8cc0\u7dda","riders":5455},"type":"Point","coordinates":[33630,56210],"id":"feature_250"},{"properties":{"name":"\u6bd4\u571f","line":"\u4f0a\u8cc0\u7dda","riders":48},"type":"Point","coordinates":[34448,56398],"id":"feature_251"},{"properties":{"name":"\u4e0a\u6797","line":"\u4f0a\u8cc0\u7dda","riders":47},"type":"Point","coordinates":[34490,57984],"id":"feature_252"},{"properties":{"name":"\u4e38\u5c71","line":"\u4f0a\u8cc0\u7dda","riders":238},"type":"Point","coordinates":[34145,58751],"id":"feature_253"},{"properties":{"name":"\u4f9d\u90a3\u53e4","line":"\u4f0a\u8cc0\u7dda","riders":107},"type":"Point","coordinates":[33729,59673],"id":"feature_254"},{"properties":{"name":"\u5e02\u90e8","line":"\u4f0a\u8cc0\u7dda","riders":207},"type":"Point","coordinates":[33313,60596],"id":"feature_255"},{"properties":{"name":"\u732a\u7530\u9053","line":"\u4f0a\u8cc0\u7dda","riders":112},"type":"Point","coordinates":[32525,61316],"id":"feature_256"},{"properties":{"name":"\u6851\u753a","line":"\u4f0a\u8cc0\u7dda","riders":597},"type":"Point","coordinates":[32152,62911],"id":"feature_257"},{"properties":{"name":"\u8305\u753a","line":"\u4f0a\u8cc0\u7dda","riders":1116},"type":"Point","coordinates":[32066,63528],"id":"feature_258"},{"properties":{"name":"\u5e83\u5c0f\u8def","line":"\u4f0a\u8cc0\u7dda","riders":237},"type":"Point","coordinates":[31950,63987],"id":"feature_259"},{"properties":{"name":"\u4e0a\u91ce\u5e02","line":"\u4f0a\u8cc0\u7dda","riders":1901},"type":"Point","coordinates":[31468,64041],"id":"feature_260"},{"properties":{"name":"\u897f\u5927\u624b","line":"\u4f0a\u8cc0\u7dda","riders":233},"type":"Point","coordinates":[31011,63976],"id":"feature_261"},{"properties":{"name":"\u65b0\u5c45","line":"\u4f0a\u8cc0\u7dda","riders":117},"type":"Point","coordinates":[30174,65600],"id":"feature_262"},{"properties":{"name":"\u4f0a\u8cc0\u4e0a\u91ce","line":"\u4f0a\u8cc0\u7dda","riders":1597},"type":"Point","coordinates":[30834,65815],"id":"feature_263"},{"properties":{"name":"\u307b\u3046\u3089\u3044\u4e18","line":"\u6bd4\u53e1\u5c71\u9244\u9053\u7dda","riders":13},"type":"Point","coordinates":[5834,89169],"id":"feature_264"},{"properties":{"name":"\u3082\u305f\u3066\u5c71","line":"\u6bd4\u53e1\u5c71\u9244\u9053\u7dda","riders":13},"type":"Point","coordinates":[4465,89096],"id":"feature_265"},{"properties":{"name":"\u56db\u5341\u4e5d","line":"\u4f0a\u8cc0\u7dda","riders":165},"type":"Point","coordinates":[32187,62426],"id":"feature_266"}],"type":"GeometryCollection"}},"bbox":[135.80016,34.00147,136.84656,35.1979],"transform":{"scale":[1.0464104641046465e-05,1.1964419644196436e-05],"translate":[135.80016,34.00147]},"arcs":[]}