{"type":"Topology","objects":{"data":{"geometries":[{"properties":{"name":"\u59eb\u5ddd","line":"\u5927\u7cf8\u7dda","riders":11},"type":"Point","coordinates":[0,988],"id":"feature_000"},{"properties":{"name":"\u9838\u57ce\u5927\u91ce","line":"\u5927\u7cf8\u7dda","riders":29},"type":"Point","coordinates":[707,0],"id":"feature_001"},{"properties":{"name":"\u7cf8\u9b5a\u5ddd","line":"\u5927\u7cf8\u7dda","riders":1940},"type":"Point","coordinates":[99,2609],"id":"feature_002"},{"properties":{"name":"\u540d\u7acb","line":"\u65e5\u672c\u6d77\u3072\u3059\u3044\u30e9\u30a4\u30f3","riders":236},"type":"Point","coordinates":[14202,10366],"id":"feature_003"},{"properties":{"name":"\u6d66\u672c","line":"\u65e5\u672c\u6d77\u3072\u3059\u3044\u30e9\u30a4\u30f3","riders":29},"type":"Point","coordinates":[4841,4716],"id":"feature_004"},{"properties":{"name":"\u7b52\u77f3","line":"\u65e5\u672c\u6d77\u3072\u3059\u3044\u30e9\u30a4\u30f3","riders":92},"type":"Point","coordinates":[12253,8399],"id":"feature_005"},{"properties":{"name":"\u68b6\u5c4b\u6577","line":"\u65e5\u672c\u6d77\u3072\u3059\u3044\u30e9\u30a4\u30f3","riders":154},"type":"Point","coordinates":[2745,3495],"id":"feature_006"},{"properties":{"name":"\u80fd\u751f","line":"\u65e5\u672c\u6d77\u3072\u3059\u3044\u30e9\u30a4\u30f3","riders":823},"type":"Point","coordinates":[7826,6228],"id":"feature_007"},{"properties":{"name":"\u76f4\u6c5f\u6d25","line":"\u5999\u9ad8\u306f\u306d\u3046\u307e\u30e9\u30a4\u30f3","riders":7240},"type":"Point","coordinates":[23391,11367],"id":"feature_008"},{"properties":{"name":"\u8c37\u6d5c","line":"\u65e5\u672c\u6d77\u3072\u3059\u3044\u30e9\u30a4\u30f3","riders":63},"type":"Point","coordinates":[19209,10830],"id":"feature_009"},{"properties":{"name":"\u6709\u9593\u5ddd","line":"\u65e5\u672c\u6d77\u3072\u3059\u3044\u30e9\u30a4\u30f3","riders":73},"type":"Point","coordinates":[16923,10894],"id":"feature_010"},{"properties":{"name":"\u9593\u5cf6","line":"\u7fbd\u8d8a\u7dda","riders":11},"type":"Point","coordinates":[97556,87818],"id":"feature_011"},{"properties":{"name":"\u5ca9\u8239\u753a","line":"\u7fbd\u8d8a\u7dda","riders":11},"type":"Point","coordinates":[98135,81610],"id":"feature_012"},{"properties":{"name":"\u6751\u4e0a","line":"\u7fbd\u8d8a\u7dda","riders":3722},"type":"Point","coordinates":[98358,84133],"id":"feature_013"},{"properties":{"name":"\u5e73\u6728\u7530","line":"\u7fbd\u8d8a\u7dda","riders":11},"type":"Point","coordinates":[96185,75434],"id":"feature_014"},{"properties":{"name":"\u8d8a\u5f8c\u65e9\u5ddd","line":"\u7fbd\u8d8a\u7dda","riders":11},"type":"Point","coordinates":[97538,90822],"id":"feature_015"},{"properties":{"name":"\u8d8a\u5f8c\u5bd2\u5ddd","line":"\u7fbd\u8d8a\u7dda","riders":11},"type":"Point","coordinates":[99999,99999],"id":"feature_016"},{"properties":{"name":"\u91d1\u585a","line":"\u7fbd\u8d8a\u7dda","riders":11},"type":"Point","coordinates":[93216,70298],"id":"feature_017"},{"properties":{"name":"\u4eca\u5ddd","line":"\u7fbd\u8d8a\u7dda","riders":11},"type":"Point","coordinates":[98669,97321],"id":"feature_018"},{"properties":{"name":"\u5e73\u6797","line":"\u7fbd\u8d8a\u7dda","riders":11},"type":"Point","coordinates":[98094,79296],"id":"feature_019"},{"properties":{"name":"\u6851\u5ddd","line":"\u7fbd\u8d8a\u7dda","riders":11},"type":"Point","coordinates":[98081,94898],"id":"feature_020"},{"properties":{"name":"\u4e2d\u6761","line":"\u7fbd\u8d8a\u7dda","riders":2522},"type":"Point","coordinates":[94349,72349],"id":"feature_021"},{"properties":{"name":"\u5742\u753a","line":"\u7fbd\u8d8a\u7dda","riders":1586},"type":"Point","coordinates":[97285,77160],"id":"feature_022"},{"properties":{"name":"\u67cf\u5d0e","line":"\u8d8a\u5f8c\u7dda","riders":28633},"type":"Point","coordinates":[42689,24774],"id":"feature_023"},{"properties":{"name":"\u5ca9\u5ba4","line":"\u8d8a\u5f8c\u7dda","riders":11},"type":"Point","coordinates":[62552,49581],"id":"feature_024"},{"properties":{"name":"\u8d8a\u5f8c\u8d64\u585a","line":"\u8d8a\u5f8c\u7dda","riders":11},"type":"Point","coordinates":[64281,56137],"id":"feature_025"},{"properties":{"name":"\u5206\u6c34","line":"\u8d8a\u5f8c\u7dda","riders":1280},"type":"Point","coordinates":[60059,43186],"id":"feature_026"},{"properties":{"name":"\u5c0f\u5cf6\u8c37","line":"\u8d8a\u5f8c\u7dda","riders":11},"type":"Point","coordinates":[55882,39400],"id":"feature_027"},{"properties":{"name":"\u6771\u67cf\u5d0e","line":"\u8d8a\u5f8c\u7dda","riders":11},"type":"Point","coordinates":[43272,25501],"id":"feature_028"},{"properties":{"name":"\u767d\u5c71","line":"\u8d8a\u5f8c\u7dda","riders":10874},"type":"Point","coordinates":[71762,62780],"id":"feature_029"},{"properties":{"name":"\u5185\u91ce","line":"\u8d8a\u5f8c\u7dda","riders":5684},"type":"Point","coordinates":[66043,59082],"id":"feature_030"},{"properties":{"name":"\u5208\u7fbd","line":"\u8d8a\u5f8c\u7dda","riders":11},"type":"Point","coordinates":[46571,29379],"id":"feature_031"},{"properties":{"name":"\u5409\u7530","line":"\u8d8a\u5f8c\u7dda","riders":3490},"type":"Point","coordinates":[62464,47204],"id":"feature_032"},{"properties":{"name":"\u5c0f\u6728\u30ce\u57ce","line":"\u8d8a\u5f8c\u7dda","riders":11},"type":"Point","coordinates":[51762,35315],"id":"feature_033"},{"properties":{"name":"\u65b0\u6f5f\u5927\u5b66\u524d","line":"\u8d8a\u5f8c\u7dda","riders":6214},"type":"Point","coordinates":[67130,59824],"id":"feature_034"},{"properties":{"name":"\u897f\u4e2d\u901a","line":"\u8d8a\u5f8c\u7dda","riders":11},"type":"Point","coordinates":[44924,26783],"id":"feature_035"},{"properties":{"name":"\u5dfb","line":"\u8d8a\u5f8c\u7dda","riders":4946},"type":"Point","coordinates":[63141,52046],"id":"feature_036"},{"properties":{"name":"\u5999\u6cd5\u5bfa","line":"\u8d8a\u5f8c\u7dda","riders":11},"type":"Point","coordinates":[54088,38838],"id":"feature_037"},{"properties":{"name":"\u9752\u5c71","line":"\u8d8a\u5f8c\u7dda","riders":2352},"type":"Point","coordinates":[69972,61860],"id":"feature_038"},{"properties":{"name":"\u8d8a\u5f8c\u66fd\u6839","line":"\u8d8a\u5f8c\u7dda","riders":2500},"type":"Point","coordinates":[64460,54577],"id":"feature_039"},{"properties":{"name":"\u5317\u5409\u7530","line":"\u8d8a\u5f8c\u7dda","riders":11},"type":"Point","coordinates":[62688,48234],"id":"feature_040"},{"properties":{"name":"\u897f\u5c71","line":"\u8d8a\u5f8c\u7dda","riders":11},"type":"Point","coordinates":[47931,30646],"id":"feature_041"},{"properties":{"name":"\u95a2\u5c4b","line":"\u8d8a\u5f8c\u7dda","riders":4066},"type":"Point","coordinates":[70848,62384],"id":"feature_042"},{"properties":{"name":"\u793c\u62dd","line":"\u8d8a\u5f8c\u7dda","riders":11},"type":"Point","coordinates":[49266,31390],"id":"feature_043"},{"properties":{"name":"\u5bfa\u5c3e","line":"\u8d8a\u5f8c\u7dda","riders":4454},"type":"Point","coordinates":[68319,60517],"id":"feature_044"},{"properties":{"name":"\u5185\u91ce\u897f\u304c\u4e18","line":"\u8d8a\u5f8c\u7dda","riders":11},"type":"Point","coordinates":[65420,58226],"id":"feature_045"},{"properties":{"name":"\u8352\u6d5c","line":"\u8d8a\u5f8c\u7dda","riders":11},"type":"Point","coordinates":[45484,27628],"id":"feature_046"},{"properties":{"name":"\u5c0f\u91dd","line":"\u8d8a\u5f8c\u7dda","riders":5302},"type":"Point","coordinates":[69373,61231],"id":"feature_047"},{"properties":{"name":"\u7c9f\u751f\u6d25","line":"\u8d8a\u5f8c\u7dda","riders":11},"type":"Point","coordinates":[62153,44905],"id":"feature_048"},{"properties":{"name":"\u5bfa\u6cca","line":"\u8d8a\u5f8c\u7dda","riders":500},"type":"Point","coordinates":[58529,42569],"id":"feature_049"},{"properties":{"name":"\u77f3\u5730","line":"\u8d8a\u5f8c\u7dda","riders":11},"type":"Point","coordinates":[50782,33131],"id":"feature_050"},{"properties":{"name":"\u5357\u5409\u7530","line":"\u8d8a\u5f8c\u7dda","riders":11},"type":"Point","coordinates":[62002,46153],"id":"feature_051"},{"properties":{"name":"\u6850\u539f","line":"\u8d8a\u5f8c\u7dda","riders":11},"type":"Point","coordinates":[57181,41287],"id":"feature_052"},{"properties":{"name":"\u51fa\u96f2\u5d0e","line":"\u8d8a\u5f8c\u7dda","riders":488},"type":"Point","coordinates":[52500,36438],"id":"feature_053"},{"properties":{"name":"\u65b0\u6f5f","line":"\u8d8a\u5f8c\u7dda","riders":77602},"type":"Point","coordinates":[73678,62807],"id":"feature_054"},{"properties":{"name":"\u6d66\u4f50","line":"\u4e0a\u8d8a\u65b0\u5e79\u7dda","riders":11},"type":"Point","coordinates":[65175,11199],"id":"feature_055"},{"properties":{"name":"\u9577\u5ca1","line":"\u4e0a\u8d8a\u65b0\u5e79\u7dda","riders":25552},"type":"Point","coordinates":[60954,30611],"id":"feature_056"},{"properties":{"name":"\u71d5\u4e09\u6761","line":"\u4e0a\u8d8a\u65b0\u5e79\u7dda","riders":11},"type":"Point","coordinates":[66152,44481],"id":"feature_057"},{"properties":{"name":"\u65b0\u6f5f","line":"\u4e0a\u8d8a\u65b0\u5e79\u7dda","riders":11},"type":"Point","coordinates":[73708,62792],"id":"feature_058"},{"properties":{"name":"\u5bae\u5185","line":"\u4e0a\u8d8a\u7dda","riders":2006},"type":"Point","coordinates":[60103,28834],"id":"feature_059"},{"properties":{"name":"\u6d66\u4f50","line":"\u4e0a\u8d8a\u7dda","riders":2914},"type":"Point","coordinates":[65194,11178],"id":"feature_060"},{"properties":{"name":"\u5317\u5800\u4e4b\u5185","line":"\u4e0a\u8d8a\u7dda","riders":11},"type":"Point","coordinates":[63554,17300],"id":"feature_061"},{"properties":{"name":"\u4e94\u65e5\u753a","line":"\u4e0a\u8d8a\u7dda","riders":488},"type":"Point","coordinates":[64302,7896],"id":"feature_062"},{"properties":{"name":"\u516b\u8272","line":"\u4e0a\u8d8a\u7dda","riders":11},"type":"Point","coordinates":[65935,12865],"id":"feature_063"},{"properties":{"name":"\u8d8a\u5f8c\u6edd\u8c37","line":"\u4e0a\u8d8a\u7dda","riders":11},"type":"Point","coordinates":[59788,25132],"id":"feature_064"},{"properties":{"name":"\u5c0f\u5343\u8c37","line":"\u4e0a\u8d8a\u7dda","riders":2638},"type":"Point","coordinates":[58461,21060],"id":"feature_065"},{"properties":{"name":"\u8d8a\u5f8c\u5800\u4e4b\u5185","line":"\u4e0a\u8d8a\u7dda","riders":924},"type":"Point","coordinates":[65516,16137],"id":"feature_066"},{"properties":{"name":"\u8d8a\u5f8c\u5ddd\u53e3","line":"\u4e0a\u8d8a\u7dda","riders":438},"type":"Point","coordinates":[61437,18491],"id":"feature_067"},{"properties":{"name":"\u5c0f\u51fa","line":"\u4e0a\u8d8a\u7dda","riders":1894},"type":"Point","coordinates":[67070,15764],"id":"feature_068"},{"properties":{"name":"\u6771\u5149\u5bfa","line":"\u4fe1\u8d8a\u7dda","riders":11},"type":"Point","coordinates":[66416,40681],"id":"feature_069"},{"properties":{"name":"\u77e2\u4ee3\u7530","line":"\u4fe1\u8d8a\u7dda","riders":2368},"type":"Point","coordinates":[75780,51485],"id":"feature_070"},{"properties":{"name":"\u7b20\u5cf6","line":"\u4fe1\u8d8a\u7dda","riders":11},"type":"Point","coordinates":[37203,22843],"id":"feature_071"},{"properties":{"name":"\u4e0a\u8d8a\u5999\u9ad8","line":"\u5999\u9ad8\u306f\u306d\u3046\u307e\u30e9\u30a4\u30f3","riders":1876},"type":"Point","coordinates":[23762,5212],"id":"feature_072"},{"properties":{"name":"\u7fbd\u751f\u7530","line":"\u4fe1\u8d8a\u7dda","riders":1322},"type":"Point","coordinates":[73644,47655],"id":"feature_073"},{"properties":{"name":"\u5317\u9577\u5ca1","line":"\u4fe1\u8d8a\u7dda","riders":11},"type":"Point","coordinates":[61473,32071],"id":"feature_074"},{"properties":{"name":"\u9752\u6d77\u5ddd","line":"\u4fe1\u8d8a\u7dda","riders":11},"type":"Point","coordinates":[38381,23570],"id":"feature_075"},{"properties":{"name":"\u5357\u9ad8\u7530","line":"\u5999\u9ad8\u306f\u306d\u3046\u307e\u30e9\u30a4\u30f3","riders":1708},"type":"Point","coordinates":[23452,6283],"id":"feature_076"},{"properties":{"name":"\u898b\u9644","line":"\u4fe1\u8d8a\u7dda","riders":4384},"type":"Point","coordinates":[64076,37015],"id":"feature_077"},{"properties":{"name":"\u4fdd\u5185","line":"\u4fe1\u8d8a\u7dda","riders":11},"type":"Point","coordinates":[70819,43889],"id":"feature_078"},{"properties":{"name":"\u5317\u6761","line":"\u4fe1\u8d8a\u7dda","riders":11},"type":"Point","coordinates":[47636,23023],"id":"feature_079"},{"properties":{"name":"\u8d8a\u5f8c\u5e83\u7530","line":"\u4fe1\u8d8a\u7dda","riders":11},"type":"Point","coordinates":[49123,24345],"id":"feature_080"},{"properties":{"name":"\u52a0\u8302","line":"\u4fe1\u8d8a\u7dda","riders":5972},"type":"Point","coordinates":[72923,45243],"id":"feature_081"},{"properties":{"name":"\u8328\u76ee","line":"\u4fe1\u8d8a\u7dda","riders":11},"type":"Point","coordinates":[44551,24323],"id":"feature_082"},{"properties":{"name":"\u9ad8\u7530","line":"\u5999\u9ad8\u306f\u306d\u3046\u307e\u30e9\u30a4\u30f3","riders":4706},"type":"Point","coordinates":[23387,7518],"id":"feature_083"},{"properties":{"name":"\u585a\u5c71","line":"\u4fe1\u8d8a\u7dda","riders":474},"type":"Point","coordinates":[53341,24191],"id":"feature_084"},{"properties":{"name":"\u62bc\u5207","line":"\u4fe1\u8d8a\u7dda","riders":11},"type":"Point","coordinates":[62626,34574],"id":"feature_085"},{"properties":{"name":"\u5e2f\u7e54","line":"\u4fe1\u8d8a\u7dda","riders":11},"type":"Point","coordinates":[65533,39293],"id":"feature_086"},{"properties":{"name":"\u9577\u5ca1","line":"\u4fe1\u8d8a\u7dda","riders":25552},"type":"Point","coordinates":[60954,30611],"id":"feature_087"},{"properties":{"name":"\u6771\u4e09\u6761","line":"\u4fe1\u8d8a\u7dda","riders":5894},"type":"Point","coordinates":[68368,43143],"id":"feature_088"},{"properties":{"name":"\u524d\u5ddd","line":"\u4fe1\u8d8a\u7dda","riders":11},"type":"Point","coordinates":[59108,27422],"id":"feature_089"},{"properties":{"name":"\u6f5f\u753a","line":"\u4fe1\u8d8a\u7dda","riders":424},"type":"Point","coordinates":[29399,15808],"id":"feature_090"},{"properties":{"name":"\u8d8a\u5f8c\u77f3\u5c71","line":"\u4fe1\u8d8a\u7dda","riders":4132},"type":"Point","coordinates":[75778,61708],"id":"feature_091"},{"properties":{"name":"\u7c73\u5c71","line":"\u4fe1\u8d8a\u7dda","riders":11},"type":"Point","coordinates":[35019,21537],"id":"feature_092"},{"properties":{"name":"\u6625\u65e5\u5c71","line":"\u5999\u9ad8\u306f\u306d\u3046\u307e\u30e9\u30a4\u30f3","riders":1576},"type":"Point","coordinates":[22962,9831],"id":"feature_093"},{"properties":{"name":"\u4e0a\u4e0b\u6d5c","line":"\u4fe1\u8d8a\u7dda","riders":11},"type":"Point","coordinates":[30735,17068],"id":"feature_094"},{"properties":{"name":"\u8d8a\u5f8c\u5ca9\u585a","line":"\u4fe1\u8d8a\u7dda","riders":11},"type":"Point","coordinates":[54965,26353],"id":"feature_095"},{"properties":{"name":"\u6765\u8fce\u5bfa","line":"\u4fe1\u8d8a\u7dda","riders":1124},"type":"Point","coordinates":[56646,27108],"id":"feature_096"},{"properties":{"name":"\u9be8\u6ce2","line":"\u4fe1\u8d8a\u7dda","riders":11},"type":"Point","coordinates":[40292,24240],"id":"feature_097"},{"properties":{"name":"\u571f\u5e95\u6d5c","line":"\u4fe1\u8d8a\u7dda","riders":11},"type":"Point","coordinates":[28473,15016],"id":"feature_098"},{"properties":{"name":"\u5317\u65b0\u4e95","line":"\u5999\u9ad8\u306f\u306d\u3046\u307e\u30e9\u30a4\u30f3","riders":512},"type":"Point","coordinates":[24353,3240],"id":"feature_099"},{"properties":{"name":"\u4e09\u6761","line":"\u4fe1\u8d8a\u7dda","riders":3740},"type":"Point","coordinates":[67517,42635],"id":"feature_100"},{"properties":{"name":"\u65b0\u4e95","line":"\u5999\u9ad8\u306f\u306d\u3046\u307e\u30e9\u30a4\u30f3","riders":2588},"type":"Point","coordinates":[24226,1427],"id":"feature_101"},{"properties":{"name":"\u9ed2\u4e95","line":"\u4fe1\u8d8a\u7dda","riders":11},"type":"Point","coordinates":[24995,12330],"id":"feature_102"},{"properties":{"name":"\u67ff\u5d0e","line":"\u4fe1\u8d8a\u7dda","riders":1318},"type":"Point","coordinates":[32223,18828],"id":"feature_103"},{"properties":{"name":"\u9577\u9ce5","line":"\u4fe1\u8d8a\u7dda","riders":11},"type":"Point","coordinates":[50527,24973],"id":"feature_104"},{"properties":{"name":"\u7530\u4e0a","line":"\u4fe1\u8d8a\u7dda","riders":11},"type":"Point","coordinates":[74495,49415],"id":"feature_105"},{"properties":{"name":"\u5b89\u7530","line":"\u4fe1\u8d8a\u7dda","riders":738},"type":"Point","coordinates":[46111,23219],"id":"feature_106"},{"properties":{"name":"\u7280\u6f5f","line":"\u4fe1\u8d8a\u7dda","riders":9176},"type":"Point","coordinates":[27254,14137],"id":"feature_107"},{"properties":{"name":"\u8d8a\u5f8c\u5e83\u702c","line":"\u53ea\u898b\u7dda","riders":11},"type":"Point","coordinates":[68777,18605],"id":"feature_108"},{"properties":{"name":"\u85ea\u795e","line":"\u53ea\u898b\u7dda","riders":11},"type":"Point","coordinates":[68437,17377],"id":"feature_109"},{"properties":{"name":"\u4e0a\u6761","line":"\u53ea\u898b\u7dda","riders":11},"type":"Point","coordinates":[73033,23611],"id":"feature_110"},{"properties":{"name":"\u5165\u5e83\u702c","line":"\u53ea\u898b\u7dda","riders":11},"type":"Point","coordinates":[73959,24437],"id":"feature_111"},{"properties":{"name":"\u8d8a\u5f8c\u9808\u539f","line":"\u53ea\u898b\u7dda","riders":11},"type":"Point","coordinates":[71009,21793],"id":"feature_112"},{"properties":{"name":"\u9b5a\u6cbc\u7530\u4e2d","line":"\u53ea\u898b\u7dda","riders":11},"type":"Point","coordinates":[69466,19962],"id":"feature_113"},{"properties":{"name":"\u5341\u65e5\u753a","line":"\u98ef\u5c71\u7dda","riders":1182},"type":"Point","coordinates":[54969,8917],"id":"feature_114"},{"properties":{"name":"\u5185\u30f6\u5dfb","line":"\u98ef\u5c71\u7dda","riders":11},"type":"Point","coordinates":[60819,16903],"id":"feature_115"},{"properties":{"name":"\u8d8a\u5f8c\u5ca9\u6ca2","line":"\u98ef\u5c71\u7dda","riders":11},"type":"Point","coordinates":[57469,16264],"id":"feature_116"},{"properties":{"name":"\u9b5a\u6cbc\u4e2d\u6761","line":"\u98ef\u5c71\u7dda","riders":11},"type":"Point","coordinates":[55952,10627],"id":"feature_117"},{"properties":{"name":"\u4e0b\u6761","line":"\u98ef\u5c71\u7dda","riders":11},"type":"Point","coordinates":[56416,13325],"id":"feature_118"},{"properties":{"name":"\u77e2\u4f5c","line":"\u5f25\u5f66\u7dda","riders":11},"type":"Point","coordinates":[60813,47448],"id":"feature_119"},{"properties":{"name":"\u71d5","line":"\u5f25\u5f66\u7dda","riders":2368},"type":"Point","coordinates":[65528,45853],"id":"feature_120"},{"properties":{"name":"\u5f25\u5f66","line":"\u5f25\u5f66\u7dda","riders":536},"type":"Point","coordinates":[59592,48040],"id":"feature_121"},{"properties":{"name":"\u5409\u7530","line":"\u5f25\u5f66\u7dda","riders":3490},"type":"Point","coordinates":[62465,47201],"id":"feature_122"},{"properties":{"name":"\u897f\u71d5","line":"\u5f25\u5f66\u7dda","riders":11},"type":"Point","coordinates":[64348,46695],"id":"feature_123"},{"properties":{"name":"\u5317\u4e09\u6761","line":"\u5f25\u5f66\u7dda","riders":864},"type":"Point","coordinates":[67194,43435],"id":"feature_124"},{"properties":{"name":"\u71d5\u4e09\u6761","line":"\u5f25\u5f66\u7dda","riders":4932},"type":"Point","coordinates":[66213,44551],"id":"feature_125"},{"properties":{"name":"\u304f\u3073\u304d","line":"\u307b\u304f\u307b\u304f\u7dda","riders":183},"type":"Point","coordinates":[30733,13308],"id":"feature_126"},{"properties":{"name":"\u5927\u6c60\u3044\u3053\u3044\u306e\u68ee","line":"\u307b\u304f\u307b\u304f\u7dda","riders":21},"type":"Point","coordinates":[31457,12355],"id":"feature_127"},{"properties":{"name":"\u3057\u3093\u3056","line":"\u307b\u304f\u307b\u304f\u7dda","riders":170},"type":"Point","coordinates":[55701,9255],"id":"feature_128"},{"properties":{"name":"\u307b\u304f\u307b\u304f\u5927\u5cf6","line":"\u307b\u304f\u307b\u304f\u7dda","riders":137},"type":"Point","coordinates":[39812,9763],"id":"feature_129"},{"properties":{"name":"\u7f8e\u4f50\u5cf6","line":"\u307b\u304f\u307b\u304f\u7dda","riders":12},"type":"Point","coordinates":[57022,8650],"id":"feature_130"},{"properties":{"name":"\u5341\u65e5\u753a","line":"\u307b\u304f\u307b\u304f\u7dda","riders":1559},"type":"Point","coordinates":[54939,8904],"id":"feature_131"},{"properties":{"name":"\u307e\u3064\u3060\u3044","line":"\u307b\u304f\u307b\u304f\u7dda","riders":625},"type":"Point","coordinates":[46222,8737],"id":"feature_132"},{"properties":{"name":"\u866b\u5ddd\u5927\u6749","line":"\u307b\u304f\u307b\u304f\u7dda","riders":254},"type":"Point","coordinates":[35632,10310],"id":"feature_133"},{"properties":{"name":"\u3046\u3089\u304c\u308f\u3089","line":"\u307b\u304f\u307b\u304f\u7dda","riders":232},"type":"Point","coordinates":[34254,10615],"id":"feature_134"},{"properties":{"name":"\u4e0a\u8d8a\u5999\u9ad8","line":"\u5317\u9678\u65b0\u5e79\u7dda","riders":5858},"type":"Point","coordinates":[23786,5213],"id":"feature_135"},{"properties":{"name":"\u7cf8\u9b5a\u5ddd","line":"\u5317\u9678\u65b0\u5e79\u7dda","riders":1646},"type":"Point","coordinates":[20,2561],"id":"feature_136"},{"properties":{"name":"\u3048\u3061\u3054\u62bc\u4e0a\u3072\u3059\u3044\u6d77\u5cb8","line":"\u65e5\u672c\u6d77\u3072\u3059\u3044\u30e9\u30a4\u30f3","riders":128},"type":"Point","coordinates":[1070,2917],"id":"feature_137"}],"type":"GeometryCollection"}},"bbox":[137.86097,37.00616,139.49005,38.44877],"transform":{"scale":[1.6290962909628973e-05,1.4426244262442643e-05],"translate":[137.86097,37.00616]},"arcs":[]}