{"type":"Topology","objects":{"data":{"geometries":[{"properties":{"name":"\u7dcf\u793e","line":"\u4e95\u539f\u7dda","riders":7110},"type":"Point","coordinates":[42396,34191],"id":"feature_000"},{"properties":{"name":"\u6e05\u97f3","line":"\u4e95\u539f\u7dda","riders":4024},"type":"Point","coordinates":[41812,29316],"id":"feature_001"},{"properties":{"name":"\u5fa1\u9818","line":"\u4e95\u539f\u7dda","riders":93},"type":"Point","coordinates":[205,16480],"id":"feature_002"},{"properties":{"name":"\u3044\u305a\u3048","line":"\u4e95\u539f\u7dda","riders":58},"type":"Point","coordinates":[6288,20248],"id":"feature_003"},{"properties":{"name":"\u5409\u5099\u771f\u5099","line":"\u4e95\u539f\u7dda","riders":514},"type":"Point","coordinates":[36620,26530],"id":"feature_004"},{"properties":{"name":"\u5099\u4e2d\u5449\u59b9","line":"\u4e95\u539f\u7dda","riders":97},"type":"Point","coordinates":[32812,25691],"id":"feature_005"},{"properties":{"name":"\u5c0f\u7530","line":"\u4e95\u539f\u7dda","riders":144},"type":"Point","coordinates":[17812,23164],"id":"feature_006"},{"properties":{"name":"\u77e2\u639b","line":"\u4e95\u539f\u7dda","riders":733},"type":"Point","coordinates":[23819,26933],"id":"feature_007"},{"properties":{"name":"\u5b50\u5b88\u5504\u306e\u91cc\u9ad8\u5c4b","line":"\u4e95\u539f\u7dda","riders":192},"type":"Point","coordinates":[4112,19237],"id":"feature_008"},{"properties":{"name":"\u4e09\u8c37","line":"\u4e95\u539f\u7dda","riders":83},"type":"Point","coordinates":[27510,24850],"id":"feature_009"},{"properties":{"name":"\u4e95\u539f","line":"\u4e95\u539f\u7dda","riders":801},"type":"Point","coordinates":[8603,21024],"id":"feature_010"},{"properties":{"name":"\u65e9\u96f2\u306e\u91cc\u834f\u539f","line":"\u4e95\u539f\u7dda","riders":247},"type":"Point","coordinates":[13464,21655],"id":"feature_011"},{"properties":{"name":"\u5ddd\u8fba\u5bbf","line":"\u4e95\u539f\u7dda","riders":195},"type":"Point","coordinates":[39490,27435],"id":"feature_012"},{"properties":{"name":"\u67f3\u5ddd","line":"\u6e05\u8f1d\u6a4b\u7dda","riders":482},"type":"Point","coordinates":[65902,32794],"id":"feature_013"},{"properties":{"name":"\u7530\u753a","line":"\u6e05\u8f1d\u6a4b\u7dda","riders":175},"type":"Point","coordinates":[66028,32022],"id":"feature_014"},{"properties":{"name":"\u90f5\u4fbf\u5c40\u524d","line":"\u6e05\u8f1d\u6a4b\u7dda","riders":646},"type":"Point","coordinates":[66028,32342],"id":"feature_015"},{"properties":{"name":"\u65b0\u897f\u5927\u5bfa\u753a\u7b4b","line":"\u6e05\u8f1d\u6a4b\u7dda","riders":164},"type":"Point","coordinates":[66028,31691],"id":"feature_016"},{"properties":{"name":"\u5927\u96f2\u5bfa\u524d","line":"\u6e05\u8f1d\u6a4b\u7dda","riders":177},"type":"Point","coordinates":[66026,31351],"id":"feature_017"},{"properties":{"name":"\u6e05\u8f1d\u6a4b","line":"\u6e05\u8f1d\u6a4b\u7dda","riders":691},"type":"Point","coordinates":[65969,30561],"id":"feature_018"},{"properties":{"name":"\u897f\u5ddd\u7dd1\u9053\u516c\u5712","line":"\u6771\u5c71\u672c\u7dda","riders":406},"type":"Point","coordinates":[65646,32794],"id":"feature_019"},{"properties":{"name":"\u5ca1\u5c71\u99c5\u524d","line":"\u6771\u5c71\u672c\u7dda","riders":7498},"type":"Point","coordinates":[65192,32789],"id":"feature_020"},{"properties":{"name":"\u897f\u5927\u5bfa\u753a","line":"\u6771\u5c71\u672c\u7dda","riders":536},"type":"Point","coordinates":[66560,31679],"id":"feature_021"},{"properties":{"name":"\u6771\u5c71\u30fb\u304a\u304b\u3067\u3093\u30df\u30e5\u30fc\u30b8\u30a2\u30e0","line":"\u6771\u5c71\u672c\u7dda","riders":2920},"type":"Point","coordinates":[68119,31280],"id":"feature_022"},{"properties":{"name":"\u770c\u5e81\u901a\u308a","line":"\u6771\u5c71\u672c\u7dda","riders":2082},"type":"Point","coordinates":[66551,32330],"id":"feature_023"},{"properties":{"name":"\u9580\u7530\u5c4b\u6577","line":"\u6771\u5c71\u672c\u7dda","riders":623},"type":"Point","coordinates":[67618,31280],"id":"feature_024"},{"properties":{"name":"\u57ce\u4e0b","line":"\u6771\u5c71\u672c\u7dda","riders":2238},"type":"Point","coordinates":[66458,32799],"id":"feature_025"},{"properties":{"name":"\u4e2d\u7d0d\u8a00","line":"\u6771\u5c71\u672c\u7dda","riders":308},"type":"Point","coordinates":[67439,31495],"id":"feature_026"},{"properties":{"name":"\u5c0f\u6a4b","line":"\u6771\u5c71\u672c\u7dda","riders":359},"type":"Point","coordinates":[67316,31514],"id":"feature_027"},{"properties":{"name":"\u5150\u5cf6","line":"\u672c\u56db\u5099\u8b83\u7dda","riders":10578},"type":"Point","coordinates":[51128,0],"id":"feature_028"},{"properties":{"name":"\u7403\u5834\u524d","line":"\u6c34\u5cf6\u672c\u7dda","riders":404},"type":"Point","coordinates":[43535,20767],"id":"feature_029"},{"properties":{"name":"\u5009\u6577\u5e02","line":"\u6c34\u5cf6\u672c\u7dda","riders":4659},"type":"Point","coordinates":[45720,22286],"id":"feature_030"},{"properties":{"name":"\u5f25\u751f","line":"\u6c34\u5cf6\u672c\u7dda","riders":622},"type":"Point","coordinates":[43583,13141],"id":"feature_031"},{"properties":{"name":"\u6d66\u7530","line":"\u6c34\u5cf6\u672c\u7dda","riders":754},"type":"Point","coordinates":[43845,15967],"id":"feature_032"},{"properties":{"name":"\u5e38\u76e4","line":"\u6c34\u5cf6\u672c\u7dda","riders":398},"type":"Point","coordinates":[43046,11524],"id":"feature_033"},{"properties":{"name":"\u6c34\u5cf6","line":"\u6c34\u5cf6\u672c\u7dda","riders":1327},"type":"Point","coordinates":[42796,10757],"id":"feature_034"},{"properties":{"name":"\u897f\u5bcc\u4e95","line":"\u6c34\u5cf6\u672c\u7dda","riders":735},"type":"Point","coordinates":[43055,18598],"id":"feature_035"},{"properties":{"name":"\u6804","line":"\u6c34\u5cf6\u672c\u7dda","riders":572},"type":"Point","coordinates":[43260,12168],"id":"feature_036"},{"properties":{"name":"\u798f\u4e95","line":"\u6c34\u5cf6\u672c\u7dda","riders":584},"type":"Point","coordinates":[43188,17339],"id":"feature_037"},{"properties":{"name":"\u4e09\u83f1\u81ea\u5de5\u524d","line":"\u6c34\u5cf6\u672c\u7dda","riders":154},"type":"Point","coordinates":[41892,9707],"id":"feature_038"},{"properties":{"name":"\u6771\u6d25\u5c71","line":"\u56e0\u7f8e\u7dda","riders":246},"type":"Point","coordinates":[79305,96393],"id":"feature_039"},{"properties":{"name":"\u9ad8\u91ce","line":"\u56e0\u7f8e\u7dda","riders":66},"type":"Point","coordinates":[83561,99913],"id":"feature_040"},{"properties":{"name":"\u5ca1\u5c71","line":"\u5b87\u91ce\u7dda","riders":11},"type":"Point","coordinates":[64985,33027],"id":"feature_041"},{"properties":{"name":"\u5099\u4e2d\u7b95\u5cf6","line":"\u5b87\u91ce\u7dda","riders":402},"type":"Point","coordinates":[56575,23104],"id":"feature_042"},{"properties":{"name":"\u4e45\u3005\u539f","line":"\u5b87\u91ce\u7dda","riders":150},"type":"Point","coordinates":[53682,20955],"id":"feature_043"},{"properties":{"name":"\u8feb\u5ddd","line":"\u5b87\u91ce\u7dda","riders":514},"type":"Point","coordinates":[60135,11917],"id":"feature_044"},{"properties":{"name":"\u5927\u5143","line":"\u5b87\u91ce\u7dda","riders":3674},"type":"Point","coordinates":[64077,29837],"id":"feature_045"},{"properties":{"name":"\u65e9\u5cf6","line":"\u5b87\u91ce\u7dda","riders":2476},"type":"Point","coordinates":[54352,22533],"id":"feature_046"},{"properties":{"name":"\u5099\u524d\u897f\u5e02","line":"\u5b87\u91ce\u7dda","riders":3626},"type":"Point","coordinates":[62697,27268],"id":"feature_047"},{"properties":{"name":"\u59b9\u5c3e","line":"\u5b87\u91ce\u7dda","riders":6398},"type":"Point","coordinates":[59181,23554],"id":"feature_048"},{"properties":{"name":"\u5099\u524d\u7530\u4e95","line":"\u5b87\u91ce\u7dda","riders":636},"type":"Point","coordinates":[68130,8619],"id":"feature_049"},{"properties":{"name":"\u5099\u524d\u7247\u5ca1","line":"\u5b87\u91ce\u7dda","riders":534},"type":"Point","coordinates":[57852,13174],"id":"feature_050"},{"properties":{"name":"\u5b87\u91ce","line":"\u5b87\u91ce\u7dda","riders":2618},"type":"Point","coordinates":[69479,5222],"id":"feature_051"},{"properties":{"name":"\u8336\u5c4b\u753a","line":"\u5b87\u91ce\u7dda","riders":7828},"type":"Point","coordinates":[53397,18468],"id":"feature_052"},{"properties":{"name":"\u5e38\u5c71","line":"\u5b87\u91ce\u7dda","riders":928},"type":"Point","coordinates":[61849,11092],"id":"feature_053"},{"properties":{"name":"\u5f66\u5d0e","line":"\u5b87\u91ce\u7dda","riders":618},"type":"Point","coordinates":[54577,14426],"id":"feature_054"},{"properties":{"name":"\u516b\u6d5c","line":"\u5b87\u91ce\u7dda","riders":915},"type":"Point","coordinates":[65171,11207],"id":"feature_055"},{"properties":{"name":"\u5927\u5b89\u5bfa","line":"\u5409\u5099\u7dda","riders":690},"type":"Point","coordinates":[61220,32370],"id":"feature_056"},{"properties":{"name":"\u5099\u524d\u4e00\u5bae","line":"\u5409\u5099\u7dda","riders":2052},"type":"Point","coordinates":[58205,34944],"id":"feature_057"},{"properties":{"name":"\u5409\u5099\u6d25","line":"\u5409\u5099\u7dda","riders":1214},"type":"Point","coordinates":[55969,34229],"id":"feature_058"},{"properties":{"name":"\u5099\u4e2d\u9ad8\u677e","line":"\u5409\u5099\u7dda","riders":2658},"type":"Point","coordinates":[52998,36154],"id":"feature_059"},{"properties":{"name":"\u8db3\u5b88","line":"\u5409\u5099\u7dda","riders":1345},"type":"Point","coordinates":[50509,38045],"id":"feature_060"},{"properties":{"name":"\u5ca1\u5c71","line":"\u5409\u5099\u7dda","riders":11},"type":"Point","coordinates":[64924,33012],"id":"feature_061"},{"properties":{"name":"\u5099\u524d\u4e09\u9580","line":"\u5409\u5099\u7dda","riders":2294},"type":"Point","coordinates":[62772,33151],"id":"feature_062"},{"properties":{"name":"\u670d\u90e8","line":"\u5409\u5099\u7dda","riders":1656},"type":"Point","coordinates":[47085,36943],"id":"feature_063"},{"properties":{"name":"\u6771\u7dcf\u793e","line":"\u5409\u5099\u7dda","riders":1866},"type":"Point","coordinates":[44055,34762],"id":"feature_064"},{"properties":{"name":"\u5099\u4e2d\u795e\u4ee3","line":"\u82b8\u5099\u7dda","riders":43},"type":"Point","coordinates":[0,86023],"id":"feature_065"},{"properties":{"name":"\u5ca1\u5c71","line":"\u5c71\u967d\u65b0\u5e79\u7dda","riders":11},"type":"Point","coordinates":[64978,32808],"id":"feature_066"},{"properties":{"name":"\u65b0\u5009\u6577","line":"\u5c71\u967d\u65b0\u5e79\u7dda","riders":11},"type":"Point","coordinates":[34886,16543],"id":"feature_067"},{"properties":{"name":"\u548c\u6c17","line":"\u5c71\u967d\u7dda","riders":2798},"type":"Point","coordinates":[94476,54101],"id":"feature_068"},{"properties":{"name":"\u702c\u6238","line":"\u5c71\u967d\u7dda","riders":5464},"type":"Point","coordinates":[80547,43973],"id":"feature_069"},{"properties":{"name":"\u718a\u5c71","line":"\u5c71\u967d\u7dda","riders":2992},"type":"Point","coordinates":[89025,51890],"id":"feature_070"},{"properties":{"name":"\u4e07\u5bcc","line":"\u5c71\u967d\u7dda","riders":1344},"type":"Point","coordinates":[85398,47791],"id":"feature_071"},{"properties":{"name":"\u5009\u6577","line":"\u5c71\u967d\u7dda","riders":11},"type":"Point","coordinates":[45831,22469],"id":"feature_072"},{"properties":{"name":"\u4e0a\u9053","line":"\u5c71\u967d\u7dda","riders":2910},"type":"Point","coordinates":[77873,38256],"id":"feature_073"},{"properties":{"name":"\u5ead\u702c","line":"\u5c71\u967d\u7dda","riders":8682},"type":"Point","coordinates":[56994,29117],"id":"feature_074"},{"properties":{"name":"\u6771\u5ca1\u5c71","line":"\u5c71\u967d\u7dda","riders":7948},"type":"Point","coordinates":[73672,36037],"id":"feature_075"},{"properties":{"name":"\u4e2d\u5e84","line":"\u5c71\u967d\u7dda","riders":15904},"type":"Point","coordinates":[51192,26471],"id":"feature_076"},{"properties":{"name":"\u5009\u6577","line":"\u5c71\u967d\u7dda","riders":38954},"type":"Point","coordinates":[45842,22452],"id":"feature_077"},{"properties":{"name":"\u9ad8\u5cf6","line":"\u5c71\u967d\u7dda","riders":7102},"type":"Point","coordinates":[69961,35608],"id":"feature_078"},{"properties":{"name":"\u5317\u9577\u702c","line":"\u5c71\u967d\u7dda","riders":9430},"type":"Point","coordinates":[60833,30754],"id":"feature_079"},{"properties":{"name":"\u5ca1\u5c71","line":"\u5c71\u967d\u7dda","riders":139142},"type":"Point","coordinates":[65023,33023],"id":"feature_080"},{"properties":{"name":"\u91d1\u5149","line":"\u5c71\u967d\u7dda","riders":5032},"type":"Point","coordinates":[27682,12646],"id":"feature_081"},{"properties":{"name":"\u9d28\u65b9","line":"\u5c71\u967d\u7dda","riders":6322},"type":"Point","coordinates":[23500,10422],"id":"feature_082"},{"properties":{"name":"\u91cc\u5e84","line":"\u5c71\u967d\u7dda","riders":2676},"type":"Point","coordinates":[18834,7271],"id":"feature_083"},{"properties":{"name":"\u6771\u798f\u5c71","line":"\u5c71\u967d\u7dda","riders":8822},"type":"Point","coordinates":[749,5251],"id":"feature_084"},{"properties":{"name":"\u65b0\u5009\u6577","line":"\u5c71\u967d\u7dda","riders":15774},"type":"Point","coordinates":[34945,16516],"id":"feature_085"},{"properties":{"name":"\u7b20\u5ca1","line":"\u5c71\u967d\u7dda","riders":7499},"type":"Point","coordinates":[13057,6792],"id":"feature_086"},{"properties":{"name":"\u897f\u963f\u77e5","line":"\u5c71\u967d\u7dda","riders":6370},"type":"Point","coordinates":[41110,19893],"id":"feature_087"},{"properties":{"name":"\u5927\u9580","line":"\u5c71\u967d\u7dda","riders":5144},"type":"Point","coordinates":[4973,5731],"id":"feature_088"},{"properties":{"name":"\u897f\u7247\u4e0a","line":"\u8d64\u7a42\u7dda","riders":1190},"type":"Point","coordinates":[98420,45686],"id":"feature_089"},{"properties":{"name":"\u9999\u767b","line":"\u8d64\u7a42\u7dda","riders":610},"type":"Point","coordinates":[90376,42883],"id":"feature_090"},{"properties":{"name":"\u4f0a\u90e8","line":"\u8d64\u7a42\u7dda","riders":918},"type":"Point","coordinates":[95513,44610],"id":"feature_091"},{"properties":{"name":"\u5099\u524d\u7247\u4e0a","line":"\u8d64\u7a42\u7dda","riders":326},"type":"Point","coordinates":[99999,46175],"id":"feature_092"},{"properties":{"name":"\u9577\u8239","line":"\u8d64\u7a42\u7dda","riders":2406},"type":"Point","coordinates":[87649,38256],"id":"feature_093"},{"properties":{"name":"\u9091\u4e45","line":"\u8d64\u7a42\u7dda","riders":3680},"type":"Point","coordinates":[86706,33261],"id":"feature_094"},{"properties":{"name":"\u897f\u5927\u5bfa","line":"\u8d64\u7a42\u7dda","riders":7408},"type":"Point","coordinates":[79866,32194],"id":"feature_095"},{"properties":{"name":"\u5927\u5bcc","line":"\u8d64\u7a42\u7dda","riders":478},"type":"Point","coordinates":[84184,32126],"id":"feature_096"},{"properties":{"name":"\u5927\u591a\u7f85","line":"\u8d64\u7a42\u7dda","riders":3246},"type":"Point","coordinates":[76092,32792],"id":"feature_097"},{"properties":{"name":"\u6d25\u5c71","line":"\u6d25\u5c71\u7dda","riders":4414},"type":"Point","coordinates":[75712,95712],"id":"feature_098"},{"properties":{"name":"\u4f50\u826f\u5c71","line":"\u6d25\u5c71\u7dda","riders":40},"type":"Point","coordinates":[70367,92084],"id":"feature_099"},{"properties":{"name":"\u91d1\u5ddd","line":"\u6d25\u5c71\u7dda","riders":1822},"type":"Point","coordinates":[66951,53255],"id":"feature_100"},{"properties":{"name":"\u4e80\u7532","line":"\u6d25\u5c71\u7dda","riders":508},"type":"Point","coordinates":[70154,86683],"id":"feature_101"},{"properties":{"name":"\u6d25\u5c71\u53e3","line":"\u6d25\u5c71\u7dda","riders":48},"type":"Point","coordinates":[73113,95707],"id":"feature_102"},{"properties":{"name":"\u5f13\u524a","line":"\u6d25\u5c71\u7dda","riders":442},"type":"Point","coordinates":[69979,74869],"id":"feature_103"},{"properties":{"name":"\u5efa\u90e8","line":"\u6d25\u5c71\u7dda","riders":425},"type":"Point","coordinates":[62620,61380],"id":"feature_104"},{"properties":{"name":"\u795e\u76ee","line":"\u6d25\u5c71\u7dda","riders":166},"type":"Point","coordinates":[67164,70112],"id":"feature_105"},{"properties":{"name":"\u7389\u67cf","line":"\u6d25\u5c71\u7dda","riders":196},"type":"Point","coordinates":[70824,41112],"id":"feature_106"},{"properties":{"name":"\u5c0f\u539f","line":"\u6d25\u5c71\u7dda","riders":72},"type":"Point","coordinates":[70515,81757],"id":"feature_107"},{"properties":{"name":"\u7267\u5c71","line":"\u6d25\u5c71\u7dda","riders":103},"type":"Point","coordinates":[70313,45042],"id":"feature_108"},{"properties":{"name":"\u798f\u6e21","line":"\u6d25\u5c71\u7dda","riders":568},"type":"Point","coordinates":[63228,65916],"id":"feature_109"},{"properties":{"name":"\u8a95\u751f\u5bfa","line":"\u6d25\u5c71\u7dda","riders":124},"type":"Point","coordinates":[70161,79074],"id":"feature_110"},{"properties":{"name":"\u91ce\u3005\u53e3","line":"\u6d25\u5c71\u7dda","riders":294},"type":"Point","coordinates":[66815,49871],"id":"feature_111"},{"properties":{"name":"\u6cd5\u754c\u9662","line":"\u6d25\u5c71\u7dda","riders":2635},"type":"Point","coordinates":[66162,35858],"id":"feature_112"},{"properties":{"name":"\u5099\u524d\u539f","line":"\u6d25\u5c71\u7dda","riders":218},"type":"Point","coordinates":[68372,39174],"id":"feature_113"},{"properties":{"name":"\u65b0\u898b","line":"\u4f2f\u5099\u7dda","riders":1677},"type":"Point","coordinates":[7048,84826],"id":"feature_114"},{"properties":{"name":"\u5099\u4e2d\u5ddd\u9762","line":"\u4f2f\u5099\u7dda","riders":169},"type":"Point","coordinates":[23602,62661],"id":"feature_115"},{"properties":{"name":"\u65b9\u8c37","line":"\u4f2f\u5099\u7dda","riders":37},"type":"Point","coordinates":[19578,66969],"id":"feature_116"},{"properties":{"name":"\u65e5\u7fbd","line":"\u4f2f\u5099\u7dda","riders":206},"type":"Point","coordinates":[36350,40896],"id":"feature_117"},{"properties":{"name":"\u5099\u4e2d\u5e83\u702c","line":"\u4f2f\u5099\u7dda","riders":180},"type":"Point","coordinates":[25861,47838],"id":"feature_118"},{"properties":{"name":"\u4e95\u5009","line":"\u4f2f\u5099\u7dda","riders":149},"type":"Point","coordinates":[14525,75853],"id":"feature_119"},{"properties":{"name":"\u7f8e\u888b","line":"\u4f2f\u5099\u7dda","riders":577},"type":"Point","coordinates":[31858,41577],"id":"feature_120"},{"properties":{"name":"\u77f3\u87f9","line":"\u4f2f\u5099\u7dda","riders":251},"type":"Point","coordinates":[9919,79573],"id":"feature_121"},{"properties":{"name":"\u5099\u4e2d\u9ad8\u6881","line":"\u4f2f\u5099\u7dda","riders":4117},"type":"Point","coordinates":[27122,52703],"id":"feature_122"},{"properties":{"name":"\u5e03\u539f","line":"\u4f2f\u5099\u7dda","riders":11},"type":"Point","coordinates":[2732,84968],"id":"feature_123"},{"properties":{"name":"\u6728\u91ce\u5c71","line":"\u4f2f\u5099\u7dda","riders":121},"type":"Point","coordinates":[26847,58705],"id":"feature_124"},{"properties":{"name":"\u8c6a\u6e13","line":"\u4f2f\u5099\u7dda","riders":300},"type":"Point","coordinates":[40429,39381],"id":"feature_125"},{"properties":{"name":"\u7f8e\u4f5c\u5927\u5d0e","line":"\u59eb\u65b0\u7dda","riders":51},"type":"Point","coordinates":[83761,94227],"id":"feature_126"},{"properties":{"name":"\u9662\u5e84","line":"\u59eb\u65b0\u7dda","riders":130},"type":"Point","coordinates":[69945,96437],"id":"feature_127"},{"properties":{"name":"\u7f8e\u4f5c\u843d\u5408","line":"\u59eb\u65b0\u7dda","riders":520},"type":"Point","coordinates":[45169,90675],"id":"feature_128"},{"properties":{"name":"\u576a\u4e95","line":"\u59eb\u65b0\u7dda","riders":63},"type":"Point","coordinates":[59868,96950],"id":"feature_129"},{"properties":{"name":"\u53e4\u898b","line":"\u59eb\u65b0\u7dda","riders":148},"type":"Point","coordinates":[45230,94857],"id":"feature_130"},{"properties":{"name":"\u6962\u539f","line":"\u59eb\u65b0\u7dda","riders":58},"type":"Point","coordinates":[99040,90080],"id":"feature_131"},{"properties":{"name":"\u897f\u52dd\u9593\u7530","line":"\u59eb\u65b0\u7dda","riders":36},"type":"Point","coordinates":[86522,93925],"id":"feature_132"},{"properties":{"name":"\u52dd\u9593\u7530","line":"\u59eb\u65b0\u7dda","riders":387},"type":"Point","coordinates":[90193,92699],"id":"feature_133"},{"properties":{"name":"\u7f8e\u4f5c\u5343\u4ee3","line":"\u59eb\u65b0\u7dda","riders":123},"type":"Point","coordinates":[63479,96358],"id":"feature_134"},{"properties":{"name":"\u6797\u91ce","line":"\u59eb\u65b0\u7dda","riders":311},"type":"Point","coordinates":[94331,89150],"id":"feature_135"},{"properties":{"name":"\u7f8e\u4f5c\u8ffd\u5206","line":"\u59eb\u65b0\u7dda","riders":67},"type":"Point","coordinates":[52688,96400],"id":"feature_136"},{"properties":{"name":"\u5211\u90e8","line":"\u59eb\u65b0\u7dda","riders":139},"type":"Point","coordinates":[20777,99232],"id":"feature_137"},{"properties":{"name":"\u4e2d\u56fd\u52dd\u5c71","line":"\u59eb\u65b0\u7dda","riders":756},"type":"Point","coordinates":[36945,99936],"id":"feature_138"},{"properties":{"name":"\u6708\u7530","line":"\u59eb\u65b0\u7dda","riders":177},"type":"Point","coordinates":[33420,94656],"id":"feature_139"},{"properties":{"name":"\u4e45\u4e16","line":"\u59eb\u65b0\u7dda","riders":450},"type":"Point","coordinates":[43265,99999],"id":"feature_140"},{"properties":{"name":"\u5ca9\u5c71","line":"\u59eb\u65b0\u7dda","riders":20},"type":"Point","coordinates":[14086,90567],"id":"feature_141"},{"properties":{"name":"\u5bcc\u539f","line":"\u59eb\u65b0\u7dda","riders":112},"type":"Point","coordinates":[26601,95780],"id":"feature_142"},{"properties":{"name":"\u4e39\u6cbb\u90e8","line":"\u59eb\u65b0\u7dda","riders":34},"type":"Point","coordinates":[19231,94392],"id":"feature_143"},{"properties":{"name":"\u690d\u677e","line":"\u672c\u56db\u5099\u8b83\u7dda","riders":370},"type":"Point","coordinates":[53680,14235],"id":"feature_144"},{"properties":{"name":"\u4e0a\u306e\u753a","line":"\u672c\u56db\u5099\u8b83\u7dda","riders":898},"type":"Point","coordinates":[52067,4552],"id":"feature_145"},{"properties":{"name":"\u6728\u898b","line":"\u672c\u56db\u5099\u8b83\u7dda","riders":413},"type":"Point","coordinates":[53154,10519],"id":"feature_146"},{"properties":{"name":"\u897f\u5ddd\u539f","line":"\u5c71\u967d\u7dda","riders":7746},"type":"Point","coordinates":[67496,34961],"id":"feature_147"},{"properties":{"name":"\u6771\u4e2d\u592e\u753a","line":"\u6e05\u8f1d\u6a4b\u7dda","riders":201},"type":"Point","coordinates":[66019,31034],"id":"feature_148"}],"type":"GeometryCollection"}},"bbox":[133.40058,34.46281,134.19683,35.081],"transform":{"scale":[7.962579625796407e-06,6.181961819618252e-06],"translate":[133.40058,34.46281]},"arcs":[]}