{"type":"Topology","objects":{"data":{"geometries":[{"properties":{"name":"\u5341\u56fd\u767b\u308a\u53e3","line":"\u5341\u56fd\u92fc\u7d22\u7dda","riders":1285},"type":"Point","coordinates":[244,6054],"id":"feature_000"},{"properties":{"name":"\u5341\u56fd\u5ce0","line":"\u5341\u56fd\u92fc\u7d22\u7dda","riders":5163},"type":"Point","coordinates":[759,6054],"id":"feature_001"},{"properties":{"name":"\u7a74\u90e8","line":"\u5927\u96c4\u5c71\u7dda","riders":4927},"type":"Point","coordinates":[17117,44518],"id":"feature_002"},{"properties":{"name":"\u548c\u7530\u6cb3\u539f","line":"\u5927\u96c4\u5c71\u7dda","riders":3324},"type":"Point","coordinates":[12486,53640],"id":"feature_003"},{"properties":{"name":"\u5c0f\u7530\u539f","line":"\u5927\u96c4\u5c71\u7dda","riders":17929},"type":"Point","coordinates":[18287,38591],"id":"feature_004"},{"properties":{"name":"\u5ca9\u539f","line":"\u5927\u96c4\u5c71\u7dda","riders":2952},"type":"Point","coordinates":[14091,49313],"id":"feature_005"},{"properties":{"name":"\u5927\u96c4\u5c71","line":"\u5927\u96c4\u5c71\u7dda","riders":5542},"type":"Point","coordinates":[10286,54422],"id":"feature_006"},{"properties":{"name":"\u4e95\u7d30\u7530","line":"\u5927\u96c4\u5c71\u7dda","riders":3481},"type":"Point","coordinates":[18423,41766],"id":"feature_007"},{"properties":{"name":"\u7dd1\u753a","line":"\u5927\u96c4\u5c71\u7dda","riders":3871},"type":"Point","coordinates":[18607,39314],"id":"feature_008"},{"properties":{"name":"\u76f8\u6a21\u6cbc\u7530","line":"\u5927\u96c4\u5c71\u7dda","riders":3045},"type":"Point","coordinates":[14862,47673],"id":"feature_009"},{"properties":{"name":"\u4e94\u767e\u7f85\u6f22","line":"\u5927\u96c4\u5c71\u7dda","riders":3009},"type":"Point","coordinates":[18144,43333],"id":"feature_010"},{"properties":{"name":"\u585a\u539f","line":"\u5927\u96c4\u5c71\u7dda","riders":4857},"type":"Point","coordinates":[13774,49948],"id":"feature_011"},{"properties":{"name":"\u98ef\u7530\u5ca1","line":"\u5927\u96c4\u5c71\u7dda","riders":3287},"type":"Point","coordinates":[15684,46551],"id":"feature_012"},{"properties":{"name":"\u5bcc\u58eb\u30d5\u30a4\u30eb\u30e0\u524d","line":"\u5927\u96c4\u5c71\u7dda","riders":2546},"type":"Point","coordinates":[11166,54083],"id":"feature_013"},{"properties":{"name":"\u307f\u306a\u3068\u307f\u3089\u3044","line":"\u307f\u306a\u3068\u307f\u3089\u304421\u7dda","riders":90677},"type":"Point","coordinates":[90410,89461],"id":"feature_014"},{"properties":{"name":"\u5143\u753a\u30fb\u4e2d\u83ef\u8857","line":"\u307f\u306a\u3068\u307f\u3089\u304421\u7dda","riders":64569},"type":"Point","coordinates":[93180,85579],"id":"feature_015"},{"properties":{"name":"\u65b0\u9ad8\u5cf6","line":"\u307f\u306a\u3068\u307f\u3089\u304421\u7dda","riders":7039},"type":"Point","coordinates":[89505,90546],"id":"feature_016"},{"properties":{"name":"\u99ac\u8eca\u9053","line":"\u307f\u306a\u3068\u307f\u3089\u304421\u7dda","riders":41627},"type":"Point","coordinates":[90977,87541],"id":"feature_017"},{"properties":{"name":"\u65e5\u672c\u5927\u901a\u308a","line":"\u307f\u306a\u3068\u307f\u3089\u304421\u7dda","riders":27335},"type":"Point","coordinates":[91965,86714],"id":"feature_018"},{"properties":{"name":"\u6a2a\u6d5c","line":"\u307f\u306a\u3068\u307f\u3089\u304421\u7dda","riders":367023},"type":"Point","coordinates":[88878,91678],"id":"feature_019"},{"properties":{"name":"\u5409\u91ce\u753a","line":"1\u53f7\u7dda","riders":21186},"type":"Point","coordinates":[88305,83830],"id":"feature_020"},{"properties":{"name":"\u962a\u6771\u6a4b","line":"1\u53f7\u7dda","riders":21442},"type":"Point","coordinates":[89275,84373],"id":"feature_021"},{"properties":{"name":"\u6e2f\u5357\u4e2d\u592e","line":"1\u53f7\u7dda","riders":19627},"type":"Point","coordinates":[84159,75196],"id":"feature_022"},{"properties":{"name":"\u4f0a\u52e2\u4f50\u6728\u9577\u8005\u753a","line":"1\u53f7\u7dda","riders":45780},"type":"Point","coordinates":[90440,85233],"id":"feature_023"},{"properties":{"name":"\u4e0a\u5927\u5ca1","line":"1\u53f7\u7dda","riders":84981},"type":"Point","coordinates":[84882,77213],"id":"feature_024"},{"properties":{"name":"\u5f18\u660e\u5bfa","line":"1\u53f7\u7dda","riders":20393},"type":"Point","coordinates":[85794,80693],"id":"feature_025"},{"properties":{"name":"\u8494\u7530","line":"1\u53f7\u7dda","riders":23187},"type":"Point","coordinates":[87087,82546],"id":"feature_026"},{"properties":{"name":"\u95a2\u5185","line":"1\u53f7\u7dda","riders":46816},"type":"Point","coordinates":[90950,86454],"id":"feature_027"},{"properties":{"name":"\u6e58\u5357\u53f0","line":"1\u53f7\u7dda","riders":49388},"type":"Point","coordinates":[65204,73935],"id":"feature_028"},{"properties":{"name":"\u8e0a\u5834","line":"1\u53f7\u7dda","riders":19146},"type":"Point","coordinates":[73154,76288],"id":"feature_029"},{"properties":{"name":"\u821e\u5ca1","line":"1\u53f7\u7dda","riders":17407},"type":"Point","coordinates":[78107,75527],"id":"feature_030"},{"properties":{"name":"\u4e0a\u6c38\u8c37","line":"1\u53f7\u7dda","riders":38285},"type":"Point","coordinates":[81368,75231],"id":"feature_031"},{"properties":{"name":"\u4e0b\u6c38\u8c37","line":"1\u53f7\u7dda","riders":37902},"type":"Point","coordinates":[79285,75582],"id":"feature_032"},{"properties":{"name":"\u4e2d\u7530","line":"1\u53f7\u7dda","riders":22499},"type":"Point","coordinates":[72038,77706],"id":"feature_033"},{"properties":{"name":"\u7acb\u5834","line":"1\u53f7\u7dda","riders":23757},"type":"Point","coordinates":[70444,78520],"id":"feature_034"},{"properties":{"name":"\u6238\u585a","line":"1\u53f7\u7dda","riders":90133},"type":"Point","coordinates":[75625,75160],"id":"feature_035"},{"properties":{"name":"\u4e0b\u98ef\u7530","line":"1\u53f7\u7dda","riders":17394},"type":"Point","coordinates":[67745,75737],"id":"feature_036"},{"properties":{"name":"\u9ad8\u5cf6\u753a","line":"3\u53f7\u7dda","riders":10680},"type":"Point","coordinates":[89075,89722],"id":"feature_037"},{"properties":{"name":"\u4e09\u30c4\u6ca2\u4e0a\u753a","line":"3\u53f7\u7dda","riders":17264},"type":"Point","coordinates":[86329,94201],"id":"feature_038"},{"properties":{"name":"\u5cb8\u6839\u516c\u5712","line":"3\u53f7\u7dda","riders":11884},"type":"Point","coordinates":[87999,99026],"id":"feature_039"},{"properties":{"name":"\u7247\u5009\u753a","line":"3\u53f7\u7dda","riders":23165},"type":"Point","coordinates":[86466,97633],"id":"feature_040"},{"properties":{"name":"\u4e09\u30c4\u6ca2\u4e0b\u753a","line":"3\u53f7\u7dda","riders":12614},"type":"Point","coordinates":[87796,94216],"id":"feature_041"},{"properties":{"name":"\u6a2a\u6d5c","line":"3\u53f7\u7dda","riders":144044},"type":"Point","coordinates":[88543,91418],"id":"feature_042"},{"properties":{"name":"\u685c\u6728\u753a","line":"3\u53f7\u7dda","riders":39231},"type":"Point","coordinates":[90149,87432],"id":"feature_043"},{"properties":{"name":"\u516b\u666f\u5cf6","line":"\u91d1\u6ca2\u30b7\u30fc\u30b5\u30a4\u30c9\u30e9\u30a4\u30f3","riders":4938},"type":"Point","coordinates":[91678,59947],"id":"feature_044"},{"properties":{"name":"\u7523\u696d\u632f\u8208\u30bb\u30f3\u30bf\u30fc","line":"\u91d1\u6ca2\u30b7\u30fc\u30b5\u30a4\u30c9\u30e9\u30a4\u30f3","riders":4660},"type":"Point","coordinates":[92510,63114],"id":"feature_045"},{"properties":{"name":"\u91ce\u5cf6\u516c\u5712","line":"\u91d1\u6ca2\u30b7\u30fc\u30b5\u30a4\u30c9\u30e9\u30a4\u30f3","riders":2882},"type":"Point","coordinates":[90272,57343],"id":"feature_046"},{"properties":{"name":"\u5e78\u6d66","line":"\u91d1\u6ca2\u30b7\u30fc\u30b5\u30a4\u30c9\u30e9\u30a4\u30f3","riders":5748},"type":"Point","coordinates":[92112,64370],"id":"feature_047"},{"properties":{"name":"\u6d77\u306e\u516c\u5712\u67f4\u53e3","line":"\u91d1\u6ca2\u30b7\u30fc\u30b5\u30a4\u30c9\u30e9\u30a4\u30f3","riders":2112},"type":"Point","coordinates":[90933,60255],"id":"feature_048"},{"properties":{"name":"\u4e26\u6728\u5317","line":"\u91d1\u6ca2\u30b7\u30fc\u30b5\u30a4\u30c9\u30e9\u30a4\u30f3","riders":3598},"type":"Point","coordinates":[91966,67813],"id":"feature_049"},{"properties":{"name":"\u9ce5\u6d5c","line":"\u91d1\u6ca2\u30b7\u30fc\u30b5\u30a4\u30c9\u30e9\u30a4\u30f3","riders":8886},"type":"Point","coordinates":[91825,69117],"id":"feature_050"},{"properties":{"name":"\u91d1\u6ca2\u516b\u666f","line":"\u91d1\u6ca2\u30b7\u30fc\u30b5\u30a4\u30c9\u30e9\u30a4\u30f3","riders":0},"type":"Point","coordinates":[88633,57599],"id":"feature_051"},{"properties":{"name":"\u4e26\u6728\u4e2d\u592e","line":"\u91d1\u6ca2\u30b7\u30fc\u30b5\u30a4\u30c9\u30e9\u30a4\u30f3","riders":5265},"type":"Point","coordinates":[92006,66152],"id":"feature_052"},{"properties":{"name":"\u65b0\u6749\u7530","line":"\u91d1\u6ca2\u30b7\u30fc\u30b5\u30a4\u30c9\u30e9\u30a4\u30f3","riders":34056},"type":"Point","coordinates":[88634,71273],"id":"feature_053"},{"properties":{"name":"\u6d77\u306e\u516c\u5712\u5357\u53e3","line":"\u91d1\u6ca2\u30b7\u30fc\u30b5\u30a4\u30c9\u30e9\u30a4\u30f3","riders":1622},"type":"Point","coordinates":[90362,59012],"id":"feature_054"},{"properties":{"name":"\u5357\u90e8\u5e02\u5834","line":"\u91d1\u6ca2\u30b7\u30fc\u30b5\u30a4\u30c9\u30e9\u30a4\u30f3","riders":3714},"type":"Point","coordinates":[90524,69875],"id":"feature_055"},{"properties":{"name":"\u798f\u6d66","line":"\u91d1\u6ca2\u30b7\u30fc\u30b5\u30a4\u30c9\u30e9\u30a4\u30f3","riders":4154},"type":"Point","coordinates":[92845,62148],"id":"feature_056"},{"properties":{"name":"\u5e02\u5927\u533b\u5b66\u90e8","line":"\u91d1\u6ca2\u30b7\u30fc\u30b5\u30a4\u30c9\u30e9\u30a4\u30f3","riders":11397},"type":"Point","coordinates":[93088,60705],"id":"feature_057"},{"properties":{"name":"\u4e09\u5d0e\u53e3","line":"\u4e45\u91cc\u6d5c\u7dda","riders":18296},"type":"Point","coordinates":[90546,18828],"id":"feature_058"},{"properties":{"name":"\u5317\u4e45\u91cc\u6d5c","line":"\u4e45\u91cc\u6d5c\u7dda","riders":27581},"type":"Point","coordinates":[98582,36759],"id":"feature_059"},{"properties":{"name":"YRP\u91ce\u6bd4","line":"\u4e45\u91cc\u6d5c\u7dda","riders":20459},"type":"Point","coordinates":[98409,27510],"id":"feature_060"},{"properties":{"name":"\u65b0\u5927\u6d25","line":"\u4e45\u91cc\u6d5c\u7dda","riders":6900},"type":"Point","coordinates":[99160,38733],"id":"feature_061"},{"properties":{"name":"\u6d25\u4e45\u4e95\u6d5c","line":"\u4e45\u91cc\u6d5c\u7dda","riders":6568},"type":"Point","coordinates":[95318,23858],"id":"feature_062"},{"properties":{"name":"\u4eac\u6025\u9577\u6ca2","line":"\u4e45\u91cc\u6d5c\u7dda","riders":7482},"type":"Point","coordinates":[96724,25708],"id":"feature_063"},{"properties":{"name":"\u4e09\u6d66\u6d77\u5cb8","line":"\u4e45\u91cc\u6d5c\u7dda","riders":11842},"type":"Point","coordinates":[93579,21373],"id":"feature_064"},{"properties":{"name":"\u5800\u30ce\u5185","line":"\u4e45\u91cc\u6d5c\u7dda","riders":12734},"type":"Point","coordinates":[98681,40295],"id":"feature_065"},{"properties":{"name":"\u9017\u5b50\u30fb\u8449\u5c71","line":"\u9017\u5b50\u7dda","riders":25315},"type":"Point","coordinates":[82539,48148],"id":"feature_066"},{"properties":{"name":"\u795e\u6b66\u5bfa","line":"\u9017\u5b50\u7dda","riders":7087},"type":"Point","coordinates":[84414,51196],"id":"feature_067"},{"properties":{"name":"\u516d\u6d66","line":"\u9017\u5b50\u7dda","riders":16519},"type":"Point","coordinates":[87232,55352],"id":"feature_068"},{"properties":{"name":"\u91d1\u6ca2\u516b\u666f","line":"\u9017\u5b50\u7dda","riders":59588},"type":"Point","coordinates":[88542,57477],"id":"feature_069"},{"properties":{"name":"\u5b89\u91dd\u585a","line":"\u672c\u7dda","riders":5006},"type":"Point","coordinates":[91980,46242],"id":"feature_070"},{"properties":{"name":"\u6749\u7530","line":"\u672c\u7dda","riders":34868},"type":"Point","coordinates":[87857,70815],"id":"feature_071"},{"properties":{"name":"\u5357\u592a\u7530","line":"\u672c\u7dda","riders":17699},"type":"Point","coordinates":[87557,84209],"id":"feature_072"},{"properties":{"name":"\u6c50\u5165","line":"\u672c\u7dda","riders":22239},"type":"Point","coordinates":[94964,44635],"id":"feature_073"},{"properties":{"name":"\u9038\u898b","line":"\u672c\u7dda","riders":5299},"type":"Point","coordinates":[93463,44711],"id":"feature_074"},{"properties":{"name":"\u4eac\u6025\u65b0\u5b50\u5b89","line":"\u672c\u7dda","riders":8596},"type":"Point","coordinates":[93954,96931],"id":"feature_075"},{"properties":{"name":"\u8ffd\u6d5c","line":"\u672c\u7dda","riders":42727},"type":"Point","coordinates":[89261,53575],"id":"feature_076"},{"properties":{"name":"\u751f\u9ea6","line":"\u672c\u7dda","riders":29910},"type":"Point","coordinates":[95694,99049],"id":"feature_077"},{"properties":{"name":"\u5f18\u660e\u5bfa","line":"\u672c\u7dda","riders":30386},"type":"Point","coordinates":[85023,80976],"id":"feature_078"},{"properties":{"name":"\u6a2a\u9808\u8cc0\u4e2d\u592e","line":"\u672c\u7dda","riders":68092},"type":"Point","coordinates":[96067,44261],"id":"feature_079"},{"properties":{"name":"\u80fd\u898b\u53f0","line":"\u672c\u7dda","riders":31758},"type":"Point","coordinates":[89921,64916],"id":"feature_080"},{"properties":{"name":"\u4e0a\u5927\u5ca1","line":"\u672c\u7dda","riders":144624},"type":"Point","coordinates":[84978,77248],"id":"feature_081"},{"properties":{"name":"\u91d1\u6ca2\u6587\u5eab","line":"\u672c\u7dda","riders":71523},"type":"Point","coordinates":[88792,60543],"id":"feature_082"},{"properties":{"name":"\u795e\u5948\u5ddd","line":"\u672c\u7dda","riders":5082},"type":"Point","coordinates":[89646,92894],"id":"feature_083"},{"properties":{"name":"\u9ec4\u91d1\u753a","line":"\u672c\u7dda","riders":22987},"type":"Point","coordinates":[88910,84922],"id":"feature_084"},{"properties":{"name":"\u6238\u90e8","line":"\u672c\u7dda","riders":16841},"type":"Point","coordinates":[88455,89206],"id":"feature_085"},{"properties":{"name":"\u4e95\u571f\u30f6\u8c37","line":"\u672c\u7dda","riders":29347},"type":"Point","coordinates":[85572,83448],"id":"feature_086"},{"properties":{"name":"\u4eac\u6025\u6771\u795e\u5948\u5ddd","line":"\u672c\u7dda","riders":23821},"type":"Point","coordinates":[90784,94486],"id":"feature_087"},{"properties":{"name":"\u5c4f\u98a8\u6d66","line":"\u672c\u7dda","riders":18335},"type":"Point","coordinates":[87073,73401],"id":"feature_088"},{"properties":{"name":"\u6a2a\u6d5c","line":"\u672c\u7dda","riders":327025},"type":"Point","coordinates":[88996,91630],"id":"feature_089"},{"properties":{"name":"\u4eac\u6025\u5bcc\u5ca1","line":"\u672c\u7dda","riders":24700},"type":"Point","coordinates":[90001,66471],"id":"feature_090"},{"properties":{"name":"\u5b50\u5b89","line":"\u672c\u7dda","riders":7852},"type":"Point","coordinates":[92316,96261],"id":"feature_091"},{"properties":{"name":"\u770c\u7acb\u5927\u5b66","line":"\u672c\u7dda","riders":12509},"type":"Point","coordinates":[97155,41981],"id":"feature_092"},{"properties":{"name":"\u4eac\u6025\u7530\u6d66","line":"\u672c\u7dda","riders":13878},"type":"Point","coordinates":[89311,49862],"id":"feature_093"},{"properties":{"name":"\u795e\u5948\u5ddd\u65b0\u753a","line":"\u672c\u7dda","riders":19682},"type":"Point","coordinates":[91578,95490],"id":"feature_094"},{"properties":{"name":"\u4eac\u6025\u5927\u6d25","line":"\u672c\u7dda","riders":5358},"type":"Point","coordinates":[99943,39751],"id":"feature_095"},{"properties":{"name":"\u65e5\u30ce\u51fa\u753a","line":"\u672c\u7dda","riders":28814},"type":"Point","coordinates":[89531,86418],"id":"feature_096"},{"properties":{"name":"\u4e03\u91cc\u30f6\u6d5c","line":"\u6c5f\u30ce\u5cf6\u96fb\u9244\u7dda","riders":7385},"type":"Point","coordinates":[71860,51199],"id":"feature_097"},{"properties":{"name":"\u938c\u5009","line":"\u6c5f\u30ce\u5cf6\u96fb\u9244\u7dda","riders":27597},"type":"Point","coordinates":[77928,54232],"id":"feature_098"},{"properties":{"name":"\u67f3\u5c0f\u8def","line":"\u6c5f\u30ce\u5cf6\u96fb\u9244\u7dda","riders":2772},"type":"Point","coordinates":[68100,56507],"id":"feature_099"},{"properties":{"name":"\u9d60\u6cbc","line":"\u6c5f\u30ce\u5cf6\u96fb\u9244\u7dda","riders":4802},"type":"Point","coordinates":[67712,55018],"id":"feature_100"},{"properties":{"name":"\u6e58\u5357\u6d77\u5cb8\u516c\u5712","line":"\u6c5f\u30ce\u5cf6\u96fb\u9244\u7dda","riders":2478},"type":"Point","coordinates":[67811,53451],"id":"feature_101"},{"properties":{"name":"\u7531\u6bd4\u30f6\u6d5c","line":"\u6c5f\u30ce\u5cf6\u96fb\u9244\u7dda","riders":2680},"type":"Point","coordinates":[76639,52865],"id":"feature_102"},{"properties":{"name":"\u938c\u5009\u9ad8\u6821\u524d","line":"\u6c5f\u30ce\u5cf6\u96fb\u9244\u7dda","riders":4395},"type":"Point","coordinates":[70414,51318],"id":"feature_103"},{"properties":{"name":"\u548c\u7530\u585a","line":"\u6c5f\u30ce\u5cf6\u96fb\u9244\u7dda","riders":1392},"type":"Point","coordinates":[77213,53082],"id":"feature_104"},{"properties":{"name":"\u6975\u697d\u5bfa","line":"\u6c5f\u30ce\u5cf6\u96fb\u9244\u7dda","riders":2355},"type":"Point","coordinates":[74661,51937],"id":"feature_105"},{"properties":{"name":"\u77f3\u4e0a","line":"\u6c5f\u30ce\u5cf6\u96fb\u9244\u7dda","riders":771},"type":"Point","coordinates":[68153,57814],"id":"feature_106"},{"properties":{"name":"\u7a32\u6751\u30f6\u5d0e","line":"\u6c5f\u30ce\u5cf6\u96fb\u9244\u7dda","riders":5204},"type":"Point","coordinates":[73713,50703],"id":"feature_107"},{"properties":{"name":"\u9577\u8c37","line":"\u6c5f\u30ce\u5cf6\u96fb\u9244\u7dda","riders":11329},"type":"Point","coordinates":[75833,52470],"id":"feature_108"},{"properties":{"name":"\u85e4\u6ca2","line":"\u6c5f\u30ce\u5cf6\u96fb\u9244\u7dda","riders":23722},"type":"Point","coordinates":[68403,59017],"id":"feature_109"},{"properties":{"name":"\u8170\u8d8a","line":"\u6c5f\u30ce\u5cf6\u96fb\u9244\u7dda","riders":4451},"type":"Point","coordinates":[69332,51717],"id":"feature_110"},{"properties":{"name":"\u6c5f\u30ce\u5cf6","line":"\u6c5f\u30ce\u5cf6\u96fb\u9244\u7dda","riders":10614},"type":"Point","coordinates":[68462,52397],"id":"feature_111"},{"properties":{"name":"\u9db4\u9593","line":"\u6c5f\u30ce\u5cf6\u7dda","riders":30489},"type":"Point","coordinates":[62859,97777],"id":"feature_112"},{"properties":{"name":"\u5357\u6797\u9593","line":"\u6c5f\u30ce\u5cf6\u7dda","riders":34386},"type":"Point","coordinates":[62458,99049],"id":"feature_113"},{"properties":{"name":"\u6e58\u5357\u53f0","line":"\u6c5f\u30ce\u5cf6\u7dda","riders":92776},"type":"Point","coordinates":[65257,74013],"id":"feature_114"},{"properties":{"name":"\u9577\u5f8c","line":"\u6c5f\u30ce\u5cf6\u7dda","riders":35272},"type":"Point","coordinates":[65085,77981],"id":"feature_115"},{"properties":{"name":"\u85e4\u6ca2","line":"\u6c5f\u30ce\u5cf6\u7dda","riders":166999},"type":"Point","coordinates":[68386,59363],"id":"feature_116"},{"properties":{"name":"\u9d60\u6cbc\u6d77\u5cb8","line":"\u6c5f\u30ce\u5cf6\u7dda","riders":20079},"type":"Point","coordinates":[65977,54854],"id":"feature_117"},{"properties":{"name":"\u672c\u9d60\u6cbc","line":"\u6c5f\u30ce\u5cf6\u7dda","riders":13938},"type":"Point","coordinates":[66594,57452],"id":"feature_118"},{"properties":{"name":"\u685c\u30f6\u4e18","line":"\u6c5f\u30ce\u5cf6\u7dda","riders":20749},"type":"Point","coordinates":[65147,87657],"id":"feature_119"},{"properties":{"name":"\u5927\u548c","line":"\u6c5f\u30ce\u5cf6\u7dda","riders":223925},"type":"Point","coordinates":[64500,92538],"id":"feature_120"},{"properties":{"name":"\u516d\u4f1a\u65e5\u5927\u524d","line":"\u6c5f\u30ce\u5cf6\u7dda","riders":30555},"type":"Point","coordinates":[65901,70780],"id":"feature_121"},{"properties":{"name":"\u85e4\u6ca2\u672c\u753a","line":"\u6c5f\u30ce\u5cf6\u7dda","riders":21970},"type":"Point","coordinates":[66677,61794],"id":"feature_122"},{"properties":{"name":"\u5584\u884c","line":"\u6c5f\u30ce\u5cf6\u7dda","riders":27176},"type":"Point","coordinates":[66286,65429],"id":"feature_123"},{"properties":{"name":"\u7247\u702c\u6c5f\u30ce\u5cf6","line":"\u6c5f\u30ce\u5cf6\u7dda","riders":21440},"type":"Point","coordinates":[67750,51962],"id":"feature_124"},{"properties":{"name":"\u9ad8\u5ea7\u6e0b\u8c37","line":"\u6c5f\u30ce\u5cf6\u7dda","riders":25580},"type":"Point","coordinates":[64991,83009],"id":"feature_125"},{"properties":{"name":"\u76f8\u6b66\u53f0\u524d","line":"\u5c0f\u7530\u539f\u7dda","riders":40372},"type":"Point","coordinates":[56481,99999],"id":"feature_126"},{"properties":{"name":"\u5c0f\u7530\u539f","line":"\u5c0f\u7530\u539f\u7dda","riders":83654},"type":"Point","coordinates":[18125,38576],"id":"feature_127"},{"properties":{"name":"\u6d77\u8001\u540d","line":"\u5c0f\u7530\u539f\u7dda","riders":153713},"type":"Point","coordinates":[53836,88268],"id":"feature_128"},{"properties":{"name":"\u611b\u7532\u77f3\u7530","line":"\u5c0f\u7530\u539f\u7dda","riders":54602},"type":"Point","coordinates":[46723,79376],"id":"feature_129"},{"properties":{"name":"\u65b0\u677e\u7530","line":"\u5c0f\u7530\u539f\u7dda","riders":24723},"type":"Point","coordinates":[15703,60885],"id":"feature_130"},{"properties":{"name":"\u8db3\u67c4","line":"\u5c0f\u7530\u539f\u7dda","riders":3984},"type":"Point","coordinates":[17985,42474],"id":"feature_131"},{"properties":{"name":"\u5ea7\u9593","line":"\u5c0f\u7530\u539f\u7dda","riders":22242},"type":"Point","coordinates":[55167,95356],"id":"feature_132"},{"properties":{"name":"\u6822\u5c71","line":"\u5c0f\u7530\u539f\u7dda","riders":9650},"type":"Point","coordinates":[16176,52301],"id":"feature_133"},{"properties":{"name":"\u539a\u6728","line":"\u5c0f\u7530\u539f\u7dda","riders":34177},"type":"Point","coordinates":[51845,85774],"id":"feature_134"},{"properties":{"name":"\u672c\u539a\u6728","line":"\u5c0f\u7530\u539f\u7dda","riders":154698},"type":"Point","coordinates":[49786,84796],"id":"feature_135"},{"properties":{"name":"\u79e6\u91ce","line":"\u5c0f\u7530\u539f\u7dda","riders":43709},"type":"Point","coordinates":[28830,67320],"id":"feature_136"},{"properties":{"name":"\u9db4\u5dfb\u6e29\u6cc9","line":"\u5c0f\u7530\u539f\u7dda","riders":15431},"type":"Point","coordinates":[36566,69969],"id":"feature_137"},{"properties":{"name":"\u958b\u6210","line":"\u5c0f\u7530\u539f\u7dda","riders":12350},"type":"Point","coordinates":[15152,56307],"id":"feature_138"},{"properties":{"name":"\u4f0a\u52e2\u539f","line":"\u5c0f\u7530\u539f\u7dda","riders":52773},"type":"Point","coordinates":[42121,73897],"id":"feature_139"},{"properties":{"name":"\u5bcc\u6c34","line":"\u5c0f\u7530\u539f\u7dda","riders":6966},"type":"Point","coordinates":[16569,48793],"id":"feature_140"},{"properties":{"name":"\u6e0b\u6ca2","line":"\u5c0f\u7530\u539f\u7dda","riders":28547},"type":"Point","coordinates":[22537,68326],"id":"feature_141"},{"properties":{"name":"\u6771\u6d77\u5927\u5b66\u524d","line":"\u5c0f\u7530\u539f\u7dda","riders":41306},"type":"Point","coordinates":[35628,68040],"id":"feature_142"},{"properties":{"name":"\u87a2\u7530","line":"\u5c0f\u7530\u539f\u7dda","riders":6428},"type":"Point","coordinates":[17597,45835],"id":"feature_143"},{"properties":{"name":"\u897f\u938c\u5009","line":"\u6c5f\u306e\u5cf6\u7dda","riders":5450},"type":"Point","coordinates":[70991,54513],"id":"feature_144"},{"properties":{"name":"\u76ee\u767d\u5c71\u4e0b","line":"\u6c5f\u306e\u5cf6\u7dda","riders":371},"type":"Point","coordinates":[69052,53165],"id":"feature_145"},{"properties":{"name":"\u5927\u8239","line":"\u6c5f\u306e\u5cf6\u7dda","riders":28438},"type":"Point","coordinates":[75095,62884],"id":"feature_146"},{"properties":{"name":"\u6e58\u5357\u6df1\u6ca2","line":"\u6c5f\u306e\u5cf6\u7dda","riders":5726},"type":"Point","coordinates":[73204,57945],"id":"feature_147"},{"properties":{"name":"\u6e58\u5357\u6c5f\u306e\u5cf6","line":"\u6c5f\u306e\u5cf6\u7dda","riders":4576},"type":"Point","coordinates":[68492,52612],"id":"feature_148"},{"properties":{"name":"\u5bcc\u58eb\u898b\u753a","line":"\u6c5f\u306e\u5cf6\u7dda","riders":4397},"type":"Point","coordinates":[74781,61072],"id":"feature_149"},{"properties":{"name":"\u6e58\u5357\u753a\u5c4b","line":"\u6c5f\u306e\u5cf6\u7dda","riders":7117},"type":"Point","coordinates":[73781,59178],"id":"feature_150"},{"properties":{"name":"\u7247\u702c\u5c71","line":"\u6c5f\u306e\u5cf6\u7dda","riders":3931},"type":"Point","coordinates":[69773,53987],"id":"feature_151"},{"properties":{"name":"\u5357\u4e07\u9a0e\u304c\u539f","line":"\u3044\u305a\u307f\u91ce\u7dda","riders":11731},"type":"Point","coordinates":[74331,88167],"id":"feature_152"},{"properties":{"name":"\u3044\u305a\u307f\u91ce","line":"\u3044\u305a\u307f\u91ce\u7dda","riders":14181},"type":"Point","coordinates":[69599,82341],"id":"feature_153"},{"properties":{"name":"\u5f25\u751f\u53f0","line":"\u3044\u305a\u307f\u91ce\u7dda","riders":16032},"type":"Point","coordinates":[71344,82450],"id":"feature_154"},{"properties":{"name":"\u7dd1\u5712\u90fd\u5e02","line":"\u3044\u305a\u307f\u91ce\u7dda","riders":26591},"type":"Point","coordinates":[73638,84818],"id":"feature_155"},{"properties":{"name":"\u3086\u3081\u304c\u4e18","line":"\u3044\u305a\u307f\u91ce\u7dda","riders":2322},"type":"Point","coordinates":[67665,76310],"id":"feature_156"},{"properties":{"name":"\u4e8c\u4fe3\u5ddd","line":"\u3044\u305a\u307f\u91ce\u7dda","riders":82853},"type":"Point","coordinates":[75243,90907],"id":"feature_157"},{"properties":{"name":"\u3044\u305a\u307f\u4e2d\u592e","line":"\u3044\u305a\u307f\u91ce\u7dda","riders":16257},"type":"Point","coordinates":[68397,78702],"id":"feature_158"},{"properties":{"name":"\u897f\u6a2a\u6d5c","line":"\u672c\u7dda","riders":14832},"type":"Point","coordinates":[86851,88430],"id":"feature_159"},{"properties":{"name":"\u5929\u738b\u753a","line":"\u672c\u7dda","riders":27817},"type":"Point","coordinates":[85875,88536],"id":"feature_160"},{"properties":{"name":"\u548c\u7530\u753a","line":"\u672c\u7dda","riders":18231},"type":"Point","coordinates":[83427,90988],"id":"feature_161"},{"properties":{"name":"\u661f\u5ddd","line":"\u672c\u7dda","riders":29634},"type":"Point","coordinates":[84762,89606],"id":"feature_162"},{"properties":{"name":"\u5e73\u6cbc\u6a4b","line":"\u672c\u7dda","riders":8926},"type":"Point","coordinates":[87987,90012],"id":"feature_163"},{"properties":{"name":"\u6a2a\u6d5c","line":"\u672c\u7dda","riders":429114},"type":"Point","coordinates":[88833,91506],"id":"feature_164"},{"properties":{"name":"\u4e0a\u661f\u5ddd","line":"\u672c\u7dda","riders":0},"type":"Point","coordinates":[82529,91913],"id":"feature_165"},{"properties":{"name":"\u4e09\u30c4\u5883","line":"\u672c\u7dda","riders":59806},"type":"Point","coordinates":[70728,92017],"id":"feature_166"},{"properties":{"name":"\u76f8\u6a21\u5927\u585a","line":"\u672c\u7dda","riders":14284},"type":"Point","coordinates":[61420,92714],"id":"feature_167"},{"properties":{"name":"\u9db4\u30f6\u5cf0","line":"\u672c\u7dda","riders":57607},"type":"Point","coordinates":[77912,93865],"id":"feature_168"},{"properties":{"name":"\u897f\u8c37","line":"\u672c\u7dda","riders":0},"type":"Point","coordinates":[80267,94615],"id":"feature_169"},{"properties":{"name":"\u702c\u8c37","line":"\u672c\u7dda","riders":44738},"type":"Point","coordinates":[67700,92679],"id":"feature_170"},{"properties":{"name":"\u304b\u3057\u308f\u53f0","line":"\u672c\u7dda","riders":19147},"type":"Point","coordinates":[57593,91779],"id":"feature_171"},{"properties":{"name":"\u5927\u548c","line":"\u672c\u7dda","riders":115878},"type":"Point","coordinates":[64428,92560],"id":"feature_172"},{"properties":{"name":"\u5e0c\u671b\u30f6\u4e18","line":"\u672c\u7dda","riders":35173},"type":"Point","coordinates":[72379,90187],"id":"feature_173"},{"properties":{"name":"\u3055\u304c\u307f\u91ce","line":"\u672c\u7dda","riders":37893},"type":"Point","coordinates":[59534,92960],"id":"feature_174"},{"properties":{"name":"\u6d77\u8001\u540d","line":"\u672c\u7dda","riders":123951},"type":"Point","coordinates":[54008,88392],"id":"feature_175"},{"properties":{"name":"\u5927\u5c71\u5bfa","line":"\u5927\u5c71\u92fc\u7d22\u7dda","riders":532},"type":"Point","coordinates":[31090,82417],"id":"feature_176"},{"properties":{"name":"\u5927\u5c71\u30b1\u30fc\u30d6\u30eb","line":"\u5927\u5c71\u92fc\u7d22\u7dda","riders":900},"type":"Point","coordinates":[31623,81934],"id":"feature_177"},{"properties":{"name":"\u963f\u592b\u5229\u795e\u793e","line":"\u5927\u5c71\u92fc\u7d22\u7dda","riders":905},"type":"Point","coordinates":[30575,82920],"id":"feature_178"},{"properties":{"name":"\u56fd\u5e9c\u6d25","line":"\u5fa1\u6bbf\u5834\u7dda","riders":12882},"type":"Point","coordinates":[27144,44908],"id":"feature_179"},{"properties":{"name":"\u5c71\u5317","line":"\u5fa1\u6bbf\u5834\u7dda","riders":1115},"type":"Point","coordinates":[6811,64979],"id":"feature_180"},{"properties":{"name":"\u6771\u5c71\u5317","line":"\u5fa1\u6bbf\u5834\u7dda","riders":1681},"type":"Point","coordinates":[10897,64170],"id":"feature_181"},{"properties":{"name":"\u677e\u7530","line":"\u5fa1\u6bbf\u5834\u7dda","riders":6470},"type":"Point","coordinates":[15656,61236],"id":"feature_182"},{"properties":{"name":"\u4e0a\u5927\u4e95","line":"\u5fa1\u6bbf\u5834\u7dda","riders":1049},"type":"Point","coordinates":[19367,55117],"id":"feature_183"},{"properties":{"name":"\u76f8\u6a21\u91d1\u5b50","line":"\u5fa1\u6bbf\u5834\u7dda","riders":1017},"type":"Point","coordinates":[17367,58172],"id":"feature_184"},{"properties":{"name":"\u4e0b\u66fd\u6211","line":"\u5fa1\u6bbf\u5834\u7dda","riders":2627},"type":"Point","coordinates":[22366,50506],"id":"feature_185"},{"properties":{"name":"\u8c37\u5ce8","line":"\u5fa1\u6bbf\u5834\u7dda","riders":218},"type":"Point","coordinates":[383,66410],"id":"feature_186"},{"properties":{"name":"\u5c0f\u7530\u539f","line":"\u6771\u6d77\u9053\u65b0\u5e79\u7dda","riders":21634},"type":"Point","coordinates":[18023,38541],"id":"feature_187"},{"properties":{"name":"\u71b1\u6d77","line":"\u6771\u6d77\u9053\u65b0\u5e79\u7dda","riders":9379},"type":"Point","coordinates":[6417,172],"id":"feature_188"},{"properties":{"name":"\u71b1\u6d77","line":"\u6771\u6d77\u9053\u7dda","riders":21506},"type":"Point","coordinates":[6363,15],"id":"feature_189"},{"properties":{"name":"\u53cd\u753a","line":"\u6771\u6a2a\u7dda","riders":13634},"type":"Point","coordinates":[89334,93645],"id":"feature_190"},{"properties":{"name":"\u6771\u767d\u697d","line":"\u6771\u6a2a\u7dda","riders":15031},"type":"Point","coordinates":[89966,95965],"id":"feature_191"},{"properties":{"name":"\u767d\u697d","line":"\u6771\u6a2a\u7dda","riders":45224},"type":"Point","coordinates":[89722,97507],"id":"feature_192"},{"properties":{"name":"\u5999\u84ee\u5bfa","line":"\u6771\u6a2a\u7dda","riders":26102},"type":"Point","coordinates":[90539,99852],"id":"feature_193"},{"properties":{"name":"\u71b1\u6d77","line":"\u4f0a\u6771\u7dda","riders":11},"type":"Point","coordinates":[6404,0],"id":"feature_194"},{"properties":{"name":"\u8863\u7b20","line":"\u6a2a\u9808\u8cc0\u7dda","riders":18310},"type":"Point","coordinates":[94733,38768],"id":"feature_195"},{"properties":{"name":"\u6a2a\u9808\u8cc0","line":"\u6a2a\u9808\u8cc0\u7dda","riders":11704},"type":"Point","coordinates":[93797,45626],"id":"feature_196"},{"properties":{"name":"\u7530\u6d66","line":"\u6a2a\u9808\u8cc0\u7dda","riders":5122},"type":"Point","coordinates":[91177,47799],"id":"feature_197"},{"properties":{"name":"\u6771\u9017\u5b50","line":"\u6a2a\u9808\u8cc0\u7dda","riders":10538},"type":"Point","coordinates":[85767,49298],"id":"feature_198"},{"properties":{"name":"\u9017\u5b50","line":"\u6a2a\u9808\u8cc0\u7dda","riders":58848},"type":"Point","coordinates":[82211,48954],"id":"feature_199"},{"properties":{"name":"\u5317\u938c\u5009","line":"\u6a2a\u9808\u8cc0\u7dda","riders":18030},"type":"Point","coordinates":[77090,59199],"id":"feature_200"},{"properties":{"name":"\u938c\u5009","line":"\u6a2a\u9808\u8cc0\u7dda","riders":89686},"type":"Point","coordinates":[77980,54480],"id":"feature_201"},{"properties":{"name":"\u5927\u8239","line":"\u6a2a\u9808\u8cc0\u7dda","riders":0},"type":"Point","coordinates":[75081,63207],"id":"feature_202"},{"properties":{"name":"\u6771\u795e\u5948\u5ddd","line":"\u6a2a\u6d5c\u7dda","riders":74756},"type":"Point","coordinates":[90516,94567],"id":"feature_203"},{"properties":{"name":"\u5927\u53e3","line":"\u6a2a\u6d5c\u7dda","riders":37634},"type":"Point","coordinates":[92513,98212],"id":"feature_204"},{"properties":{"name":"\u5c71\u624b","line":"\u6839\u5cb8\u7dda","riders":35184},"type":"Point","coordinates":[92533,81659],"id":"feature_205"},{"properties":{"name":"\u6a2a\u6d5c","line":"\u6839\u5cb8\u7dda","riders":847302},"type":"Point","coordinates":[88863,91418],"id":"feature_206"},{"properties":{"name":"\u77f3\u5ddd\u753a","line":"\u6839\u5cb8\u7dda","riders":69142},"type":"Point","coordinates":[91995,84720],"id":"feature_207"},{"properties":{"name":"\u6d0b\u5149\u53f0","line":"\u6839\u5cb8\u7dda","riders":42608},"type":"Point","coordinates":[85028,69529],"id":"feature_208"},{"properties":{"name":"\u95a2\u5185","line":"\u6839\u5cb8\u7dda","riders":111450},"type":"Point","coordinates":[90945,86062],"id":"feature_209"},{"properties":{"name":"\u65b0\u6749\u7530","line":"\u6839\u5cb8\u7dda","riders":76996},"type":"Point","coordinates":[88437,71548],"id":"feature_210"},{"properties":{"name":"\u6839\u5cb8","line":"\u6839\u5cb8\u7dda","riders":43896},"type":"Point","coordinates":[90962,78894],"id":"feature_211"},{"properties":{"name":"\u78ef\u5b50","line":"\u6839\u5cb8\u7dda","riders":40564},"type":"Point","coordinates":[88290,75031],"id":"feature_212"},{"properties":{"name":"\u685c\u6728\u753a","line":"\u6839\u5cb8\u7dda","riders":142320},"type":"Point","coordinates":[90171,87801],"id":"feature_213"},{"properties":{"name":"\u672c\u90f7\u53f0","line":"\u6839\u5cb8\u7dda","riders":38556},"type":"Point","coordinates":[77933,66761],"id":"feature_214"},{"properties":{"name":"\u5927\u8239","line":"\u6839\u5cb8\u7dda","riders":0},"type":"Point","coordinates":[75104,63235],"id":"feature_215"},{"properties":{"name":"\u6e2f\u5357\u53f0","line":"\u6839\u5cb8\u7dda","riders":66754},"type":"Point","coordinates":[81882,68604],"id":"feature_216"},{"properties":{"name":"\u76f8\u6b66\u53f0\u4e0b","line":"\u76f8\u6a21\u7dda","riders":2406},"type":"Point","coordinates":[53112,98336],"id":"feature_217"},{"properties":{"name":"\u9999\u5ddd","line":"\u76f8\u6a21\u7dda","riders":10930},"type":"Point","coordinates":[55159,63915],"id":"feature_218"},{"properties":{"name":"\u9580\u6ca2\u6a4b","line":"\u76f8\u6a21\u7dda","riders":3710},"type":"Point","coordinates":[52162,76578],"id":"feature_219"},{"properties":{"name":"\u793e\u5bb6","line":"\u76f8\u6a21\u7dda","riders":4058},"type":"Point","coordinates":[51727,80044],"id":"feature_220"},{"properties":{"name":"\u5009\u898b","line":"\u76f8\u6a21\u7dda","riders":3818},"type":"Point","coordinates":[51909,73634],"id":"feature_221"},{"properties":{"name":"\u8305\u30f6\u5d0e","line":"\u76f8\u6a21\u7dda","riders":11},"type":"Point","coordinates":[56244,57361],"id":"feature_222"},{"properties":{"name":"\u5317\u8305\u30f6\u5d0e","line":"\u76f8\u6a21\u7dda","riders":5710},"type":"Point","coordinates":[56317,59638],"id":"feature_223"},{"properties":{"name":"\u5165\u8c37","line":"\u76f8\u6a21\u7dda","riders":11},"type":"Point","coordinates":[53953,94696],"id":"feature_224"},{"properties":{"name":"\u5bae\u5c71","line":"\u76f8\u6a21\u7dda","riders":4456},"type":"Point","coordinates":[52103,70391],"id":"feature_225"},{"properties":{"name":"\u6d77\u8001\u540d","line":"\u76f8\u6a21\u7dda","riders":28254},"type":"Point","coordinates":[53564,88592],"id":"feature_226"},{"properties":{"name":"\u5bd2\u5ddd","line":"\u76f8\u6a21\u7dda","riders":13876},"type":"Point","coordinates":[53263,66723],"id":"feature_227"},{"properties":{"name":"\u539a\u6728","line":"\u76f8\u6a21\u7dda","riders":34177},"type":"Point","coordinates":[51942,85961],"id":"feature_228"},{"properties":{"name":"\u9db4\u898b\u5c0f\u91ce","line":"\u9db4\u898b\u7dda","riders":11},"type":"Point","coordinates":[97806,99408],"id":"feature_229"},{"properties":{"name":"\u5f01\u5929\u6a4b","line":"\u9db4\u898b\u7dda","riders":11},"type":"Point","coordinates":[99050,99099],"id":"feature_230"},{"properties":{"name":"\u6d45\u91ce","line":"\u9db4\u898b\u7dda","riders":11},"type":"Point","coordinates":[99988,99557],"id":"feature_231"},{"properties":{"name":"\u6d45\u91ce","line":"\u9db4\u898b\u7dda","riders":11},"type":"Point","coordinates":[99999,99473],"id":"feature_232"},{"properties":{"name":"\u65b0\u5b50\u5b89","line":"\u6771\u6d77\u9053\u7dda","riders":47684},"type":"Point","coordinates":[93688,96832],"id":"feature_233"},{"properties":{"name":"\u6a2a\u6d5c","line":"\u6771\u6d77\u9053\u7dda","riders":11},"type":"Point","coordinates":[88842,91484],"id":"feature_234"},{"properties":{"name":"\u4fdd\u571f\u30f6\u8c37","line":"\u6771\u6d77\u9053\u7dda","riders":68730},"type":"Point","coordinates":[85547,86820],"id":"feature_235"},{"properties":{"name":"\u6238\u585a","line":"\u6771\u6d77\u9053\u7dda","riders":225212},"type":"Point","coordinates":[75552,74910],"id":"feature_236"},{"properties":{"name":"\u5e73\u585a","line":"\u6771\u6d77\u9053\u7dda","riders":11},"type":"Point","coordinates":[47526,56621],"id":"feature_237"},{"properties":{"name":"\u5927\u78ef","line":"\u6771\u6d77\u9053\u7dda","riders":16472},"type":"Point","coordinates":[42053,52516],"id":"feature_238"},{"properties":{"name":"\u65e9\u5ddd","line":"\u6771\u6d77\u9053\u7dda","riders":2880},"type":"Point","coordinates":[16550,34140],"id":"feature_239"},{"properties":{"name":"\u8fbb\u5802","line":"\u6771\u6d77\u9053\u7dda","riders":118850},"type":"Point","coordinates":[62140,58921],"id":"feature_240"},{"properties":{"name":"\u8305\u30f6\u5d0e","line":"\u6771\u6d77\u9053\u7dda","riders":113038},"type":"Point","coordinates":[56303,57298],"id":"feature_241"},{"properties":{"name":"\u6771\u6238\u585a","line":"\u6771\u6d77\u9053\u7dda","riders":118658},"type":"Point","coordinates":[78900,82470],"id":"feature_242"},{"properties":{"name":"\u5e73\u585a","line":"\u6771\u6d77\u9053\u7dda","riders":123688},"type":"Point","coordinates":[47530,56565],"id":"feature_243"},{"properties":{"name":"\u5927\u8239","line":"\u6771\u6d77\u9053\u7dda","riders":199888},"type":"Point","coordinates":[75060,63293],"id":"feature_244"},{"properties":{"name":"\u4e8c\u5bae","line":"\u6771\u6d77\u9053\u7dda","riders":28204},"type":"Point","coordinates":[33478,49273],"id":"feature_245"},{"properties":{"name":"\u5c0f\u7530\u539f","line":"\u6771\u6d77\u9053\u7dda","riders":69204},"type":"Point","coordinates":[18176,38515],"id":"feature_246"},{"properties":{"name":"\u6839\u5e9c\u5ddd","line":"\u6771\u6d77\u9053\u7dda","riders":11},"type":"Point","coordinates":[15577,24978],"id":"feature_247"},{"properties":{"name":"\u9d28\u5bae","line":"\u6771\u6d77\u9053\u7dda","riders":25964},"type":"Point","coordinates":[21834,43464],"id":"feature_248"},{"properties":{"name":"\u6e6f\u6cb3\u539f","line":"\u6771\u6d77\u9053\u7dda","riders":12202},"type":"Point","coordinates":[10059,10714],"id":"feature_249"},{"properties":{"name":"\u85e4\u6ca2","line":"\u6771\u6d77\u9053\u7dda","riders":219234},"type":"Point","coordinates":[68318,59426],"id":"feature_250"},{"properties":{"name":"\u771f\u9db4","line":"\u6771\u6d77\u9053\u7dda","riders":7562},"type":"Point","coordinates":[14594,13401],"id":"feature_251"},{"properties":{"name":"\u516c\u5712\u4e0a","line":"\u92fc\u7d22\u7dda","riders":223},"type":"Point","coordinates":[1133,36749],"id":"feature_252"},{"properties":{"name":"\u5f37\u7f85","line":"\u92fc\u7d22\u7dda","riders":11396},"type":"Point","coordinates":[1837,37156],"id":"feature_253"},{"properties":{"name":"\u516c\u5712\u4e0b","line":"\u92fc\u7d22\u7dda","riders":185},"type":"Point","coordinates":[1549,36991],"id":"feature_254"},{"properties":{"name":"\u4e2d\u5f37\u7f85","line":"\u92fc\u7d22\u7dda","riders":232},"type":"Point","coordinates":[682,36486],"id":"feature_255"},{"properties":{"name":"\u65e9\u96f2\u5c71","line":"\u92fc\u7d22\u7dda","riders":4363},"type":"Point","coordinates":[0,36076],"id":"feature_256"},{"properties":{"name":"\u4e0a\u5f37\u7f85","line":"\u92fc\u7d22\u7dda","riders":138},"type":"Point","coordinates":[288,36248],"id":"feature_257"},{"properties":{"name":"\u5bae\u30ce\u4e0b","line":"\u9244\u9053\u7dda","riders":889},"type":"Point","coordinates":[4122,34946],"id":"feature_258"},{"properties":{"name":"\u7bb1\u6839\u6e6f\u672c","line":"\u9244\u9053\u7dda","riders":11507},"type":"Point","coordinates":[10324,32811],"id":"feature_259"},{"properties":{"name":"\u5927\u5e73\u53f0","line":"\u9244\u9053\u7dda","riders":387},"type":"Point","coordinates":[5764,34206],"id":"feature_260"},{"properties":{"name":"\u5f6b\u523b\u306e\u68ee","line":"\u9244\u9053\u7dda","riders":849},"type":"Point","coordinates":[2264,36124],"id":"feature_261"},{"properties":{"name":"\u5f37\u7f85","line":"\u9244\u9053\u7dda","riders":6915},"type":"Point","coordinates":[1885,37196],"id":"feature_262"},{"properties":{"name":"\u5854\u30ce\u6ca2","line":"\u9244\u9053\u7dda","riders":126},"type":"Point","coordinates":[8819,33043],"id":"feature_263"},{"properties":{"name":"\u5165\u751f\u7530","line":"\u9244\u9053\u7dda","riders":1217},"type":"Point","coordinates":[12917,34641],"id":"feature_264"},{"properties":{"name":"\u5c0f\u6d8c\u8c37","line":"\u9244\u9053\u7dda","riders":679},"type":"Point","coordinates":[2631,34532],"id":"feature_265"},{"properties":{"name":"\u7bb1\u6839\u677f\u6a4b","line":"\u9244\u9053\u7dda","riders":2541},"type":"Point","coordinates":[16572,35745],"id":"feature_266"},{"properties":{"name":"\u98a8\u796d","line":"\u9244\u9053\u7dda","riders":1786},"type":"Point","coordinates":[14144,36021],"id":"feature_267"},{"properties":{"name":"\u7fbd\u6ca2\u6a2a\u6d5c\u56fd\u5927","line":"\u76f8\u9244\u65b0\u6a2a\u6d5c\u7dda","riders":25422},"type":"Point","coordinates":[83390,95416],"id":"feature_268"}],"type":"GeometryCollection"}},"bbox":[139.03582,35.10373,139.69574,35.49936],"transform":{"scale":[6.5992659926599225e-06,3.9563395633956755e-06],"translate":[139.03582,35.10373]},"arcs":[]}