{"type":"Topology","objects":{"data":{"geometries":[{"properties":{"name":"\u591a\u8cc0\u5927\u793e\u524d","line":"\u591a\u8cc0\u7dda","riders":270},"type":"Point","coordinates":[99650,26271],"id":"feature_00"},{"properties":{"name":"\u9ad8\u5bae","line":"\u591a\u8cc0\u7dda","riders":12},"type":"Point","coordinates":[93254,37076],"id":"feature_01"},{"properties":{"name":"\u5c3c\u5b50","line":"\u672c\u7dda","riders":496},"type":"Point","coordinates":[89125,12793],"id":"feature_02"},{"properties":{"name":"\u9ad8\u5bae","line":"\u672c\u7dda","riders":308},"type":"Point","coordinates":[93124,36924],"id":"feature_03"},{"properties":{"name":"\u5f66\u6839","line":"\u672c\u7dda","riders":2811},"type":"Point","coordinates":[93981,75999],"id":"feature_04"},{"properties":{"name":"\u5f66\u6839\u53e3","line":"\u672c\u7dda","riders":939},"type":"Point","coordinates":[92566,57543],"id":"feature_05"},{"properties":{"name":"\u9ce5\u5c45\u672c","line":"\u672c\u7dda","riders":261},"type":"Point","coordinates":[99344,89706],"id":"feature_06"},{"properties":{"name":"\u30d5\u30b8\u30c6\u30c3\u30af\u524d","line":"\u672c\u7dda","riders":663},"type":"Point","coordinates":[99999,99999],"id":"feature_07"},{"properties":{"name":"\u8fd1\u6c5f\u821e\u5b50","line":"\u6e56\u897f\u7dda","riders":1609},"type":"Point","coordinates":[9582,37076],"id":"feature_08"},{"properties":{"name":"\u5fd7\u8cc0","line":"\u6e56\u897f\u7dda","riders":2126},"type":"Point","coordinates":[0,0],"id":"feature_09"},{"properties":{"name":"\u6bd4\u826f","line":"\u6e56\u897f\u7dda","riders":3098},"type":"Point","coordinates":[5339,19250],"id":"feature_10"},{"properties":{"name":"\u8fd1\u6c5f\u9ad8\u5cf6","line":"\u6e56\u897f\u7dda","riders":1685},"type":"Point","coordinates":[23660,98434],"id":"feature_11"},{"properties":{"name":"\u5317\u5c0f\u677e","line":"\u6e56\u897f\u7dda","riders":796},"type":"Point","coordinates":[12541,55478],"id":"feature_12"},{"properties":{"name":"\u6cb3\u702c","line":"\u6771\u6d77\u9053\u7dda","riders":6241},"type":"Point","coordinates":[83337,25152],"id":"feature_13"},{"properties":{"name":"\u7a32\u679d","line":"\u6771\u6d77\u9053\u7dda","riders":5139},"type":"Point","coordinates":[74781,1174],"id":"feature_14"},{"properties":{"name":"\u5f66\u6839","line":"\u6771\u6d77\u9053\u7dda","riders":21779},"type":"Point","coordinates":[93900,76347],"id":"feature_15"},{"properties":{"name":"\u5357\u5f66\u6839","line":"\u6771\u6d77\u9053\u7dda","riders":11804},"type":"Point","coordinates":[89635,47641],"id":"feature_16"},{"properties":{"name":"\u30b9\u30af\u30ea\u30fc\u30f3","line":"\u591a\u8cc0\u7dda","riders":1267},"type":"Point","coordinates":[94949,33761],"id":"feature_17"},{"properties":{"name":"\u3072\u3053\u306d\u82b9\u5ddd","line":"\u672c\u7dda","riders":239},"type":"Point","coordinates":[93285,65108],"id":"feature_18"}],"type":"GeometryCollection"}},"bbox":[135.92482,35.20225,136.28539,35.29425],"transform":{"scale":[3.6057360573605297e-06,9.200092000919884e-07],"translate":[135.92482,35.20225]},"arcs":[]}