{"type":"Topology","objects":{"data":{"geometries":[{"properties":{"name":"\u4e95\u5ddd","line":"\u4e95\u5ddd\u7dda","riders":238},"type":"Point","coordinates":[1190,908],"id":"feature_00"},{"properties":{"name":"\u5fa1\u6bbf\u5834","line":"\u5fa1\u6bbf\u5834\u7dda","riders":9896},"type":"Point","coordinates":[91936,12286],"id":"feature_01"},{"properties":{"name":"\u5bcc\u58eb\u5ca1","line":"\u5fa1\u6bbf\u5834\u7dda","riders":2241},"type":"Point","coordinates":[90080,6439],"id":"feature_02"},{"properties":{"name":"\u99ff\u6cb3\u5c0f\u5c71","line":"\u5fa1\u6bbf\u5834\u7dda","riders":774},"type":"Point","coordinates":[99999,19980],"id":"feature_03"},{"properties":{"name":"\u5357\u5fa1\u6bbf\u5834","line":"\u5fa1\u6bbf\u5834\u7dda","riders":654},"type":"Point","coordinates":[90854,9338],"id":"feature_04"},{"properties":{"name":"\u5ca9\u6ce2","line":"\u5fa1\u6bbf\u5834\u7dda","riders":4189},"type":"Point","coordinates":[90032,1279],"id":"feature_05"},{"properties":{"name":"\u8db3\u67c4","line":"\u5fa1\u6bbf\u5834\u7dda","riders":899},"type":"Point","coordinates":[97984,16454],"id":"feature_06"},{"properties":{"name":"\u56fd\u6bcd","line":"\u8eab\u5ef6\u7dda","riders":847},"type":"Point","coordinates":[43301,55188],"id":"feature_07"},{"properties":{"name":"\u82a6\u5ddd","line":"\u8eab\u5ef6\u7dda","riders":159},"type":"Point","coordinates":[38110,46430],"id":"feature_08"},{"properties":{"name":"\u5e38\u6c38","line":"\u8eab\u5ef6\u7dda","riders":883},"type":"Point","coordinates":[40892,53434],"id":"feature_09"},{"properties":{"name":"\u843d\u5c45","line":"\u8eab\u5ef6\u7dda","riders":50},"type":"Point","coordinates":[33019,38711],"id":"feature_10"},{"properties":{"name":"\u7532\u6590\u5ca9\u9593","line":"\u8eab\u5ef6\u7dda","riders":207},"type":"Point","coordinates":[31979,37274],"id":"feature_11"},{"properties":{"name":"\u6771\u82b1\u8f2a","line":"\u8eab\u5ef6\u7dda","riders":1401},"type":"Point","coordinates":[40116,50554],"id":"feature_12"},{"properties":{"name":"\u7532\u6590\u4e0a\u91ce","line":"\u8eab\u5ef6\u7dda","riders":141},"type":"Point","coordinates":[39301,47275],"id":"feature_13"},{"properties":{"name":"\u5c0f\u4e95\u5ddd","line":"\u8eab\u5ef6\u7dda","riders":453},"type":"Point","coordinates":[40311,51810],"id":"feature_14"},{"properties":{"name":"\u91d1\u624b","line":"\u8eab\u5ef6\u7dda","riders":125},"type":"Point","coordinates":[46714,59297],"id":"feature_15"},{"properties":{"name":"\u5357\u7532\u5e9c","line":"\u8eab\u5ef6\u7dda","riders":1004},"type":"Point","coordinates":[46634,56905],"id":"feature_16"},{"properties":{"name":"\u5e02\u5ddd\u5927\u9580","line":"\u8eab\u5ef6\u7dda","riders":902},"type":"Point","coordinates":[35812,46093],"id":"feature_17"},{"properties":{"name":"\u9c0d\u6ca2\u53e3","line":"\u8eab\u5ef6\u7dda","riders":214},"type":"Point","coordinates":[32972,43621],"id":"feature_18"},{"properties":{"name":"\u5e02\u5ddd\u672c\u753a","line":"\u8eab\u5ef6\u7dda","riders":488},"type":"Point","coordinates":[36934,46114],"id":"feature_19"},{"properties":{"name":"\u7532\u5e9c","line":"\u8eab\u5ef6\u7dda","riders":11},"type":"Point","coordinates":[45631,59857],"id":"feature_20"},{"properties":{"name":"\u5584\u5149\u5bfa","line":"\u8eab\u5ef6\u7dda","riders":817},"type":"Point","coordinates":[48031,58988],"id":"feature_21"},{"properties":{"name":"\u7532\u6590\u4f4f\u5409","line":"\u8eab\u5ef6\u7dda","riders":959},"type":"Point","coordinates":[45578,55971],"id":"feature_22"},{"properties":{"name":"\u5bcc\u58eb\u5bae","line":"\u8eab\u5ef6\u7dda","riders":4788},"type":"Point","coordinates":[51373,2067],"id":"feature_23"},{"properties":{"name":"\u5bcc\u58eb\u6839","line":"\u8eab\u5ef6\u7dda","riders":903},"type":"Point","coordinates":[53935,0],"id":"feature_24"},{"properties":{"name":"\u7532\u6590\u5e38\u8449","line":"\u8eab\u5ef6\u7dda","riders":50},"type":"Point","coordinates":[33747,31067],"id":"feature_25"},{"properties":{"name":"\u4e45\u90a3\u571f","line":"\u8eab\u5ef6\u7dda","riders":262},"type":"Point","coordinates":[32533,35845],"id":"feature_26"},{"properties":{"name":"\u5341\u5cf6","line":"\u8eab\u5ef6\u7dda","riders":73},"type":"Point","coordinates":[38697,3234],"id":"feature_27"},{"properties":{"name":"\u5bc4\u7551","line":"\u8eab\u5ef6\u7dda","riders":29},"type":"Point","coordinates":[33495,7730],"id":"feature_28"},{"properties":{"name":"\u4e95\u51fa","line":"\u8eab\u5ef6\u7dda","riders":69},"type":"Point","coordinates":[35531,5475],"id":"feature_29"},{"properties":{"name":"\u4e0b\u90e8\u6e29\u6cc9","line":"\u8eab\u5ef6\u7dda","riders":172},"type":"Point","coordinates":[33174,28616],"id":"feature_30"},{"properties":{"name":"\u5185\u8239","line":"\u8eab\u5ef6\u7dda","riders":239},"type":"Point","coordinates":[32227,9984],"id":"feature_31"},{"properties":{"name":"\u8eab\u5ef6","line":"\u8eab\u5ef6\u7dda","riders":547},"type":"Point","coordinates":[30704,20267],"id":"feature_32"},{"properties":{"name":"\u5e02\u30ce\u702c","line":"\u8eab\u5ef6\u7dda","riders":11},"type":"Point","coordinates":[34403,33359],"id":"feature_33"},{"properties":{"name":"\u897f\u5bcc\u58eb\u5bae","line":"\u8eab\u5ef6\u7dda","riders":2474},"type":"Point","coordinates":[49725,2619],"id":"feature_34"},{"properties":{"name":"\u5869\u4e4b\u6ca2","line":"\u8eab\u5ef6\u7dda","riders":11},"type":"Point","coordinates":[30811,22631],"id":"feature_35"},{"properties":{"name":"\u7a32\u5b50","line":"\u8eab\u5ef6\u7dda","riders":15},"type":"Point","coordinates":[41377,3279],"id":"feature_36"},{"properties":{"name":"\u6e90\u9053\u5bfa","line":"\u8eab\u5ef6\u7dda","riders":1567},"type":"Point","coordinates":[52855,1196],"id":"feature_37"},{"properties":{"name":"\u6ce2\u9ad8\u5cf6","line":"\u8eab\u5ef6\u7dda","riders":58},"type":"Point","coordinates":[31550,27671],"id":"feature_38"},{"properties":{"name":"\u7532\u6590\u5927\u5cf6","line":"\u8eab\u5ef6\u7dda","riders":12},"type":"Point","coordinates":[30587,15948],"id":"feature_39"},{"properties":{"name":"\u5c0f\u6df5\u6ca2","line":"\u5c0f\u6d77\u7dda","riders":3224},"type":"Point","coordinates":[13357,85446],"id":"feature_40"},{"properties":{"name":"\u7532\u6590\u5927\u6cc9","line":"\u5c0f\u6d77\u7dda","riders":180},"type":"Point","coordinates":[25182,89675],"id":"feature_41"},{"properties":{"name":"\u4fe1\u6fc3\u5ddd\u4e0a","line":"\u5c0f\u6d77\u7dda","riders":254},"type":"Point","coordinates":[40124,99999],"id":"feature_42"},{"properties":{"name":"\u6e05\u91cc","line":"\u5c0f\u6d77\u7dda","riders":542},"type":"Point","coordinates":[28613,92637],"id":"feature_43"},{"properties":{"name":"\u91ce\u8fba\u5c71","line":"\u5c0f\u6d77\u7dda","riders":394},"type":"Point","coordinates":[33431,97331],"id":"feature_44"},{"properties":{"name":"\u7532\u6590\u5c0f\u6cc9","line":"\u5c0f\u6d77\u7dda","riders":11},"type":"Point","coordinates":[18783,87500],"id":"feature_45"},{"properties":{"name":"\u521d\u72e9","line":"\u4e2d\u592e\u7dda","riders":786},"type":"Point","coordinates":[85508,50489],"id":"feature_46"},{"properties":{"name":"\u5bcc\u58eb\u898b","line":"\u4e2d\u592e\u7dda","riders":1934},"type":"Point","coordinates":[3318,91743],"id":"feature_47"},{"properties":{"name":"\u3059\u305a\u3089\u3093\u306e\u91cc","line":"\u4e2d\u592e\u7dda","riders":11},"type":"Point","coordinates":[0,94105],"id":"feature_48"},{"properties":{"name":"\u7532\u5e9c","line":"\u4e2d\u592e\u7dda","riders":30330},"type":"Point","coordinates":[45428,59932],"id":"feature_49"},{"properties":{"name":"\u6625\u65e5\u5c45\u753a","line":"\u4e2d\u592e\u7dda","riders":11},"type":"Point","coordinates":[56909,60756],"id":"feature_50"},{"properties":{"name":"\u97ee\u5d0e","line":"\u4e2d\u592e\u7dda","riders":5372},"type":"Point","coordinates":[30486,65457],"id":"feature_51"},{"properties":{"name":"\u7b39\u5b50","line":"\u4e2d\u592e\u7dda","riders":11},"type":"Point","coordinates":[78068,51736],"id":"feature_52"},{"properties":{"name":"\u65e5\u91ce\u6625","line":"\u4e2d\u592e\u7dda","riders":1218},"type":"Point","coordinates":[23224,75973],"id":"feature_53"},{"properties":{"name":"\u6771\u5c71\u68a8","line":"\u4e2d\u592e\u7dda","riders":11},"type":"Point","coordinates":[62519,63465],"id":"feature_54"},{"properties":{"name":"\u9152\u6298","line":"\u4e2d\u592e\u7dda","riders":4566},"type":"Point","coordinates":[49342,58949],"id":"feature_55"},{"properties":{"name":"\u4fe1\u6fc3\u5883","line":"\u4e2d\u592e\u7dda","riders":382},"type":"Point","coordinates":[8112,88193],"id":"feature_56"},{"properties":{"name":"\u5869\u5d0e","line":"\u4e2d\u592e\u7dda","riders":2246},"type":"Point","coordinates":[35120,62615],"id":"feature_57"},{"properties":{"name":"\u65b0\u5e9c","line":"\u4e2d\u592e\u7dda","riders":11},"type":"Point","coordinates":[28174,68989],"id":"feature_58"},{"properties":{"name":"\u9577\u5742","line":"\u4e2d\u592e\u7dda","riders":2278},"type":"Point","coordinates":[19707,80735],"id":"feature_59"},{"properties":{"name":"\u7532\u6590\u5927\u548c","line":"\u4e2d\u592e\u7dda","riders":292},"type":"Point","coordinates":[72494,56338],"id":"feature_60"},{"properties":{"name":"\u7a74\u5c71","line":"\u4e2d\u592e\u7dda","riders":11},"type":"Point","coordinates":[25719,70821],"id":"feature_61"},{"properties":{"name":"\u77f3\u548c\u6e29\u6cc9","line":"\u4e2d\u592e\u7dda","riders":5956},"type":"Point","coordinates":[53791,58687],"id":"feature_62"},{"properties":{"name":"\u7adc\u738b","line":"\u4e2d\u592e\u7dda","riders":4818},"type":"Point","coordinates":[39140,60135],"id":"feature_63"},{"properties":{"name":"\u52dd\u6cbc\u3076\u3069\u3046\u90f7","line":"\u4e2d\u592e\u7dda","riders":970},"type":"Point","coordinates":[67634,60690],"id":"feature_64"},{"properties":{"name":"\u5c71\u68a8\u5e02","line":"\u4e2d\u592e\u7dda","riders":3676},"type":"Point","coordinates":[59945,62257],"id":"feature_65"},{"properties":{"name":"\u5bcc\u58eb\u5c71","line":"\u6cb3\u53e3\u6e56\u7dda","riders":1739},"type":"Point","coordinates":[74197,36116],"id":"feature_66"},{"properties":{"name":"\u5bcc\u58eb\u6025\u30cf\u30a4\u30e9\u30f3\u30c9","line":"\u6cb3\u53e3\u6e56\u7dda","riders":1322},"type":"Point","coordinates":[72542,36889],"id":"feature_67"},{"properties":{"name":"\u6cb3\u53e3\u6e56","line":"\u6cb3\u53e3\u6e56\u7dda","riders":3374},"type":"Point","coordinates":[70958,37984],"id":"feature_68"},{"properties":{"name":"\u846d\u6c60\u6e29\u6cc9\u524d","line":"\u5927\u6708\u7dda","riders":142},"type":"Point","coordinates":[76404,38526],"id":"feature_69"},{"properties":{"name":"\u4e0b\u5409\u7530","line":"\u5927\u6708\u7dda","riders":896},"type":"Point","coordinates":[75334,37983],"id":"feature_70"},{"properties":{"name":"\u4e09\u3064\u5ce0","line":"\u5927\u6708\u7dda","riders":549},"type":"Point","coordinates":[80629,41393],"id":"feature_71"},{"properties":{"name":"\u6771\u6842","line":"\u5927\u6708\u7dda","riders":554},"type":"Point","coordinates":[83821,42950],"id":"feature_72"},{"properties":{"name":"\u5bff","line":"\u5927\u6708\u7dda","riders":404},"type":"Point","coordinates":[78109,39342],"id":"feature_73"},{"properties":{"name":"\u6708\u6c5f\u5bfa","line":"\u5927\u6708\u7dda","riders":593},"type":"Point","coordinates":[74598,37379],"id":"feature_74"},{"properties":{"name":"\u90fd\u7559\u6587\u79d1\u5927\u5b66\u524d","line":"\u5927\u6708\u7dda","riders":1891},"type":"Point","coordinates":[87152,43773],"id":"feature_75"},{"properties":{"name":"\u5341\u65e5\u5e02\u5834","line":"\u5927\u6708\u7dda","riders":249},"type":"Point","coordinates":[85985,43290],"id":"feature_76"}],"type":"GeometryCollection"}},"bbox":[138.21179,35.20527,138.99758,35.97588],"transform":{"scale":[7.857978579785714e-06,7.706177061770596e-06],"translate":[138.21179,35.20527]},"arcs":[]}