{"type":"Topology","objects":{"data":{"geometries":[{"properties":{"name":"\u4ef2\u753a\u53f0","line":"3\u53f7\u7dda","riders":33642},"type":"Point","coordinates":[86124,17527],"id":"feature_000"},{"properties":{"name":"\u5317\u65b0\u6a2a\u6d5c","line":"3\u53f7\u7dda","riders":12793},"type":"Point","coordinates":[89058,9465],"id":"feature_001"},{"properties":{"name":"\u65b0\u7fbd","line":"3\u53f7\u7dda","riders":21668},"type":"Point","coordinates":[88957,13493],"id":"feature_002"},{"properties":{"name":"\u30bb\u30f3\u30bf\u30fc\u5317","line":"3\u53f7\u7dda","riders":61011},"type":"Point","coordinates":[84703,26490],"id":"feature_003"},{"properties":{"name":"\u65b0\u6a2a\u6d5c","line":"3\u53f7\u7dda","riders":74018},"type":"Point","coordinates":[89610,4374],"id":"feature_004"},{"properties":{"name":"\u30bb\u30f3\u30bf\u30fc\u5357","line":"3\u53f7\u7dda","riders":59840},"type":"Point","coordinates":[84200,22467],"id":"feature_005"},{"properties":{"name":"\u3042\u3056\u307f\u91ce","line":"3\u53f7\u7dda","riders":80749},"type":"Point","coordinates":[81676,33881],"id":"feature_006"},{"properties":{"name":"\u4e2d\u5ddd","line":"3\u53f7\u7dda","riders":19185},"type":"Point","coordinates":[83629,31446],"id":"feature_007"},{"properties":{"name":"\u4e95\u306e\u982d\u516c\u5712","line":"\u4e95\u306e\u982d\u7dda","riders":7042},"type":"Point","coordinates":[85319,98686],"id":"feature_008"},{"properties":{"name":"\u4e09\u9df9\u53f0","line":"\u4e95\u306e\u982d\u7dda","riders":23062},"type":"Point","coordinates":[86095,96061],"id":"feature_009"},{"properties":{"name":"\u99d2\u5834\u6771\u5927\u524d","line":"\u4e95\u306e\u982d\u7dda","riders":39813},"type":"Point","coordinates":[98015,79336],"id":"feature_010"},{"properties":{"name":"\u795e\u6cc9","line":"\u4e95\u306e\u982d\u7dda","riders":11328},"type":"Point","coordinates":[99168,78589],"id":"feature_011"},{"properties":{"name":"\u660e\u5927\u524d","line":"\u4e95\u306e\u982d\u7dda","riders":12},"type":"Point","coordinates":[93777,84552],"id":"feature_012"},{"properties":{"name":"\u6e0b\u8c37","line":"\u4e95\u306e\u982d\u7dda","riders":362481},"type":"Point","coordinates":[99999,79276],"id":"feature_013"},{"properties":{"name":"\u6c38\u798f\u753a","line":"\u4e95\u306e\u982d\u7dda","riders":33719},"type":"Point","coordinates":[92807,88134],"id":"feature_014"},{"properties":{"name":"\u6771\u677e\u539f","line":"\u4e95\u306e\u982d\u7dda","riders":18783},"type":"Point","coordinates":[94453,81325],"id":"feature_015"},{"properties":{"name":"\u6d5c\u7530\u5c71","line":"\u4e95\u306e\u982d\u7dda","riders":30676},"type":"Point","coordinates":[90910,90815],"id":"feature_016"},{"properties":{"name":"\u65b0\u4ee3\u7530","line":"\u4e95\u306e\u982d\u7dda","riders":9849},"type":"Point","coordinates":[95161,81250],"id":"feature_017"},{"properties":{"name":"\u9ad8\u4e95\u6238","line":"\u4e95\u306e\u982d\u7dda","riders":44392},"type":"Point","coordinates":[89357,91657],"id":"feature_018"},{"properties":{"name":"\u4e45\u6211\u5c71","line":"\u4e95\u306e\u982d\u7dda","riders":40879},"type":"Point","coordinates":[87358,94102],"id":"feature_019"},{"properties":{"name":"\u5bcc\u58eb\u898b\u30f6\u4e18","line":"\u4e95\u306e\u982d\u7dda","riders":14050},"type":"Point","coordinates":[88351,92428],"id":"feature_020"},{"properties":{"name":"\u4e0b\u5317\u6ca2","line":"\u4e95\u306e\u982d\u7dda","riders":115580},"type":"Point","coordinates":[95813,80804],"id":"feature_021"},{"properties":{"name":"\u6c60\u30ce\u4e0a","line":"\u4e95\u306e\u982d\u7dda","riders":10102},"type":"Point","coordinates":[96678,80188],"id":"feature_022"},{"properties":{"name":"\u897f\u6c38\u798f","line":"\u4e95\u306e\u982d\u7dda","riders":18838},"type":"Point","coordinates":[91862,89462],"id":"feature_023"},{"properties":{"name":"\u4ed9\u5ddd","line":"\u4eac\u738b\u7dda","riders":82714},"type":"Point","coordinates":[85583,81190],"id":"feature_024"},{"properties":{"name":"\u4ee3\u7530\u6a4b","line":"\u4eac\u738b\u7dda","riders":20773},"type":"Point","coordinates":[94911,85554],"id":"feature_025"},{"properties":{"name":"\u7b39\ufa10","line":"\u4eac\u738b\u7dda","riders":82813},"type":"Point","coordinates":[95888,86847],"id":"feature_026"},{"properties":{"name":"\u5e61\u30f6\u8c37","line":"\u4eac\u738b\u7dda","riders":32833},"type":"Point","coordinates":[97215,88400],"id":"feature_027"},{"properties":{"name":"\u685c\u4e0a\u6c34","line":"\u4eac\u738b\u7dda","riders":39110},"type":"Point","coordinates":[91398,83830],"id":"feature_028"},{"properties":{"name":"\u516b\u5e61\u5c71","line":"\u4eac\u738b\u7dda","riders":43959},"type":"Point","coordinates":[89263,85048],"id":"feature_029"},{"properties":{"name":"\u82a6\u82b1\u516c\u5712","line":"\u4eac\u738b\u7dda","riders":15020},"type":"Point","coordinates":[88498,85288],"id":"feature_030"},{"properties":{"name":"\u65b0\u5bbf","line":"\u4eac\u738b\u7dda","riders":976485},"type":"Point","coordinates":[99917,95029],"id":"feature_031"},{"properties":{"name":"\u4e0b\u9ad8\u4e95\u6238","line":"\u4eac\u738b\u7dda","riders":45586},"type":"Point","coordinates":[92727,83069],"id":"feature_032"},{"properties":{"name":"\u4e0a\u5317\u6ca2","line":"\u4eac\u738b\u7dda","riders":16169},"type":"Point","coordinates":[90386,84436],"id":"feature_033"},{"properties":{"name":"\u660e\u5927\u524d","line":"\u4eac\u738b\u7dda","riders":110961},"type":"Point","coordinates":[93798,84191],"id":"feature_034"},{"properties":{"name":"\u521d\u53f0","line":"\u4eac\u738b\u7dda","riders":66016},"type":"Point","coordinates":[98542,90735],"id":"feature_035"},{"properties":{"name":"\u5343\u6b73\u70cf\u5c71","line":"\u4eac\u738b\u7dda","riders":83666},"type":"Point","coordinates":[87490,83925],"id":"feature_036"},{"properties":{"name":"\u65b0\u5bbf","line":"\u4eac\u738b\u7dda","riders":942712},"type":"Point","coordinates":[99843,94247],"id":"feature_037"},{"properties":{"name":"\u8abf\u5e03","line":"\u4eac\u738b\u7dda","riders":130065},"type":"Point","coordinates":[80493,75879],"id":"feature_038"},{"properties":{"name":"\u9ad8\u5e61\u4e0d\u52d5","line":"\u4eac\u738b\u7dda","riders":60612},"type":"Point","coordinates":[63939,81140],"id":"feature_039"},{"properties":{"name":"\u5317\u91ce","line":"\u4eac\u738b\u7dda","riders":23099},"type":"Point","coordinates":[56526,72236],"id":"feature_040"},{"properties":{"name":"\u98db\u7530\u7d66","line":"\u4eac\u738b\u7dda","riders":29978},"type":"Point","coordinates":[77842,79992],"id":"feature_041"},{"properties":{"name":"\u9577\u6cbc","line":"\u4eac\u738b\u7dda","riders":4211},"type":"Point","coordinates":[58002,71374],"id":"feature_042"},{"properties":{"name":"\u3064\u3064\u3058\u30f6\u4e18","line":"\u4eac\u738b\u7dda","riders":45778},"type":"Point","coordinates":[84322,79000],"id":"feature_043"},{"properties":{"name":"\u67f4\u5d0e","line":"\u4eac\u738b\u7dda","riders":18153},"type":"Point","coordinates":[83244,76991],"id":"feature_044"},{"properties":{"name":"\u4e2d\u6cb3\u539f","line":"\u4eac\u738b\u7dda","riders":26088},"type":"Point","coordinates":[69523,79752],"id":"feature_045"},{"properties":{"name":"\u6771\u5e9c\u4e2d","line":"\u4eac\u738b\u7dda","riders":21787},"type":"Point","coordinates":[74288,84396],"id":"feature_046"},{"properties":{"name":"\u6b66\u8535\u91ce\u53f0","line":"\u4eac\u738b\u7dda","riders":26232},"type":"Point","coordinates":[76288,82077],"id":"feature_047"},{"properties":{"name":"\u767e\u8349\u5712","line":"\u4eac\u738b\u7dda","riders":7943},"type":"Point","coordinates":[66238,78689],"id":"feature_048"},{"properties":{"name":"\u5e03\u7530","line":"\u4eac\u738b\u7dda","riders":16792},"type":"Point","coordinates":[81371,74922],"id":"feature_049"},{"properties":{"name":"\u5e73\u5c71\u57ce\u5740\u516c\u5712","line":"\u4eac\u738b\u7dda","riders":8990},"type":"Point","coordinates":[59765,73644],"id":"feature_050"},{"properties":{"name":"\u591a\u78e8\u970a\u5712","line":"\u4eac\u738b\u7dda","riders":13084},"type":"Point","coordinates":[75133,83189],"id":"feature_051"},{"properties":{"name":"\u56fd\u9818","line":"\u4eac\u738b\u7dda","riders":39159},"type":"Point","coordinates":[82214,75087],"id":"feature_052"},{"properties":{"name":"\u4eac\u738b\u516b\u738b\u5b50","line":"\u4eac\u738b\u7dda","riders":59486},"type":"Point","coordinates":[55122,79025],"id":"feature_053"},{"properties":{"name":"\u5206\u500d\u6cb3\u539f","line":"\u4eac\u738b\u7dda","riders":95736},"type":"Point","coordinates":[70888,84041],"id":"feature_054"},{"properties":{"name":"\u897f\u8abf\u5e03","line":"\u4eac\u738b\u7dda","riders":17698},"type":"Point","coordinates":[78578,78659],"id":"feature_055"},{"properties":{"name":"\u5357\u5e73","line":"\u4eac\u738b\u7dda","riders":10934},"type":"Point","coordinates":[61359,77567],"id":"feature_056"},{"properties":{"name":"\u8056\u8e5f\u685c\u30f6\u4e18","line":"\u4eac\u738b\u7dda","riders":65739},"type":"Point","coordinates":[68186,75388],"id":"feature_057"},{"properties":{"name":"\u5e9c\u4e2d","line":"\u4eac\u738b\u7dda","riders":90316},"type":"Point","coordinates":[72365,86110],"id":"feature_058"},{"properties":{"name":"\u5e9c\u4e2d\u7af6\u99ac\u6b63\u9580\u524d","line":"\u7af6\u99ac\u5834\u7dda","riders":3229},"type":"Point","coordinates":[73001,84186],"id":"feature_059"},{"properties":{"name":"\u9ad8\u5c3e","line":"\u9ad8\u5c3e\u7dda","riders":27653},"type":"Point","coordinates":[47417,70813],"id":"feature_060"},{"properties":{"name":"\u5c71\u7530","line":"\u9ad8\u5c3e\u7dda","riders":5303},"type":"Point","coordinates":[52326,72161],"id":"feature_061"},{"properties":{"name":"\u3081\u3058\u308d\u53f0","line":"\u9ad8\u5c3e\u7dda","riders":18190},"type":"Point","coordinates":[50787,71805],"id":"feature_062"},{"properties":{"name":"\u4eac\u738b\u7247\u5009","line":"\u9ad8\u5c3e\u7dda","riders":5069},"type":"Point","coordinates":[54365,72166],"id":"feature_063"},{"properties":{"name":"\u9ad8\u5c3e\u5c71\u53e3","line":"\u9ad8\u5c3e\u7dda","riders":11442},"type":"Point","coordinates":[45921,66163],"id":"feature_064"},{"properties":{"name":"\u72ed\u9593","line":"\u9ad8\u5c3e\u7dda","riders":7967},"type":"Point","coordinates":[48917,70277],"id":"feature_065"},{"properties":{"name":"\u4eac\u738b\u3088\u307f\u3046\u308a\u30e9\u30f3\u30c9","line":"\u76f8\u6a21\u539f\u7dda","riders":14233},"type":"Point","coordinates":[77030,66454],"id":"feature_066"},{"properties":{"name":"\u6a4b\u672c","line":"\u76f8\u6a21\u539f\u7dda","riders":98838},"type":"Point","coordinates":[55192,47539],"id":"feature_067"},{"properties":{"name":"\u4eac\u738b\u5800\u4e4b\u5185","line":"\u76f8\u6a21\u539f\u7dda","riders":32879},"type":"Point","coordinates":[62334,62205],"id":"feature_068"},{"properties":{"name":"\u5357\u5927\u6ca2","line":"\u76f8\u6a21\u539f\u7dda","riders":64366},"type":"Point","coordinates":[59752,56989],"id":"feature_069"},{"properties":{"name":"\u4eac\u738b\u591a\u6469\u30bb\u30f3\u30bf\u30fc","line":"\u76f8\u6a21\u539f\u7dda","riders":90353},"type":"Point","coordinates":[65331,62581],"id":"feature_070"},{"properties":{"name":"\u591a\u6469\u5883","line":"\u76f8\u6a21\u539f\u7dda","riders":20587},"type":"Point","coordinates":[58139,50841],"id":"feature_071"},{"properties":{"name":"\u82e5\u8449\u53f0","line":"\u76f8\u6a21\u539f\u7dda","riders":27400},"type":"Point","coordinates":[71389,59645],"id":"feature_072"},{"properties":{"name":"\u4eac\u738b\u6c38\u5c71","line":"\u76f8\u6a21\u539f\u7dda","riders":46781},"type":"Point","coordinates":[68348,65096],"id":"feature_073"},{"properties":{"name":"\u7a32\u57ce","line":"\u76f8\u6a21\u539f\u7dda","riders":21596},"type":"Point","coordinates":[74896,68047],"id":"feature_074"},{"properties":{"name":"\u4eac\u738b\u7a32\u7530\u5824","line":"\u76f8\u6a21\u539f\u7dda","riders":57300},"type":"Point","coordinates":[78883,67060],"id":"feature_075"},{"properties":{"name":"\u4eac\u738b\u591a\u6469\u5ddd","line":"\u76f8\u6a21\u539f\u7dda","riders":17701},"type":"Point","coordinates":[79414,71955],"id":"feature_076"},{"properties":{"name":"\u591a\u6469\u52d5\u7269\u516c\u5712","line":"\u52d5\u7269\u5712\u7dda","riders":6616},"type":"Point","coordinates":[63010,74811],"id":"feature_077"},{"properties":{"name":"\u4eac\u6025\u9db4\u898b","line":"\u672c\u7dda","riders":33460},"type":"Point","coordinates":[97199,3172],"id":"feature_078"},{"properties":{"name":"\u516b\u4e01\u7577","line":"\u672c\u7dda","riders":19575},"type":"Point","coordinates":[98941,11374],"id":"feature_079"},{"properties":{"name":"\u82b1\u6708\u7dcf\u6301\u5bfa","line":"\u672c\u7dda","riders":7022},"type":"Point","coordinates":[96604,0],"id":"feature_080"},{"properties":{"name":"\u9db4\u898b\u5e02\u5834","line":"\u672c\u7dda","riders":21572},"type":"Point","coordinates":[98318,8648],"id":"feature_081"},{"properties":{"name":"\u9ad8\u5c3e\u5c71","line":"\u9ad8\u5c3e\u92fc\u7d22\u7dda","riders":3865},"type":"Point","coordinates":[44194,65512],"id":"feature_082"},{"properties":{"name":"\u6e05\u6edd","line":"\u9ad8\u5c3e\u92fc\u7d22\u7dda","riders":3865},"type":"Point","coordinates":[45530,65512],"id":"feature_083"},{"properties":{"name":"\u76f8\u6a21\u5927\u91ce","line":"\u6c5f\u30ce\u5cf6\u7dda","riders":0},"type":"Point","coordinates":[67055,15968],"id":"feature_084"},{"properties":{"name":"\u4e2d\u592e\u6797\u9593","line":"\u6c5f\u30ce\u5cf6\u7dda","riders":99122},"type":"Point","coordinates":[67838,3843],"id":"feature_085"},{"properties":{"name":"\u6771\u6797\u9593","line":"\u6c5f\u30ce\u5cf6\u7dda","riders":22101},"type":"Point","coordinates":[67200,9951],"id":"feature_086"},{"properties":{"name":"\u4ee3\u3005\u6728\u516b\u5e61","line":"\u5c0f\u7530\u539f\u7dda","riders":20580},"type":"Point","coordinates":[98638,84872],"id":"feature_087"},{"properties":{"name":"\u559c\u591a\u898b","line":"\u5c0f\u7530\u539f\u7dda","riders":34418},"type":"Point","coordinates":[85774,68223],"id":"feature_088"},{"properties":{"name":"\u8c6a\u5fb3\u5bfa","line":"\u5c0f\u7530\u539f\u7dda","riders":28656},"type":"Point","coordinates":[93352,76846],"id":"feature_089"},{"properties":{"name":"\u4e0b\u5317\u6ca2","line":"\u5c0f\u7530\u539f\u7dda","riders":268908},"type":"Point","coordinates":[95911,80729],"id":"feature_090"},{"properties":{"name":"\u5357\u65b0\u5bbf","line":"\u5c0f\u7530\u539f\u7dda","riders":4024},"type":"Point","coordinates":[99856,91832],"id":"feature_091"},{"properties":{"name":"\u5343\u6b73\u8239\u6a4b","line":"\u5c0f\u7530\u539f\u7dda","riders":60683},"type":"Point","coordinates":[90526,73829],"id":"feature_092"},{"properties":{"name":"\u53c2\u5bae\u6a4b","line":"\u5c0f\u7530\u539f\u7dda","riders":15696},"type":"Point","coordinates":[99209,89327],"id":"feature_093"},{"properties":{"name":"\u7956\u5e2b\u30f6\u8c37\u5927\u8535","line":"\u5c0f\u7530\u539f\u7dda","riders":51085},"type":"Point","coordinates":[88673,71615],"id":"feature_094"},{"properties":{"name":"\u6885\u30f6\u4e18","line":"\u5c0f\u7530\u539f\u7dda","riders":34064},"type":"Point","coordinates":[94176,78008],"id":"feature_095"},{"properties":{"name":"\u65b0\u5bbf","line":"\u5c0f\u7530\u539f\u7dda","riders":521160},"type":"Point","coordinates":[99975,95655],"id":"feature_096"},{"properties":{"name":"\u4e16\u7530\u8c37\u4ee3\u7530","line":"\u5c0f\u7530\u539f\u7dda","riders":9348},"type":"Point","coordinates":[95188,79180],"id":"feature_097"},{"properties":{"name":"\u6771\u5317\u6ca2","line":"\u5c0f\u7530\u539f\u7dda","riders":7335},"type":"Point","coordinates":[96626,82728],"id":"feature_098"},{"properties":{"name":"\u7d4c\u5802","line":"\u5c0f\u7530\u539f\u7dda","riders":82540},"type":"Point","coordinates":[92105,75648],"id":"feature_099"},{"properties":{"name":"\u6210\u57ce\u5b66\u5712\u524d","line":"\u5c0f\u7530\u539f\u7dda","riders":89856},"type":"Point","coordinates":[87326,70051],"id":"feature_100"},{"properties":{"name":"\u4ee3\u3005\u6728\u4e0a\u539f","line":"\u5c0f\u7530\u539f\u7dda","riders":283238},"type":"Point","coordinates":[97455,84462],"id":"feature_101"},{"properties":{"name":"\u753a\u7530","line":"\u5c0f\u7530\u539f\u7dda","riders":293572},"type":"Point","coordinates":[67951,21806],"id":"feature_102"},{"properties":{"name":"\u72db\u6c5f","line":"\u5c0f\u7530\u539f\u7dda","riders":48921},"type":"Point","coordinates":[84597,66098],"id":"feature_103"},{"properties":{"name":"\u8aad\u58f2\u30e9\u30f3\u30c9\u524d","line":"\u5c0f\u7530\u539f\u7dda","riders":36374},"type":"Point","coordinates":[78393,57325],"id":"feature_104"},{"properties":{"name":"\u751f\u7530","line":"\u5c0f\u7530\u539f\u7dda","riders":46037},"type":"Point","coordinates":[80123,57425],"id":"feature_105"},{"properties":{"name":"\u548c\u6cc9\u591a\u6469\u5ddd","line":"\u5c0f\u7530\u539f\u7dda","riders":15934},"type":"Point","coordinates":[84137,63673],"id":"feature_106"},{"properties":{"name":"\u767e\u5408\u30f6\u4e18","line":"\u5c0f\u7530\u539f\u7dda","riders":21681},"type":"Point","coordinates":[76889,54464],"id":"feature_107"},{"properties":{"name":"\u67ff\u751f","line":"\u5c0f\u7530\u539f\u7dda","riders":38270},"type":"Point","coordinates":[74559,44713],"id":"feature_108"},{"properties":{"name":"\u7389\u5ddd\u5b66\u5712\u524d","line":"\u5c0f\u7530\u539f\u7dda","riders":49386},"type":"Point","coordinates":[70270,31656],"id":"feature_109"},{"properties":{"name":"\u5c0f\u7530\u6025\u76f8\u6a21\u539f","line":"\u5c0f\u7530\u539f\u7dda","riders":57597},"type":"Point","coordinates":[65187,7626],"id":"feature_110"},{"properties":{"name":"\u767b\u6238","line":"\u5c0f\u7530\u539f\u7dda","riders":167685},"type":"Point","coordinates":[83593,60401],"id":"feature_111"},{"properties":{"name":"\u5411\u30f6\u4e18\u904a\u5712","line":"\u5c0f\u7530\u539f\u7dda","riders":67522},"type":"Point","coordinates":[82992,58597],"id":"feature_112"},{"properties":{"name":"\u9db4\u5ddd","line":"\u5c0f\u7530\u539f\u7dda","riders":69511},"type":"Point","coordinates":[72581,41477],"id":"feature_113"},{"properties":{"name":"\u65b0\u767e\u5408\u30f6\u4e18","line":"\u5c0f\u7530\u539f\u7dda","riders":128565},"type":"Point","coordinates":[75806,51793],"id":"feature_114"},{"properties":{"name":"\u4e94\u6708\u53f0","line":"\u591a\u6469\u7dda","riders":10234},"type":"Point","coordinates":[74034,50055],"id":"feature_115"},{"properties":{"name":"\u5510\u6728\u7530","line":"\u591a\u6469\u7dda","riders":21719},"type":"Point","coordinates":[63761,58242],"id":"feature_116"},{"properties":{"name":"\u5c0f\u7530\u6025\u591a\u6469\u30bb\u30f3\u30bf\u30fc","line":"\u591a\u6469\u7dda","riders":51318},"type":"Point","coordinates":[65357,62430],"id":"feature_117"},{"properties":{"name":"\u9ed2\u5ddd","line":"\u591a\u6469\u7dda","riders":8731},"type":"Point","coordinates":[71189,56523],"id":"feature_118"},{"properties":{"name":"\u6817\u5e73","line":"\u591a\u6469\u7dda","riders":24606},"type":"Point","coordinates":[72514,52820],"id":"feature_119"},{"properties":{"name":"\u306f\u308b\u3072\u91ce","line":"\u591a\u6469\u7dda","riders":10068},"type":"Point","coordinates":[70463,59164],"id":"feature_120"},{"properties":{"name":"\u5c0f\u7530\u6025\u6c38\u5c71","line":"\u591a\u6469\u7dda","riders":31338},"type":"Point","coordinates":[68344,64921],"id":"feature_121"},{"properties":{"name":"\u65b0\u5c0f\u91d1\u4e95","line":"\u591a\u6469\u5ddd\u7dda","riders":4041},"type":"Point","coordinates":[78231,98000],"id":"feature_122"},{"properties":{"name":"\u7af6\u8247\u5834\u524d","line":"\u591a\u6469\u5ddd\u7dda","riders":2924},"type":"Point","coordinates":[74824,78103],"id":"feature_123"},{"properties":{"name":"\u591a\u78e8","line":"\u591a\u6469\u5ddd\u7dda","riders":13971},"type":"Point","coordinates":[77023,88435],"id":"feature_124"},{"properties":{"name":"\u767d\u7cf8\u53f0","line":"\u591a\u6469\u5ddd\u7dda","riders":6439},"type":"Point","coordinates":[76064,83164],"id":"feature_125"},{"properties":{"name":"\u662f\u653f","line":"\u591a\u6469\u5ddd\u7dda","riders":7902},"type":"Point","coordinates":[73438,78093],"id":"feature_126"},{"properties":{"name":"\u9ad8\u5e61\u4e0d\u52d5","line":"\u591a\u6469\u90fd\u5e02\u30e2\u30ce\u30ec\u30fc\u30eb\u7dda","riders":26148},"type":"Point","coordinates":[64207,80649],"id":"feature_127"},{"properties":{"name":"\u7acb\u5ddd\u5317","line":"\u591a\u6469\u90fd\u5e02\u30e2\u30ce\u30ec\u30fc\u30eb\u7dda","riders":44151},"type":"Point","coordinates":[63885,99809],"id":"feature_128"},{"properties":{"name":"\u677e\u304c\u8c37","line":"\u591a\u6469\u90fd\u5e02\u30e2\u30ce\u30ec\u30fc\u30eb\u7dda","riders":2713},"type":"Point","coordinates":[65062,65868],"id":"feature_129"},{"properties":{"name":"\u7a0b\u4e45\u4fdd","line":"\u591a\u6469\u90fd\u5e02\u30e2\u30ce\u30ec\u30fc\u30eb\u7dda","riders":1628},"type":"Point","coordinates":[63644,77612],"id":"feature_130"},{"properties":{"name":"\u591a\u6469\u52d5\u7269\u516c\u5712","line":"\u591a\u6469\u90fd\u5e02\u30e2\u30ce\u30ec\u30fc\u30eb\u7dda","riders":2308},"type":"Point","coordinates":[62772,74255],"id":"feature_131"},{"properties":{"name":"\u591a\u6469\u30bb\u30f3\u30bf\u30fc","line":"\u591a\u6469\u90fd\u5e02\u30e2\u30ce\u30ec\u30fc\u30eb\u7dda","riders":37449},"type":"Point","coordinates":[65158,61889],"id":"feature_132"},{"properties":{"name":"\u7532\u5dde\u8857\u9053","line":"\u591a\u6469\u90fd\u5e02\u30e2\u30ce\u30ec\u30fc\u30eb\u7dda","riders":9087},"type":"Point","coordinates":[63443,89146],"id":"feature_133"},{"properties":{"name":"\u4e2d\u592e\u5927\u5b66\u30fb\u660e\u661f\u5927\u5b66","line":"\u591a\u6469\u90fd\u5e02\u30e2\u30ce\u30ec\u30fc\u30eb\u7dda","riders":33675},"type":"Point","coordinates":[63390,70928],"id":"feature_134"},{"properties":{"name":"\u7acb\u5ddd\u5357","line":"\u591a\u6469\u90fd\u5e02\u30e2\u30ce\u30ec\u30fc\u30eb\u7dda","riders":32366},"type":"Point","coordinates":[63874,98125],"id":"feature_135"},{"properties":{"name":"\u4e07\u9858\u5bfa","line":"\u591a\u6469\u90fd\u5e02\u30e2\u30ce\u30ec\u30fc\u30eb\u7dda","riders":8108},"type":"Point","coordinates":[64789,85669],"id":"feature_136"},{"properties":{"name":"\u67f4\u5d0e\u4f53\u80b2\u9928","line":"\u591a\u6469\u90fd\u5e02\u30e2\u30ce\u30ec\u30fc\u30eb\u7dda","riders":4361},"type":"Point","coordinates":[63459,94933],"id":"feature_137"},{"properties":{"name":"\u5927\u585a\u30fb\u5e1d\u4eac\u5927\u5b66","line":"\u591a\u6469\u90fd\u5e02\u30e2\u30ce\u30ec\u30fc\u30eb\u7dda","riders":7475},"type":"Point","coordinates":[64361,68408],"id":"feature_138"},{"properties":{"name":"\u65b0\u6a2a\u6d5c","line":"\u6771\u6d77\u9053\u65b0\u5e79\u7dda","riders":65617},"type":"Point","coordinates":[89603,3332],"id":"feature_139"},{"properties":{"name":"\u3053\u3069\u3082\u306e\u56fd","line":"\u3053\u3069\u3082\u306e\u56fd\u7dda","riders":12221},"type":"Point","coordinates":[73191,28895],"id":"feature_140"},{"properties":{"name":"\u6069\u7530","line":"\u3053\u3069\u3082\u306e\u56fd\u7dda","riders":917},"type":"Point","coordinates":[73884,22672],"id":"feature_141"},{"properties":{"name":"\u9577\u6d25\u7530","line":"\u3053\u3069\u3082\u306e\u56fd\u7dda","riders":140582},"type":"Point","coordinates":[74125,15833],"id":"feature_142"},{"properties":{"name":"\u4e0b\u9ad8\u4e95\u6238","line":"\u4e16\u7530\u8c37\u7dda","riders":28023},"type":"Point","coordinates":[92668,82933],"id":"feature_143"},{"properties":{"name":"\u82e5\u6797","line":"\u4e16\u7530\u8c37\u7dda","riders":9146},"type":"Point","coordinates":[94975,72952],"id":"feature_144"},{"properties":{"name":"\u5bae\u306e\u5742","line":"\u4e16\u7530\u8c37\u7dda","riders":8296},"type":"Point","coordinates":[93090,73764],"id":"feature_145"},{"properties":{"name":"\u5c71\u4e0b","line":"\u4e16\u7530\u8c37\u7dda","riders":9360},"type":"Point","coordinates":[93282,77121],"id":"feature_146"},{"properties":{"name":"\u4e16\u7530\u8c37","line":"\u4e16\u7530\u8c37\u7dda","riders":11127},"type":"Point","coordinates":[93835,71735],"id":"feature_147"},{"properties":{"name":"\u677e\u539f","line":"\u4e16\u7530\u8c37\u7dda","riders":4848},"type":"Point","coordinates":[92709,80102],"id":"feature_148"},{"properties":{"name":"\u677e\u9670\u795e\u793e\u524d","line":"\u4e16\u7530\u8c37\u7dda","riders":11462},"type":"Point","coordinates":[94357,71925],"id":"feature_149"},{"properties":{"name":"\u4e09\u8ed2\u8336\u5c4b","line":"\u4e16\u7530\u8c37\u7dda","riders":37089},"type":"Point","coordinates":[96141,72041],"id":"feature_150"},{"properties":{"name":"\u4e0a\u753a","line":"\u4e16\u7530\u8c37\u7dda","riders":11184},"type":"Point","coordinates":[93274,71785],"id":"feature_151"},{"properties":{"name":"\u897f\u592a\u5b50\u5802","line":"\u4e16\u7530\u8c37\u7dda","riders":1196},"type":"Point","coordinates":[95785,72246],"id":"feature_152"},{"properties":{"name":"\u4e8c\u5b50\u7389\u5ddd","line":"\u5927\u4e95\u753a\u7dda","riders":165421},"type":"Point","coordinates":[90773,55706],"id":"feature_153"},{"properties":{"name":"\u5317\u5343\u675f","line":"\u5927\u4e95\u753a\u7dda","riders":7268},"type":"Point","coordinates":[99170,53086],"id":"feature_154"},{"properties":{"name":"\u4e0a\u91ce\u6bdb","line":"\u5927\u4e95\u753a\u7dda","riders":22874},"type":"Point","coordinates":[92335,55947],"id":"feature_155"},{"properties":{"name":"\u7b49\u3005\u529b","line":"\u5927\u4e95\u753a\u7dda","riders":29718},"type":"Point","coordinates":[93473,54133],"id":"feature_156"},{"properties":{"name":"\u7dd1\u304c\u4e18","line":"\u5927\u4e95\u753a\u7dda","riders":10418},"type":"Point","coordinates":[97395,53186],"id":"feature_157"},{"properties":{"name":"\u4e5d\u54c1\u4ecf","line":"\u5927\u4e95\u753a\u7dda","riders":13404},"type":"Point","coordinates":[95114,52635],"id":"feature_158"},{"properties":{"name":"\u5927\u5ca1\u5c71","line":"\u5927\u4e95\u753a\u7dda","riders":12},"type":"Point","coordinates":[98113,53482],"id":"feature_159"},{"properties":{"name":"\u81ea\u7531\u304c\u4e18","line":"\u5927\u4e95\u753a\u7dda","riders":12},"type":"Point","coordinates":[96115,53642],"id":"feature_160"},{"properties":{"name":"\u5c3e\u5c71\u53f0","line":"\u5927\u4e95\u753a\u7dda","riders":39777},"type":"Point","coordinates":[94247,53417],"id":"feature_161"},{"properties":{"name":"\u96ea\u304c\u8c37\u5927\u585a","line":"\u6c60\u4e0a\u7dda","riders":25649},"type":"Point","coordinates":[97644,45916],"id":"feature_162"},{"properties":{"name":"\u77f3\u5ddd\u53f0","line":"\u6c60\u4e0a\u7dda","riders":15525},"type":"Point","coordinates":[98142,48366],"id":"feature_163"},{"properties":{"name":"\u5fa1\u5dbd\u5c71","line":"\u6c60\u4e0a\u7dda","riders":27422},"type":"Point","coordinates":[97806,42499],"id":"feature_164"},{"properties":{"name":"\u9577\u539f","line":"\u6c60\u4e0a\u7dda","riders":16124},"type":"Point","coordinates":[99761,51057],"id":"feature_165"},{"properties":{"name":"\u6d17\u8db3\u6c60","line":"\u6c60\u4e0a\u7dda","riders":19202},"type":"Point","coordinates":[98875,49779],"id":"feature_166"},{"properties":{"name":"\u4e45\u304c\u539f","line":"\u6c60\u4e0a\u7dda","riders":16637},"type":"Point","coordinates":[98215,39648],"id":"feature_167"},{"properties":{"name":"\u5343\u9ce5\u753a","line":"\u6c60\u4e0a\u7dda","riders":16646},"type":"Point","coordinates":[98938,36411],"id":"feature_168"},{"properties":{"name":"\u4e09\u8ed2\u8336\u5c4b","line":"\u7530\u5712\u90fd\u5e02\u7dda","riders":142028},"type":"Point","coordinates":[96390,71655],"id":"feature_169"},{"properties":{"name":"\u4e8c\u5b50\u65b0\u5730","line":"\u7530\u5712\u90fd\u5e02\u7dda","riders":21866},"type":"Point","coordinates":[90294,53582],"id":"feature_170"},{"properties":{"name":"\u99d2\u6ca2\u5927\u5b66","line":"\u7530\u5712\u90fd\u5e02\u7dda","riders":80970},"type":"Point","coordinates":[95107,66489],"id":"feature_171"},{"properties":{"name":"\u68b6\u304c\u8c37","line":"\u7530\u5712\u90fd\u5e02\u7dda","riders":39939},"type":"Point","coordinates":[88161,46823],"id":"feature_172"},{"properties":{"name":"\u9ad8\u6d25","line":"\u7530\u5712\u90fd\u5e02\u7dda","riders":32614},"type":"Point","coordinates":[89662,51673],"id":"feature_173"},{"properties":{"name":"\u7528\u8cc0","line":"\u7530\u5712\u90fd\u5e02\u7dda","riders":67710},"type":"Point","coordinates":[91749,63257],"id":"feature_174"},{"properties":{"name":"\u5bae\u5d0e\u53f0","line":"\u7530\u5712\u90fd\u5e02\u7dda","riders":50499},"type":"Point","coordinates":[86291,43471],"id":"feature_175"},{"properties":{"name":"\u6c60\u5c3b\u5927\u6a4b","line":"\u7530\u5712\u90fd\u5e02\u7dda","riders":63855},"type":"Point","coordinates":[98094,75347],"id":"feature_176"},{"properties":{"name":"\u5bae\u524d\u5e73","line":"\u7530\u5712\u90fd\u5e02\u7dda","riders":52527},"type":"Point","coordinates":[85211,42404],"id":"feature_177"},{"properties":{"name":"\u685c\u65b0\u753a","line":"\u7530\u5712\u90fd\u5e02\u7dda","riders":73447},"type":"Point","coordinates":[93147,65823],"id":"feature_178"},{"properties":{"name":"\u6e9d\u306e\u53e3","line":"\u7530\u5712\u90fd\u5e02\u7dda","riders":214233},"type":"Point","coordinates":[88767,49829],"id":"feature_179"},{"properties":{"name":"\u9752\u8449\u53f0","line":"\u7530\u5712\u90fd\u5e02\u7dda","riders":113103},"type":"Point","coordinates":[77042,21310],"id":"feature_180"},{"properties":{"name":"\u3064\u304d\u307f\u91ce","line":"\u7530\u5712\u90fd\u5e02\u7dda","riders":10804},"type":"Point","coordinates":[69656,5106],"id":"feature_181"},{"properties":{"name":"\u5e02\u304c\u5c3e","line":"\u7530\u5712\u90fd\u5e02\u7dda","riders":44373},"type":"Point","coordinates":[80055,25523],"id":"feature_182"},{"properties":{"name":"\u4e2d\u592e\u6797\u9593","line":"\u7530\u5712\u90fd\u5e02\u7dda","riders":107086},"type":"Point","coordinates":[67965,3748],"id":"feature_183"},{"properties":{"name":"\u9577\u6d25\u7530","line":"\u7530\u5712\u90fd\u5e02\u7dda","riders":141668},"type":"Point","coordinates":[74144,15783],"id":"feature_184"},{"properties":{"name":"\u305f\u307e\u30d7\u30e9\u30fc\u30b6","line":"\u7530\u5712\u90fd\u5e02\u7dda","riders":83922},"type":"Point","coordinates":[82242,38616],"id":"feature_185"},{"properties":{"name":"\u3042\u3056\u307f\u91ce","line":"\u7530\u5712\u90fd\u5e02\u7dda","riders":136656},"type":"Point","coordinates":[81601,34297],"id":"feature_186"},{"properties":{"name":"\u3059\u305a\u304b\u3051\u53f0","line":"\u7530\u5712\u90fd\u5e02\u7dda","riders":11825},"type":"Point","coordinates":[72572,8403],"id":"feature_187"},{"properties":{"name":"\u7530\u5948","line":"\u7530\u5712\u90fd\u5e02\u7dda","riders":11405},"type":"Point","coordinates":[75444,17832],"id":"feature_188"},{"properties":{"name":"\u85e4\u304c\u4e18","line":"\u7530\u5712\u90fd\u5e02\u7dda","riders":27331},"type":"Point","coordinates":[78335,21580],"id":"feature_189"},{"properties":{"name":"\u9dfa\u6cbc","line":"\u7530\u5712\u90fd\u5e02\u7dda","riders":63543},"type":"Point","coordinates":[84050,39723],"id":"feature_190"},{"properties":{"name":"\u6c5f\u7530","line":"\u7530\u5712\u90fd\u5e02\u7dda","riders":38331},"type":"Point","coordinates":[81332,29161],"id":"feature_191"},{"properties":{"name":"\u3064\u304f\u3057\u91ce","line":"\u7530\u5712\u90fd\u5e02\u7dda","riders":12384},"type":"Point","coordinates":[72973,13398],"id":"feature_192"},{"properties":{"name":"\u5357\u753a\u7530\u30b0\u30e9\u30f3\u30d9\u30ea\u30fc\u30d1\u30fc\u30af","line":"\u7530\u5712\u90fd\u5e02\u7dda","riders":40084},"type":"Point","coordinates":[71150,5607],"id":"feature_193"},{"properties":{"name":"\u591a\u6469\u5ddd","line":"\u6771\u6a2a\u7dda","riders":22856},"type":"Point","coordinates":[96088,44633],"id":"feature_194"},{"properties":{"name":"\u4e2d\u76ee\u9ed2","line":"\u6771\u6a2a\u7dda","riders":196964},"type":"Point","coordinates":[99882,72081],"id":"feature_195"},{"properties":{"name":"\u7950\u5929\u5bfa","line":"\u6771\u6a2a\u7dda","riders":32013},"type":"Point","coordinates":[98853,68563],"id":"feature_196"},{"properties":{"name":"\u81ea\u7531\u304c\u4e18","line":"\u6771\u6a2a\u7dda","riders":158014},"type":"Point","coordinates":[96082,53597],"id":"feature_197"},{"properties":{"name":"\u5b66\u82b8\u5927\u5b66","line":"\u6771\u6a2a\u7dda","riders":78251},"type":"Point","coordinates":[98161,64355],"id":"feature_198"},{"properties":{"name":"\u591a\u6469\u5ddd","line":"\u6771\u6a2a\u7dda","riders":12},"type":"Point","coordinates":[96078,44754],"id":"feature_199"},{"properties":{"name":"\u90fd\u7acb\u5927\u5b66","line":"\u6771\u6a2a\u7dda","riders":49233},"type":"Point","coordinates":[97054,58883],"id":"feature_200"},{"properties":{"name":"\u7530\u5712\u8abf\u5e03","line":"\u6771\u6a2a\u7dda","riders":37175},"type":"Point","coordinates":[95902,48582],"id":"feature_201"},{"properties":{"name":"\u7db1\u5cf6","line":"\u6771\u6a2a\u7dda","riders":104395},"type":"Point","coordinates":[91817,18283],"id":"feature_202"},{"properties":{"name":"\u5143\u4f4f\u5409","line":"\u6771\u6a2a\u7dda","riders":67992},"type":"Point","coordinates":[94323,32753],"id":"feature_203"},{"properties":{"name":"\u5927\u5009\u5c71","line":"\u6771\u6a2a\u7dda","riders":55734},"type":"Point","coordinates":[91192,11108],"id":"feature_204"},{"properties":{"name":"\u6b66\u8535\u5c0f\u6749","line":"\u6771\u6a2a\u7dda","riders":226032},"type":"Point","coordinates":[94953,37884],"id":"feature_205"},{"properties":{"name":"\u65e5\u5409","line":"\u6771\u6a2a\u7dda","riders":207620},"type":"Point","coordinates":[93356,26886],"id":"feature_206"},{"properties":{"name":"\u83ca\u540d","line":"\u6771\u6a2a\u7dda","riders":139166},"type":"Point","coordinates":[91379,5101],"id":"feature_207"},{"properties":{"name":"\u65b0\u4e38\u5b50","line":"\u6771\u6a2a\u7dda","riders":27569},"type":"Point","coordinates":[95231,40149],"id":"feature_208"},{"properties":{"name":"\u6cbc\u90e8","line":"\u6771\u6025\u591a\u6469\u5ddd\u7dda","riders":11149},"type":"Point","coordinates":[96643,41166],"id":"feature_209"},{"properties":{"name":"\u6b66\u8535\u65b0\u7530","line":"\u6771\u6025\u591a\u6469\u5ddd\u7dda","riders":27182},"type":"Point","coordinates":[99065,33786],"id":"feature_210"},{"properties":{"name":"\u9d5c\u306e\u6728","line":"\u6771\u6025\u591a\u6469\u5ddd\u7dda","riders":20162},"type":"Point","coordinates":[97571,37604],"id":"feature_211"},{"properties":{"name":"\u4e0b\u4e38\u5b50","line":"\u6771\u6025\u591a\u6469\u5ddd\u7dda","riders":37857},"type":"Point","coordinates":[98192,35574],"id":"feature_212"},{"properties":{"name":"\u6d17\u8db3","line":"\u76ee\u9ed2\u7dda","riders":15146},"type":"Point","coordinates":[99275,54995],"id":"feature_213"},{"properties":{"name":"\u5965\u6ca2","line":"\u76ee\u9ed2\u7dda","riders":14312},"type":"Point","coordinates":[96547,51919],"id":"feature_214"},{"properties":{"name":"\u897f\u5c0f\u5c71","line":"\u76ee\u9ed2\u7dda","riders":37686},"type":"Point","coordinates":[99854,57676],"id":"feature_215"},{"properties":{"name":"\u5927\u5ca1\u5c71","line":"\u76ee\u9ed2\u7dda","riders":51937},"type":"Point","coordinates":[98109,53547],"id":"feature_216"},{"properties":{"name":"\u65b0\u9ad8\u5186\u5bfa","line":"4\u53f7\u7dda\u4e38\u30ce\u5185\u7dda","riders":38161},"type":"Point","coordinates":[93542,98972],"id":"feature_217"},{"properties":{"name":"\u5357\u963f\u4f50\u30f6\u8c37","line":"4\u53f7\u7dda\u4e38\u30ce\u5185\u7dda","riders":28144},"type":"Point","coordinates":[91915,99774],"id":"feature_218"},{"properties":{"name":"\u65b0\u4e2d\u91ce","line":"4\u53f7\u7dda\u4e38\u30ce\u5185\u7dda","riders":36488},"type":"Point","coordinates":[96183,98776],"id":"feature_219"},{"properties":{"name":"\u6771\u9ad8\u5186\u5bfa","line":"4\u53f7\u7dda\u4e38\u30ce\u5185\u7dda","riders":36410},"type":"Point","coordinates":[94773,99027],"id":"feature_220"},{"properties":{"name":"\u4e2d\u91ce\u5742\u4e0a","line":"4\u53f7\u7dda\u4e38\u30ce\u5185\u7dda","riders":77763},"type":"Point","coordinates":[97780,98586],"id":"feature_221"},{"properties":{"name":"\u897f\u65b0\u5bbf","line":"4\u53f7\u7dda\u4e38\u30ce\u5185\u7dda","riders":91457},"type":"Point","coordinates":[99081,97298],"id":"feature_222"},{"properties":{"name":"\u4e2d\u91ce\u65b0\u6a4b","line":"4\u53f7\u7dda\u4e38\u30ce\u5185\u7dda\u5206\u5c90\u7dda","riders":20884},"type":"Point","coordinates":[96747,95885],"id":"feature_223"},{"properties":{"name":"\u65b9\u5357\u753a","line":"4\u53f7\u7dda\u4e38\u30ce\u5185\u7dda\u5206\u5c90\u7dda","riders":39769},"type":"Point","coordinates":[94728,91782],"id":"feature_224"},{"properties":{"name":"\u4e2d\u91ce\u5bcc\u58eb\u898b\u753a","line":"4\u53f7\u7dda\u4e38\u30ce\u5185\u7dda\u5206\u5c90\u7dda","riders":20202},"type":"Point","coordinates":[96013,95444],"id":"feature_225"},{"properties":{"name":"\u4ee3\u3005\u6728\u516c\u5712","line":"9\u53f7\u7dda\u5343\u4ee3\u7530\u7dda","riders":29250},"type":"Point","coordinates":[98715,84572],"id":"feature_226"},{"properties":{"name":"\u4e2d\u91ce\u5742\u4e0a","line":"12\u53f7\u7dda\u5927\u6c5f\u6238\u7dda","riders":41990},"type":"Point","coordinates":[97874,98982],"id":"feature_227"},{"properties":{"name":"\u65b0\u5bbf","line":"12\u53f7\u7dda\u5927\u6c5f\u6238\u7dda","riders":12},"type":"Point","coordinates":[99935,93841],"id":"feature_228"},{"properties":{"name":"\u897f\u65b0\u5bbf\u4e94\u4e01\u76ee","line":"12\u53f7\u7dda\u5927\u6c5f\u6238\u7dda","riders":36090},"type":"Point","coordinates":[98088,94984],"id":"feature_229"},{"properties":{"name":"\u90fd\u5e81\u524d","line":"12\u53f7\u7dda\u5927\u6c5f\u6238\u7dda","riders":52192},"type":"Point","coordinates":[99090,95329],"id":"feature_230"},{"properties":{"name":"\u65b0\u5bbf\u897f\u53e3","line":"12\u53f7\u7dda\u5927\u6c5f\u6238\u7dda","riders":62082},"type":"Point","coordinates":[99911,96617],"id":"feature_231"},{"properties":{"name":"\u65b0\u6a2a\u6d5c","line":"\u6a2a\u6d5c\u7dda","riders":131536},"type":"Point","coordinates":[89632,3227],"id":"feature_232"},{"properties":{"name":"\u5c0f\u673a","line":"\u6a2a\u6d5c\u7dda","riders":20904},"type":"Point","coordinates":[87394,4159],"id":"feature_233"},{"properties":{"name":"\u83ca\u540d","line":"\u6a2a\u6d5c\u7dda","riders":108116},"type":"Point","coordinates":[91244,4665],"id":"feature_234"},{"properties":{"name":"\u6a4b\u672c","line":"\u6a2a\u6d5c\u7dda","riders":132272},"type":"Point","coordinates":[55378,47374],"id":"feature_235"},{"properties":{"name":"\u4e2d\u5c71","line":"\u6a2a\u6d5c\u7dda","riders":84602},"type":"Point","coordinates":[79820,7190],"id":"feature_236"},{"properties":{"name":"\u6210\u702c","line":"\u6a2a\u6d5c\u7dda","riders":38732},"type":"Point","coordinates":[71468,17562],"id":"feature_237"},{"properties":{"name":"\u76f8\u6a21\u539f","line":"\u6a2a\u6d5c\u7dda","riders":58504},"type":"Point","coordinates":[58598,40665],"id":"feature_238"},{"properties":{"name":"\u753a\u7530","line":"\u6a2a\u6d5c\u7dda","riders":225080},"type":"Point","coordinates":[68151,20648],"id":"feature_239"},{"properties":{"name":"\u6df5\u91ce\u8fba","line":"\u6a2a\u6d5c\u7dda","riders":80870},"type":"Point","coordinates":[61705,34151],"id":"feature_240"},{"properties":{"name":"\u76f8\u539f","line":"\u6a2a\u6d5c\u7dda","riders":21234},"type":"Point","coordinates":[53701,53412],"id":"feature_241"},{"properties":{"name":"\u516b\u738b\u5b50\u307f\u306a\u307f\u91ce","line":"\u6a2a\u6d5c\u7dda","riders":38400},"type":"Point","coordinates":[53610,65602],"id":"feature_242"},{"properties":{"name":"\u5341\u65e5\u5e02\u5834","line":"\u6a2a\u6d5c\u7dda","riders":42022},"type":"Point","coordinates":[76963,12967],"id":"feature_243"},{"properties":{"name":"\u9577\u6d25\u7530","line":"\u6a2a\u6d5c\u7dda","riders":122334},"type":"Point","coordinates":[74271,15683],"id":"feature_244"},{"properties":{"name":"\u77e2\u90e8","line":"\u6a2a\u6d5c\u7dda","riders":25010},"type":"Point","coordinates":[60601,36456],"id":"feature_245"},{"properties":{"name":"\u9d28\u5c45","line":"\u6a2a\u6d5c\u7dda","riders":79370},"type":"Point","coordinates":[83286,5271],"id":"feature_246"},{"properties":{"name":"\u7247\u5009","line":"\u6a2a\u6d5c\u7dda","riders":10490},"type":"Point","coordinates":[54893,69816],"id":"feature_247"},{"properties":{"name":"\u53e4\u6df5","line":"\u6a2a\u6d5c\u7dda","riders":46036},"type":"Point","coordinates":[64711,27883],"id":"feature_248"},{"properties":{"name":"\u516b\u738b\u5b50","line":"\u6a2a\u6d5c\u7dda","riders":11},"type":"Point","coordinates":[54779,77522],"id":"feature_249"},{"properties":{"name":"\u7acb\u5ddd","line":"\u9752\u6885\u7dda","riders":337024},"type":"Point","coordinates":[64025,99057],"id":"feature_250"},{"properties":{"name":"\u7acb\u5ddd","line":"\u9752\u6885\u7dda","riders":11},"type":"Point","coordinates":[64071,99182],"id":"feature_251"},{"properties":{"name":"\u4e0a\u6e9d","line":"\u76f8\u6a21\u7dda","riders":12572},"type":"Point","coordinates":[57658,28705],"id":"feature_252"},{"properties":{"name":"\u756a\u7530","line":"\u76f8\u6a21\u7dda","riders":7076},"type":"Point","coordinates":[57653,22572],"id":"feature_253"},{"properties":{"name":"\u5357\u6a4b\u672c","line":"\u76f8\u6a21\u7dda","riders":11188},"type":"Point","coordinates":[56309,40119],"id":"feature_254"},{"properties":{"name":"\u539f\u5f53\u9ebb","line":"\u76f8\u6a21\u7dda","riders":10328},"type":"Point","coordinates":[59194,14360],"id":"feature_255"},{"properties":{"name":"\u4e0b\u6e9d","line":"\u76f8\u6a21\u7dda","riders":2252},"type":"Point","coordinates":[59841,9014],"id":"feature_256"},{"properties":{"name":"\u516b\u738b\u5b50","line":"\u4e2d\u592e\u7dda","riders":172356},"type":"Point","coordinates":[54606,77742],"id":"feature_257"},{"properties":{"name":"\u897f\u56fd\u5206\u5bfa","line":"\u4e2d\u592e\u7dda","riders":59856},"type":"Point","coordinates":[70563,99904],"id":"feature_258"},{"properties":{"name":"\u9ce5\u6ca2","line":"\u4e2d\u592e\u7dda","riders":1934},"type":"Point","coordinates":[12431,53968],"id":"feature_259"},{"properties":{"name":"\u4e0a\u91ce\u539f","line":"\u4e2d\u592e\u7dda","riders":10828},"type":"Point","coordinates":[26505,59179],"id":"feature_260"},{"properties":{"name":"\u5927\u6708","line":"\u4e2d\u592e\u7dda","riders":11056},"type":"Point","coordinates":[4718,56493],"id":"feature_261"},{"properties":{"name":"\u85e4\u91ce","line":"\u4e2d\u592e\u7dda","riders":5550},"type":"Point","coordinates":[31022,57951],"id":"feature_262"},{"properties":{"name":"\u897f\u516b\u738b\u5b50","line":"\u4e2d\u592e\u7dda","riders":64604},"type":"Point","coordinates":[51226,78138],"id":"feature_263"},{"properties":{"name":"\u56fd\u7acb","line":"\u4e2d\u592e\u7dda","riders":108098},"type":"Point","coordinates":[68129,99643],"id":"feature_264"},{"properties":{"name":"\u56db\u65b9\u6d25","line":"\u4e2d\u592e\u7dda","riders":3896},"type":"Point","coordinates":[21244,57019],"id":"feature_265"},{"properties":{"name":"\u8c4a\u7530","line":"\u4e2d\u592e\u7dda","riders":70664},"type":"Point","coordinates":[59964,79737],"id":"feature_266"},{"properties":{"name":"\u6881\u5ddd","line":"\u4e2d\u592e\u7dda","riders":11},"type":"Point","coordinates":[16683,53081],"id":"feature_267"},{"properties":{"name":"\u76f8\u6a21\u6e56","line":"\u4e2d\u592e\u7dda","riders":6746},"type":"Point","coordinates":[35699,58613],"id":"feature_268"},{"properties":{"name":"\u9ad8\u5c3e","line":"\u4e2d\u592e\u7dda","riders":61034},"type":"Point","coordinates":[47533,71174],"id":"feature_269"},{"properties":{"name":"\u733f\u6a4b","line":"\u4e2d\u592e\u7dda","riders":3188},"type":"Point","coordinates":[7959,56313],"id":"feature_270"},{"properties":{"name":"\u7acb\u5ddd","line":"\u4e2d\u592e\u7dda","riders":11},"type":"Point","coordinates":[64026,98927],"id":"feature_271"},{"properties":{"name":"\u65e5\u91ce","line":"\u4e2d\u592e\u7dda","riders":57302},"type":"Point","coordinates":[61475,89357],"id":"feature_272"},{"properties":{"name":"\u9db4\u898b","line":"\u9db4\u898b\u7dda","riders":162112},"type":"Point","coordinates":[96972,3813],"id":"feature_273"},{"properties":{"name":"\u56fd\u9053","line":"\u9db4\u898b\u7dda","riders":11},"type":"Point","coordinates":[96962,220],"id":"feature_274"},{"properties":{"name":"\u5ddd\u5d0e","line":"\u6771\u6d77\u9053\u7dda","riders":429202},"type":"Point","coordinates":[99615,15547],"id":"feature_275"},{"properties":{"name":"\u65b0\u5ddd\u5d0e","line":"\u6771\u6d77\u9053\u7dda","riders":58814},"type":"Point","coordinates":[96445,25684],"id":"feature_276"},{"properties":{"name":"\u9db4\u898b","line":"\u6771\u6d77\u9053\u7dda","riders":11},"type":"Point","coordinates":[97031,4114],"id":"feature_277"},{"properties":{"name":"\u6d25\u7530\u5c71","line":"\u5357\u6b66\u7dda","riders":7642},"type":"Point","coordinates":[87532,51768],"id":"feature_278"},{"properties":{"name":"\u5bbf\u6cb3\u539f","line":"\u5357\u6b66\u7dda","riders":16446},"type":"Point","coordinates":[84869,57666],"id":"feature_279"},{"properties":{"name":"\u6b66\u8535\u65b0\u57ce","line":"\u5357\u6b66\u7dda","riders":74664},"type":"Point","coordinates":[91100,43636],"id":"feature_280"},{"properties":{"name":"\u4e45\u5730","line":"\u5357\u6b66\u7dda","riders":28648},"type":"Point","coordinates":[86570,55005],"id":"feature_281"},{"properties":{"name":"\u6b66\u8535\u6e9d\u30ce\u53e3","line":"\u5357\u6b66\u7dda","riders":172692},"type":"Point","coordinates":[88873,49348],"id":"feature_282"},{"properties":{"name":"\u5c3b\u624b","line":"\u5357\u6b66\u7dda","riders":29774},"type":"Point","coordinates":[98042,15352],"id":"feature_283"},{"properties":{"name":"\u5e73\u9593","line":"\u5357\u6b66\u7dda","riders":29558},"type":"Point","coordinates":[96381,30178],"id":"feature_284"},{"properties":{"name":"\u77e2\u5411","line":"\u5357\u6b66\u7dda","riders":37972},"type":"Point","coordinates":[97549,19606],"id":"feature_285"},{"properties":{"name":"\u5ddd\u5d0e\u65b0\u753a","line":"\u5357\u6b66\u7dda","riders":5640},"type":"Point","coordinates":[99924,9019],"id":"feature_286"},{"properties":{"name":"\u516b\u4e01\u7577","line":"\u5357\u6b66\u7dda","riders":19446},"type":"Point","coordinates":[98931,11394],"id":"feature_287"},{"properties":{"name":"\u5411\u6cb3\u539f","line":"\u5357\u6b66\u7dda","riders":30154},"type":"Point","coordinates":[95903,36000],"id":"feature_288"},{"properties":{"name":"\u6b66\u8535\u5c0f\u6749","line":"\u5357\u6b66\u7dda","riders":261504},"type":"Point","coordinates":[94963,38195],"id":"feature_289"},{"properties":{"name":"\u9e7f\u5cf6\u7530","line":"\u5357\u6b66\u7dda","riders":38322},"type":"Point","coordinates":[96870,25619],"id":"feature_290"},{"properties":{"name":"\u6b66\u8535\u4e2d\u539f","line":"\u5357\u6b66\u7dda","riders":70120},"type":"Point","coordinates":[92741,40199],"id":"feature_291"},{"properties":{"name":"\u77e2\u5ddd","line":"\u5357\u6b66\u7dda","riders":16694},"type":"Point","coordinates":[66264,92563],"id":"feature_292"},{"properties":{"name":"\u7acb\u5ddd","line":"\u5357\u6b66\u7dda","riders":11},"type":"Point","coordinates":[64092,98812],"id":"feature_293"},{"properties":{"name":"\u7a32\u7530\u5824","line":"\u5357\u6b66\u7dda","riders":52840},"type":"Point","coordinates":[79385,66679],"id":"feature_294"},{"properties":{"name":"\u77e2\u91ce\u53e3","line":"\u5357\u6b66\u7dda","riders":20570},"type":"Point","coordinates":[77436,70848],"id":"feature_295"},{"properties":{"name":"\u4e2d\u91ce\u5cf6","line":"\u5357\u6b66\u7dda","riders":29994},"type":"Point","coordinates":[81290,64981],"id":"feature_296"},{"properties":{"name":"\u897f\u56fd\u7acb","line":"\u5357\u6b66\u7dda","riders":20706},"type":"Point","coordinates":[65297,96933],"id":"feature_297"},{"properties":{"name":"\u767b\u6238","line":"\u5357\u6b66\u7dda","riders":165430},"type":"Point","coordinates":[83696,60316],"id":"feature_298"},{"properties":{"name":"\u5206\u500d\u6cb3\u539f","line":"\u5357\u6b66\u7dda","riders":82570},"type":"Point","coordinates":[70957,84221],"id":"feature_299"},{"properties":{"name":"\u5e9c\u4e2d\u672c\u753a","line":"\u5357\u6b66\u7dda","riders":34978},"type":"Point","coordinates":[72007,82933],"id":"feature_300"},{"properties":{"name":"\u7a32\u57ce\u9577\u6cbc","line":"\u5357\u6b66\u7dda","riders":16180},"type":"Point","coordinates":[75195,72126],"id":"feature_301"},{"properties":{"name":"\u8c37\u4fdd","line":"\u5357\u6b66\u7dda","riders":20884},"type":"Point","coordinates":[68175,90715],"id":"feature_302"},{"properties":{"name":"\u5357\u591a\u6469","line":"\u5357\u6b66\u7dda","riders":14090},"type":"Point","coordinates":[73553,74596],"id":"feature_303"},{"properties":{"name":"\u5c0f\u5bae","line":"\u516b\u9ad8\u7dda","riders":6372},"type":"Point","coordinates":[58328,92959],"id":"feature_304"},{"properties":{"name":"\u5317\u516b\u738b\u5b50","line":"\u516b\u9ad8\u7dda","riders":19322},"type":"Point","coordinates":[57690,84647],"id":"feature_305"},{"properties":{"name":"\u5317\u5e9c\u4e2d","line":"\u6b66\u8535\u91ce\u7dda","riders":30552},"type":"Point","coordinates":[71320,90454],"id":"feature_306"},{"properties":{"name":"\u5e9c\u4e2d\u672c\u753a","line":"\u6b66\u8535\u91ce\u7dda","riders":11},"type":"Point","coordinates":[71986,82918],"id":"feature_307"},{"properties":{"name":"\u897f\u56fd\u5206\u5bfa","line":"\u6b66\u8535\u91ce\u7dda","riders":11},"type":"Point","coordinates":[70589,99999],"id":"feature_308"},{"properties":{"name":"\u8c37\u6751\u753a","line":"\u5927\u6708\u7dda","riders":687},"type":"Point","coordinates":[0,25188],"id":"feature_309"},{"properties":{"name":"\u4e0a\u5927\u6708","line":"\u5927\u6708\u7dda","riders":123},"type":"Point","coordinates":[4205,54649],"id":"feature_310"},{"properties":{"name":"\u79be\u751f","line":"\u5927\u6708\u7dda","riders":770},"type":"Point","coordinates":[3095,37508],"id":"feature_311"},{"properties":{"name":"\u7530\u91ce\u5009","line":"\u5927\u6708\u7dda","riders":671},"type":"Point","coordinates":[3342,46668],"id":"feature_312"},{"properties":{"name":"\u8d64\u5742","line":"\u5927\u6708\u7dda","riders":986},"type":"Point","coordinates":[1440,32929],"id":"feature_313"},{"properties":{"name":"\u90fd\u7559\u5e02","line":"\u5927\u6708\u7dda","riders":704},"type":"Point","coordinates":[355,28500],"id":"feature_314"},{"properties":{"name":"\u5927\u6708","line":"\u5927\u6708\u7dda","riders":4185},"type":"Point","coordinates":[4693,56293],"id":"feature_315"},{"properties":{"name":"\u65e5\u5409","line":"4\u53f7\u7dda","riders":85361},"type":"Point","coordinates":[93332,26556],"id":"feature_316"},{"properties":{"name":"\u65e5\u5409\u672c\u753a","line":"4\u53f7\u7dda","riders":16738},"type":"Point","coordinates":[91633,24842],"id":"feature_317"},{"properties":{"name":"\u9ad8\u7530","line":"4\u53f7\u7dda","riders":16305},"type":"Point","coordinates":[90031,24662],"id":"feature_318"},{"properties":{"name":"\u6771\u5c71\u7530","line":"4\u53f7\u7dda","riders":10874},"type":"Point","coordinates":[88201,26996],"id":"feature_319"},{"properties":{"name":"\u5317\u5c71\u7530","line":"4\u53f7\u7dda","riders":28649},"type":"Point","coordinates":[86530,30444],"id":"feature_320"},{"properties":{"name":"\u30bb\u30f3\u30bf\u30fc\u5317","line":"4\u53f7\u7dda","riders":12},"type":"Point","coordinates":[84718,26390],"id":"feature_321"},{"properties":{"name":"\u30bb\u30f3\u30bf\u30fc\u5357","line":"4\u53f7\u7dda","riders":12},"type":"Point","coordinates":[84238,22487],"id":"feature_322"},{"properties":{"name":"\u5ddd\u548c\u753a","line":"4\u53f7\u7dda","riders":8511},"type":"Point","coordinates":[81025,14089],"id":"feature_323"},{"properties":{"name":"\u4e2d\u5c71","line":"4\u53f7\u7dda","riders":31061},"type":"Point","coordinates":[79930,7220],"id":"feature_324"},{"properties":{"name":"\u897f\u5e9c","line":"\u5357\u6b66\u7dda","riders":20718},"type":"Point","coordinates":[69509,85484],"id":"feature_325"},{"properties":{"name":"\u90fd\u7b51\u3075\u308c\u3042\u3044\u306e\u4e18","line":"4\u53f7\u7dda","riders":22282},"type":"Point","coordinates":[82575,18153],"id":"feature_326"},{"properties":{"name":"\u6b66\u8535\u5c0f\u6749","line":"\u6771\u6d77\u9053\u7dda","riders":0},"type":"Point","coordinates":[95412,37348],"id":"feature_327"}],"type":"GeometryCollection"}},"bbox":[138.90463,35.50033,139.69986,35.69991],"transform":{"scale":[7.952379523795274e-06,1.9958199581996272e-06],"translate":[138.90463,35.50033]},"arcs":[]}