{"type":"Topology","objects":{"data":{"geometries":[{"properties":{"name":"\u307f\u3069\u308a\u4e2d\u8857","line":"\u5e83\u5cf6\u77ed\u8ddd\u96e2\u4ea4\u901a\u702c\u91ce\u7dda","riders":317},"type":"Point","coordinates":[52993,10724],"id":"feature_000"},{"properties":{"name":"\u307f\u3069\u308a\u4e2d\u592e","line":"\u5e83\u5cf6\u77ed\u8ddd\u96e2\u4ea4\u901a\u702c\u91ce\u7dda","riders":1536},"type":"Point","coordinates":[52673,10944],"id":"feature_001"},{"properties":{"name":"\u307f\u3069\u308a\u53e3","line":"\u5e83\u5cf6\u77ed\u8ddd\u96e2\u4ea4\u901a\u702c\u91ce\u7dda","riders":1454},"type":"Point","coordinates":[53071,10273],"id":"feature_002"},{"properties":{"name":"\u795e\u8fba","line":"\u4e95\u539f\u7dda","riders":2853},"type":"Point","coordinates":[99504,20030],"id":"feature_003"},{"properties":{"name":"\u6e6f\u91ce","line":"\u4e95\u539f\u7dda","riders":132},"type":"Point","coordinates":[99999,21337],"id":"feature_004"},{"properties":{"name":"\u5ddd\u8de1","line":"\u5927\u793e\u7dda","riders":435},"type":"Point","coordinates":[63760,92725],"id":"feature_005"},{"properties":{"name":"\u9065\u582a","line":"\u5927\u793e\u7dda","riders":45},"type":"Point","coordinates":[60785,92223],"id":"feature_006"},{"properties":{"name":"\u9ad8\u6d5c","line":"\u5927\u793e\u7dda","riders":125},"type":"Point","coordinates":[61996,92351],"id":"feature_007"},{"properties":{"name":"\u6d5c\u5c71\u516c\u5712\u5317\u53e3","line":"\u5927\u793e\u7dda","riders":219},"type":"Point","coordinates":[59707,92211],"id":"feature_008"},{"properties":{"name":"\u51fa\u96f2\u5927\u793e\u524d","line":"\u5927\u793e\u7dda","riders":1026},"type":"Point","coordinates":[58492,92566],"id":"feature_009"},{"properties":{"name":"\u65c5\u4f0f","line":"\u5317\u677e\u6c5f\u7dda","riders":160},"type":"Point","coordinates":[65567,94933],"id":"feature_010"},{"properties":{"name":"\u4f0a\u91ce\u7058","line":"\u5317\u677e\u6c5f\u7dda","riders":57},"type":"Point","coordinates":[71148,98328],"id":"feature_011"},{"properties":{"name":"\u677e\u6c5f\u30d5\u30a9\u30fc\u30b2\u30eb\u30d1\u30fc\u30af","line":"\u5317\u677e\u6c5f\u7dda","riders":69},"type":"Point","coordinates":[73689,99485],"id":"feature_012"},{"properties":{"name":"\u5712","line":"\u5317\u677e\u6c5f\u7dda","riders":76},"type":"Point","coordinates":[69203,97895],"id":"feature_013"},{"properties":{"name":"\u6e56\u904a\u9928\u65b0\u99c5","line":"\u5317\u677e\u6c5f\u7dda","riders":48},"type":"Point","coordinates":[68848,97603],"id":"feature_014"},{"properties":{"name":"\u671d\u65e5\u30f6\u4e18","line":"\u5317\u677e\u6c5f\u7dda","riders":283},"type":"Point","coordinates":[76305,99999],"id":"feature_015"},{"properties":{"name":"\u9577\u6c5f","line":"\u5317\u677e\u6c5f\u7dda","riders":49},"type":"Point","coordinates":[75505,99904],"id":"feature_016"},{"properties":{"name":"\u5e03\u5d0e","line":"\u5317\u677e\u6c5f\u7dda","riders":151},"type":"Point","coordinates":[68425,97394],"id":"feature_017"},{"properties":{"name":"\u677e\u6c5f\u3057\u3093\u3058\u6e56\u6e29\u6cc9","line":"\u5317\u677e\u6c5f\u7dda","riders":1951},"type":"Point","coordinates":[79724,98823],"id":"feature_018"},{"properties":{"name":"\u5927\u6d25\u753a","line":"\u5317\u677e\u6c5f\u7dda","riders":298},"type":"Point","coordinates":[63636,90518],"id":"feature_019"},{"properties":{"name":"\u9ad8\u30ce\u5bae","line":"\u5317\u677e\u6c5f\u7dda","riders":40},"type":"Point","coordinates":[72901,99223],"id":"feature_020"},{"properties":{"name":"\u677e\u6c5f\u30a4\u30f3\u30b0\u30ea\u30c3\u30b7\u30e5\u30ac\u30fc\u30c7\u30f3\u524d","line":"\u5317\u677e\u6c5f\u7dda","riders":137},"type":"Point","coordinates":[77267,99693],"id":"feature_021"},{"properties":{"name":"\u6b66\u5fd7","line":"\u5317\u677e\u6c5f\u7dda","riders":80},"type":"Point","coordinates":[63573,92120],"id":"feature_022"},{"properties":{"name":"\u7f8e\u8ac7","line":"\u5317\u677e\u6c5f\u7dda","riders":56},"type":"Point","coordinates":[65048,94201],"id":"feature_023"},{"properties":{"name":"\u96f2\u5dde\u5e73\u7530","line":"\u5317\u677e\u6c5f\u7dda","riders":1278},"type":"Point","coordinates":[66565,95876],"id":"feature_024"},{"properties":{"name":"\u51fa\u96f2\u79d1\u5b66\u9928\u30d1\u30fc\u30af\u30bf\u30a6\u30f3\u524d","line":"\u5317\u677e\u6c5f\u7dda","riders":74},"type":"Point","coordinates":[63172,90006],"id":"feature_025"},{"properties":{"name":"\u5927\u5bfa","line":"\u5317\u677e\u6c5f\u7dda","riders":26},"type":"Point","coordinates":[64414,93512],"id":"feature_026"},{"properties":{"name":"\u79cb\u9e7f\u753a","line":"\u5317\u677e\u6c5f\u7dda","riders":171},"type":"Point","coordinates":[74462,99683],"id":"feature_027"},{"properties":{"name":"\u4e00\u7551\u53e3","line":"\u5317\u677e\u6c5f\u7dda","riders":197},"type":"Point","coordinates":[70077,98612],"id":"feature_028"},{"properties":{"name":"\u6d25\u30ce\u68ee","line":"\u5317\u677e\u6c5f\u7dda","riders":309},"type":"Point","coordinates":[72226,98761],"id":"feature_029"},{"properties":{"name":"\u96fb\u9244\u51fa\u96f2\u5e02","line":"\u5317\u677e\u6c5f\u7dda","riders":1546},"type":"Point","coordinates":[62655,89844],"id":"feature_030"},{"properties":{"name":"\u5b89\u6771","line":"\u5e83\u5cf6\u65b0\u4ea4\u901a1\u53f7\u7dda","riders":8037},"type":"Point","coordinates":[44594,14727],"id":"feature_031"},{"properties":{"name":"\u57ce\u5317","line":"\u5e83\u5cf6\u65b0\u4ea4\u901a1\u53f7\u7dda","riders":2971},"type":"Point","coordinates":[44918,8837],"id":"feature_032"},{"properties":{"name":"\u5927\u753a","line":"\u5e83\u5cf6\u65b0\u4ea4\u901a1\u53f7\u7dda","riders":11288},"type":"Point","coordinates":[45617,13594],"id":"feature_033"},{"properties":{"name":"\u4e0a\u5b89","line":"\u5e83\u5cf6\u65b0\u4ea4\u901a1\u53f7\u7dda","riders":4911},"type":"Point","coordinates":[44091,14798],"id":"feature_034"},{"properties":{"name":"\u897f\u539f","line":"\u5e83\u5cf6\u65b0\u4ea4\u901a1\u53f7\u7dda","riders":7573},"type":"Point","coordinates":[45857,12053],"id":"feature_035"},{"properties":{"name":"\u4f34\u4e2d\u592e","line":"\u5e83\u5cf6\u65b0\u4ea4\u901a1\u53f7\u7dda","riders":1457},"type":"Point","coordinates":[41719,13094],"id":"feature_036"},{"properties":{"name":"\u770c\u5e81\u524d","line":"\u5e83\u5cf6\u65b0\u4ea4\u901a1\u53f7\u7dda","riders":14991},"type":"Point","coordinates":[44871,8096],"id":"feature_037"},{"properties":{"name":"\u6bd8\u6c99\u9580\u53f0","line":"\u5e83\u5cf6\u65b0\u4ea4\u901a1\u53f7\u7dda","riders":4192},"type":"Point","coordinates":[45151,14267],"id":"feature_038"},{"properties":{"name":"\u5927\u585a","line":"\u5e83\u5cf6\u65b0\u4ea4\u901a1\u53f7\u7dda","riders":1852},"type":"Point","coordinates":[41594,11924],"id":"feature_039"},{"properties":{"name":"\u672c\u901a","line":"\u5e83\u5cf6\u65b0\u4ea4\u901a1\u53f7\u7dda","riders":23018},"type":"Point","coordinates":[44807,7827],"id":"feature_040"},{"properties":{"name":"\u53e4\u5e02","line":"\u5e83\u5cf6\u65b0\u4ea4\u901a1\u53f7\u7dda","riders":4140},"type":"Point","coordinates":[45893,13257],"id":"feature_041"},{"properties":{"name":"\u725b\u7530","line":"\u5e83\u5cf6\u65b0\u4ea4\u901a1\u53f7\u7dda","riders":2545},"type":"Point","coordinates":[45256,9825],"id":"feature_042"},{"properties":{"name":"\u9577\u697d\u5bfa","line":"\u5e83\u5cf6\u65b0\u4ea4\u901a1\u53f7\u7dda","riders":3068},"type":"Point","coordinates":[43254,14562],"id":"feature_043"},{"properties":{"name":"\u4e0d\u52d5\u9662\u524d","line":"\u5e83\u5cf6\u65b0\u4ea4\u901a1\u53f7\u7dda","riders":4657},"type":"Point","coordinates":[45518,10639],"id":"feature_044"},{"properties":{"name":"\u4e2d\u7b4b","line":"\u5e83\u5cf6\u65b0\u4ea4\u901a1\u53f7\u7dda","riders":8281},"type":"Point","coordinates":[45986,12769],"id":"feature_045"},{"properties":{"name":"\u5e83\u57df\u516c\u5712\u524d","line":"\u5e83\u5cf6\u65b0\u4ea4\u901a1\u53f7\u7dda","riders":3127},"type":"Point","coordinates":[41427,11384],"id":"feature_046"},{"properties":{"name":"\u7947\u5712\u65b0\u6a4b\u5317","line":"\u5e83\u5cf6\u65b0\u4ea4\u901a1\u53f7\u7dda","riders":3993},"type":"Point","coordinates":[45637,11381],"id":"feature_047"},{"properties":{"name":"\u767d\u5cf6","line":"\u5e83\u5cf6\u65b0\u4ea4\u901a1\u53f7\u7dda","riders":3453},"type":"Point","coordinates":[45147,9312],"id":"feature_048"},{"properties":{"name":"\u5927\u539f","line":"\u5e83\u5cf6\u65b0\u4ea4\u901a1\u53f7\u7dda","riders":2971},"type":"Point","coordinates":[42151,13707],"id":"feature_049"},{"properties":{"name":"\u4f34","line":"\u5e83\u5cf6\u65b0\u4ea4\u901a1\u53f7\u7dda","riders":3148},"type":"Point","coordinates":[42558,14304],"id":"feature_050"},{"properties":{"name":"\u9ad8\u53d6","line":"\u5e83\u5cf6\u65b0\u4ea4\u901a1\u53f7\u7dda","riders":2942},"type":"Point","coordinates":[43699,14758],"id":"feature_051"},{"properties":{"name":"\u5e83\u5927\u9644\u5c5e\u5b66\u6821\u524d","line":"\u5b87\u54c1\u7dda","riders":2294},"type":"Point","coordinates":[45253,5970],"id":"feature_052"},{"properties":{"name":"\u5e83\u96fb\u672c\u793e\u524d","line":"\u5b87\u54c1\u7dda","riders":3321},"type":"Point","coordinates":[44882,6460],"id":"feature_053"},{"properties":{"name":"\u5b87\u54c1\u56db\u4e01\u76ee","line":"\u5b87\u54c1\u7dda","riders":1964},"type":"Point","coordinates":[45224,5003],"id":"feature_054"},{"properties":{"name":"\u5e02\u5f79\u6240\u524d","line":"\u5b87\u54c1\u7dda","riders":3918},"type":"Point","coordinates":[44651,7175],"id":"feature_055"},{"properties":{"name":"\u5fa1\u5e78\u6a4b","line":"\u5b87\u54c1\u7dda","riders":1680},"type":"Point","coordinates":[44941,6343],"id":"feature_056"},{"properties":{"name":"\u65e5\u8d64\u75c5\u9662\u524d","line":"\u5b87\u54c1\u7dda","riders":2725},"type":"Point","coordinates":[44740,6748],"id":"feature_057"},{"properties":{"name":"\u888b\u753a","line":"\u5b87\u54c1\u7dda","riders":2853},"type":"Point","coordinates":[44761,7627],"id":"feature_058"},{"properties":{"name":"\u5e83\u5cf6\u6e2f\uff08\u5b87\u54c1\uff09","line":"\u5b87\u54c1\u7dda","riders":4438},"type":"Point","coordinates":[44730,4371],"id":"feature_059"},{"properties":{"name":"\u770c\u75c5\u9662\u524d","line":"\u5b87\u54c1\u7dda","riders":4904},"type":"Point","coordinates":[45269,5711],"id":"feature_060"},{"properties":{"name":"\u672c\u901a","line":"\u5b87\u54c1\u7dda","riders":9392},"type":"Point","coordinates":[44805,7812],"id":"feature_061"},{"properties":{"name":"\u6d77\u5cb8\u901a","line":"\u5b87\u54c1\u7dda","riders":1916},"type":"Point","coordinates":[45164,4579],"id":"feature_062"},{"properties":{"name":"\u5b87\u54c1\u4e94\u4e01\u76ee","line":"\u5b87\u54c1\u7dda","riders":1989},"type":"Point","coordinates":[45213,4819],"id":"feature_063"},{"properties":{"name":"\u4e2d\u96fb\u524d","line":"\u5b87\u54c1\u7dda","riders":3350},"type":"Point","coordinates":[44721,7460],"id":"feature_064"},{"properties":{"name":"\u5b87\u54c1\u4e8c\u4e01\u76ee","line":"\u5b87\u54c1\u7dda","riders":2544},"type":"Point","coordinates":[45256,5528],"id":"feature_065"},{"properties":{"name":"\u5b87\u54c1\u4e09\u4e01\u76ee","line":"\u5b87\u54c1\u7dda","riders":2272},"type":"Point","coordinates":[45245,5341],"id":"feature_066"},{"properties":{"name":"\u7686\u5b9f\u753a\u516d\u4e01\u76ee","line":"\u5b87\u54c1\u7dda","riders":3915},"type":"Point","coordinates":[45216,6189],"id":"feature_067"},{"properties":{"name":"\u5143\u5b87\u54c1\u53e3","line":"\u5b87\u54c1\u7dda","riders":1654},"type":"Point","coordinates":[44963,4477],"id":"feature_068"},{"properties":{"name":"\u9df9\u91ce\u6a4b","line":"\u5b87\u54c1\u7dda","riders":3709},"type":"Point","coordinates":[44626,6978],"id":"feature_069"},{"properties":{"name":"\u7d19\u5c4b\u753a\u6771","line":"\u5b87\u54c1\u7dda","riders":8797},"type":"Point","coordinates":[44880,7955],"id":"feature_070"},{"properties":{"name":"\u7d19\u5c4b\u753a\u897f","line":"\u5b87\u54c1\u7dda","riders":18142},"type":"Point","coordinates":[44798,7984],"id":"feature_071"},{"properties":{"name":"\u6a2a\u5ddd\u4e00\u4e01\u76ee","line":"\u6a2a\u5ddd\u7dda","riders":1133},"type":"Point","coordinates":[44391,8983],"id":"feature_072"},{"properties":{"name":"\u5225\u9662\u524d","line":"\u6a2a\u5ddd\u7dda","riders":834},"type":"Point","coordinates":[44353,8771],"id":"feature_073"},{"properties":{"name":"\u6a2a\u5ddd\u99c5","line":"\u6a2a\u5ddd\u7dda","riders":7607},"type":"Point","coordinates":[44426,9194],"id":"feature_074"},{"properties":{"name":"\u5bfa\u753a","line":"\u6a2a\u5ddd\u7dda","riders":870},"type":"Point","coordinates":[44277,8449],"id":"feature_075"},{"properties":{"name":"\u5341\u65e5\u5e02\u753a","line":"\u6a2a\u5ddd\u7dda","riders":4939},"type":"Point","coordinates":[44205,8115],"id":"feature_076"},{"properties":{"name":"\u6bd4\u6cbb\u5c71\u4e0b","line":"\u7686\u5b9f\u7dda","riders":671},"type":"Point","coordinates":[45642,7282],"id":"feature_077"},{"properties":{"name":"\u6bd4\u6cbb\u5c71\u6a4b","line":"\u7686\u5b9f\u7dda","riders":1018},"type":"Point","coordinates":[45506,6965],"id":"feature_078"},{"properties":{"name":"\u7684\u5834\u753a","line":"\u7686\u5b9f\u7dda","riders":811},"type":"Point","coordinates":[45887,7790],"id":"feature_079"},{"properties":{"name":"\u5357\u533a\u5f79\u6240\u524d","line":"\u7686\u5b9f\u7dda","riders":1990},"type":"Point","coordinates":[45404,6720],"id":"feature_080"},{"properties":{"name":"\u7686\u5b9f\u753a\u4e8c\u4e01\u76ee","line":"\u7686\u5b9f\u7dda","riders":985},"type":"Point","coordinates":[45337,6464],"id":"feature_081"},{"properties":{"name":"\u7686\u5b9f\u753a\u516d\u4e01\u76ee","line":"\u7686\u5b9f\u7dda","riders":1498},"type":"Point","coordinates":[45269,6230],"id":"feature_082"},{"properties":{"name":"\u6bb5\u539f\u4e00\u4e01\u76ee","line":"\u7686\u5b9f\u7dda","riders":596},"type":"Point","coordinates":[45788,7530],"id":"feature_083"},{"properties":{"name":"\u5e83\u96fb\u963f\u54c1","line":"\u5bae\u5cf6\u7dda","riders":3604},"type":"Point","coordinates":[36338,1733],"id":"feature_084"},{"properties":{"name":"\u6771\u9ad8\u9808","line":"\u5bae\u5cf6\u7dda","riders":2121},"type":"Point","coordinates":[42623,7691],"id":"feature_085"},{"properties":{"name":"\u5e83\u96fb\u897f\u5e83\u5cf6\uff08\u5df1\u6590\uff09","line":"\u5bae\u5cf6\u7dda","riders":13323},"type":"Point","coordinates":[43068,8104],"id":"feature_086"},{"properties":{"name":"\u963f\u54c1\u6771","line":"\u5bae\u5cf6\u7dda","riders":715},"type":"Point","coordinates":[36579,2192],"id":"feature_087"},{"properties":{"name":"\u5c71\u967d\u5973\u5b66\u5712\u524d","line":"\u5bae\u5cf6\u7dda","riders":4646},"type":"Point","coordinates":[37937,5163],"id":"feature_088"},{"properties":{"name":"\u8349\u6d25\u5357","line":"\u5bae\u5cf6\u7dda","riders":2611},"type":"Point","coordinates":[41329,6525],"id":"feature_089"},{"properties":{"name":"\u5730\u5fa1\u524d","line":"\u5bae\u5cf6\u7dda","riders":1368},"type":"Point","coordinates":[36674,3371],"id":"feature_090"},{"properties":{"name":"\u4e95\u53e3","line":"\u5bae\u5cf6\u7dda","riders":2983},"type":"Point","coordinates":[40580,5987],"id":"feature_091"},{"properties":{"name":"\u5e83\u96fb\u5bae\u5cf6\u53e3","line":"\u5bae\u5cf6\u7dda","riders":0},"type":"Point","coordinates":[35776,904],"id":"feature_092"},{"properties":{"name":"\u4fee\u5927\u5354\u5275\u4e2d\u9ad8\u524d","line":"\u5bae\u5cf6\u7dda","riders":4495},"type":"Point","coordinates":[39890,5684],"id":"feature_093"},{"properties":{"name":"\u5e83\u96fb\u5eff\u65e5\u5e02","line":"\u5bae\u5cf6\u7dda","riders":3544},"type":"Point","coordinates":[37649,4734],"id":"feature_094"},{"properties":{"name":"\u5bae\u5185","line":"\u5bae\u5cf6\u7dda","riders":3281},"type":"Point","coordinates":[36982,3938],"id":"feature_095"},{"properties":{"name":"\u8349\u6d25","line":"\u5bae\u5cf6\u7dda","riders":3137},"type":"Point","coordinates":[41652,6813],"id":"feature_096"},{"properties":{"name":"\u697d\u3005\u5712","line":"\u5bae\u5cf6\u7dda","riders":9553},"type":"Point","coordinates":[38570,5357],"id":"feature_097"},{"properties":{"name":"\u5e83\u96fb\u4e94\u65e5\u5e02","line":"\u5bae\u5cf6\u7dda","riders":7749},"type":"Point","coordinates":[39514,5542],"id":"feature_098"},{"properties":{"name":"\u9ad8\u9808","line":"\u5bae\u5cf6\u7dda","riders":3387},"type":"Point","coordinates":[42432,7509],"id":"feature_099"},{"properties":{"name":"\u5eff\u65e5\u5e02\u5e02\u5f79\u6240\u524d\uff08\u5e73\u826f\uff09","line":"\u5bae\u5cf6\u7dda","riders":3308},"type":"Point","coordinates":[37260,4410],"id":"feature_100"},{"properties":{"name":"\u5bae\u5cf6\u30dc\u30fc\u30c8\u30ec\u30fc\u30b9\u5834","line":"\u5bae\u5cf6\u7dda","riders":0},"type":"Point","coordinates":[35779,1124],"id":"feature_101"},{"properties":{"name":"JA\u5e83\u5cf6\u75c5\u9662\u524d","line":"\u5bae\u5cf6\u7dda","riders":3403},"type":"Point","coordinates":[36833,3662],"id":"feature_102"},{"properties":{"name":"\u53e4\u6c5f","line":"\u5bae\u5cf6\u7dda","riders":5605},"type":"Point","coordinates":[42100,7212],"id":"feature_103"},{"properties":{"name":"\u5546\u5de5\u30bb\u30f3\u30bf\u30fc\u5165\u53e3","line":"\u5bae\u5cf6\u7dda","riders":7159},"type":"Point","coordinates":[40945,6302],"id":"feature_104"},{"properties":{"name":"\u4f50\u4f2f\u533a\u5f79\u6240\u524d","line":"\u5bae\u5cf6\u7dda","riders":3175},"type":"Point","coordinates":[39151,5455],"id":"feature_105"},{"properties":{"name":"\u6c5f\u6ce2","line":"\u6c5f\u6ce2\u7dda","riders":2459},"type":"Point","coordinates":[43545,6025],"id":"feature_106"},{"properties":{"name":"\u821f\u5165\u5ddd\u53e3\u753a","line":"\u6c5f\u6ce2\u7dda","riders":2209},"type":"Point","coordinates":[43745,6658],"id":"feature_107"},{"properties":{"name":"\u821f\u5165\u753a","line":"\u6c5f\u6ce2\u7dda","riders":2083},"type":"Point","coordinates":[44092,7482],"id":"feature_108"},{"properties":{"name":"\u821f\u5165\u5e78\u753a","line":"\u6c5f\u6ce2\u7dda","riders":1317},"type":"Point","coordinates":[43869,6970],"id":"feature_109"},{"properties":{"name":"\u821f\u5165\u5357","line":"\u6c5f\u6ce2\u7dda","riders":2087},"type":"Point","coordinates":[43628,6259],"id":"feature_110"},{"properties":{"name":"\u821f\u5165\u672c\u753a","line":"\u6c5f\u6ce2\u7dda","riders":2153},"type":"Point","coordinates":[43958,7177],"id":"feature_111"},{"properties":{"name":"\u571f\u6a4b","line":"\u6c5f\u6ce2\u7dda","riders":8140},"type":"Point","coordinates":[44170,7915],"id":"feature_112"},{"properties":{"name":"\u767d\u5cf6","line":"\u767d\u5cf6\u7dda","riders":1964},"type":"Point","coordinates":[45318,8726],"id":"feature_113"},{"properties":{"name":"\u5bb6\u5ead\u88c1\u5224\u6240\u524d","line":"\u767d\u5cf6\u7dda","riders":316},"type":"Point","coordinates":[45329,8492],"id":"feature_114"},{"properties":{"name":"\u516b\u4e01\u5800","line":"\u767d\u5cf6\u7dda","riders":21},"type":"Point","coordinates":[45219,7979],"id":"feature_115"},{"properties":{"name":"\u7e2e\u666f\u5712\u524d","line":"\u767d\u5cf6\u7dda","riders":769},"type":"Point","coordinates":[45296,8333],"id":"feature_116"},{"properties":{"name":"\u5973\u5b66\u9662\u524d","line":"\u767d\u5cf6\u7dda","riders":296},"type":"Point","coordinates":[45271,8225],"id":"feature_117"},{"properties":{"name":"\u516b\u4e01\u5800","line":"\u767d\u5cf6\u7dda","riders":12078},"type":"Point","coordinates":[45164,7857],"id":"feature_118"},{"properties":{"name":"\u897f\u89b3\u97f3\u753a","line":"\u672c\u7dda","riders":1630},"type":"Point","coordinates":[43607,7867],"id":"feature_119"},{"properties":{"name":"\u7684\u5834\u753a","line":"\u672c\u7dda","riders":2125},"type":"Point","coordinates":[45849,7806],"id":"feature_120"},{"properties":{"name":"\u5c0f\u7db2\u753a","line":"\u672c\u7dda","riders":1035},"type":"Point","coordinates":[44061,7910],"id":"feature_121"},{"properties":{"name":"\u80e1\u753a","line":"\u672c\u7dda","riders":5734},"type":"Point","coordinates":[45289,7813],"id":"feature_122"},{"properties":{"name":"\u5929\u6e80\u753a","line":"\u672c\u7dda","riders":1959},"type":"Point","coordinates":[43855,7970],"id":"feature_123"},{"properties":{"name":"\u672c\u5ddd\u753a","line":"\u672c\u7dda","riders":1942},"type":"Point","coordinates":[44416,8109],"id":"feature_124"},{"properties":{"name":"\u5341\u65e5\u5e02\u753a","line":"\u672c\u7dda","riders":21},"type":"Point","coordinates":[44250,8150],"id":"feature_125"},{"properties":{"name":"\u798f\u5cf6\u753a","line":"\u672c\u7dda","riders":1368},"type":"Point","coordinates":[43441,7943],"id":"feature_126"},{"properties":{"name":"\u89b3\u97f3\u753a","line":"\u672c\u7dda","riders":1433},"type":"Point","coordinates":[43717,8003],"id":"feature_127"},{"properties":{"name":"\u9280\u5c71\u753a","line":"\u672c\u7dda","riders":3878},"type":"Point","coordinates":[45410,7801],"id":"feature_128"},{"properties":{"name":"\u539f\u7206\u30c9\u30fc\u30e0\u524d","line":"\u672c\u7dda","riders":4540},"type":"Point","coordinates":[44615,8048],"id":"feature_129"},{"properties":{"name":"\u5e83\u5cf6\u99c5","line":"\u672c\u7dda","riders":154338},"type":"Point","coordinates":[45897,8070],"id":"feature_130"},{"properties":{"name":"\u733f\u7334\u6a4b\u753a","line":"\u672c\u7dda","riders":2408},"type":"Point","coordinates":[45928,7978],"id":"feature_131"},{"properties":{"name":"\u7a32\u8377\u753a","line":"\u672c\u7dda","riders":2109},"type":"Point","coordinates":[45641,7756],"id":"feature_132"},{"properties":{"name":"\u7acb\u753a","line":"\u672c\u7dda","riders":7279},"type":"Point","coordinates":[45038,7899],"id":"feature_133"},{"properties":{"name":"\u4e0a\u516b\u6728","line":"\u53ef\u90e8\u7dda","riders":1162},"type":"Point","coordinates":[47746,16049],"id":"feature_134"},{"properties":{"name":"\u53e4\u5e02\u6a4b","line":"\u53ef\u90e8\u7dda","riders":3706},"type":"Point","coordinates":[45462,12666],"id":"feature_135"},{"properties":{"name":"\u6885\u6797","line":"\u53ef\u90e8\u7dda","riders":2654},"type":"Point","coordinates":[47006,15222],"id":"feature_136"},{"properties":{"name":"\u5927\u753a","line":"\u53ef\u90e8\u7dda","riders":11510},"type":"Point","coordinates":[45620,13583],"id":"feature_137"},{"properties":{"name":"\u4e09\u6edd","line":"\u53ef\u90e8\u7dda","riders":1121},"type":"Point","coordinates":[44235,9844],"id":"feature_138"},{"properties":{"name":"\u5b89\u82b8\u9577\u675f","line":"\u53ef\u90e8\u7dda","riders":6136},"type":"Point","coordinates":[44749,10787],"id":"feature_139"},{"properties":{"name":"\u53ef\u90e8","line":"\u53ef\u90e8\u7dda","riders":7330},"type":"Point","coordinates":[47994,17873],"id":"feature_140"},{"properties":{"name":"\u4e0b\u7957\u5712","line":"\u53ef\u90e8\u7dda","riders":11076},"type":"Point","coordinates":[45116,11720],"id":"feature_141"},{"properties":{"name":"\u4e03\u8ed2\u8336\u5c4b","line":"\u53ef\u90e8\u7dda","riders":1802},"type":"Point","coordinates":[46237,14537],"id":"feature_142"},{"properties":{"name":"\u4e2d\u5cf6","line":"\u53ef\u90e8\u7dda","riders":1774},"type":"Point","coordinates":[48136,16886],"id":"feature_143"},{"properties":{"name":"\u7dd1\u4e95","line":"\u53ef\u90e8\u7dda","riders":5484},"type":"Point","coordinates":[45921,14099],"id":"feature_144"},{"properties":{"name":"\u6a2a\u5ddd","line":"\u53ef\u90e8\u7dda","riders":11},"type":"Point","coordinates":[44431,9272],"id":"feature_145"},{"properties":{"name":"\u5869\u753a","line":"\u82b8\u5099\u7dda","riders":334},"type":"Point","coordinates":[71893,40100],"id":"feature_146"},{"properties":{"name":"\u4e09\u6b21","line":"\u82b8\u5099\u7dda","riders":1361},"type":"Point","coordinates":[68485,42511],"id":"feature_147"},{"properties":{"name":"\u77e2\u795e","line":"\u82b8\u5099\u7dda","riders":44},"type":"Point","coordinates":[96777,54446],"id":"feature_148"},{"properties":{"name":"\u5409\u7530\u53e3","line":"\u82b8\u5099\u7dda","riders":182},"type":"Point","coordinates":[61946,30764],"id":"feature_149"},{"properties":{"name":"\u5099\u5f8c\u516b\u5e61","line":"\u82b8\u5099\u7dda","riders":11},"type":"Point","coordinates":[90803,53995],"id":"feature_150"},{"properties":{"name":"\u5099\u5f8c\u843d\u5408","line":"\u82b8\u5099\u7dda","riders":41},"type":"Point","coordinates":[85832,59331],"id":"feature_151"},{"properties":{"name":"\u795e\u6749","line":"\u82b8\u5099\u7dda","riders":34},"type":"Point","coordinates":[71261,40653],"id":"feature_152"},{"properties":{"name":"\u4e0a\u5ddd\u7acb","line":"\u82b8\u5099\u7dda","riders":64},"type":"Point","coordinates":[64263,35955],"id":"feature_153"},{"properties":{"name":"\u6771\u57ce","line":"\u82b8\u5099\u7dda","riders":25},"type":"Point","coordinates":[93269,50916],"id":"feature_154"},{"properties":{"name":"\u9ad8","line":"\u82b8\u5099\u7dda","riders":11},"type":"Point","coordinates":[81225,48884],"id":"feature_155"},{"properties":{"name":"\u5099\u5f8c\u897f\u57ce","line":"\u82b8\u5099\u7dda","riders":100},"type":"Point","coordinates":[84139,54182],"id":"feature_156"},{"properties":{"name":"\u5e73\u5b50","line":"\u82b8\u5099\u7dda","riders":12},"type":"Point","coordinates":[82975,51855],"id":"feature_157"},{"properties":{"name":"\u5c71\u30ce\u5185","line":"\u82b8\u5099\u7dda","riders":16},"type":"Point","coordinates":[74520,44795],"id":"feature_158"},{"properties":{"name":"\u9053\u5f8c\u5c71","line":"\u82b8\u5099\u7dda","riders":11},"type":"Point","coordinates":[87611,60157],"id":"feature_159"},{"properties":{"name":"\u5099\u5f8c\u5e84\u539f","line":"\u82b8\u5099\u7dda","riders":301},"type":"Point","coordinates":[77992,47569],"id":"feature_160"},{"properties":{"name":"\u5fd7\u548c\u5730","line":"\u82b8\u5099\u7dda","riders":98},"type":"Point","coordinates":[65393,37239],"id":"feature_161"},{"properties":{"name":"\u5e02\u5ca1","line":"\u82b8\u5099\u7dda","riders":26},"type":"Point","coordinates":[97601,56374],"id":"feature_162"},{"properties":{"name":"\u5c0f\u5974\u53ef","line":"\u82b8\u5099\u7dda","riders":11},"type":"Point","coordinates":[89563,58774],"id":"feature_163"},{"properties":{"name":"\u5411\u539f","line":"\u82b8\u5099\u7dda","riders":698},"type":"Point","coordinates":[60417,26614],"id":"feature_164"},{"properties":{"name":"\u6bd4\u5a46\u5c71","line":"\u82b8\u5099\u7dda","riders":11},"type":"Point","coordinates":[84348,56377],"id":"feature_165"},{"properties":{"name":"\u91ce\u99b3","line":"\u82b8\u5099\u7dda","riders":75},"type":"Point","coordinates":[95846,52035],"id":"feature_166"},{"properties":{"name":"\u4e03\u585a","line":"\u82b8\u5099\u7dda","riders":11},"type":"Point","coordinates":[76192,46046],"id":"feature_167"},{"properties":{"name":"\u5099\u5f8c\u4e09\u65e5\u5e02","line":"\u82b8\u5099\u7dda","riders":17},"type":"Point","coordinates":[76930,46953],"id":"feature_168"},{"properties":{"name":"\u5185\u540d","line":"\u82b8\u5099\u7dda","riders":11},"type":"Point","coordinates":[90797,56262],"id":"feature_169"},{"properties":{"name":"\u5742\u6839","line":"\u82b8\u5099\u7dda","riders":11},"type":"Point","coordinates":[99039,56944],"id":"feature_170"},{"properties":{"name":"\u897f\u4e09\u6b21","line":"\u82b8\u5099\u7dda","riders":25},"type":"Point","coordinates":[67575,42147],"id":"feature_171"},{"properties":{"name":"\u516b\u6b21","line":"\u82b8\u5099\u7dda","riders":285},"type":"Point","coordinates":[69840,42477],"id":"feature_172"},{"properties":{"name":"\u7532\u7acb","line":"\u82b8\u5099\u7dda","riders":425},"type":"Point","coordinates":[62789,33180],"id":"feature_173"},{"properties":{"name":"\u4e0b\u548c\u77e5","line":"\u82b8\u5099\u7dda","riders":12},"type":"Point","coordinates":[72600,42085],"id":"feature_174"},{"properties":{"name":"\u767d\u6728\u5c71","line":"\u82b8\u5099\u7dda","riders":333},"type":"Point","coordinates":[52567,16906],"id":"feature_175"},{"properties":{"name":"\u4e2d\u4e09\u7530","line":"\u82b8\u5099\u7dda","riders":0},"type":"Point","coordinates":[53846,18008],"id":"feature_176"},{"properties":{"name":"\u4e2d\u6df1\u5ddd","line":"\u82b8\u5099\u7dda","riders":852},"type":"Point","coordinates":[49336,15254],"id":"feature_177"},{"properties":{"name":"\u5e83\u5cf6","line":"\u82b8\u5099\u7dda","riders":11},"type":"Point","coordinates":[45927,8151],"id":"feature_178"},{"properties":{"name":"\u4e0a\u4e09\u7530","line":"\u82b8\u5099\u7dda","riders":249},"type":"Point","coordinates":[55892,20135],"id":"feature_179"},{"properties":{"name":"\u77e2\u8cc0","line":"\u82b8\u5099\u7dda","riders":2002},"type":"Point","coordinates":[47219,8306],"id":"feature_180"},{"properties":{"name":"\u6238\u5742","line":"\u82b8\u5099\u7dda","riders":3250},"type":"Point","coordinates":[46833,11645],"id":"feature_181"},{"properties":{"name":"\u4e0a\u6df1\u5ddd","line":"\u82b8\u5099\u7dda","riders":706},"type":"Point","coordinates":[51070,14815],"id":"feature_182"},{"properties":{"name":"\u4e95\u539f\u5e02","line":"\u82b8\u5099\u7dda","riders":235},"type":"Point","coordinates":[57778,24061],"id":"feature_183"},{"properties":{"name":"\u7396\u6751","line":"\u82b8\u5099\u7dda","riders":2298},"type":"Point","coordinates":[47832,15332],"id":"feature_184"},{"properties":{"name":"\u5fd7\u548c\u53e3","line":"\u82b8\u5099\u7dda","riders":941},"type":"Point","coordinates":[56741,21465],"id":"feature_185"},{"properties":{"name":"\u4e0b\u6df1\u5ddd","line":"\u82b8\u5099\u7dda","riders":3473},"type":"Point","coordinates":[48819,15899],"id":"feature_186"},{"properties":{"name":"\u5b89\u82b8\u77e2\u53e3","line":"\u82b8\u5099\u7dda","riders":4111},"type":"Point","coordinates":[47061,13769],"id":"feature_187"},{"properties":{"name":"\u72e9\u7559\u5bb6","line":"\u82b8\u5099\u7dda","riders":456},"type":"Point","coordinates":[52047,15699],"id":"feature_188"},{"properties":{"name":"\u4e09\u539f","line":"\u5449\u7dda","riders":12726},"type":"Point","coordinates":[81934,8432],"id":"feature_189"},{"properties":{"name":"\u5409\u540d","line":"\u5449\u7dda","riders":343},"type":"Point","coordinates":[69064,1655],"id":"feature_190"},{"properties":{"name":"\u7af9\u539f","line":"\u5449\u7dda","riders":2159},"type":"Point","coordinates":[71748,3246],"id":"feature_191"},{"properties":{"name":"\u5fe0\u6d77","line":"\u5449\u7dda","riders":1216},"type":"Point","coordinates":[76510,3012],"id":"feature_192"},{"properties":{"name":"\u5b89\u82b8\u5e78\u5d0e","line":"\u5449\u7dda","riders":632},"type":"Point","coordinates":[79415,3139],"id":"feature_193"},{"properties":{"name":"\u98a8\u65e9","line":"\u5449\u7dda","riders":538},"type":"Point","coordinates":[64906,169],"id":"feature_194"},{"properties":{"name":"\u9808\u6ce2","line":"\u5449\u7dda","riders":253},"type":"Point","coordinates":[82003,5852],"id":"feature_195"},{"properties":{"name":"\u5b89\u82b8\u6d25","line":"\u5449\u7dda","riders":1077},"type":"Point","coordinates":[66242,1432],"id":"feature_196"},{"properties":{"name":"\u5927\u4e57","line":"\u5449\u7dda","riders":435},"type":"Point","coordinates":[73779,3349],"id":"feature_197"},{"properties":{"name":"\u5b89\u82b8\u9577\u6d5c","line":"\u5449\u7dda","riders":560},"type":"Point","coordinates":[74809,3110],"id":"feature_198"},{"properties":{"name":"\u77e2\u91ce","line":"\u5449\u7dda","riders":16311},"type":"Point","coordinates":[49261,4328],"id":"feature_199"},{"properties":{"name":"\u6c34\u5c3b","line":"\u5449\u7dda","riders":182},"type":"Point","coordinates":[47295,1588],"id":"feature_200"},{"properties":{"name":"\u5742","line":"\u5449\u7dda","riders":6746},"type":"Point","coordinates":[48015,3199],"id":"feature_201"},{"properties":{"name":"\u6d77\u7530\u5e02","line":"\u5449\u7dda","riders":11},"type":"Point","coordinates":[49172,5999],"id":"feature_202"},{"properties":{"name":"\u5c0f\u5c4b\u6d66","line":"\u5449\u7dda","riders":1086},"type":"Point","coordinates":[47744,99],"id":"feature_203"},{"properties":{"name":"\u8358\u539f","line":"\u5c71\u9670\u7dda","riders":736},"type":"Point","coordinates":[69211,92597],"id":"feature_204"},{"properties":{"name":"\u897f\u51fa\u96f2","line":"\u5c71\u9670\u7dda","riders":622},"type":"Point","coordinates":[60526,87620],"id":"feature_205"},{"properties":{"name":"\u4e43\u6728","line":"\u5c71\u9670\u7dda","riders":1880},"type":"Point","coordinates":[79922,97031],"id":"feature_206"},{"properties":{"name":"\u677e\u6c5f","line":"\u5c71\u9670\u7dda","riders":9445},"type":"Point","coordinates":[80826,98569],"id":"feature_207"},{"properties":{"name":"\u76f4\u6c5f","line":"\u5c71\u9670\u7dda","riders":868},"type":"Point","coordinates":[65613,91756],"id":"feature_208"},{"properties":{"name":"\u51fa\u96f2\u5e02","line":"\u5c71\u9670\u7dda","riders":5605},"type":"Point","coordinates":[62523,89798],"id":"feature_209"},{"properties":{"name":"\u6771\u677e\u6c5f","line":"\u5c71\u9670\u7dda","riders":220},"type":"Point","coordinates":[84656,96993],"id":"feature_210"},{"properties":{"name":"\u6765\u5f85","line":"\u5c71\u9670\u7dda","riders":318},"type":"Point","coordinates":[74181,94892],"id":"feature_211"},{"properties":{"name":"\u5b8d\u9053","line":"\u5c71\u9670\u7dda","riders":1301},"type":"Point","coordinates":[71642,93719],"id":"feature_212"},{"properties":{"name":"\u7389\u9020\u6e29\u6cc9","line":"\u5c71\u9670\u7dda","riders":825},"type":"Point","coordinates":[77753,95740],"id":"feature_213"},{"properties":{"name":"\u63d6\u5c4b","line":"\u5c71\u9670\u7dda","riders":1476},"type":"Point","coordinates":[85877,95497],"id":"feature_214"},{"properties":{"name":"\u76ca\u7530","line":"\u5c71\u9670\u7dda","riders":1301},"type":"Point","coordinates":[8120,31966],"id":"feature_215"},{"properties":{"name":"\u9ed2\u677e","line":"\u5c71\u9670\u7dda","riders":51},"type":"Point","coordinates":[36280,64068],"id":"feature_216"},{"properties":{"name":"\u6c5f\u5357","line":"\u5c71\u9670\u7dda","riders":194},"type":"Point","coordinates":[58229,85956],"id":"feature_217"},{"properties":{"name":"\u4e94\u5341\u731b","line":"\u5c71\u9670\u7dda","riders":61},"type":"Point","coordinates":[43849,75576],"id":"feature_218"},{"properties":{"name":"\u4e45\u624b","line":"\u5c71\u9670\u7dda","riders":121},"type":"Point","coordinates":[47860,78713],"id":"feature_219"},{"properties":{"name":"\u4ec1\u4e07","line":"\u5c71\u9670\u7dda","riders":620},"type":"Point","coordinates":[41628,72033],"id":"feature_220"},{"properties":{"name":"\u4e09\u4fdd\u4e09\u9685","line":"\u5c71\u9670\u7dda","riders":326},"type":"Point","coordinates":[15071,41911],"id":"feature_221"},{"properties":{"name":"\u6d5c\u7530","line":"\u5c71\u9670\u7dda","riders":1742},"type":"Point","coordinates":[22926,50983],"id":"feature_222"},{"properties":{"name":"\u6d45\u5229","line":"\u5c71\u9670\u7dda","riders":122},"type":"Point","coordinates":[33945,62371],"id":"feature_223"},{"properties":{"name":"\u6ce2\u5b50","line":"\u5c71\u9670\u7dda","riders":66},"type":"Point","coordinates":[26656,56190],"id":"feature_224"},{"properties":{"name":"\u5927\u7530\u5e02","line":"\u5c71\u9670\u7dda","riders":1187},"type":"Point","coordinates":[47317,76260],"id":"feature_225"},{"properties":{"name":"\u5468\u5e03","line":"\u5c71\u9670\u7dda","riders":182},"type":"Point","coordinates":[18704,47211],"id":"feature_226"},{"properties":{"name":"\u90fd\u91ce\u6d25","line":"\u5c71\u9670\u7dda","riders":410},"type":"Point","coordinates":[28801,58349],"id":"feature_227"},{"properties":{"name":"\u938c\u624b","line":"\u5c71\u9670\u7dda","riders":50},"type":"Point","coordinates":[10456,38186],"id":"feature_228"},{"properties":{"name":"\u6ce2\u6839","line":"\u5c71\u9670\u7dda","riders":102},"type":"Point","coordinates":[48903,79589],"id":"feature_229"},{"properties":{"name":"\u5c0f\u7530","line":"\u5c71\u9670\u7dda","riders":177},"type":"Point","coordinates":[55084,83371],"id":"feature_230"},{"properties":{"name":"\u4e0b\u5e9c","line":"\u5c71\u9670\u7dda","riders":174},"type":"Point","coordinates":[24242,53083],"id":"feature_231"},{"properties":{"name":"\u7530\u5100","line":"\u5c71\u9670\u7dda","riders":112},"type":"Point","coordinates":[52709,82561],"id":"feature_232"},{"properties":{"name":"\u897f\u6d5c\u7530","line":"\u5c71\u9670\u7dda","riders":448},"type":"Point","coordinates":[20670,48165],"id":"feature_233"},{"properties":{"name":"\u6298\u5c45","line":"\u5c71\u9670\u7dda","riders":22},"type":"Point","coordinates":[16897,44520],"id":"feature_234"},{"properties":{"name":"\u6238\u7530\u5c0f\u6d5c","line":"\u5c71\u9670\u7dda","riders":37},"type":"Point","coordinates":[2120,31522],"id":"feature_235"},{"properties":{"name":"\u98ef\u6d66","line":"\u5c71\u9670\u7dda","riders":35},"type":"Point","coordinates":[0,31157],"id":"feature_236"},{"properties":{"name":"\u9759\u9593","line":"\u5c71\u9670\u7dda","riders":70},"type":"Point","coordinates":[45458,75797],"id":"feature_237"},{"properties":{"name":"\u6c5f\u6d25","line":"\u5c71\u9670\u7dda","riders":856},"type":"Point","coordinates":[30927,60319],"id":"feature_238"},{"properties":{"name":"\u656c\u5ddd","line":"\u5c71\u9670\u7dda","riders":64},"type":"Point","coordinates":[28008,57355],"id":"feature_239"},{"properties":{"name":"\u77f3\u898b\u798f\u5149","line":"\u5c71\u9670\u7dda","riders":106},"type":"Point","coordinates":[37200,65725],"id":"feature_240"},{"properties":{"name":"\u6e6f\u91cc","line":"\u5c71\u9670\u7dda","riders":54},"type":"Point","coordinates":[39968,68266],"id":"feature_241"},{"properties":{"name":"\u6e29\u6cc9\u6d25","line":"\u5c71\u9670\u7dda","riders":200},"type":"Point","coordinates":[38498,66970],"id":"feature_242"},{"properties":{"name":"\u77f3\u898b\u6d25\u7530","line":"\u5c71\u9670\u7dda","riders":45},"type":"Point","coordinates":[9652,35733],"id":"feature_243"},{"properties":{"name":"\u4e45\u4ee3","line":"\u5c71\u9670\u7dda","riders":28},"type":"Point","coordinates":[25939,54959],"id":"feature_244"},{"properties":{"name":"\u51fa\u96f2\u795e\u897f","line":"\u5c71\u9670\u7dda","riders":114},"type":"Point","coordinates":[59386,86803],"id":"feature_245"},{"properties":{"name":"\u99ac\u8def","line":"\u5c71\u9670\u7dda","riders":24},"type":"Point","coordinates":[40672,70087],"id":"feature_246"},{"properties":{"name":"\u5ca1\u898b","line":"\u5c71\u9670\u7dda","riders":83},"type":"Point","coordinates":[12492,39894],"id":"feature_247"},{"properties":{"name":"\u8239\u5e73\u5c71","line":"\u5c71\u53e3\u7dda","riders":16},"type":"Point","coordinates":[1899,10192],"id":"feature_248"},{"properties":{"name":"\u9752\u91ce\u5c71","line":"\u5c71\u53e3\u7dda","riders":11},"type":"Point","coordinates":[6000,15241],"id":"feature_249"},{"properties":{"name":"\u77f3\u898b\u6a2a\u7530","line":"\u5c71\u53e3\u7dda","riders":56},"type":"Point","coordinates":[6079,26861],"id":"feature_250"},{"properties":{"name":"\u5fb3\u4f50","line":"\u5c71\u53e3\u7dda","riders":222},"type":"Point","coordinates":[1072,8356],"id":"feature_251"},{"properties":{"name":"\u65e5\u539f","line":"\u5c71\u53e3\u7dda","riders":142},"type":"Point","coordinates":[7700,19625],"id":"feature_252"},{"properties":{"name":"\u9752\u539f","line":"\u5c71\u53e3\u7dda","riders":36},"type":"Point","coordinates":[5847,21980],"id":"feature_253"},{"properties":{"name":"\u672c\u4fe3\u8cc0","line":"\u5c71\u53e3\u7dda","riders":11},"type":"Point","coordinates":[7406,29792],"id":"feature_254"},{"properties":{"name":"\u6d25\u548c\u91ce","line":"\u5c71\u53e3\u7dda","riders":509},"type":"Point","coordinates":[4251,14529],"id":"feature_255"},{"properties":{"name":"\u6771\u9752\u539f","line":"\u5c71\u53e3\u7dda","riders":24},"type":"Point","coordinates":[5657,24065],"id":"feature_256"},{"properties":{"name":"\u65b0\u5c3e\u9053","line":"\u5c71\u967d\u65b0\u5e79\u7dda","riders":2394},"type":"Point","coordinates":[88320,10930],"id":"feature_257"},{"properties":{"name":"\u798f\u5c71","line":"\u5c71\u967d\u65b0\u5e79\u7dda","riders":11},"type":"Point","coordinates":[98474,15945],"id":"feature_258"},{"properties":{"name":"\u4e09\u539f","line":"\u5c71\u967d\u65b0\u5e79\u7dda","riders":11},"type":"Point","coordinates":[81973,8450],"id":"feature_259"},{"properties":{"name":"\u6771\u5e83\u5cf6","line":"\u5c71\u967d\u65b0\u5e79\u7dda","riders":3532},"type":"Point","coordinates":[62754,7464],"id":"feature_260"},{"properties":{"name":"\u5e83\u5cf6","line":"\u5c71\u967d\u65b0\u5e79\u7dda","riders":11},"type":"Point","coordinates":[45881,8251],"id":"feature_261"},{"properties":{"name":"\u798f\u5c71","line":"\u5c71\u967d\u7dda","riders":42540},"type":"Point","coordinates":[98477,15947],"id":"feature_262"},{"properties":{"name":"\u897f\u6761","line":"\u5c71\u967d\u7dda","riders":20176},"type":"Point","coordinates":[61813,11035],"id":"feature_263"},{"properties":{"name":"\u5c3e\u9053","line":"\u5c71\u967d\u7dda","riders":11542},"type":"Point","coordinates":[88485,8791],"id":"feature_264"},{"properties":{"name":"\u6771\u5c3e\u9053","line":"\u5c71\u967d\u7dda","riders":4162},"type":"Point","coordinates":[90871,11350],"id":"feature_265"},{"properties":{"name":"\u5099\u5f8c\u8d64\u5742","line":"\u5c71\u967d\u7dda","riders":3745},"type":"Point","coordinates":[95201,14508],"id":"feature_266"},{"properties":{"name":"\u677e\u6c38","line":"\u5c71\u967d\u7dda","riders":9602},"type":"Point","coordinates":[92397,12700],"id":"feature_267"},{"properties":{"name":"\u7cf8\u5d0e","line":"\u5c71\u967d\u7dda","riders":2492},"type":"Point","coordinates":[83270,7681],"id":"feature_268"},{"properties":{"name":"\u5165\u91ce","line":"\u5c71\u967d\u7dda","riders":492},"type":"Point","coordinates":[68221,13529],"id":"feature_269"},{"properties":{"name":"\u767d\u5e02","line":"\u5c71\u967d\u7dda","riders":3966},"type":"Point","coordinates":[67059,12048],"id":"feature_270"},{"properties":{"name":"\u6cb3\u5185","line":"\u5c71\u967d\u7dda","riders":1387},"type":"Point","coordinates":[70450,14276],"id":"feature_271"},{"properties":{"name":"\u897f\u9ad8\u5c4b","line":"\u5c71\u967d\u7dda","riders":11234},"type":"Point","coordinates":[64461,12298],"id":"feature_272"},{"properties":{"name":"\u672c\u90f7","line":"\u5c71\u967d\u7dda","riders":3952},"type":"Point","coordinates":[76286,9194],"id":"feature_273"},{"properties":{"name":"\u6a2a\u5ddd","line":"\u5c71\u967d\u7dda","riders":36497},"type":"Point","coordinates":[44392,9238],"id":"feature_274"},{"properties":{"name":"\u5eff\u65e5\u5e02","line":"\u5c71\u967d\u7dda","riders":8128},"type":"Point","coordinates":[37587,4812],"id":"feature_275"},{"properties":{"name":"\u6d77\u7530\u5e02","line":"\u5c71\u967d\u7dda","riders":19926},"type":"Point","coordinates":[49190,6010],"id":"feature_276"},{"properties":{"name":"\u5929\u795e\u5ddd","line":"\u5c71\u967d\u7dda","riders":21414},"type":"Point","coordinates":[47204,7512],"id":"feature_277"},{"properties":{"name":"\u524d\u7a7a","line":"\u5c71\u967d\u7dda","riders":4300},"type":"Point","coordinates":[34848,0],"id":"feature_278"},{"properties":{"name":"\u5411\u6d0b","line":"\u5c71\u967d\u7dda","riders":23952},"type":"Point","coordinates":[47711,6420],"id":"feature_279"},{"properties":{"name":"\u5e83\u5cf6","line":"\u5c71\u967d\u7dda","riders":154348},"type":"Point","coordinates":[45912,8145],"id":"feature_280"},{"properties":{"name":"\u4e2d\u91ce\u6771","line":"\u5c71\u967d\u7dda","riders":5631},"type":"Point","coordinates":[52028,8661],"id":"feature_281"},{"properties":{"name":"\u963f\u54c1","line":"\u5c71\u967d\u7dda","riders":0},"type":"Point","coordinates":[36341,1896],"id":"feature_282"},{"properties":{"name":"\u5bae\u5185\u4e32\u6238","line":"\u5c71\u967d\u7dda","riders":10292},"type":"Point","coordinates":[36905,4039],"id":"feature_283"},{"properties":{"name":"\u897f\u5e83\u5cf6","line":"\u5c71\u967d\u7dda","riders":18778},"type":"Point","coordinates":[43092,8226],"id":"feature_284"},{"properties":{"name":"\u516b\u672c\u677e","line":"\u5c71\u967d\u7dda","riders":9759},"type":"Point","coordinates":[58548,12249],"id":"feature_285"},{"properties":{"name":"\u702c\u91ce","line":"\u5c71\u967d\u7dda","riders":7345},"type":"Point","coordinates":[53096,10246],"id":"feature_286"},{"properties":{"name":"\u5bae\u5cf6\u53e3","line":"\u5c71\u967d\u7dda","riders":9208},"type":"Point","coordinates":[35646,931],"id":"feature_287"},{"properties":{"name":"\u65b0\u4e95\u53e3","line":"\u5c71\u967d\u7dda","riders":16981},"type":"Point","coordinates":[40899,6284],"id":"feature_288"},{"properties":{"name":"\u5b89\u82b8\u4e2d\u91ce","line":"\u5c71\u967d\u7dda","riders":6047},"type":"Point","coordinates":[51116,7617],"id":"feature_289"},{"properties":{"name":"\u4e94\u65e5\u5e02","line":"\u5c71\u967d\u7dda","riders":27238},"type":"Point","coordinates":[39504,5570],"id":"feature_290"},{"properties":{"name":"\u8db3\u7acb","line":"\u4f2f\u5099\u7dda","riders":26},"type":"Point","coordinates":[99811,62489],"id":"feature_291"},{"properties":{"name":"\u65b0\u90f7","line":"\u4f2f\u5099\u7dda","riders":32},"type":"Point","coordinates":[98859,66193],"id":"feature_292"},{"properties":{"name":"\u5099\u5f8c\u5b89\u7530","line":"\u798f\u5869\u7dda","riders":44},"type":"Point","coordinates":[79036,37289],"id":"feature_293"},{"properties":{"name":"\u6238\u624b","line":"\u798f\u5869\u7dda","riders":649},"type":"Point","coordinates":[94873,20798],"id":"feature_294"},{"properties":{"name":"\u9d5c\u98fc","line":"\u798f\u5869\u7dda","riders":678},"type":"Point","coordinates":[91544,22620],"id":"feature_295"},{"properties":{"name":"\u65b0\u5e02","line":"\u798f\u5869\u7dda","riders":970},"type":"Point","coordinates":[93032,21453],"id":"feature_296"},{"properties":{"name":"\u6e6f\u7530\u6751","line":"\u798f\u5869\u7dda","riders":1684},"type":"Point","coordinates":[99076,21254],"id":"feature_297"},{"properties":{"name":"\u9053\u4e0a","line":"\u798f\u5869\u7dda","riders":1416},"type":"Point","coordinates":[98467,21387],"id":"feature_298"},{"properties":{"name":"\u6cb3\u4f50","line":"\u798f\u5869\u7dda","riders":89},"type":"Point","coordinates":[86926,24480],"id":"feature_299"},{"properties":{"name":"\u5409\u820e","line":"\u798f\u5869\u7dda","riders":326},"type":"Point","coordinates":[76491,36158],"id":"feature_300"},{"properties":{"name":"\u5e9c\u4e2d","line":"\u798f\u5869\u7dda","riders":1932},"type":"Point","coordinates":[91065,22919],"id":"feature_301"},{"properties":{"name":"\u5099\u5f8c\u77e2\u91ce","line":"\u798f\u5869\u7dda","riders":35},"type":"Point","coordinates":[84513,30819],"id":"feature_302"},{"properties":{"name":"\u9ad8\u6728","line":"\u798f\u5869\u7dda","riders":528},"type":"Point","coordinates":[92060,22193],"id":"feature_303"},{"properties":{"name":"\u4e0b\u5ddd\u8fba","line":"\u798f\u5869\u7dda","riders":62},"type":"Point","coordinates":[89213,21462],"id":"feature_304"},{"properties":{"name":"\u4e09\u826f\u5742","line":"\u798f\u5869\u7dda","riders":103},"type":"Point","coordinates":[74523,39419],"id":"feature_305"},{"properties":{"name":"\u99c5\u5bb6","line":"\u798f\u5869\u7dda","riders":1538},"type":"Point","coordinates":[96363,21007],"id":"feature_306"},{"properties":{"name":"\u68b6\u7530","line":"\u798f\u5869\u7dda","riders":32},"type":"Point","coordinates":[80558,34731],"id":"feature_307"},{"properties":{"name":"\u4e0a\u4e0b","line":"\u798f\u5869\u7dda","riders":158},"type":"Point","coordinates":[84019,33356],"id":"feature_308"},{"properties":{"name":"\u6a2a\u5c3e","line":"\u798f\u5869\u7dda","riders":1894},"type":"Point","coordinates":[98594,18678],"id":"feature_309"},{"properties":{"name":"\u7532\u5974","line":"\u798f\u5869\u7dda","riders":54},"type":"Point","coordinates":[81854,34116],"id":"feature_310"},{"properties":{"name":"\u4e07\u80fd\u5009","line":"\u798f\u5869\u7dda","riders":1588},"type":"Point","coordinates":[97116,21182],"id":"feature_311"},{"properties":{"name":"\u8fd1\u7530","line":"\u798f\u5869\u7dda","riders":454},"type":"Point","coordinates":[95485,20784],"id":"feature_312"},{"properties":{"name":"\u4e2d\u7551","line":"\u798f\u5869\u7dda","riders":11},"type":"Point","coordinates":[88488,23832],"id":"feature_313"},{"properties":{"name":"\u5099\u5f8c\u4e09\u5ddd","line":"\u798f\u5869\u7dda","riders":48},"type":"Point","coordinates":[83566,27896],"id":"feature_314"},{"properties":{"name":"\u5099\u5f8c\u672c\u5e84","line":"\u798f\u5869\u7dda","riders":870},"type":"Point","coordinates":[97528,16278],"id":"feature_315"},{"properties":{"name":"\u4e0a\u6238\u624b","line":"\u798f\u5869\u7dda","riders":1098},"type":"Point","coordinates":[93764,21226],"id":"feature_316"},{"properties":{"name":"\u51fa\u96f2\u4e09\u6210","line":"\u6728\u6b21\u7dda","riders":249},"type":"Point","coordinates":[77615,75904],"id":"feature_317"},{"properties":{"name":"\u4e0b\u4e45\u91ce","line":"\u6728\u6b21\u7dda","riders":11},"type":"Point","coordinates":[76583,81684],"id":"feature_318"},{"properties":{"name":"\u51fa\u96f2\u516b\u4ee3","line":"\u6728\u6b21\u7dda","riders":59},"type":"Point","coordinates":[77118,78499],"id":"feature_319"},{"properties":{"name":"\u5357\u5b8d\u9053","line":"\u6728\u6b21\u7dda","riders":13},"type":"Point","coordinates":[72178,91444],"id":"feature_320"},{"properties":{"name":"\u6cb9\u6728","line":"\u6728\u6b21\u7dda","riders":11},"type":"Point","coordinates":[84109,63015],"id":"feature_321"},{"properties":{"name":"\u516b\u5ddd","line":"\u6728\u6b21\u7dda","riders":11},"type":"Point","coordinates":[82339,71896],"id":"feature_322"},{"properties":{"name":"\u51fa\u96f2\u6a2a\u7530","line":"\u6728\u6b21\u7dda","riders":279},"type":"Point","coordinates":[82524,74272],"id":"feature_323"},{"properties":{"name":"\u6728\u6b21","line":"\u6728\u6b21\u7dda","riders":345},"type":"Point","coordinates":[71208,84222],"id":"feature_324"},{"properties":{"name":"\u4e80\u5d69","line":"\u6728\u6b21\u7dda","riders":78},"type":"Point","coordinates":[80168,76717],"id":"feature_325"},{"properties":{"name":"\u52a0\u8302\u4e2d","line":"\u6728\u6b21\u7dda","riders":178},"type":"Point","coordinates":[71748,88441],"id":"feature_326"},{"properties":{"name":"\u65e5\u767b","line":"\u6728\u6b21\u7dda","riders":30},"type":"Point","coordinates":[72943,82668],"id":"feature_327"},{"properties":{"name":"\u51fa\u96f2\u5927\u6771","line":"\u6728\u6b21\u7dda","riders":374},"type":"Point","coordinates":[74537,86842],"id":"feature_328"},{"properties":{"name":"\u51fa\u96f2\u5742\u6839","line":"\u6728\u6b21\u7dda","riders":14},"type":"Point","coordinates":[84187,67917],"id":"feature_329"},{"properties":{"name":"\u5e61\u5c4b","line":"\u6728\u6b21\u7dda","riders":110},"type":"Point","coordinates":[73429,87601],"id":"feature_330"},{"properties":{"name":"\u4e09\u4e95\u91ce\u539f","line":"\u6728\u6b21\u7dda","riders":11},"type":"Point","coordinates":[83943,66967],"id":"feature_331"},{"properties":{"name":"\u5357\u5927\u6771","line":"\u6728\u6b21\u7dda","riders":20},"type":"Point","coordinates":[72756,85331],"id":"feature_332"},{"properties":{"name":"\u65b0\u767d\u5cf6","line":"\u5c71\u967d\u7dda","riders":23648},"type":"Point","coordinates":[45042,9101],"id":"feature_333"},{"properties":{"name":"\u65b0\u767d\u5cf6","line":"\u5e83\u5cf6\u65b0\u4ea4\u901a1\u53f7\u7dda","riders":13336},"type":"Point","coordinates":[45053,9087],"id":"feature_334"},{"properties":{"name":"\u3042\u304d\u4e80\u5c71","line":"\u53ef\u90e8\u7dda","riders":1284},"type":"Point","coordinates":[47131,18314],"id":"feature_335"},{"properties":{"name":"\u6cb3\u6238\u5e06\u5f85\u5ddd","line":"\u53ef\u90e8\u7dda","riders":2452},"type":"Point","coordinates":[47661,18270],"id":"feature_336"},{"properties":{"name":"\u5bfa\u5bb6","line":"\u5c71\u967d\u7dda","riders":3734},"type":"Point","coordinates":[60569,11731],"id":"feature_337"}],"type":"GeometryCollection"}},"bbox":[131.70213,34.30112,133.387,35.48096],"transform":{"scale":[1.6848868488684783e-05,1.179851798517991e-05],"translate":[131.70213,34.30112]},"arcs":[]}