{"type":"Topology","objects":{"data":{"geometries":[{"properties":{"name":"\u65b0\u8c4a\u7530","line":"\u611b\u77e5\u74b0\u72b6\u9244\u9053\u7dda","riders":15694},"type":"Point","coordinates":[65590,97497],"id":"feature_000"},{"properties":{"name":"\u5927\u9580","line":"\u611b\u77e5\u74b0\u72b6\u9244\u9053\u7dda","riders":2858},"type":"Point","coordinates":[65711,75665],"id":"feature_001"},{"properties":{"name":"\u6c38\u899a","line":"\u611b\u77e5\u74b0\u72b6\u9244\u9053\u7dda","riders":628},"type":"Point","coordinates":[64119,84972],"id":"feature_002"},{"properties":{"name":"\u65b0\u4e0a\u6319\u6bcd","line":"\u611b\u77e5\u74b0\u72b6\u9244\u9053\u7dda","riders":1639},"type":"Point","coordinates":[65351,94161],"id":"feature_003"},{"properties":{"name":"\u672b\u91ce\u539f","line":"\u611b\u77e5\u74b0\u72b6\u9244\u9053\u7dda","riders":2567},"type":"Point","coordinates":[64919,87474],"id":"feature_004"},{"properties":{"name":"\u4e09\u6cb3\u4e0a\u90f7","line":"\u611b\u77e5\u74b0\u72b6\u9244\u9053\u7dda","riders":2075},"type":"Point","coordinates":[63491,81849],"id":"feature_005"},{"properties":{"name":"\u5317\u91ce\u685d\u585a","line":"\u611b\u77e5\u74b0\u72b6\u9244\u9053\u7dda","riders":2394},"type":"Point","coordinates":[64171,78507],"id":"feature_006"},{"properties":{"name":"\u4e09\u6cb3\u8c4a\u7530","line":"\u611b\u77e5\u74b0\u72b6\u9244\u9053\u7dda","riders":14918},"type":"Point","coordinates":[65326,90771],"id":"feature_007"},{"properties":{"name":"\u5317\u5ca1\u5d0e","line":"\u611b\u77e5\u74b0\u72b6\u9244\u9053\u7dda","riders":3714},"type":"Point","coordinates":[66010,73525],"id":"feature_008"},{"properties":{"name":"\u5ca1\u5d0e","line":"\u611b\u77e5\u74b0\u72b6\u9244\u9053\u7dda","riders":48153},"type":"Point","coordinates":[65963,63888],"id":"feature_009"},{"properties":{"name":"\u4e2d\u5ca1\u5d0e","line":"\u611b\u77e5\u74b0\u72b6\u9244\u9053\u7dda","riders":4159},"type":"Point","coordinates":[65513,70224],"id":"feature_010"},{"properties":{"name":"\u516d\u540d","line":"\u611b\u77e5\u74b0\u72b6\u9244\u9053\u7dda","riders":1619},"type":"Point","coordinates":[65422,67104],"id":"feature_011"},{"properties":{"name":"\u6cb3\u82b8","line":"\u4f0a\u52e2\u7dda","riders":134},"type":"Point","coordinates":[2702,33869],"id":"feature_012"},{"properties":{"name":"\u4f0a\u52e2\u4e0a\u91ce","line":"\u4f0a\u52e2\u7dda","riders":140},"type":"Point","coordinates":[3863,37881],"id":"feature_013"},{"properties":{"name":"\u9234\u9e7f\u30b5\u30fc\u30ad\u30c3\u30c8\u7a32\u751f","line":"\u4f0a\u52e2\u7dda","riders":270},"type":"Point","coordinates":[5150,46332],"id":"feature_014"},{"properties":{"name":"\u4e2d\u702c\u53e4","line":"\u4f0a\u52e2\u7dda","riders":287},"type":"Point","coordinates":[3920,40330],"id":"feature_015"},{"properties":{"name":"\u9234\u9e7f","line":"\u4f0a\u52e2\u7dda","riders":577},"type":"Point","coordinates":[8542,54080],"id":"feature_016"},{"properties":{"name":"\u7389\u57a3","line":"\u4f0a\u52e2\u7dda","riders":471},"type":"Point","coordinates":[6646,49243],"id":"feature_017"},{"properties":{"name":"\u5fb3\u7530","line":"\u4f0a\u52e2\u7dda","riders":65},"type":"Point","coordinates":[4015,43230],"id":"feature_018"},{"properties":{"name":"\u6cb3\u539f\u7530","line":"\u4f0a\u52e2\u7dda","riders":258},"type":"Point","coordinates":[9601,60874],"id":"feature_019"},{"properties":{"name":"\u6771\u4e00\u8eab\u7530","line":"\u4f0a\u52e2\u7dda","riders":141},"type":"Point","coordinates":[794,29256],"id":"feature_020"},{"properties":{"name":"\u6d25","line":"\u4f0a\u52e2\u7dda","riders":35056},"type":"Point","coordinates":[655,24204],"id":"feature_021"},{"properties":{"name":"\u685c","line":"\u6e6f\u306e\u5c71\u7dda","riders":3700},"type":"Point","coordinates":[3789,78545],"id":"feature_022"},{"properties":{"name":"\u9ad8\u89d2","line":"\u6e6f\u306e\u5c71\u7dda","riders":1065},"type":"Point","coordinates":[5073,75793],"id":"feature_023"},{"properties":{"name":"\u4e2d\u83f0\u91ce","line":"\u6e6f\u306e\u5c71\u7dda","riders":1049},"type":"Point","coordinates":[0,81827],"id":"feature_024"},{"properties":{"name":"\u4f0a\u52e2\u5ddd\u5cf6","line":"\u6e6f\u306e\u5c71\u7dda","riders":2354},"type":"Point","coordinates":[6335,74645],"id":"feature_025"},{"properties":{"name":"\u83f0\u91ce","line":"\u6e6f\u306e\u5c71\u7dda","riders":2521},"type":"Point","coordinates":[1325,81084],"id":"feature_026"},{"properties":{"name":"\u4f0a\u52e2\u677e\u672c","line":"\u6e6f\u306e\u5c71\u7dda","riders":2599},"type":"Point","coordinates":[8737,72980],"id":"feature_027"},{"properties":{"name":"\u4e2d\u5ddd\u539f","line":"\u6e6f\u306e\u5c71\u7dda","riders":1658},"type":"Point","coordinates":[10000,72916],"id":"feature_028"},{"properties":{"name":"\u8fd1\u9244\u56db\u65e5\u5e02","line":"\u6e6f\u306e\u5c71\u7dda","riders":12},"type":"Point","coordinates":[11527,72310],"id":"feature_029"},{"properties":{"name":"\u5c0f\u53e4\u66fd","line":"\u5185\u90e8\u7dda","riders":325},"type":"Point","coordinates":[8889,64488],"id":"feature_030"},{"properties":{"name":"\u8d64\u5800","line":"\u5185\u90e8\u7dda","riders":553},"type":"Point","coordinates":[10727,70824],"id":"feature_031"},{"properties":{"name":"\u8ffd\u5206","line":"\u5185\u90e8\u7dda","riders":989},"type":"Point","coordinates":[9283,65574],"id":"feature_032"},{"properties":{"name":"\u5357\u65e5\u6c38","line":"\u5185\u90e8\u7dda","riders":1045},"type":"Point","coordinates":[9776,68891],"id":"feature_033"},{"properties":{"name":"\u6cca","line":"\u5185\u90e8\u7dda","riders":938},"type":"Point","coordinates":[9520,66920],"id":"feature_034"},{"properties":{"name":"\u65e5\u6c38","line":"\u5185\u90e8\u7dda","riders":1018},"type":"Point","coordinates":[10113,70146],"id":"feature_035"},{"properties":{"name":"\u5185\u90e8","line":"\u5185\u90e8\u7dda","riders":1235},"type":"Point","coordinates":[8355,63837],"id":"feature_036"},{"properties":{"name":"\u3042\u3059\u306a\u308d\u3046\u56db\u65e5\u5e02","line":"\u5185\u90e8\u7dda","riders":45694},"type":"Point","coordinates":[11549,72428],"id":"feature_037"},{"properties":{"name":"\u897f\u65e5\u91ce","line":"\u516b\u738b\u5b50\u7dda","riders":2881},"type":"Point","coordinates":[8783,69522],"id":"feature_038"},{"properties":{"name":"\u4f0a\u52e2\u671d\u65e5","line":"\u540d\u53e4\u5c4b\u7dda","riders":3996},"type":"Point","coordinates":[16630,87207],"id":"feature_039"},{"properties":{"name":"\u8fd1\u9244\u9577\u5cf6","line":"\u540d\u53e4\u5c4b\u7dda","riders":2963},"type":"Point","coordinates":[19379,99518],"id":"feature_040"},{"properties":{"name":"\u8fd1\u9244\u5bcc\u7530","line":"\u540d\u53e4\u5c4b\u7dda","riders":28849},"type":"Point","coordinates":[14661,80618],"id":"feature_041"},{"properties":{"name":"\u76ca\u751f","line":"\u540d\u53e4\u5c4b\u7dda","riders":2665},"type":"Point","coordinates":[17611,91258],"id":"feature_042"},{"properties":{"name":"\u5ddd\u539f\u753a","line":"\u540d\u53e4\u5c4b\u7dda","riders":1800},"type":"Point","coordinates":[12028,74570],"id":"feature_043"},{"properties":{"name":"\u971e\u30f6\u6d66","line":"\u540d\u53e4\u5c4b\u7dda","riders":3680},"type":"Point","coordinates":[13403,77914],"id":"feature_044"},{"properties":{"name":"\u5ddd\u8d8a\u5bcc\u6d32\u539f","line":"\u540d\u53e4\u5c4b\u7dda","riders":6257},"type":"Point","coordinates":[15710,82643],"id":"feature_045"},{"properties":{"name":"\u963f\u5009\u5ddd","line":"\u540d\u53e4\u5c4b\u7dda","riders":4389},"type":"Point","coordinates":[12646,76212],"id":"feature_046"},{"properties":{"name":"\u6851\u540d","line":"\u540d\u53e4\u5c4b\u7dda","riders":38703},"type":"Point","coordinates":[18096,93161],"id":"feature_047"},{"properties":{"name":"\u767d\u585a","line":"\u540d\u53e4\u5c4b\u7dda","riders":1804},"type":"Point","coordinates":[2858,31736],"id":"feature_048"},{"properties":{"name":"\u8fd1\u9244\u56db\u65e5\u5e02","line":"\u540d\u53e4\u5c4b\u7dda","riders":45694},"type":"Point","coordinates":[11549,72428],"id":"feature_049"},{"properties":{"name":"\u9577\u592a\u30ce\u6d66","line":"\u540d\u53e4\u5c4b\u7dda","riders":1341},"type":"Point","coordinates":[12335,56785],"id":"feature_050"},{"properties":{"name":"\u5343\u91cc","line":"\u540d\u53e4\u5c4b\u7dda","riders":2703},"type":"Point","coordinates":[5249,37502],"id":"feature_051"},{"properties":{"name":"\u7b95\u7530","line":"\u540d\u53e4\u5c4b\u7dda","riders":960},"type":"Point","coordinates":[11901,54316],"id":"feature_052"},{"properties":{"name":"\u9ad8\u7530\u672c\u5c71","line":"\u540d\u53e4\u5c4b\u7dda","riders":2093},"type":"Point","coordinates":[1226,28506],"id":"feature_053"},{"properties":{"name":"\u6d77\u5c71\u9053","line":"\u540d\u53e4\u5c4b\u7dda","riders":1613},"type":"Point","coordinates":[11993,67525],"id":"feature_054"},{"properties":{"name":"\u6960","line":"\u540d\u53e4\u5c4b\u7dda","riders":1693},"type":"Point","coordinates":[12822,59557],"id":"feature_055"},{"properties":{"name":"\u767d\u5b50","line":"\u540d\u53e4\u5c4b\u7dda","riders":14764},"type":"Point","coordinates":[8613,44831],"id":"feature_056"},{"properties":{"name":"\u5869\u6d5c","line":"\u540d\u53e4\u5c4b\u7dda","riders":7371},"type":"Point","coordinates":[11918,65414],"id":"feature_057"},{"properties":{"name":"\u65b0\u6b63","line":"\u540d\u53e4\u5c4b\u7dda","riders":2180},"type":"Point","coordinates":[11535,70233],"id":"feature_058"},{"properties":{"name":"\u6c5f\u6238\u6a4b","line":"\u540d\u53e4\u5c4b\u7dda","riders":8054},"type":"Point","coordinates":[988,26291],"id":"feature_059"},{"properties":{"name":"\u4f0a\u52e2\u82e5\u677e","line":"\u540d\u53e4\u5c4b\u7dda","riders":1999},"type":"Point","coordinates":[11369,52220],"id":"feature_060"},{"properties":{"name":"\u9f13\u30f6\u6d66","line":"\u540d\u53e4\u5c4b\u7dda","riders":1252},"type":"Point","coordinates":[7780,43241],"id":"feature_061"},{"properties":{"name":"\u78ef\u5c71","line":"\u540d\u53e4\u5c4b\u7dda","riders":1614},"type":"Point","coordinates":[6529,40433],"id":"feature_062"},{"properties":{"name":"\u8c4a\u6d25\u4e0a\u91ce","line":"\u540d\u53e4\u5c4b\u7dda","riders":1413},"type":"Point","coordinates":[3924,34753],"id":"feature_063"},{"properties":{"name":"\u5317\u6960","line":"\u540d\u53e4\u5c4b\u7dda","riders":1791},"type":"Point","coordinates":[12180,61923],"id":"feature_064"},{"properties":{"name":"\u5343\u4ee3\u5d0e","line":"\u540d\u53e4\u5c4b\u7dda","riders":2327},"type":"Point","coordinates":[10517,49183],"id":"feature_065"},{"properties":{"name":"\u6d25","line":"\u540d\u53e4\u5c4b\u7dda","riders":40579},"type":"Point","coordinates":[605,24212],"id":"feature_066"},{"properties":{"name":"\u5e73\u7530\u753a","line":"\u9234\u9e7f\u7dda","riders":5467},"type":"Point","coordinates":[3853,53389],"id":"feature_067"},{"properties":{"name":"\u9234\u9e7f\u5e02","line":"\u9234\u9e7f\u7dda","riders":3503},"type":"Point","coordinates":[7935,55208],"id":"feature_068"},{"properties":{"name":"\u4e09\u65e5\u5e02","line":"\u9234\u9e7f\u7dda","riders":1227},"type":"Point","coordinates":[5858,54447],"id":"feature_069"},{"properties":{"name":"\u67f3","line":"\u9234\u9e7f\u7dda","riders":261},"type":"Point","coordinates":[9265,52606],"id":"feature_070"},{"properties":{"name":"\u4fdd\u3005","line":"\u4e09\u5c90\u7dda","riders":1320},"type":"Point","coordinates":[6231,88973],"id":"feature_071"},{"properties":{"name":"\u5927\u5b89","line":"\u4e09\u5c90\u7dda","riders":860},"type":"Point","coordinates":[4194,98257],"id":"feature_072"},{"properties":{"name":"\u5317\u52e2\u4e2d\u592e\u516c\u5712\u53e3","line":"\u4e09\u5c90\u7dda","riders":682},"type":"Point","coordinates":[6244,91843],"id":"feature_073"},{"properties":{"name":"\u6885\u6238\u4e95","line":"\u4e09\u5c90\u7dda","riders":321},"type":"Point","coordinates":[5349,94839],"id":"feature_074"},{"properties":{"name":"\u6681\u5b66\u5712\u524d","line":"\u4e09\u5c90\u7dda","riders":3612},"type":"Point","coordinates":[10274,86081],"id":"feature_075"},{"properties":{"name":"\u5927\u77e2\u77e5","line":"\u4e09\u5c90\u7dda","riders":734},"type":"Point","coordinates":[13049,83867],"id":"feature_076"},{"properties":{"name":"\u5c71\u57ce","line":"\u4e09\u5c90\u7dda","riders":991},"type":"Point","coordinates":[8497,86589],"id":"feature_077"},{"properties":{"name":"\u5e73\u6d25","line":"\u4e09\u5c90\u7dda","riders":366},"type":"Point","coordinates":[11535,85173],"id":"feature_078"},{"properties":{"name":"\u5728\u826f","line":"\u5317\u52e2\u7dda","riders":319},"type":"Point","coordinates":[14071,91863],"id":"feature_079"},{"properties":{"name":"\u6771\u54e1","line":"\u5317\u52e2\u7dda","riders":945},"type":"Point","coordinates":[8366,95481],"id":"feature_080"},{"properties":{"name":"\u99ac\u9053","line":"\u5317\u52e2\u7dda","riders":905},"type":"Point","coordinates":[17391,91843],"id":"feature_081"},{"properties":{"name":"\u4e03\u548c","line":"\u5317\u52e2\u7dda","riders":639},"type":"Point","coordinates":[11238,93607],"id":"feature_082"},{"properties":{"name":"\u7a74\u592a","line":"\u5317\u52e2\u7dda","riders":689},"type":"Point","coordinates":[10214,94374],"id":"feature_083"},{"properties":{"name":"\u5927\u6cc9","line":"\u5317\u52e2\u7dda","riders":570},"type":"Point","coordinates":[6642,99014],"id":"feature_084"},{"properties":{"name":"\u897f\u5225\u6240","line":"\u5317\u52e2\u7dda","riders":286},"type":"Point","coordinates":[16304,91633],"id":"feature_085"},{"properties":{"name":"\u897f\u6851\u540d","line":"\u5317\u52e2\u7dda","riders":4567},"type":"Point","coordinates":[18137,92834],"id":"feature_086"},{"properties":{"name":"\u661f\u5ddd","line":"\u5317\u52e2\u7dda","riders":1550},"type":"Point","coordinates":[12738,92585],"id":"feature_087"},{"properties":{"name":"\u84ee\u82b1\u5bfa","line":"\u5317\u52e2\u7dda","riders":813},"type":"Point","coordinates":[14831,91619],"id":"feature_088"},{"properties":{"name":"\u30a2\u30b9\u30e2\u524d","line":"\u5929\u7adc\u6d5c\u540d\u6e56\u7dda","riders":58},"type":"Point","coordinates":[99999,22860],"id":"feature_089"},{"properties":{"name":"\u65b0\u6240\u539f","line":"\u5929\u7adc\u6d5c\u540d\u6e56\u7dda","riders":8256},"type":"Point","coordinates":[99017,21900],"id":"feature_090"},{"properties":{"name":"\u671d\u65e5","line":"\u95a2\u897f\u7dda","riders":1394},"type":"Point","coordinates":[15532,86270],"id":"feature_091"},{"properties":{"name":"\u5bcc\u7530\u6d5c","line":"\u95a2\u897f\u7dda","riders":431},"type":"Point","coordinates":[14733,78563],"id":"feature_092"},{"properties":{"name":"\u5bcc\u7530","line":"\u95a2\u897f\u7dda","riders":1589},"type":"Point","coordinates":[15043,80968],"id":"feature_093"},{"properties":{"name":"\u6851\u540d","line":"\u95a2\u897f\u7dda","riders":7124},"type":"Point","coordinates":[18132,93099],"id":"feature_094"},{"properties":{"name":"\u9577\u5cf6","line":"\u95a2\u897f\u7dda","riders":1140},"type":"Point","coordinates":[19336,99630],"id":"feature_095"},{"properties":{"name":"\u5357\u56db\u65e5\u5e02","line":"\u95a2\u897f\u7dda","riders":1430},"type":"Point","coordinates":[10642,67135],"id":"feature_096"},{"properties":{"name":"\u52a0\u4f50\u767b","line":"\u95a2\u897f\u7dda","riders":1263},"type":"Point","coordinates":[2601,56537],"id":"feature_097"},{"properties":{"name":"\u56db\u65e5\u5e02","line":"\u95a2\u897f\u7dda","riders":4571},"type":"Point","coordinates":[12692,71419],"id":"feature_098"},{"properties":{"name":"\u6cb3\u66f2","line":"\u95a2\u897f\u7dda","riders":644},"type":"Point","coordinates":[6445,58106],"id":"feature_099"},{"properties":{"name":"\u6cb3\u539f\u7530","line":"\u95a2\u897f\u7dda","riders":2115},"type":"Point","coordinates":[9546,60822],"id":"feature_100"},{"properties":{"name":"\u963f\u6f15","line":"\u7d00\u52e2\u7dda","riders":689},"type":"Point","coordinates":[27,17722],"id":"feature_101"},{"properties":{"name":"\u9ad8\u8336\u5c4b","line":"\u7d00\u52e2\u7dda","riders":1101},"type":"Point","coordinates":[847,10294],"id":"feature_102"},{"properties":{"name":"\u516d\u8ed2","line":"\u7d00\u52e2\u7dda","riders":241},"type":"Point","coordinates":[338,0],"id":"feature_103"},{"properties":{"name":"\u4e09\u6cb3\u5b89\u57ce","line":"\u6771\u6d77\u9053\u65b0\u5e79\u7dda","riders":3608},"type":"Point","coordinates":[56171,72855],"id":"feature_104"},{"properties":{"name":"\u8c4a\u6a4b","line":"\u6771\u6d77\u9053\u65b0\u5e79\u7dda","riders":11},"type":"Point","coordinates":[88582,30117],"id":"feature_105"},{"properties":{"name":"\u5927\u5e9c","line":"\u6771\u6d77\u9053\u7dda","riders":29513},"type":"Point","coordinates":[46221,81080],"id":"feature_106"},{"properties":{"name":"\u5208\u8c37","line":"\u6771\u6d77\u9053\u7dda","riders":73056},"type":"Point","coordinates":[51061,77369],"id":"feature_107"},{"properties":{"name":"\u6771\u5208\u8c37","line":"\u6771\u6d77\u9053\u7dda","riders":10974},"type":"Point","coordinates":[54487,74583],"id":"feature_108"},{"properties":{"name":"\u5171\u548c","line":"\u6771\u6d77\u9053\u7dda","riders":19596},"type":"Point","coordinates":[45492,86608],"id":"feature_109"},{"properties":{"name":"\u9022\u59bb","line":"\u6771\u6d77\u9053\u7dda","riders":4963},"type":"Point","coordinates":[49124,78912],"id":"feature_110"},{"properties":{"name":"\u7b20\u5bfa","line":"\u6771\u6d77\u9053\u7dda","riders":12555},"type":"Point","coordinates":[42628,99039],"id":"feature_111"},{"properties":{"name":"\u5927\u9ad8","line":"\u6771\u6d77\u9053\u7dda","riders":8536},"type":"Point","coordinates":[44047,93603],"id":"feature_112"},{"properties":{"name":"\u8c4a\u6a4b","line":"\u6771\u6d77\u9053\u7dda","riders":92851},"type":"Point","coordinates":[88736,29947],"id":"feature_113"},{"properties":{"name":"\u611b\u77e5\u5fa1\u6d25","line":"\u6771\u6d77\u9053\u7dda","riders":2750},"type":"Point","coordinates":[82060,40419],"id":"feature_114"},{"properties":{"name":"\u4e09\u6cb3\u5869\u6d25","line":"\u6771\u6d77\u9053\u7dda","riders":2824},"type":"Point","coordinates":[70435,43083],"id":"feature_115"},{"properties":{"name":"\u897f\u5ca1\u5d0e","line":"\u6771\u6d77\u9053\u7dda","riders":3797},"type":"Point","coordinates":[62520,68209],"id":"feature_116"},{"properties":{"name":"\u4e09\u6cb3\u4e09\u8c37","line":"\u6771\u6d77\u9053\u7dda","riders":3793},"type":"Point","coordinates":[75107,41661],"id":"feature_117"},{"properties":{"name":"\u4e09\u30f6\u6839","line":"\u6771\u6d77\u9053\u7dda","riders":2026},"type":"Point","coordinates":[67914,45364],"id":"feature_118"},{"properties":{"name":"\u4e09\u6cb3\u5927\u585a","line":"\u6771\u6d77\u9053\u7dda","riders":2714},"type":"Point","coordinates":[78663,41080],"id":"feature_119"},{"properties":{"name":"\u4e09\u6cb3\u5b89\u57ce","line":"\u6771\u6d77\u9053\u7dda","riders":12394},"type":"Point","coordinates":[56237,73156],"id":"feature_120"},{"properties":{"name":"\u5b89\u57ce","line":"\u6771\u6d77\u9053\u7dda","riders":23248},"type":"Point","coordinates":[58810,71075],"id":"feature_121"},{"properties":{"name":"\u897f\u5c0f\u5742\u4e95","line":"\u6771\u6d77\u9053\u7dda","riders":2357},"type":"Point","coordinates":[85711,37191],"id":"feature_122"},{"properties":{"name":"\u5e78\u7530","line":"\u6771\u6d77\u9053\u7dda","riders":8431},"type":"Point","coordinates":[66693,50178],"id":"feature_123"},{"properties":{"name":"\u84b2\u90e1","line":"\u6771\u6d77\u9053\u7dda","riders":15525},"type":"Point","coordinates":[73049,42525],"id":"feature_124"},{"properties":{"name":"\u4e8c\u5ddd","line":"\u6771\u6d77\u9053\u7dda","riders":6350},"type":"Point","coordinates":[94413,22427],"id":"feature_125"},{"properties":{"name":"\u5c0f\u5742\u4e95","line":"\u98ef\u7530\u7dda","riders":909},"type":"Point","coordinates":[86759,37313],"id":"feature_126"},{"properties":{"name":"\u4e0b\u5730","line":"\u98ef\u7530\u7dda","riders":447},"type":"Point","coordinates":[87518,33867],"id":"feature_127"},{"properties":{"name":"\u8239\u753a","line":"\u98ef\u7530\u7dda","riders":519},"type":"Point","coordinates":[87867,32779],"id":"feature_128"},{"properties":{"name":"\u91ce\u7530\u57ce","line":"\u98ef\u7530\u7dda","riders":804},"type":"Point","coordinates":[98354,56325],"id":"feature_129"},{"properties":{"name":"\u6771\u4e0a","line":"\u98ef\u7530\u7dda","riders":318},"type":"Point","coordinates":[96079,53601],"id":"feature_130"},{"properties":{"name":"\u65b0\u57ce","line":"\u98ef\u7530\u7dda","riders":1334},"type":"Point","coordinates":[99881,58765],"id":"feature_131"},{"properties":{"name":"\u4e09\u6cb3\u4e00\u5bae","line":"\u98ef\u7530\u7dda","riders":1558},"type":"Point","coordinates":[91961,47752],"id":"feature_132"},{"properties":{"name":"\u725b\u4e45\u4fdd","line":"\u98ef\u7530\u7dda","riders":1737},"type":"Point","coordinates":[88640,39587],"id":"feature_133"},{"properties":{"name":"\u8c4a\u5ddd","line":"\u98ef\u7530\u7dda","riders":6625},"type":"Point","coordinates":[90204,42486],"id":"feature_134"},{"properties":{"name":"\u6c5f\u5cf6","line":"\u98ef\u7530\u7dda","riders":131},"type":"Point","coordinates":[94684,51880],"id":"feature_135"},{"properties":{"name":"\u9577\u5c71","line":"\u98ef\u7530\u7dda","riders":408},"type":"Point","coordinates":[93653,51163],"id":"feature_136"},{"properties":{"name":"\u7dd2\u5ddd","line":"\u6b66\u8c4a\u7dda","riders":3792},"type":"Point","coordinates":[47241,75418],"id":"feature_137"},{"properties":{"name":"\u5c3e\u5f35\u68ee\u5ca1","line":"\u6b66\u8c4a\u7dda","riders":1286},"type":"Point","coordinates":[47096,78008],"id":"feature_138"},{"properties":{"name":"\u4e59\u5ddd","line":"\u6b66\u8c4a\u7dda","riders":2399},"type":"Point","coordinates":[44175,59240],"id":"feature_139"},{"properties":{"name":"\u534a\u7530","line":"\u6b66\u8c4a\u7dda","riders":3302},"type":"Point","coordinates":[43052,57322],"id":"feature_140"},{"properties":{"name":"\u4e80\u5d0e","line":"\u6b66\u8c4a\u7dda","riders":5564},"type":"Point","coordinates":[46150,62485],"id":"feature_141"},{"properties":{"name":"\u77f3\u6d5c","line":"\u6b66\u8c4a\u7dda","riders":2477},"type":"Point","coordinates":[47342,72615],"id":"feature_142"},{"properties":{"name":"\u6771\u6d66","line":"\u6b66\u8c4a\u7dda","riders":3794},"type":"Point","coordinates":[47120,68827],"id":"feature_143"},{"properties":{"name":"\u6771\u6210\u5ca9","line":"\u6b66\u8c4a\u7dda","riders":1188},"type":"Point","coordinates":[42351,53215],"id":"feature_144"},{"properties":{"name":"\u6b66\u8c4a","line":"\u6b66\u8c4a\u7dda","riders":1394},"type":"Point","coordinates":[42109,48855],"id":"feature_145"},{"properties":{"name":"\u6749\u5c71","line":"\u6e25\u7f8e\u7dda","riders":551},"type":"Point","coordinates":[82481,12995],"id":"feature_146"},{"properties":{"name":"\u5411\u30f6\u4e18","line":"\u6e25\u7f8e\u7dda","riders":701},"type":"Point","coordinates":[87220,18351],"id":"feature_147"},{"properties":{"name":"\u690d\u7530","line":"\u6e25\u7f8e\u7dda","riders":682},"type":"Point","coordinates":[87783,19354],"id":"feature_148"},{"properties":{"name":"\u67f3\u751f\u6a4b","line":"\u6e25\u7f8e\u7dda","riders":1320},"type":"Point","coordinates":[89334,28456],"id":"feature_149"},{"properties":{"name":"\u795e\u6238","line":"\u6e25\u7f8e\u7dda","riders":283},"type":"Point","coordinates":[78099,10441],"id":"feature_150"},{"properties":{"name":"\u3084\u3050\u307e\u53f0","line":"\u6e25\u7f8e\u7dda","riders":413},"type":"Point","coordinates":[81309,11644],"id":"feature_151"},{"properties":{"name":"\u5c0f\u6c60","line":"\u6e25\u7f8e\u7dda","riders":947},"type":"Point","coordinates":[89281,27214],"id":"feature_152"},{"properties":{"name":"\u5357\u6804","line":"\u6e25\u7f8e\u7dda","riders":3739},"type":"Point","coordinates":[89055,24452],"id":"feature_153"},{"properties":{"name":"\u8001\u6d25","line":"\u6e25\u7f8e\u7dda","riders":753},"type":"Point","coordinates":[83916,15465],"id":"feature_154"},{"properties":{"name":"\u611b\u77e5\u5927\u5b66\u524d","line":"\u6e25\u7f8e\u7dda","riders":6391},"type":"Point","coordinates":[89066,25723],"id":"feature_155"},{"properties":{"name":"\u4e09\u6cb3\u7530\u539f","line":"\u6e25\u7f8e\u7dda","riders":3115},"type":"Point","coordinates":[77255,10221],"id":"feature_156"},{"properties":{"name":"\u5927\u6e05\u6c34","line":"\u6e25\u7f8e\u7dda","riders":3075},"type":"Point","coordinates":[86330,16238],"id":"feature_157"},{"properties":{"name":"\u9ad8\u5e2b","line":"\u6e25\u7f8e\u7dda","riders":2984},"type":"Point","coordinates":[88640,22698],"id":"feature_158"},{"properties":{"name":"\u82a6\u539f","line":"\u6e25\u7f8e\u7dda","riders":730},"type":"Point","coordinates":[88481,20882],"id":"feature_159"},{"properties":{"name":"\u65b0\u8c4a\u6a4b","line":"\u6e25\u7f8e\u7dda","riders":18298},"type":"Point","coordinates":[88807,29986],"id":"feature_160"},{"properties":{"name":"\u8c4a\u5cf6","line":"\u6e25\u7f8e\u7dda","riders":471},"type":"Point","coordinates":[79748,10366],"id":"feature_161"},{"properties":{"name":"\u5e02\u5f79\u6240\u524d","line":"\u6771\u7530\u672c\u7dda","riders":871},"type":"Point","coordinates":[89785,31023],"id":"feature_162"},{"properties":{"name":"\u6771\u516b\u753a","line":"\u6771\u7530\u672c\u7dda","riders":724},"type":"Point","coordinates":[90559,30734],"id":"feature_163"},{"properties":{"name":"\u904b\u52d5\u516c\u5712\u524d","line":"\u6771\u7530\u672c\u7dda","riders":854},"type":"Point","coordinates":[92748,29209],"id":"feature_164"},{"properties":{"name":"\u99c5\u524d","line":"\u6771\u7530\u672c\u7dda","riders":6816},"type":"Point","coordinates":[88782,30270],"id":"feature_165"},{"properties":{"name":"\u524d\u7551","line":"\u6771\u7530\u672c\u7dda","riders":339},"type":"Point","coordinates":[90940,30710],"id":"feature_166"},{"properties":{"name":"\u99c5\u524d\u5927\u901a","line":"\u6771\u7530\u672c\u7dda","riders":503},"type":"Point","coordinates":[89078,30158],"id":"feature_167"},{"properties":{"name":"\u65b0\u5ddd","line":"\u6771\u7530\u672c\u7dda","riders":317},"type":"Point","coordinates":[89424,30121],"id":"feature_168"},{"properties":{"name":"\u8d64\u5ca9\u53e3","line":"\u6771\u7530\u672c\u7dda","riders":1378},"type":"Point","coordinates":[93428,30222],"id":"feature_169"},{"properties":{"name":"\u7af6\u8f2a\u5834\u524d","line":"\u6771\u7530\u672c\u7dda","riders":1030},"type":"Point","coordinates":[92232,30556],"id":"feature_170"},{"properties":{"name":"\u8c4a\u6a4b\u516c\u5712\u524d","line":"\u6771\u7530\u672c\u7dda","riders":283},"type":"Point","coordinates":[90068,30913],"id":"feature_171"},{"properties":{"name":"\u6771\u7530\u5742\u4e0a","line":"\u6771\u7530\u672c\u7dda","riders":1565},"type":"Point","coordinates":[91336,30705],"id":"feature_172"},{"properties":{"name":"\u672d\u6728","line":"\u6771\u7530\u672c\u7dda","riders":362},"type":"Point","coordinates":[89505,30446],"id":"feature_173"},{"properties":{"name":"\u6771\u7530","line":"\u6771\u7530\u672c\u7dda","riders":525},"type":"Point","coordinates":[91871,30618],"id":"feature_174"},{"properties":{"name":"\u4e95\u539f","line":"\u6771\u7530\u672c\u7dda","riders":1233},"type":"Point","coordinates":[92691,30384],"id":"feature_175"},{"properties":{"name":"\u540d\u53e4\u5c4b\u6e2f","line":"2\u53f7\u7dda\u540d\u6e2f\u7dda","riders":11243},"type":"Point","coordinates":[38151,98600],"id":"feature_176"},{"properties":{"name":"\u7bc9\u5730\u53e3","line":"2\u53f7\u7dda\u540d\u6e2f\u7dda","riders":10350},"type":"Point","coordinates":[38281,99999],"id":"feature_177"},{"properties":{"name":"\u592a\u7530\u5ddd","line":"\u6cb3\u548c\u7dda","riders":20593},"type":"Point","coordinates":[39228,83485],"id":"feature_178"},{"properties":{"name":"\u9ad8\u6a2a\u9808\u8cc0","line":"\u6cb3\u548c\u7dda","riders":3083},"type":"Point","coordinates":[39345,81277],"id":"feature_179"},{"properties":{"name":"\u5357\u52a0\u6728\u5c4b","line":"\u6cb3\u548c\u7dda","riders":8439},"type":"Point","coordinates":[40671,77052],"id":"feature_180"},{"properties":{"name":"\u5bcc\u8cb4","line":"\u6cb3\u548c\u7dda","riders":2513},"type":"Point","coordinates":[41671,43890],"id":"feature_181"},{"properties":{"name":"\u5742\u90e8","line":"\u6cb3\u548c\u7dda","riders":612},"type":"Point","coordinates":[41667,67038],"id":"feature_182"},{"properties":{"name":"\u6210\u5ca9","line":"\u6cb3\u548c\u7dda","riders":2167},"type":"Point","coordinates":[42184,55682],"id":"feature_183"},{"properties":{"name":"\u5dfd\u30f6\u4e18","line":"\u6cb3\u548c\u7dda","riders":6221},"type":"Point","coordinates":[41561,71458],"id":"feature_184"},{"properties":{"name":"\u9752\u5c71","line":"\u6cb3\u548c\u7dda","riders":7889},"type":"Point","coordinates":[41725,54136],"id":"feature_185"},{"properties":{"name":"\u963f\u4e45\u6bd4","line":"\u6cb3\u548c\u7dda","riders":6495},"type":"Point","coordinates":[41842,65033],"id":"feature_186"},{"properties":{"name":"\u77e5\u591a\u534a\u7530","line":"\u6cb3\u548c\u7dda","riders":11939},"type":"Point","coordinates":[42592,57297],"id":"feature_187"},{"properties":{"name":"\u690d\u5927","line":"\u6cb3\u548c\u7dda","riders":1480},"type":"Point","coordinates":[42347,62157],"id":"feature_188"},{"properties":{"name":"\u4f4f\u5409\u753a","line":"\u6cb3\u548c\u7dda","riders":6605},"type":"Point","coordinates":[42578,58979],"id":"feature_189"},{"properties":{"name":"\u534a\u7530\u53e3","line":"\u6cb3\u548c\u7dda","riders":1161},"type":"Point","coordinates":[42551,60428],"id":"feature_190"},{"properties":{"name":"\u77e5\u591a\u6b66\u8c4a","line":"\u6cb3\u548c\u7dda","riders":6260},"type":"Point","coordinates":[41650,48306],"id":"feature_191"},{"properties":{"name":"\u516b\u5e61\u65b0\u7530","line":"\u6cb3\u548c\u7dda","riders":2635},"type":"Point","coordinates":[41253,73840],"id":"feature_192"},{"properties":{"name":"\u6cb3\u548c\u53e3","line":"\u6cb3\u548c\u7dda","riders":567},"type":"Point","coordinates":[41895,37240],"id":"feature_193"},{"properties":{"name":"\u4e0a\u30b2","line":"\u6cb3\u548c\u7dda","riders":985},"type":"Point","coordinates":[41640,49904],"id":"feature_194"},{"properties":{"name":"\u6cb3\u548c","line":"\u6cb3\u548c\u7dda","riders":4119},"type":"Point","coordinates":[41217,33254],"id":"feature_195"},{"properties":{"name":"\u767d\u6ca2","line":"\u6cb3\u548c\u7dda","riders":493},"type":"Point","coordinates":[41532,69963],"id":"feature_196"},{"properties":{"name":"\u5409\u826f\u5409\u7530","line":"\u84b2\u90e1\u7dda","riders":2893},"type":"Point","coordinates":[57277,36625],"id":"feature_197"},{"properties":{"name":"\u897f\u6d66","line":"\u84b2\u90e1\u7dda","riders":776},"type":"Point","coordinates":[68132,35731],"id":"feature_198"},{"properties":{"name":"\u4e09\u6cb3\u9e7f\u5cf6","line":"\u84b2\u90e1\u7dda","riders":646},"type":"Point","coordinates":[69243,40570],"id":"feature_199"},{"properties":{"name":"\u5f62\u539f","line":"\u84b2\u90e1\u7dda","riders":921},"type":"Point","coordinates":[68730,37481],"id":"feature_200"},{"properties":{"name":"\u84b2\u90e1","line":"\u84b2\u90e1\u7dda","riders":2620},"type":"Point","coordinates":[72877,42532],"id":"feature_201"},{"properties":{"name":"\u6771\u5e61\u8c46","line":"\u84b2\u90e1\u7dda","riders":382},"type":"Point","coordinates":[64821,35644],"id":"feature_202"},{"properties":{"name":"\u4e09\u6cb3\u9ce5\u7fbd","line":"\u84b2\u90e1\u7dda","riders":362},"type":"Point","coordinates":[60692,36424],"id":"feature_203"},{"properties":{"name":"\u84b2\u90e1\u7af6\u8247\u5834\u524d","line":"\u84b2\u90e1\u7dda","riders":318},"type":"Point","coordinates":[70497,43083],"id":"feature_204"},{"properties":{"name":"\u897f\u5e61\u8c46","line":"\u84b2\u90e1\u7dda","riders":604},"type":"Point","coordinates":[62338,36252],"id":"feature_205"},{"properties":{"name":"\u3053\u3069\u3082\u306e\u56fd","line":"\u84b2\u90e1\u7dda","riders":153},"type":"Point","coordinates":[66519,35447],"id":"feature_206"},{"properties":{"name":"\u5e38\u6ed1","line":"\u7a7a\u6e2f\u7dda","riders":11715},"type":"Point","coordinates":[33423,56713],"id":"feature_207"},{"properties":{"name":"\u308a\u3093\u304f\u3046\u5e38\u6ed1","line":"\u7a7a\u6e2f\u7dda","riders":2280},"type":"Point","coordinates":[32715,54318],"id":"feature_208"},{"properties":{"name":"\u4e2d\u90e8\u56fd\u969b\u7a7a\u6e2f","line":"\u7a7a\u6e2f\u7dda","riders":29863},"type":"Point","coordinates":[31491,50230],"id":"feature_209"},{"properties":{"name":"\u6885\u576a","line":"\u4e09\u6cb3\u7dda","riders":6674},"type":"Point","coordinates":[66473,99941],"id":"feature_210"},{"properties":{"name":"\u82e5\u6797","line":"\u4e09\u6cb3\u7dda","riders":6224},"type":"Point","coordinates":[59761,84731],"id":"feature_211"},{"properties":{"name":"\u4e09\u6cb3\u77e5\u7acb","line":"\u4e09\u6cb3\u7dda","riders":895},"type":"Point","coordinates":[54656,80106],"id":"feature_212"},{"properties":{"name":"\u8c4a\u7530\u5e02","line":"\u4e09\u6cb3\u7dda","riders":36470},"type":"Point","coordinates":[65863,97368],"id":"feature_213"},{"properties":{"name":"\u7af9\u6751","line":"\u4e09\u6cb3\u7dda","riders":3341},"type":"Point","coordinates":[61672,87586],"id":"feature_214"},{"properties":{"name":"\u5208\u8c37\u5e02","line":"\u4e09\u6cb3\u7dda","riders":6558},"type":"Point","coordinates":[49468,76100],"id":"feature_215"},{"properties":{"name":"\u571f\u6a4b","line":"\u4e09\u6cb3\u7dda","riders":8443},"type":"Point","coordinates":[63158,91349],"id":"feature_216"},{"properties":{"name":"\u91cd\u539f","line":"\u4e09\u6cb3\u7dda","riders":1862},"type":"Point","coordinates":[52482,78194],"id":"feature_217"},{"properties":{"name":"\u5208\u8c37","line":"\u4e09\u6cb3\u7dda","riders":28655},"type":"Point","coordinates":[51017,77313],"id":"feature_218"},{"properties":{"name":"\u4e09\u6cb3\u516b\u6a4b","line":"\u4e09\u6cb3\u7dda","riders":3391},"type":"Point","coordinates":[57882,81545],"id":"feature_219"},{"properties":{"name":"\u4e0a\u6319\u6bcd","line":"\u4e09\u6cb3\u7dda","riders":4792},"type":"Point","coordinates":[65704,94188],"id":"feature_220"},{"properties":{"name":"\u77e5\u7acb","line":"\u4e09\u6cb3\u7dda","riders":33768},"type":"Point","coordinates":[54087,80568],"id":"feature_221"},{"properties":{"name":"\u5409\u6d5c","line":"\u4e09\u6cb3\u7dda","riders":3208},"type":"Point","coordinates":[49013,68228],"id":"feature_222"},{"properties":{"name":"\u78a7\u5357\u4e2d\u592e","line":"\u4e09\u6cb3\u7dda","riders":4643},"type":"Point","coordinates":[49013,55913],"id":"feature_223"},{"properties":{"name":"\u78a7\u5357","line":"\u4e09\u6cb3\u7dda","riders":4031},"type":"Point","coordinates":[48627,53155],"id":"feature_224"},{"properties":{"name":"\u5317\u65b0\u5ddd","line":"\u4e09\u6cb3\u7dda","riders":3246},"type":"Point","coordinates":[49320,59781],"id":"feature_225"},{"properties":{"name":"\u9ad8\u6d5c\u6e2f","line":"\u4e09\u6cb3\u7dda","riders":2596},"type":"Point","coordinates":[49007,63007],"id":"feature_226"},{"properties":{"name":"\u65b0\u5ddd\u753a","line":"\u4e09\u6cb3\u7dda","riders":1301},"type":"Point","coordinates":[49101,57841],"id":"feature_227"},{"properties":{"name":"\u5c0f\u57a3\u6c5f","line":"\u4e09\u6cb3\u7dda","riders":3846},"type":"Point","coordinates":[49627,71788],"id":"feature_228"},{"properties":{"name":"\u4e09\u6cb3\u9ad8\u6d5c","line":"\u4e09\u6cb3\u7dda","riders":4405},"type":"Point","coordinates":[49066,64923],"id":"feature_229"},{"properties":{"name":"\u5927\u6c5f","line":"\u5e38\u6ed1\u7dda","riders":5728},"type":"Point","coordinates":[41271,98620],"id":"feature_230"},{"properties":{"name":"\u671d\u5009","line":"\u5e38\u6ed1\u7dda","riders":7171},"type":"Point","coordinates":[36286,78003],"id":"feature_231"},{"properties":{"name":"\u5c3e\u5f35\u6a2a\u9808\u8cc0","line":"\u5e38\u6ed1\u7dda","riders":5505},"type":"Point","coordinates":[38518,81354],"id":"feature_232"},{"properties":{"name":"\u65b0\u65e5\u9244\u524d","line":"\u5e38\u6ed1\u7dda","riders":2080},"type":"Point","coordinates":[39927,86562],"id":"feature_233"},{"properties":{"name":"\u67f4\u7530","line":"\u5e38\u6ed1\u7dda","riders":4541},"type":"Point","coordinates":[40895,94374],"id":"feature_234"},{"properties":{"name":"\u9577\u6d66","line":"\u5e38\u6ed1\u7dda","riders":1014},"type":"Point","coordinates":[34706,74798],"id":"feature_235"},{"properties":{"name":"\u5927\u540c\u753a","line":"\u5e38\u6ed1\u7dda","riders":13614},"type":"Point","coordinates":[40923,95917],"id":"feature_236"},{"properties":{"name":"\u540d\u548c","line":"\u5e38\u6ed1\u7dda","riders":5706},"type":"Point","coordinates":[41159,91907],"id":"feature_237"},{"properties":{"name":"\u805a\u697d\u5712","line":"\u5e38\u6ed1\u7dda","riders":6671},"type":"Point","coordinates":[40287,88154],"id":"feature_238"},{"properties":{"name":"\u5bfa\u672c","line":"\u5e38\u6ed1\u7dda","riders":3939},"type":"Point","coordinates":[37497,79318],"id":"feature_239"},{"properties":{"name":"\u53e4\u898b","line":"\u5e38\u6ed1\u7dda","riders":3419},"type":"Point","coordinates":[35611,76735],"id":"feature_240"},{"properties":{"name":"\u84b2\u6c60","line":"\u5e38\u6ed1\u7dda","riders":1143},"type":"Point","coordinates":[32468,61712],"id":"feature_241"},{"properties":{"name":"\u65e5\u9577","line":"\u5e38\u6ed1\u7dda","riders":453},"type":"Point","coordinates":[33126,71327],"id":"feature_242"},{"properties":{"name":"\u591a\u5c4b","line":"\u5e38\u6ed1\u7dda","riders":1252},"type":"Point","coordinates":[32977,57926],"id":"feature_243"},{"properties":{"name":"\u897f\u30ce\u53e3","line":"\u5e38\u6ed1\u7dda","riders":994},"type":"Point","coordinates":[32580,63644],"id":"feature_244"},{"properties":{"name":"\u698e\u6238","line":"\u5e38\u6ed1\u7dda","riders":1758},"type":"Point","coordinates":[32725,59570],"id":"feature_245"},{"properties":{"name":"\u5927\u91ce\u753a","line":"\u5e38\u6ed1\u7dda","riders":2389},"type":"Point","coordinates":[32655,65889],"id":"feature_246"},{"properties":{"name":"\u65b0\u821e\u5b50","line":"\u5e38\u6ed1\u7dda","riders":5992},"type":"Point","coordinates":[32766,68854],"id":"feature_247"},{"properties":{"name":"\u65b0\u5b89\u57ce","line":"\u897f\u5c3e\u7dda","riders":24413},"type":"Point","coordinates":[58718,76560],"id":"feature_248"},{"properties":{"name":"\u897f\u5c3e\u53e3","line":"\u897f\u5c3e\u7dda","riders":615},"type":"Point","coordinates":[56414,52477],"id":"feature_249"},{"properties":{"name":"\u685c\u4e95","line":"\u897f\u5c3e\u7dda","riders":5114},"type":"Point","coordinates":[59007,62176],"id":"feature_250"},{"properties":{"name":"\u4e0a\u6a2a\u9808\u8cc0","line":"\u897f\u5c3e\u7dda","riders":1294},"type":"Point","coordinates":[57367,44055],"id":"feature_251"},{"properties":{"name":"\u5800\u5185\u516c\u5712","line":"\u897f\u5c3e\u7dda","riders":520},"type":"Point","coordinates":[59136,64270],"id":"feature_252"},{"properties":{"name":"\u5317\u5b89\u57ce","line":"\u897f\u5c3e\u7dda","riders":1498},"type":"Point","coordinates":[59388,71947],"id":"feature_253"},{"properties":{"name":"\u798f\u5730","line":"\u897f\u5c3e\u7dda","riders":1337},"type":"Point","coordinates":[54984,47076],"id":"feature_254"},{"properties":{"name":"\u685c\u753a\u524d","line":"\u897f\u5c3e\u7dda","riders":3613},"type":"Point","coordinates":[56388,54447],"id":"feature_255"},{"properties":{"name":"\u5357\u5b89\u57ce","line":"\u897f\u5c3e\u7dda","riders":5115},"type":"Point","coordinates":[59434,69306],"id":"feature_256"},{"properties":{"name":"\u78a7\u6d77\u53e4\u4e95","line":"\u897f\u5c3e\u7dda","riders":1260},"type":"Point","coordinates":[59256,66256],"id":"feature_257"},{"properties":{"name":"\u897f\u5c3e","line":"\u897f\u5c3e\u7dda","riders":10487},"type":"Point","coordinates":[55923,51063],"id":"feature_258"},{"properties":{"name":"\u7c73\u6d25","line":"\u897f\u5c3e\u7dda","riders":1964},"type":"Point","coordinates":[56250,57061],"id":"feature_259"},{"properties":{"name":"\u7f8e\u6d5c\u7dd1\u82d1","line":"\u77e5\u591a\u65b0\u7dda","riders":436},"type":"Point","coordinates":[36250,37871],"id":"feature_260"},{"properties":{"name":"\u77e5\u591a\u5965\u7530","line":"\u77e5\u591a\u65b0\u7dda","riders":5559},"type":"Point","coordinates":[36391,35155],"id":"feature_261"},{"properties":{"name":"\u4e0a\u91ce\u9593","line":"\u77e5\u591a\u65b0\u7dda","riders":632},"type":"Point","coordinates":[36625,39318],"id":"feature_262"},{"properties":{"name":"\u91ce\u9593","line":"\u77e5\u591a\u65b0\u7dda","riders":641},"type":"Point","coordinates":[36013,32068],"id":"feature_263"},{"properties":{"name":"\u5185\u6d77","line":"\u77e5\u591a\u65b0\u7dda","riders":1319},"type":"Point","coordinates":[37478,26343],"id":"feature_264"},{"properties":{"name":"\u6771\u540d\u53e4\u5c4b\u6e2f","line":"\u7bc9\u6e2f\u7dda","riders":5386},"type":"Point","coordinates":[39895,97747],"id":"feature_265"},{"properties":{"name":"\u8c4a\u5ddd\u7a32\u8377","line":"\u8c4a\u5ddd\u7dda","riders":5239},"type":"Point","coordinates":[90078,42324],"id":"feature_266"},{"properties":{"name":"\u8acf\u8a2a\u753a","line":"\u8c4a\u5ddd\u7dda","riders":4571},"type":"Point","coordinates":[87500,42691],"id":"feature_267"},{"properties":{"name":"\u516b\u5e61","line":"\u8c4a\u5ddd\u7dda","riders":2294},"type":"Point","coordinates":[85640,43842],"id":"feature_268"},{"properties":{"name":"\u56fd\u5e9c","line":"\u8c4a\u5ddd\u7dda","riders":10321},"type":"Point","coordinates":[83227,45575],"id":"feature_269"},{"properties":{"name":"\u7a32\u8377\u53e3","line":"\u8c4a\u5ddd\u7dda","riders":1025},"type":"Point","coordinates":[89248,41630],"id":"feature_270"},{"properties":{"name":"\u725b\u7530","line":"\u540d\u53e4\u5c4b\u672c\u7dda","riders":4300},"type":"Point","coordinates":[56230,79127],"id":"feature_271"},{"properties":{"name":"\u5de6\u4eac\u5c71","line":"\u540d\u53e4\u5c4b\u672c\u7dda","riders":4753},"type":"Point","coordinates":[46078,93897],"id":"feature_272"},{"properties":{"name":"\u8c4a\u660e","line":"\u540d\u53e4\u5c4b\u672c\u7dda","riders":5144},"type":"Point","coordinates":[50912,87804],"id":"feature_273"},{"properties":{"name":"\u6709\u677e","line":"\u540d\u53e4\u5c4b\u672c\u7dda","riders":14999},"type":"Point","coordinates":[47160,93311],"id":"feature_274"},{"properties":{"name":"\u4e2d\u4eac\u7af6\u99ac\u5834\u524d","line":"\u540d\u53e4\u5c4b\u672c\u7dda","riders":9750},"type":"Point","coordinates":[48149,92027],"id":"feature_275"},{"properties":{"name":"\u4e00\u30c4\u6728","line":"\u540d\u53e4\u5c4b\u672c\u7dda","riders":3762},"type":"Point","coordinates":[52652,82096],"id":"feature_276"},{"properties":{"name":"\u5bcc\u58eb\u677e","line":"\u540d\u53e4\u5c4b\u672c\u7dda","riders":3478},"type":"Point","coordinates":[51741,85457],"id":"feature_277"},{"properties":{"name":"\u524d\u5f8c","line":"\u540d\u53e4\u5c4b\u672c\u7dda","riders":21465},"type":"Point","coordinates":[49668,90074],"id":"feature_278"},{"properties":{"name":"\u672c\u7b20\u5bfa","line":"\u540d\u53e4\u5c4b\u672c\u7dda","riders":4707},"type":"Point","coordinates":[43356,99819],"id":"feature_279"},{"properties":{"name":"\u9cf4\u6d77","line":"\u540d\u53e4\u5c4b\u672c\u7dda","riders":19299},"type":"Point","coordinates":[45149,95537],"id":"feature_280"},{"properties":{"name":"\u672c\u661f\u5d0e","line":"\u540d\u53e4\u5c4b\u672c\u7dda","riders":4446},"type":"Point","coordinates":[43749,97412],"id":"feature_281"},{"properties":{"name":"\u7537\u5ddd","line":"\u540d\u53e4\u5c4b\u672c\u7dda","riders":4546},"type":"Point","coordinates":[68602,66306],"id":"feature_282"},{"properties":{"name":"\u540d\u96fb\u5c71\u4e2d","line":"\u540d\u53e4\u5c4b\u672c\u7dda","riders":914},"type":"Point","coordinates":[74595,58444],"id":"feature_283"},{"properties":{"name":"\u6771\u5ca1\u5d0e","line":"\u540d\u53e4\u5c4b\u672c\u7dda","riders":39249},"type":"Point","coordinates":[66995,69331],"id":"feature_284"},{"properties":{"name":"\u4f0a\u5948","line":"\u540d\u53e4\u5c4b\u672c\u7dda","riders":3354},"type":"Point","coordinates":[85919,38402],"id":"feature_285"},{"properties":{"name":"\u540d\u96fb\u9577\u6ca2","line":"\u540d\u53e4\u5c4b\u672c\u7dda","riders":678},"type":"Point","coordinates":[79212,52628],"id":"feature_286"},{"properties":{"name":"\u5fa1\u6cb9","line":"\u540d\u53e4\u5c4b\u672c\u7dda","riders":633},"type":"Point","coordinates":[82557,47360],"id":"feature_287"},{"properties":{"name":"\u5ca1\u5d0e\u516c\u5712\u524d","line":"\u540d\u53e4\u5c4b\u672c\u7dda","riders":4970},"type":"Point","coordinates":[65583,69928],"id":"feature_288"},{"properties":{"name":"\u7f8e\u5408","line":"\u540d\u53e4\u5c4b\u672c\u7dda","riders":7441},"type":"Point","coordinates":[69913,63457],"id":"feature_289"},{"properties":{"name":"\u672c\u5bbf","line":"\u540d\u53e4\u5c4b\u672c\u7dda","riders":6435},"type":"Point","coordinates":[76341,57078],"id":"feature_290"},{"properties":{"name":"\u85e4\u5ddd","line":"\u540d\u53e4\u5c4b\u672c\u7dda","riders":6576},"type":"Point","coordinates":[72159,61289],"id":"feature_291"},{"properties":{"name":"\u5b87\u982d","line":"\u540d\u53e4\u5c4b\u672c\u7dda","riders":3454},"type":"Point","coordinates":[62011,73330],"id":"feature_292"},{"properties":{"name":"\u77e2\u4f5c\u6a4b","line":"\u540d\u53e4\u5c4b\u672c\u7dda","riders":7068},"type":"Point","coordinates":[64219,71205],"id":"feature_293"},{"properties":{"name":"\u5c0f\u7530\u6e15","line":"\u540d\u53e4\u5c4b\u672c\u7dda","riders":546},"type":"Point","coordinates":[84993,40871],"id":"feature_294"},{"properties":{"name":"\u540d\u96fb\u8d64\u5742","line":"\u540d\u53e4\u5c4b\u672c\u7dda","riders":1065},"type":"Point","coordinates":[81510,50118],"id":"feature_295"},{"properties":{"name":"\u7a32\u6c38","line":"\u897f\u540d\u53e4\u5c4b\u6e2f\u7dda","riders":5400},"type":"Point","coordinates":[36277,98249],"id":"feature_296"},{"properties":{"name":"\u91ce\u8de1","line":"\u897f\u540d\u53e4\u5c4b\u6e2f\u7dda","riders":2100},"type":"Point","coordinates":[35351,94892],"id":"feature_297"},{"properties":{"name":"\u91d1\u57ce\u3075\u982d","line":"\u897f\u540d\u53e4\u5c4b\u6e2f\u7dda","riders":8500},"type":"Point","coordinates":[34851,89411],"id":"feature_298"},{"properties":{"name":"\u91ce\u7530\u65b0\u753a","line":"\u6771\u6d77\u9053\u7dda","riders":5305},"type":"Point","coordinates":[52926,75856],"id":"feature_299"},{"properties":{"name":"\u5357\u5927\u9ad8","line":"\u6771\u6d77\u9053\u7dda","riders":13528},"type":"Point","coordinates":[44900,90566],"id":"feature_300"},{"properties":{"name":"\u5357\u685c\u4e95","line":"\u897f\u5c3e\u7dda","riders":6391},"type":"Point","coordinates":[57852,59790],"id":"feature_301"},{"properties":{"name":"\u795e\u6ca2","line":"6\u53f7\u7dda\u685c\u901a\u7dda","riders":6514},"type":"Point","coordinates":[49009,99725],"id":"feature_302"},{"properties":{"name":"\u5fb3\u91cd","line":"6\u53f7\u7dda\u685c\u901a\u7dda","riders":20854},"type":"Point","coordinates":[49840,98950],"id":"feature_303"},{"properties":{"name":"\u64ad\u78e8","line":"\u990a\u8001\u7dda","riders":531},"type":"Point","coordinates":[17211,95504],"id":"feature_304"},{"properties":{"name":"\u4e0b\u6df1\u8c37","line":"\u990a\u8001\u7dda","riders":1042},"type":"Point","coordinates":[15891,99192],"id":"feature_305"},{"properties":{"name":"\u76f8\u898b","line":"\u6771\u6d77\u9053\u7dda","riders":3261},"type":"Point","coordinates":[66270,56064],"id":"feature_306"}],"type":"GeometryCollection"}},"bbox":[136.50424,34.61763,137.49417,35.09995],"transform":{"scale":[9.89939899398981e-06,4.823248232482339e-06],"translate":[136.50424,34.61763]},"arcs":[]}