{"type":"Topology","objects":{"data":{"geometries":[{"properties":{"name":"\u76db\u5ca1","line":"\u3044\u308f\u3066\u9280\u6cb3\u9244\u9053\u7dda","riders":36880},"type":"Point","coordinates":[62645,58314],"id":"feature_000"},{"properties":{"name":"\u5fa1\u5802","line":"\u3044\u308f\u3066\u9280\u6cb3\u9244\u9053\u7dda","riders":58},"type":"Point","coordinates":[67135,76134],"id":"feature_001"},{"properties":{"name":"\u5c0f\u9ce5\u8c37","line":"\u3044\u308f\u3066\u9280\u6cb3\u9244\u9053\u7dda","riders":151},"type":"Point","coordinates":[70287,85935],"id":"feature_002"},{"properties":{"name":"\u6e0b\u6c11","line":"\u3044\u308f\u3066\u9280\u6cb3\u9244\u9053\u7dda","riders":715},"type":"Point","coordinates":[63441,66164],"id":"feature_003"},{"properties":{"name":"\u3044\u308f\u3066\u6cbc\u5bae\u5185","line":"\u3044\u308f\u3066\u9280\u6cb3\u9244\u9053\u7dda","riders":989},"type":"Point","coordinates":[66244,73561],"id":"feature_004"},{"properties":{"name":"\u53a8\u5ddd","line":"\u3044\u308f\u3066\u9280\u6cb3\u9244\u9053\u7dda","riders":3209},"type":"Point","coordinates":[62310,60835],"id":"feature_005"},{"properties":{"name":"\u5ca9\u624b\u5ddd\u53e3","line":"\u3044\u308f\u3066\u9280\u6cb3\u9244\u9053\u7dda","riders":299},"type":"Point","coordinates":[65454,71135],"id":"feature_006"},{"properties":{"name":"\u6edd\u6ca2","line":"\u3044\u308f\u3066\u9280\u6cb3\u9244\u9053\u7dda","riders":3162},"type":"Point","coordinates":[63233,64063],"id":"feature_007"},{"properties":{"name":"\u5c0f\u7e4b","line":"\u3044\u308f\u3066\u9280\u6cb3\u9244\u9053\u7dda","riders":37},"type":"Point","coordinates":[68177,83114],"id":"feature_008"},{"properties":{"name":"\u5965\u4e2d\u5c71\u9ad8\u539f","line":"\u3044\u308f\u3066\u9280\u6cb3\u9244\u9053\u7dda","riders":377},"type":"Point","coordinates":[66753,79766],"id":"feature_009"},{"properties":{"name":"\u597d\u6469","line":"\u3044\u308f\u3066\u9280\u6cb3\u9244\u9053\u7dda","riders":2126},"type":"Point","coordinates":[64309,68481],"id":"feature_010"},{"properties":{"name":"\u9752\u5c71","line":"\u3044\u308f\u3066\u9280\u6cb3\u9244\u9053\u7dda","riders":3449},"type":"Point","coordinates":[61839,59693],"id":"feature_011"},{"properties":{"name":"\u5de3\u5b50","line":"\u3044\u308f\u3066\u9280\u6cb3\u9244\u9053\u7dda","riders":1031},"type":"Point","coordinates":[63193,63148],"id":"feature_012"},{"properties":{"name":"\u5510\u4e39","line":"\u30ea\u30a2\u30b9\u7dda","riders":28},"type":"Point","coordinates":[94967,28965],"id":"feature_013"},{"properties":{"name":"\u9678\u524d\u8d64\u5d0e","line":"\u30ea\u30a2\u30b9\u7dda","riders":12},"type":"Point","coordinates":[89610,21128],"id":"feature_014"},{"properties":{"name":"\u5409\u6d5c","line":"\u30ea\u30a2\u30b9\u7dda","riders":100},"type":"Point","coordinates":[93863,25985],"id":"feature_015"},{"properties":{"name":"\u604b\u3057\u6d5c","line":"\u30ea\u30a2\u30b9\u7dda","riders":12},"type":"Point","coordinates":[92952,21465],"id":"feature_016"},{"properties":{"name":"\u752b\u5dba","line":"\u30ea\u30a2\u30b9\u7dda","riders":23},"type":"Point","coordinates":[92537,22582],"id":"feature_017"},{"properties":{"name":"\u7dbe\u91cc","line":"\u30ea\u30a2\u30b9\u7dda","riders":116},"type":"Point","coordinates":[92209,20285],"id":"feature_018"},{"properties":{"name":"\u5e73\u7530","line":"\u30ea\u30a2\u30b9\u7dda","riders":19},"type":"Point","coordinates":[96073,31543],"id":"feature_019"},{"properties":{"name":"\u4e09\u9678","line":"\u30ea\u30a2\u30b9\u7dda","riders":51},"type":"Point","coordinates":[92683,23992],"id":"feature_020"},{"properties":{"name":"\u76db","line":"\u30ea\u30a2\u30b9\u7dda","riders":656},"type":"Point","coordinates":[88265,22129],"id":"feature_021"},{"properties":{"name":"\u91dc\u77f3","line":"\u30ea\u30a2\u30b9\u7dda","riders":886},"type":"Point","coordinates":[95482,33164],"id":"feature_022"},{"properties":{"name":"\u6442\u5f85","line":"\u30ea\u30a2\u30b9\u7dda","riders":21},"type":"Point","coordinates":[99469,64679],"id":"feature_023"},{"properties":{"name":"\u4e00\u306e\u6e21","line":"\u30ea\u30a2\u30b9\u7dda","riders":12},"type":"Point","coordinates":[98600,57472],"id":"feature_024"},{"properties":{"name":"\u4f50\u7fbd\u6839","line":"\u30ea\u30a2\u30b9\u7dda","riders":12},"type":"Point","coordinates":[98298,58899],"id":"feature_025"},{"properties":{"name":"\u9678\u4e2d\u5b87\u90e8","line":"\u30ea\u30a2\u30b9\u7dda","riders":323},"type":"Point","coordinates":[91611,83661],"id":"feature_026"},{"properties":{"name":"\u666e\u4ee3","line":"\u30ea\u30a2\u30b9\u7dda","riders":240},"type":"Point","coordinates":[96086,76036],"id":"feature_027"},{"properties":{"name":"\u767d\u4e95\u6d77\u5cb8","line":"\u30ea\u30a2\u30b9\u7dda","riders":12},"type":"Point","coordinates":[95950,77792],"id":"feature_028"},{"properties":{"name":"\u5ca9\u6cc9\u5c0f\u672c","line":"\u30ea\u30a2\u30b9\u7dda","riders":227},"type":"Point","coordinates":[99304,66635],"id":"feature_029"},{"properties":{"name":"\u5800\u5185","line":"\u30ea\u30a2\u30b9\u7dda","riders":41},"type":"Point","coordinates":[94891,78928],"id":"feature_030"},{"properties":{"name":"\u7530\u8001","line":"\u30ea\u30a2\u30b9\u7dda","riders":143},"type":"Point","coordinates":[99580,60116],"id":"feature_031"},{"properties":{"name":"\u5bae\u53e4","line":"\u30ea\u30a2\u30b9\u7dda","riders":1022},"type":"Point","coordinates":[98809,54712],"id":"feature_032"},{"properties":{"name":"\u91ce\u7530\u7389\u5ddd","line":"\u30ea\u30a2\u30b9\u7dda","riders":27},"type":"Point","coordinates":[93527,80741],"id":"feature_033"},{"properties":{"name":"\u7530\u91ce\u7551","line":"\u30ea\u30a2\u30b9\u7dda","riders":215},"type":"Point","coordinates":[98204,72014],"id":"feature_034"},{"properties":{"name":"\u4e45\u6148","line":"\u30ea\u30a2\u30b9\u7dda","riders":889},"type":"Point","coordinates":[90938,87075],"id":"feature_035"},{"properties":{"name":"\u9678\u4e2d\u91ce\u7530","line":"\u30ea\u30a2\u30b9\u7dda","riders":458},"type":"Point","coordinates":[93089,82700],"id":"feature_036"},{"properties":{"name":"\u5cf6\u8d8a","line":"\u30ea\u30a2\u30b9\u7dda","riders":63},"type":"Point","coordinates":[98466,70924],"id":"feature_037"},{"properties":{"name":"\u7c73\u5185\u6ca2","line":"\u79cb\u7530\u5185\u9678\u7dda","riders":152},"type":"Point","coordinates":[28622,83426],"id":"feature_038"},{"properties":{"name":"\u7fbd\u5f8c\u4e2d\u91cc","line":"\u79cb\u7530\u5185\u9678\u7dda","riders":12},"type":"Point","coordinates":[38850,62426],"id":"feature_039"},{"properties":{"name":"\u4e0a\u6749","line":"\u79cb\u7530\u5185\u9678\u7dda","riders":21},"type":"Point","coordinates":[27568,84482],"id":"feature_040"},{"properties":{"name":"\u6bd4\u7acb\u5185","line":"\u79cb\u7530\u5185\u9678\u7dda","riders":36},"type":"Point","coordinates":[32180,70293],"id":"feature_041"},{"properties":{"name":"\u524d\u7530\u5357","line":"\u79cb\u7530\u5185\u9678\u7dda","riders":14},"type":"Point","coordinates":[29918,78848],"id":"feature_042"},{"properties":{"name":"\u6842\u702c","line":"\u79cb\u7530\u5185\u9678\u7dda","riders":31},"type":"Point","coordinates":[30602,81839],"id":"feature_043"},{"properties":{"name":"\u7b11\u5185","line":"\u79cb\u7530\u5185\u9678\u7dda","riders":12},"type":"Point","coordinates":[30393,72061],"id":"feature_044"},{"properties":{"name":"\u6238\u6ca2","line":"\u79cb\u7530\u5185\u9678\u7dda","riders":12},"type":"Point","coordinates":[37889,67594],"id":"feature_045"},{"properties":{"name":"\u897f\u660e\u5bfa","line":"\u79cb\u7530\u5185\u9678\u7dda","riders":18},"type":"Point","coordinates":[37079,55492],"id":"feature_046"},{"properties":{"name":"\u5de6\u901a","line":"\u79cb\u7530\u5185\u9678\u7dda","riders":12},"type":"Point","coordinates":[38108,64234],"id":"feature_047"},{"properties":{"name":"\u7fbd\u5f8c\u592a\u7530","line":"\u79cb\u7530\u5185\u9678\u7dda","riders":12},"type":"Point","coordinates":[37578,53971],"id":"feature_048"},{"properties":{"name":"\u516b\u6d25","line":"\u79cb\u7530\u5185\u9678\u7dda","riders":12},"type":"Point","coordinates":[36623,57525],"id":"feature_049"},{"properties":{"name":"\u8352\u702c","line":"\u79cb\u7530\u5185\u9678\u7dda","riders":17},"type":"Point","coordinates":[29915,74704],"id":"feature_050"},{"properties":{"name":"\u963f\u4ec1\u524d\u7530\u6e29\u6cc9","line":"\u79cb\u7530\u5185\u9678\u7dda","riders":118},"type":"Point","coordinates":[30603,79492],"id":"feature_051"},{"properties":{"name":"\u8431\u8349","line":"\u79cb\u7530\u5185\u9678\u7dda","riders":12},"type":"Point","coordinates":[30361,73441],"id":"feature_052"},{"properties":{"name":"\u5965\u963f\u4ec1","line":"\u79cb\u7530\u5185\u9678\u7dda","riders":12},"type":"Point","coordinates":[33751,70645],"id":"feature_053"},{"properties":{"name":"\u963f\u4ec1\u5408","line":"\u79cb\u7530\u5185\u9678\u7dda","riders":158},"type":"Point","coordinates":[29863,75882],"id":"feature_054"},{"properties":{"name":"\u4e0a\u6867\u6728\u5185","line":"\u79cb\u7530\u5185\u9678\u7dda","riders":12},"type":"Point","coordinates":[37948,65182],"id":"feature_055"},{"properties":{"name":"\u5408\u5ddd","line":"\u79cb\u7530\u5185\u9678\u7dda","riders":112},"type":"Point","coordinates":[26692,85358],"id":"feature_056"},{"properties":{"name":"\u7fbd\u5f8c\u9577\u6238\u5442","line":"\u79cb\u7530\u5185\u9678\u7dda","riders":12},"type":"Point","coordinates":[37185,59873],"id":"feature_057"},{"properties":{"name":"\u5927\u91ce\u53f0","line":"\u79cb\u7530\u5185\u9678\u7dda","riders":15},"type":"Point","coordinates":[27159,86864],"id":"feature_058"},{"properties":{"name":"\u677e\u8449","line":"\u79cb\u7530\u5185\u9678\u7dda","riders":124},"type":"Point","coordinates":[38295,60838],"id":"feature_059"},{"properties":{"name":"\u5ca9\u91ce\u76ee","line":"\u79cb\u7530\u5185\u9678\u7dda","riders":12},"type":"Point","coordinates":[31176,71244],"id":"feature_060"},{"properties":{"name":"\u5c0f\u6e15","line":"\u79cb\u7530\u5185\u9678\u7dda","riders":23},"type":"Point","coordinates":[29862,77861],"id":"feature_061"},{"properties":{"name":"\u963f\u4ec1\u30de\u30bf\u30ae","line":"\u79cb\u7530\u5185\u9678\u7dda","riders":30},"type":"Point","coordinates":[34976,71146],"id":"feature_062"},{"properties":{"name":"\u89d2\u9928","line":"\u79cb\u7530\u5185\u9678\u7dda","riders":1412},"type":"Point","coordinates":[37441,51885],"id":"feature_063"},{"properties":{"name":"\u79cb\u7530","line":"\u7fbd\u8d8a\u7dda","riders":11},"type":"Point","coordinates":[17746,59261],"id":"feature_064"},{"properties":{"name":"\u7fbd\u5f8c\u725b\u5cf6","line":"\u7fbd\u8d8a\u7dda","riders":1520},"type":"Point","coordinates":[17166,58001],"id":"feature_065"},{"properties":{"name":"\u6842\u6839","line":"\u7fbd\u8d8a\u7dda","riders":11},"type":"Point","coordinates":[14932,55162],"id":"feature_066"},{"properties":{"name":"\u4e0b\u6d5c","line":"\u7fbd\u8d8a\u7dda","riders":11},"type":"Point","coordinates":[14849,53523],"id":"feature_067"},{"properties":{"name":"\u65b0\u5c4b","line":"\u7fbd\u8d8a\u7dda","riders":1912},"type":"Point","coordinates":[15884,56918],"id":"feature_068"},{"properties":{"name":"\u7fbd\u5f8c\u672c\u8358","line":"\u7fbd\u8d8a\u7dda","riders":2729},"type":"Point","coordinates":[14539,39839],"id":"feature_069"},{"properties":{"name":"\u7fbd\u524d\u5927\u5c71","line":"\u7fbd\u8d8a\u7dda","riders":214},"type":"Point","coordinates":[1625,1944],"id":"feature_070"},{"properties":{"name":"\u6771\u9152\u7530","line":"\u7fbd\u8d8a\u7dda","riders":11},"type":"Point","coordinates":[6409,11668],"id":"feature_071"},{"properties":{"name":"\u9152\u7530","line":"\u7fbd\u8d8a\u7dda","riders":2738},"type":"Point","coordinates":[5100,12528],"id":"feature_072"},{"properties":{"name":"\u6298\u6e21","line":"\u7fbd\u8d8a\u7dda","riders":11},"type":"Point","coordinates":[16035,45101],"id":"feature_073"},{"properties":{"name":"\u5439\u6d66","line":"\u7fbd\u8d8a\u7dda","riders":11},"type":"Point","coordinates":[6559,21217],"id":"feature_074"},{"properties":{"name":"\u5ca9\u57ce\u307f\u306a\u3068","line":"\u7fbd\u8d8a\u7dda","riders":250},"type":"Point","coordinates":[14418,49202],"id":"feature_075"},{"properties":{"name":"\u897f\u888b","line":"\u7fbd\u8d8a\u7dda","riders":11},"type":"Point","coordinates":[7855,6022],"id":"feature_076"},{"properties":{"name":"\u5973\u9e7f","line":"\u7fbd\u8d8a\u7dda","riders":11},"type":"Point","coordinates":[6663,22905],"id":"feature_077"},{"properties":{"name":"\u5357\u9ce5\u6d77","line":"\u7fbd\u8d8a\u7dda","riders":11},"type":"Point","coordinates":[7454,16362],"id":"feature_078"},{"properties":{"name":"\u897f\u76ee","line":"\u7fbd\u8d8a\u7dda","riders":748},"type":"Point","coordinates":[12807,37541],"id":"feature_079"},{"properties":{"name":"\u904a\u4f50","line":"\u7fbd\u8d8a\u7dda","riders":494},"type":"Point","coordinates":[7741,18040],"id":"feature_080"},{"properties":{"name":"\u91d1\u6d66","line":"\u7fbd\u8d8a\u7dda","riders":644},"type":"Point","coordinates":[8438,32163],"id":"feature_081"},{"properties":{"name":"\u7fbd\u5f8c\u5ca9\u8c37","line":"\u7fbd\u8d8a\u7dda","riders":482},"type":"Point","coordinates":[15956,43058],"id":"feature_082"},{"properties":{"name":"\u7fbd\u524d\u6c34\u6ca2","line":"\u7fbd\u8d8a\u7dda","riders":11},"type":"Point","coordinates":[0,264],"id":"feature_083"},{"properties":{"name":"\u9db4\u5ca1","line":"\u7fbd\u8d8a\u7dda","riders":2758},"type":"Point","coordinates":[4631,1824],"id":"feature_084"},{"properties":{"name":"\u7fbd\u5f8c\u4e80\u7530","line":"\u7fbd\u8d8a\u7dda","riders":216},"type":"Point","coordinates":[14781,46131],"id":"feature_085"},{"properties":{"name":"\u8c61\u6f5f","line":"\u7fbd\u8d8a\u7dda","riders":574},"type":"Point","coordinates":[7613,29304],"id":"feature_086"},{"properties":{"name":"\u5c0f\u7802\u5ddd","line":"\u7fbd\u8d8a\u7dda","riders":68},"type":"Point","coordinates":[6875,25188],"id":"feature_087"},{"properties":{"name":"\u7802\u8d8a","line":"\u7fbd\u8d8a\u7dda","riders":396},"type":"Point","coordinates":[7839,10937],"id":"feature_088"},{"properties":{"name":"\u4ec1\u8cc0\u4fdd","line":"\u7fbd\u8d8a\u7dda","riders":724},"type":"Point","coordinates":[10395,34134],"id":"feature_089"},{"properties":{"name":"\u4e0a\u6d5c","line":"\u7fbd\u8d8a\u7dda","riders":40},"type":"Point","coordinates":[7641,26781],"id":"feature_090"},{"properties":{"name":"\u672c\u696f","line":"\u7fbd\u8d8a\u7dda","riders":88},"type":"Point","coordinates":[6707,15253],"id":"feature_091"},{"properties":{"name":"\u85e4\u5cf6","line":"\u7fbd\u8d8a\u7dda","riders":796},"type":"Point","coordinates":[7247,3502],"id":"feature_092"},{"properties":{"name":"\u4f59\u76ee","line":"\u7fbd\u8d8a\u7dda","riders":1134},"type":"Point","coordinates":[8016,7953],"id":"feature_093"},{"properties":{"name":"\u5317\u4f59\u76ee","line":"\u7fbd\u8d8a\u7dda","riders":11},"type":"Point","coordinates":[7874,9315],"id":"feature_094"},{"properties":{"name":"\u9053\u5ddd","line":"\u7fbd\u8d8a\u7dda","riders":11},"type":"Point","coordinates":[14516,50052],"id":"feature_095"},{"properties":{"name":"\u6771\u80fd\u4ee3","line":"\u5965\u7fbd\u7dda","riders":1110},"type":"Point","coordinates":[14902,87138],"id":"feature_096"},{"properties":{"name":"\u8ffd\u5206","line":"\u5965\u7fbd\u7dda","riders":3710},"type":"Point","coordinates":[14549,64708],"id":"feature_097"},{"properties":{"name":"\u5927\u5f35\u91ce","line":"\u5965\u7fbd\u7dda","riders":11},"type":"Point","coordinates":[24196,56104],"id":"feature_098"},{"properties":{"name":"\u5927\u4e45\u4fdd","line":"\u5965\u7fbd\u7dda","riders":972},"type":"Point","coordinates":[14783,68290],"id":"feature_099"},{"properties":{"name":"\u5317\u91d1\u5ca1","line":"\u5965\u7fbd\u7dda","riders":11},"type":"Point","coordinates":[14800,84214],"id":"feature_100"},{"properties":{"name":"\u7fbd\u5f8c\u5883","line":"\u5965\u7fbd\u7dda","riders":532},"type":"Point","coordinates":[26266,53495],"id":"feature_101"},{"properties":{"name":"\u7fbd\u5f8c\u98ef\u585a","line":"\u5965\u7fbd\u7dda","riders":260},"type":"Point","coordinates":[15243,69939],"id":"feature_102"},{"properties":{"name":"\u4e0a\u98ef\u5cf6","line":"\u5965\u7fbd\u7dda","riders":11},"type":"Point","coordinates":[15023,62908],"id":"feature_103"},{"properties":{"name":"\u9bc9\u5ddd","line":"\u5965\u7fbd\u7dda","riders":11},"type":"Point","coordinates":[15429,75663],"id":"feature_104"},{"properties":{"name":"\u68ee\u5cb3","line":"\u5965\u7fbd\u7dda","riders":518},"type":"Point","coordinates":[15129,81944],"id":"feature_105"},{"properties":{"name":"\u56db\u30c4\u5c0f\u5c4b","line":"\u5965\u7fbd\u7dda","riders":11},"type":"Point","coordinates":[18432,56007],"id":"feature_106"},{"properties":{"name":"\u516b\u90ce\u6f5f","line":"\u5965\u7fbd\u7dda","riders":1824},"type":"Point","coordinates":[15472,72811],"id":"feature_107"},{"properties":{"name":"\u79cb\u7530","line":"\u5965\u7fbd\u7dda","riders":22738},"type":"Point","coordinates":[17757,59276],"id":"feature_108"},{"properties":{"name":"\u548c\u7530","line":"\u5965\u7fbd\u7dda","riders":794},"type":"Point","coordinates":[21726,55357],"id":"feature_109"},{"properties":{"name":"\u4e95\u5ddd\u3055\u304f\u3089","line":"\u5965\u7fbd\u7dda","riders":706},"type":"Point","coordinates":[15359,70685],"id":"feature_110"},{"properties":{"name":"\u9e7f\u6e21","line":"\u5965\u7fbd\u7dda","riders":402},"type":"Point","coordinates":[15654,78502],"id":"feature_111"},{"properties":{"name":"\u571f\u5d0e","line":"\u5965\u7fbd\u7dda","riders":4632},"type":"Point","coordinates":[15246,61706],"id":"feature_112"},{"properties":{"name":"\u5927\u66f2","line":"\u5965\u7fbd\u7dda","riders":4320},"type":"Point","coordinates":[33355,44482],"id":"feature_113"},{"properties":{"name":"\u6a2a\u624b","line":"\u5965\u7fbd\u7dda","riders":2854},"type":"Point","coordinates":[36962,35338],"id":"feature_114"},{"properties":{"name":"\u65b0\u5e84","line":"\u5965\u7fbd\u7dda","riders":3210},"type":"Point","coordinates":[25621,3142],"id":"feature_115"},{"properties":{"name":"\u4e09\u95a2","line":"\u5965\u7fbd\u7dda","riders":11},"type":"Point","coordinates":[33545,23577],"id":"feature_116"},{"properties":{"name":"\u795e\u5bae\u5bfa","line":"\u5965\u7fbd\u7dda","riders":600},"type":"Point","coordinates":[30960,46219],"id":"feature_117"},{"properties":{"name":"\u5927\u6edd","line":"\u5965\u7fbd\u7dda","riders":11},"type":"Point","coordinates":[26249,15424],"id":"feature_118"},{"properties":{"name":"\u5cf0\u5409\u5ddd","line":"\u5965\u7fbd\u7dda","riders":146},"type":"Point","coordinates":[26376,50412],"id":"feature_119"},{"properties":{"name":"\u53ca\u4f4d","line":"\u5965\u7fbd\u7dda","riders":11},"type":"Point","coordinates":[28077,16687],"id":"feature_120"},{"properties":{"name":"\u4e0b\u6e6f\u6ca2","line":"\u5965\u7fbd\u7dda","riders":11},"type":"Point","coordinates":[34380,28699],"id":"feature_121"},{"properties":{"name":"\u7fbd\u524d\u8c4a\u91cc","line":"\u5965\u7fbd\u7dda","riders":11},"type":"Point","coordinates":[22776,7505],"id":"feature_122"},{"properties":{"name":"\u771f\u5ba4\u5ddd","line":"\u5965\u7fbd\u7dda","riders":336},"type":"Point","coordinates":[23336,8772],"id":"feature_123"},{"properties":{"name":"\u5208\u548c\u91ce","line":"\u5965\u7fbd\u7dda","riders":1072},"type":"Point","coordinates":[28551,49320],"id":"feature_124"},{"properties":{"name":"\u6e6f\u6ca2","line":"\u5965\u7fbd\u7dda","riders":1472},"type":"Point","coordinates":[33690,26715],"id":"feature_125"},{"properties":{"name":"\u6a2a\u5800","line":"\u5965\u7fbd\u7dda","riders":496},"type":"Point","coordinates":[32106,20903],"id":"feature_126"},{"properties":{"name":"\u9662\u5185","line":"\u5965\u7fbd\u7dda","riders":11},"type":"Point","coordinates":[30430,20017],"id":"feature_127"},{"properties":{"name":"\u4e0a\u6e6f\u6ca2","line":"\u5965\u7fbd\u7dda","riders":11},"type":"Point","coordinates":[33609,24985],"id":"feature_128"},{"properties":{"name":"\u98ef\u8a70","line":"\u5965\u7fbd\u7dda","riders":376},"type":"Point","coordinates":[34948,40982],"id":"feature_129"},{"properties":{"name":"\u91dc\u6df5","line":"\u5965\u7fbd\u7dda","riders":11},"type":"Point","coordinates":[23743,13162],"id":"feature_130"},{"properties":{"name":"\u918d\u9190","line":"\u5965\u7fbd\u7dda","riders":11},"type":"Point","coordinates":[35986,31715],"id":"feature_131"},{"properties":{"name":"\u67f3\u7530","line":"\u5965\u7fbd\u7dda","riders":11},"type":"Point","coordinates":[36668,33343],"id":"feature_132"},{"properties":{"name":"\u6cc9\u7530","line":"\u5965\u7fbd\u7dda","riders":11},"type":"Point","coordinates":[25797,6039],"id":"feature_133"},{"properties":{"name":"\u5f8c\u4e09\u5e74","line":"\u5965\u7fbd\u7dda","riders":11},"type":"Point","coordinates":[35982,38547],"id":"feature_134"},{"properties":{"name":"\u5341\u6587\u5b57","line":"\u5965\u7fbd\u7dda","riders":1034},"type":"Point","coordinates":[35448,30112],"id":"feature_135"},{"properties":{"name":"\u677e\u5c3e\u516b\u5e61\u5e73","line":"\u82b1\u8f2a\u7dda","riders":11},"type":"Point","coordinates":[58523,74070],"id":"feature_136"},{"properties":{"name":"\u6e6f\u702c\u6e29\u6cc9","line":"\u82b1\u8f2a\u7dda","riders":88},"type":"Point","coordinates":[49443,83071],"id":"feature_137"},{"properties":{"name":"\u516b\u5e61\u5e73","line":"\u82b1\u8f2a\u7dda","riders":68},"type":"Point","coordinates":[47844,84282],"id":"feature_138"},{"properties":{"name":"\u6771\u5927\u66f4","line":"\u82b1\u8f2a\u7dda","riders":11},"type":"Point","coordinates":[62906,70153],"id":"feature_139"},{"properties":{"name":"\u8d64\u5742\u7530","line":"\u82b1\u8f2a\u7dda","riders":11},"type":"Point","coordinates":[56739,78729],"id":"feature_140"},{"properties":{"name":"\u5144\u7551","line":"\u82b1\u8f2a\u7dda","riders":11},"type":"Point","coordinates":[51344,82693],"id":"feature_141"},{"properties":{"name":"\u5e73\u9928","line":"\u82b1\u8f2a\u7dda","riders":11},"type":"Point","coordinates":[60364,72990],"id":"feature_142"},{"properties":{"name":"\u5b89\u6bd4\u9ad8\u539f","line":"\u82b1\u8f2a\u7dda","riders":11},"type":"Point","coordinates":[56444,76620],"id":"feature_143"},{"properties":{"name":"\u6a2a\u9593","line":"\u82b1\u8f2a\u7dda","riders":11},"type":"Point","coordinates":[57775,82197],"id":"feature_144"},{"properties":{"name":"\u5c0f\u5c4b\u306e\u7551","line":"\u82b1\u8f2a\u7dda","riders":11},"type":"Point","coordinates":[57486,80370],"id":"feature_145"},{"properties":{"name":"\u8352\u5c4b\u65b0\u753a","line":"\u82b1\u8f2a\u7dda","riders":176},"type":"Point","coordinates":[58760,81621],"id":"feature_146"},{"properties":{"name":"\u7530\u5c71","line":"\u82b1\u8f2a\u7dda","riders":11},"type":"Point","coordinates":[54070,84090],"id":"feature_147"},{"properties":{"name":"\u5927\u66f4","line":"\u82b1\u8f2a\u7dda","riders":612},"type":"Point","coordinates":[61061,70829],"id":"feature_148"},{"properties":{"name":"\u9e7f\u89d2\u82b1\u8f2a","line":"\u82b1\u8f2a\u7dda","riders":504},"type":"Point","coordinates":[46984,86959],"id":"feature_149"},{"properties":{"name":"\u9678\u4e2d\u5927\u91cc","line":"\u82b1\u8f2a\u7dda","riders":11},"type":"Point","coordinates":[47353,85196],"id":"feature_150"},{"properties":{"name":"\u6674\u5c71","line":"\u91dc\u77f3\u7dda","riders":11},"type":"Point","coordinates":[68061,38651],"id":"feature_151"},{"properties":{"name":"\u7dbe\u7e54","line":"\u91dc\u77f3\u7dda","riders":11},"type":"Point","coordinates":[77827,36403],"id":"feature_152"},{"properties":{"name":"\u4e0a\u6709\u4f4f","line":"\u91dc\u77f3\u7dda","riders":11},"type":"Point","coordinates":[86955,31324],"id":"feature_153"},{"properties":{"name":"\u9752\u7b39","line":"\u91dc\u77f3\u7dda","riders":11},"type":"Point","coordinates":[81934,35408],"id":"feature_154"},{"properties":{"name":"\u5ca9\u624b\u4e8c\u65e5\u753a","line":"\u91dc\u77f3\u7dda","riders":11},"type":"Point","coordinates":[76899,36114],"id":"feature_155"},{"properties":{"name":"\u5c0f\u4f50\u91ce","line":"\u91dc\u77f3\u7dda","riders":132},"type":"Point","coordinates":[93864,32651],"id":"feature_156"},{"properties":{"name":"\u571f\u6ca2","line":"\u91dc\u77f3\u7dda","riders":376},"type":"Point","coordinates":[66933,39630],"id":"feature_157"},{"properties":{"name":"\u65b0\u82b1\u5dfb","line":"\u91dc\u77f3\u7dda","riders":1884},"type":"Point","coordinates":[64279,40953],"id":"feature_158"},{"properties":{"name":"\u677e\u5009","line":"\u91dc\u77f3\u7dda","riders":11},"type":"Point","coordinates":[92305,32175],"id":"feature_159"},{"properties":{"name":"\u9060\u91ce","line":"\u91dc\u77f3\u7dda","riders":764},"type":"Point","coordinates":[80228,36647],"id":"feature_160"},{"properties":{"name":"\u67cf\u6728\u5e73","line":"\u91dc\u77f3\u7dda","riders":11},"type":"Point","coordinates":[73503,35090],"id":"feature_161"},{"properties":{"name":"\u6d1e\u6cc9","line":"\u91dc\u77f3\u7dda","riders":11},"type":"Point","coordinates":[90463,31821],"id":"feature_162"},{"properties":{"name":"\u8352\u8c37\u524d","line":"\u91dc\u77f3\u7dda","riders":11},"type":"Point","coordinates":[75669,35316],"id":"feature_163"},{"properties":{"name":"\u5ca9\u624b\u4e0a\u90f7","line":"\u91dc\u77f3\u7dda","riders":11},"type":"Point","coordinates":[82688,33826],"id":"feature_164"},{"properties":{"name":"\u9678\u4e2d\u5927\u6a4b","line":"\u91dc\u77f3\u7dda","riders":11},"type":"Point","coordinates":[88604,33583],"id":"feature_165"},{"properties":{"name":"\u5bae\u5b88","line":"\u91dc\u77f3\u7dda","riders":256},"type":"Point","coordinates":[72184,37736],"id":"feature_166"},{"properties":{"name":"\u9c52\u6ca2","line":"\u91dc\u77f3\u7dda","riders":11},"type":"Point","coordinates":[74367,34742],"id":"feature_167"},{"properties":{"name":"\u5c0f\u5c71\u7530","line":"\u91dc\u77f3\u7dda","riders":11},"type":"Point","coordinates":[65214,41115],"id":"feature_168"},{"properties":{"name":"\u5e73\u5009","line":"\u91dc\u77f3\u7dda","riders":11},"type":"Point","coordinates":[83126,32657],"id":"feature_169"},{"properties":{"name":"\u82b1\u5dfb","line":"\u91dc\u77f3\u7dda","riders":6898},"type":"Point","coordinates":[61483,40244],"id":"feature_170"},{"properties":{"name":"\u8db3\u30f6\u702c","line":"\u91dc\u77f3\u7dda","riders":11},"type":"Point","coordinates":[85365,32076],"id":"feature_171"},{"properties":{"name":"\u4f3c\u5185","line":"\u91dc\u77f3\u7dda","riders":11},"type":"Point","coordinates":[62849,41015],"id":"feature_172"},{"properties":{"name":"\u5ca9\u6839\u6a4b","line":"\u91dc\u77f3\u7dda","riders":11},"type":"Point","coordinates":[70779,37979],"id":"feature_173"},{"properties":{"name":"\u5c71\u5cb8","line":"\u5c71\u7530\u7dda","riders":11},"type":"Point","coordinates":[64209,59191],"id":"feature_174"},{"properties":{"name":"\u5343\u5fb3","line":"\u5c71\u7530\u7dda","riders":11},"type":"Point","coordinates":[97231,54262],"id":"feature_175"},{"properties":{"name":"\u7bb1\u77f3","line":"\u5c71\u7530\u7dda","riders":11},"type":"Point","coordinates":[84470,53372],"id":"feature_176"},{"properties":{"name":"\u78ef\u9d8f","line":"\u30ea\u30a2\u30b9\u7dda","riders":107},"type":"Point","coordinates":[99415,54154],"id":"feature_177"},{"properties":{"name":"\u8302\u5e02","line":"\u5c71\u7530\u7dda","riders":110},"type":"Point","coordinates":[92207,53578],"id":"feature_178"},{"properties":{"name":"\u533a\u754c","line":"\u5c71\u7530\u7dda","riders":11},"type":"Point","coordinates":[72235,55408],"id":"feature_179"},{"properties":{"name":"\u677e\u8349","line":"\u5c71\u7530\u7dda","riders":11},"type":"Point","coordinates":[76071,54474],"id":"feature_180"},{"properties":{"name":"\u4e0a\u7c73\u5185","line":"\u5c71\u7530\u7dda","riders":156},"type":"Point","coordinates":[65652,60825],"id":"feature_181"},{"properties":{"name":"\u4e0a\u76db\u5ca1","line":"\u5c71\u7530\u7dda","riders":11},"type":"Point","coordinates":[63164,58919],"id":"feature_182"},{"properties":{"name":"\u5e73\u6d25\u6238","line":"\u5c71\u7530\u7dda","riders":11},"type":"Point","coordinates":[79363,53740],"id":"feature_183"},{"properties":{"name":"\u82b1\u539f\u5e02","line":"\u5c71\u7530\u7dda","riders":11},"type":"Point","coordinates":[94977,54154],"id":"feature_184"},{"properties":{"name":"\u5ddd\u5185","line":"\u5c71\u7530\u7dda","riders":26},"type":"Point","coordinates":[83213,54763],"id":"feature_185"},{"properties":{"name":"\u87c7\u76ee","line":"\u5c71\u7530\u7dda","riders":11},"type":"Point","coordinates":[93970,54088],"id":"feature_186"},{"properties":{"name":"\u9d5c\u4f4f\u5c45","line":"\u30ea\u30a2\u30b9\u7dda","riders":124},"type":"Point","coordinates":[96158,36305],"id":"feature_187"},{"properties":{"name":"\u5409\u91cc\u5409\u91cc","line":"\u30ea\u30a2\u30b9\u7dda","riders":101},"type":"Point","coordinates":[98420,38820],"id":"feature_188"},{"properties":{"name":"\u9678\u4e2d\u5ddd\u4e95","line":"\u5c71\u7530\u7dda","riders":84},"type":"Point","coordinates":[86954,52210],"id":"feature_189"},{"properties":{"name":"\u8179\u5e2f","line":"\u5c71\u7530\u7dda","riders":11},"type":"Point","coordinates":[90786,52632],"id":"feature_190"},{"properties":{"name":"\u5927\u69cc","line":"\u30ea\u30a2\u30b9\u7dda","riders":470},"type":"Point","coordinates":[96837,38069],"id":"feature_191"},{"properties":{"name":"\u6d6a\u677f\u6d77\u5cb8","line":"\u30ea\u30a2\u30b9\u7dda","riders":72},"type":"Point","coordinates":[98263,39645],"id":"feature_192"},{"properties":{"name":"\u4e21\u77f3","line":"\u30ea\u30a2\u30b9\u7dda","riders":22},"type":"Point","coordinates":[96211,35210],"id":"feature_193"},{"properties":{"name":"\u5ca9\u624b\u8239\u8d8a","line":"\u30ea\u30a2\u30b9\u7dda","riders":98},"type":"Point","coordinates":[99999,42453],"id":"feature_194"},{"properties":{"name":"\u9678\u4e2d\u5c71\u7530","line":"\u30ea\u30a2\u30b9\u7dda","riders":518},"type":"Point","coordinates":[98985,44349],"id":"feature_195"},{"properties":{"name":"\u771f\u6edd","line":"\u5927\u8239\u6e21\u7dda","riders":11},"type":"Point","coordinates":[64499,11709],"id":"feature_196"},{"properties":{"name":"\u5ca9\u30ce\u4e0b","line":"\u5927\u8239\u6e21\u7dda","riders":11},"type":"Point","coordinates":[67503,14027],"id":"feature_197"},{"properties":{"name":"\u6298\u58c1","line":"\u5927\u8239\u6e21\u7dda","riders":11},"type":"Point","coordinates":[76732,13539],"id":"feature_198"},{"properties":{"name":"\u647a\u6ca2","line":"\u5927\u8239\u6e21\u7dda","riders":734},"type":"Point","coordinates":[70886,16870],"id":"feature_199"},{"properties":{"name":"\u9678\u4e2d\u9580\u5d0e","line":"\u5927\u8239\u6e21\u7dda","riders":11},"type":"Point","coordinates":[67766,12218],"id":"feature_200"},{"properties":{"name":"\u65b0\u6708","line":"\u5927\u8239\u6e21\u7dda","riders":11},"type":"Point","coordinates":[78364,12140],"id":"feature_201"},{"properties":{"name":"\u5343\u53a9","line":"\u5927\u8239\u6e21\u7dda","riders":576},"type":"Point","coordinates":[71976,12684],"id":"feature_202"},{"properties":{"name":"\u77e2\u8d8a","line":"\u5927\u8239\u6e21\u7dda","riders":11},"type":"Point","coordinates":[75699,13296],"id":"feature_203"},{"properties":{"name":"\u9678\u4e2d\u677e\u5ddd","line":"\u5927\u8239\u6e21\u7dda","riders":11},"type":"Point","coordinates":[67179,15762],"id":"feature_204"},{"properties":{"name":"\u730a\u9f3b\u6e13","line":"\u5927\u8239\u6e21\u7dda","riders":11},"type":"Point","coordinates":[67847,16432],"id":"feature_205"},{"properties":{"name":"\u67f4\u5bbf","line":"\u5927\u8239\u6e21\u7dda","riders":11},"type":"Point","coordinates":[68702,16909],"id":"feature_206"},{"properties":{"name":"\u5c0f\u68a8","line":"\u5927\u8239\u6e21\u7dda","riders":11},"type":"Point","coordinates":[73697,13131],"id":"feature_207"},{"properties":{"name":"\u6c17\u4ed9\u6cbc","line":"\u5927\u8239\u6e21\u7dda","riders":574},"type":"Point","coordinates":[81484,11812],"id":"feature_208"},{"properties":{"name":"\u4e00\u30ce\u95a2","line":"\u5927\u8239\u6e21\u7dda","riders":9228},"type":"Point","coordinates":[62724,12787],"id":"feature_209"},{"properties":{"name":"\u4e0a\u4e8c\u7530","line":"\u7537\u9e7f\u7dda","riders":11},"type":"Point","coordinates":[12153,68177],"id":"feature_210"},{"properties":{"name":"\u51fa\u6238\u6d5c","line":"\u7537\u9e7f\u7dda","riders":11},"type":"Point","coordinates":[13067,66734],"id":"feature_211"},{"properties":{"name":"\u7537\u9e7f","line":"\u7537\u9e7f\u7dda","riders":1104},"type":"Point","coordinates":[5221,69098],"id":"feature_212"},{"properties":{"name":"\u8239\u8d8a","line":"\u7537\u9e7f\u7dda","riders":1414},"type":"Point","coordinates":[9594,70280],"id":"feature_213"},{"properties":{"name":"\u7fbd\u7acb","line":"\u7537\u9e7f\u7dda","riders":11},"type":"Point","coordinates":[5818,70267],"id":"feature_214"},{"properties":{"name":"\u4e8c\u7530","line":"\u7537\u9e7f\u7dda","riders":814},"type":"Point","coordinates":[11406,68908],"id":"feature_215"},{"properties":{"name":"\u8107\u672c","line":"\u7537\u9e7f\u7dda","riders":11},"type":"Point","coordinates":[7629,70898],"id":"feature_216"},{"properties":{"name":"\u5929\u738b","line":"\u7537\u9e7f\u7dda","riders":11},"type":"Point","coordinates":[10357,69928],"id":"feature_217"},{"properties":{"name":"\u5927\u91dc","line":"\u7530\u6ca2\u6e56\u7dda","riders":1074},"type":"Point","coordinates":[59772,58922],"id":"feature_218"},{"properties":{"name":"\u5c0f\u5ca9\u4e95","line":"\u7530\u6ca2\u6e56\u7dda","riders":1138},"type":"Point","coordinates":[57665,58818],"id":"feature_219"},{"properties":{"name":"\u96eb\u77f3","line":"\u7530\u6ca2\u6e56\u7dda","riders":1244},"type":"Point","coordinates":[55440,57611],"id":"feature_220"},{"properties":{"name":"\u6625\u6728\u5834","line":"\u7530\u6ca2\u6e56\u7dda","riders":11},"type":"Point","coordinates":[54064,57857],"id":"feature_221"},{"properties":{"name":"\u8d64\u6e15","line":"\u7530\u6ca2\u6e56\u7dda","riders":11},"type":"Point","coordinates":[52427,57368],"id":"feature_222"},{"properties":{"name":"\u76db\u5ca1","line":"\u7530\u6ca2\u6e56\u7dda","riders":11},"type":"Point","coordinates":[62652,58336],"id":"feature_223"},{"properties":{"name":"\u751f\u7530","line":"\u7530\u6ca2\u6e56\u7dda","riders":11},"type":"Point","coordinates":[38786,53081],"id":"feature_224"},{"properties":{"name":"\u7530\u6ca2\u6e56","line":"\u7530\u6ca2\u6e56\u7dda","riders":776},"type":"Point","coordinates":[44180,58270],"id":"feature_225"},{"properties":{"name":"\u523a\u5dfb","line":"\u7530\u6ca2\u6e56\u7dda","riders":11},"type":"Point","coordinates":[42827,56397],"id":"feature_226"},{"properties":{"name":"\u795e\u4ee3","line":"\u7530\u6ca2\u6e56\u7dda","riders":11},"type":"Point","coordinates":[39953,53700],"id":"feature_227"},{"properties":{"name":"\u7fbd\u5f8c\u9577\u91ce","line":"\u7530\u6ca2\u6e56\u7dda","riders":228},"type":"Point","coordinates":[36093,49196],"id":"feature_228"},{"properties":{"name":"\u5317\u5927\u66f2","line":"\u7530\u6ca2\u6e56\u7dda","riders":11},"type":"Point","coordinates":[34181,45871],"id":"feature_229"},{"properties":{"name":"\u9daf\u91ce","line":"\u7530\u6ca2\u6e56\u7dda","riders":11},"type":"Point","coordinates":[36852,50519],"id":"feature_230"},{"properties":{"name":"\u9453\u898b\u5185","line":"\u7530\u6ca2\u6e56\u7dda","riders":11},"type":"Point","coordinates":[35502,47621],"id":"feature_231"},{"properties":{"name":"\u7fbd\u5f8c\u56db\u30c4\u5c4b","line":"\u7530\u6ca2\u6e56\u7dda","riders":11},"type":"Point","coordinates":[34802,46584],"id":"feature_232"},{"properties":{"name":"\u3044\u308f\u3066\u6cbc\u5bae\u5185","line":"\u6771\u5317\u65b0\u5e79\u7dda","riders":204},"type":"Point","coordinates":[66259,73562],"id":"feature_233"},{"properties":{"name":"\u5317\u4e0a","line":"\u6771\u5317\u65b0\u5e79\u7dda","riders":11},"type":"Point","coordinates":[62031,33690],"id":"feature_234"},{"properties":{"name":"\u6c34\u6ca2\u6c5f\u523a","line":"\u6771\u5317\u65b0\u5e79\u7dda","riders":2102},"type":"Point","coordinates":[64978,25633],"id":"feature_235"},{"properties":{"name":"\u4e00\u30ce\u95a2","line":"\u6771\u5317\u65b0\u5e79\u7dda","riders":11},"type":"Point","coordinates":[62767,12778],"id":"feature_236"},{"properties":{"name":"\u65b0\u82b1\u5dfb","line":"\u6771\u5317\u65b0\u5e79\u7dda","riders":11},"type":"Point","coordinates":[64306,40993],"id":"feature_237"},{"properties":{"name":"\u304f\u308a\u3053\u307e\u9ad8\u539f","line":"\u6771\u5317\u65b0\u5e79\u7dda","riders":2314},"type":"Point","coordinates":[59740,2302],"id":"feature_238"},{"properties":{"name":"\u77e2\u5e45","line":"\u6771\u5317\u7dda","riders":6048},"type":"Point","coordinates":[63168,53120],"id":"feature_239"},{"properties":{"name":"\u4ed9\u5317\u753a","line":"\u6771\u5317\u7dda","riders":3374},"type":"Point","coordinates":[63197,57521],"id":"feature_240"},{"properties":{"name":"\u5ca9\u624b\u98ef\u5ca1","line":"\u6771\u5317\u7dda","riders":4796},"type":"Point","coordinates":[63101,55526],"id":"feature_241"},{"properties":{"name":"\u5317\u4e0a","line":"\u6771\u5317\u7dda","riders":7666},"type":"Point","coordinates":[61980,33645],"id":"feature_242"},{"properties":{"name":"\u9678\u4e2d\u6298\u5c45","line":"\u6771\u5317\u7dda","riders":11},"type":"Point","coordinates":[62848,22620],"id":"feature_243"},{"properties":{"name":"\u77f3\u8d8a","line":"\u6771\u5317\u7dda","riders":776},"type":"Point","coordinates":[63661,3513],"id":"feature_244"},{"properties":{"name":"\u524d\u6ca2","line":"\u6771\u5317\u7dda","riders":1232},"type":"Point","coordinates":[62194,19995],"id":"feature_245"},{"properties":{"name":"\u82b1\u5dfb\u7a7a\u6e2f","line":"\u6771\u5317\u7dda","riders":1468},"type":"Point","coordinates":[62241,43095],"id":"feature_246"},{"properties":{"name":"\u516d\u539f","line":"\u6771\u5317\u7dda","riders":464},"type":"Point","coordinates":[60925,30492],"id":"feature_247"},{"properties":{"name":"\u5e73\u6cc9","line":"\u6771\u5317\u7dda","riders":1142},"type":"Point","coordinates":[61817,16389],"id":"feature_248"},{"properties":{"name":"\u91d1\u30f6\u5d0e","line":"\u6771\u5317\u7dda","riders":1326},"type":"Point","coordinates":[61600,28831],"id":"feature_249"},{"properties":{"name":"\u82b1\u6cc9","line":"\u6771\u5317\u7dda","riders":828},"type":"Point","coordinates":[64591,7307],"id":"feature_250"},{"properties":{"name":"\u53e4\u9928","line":"\u6771\u5317\u7dda","riders":1790},"type":"Point","coordinates":[63459,51242],"id":"feature_251"},{"properties":{"name":"\u77f3\u9ce5\u8c37","line":"\u6771\u5317\u7dda","riders":2398},"type":"Point","coordinates":[63114,45954],"id":"feature_252"},{"properties":{"name":"\u6c34\u6ca2","line":"\u6771\u5317\u7dda","riders":4096},"type":"Point","coordinates":[63089,25284],"id":"feature_253"},{"properties":{"name":"\u6709\u58c1","line":"\u6771\u5317\u7dda","riders":11},"type":"Point","coordinates":[61964,9304],"id":"feature_254"},{"properties":{"name":"\u6751\u5d0e\u91ce","line":"\u6771\u5317\u7dda","riders":1972},"type":"Point","coordinates":[61937,36065],"id":"feature_255"},{"properties":{"name":"\u6e05\u6c34\u539f","line":"\u6771\u5317\u7dda","riders":11},"type":"Point","coordinates":[63540,8574],"id":"feature_256"},{"properties":{"name":"\u7d2b\u6ce2\u4e2d\u592e","line":"\u6771\u5317\u7dda","riders":3092},"type":"Point","coordinates":[63695,49708],"id":"feature_257"},{"properties":{"name":"\u5c71\u30ce\u76ee","line":"\u6771\u5317\u7dda","riders":11},"type":"Point","coordinates":[62449,14239],"id":"feature_258"},{"properties":{"name":"\u6cb9\u5cf6","line":"\u6771\u5317\u7dda","riders":11},"type":"Point","coordinates":[64400,5175],"id":"feature_259"},{"properties":{"name":"\u65e5\u8a70","line":"\u6771\u5317\u7dda","riders":1112},"type":"Point","coordinates":[63723,48760],"id":"feature_260"},{"properties":{"name":"\u65b0\u7530","line":"\u6771\u5317\u7dda","riders":602},"type":"Point","coordinates":[61894,147],"id":"feature_261"},{"properties":{"name":"\u7a2e\u5e02","line":"\u516b\u6238\u7dda","riders":346},"type":"Point","coordinates":[88456,99999],"id":"feature_262"},{"properties":{"name":"\u9678\u4e2d\u4e2d\u91ce","line":"\u516b\u6238\u7dda","riders":11},"type":"Point","coordinates":[91692,93809],"id":"feature_263"},{"properties":{"name":"\u9678\u4e2d\u590f\u4e95","line":"\u516b\u6238\u7dda","riders":11},"type":"Point","coordinates":[91881,88084],"id":"feature_264"},{"properties":{"name":"\u6709\u5bb6","line":"\u516b\u6238\u7dda","riders":11},"type":"Point","coordinates":[91038,94924],"id":"feature_265"},{"properties":{"name":"\u7389\u5ddd","line":"\u516b\u6238\u7dda","riders":11},"type":"Point","coordinates":[89340,98237],"id":"feature_266"},{"properties":{"name":"\u5bbf\u6238","line":"\u516b\u6238\u7dda","riders":11},"type":"Point","coordinates":[89868,97395],"id":"feature_267"},{"properties":{"name":"\u9678\u4e2d\u516b\u6728","line":"\u516b\u6238\u7dda","riders":11},"type":"Point","coordinates":[90754,96177],"id":"feature_268"},{"properties":{"name":"\u4f8d\u6d5c","line":"\u516b\u6238\u7dda","riders":11},"type":"Point","coordinates":[90481,91254],"id":"feature_269"},{"properties":{"name":"\u5ca9\u6ca2","line":"\u5317\u4e0a\u7dda","riders":11},"type":"Point","coordinates":[53512,34802],"id":"feature_270"},{"properties":{"name":"\u6a2a\u5ddd\u76ee","line":"\u5317\u4e0a\u7dda","riders":11},"type":"Point","coordinates":[55324,35277],"id":"feature_271"},{"properties":{"name":"\u3086\u3060\u9326\u79cb\u6e56","line":"\u5317\u4e0a\u7dda","riders":11},"type":"Point","coordinates":[49220,34472],"id":"feature_272"},{"properties":{"name":"\u85e4\u6839","line":"\u5317\u4e0a\u7dda","riders":400},"type":"Point","coordinates":[58329,34798],"id":"feature_273"},{"properties":{"name":"\u7acb\u5ddd\u76ee","line":"\u5317\u4e0a\u7dda","riders":11},"type":"Point","coordinates":[56441,35193],"id":"feature_274"},{"properties":{"name":"\u548c\u8cc0\u4ed9\u4eba","line":"\u5317\u4e0a\u7dda","riders":11},"type":"Point","coordinates":[52539,35218],"id":"feature_275"},{"properties":{"name":"\u67f3\u539f","line":"\u5317\u4e0a\u7dda","riders":11},"type":"Point","coordinates":[61545,34418],"id":"feature_276"},{"properties":{"name":"\u6c5f\u91e3\u5b50","line":"\u5317\u4e0a\u7dda","riders":11},"type":"Point","coordinates":[59943,34643],"id":"feature_277"},{"properties":{"name":"\u9ed2\u6ca2","line":"\u5317\u4e0a\u7dda","riders":11},"type":"Point","coordinates":[43172,33335],"id":"feature_278"},{"properties":{"name":"\u307b\u3063\u3068\u3086\u3060","line":"\u5317\u4e0a\u7dda","riders":372},"type":"Point","coordinates":[46555,35582],"id":"feature_279"},{"properties":{"name":"\u76f8\u91ce\u3005","line":"\u5317\u4e0a\u7dda","riders":68},"type":"Point","coordinates":[39561,33447],"id":"feature_280"},{"properties":{"name":"\u3086\u3060\u9ad8\u539f","line":"\u5317\u4e0a\u7dda","riders":11},"type":"Point","coordinates":[44843,34797],"id":"feature_281"},{"properties":{"name":"\u5c0f\u677e\u5ddd","line":"\u5317\u4e0a\u7dda","riders":11},"type":"Point","coordinates":[40786,34346],"id":"feature_282"},{"properties":{"name":"\u5357\u91ce","line":"\u9678\u7fbd\u897f\u7dda","riders":11},"type":"Point","coordinates":[9505,6414],"id":"feature_283"},{"properties":{"name":"\u53e4\u53e3","line":"\u9678\u7fbd\u897f\u7dda","riders":84},"type":"Point","coordinates":[18481,1652],"id":"feature_284"},{"properties":{"name":"\u7fbd\u524d\u524d\u6ce2","line":"\u9678\u7fbd\u897f\u7dda","riders":11},"type":"Point","coordinates":[21313,2272],"id":"feature_285"},{"properties":{"name":"\u6e05\u5ddd","line":"\u9678\u7fbd\u897f\u7dda","riders":11},"type":"Point","coordinates":[12894,4768],"id":"feature_286"},{"properties":{"name":"\u72e9\u5ddd","line":"\u9678\u7fbd\u897f\u7dda","riders":184},"type":"Point","coordinates":[10935,4974],"id":"feature_287"},{"properties":{"name":"\u9ad8\u5c4b","line":"\u9678\u7fbd\u897f\u7dda","riders":11},"type":"Point","coordinates":[15137,2553],"id":"feature_288"},{"properties":{"name":"\u6d25\u8c37","line":"\u9678\u7fbd\u897f\u7dda","riders":11},"type":"Point","coordinates":[20281,1677],"id":"feature_289"},{"properties":{"name":"\u5347\u5f62","line":"\u9678\u7fbd\u897f\u7dda","riders":11},"type":"Point","coordinates":[22863,2499],"id":"feature_290"},{"properties":{"name":"\u6c60\u6708","line":"\u9678\u7fbd\u6771\u7dda","riders":11},"type":"Point","coordinates":[49234,0],"id":"feature_291"},{"properties":{"name":"\u583a\u7530","line":"\u9678\u7fbd\u6771\u7dda","riders":11},"type":"Point","coordinates":[39297,1558],"id":"feature_292"},{"properties":{"name":"\u7acb\u5c0f\u8def","line":"\u9678\u7fbd\u6771\u7dda","riders":11},"type":"Point","coordinates":[36172,1937],"id":"feature_293"},{"properties":{"name":"\u6771\u9577\u6ca2","line":"\u9678\u7fbd\u6771\u7dda","riders":11},"type":"Point","coordinates":[29013,579],"id":"feature_294"},{"properties":{"name":"\u9cf4\u5b50\u5fa1\u6bbf\u6e6f","line":"\u9678\u7fbd\u6771\u7dda","riders":152},"type":"Point","coordinates":[44858,2085],"id":"feature_295"},{"properties":{"name":"\u8d64\u5009\u6e29\u6cc9","line":"\u9678\u7fbd\u6771\u7dda","riders":11},"type":"Point","coordinates":[36656,1263],"id":"feature_296"},{"properties":{"name":"\u5927\u5800","line":"\u9678\u7fbd\u6771\u7dda","riders":11},"type":"Point","coordinates":[33170,3343],"id":"feature_297"},{"properties":{"name":"\u5357\u65b0\u5e84","line":"\u9678\u7fbd\u6771\u7dda","riders":11},"type":"Point","coordinates":[26072,734],"id":"feature_298"},{"properties":{"name":"\u9d5c\u6749","line":"\u9678\u7fbd\u6771\u7dda","riders":11},"type":"Point","coordinates":[32201,3284],"id":"feature_299"},{"properties":{"name":"\u6700\u4e0a","line":"\u9678\u7fbd\u6771\u7dda","riders":408},"type":"Point","coordinates":[35055,2755],"id":"feature_300"},{"properties":{"name":"\u9577\u6ca2","line":"\u9678\u7fbd\u6771\u7dda","riders":11},"type":"Point","coordinates":[28281,42],"id":"feature_301"},{"properties":{"name":"\u702c\u898b\u6e29\u6cc9","line":"\u9678\u7fbd\u6771\u7dda","riders":11},"type":"Point","coordinates":[30683,2708],"id":"feature_302"},{"properties":{"name":"\u9cf4\u5b50\u6e29\u6cc9","line":"\u9678\u7fbd\u6771\u7dda","riders":558},"type":"Point","coordinates":[43898,2016],"id":"feature_303"},{"properties":{"name":"\u4e2d\u5c71\u5e73\u6e29\u6cc9","line":"\u9678\u7fbd\u6771\u7dda","riders":11},"type":"Point","coordinates":[41760,1026],"id":"feature_304"},{"properties":{"name":"\u5ddd\u6e21\u6e29\u6cc9","line":"\u9678\u7fbd\u6771\u7dda","riders":11},"type":"Point","coordinates":[46718,1634],"id":"feature_305"},{"properties":{"name":"\u897f\u6edd\u6ca2","line":"\u9ce5\u6d77\u5c71\u308d\u304f\u7dda","riders":64},"type":"Point","coordinates":[17165,33464],"id":"feature_306"},{"properties":{"name":"\u77e2\u5cf6","line":"\u9ce5\u6d77\u5c71\u308d\u304f\u7dda","riders":463},"type":"Point","coordinates":[18171,30637],"id":"feature_307"},{"properties":{"name":"\u4e45\u4fdd\u7530","line":"\u9ce5\u6d77\u5c71\u308d\u304f\u7dda","riders":21},"type":"Point","coordinates":[16927,34511],"id":"feature_308"},{"properties":{"name":"\u5409\u6ca2","line":"\u9ce5\u6d77\u5c71\u308d\u304f\u7dda","riders":53},"type":"Point","coordinates":[17097,32882],"id":"feature_309"},{"properties":{"name":"\u5b50\u5409","line":"\u9ce5\u6d77\u5c71\u308d\u304f\u7dda","riders":26},"type":"Point","coordinates":[14643,37698],"id":"feature_310"},{"properties":{"name":"\u524d\u90f7","line":"\u9ce5\u6d77\u5c71\u308d\u304f\u7dda","riders":241},"type":"Point","coordinates":[17003,35487],"id":"feature_311"},{"properties":{"name":"\u9b8e\u5ddd","line":"\u9ce5\u6d77\u5c71\u308d\u304f\u7dda","riders":56},"type":"Point","coordinates":[15154,36414],"id":"feature_312"},{"properties":{"name":"\u9ed2\u6ca2","line":"\u9ce5\u6d77\u5c71\u308d\u304f\u7dda","riders":17},"type":"Point","coordinates":[16124,35934],"id":"feature_313"},{"properties":{"name":"\u66f2\u6ca2","line":"\u9ce5\u6d77\u5c71\u308d\u304f\u7dda","riders":12},"type":"Point","coordinates":[16542,35959],"id":"feature_314"},{"properties":{"name":"\u5ddd\u8fba","line":"\u9ce5\u6d77\u5c71\u308d\u304f\u7dda","riders":91},"type":"Point","coordinates":[17339,31737],"id":"feature_315"},{"properties":{"name":"\u85ac\u5e2b\u5802","line":"\u9ce5\u6d77\u5c71\u308d\u304f\u7dda","riders":96},"type":"Point","coordinates":[14149,38735],"id":"feature_316"},{"properties":{"name":"\u5c71\u53e3\u56e3\u5730","line":"\u30ea\u30a2\u30b9\u7dda","riders":39},"type":"Point","coordinates":[98180,55088],"id":"feature_317"},{"properties":{"name":"\u5317\u68ee","line":"\u82b1\u8f2a\u7dda","riders":11},"type":"Point","coordinates":[59779,73320],"id":"feature_318"},{"properties":{"name":"\u5341\u5e9c\u30f6\u6d66\u6d77\u5cb8","line":"\u30ea\u30a2\u30b9\u7dda","riders":12},"type":"Point","coordinates":[93312,81569],"id":"feature_319"},{"properties":{"name":"\u7e54\u7b20","line":"\u30ea\u30a2\u30b9\u7dda","riders":0},"type":"Point","coordinates":[99162,43771],"id":"feature_320"},{"properties":{"name":"\u8c4a\u9593\u6839","line":"\u30ea\u30a2\u30b9\u7dda","riders":100},"type":"Point","coordinates":[97799,48502],"id":"feature_321"},{"properties":{"name":"\u6d25\u8efd\u77f3","line":"\u30ea\u30a2\u30b9\u7dda","riders":306},"type":"Point","coordinates":[98383,51279],"id":"feature_322"},{"properties":{"name":"\u516b\u6728\u6ca2\u30fb\u5bae\u53e4\u77ed\u5927","line":"\u30ea\u30a2\u30b9\u7dda","riders":49},"type":"Point","coordinates":[98765,53501],"id":"feature_323"},{"properties":{"name":"\u6255\u5ddd","line":"\u30ea\u30a2\u30b9\u7dda","riders":57},"type":"Point","coordinates":[98161,50274],"id":"feature_324"},{"properties":{"name":"\u65b0\u7530\u8001","line":"\u30ea\u30a2\u30b9\u7dda","riders":19},"type":"Point","coordinates":[99698,60340],"id":"feature_325"},{"properties":{"name":"\u6cc9\u5916\u65ed\u5ddd","line":"\u5965\u7fbd\u7dda","riders":0},"type":"Point","coordinates":[16985,60471],"id":"feature_326"},{"properties":{"name":"\u6cc9\u5916\u65ed\u5ddd","line":"\u5965\u7fbd\u7dda","riders":11},"type":"Point","coordinates":[17007,60490],"id":"feature_327"}],"type":"GeometryCollection"}},"bbox":[139.73155,38.70906,141.97404,40.41039],"transform":{"scale":[2.2425124251242548e-05,1.7013470134701332e-05],"translate":[139.73155,38.70906]},"arcs":[]}