{"type":"Topology","objects":{"data":{"geometries":[{"properties":{"name":"\u74e6\u753a","line":"\u7434\u5e73\u7dda","riders":14860},"type":"Point","coordinates":[65081,66701],"id":"feature_00"},{"properties":{"name":"\u7247\u539f\u753a","line":"\u7434\u5e73\u7dda","riders":5362},"type":"Point","coordinates":[65574,79260],"id":"feature_01"},{"properties":{"name":"\u9ad8\u677e\u7bc9\u6e2f","line":"\u7434\u5e73\u7dda","riders":13128},"type":"Point","coordinates":[64204,87475],"id":"feature_02"},{"properties":{"name":"\u4e09\u6761","line":"\u7434\u5e73\u7dda","riders":3224},"type":"Point","coordinates":[64247,33612],"id":"feature_03"},{"properties":{"name":"\u6817\u6797\u516c\u5712","line":"\u7434\u5e73\u7dda","riders":3456},"type":"Point","coordinates":[64672,48735],"id":"feature_04"},{"properties":{"name":"\u677e\u5cf6\u4e8c\u4e01\u76ee","line":"\u5fd7\u5ea6\u7dda","riders":588},"type":"Point","coordinates":[68392,68794],"id":"feature_05"},{"properties":{"name":"\u516d\u4e07\u5bfa","line":"\u5fd7\u5ea6\u7dda","riders":1082},"type":"Point","coordinates":[87336,73294],"id":"feature_06"},{"properties":{"name":"\u6625\u65e5\u5ddd","line":"\u5fd7\u5ea6\u7dda","riders":566},"type":"Point","coordinates":[73597,70521],"id":"feature_07"},{"properties":{"name":"\u539f","line":"\u5fd7\u5ea6\u7dda","riders":198},"type":"Point","coordinates":[95353,45246],"id":"feature_08"},{"properties":{"name":"\u7434\u96fb\u5fd7\u5ea6","line":"\u5fd7\u5ea6\u7dda","riders":1156},"type":"Point","coordinates":[97762,38165],"id":"feature_09"},{"properties":{"name":"\u623f\u524d","line":"\u5fd7\u5ea6\u7dda","riders":99},"type":"Point","coordinates":[93930,55415],"id":"feature_10"},{"properties":{"name":"\u6f5f\u5143","line":"\u5fd7\u5ea6\u7dda","riders":1908},"type":"Point","coordinates":[77510,71149],"id":"feature_11"},{"properties":{"name":"\u6c96\u677e\u5cf6","line":"\u5fd7\u5ea6\u7dda","riders":752},"type":"Point","coordinates":[70438,70957],"id":"feature_12"},{"properties":{"name":"\u516b\u6817","line":"\u5fd7\u5ea6\u7dda","riders":987},"type":"Point","coordinates":[84120,76835],"id":"feature_13"},{"properties":{"name":"\u7434\u96fb\u5c4b\u5cf6","line":"\u5fd7\u5ea6\u7dda","riders":840},"type":"Point","coordinates":[79592,71498],"id":"feature_14"},{"properties":{"name":"\u5869\u5c4b","line":"\u5fd7\u5ea6\u7dda","riders":143},"type":"Point","coordinates":[92993,61084],"id":"feature_15"},{"properties":{"name":"\u53e4\u9ad8\u677e","line":"\u5fd7\u5ea6\u7dda","riders":687},"type":"Point","coordinates":[81390,70364],"id":"feature_16"},{"properties":{"name":"\u74e6\u753a","line":"\u5fd7\u5ea6\u7dda","riders":12},"type":"Point","coordinates":[65373,68027],"id":"feature_17"},{"properties":{"name":"\u4eca\u6a4b","line":"\u5fd7\u5ea6\u7dda","riders":884},"type":"Point","coordinates":[66901,71655],"id":"feature_18"},{"properties":{"name":"\u5927\u753a","line":"\u5fd7\u5ea6\u7dda","riders":373},"type":"Point","coordinates":[89301,64259],"id":"feature_19"},{"properties":{"name":"\u516b\u6817\u65b0\u9053","line":"\u5fd7\u5ea6\u7dda","riders":225},"type":"Point","coordinates":[90938,63300],"id":"feature_20"},{"properties":{"name":"\u6797\u9053","line":"\u9577\u5c3e\u7dda","riders":2015},"type":"Point","coordinates":[70711,39665],"id":"feature_21"},{"properties":{"name":"\u82b1\u5712","line":"\u9577\u5c3e\u7dda","riders":1097},"type":"Point","coordinates":[66860,59358],"id":"feature_22"},{"properties":{"name":"\u6c34\u7530","line":"\u9577\u5c3e\u7dda","riders":1249},"type":"Point","coordinates":[75967,4308],"id":"feature_23"},{"properties":{"name":"\u5143\u5c71","line":"\u9577\u5c3e\u7dda","riders":916},"type":"Point","coordinates":[73577,17076],"id":"feature_24"},{"properties":{"name":"\u6728\u592a\u6771\u53e3","line":"\u9577\u5c3e\u7dda","riders":1014},"type":"Point","coordinates":[72441,33385],"id":"feature_25"},{"properties":{"name":"\u516b\u6817\u767b\u5c71\u53e3","line":"\u516b\u6817\u30b1\u30fc\u30d6\u30eb","riders":739},"type":"Point","coordinates":[87243,95272],"id":"feature_26"},{"properties":{"name":"\u516b\u6817\u5c71\u4e0a","line":"\u516b\u6817\u30b1\u30fc\u30d6\u30eb","riders":739},"type":"Point","coordinates":[88786,99999],"id":"feature_27"},{"properties":{"name":"\u662d\u548c\u753a","line":"\u9ad8\u5fb3\u7dda","riders":1144},"type":"Point","coordinates":[59519,75876],"id":"feature_28"},{"properties":{"name":"\u8b83\u5c90\u725f\u793c","line":"\u9ad8\u5fb3\u7dda","riders":550},"type":"Point","coordinates":[91004,62410],"id":"feature_29"},{"properties":{"name":"\u6728\u592a\u753a","line":"\u9ad8\u5fb3\u7dda","riders":772},"type":"Point","coordinates":[72539,54665],"id":"feature_30"},{"properties":{"name":"\u6817\u6797","line":"\u9ad8\u5fb3\u7dda","riders":2274},"type":"Point","coordinates":[65302,55381],"id":"feature_31"},{"properties":{"name":"\u5fd7\u5ea6","line":"\u9ad8\u5fb3\u7dda","riders":2134},"type":"Point","coordinates":[97925,36351],"id":"feature_32"},{"properties":{"name":"\u30aa\u30ec\u30f3\u30b8\u30bf\u30a6\u30f3","line":"\u9ad8\u5fb3\u7dda","riders":262},"type":"Point","coordinates":[99999,3087],"id":"feature_33"},{"properties":{"name":"\u6817\u6797\u516c\u5712\u5317\u53e3","line":"\u9ad8\u5fb3\u7dda","riders":956},"type":"Point","coordinates":[62004,59427],"id":"feature_34"},{"properties":{"name":"\u5c4b\u5cf6","line":"\u9ad8\u5fb3\u7dda","riders":1256},"type":"Point","coordinates":[80613,63108],"id":"feature_35"},{"properties":{"name":"\u53e4\u9ad8\u677e\u5357","line":"\u9ad8\u5fb3\u7dda","riders":486},"type":"Point","coordinates":[83902,70678],"id":"feature_36"},{"properties":{"name":"\u516b\u6817\u53e3","line":"\u9ad8\u5fb3\u7dda","riders":622},"type":"Point","coordinates":[88034,67154],"id":"feature_37"},{"properties":{"name":"\u9ad8\u677e","line":"\u9ad8\u5fb3\u7dda","riders":25952},"type":"Point","coordinates":[63105,87179],"id":"feature_38"},{"properties":{"name":"\u5b87\u591a\u6d25","line":"\u672c\u56db\u5099\u8b83\u7dda","riders":4544},"type":"Point","coordinates":[0,10012],"id":"feature_39"},{"properties":{"name":"\u9d28\u5ddd","line":"\u4e88\u8b83\u7dda","riders":698},"type":"Point","coordinates":[24939,11041],"id":"feature_40"},{"properties":{"name":"\u9999\u897f","line":"\u4e88\u8b83\u7dda","riders":1134},"type":"Point","coordinates":[53481,71131],"id":"feature_41"},{"properties":{"name":"\u5742\u51fa","line":"\u4e88\u8b83\u7dda","riders":10710},"type":"Point","coordinates":[11728,21995],"id":"feature_42"},{"properties":{"name":"\u7aef\u5ca1","line":"\u4e88\u8b83\u7dda","riders":2712},"type":"Point","coordinates":[42052,7797],"id":"feature_43"},{"properties":{"name":"\u9b3c\u7121","line":"\u4e88\u8b83\u7dda","riders":1370},"type":"Point","coordinates":[49047,43293],"id":"feature_44"},{"properties":{"name":"\u516b\u5341\u5834","line":"\u4e88\u8b83\u7dda","riders":228},"type":"Point","coordinates":[19377,21664],"id":"feature_45"},{"properties":{"name":"\u56fd\u5206","line":"\u4e88\u8b83\u7dda","riders":798},"type":"Point","coordinates":[34888,0],"id":"feature_46"},{"properties":{"name":"\u4f0f\u77f3","line":"\u7434\u5e73\u7dda","riders":1022},"type":"Point","coordinates":[63787,16117],"id":"feature_47"}],"type":"GeometryCollection"}},"bbox":[133.81375,34.30058,134.18072,34.35791],"transform":{"scale":[3.669736697367065e-06,5.733057330573338e-07],"translate":[133.81375,34.30058]},"arcs":[]}