{"type":"Topology","objects":{"data":{"geometries":[{"properties":{"zone":2},"type":"Polygon","arcs":[[-414,-229,-228,0,-230]],"id":"feature_000"},{"properties":{"zone":5},"type":"Polygon","arcs":[[-102,-231,1,-228,-227,2,-5]],"id":"feature_001"},{"properties":{"zone":6},"type":"Polygon","arcs":[[3,-103,4,5,-160]],"id":"feature_002"},{"properties":{"zone":8},"type":"Polygon","arcs":[[6,-401,-250,7,-257]],"id":"feature_003"},{"properties":{"zone":8},"type":"Polygon","arcs":[[8,-167,-243,-435,-247]],"id":"feature_004"},{"properties":{"zone":8},"type":"Polygon","arcs":[[-40,-276,9,-152,-111,10,-37,-280]],"id":"feature_005"},{"properties":{"zone":8},"type":"Polygon","arcs":[[-284,11,-116,-171,-293,12,-465,13,-44,14,-462,-326,-94,-324,15,-459,16,-453,17,-321,-450,18,-96,19,-269,-443]],"id":"feature_006"},{"properties":{"zone":8},"type":"Polygon","arcs":[[-424,20,-195,21,-89,22,-122,-347,23,-426,24,-132]],"id":"feature_007"},{"properties":{"zone":8},"type":"Polygon","arcs":[[-203,25,-201,-147]],"id":"feature_008"},{"properties":{"zone":8},"type":"Polygon","arcs":[[-146,-380,26,-337,27,-187]],"id":"feature_009"},{"properties":{"zone":8},"type":"Polygon","arcs":[[-358,-86,-355,28,-354,29]],"id":"feature_010"},{"properties":{"zone":8},"type":"Polygon","arcs":[[-395,-107,-210,30,-240,31,-368,32]],"id":"feature_011"},{"properties":{"zone":8},"type":"Polygon","arcs":[[-219,-71,33]],"id":"feature_012"},{"properties":{"zone":8},"type":"Polygon","arcs":[[34,-163,-264]],"id":"feature_013"},{"properties":{"zone":8},"type":"Polygon","arcs":[[-156,35,-236]],"id":"feature_014"},{"properties":{"zone":8},"type":"Polygon","arcs":[[36,37,-65,-282,-64,-239,-154,38,-274,39,-279,40,-277]],"id":"feature_015"},{"properties":{"zone":8},"type":"Polygon","arcs":[[-142,41,-299,-140,-313]],"id":"feature_016"},{"properties":{"zone":8},"type":"Polygon","arcs":[[-458,42,43,-290,44,-287,-143,-311,-130,-327,-129,-304,45,-309,46,-455,47]],"id":"feature_017"},{"properties":{"zone":8},"type":"Polygon","arcs":[[-76,48,-259,-437,-242,-166]],"id":"feature_018"},{"properties":{"zone":12},"type":"Polygon","arcs":[[49,-75]],"id":"feature_019"},{"properties":{"zone":12},"type":"Polygon","arcs":[[-68,50]],"id":"feature_020"},{"properties":{"zone":12},"type":"Polygon","arcs":[[51]],"id":"feature_021"},{"properties":{"zone":12},"type":"Polygon","arcs":[[52,-1035,53,-1069,-1068,-1048,54,-78]],"id":"feature_022"},{"properties":{"zone":12},"type":"Polygon","arcs":[[55,-63,-366,56,-1062,57,-85]],"id":"feature_023"},{"properties":{"zone":12},"type":"Polygon","arcs":[[58,-83]],"id":"feature_024"},{"properties":{"zone":11},"type":"Polygon","arcs":[[59]],"id":"feature_025"},{"properties":{"zone":11},"type":"Polygon","arcs":[[126]],"id":"feature_026"},{"properties":{"zone":11},"type":"Polygon","arcs":[[60,-391,-363]],"id":"feature_027"},{"properties":{"zone":11},"type":"Polygon","arcs":[[61,-367,62]],"id":"feature_028"},{"properties":{"zone":11},"type":"Polygon","arcs":[[-72,-215,63,-281,64,-109]],"id":"feature_029"},{"properties":{"zone":11},"type":"Polygon","arcs":[[-120,65,-73]],"id":"feature_030"},{"properties":{"zone":10},"type":"Polygon","arcs":[[66,67,68,-221,69,70,-218,-471,-216,71,72,73,74]],"id":"feature_031"},{"properties":{"zone":10},"type":"Polygon","arcs":[[75,-165,-261,76]],"id":"feature_032"},{"properties":{"zone":10},"type":"Polygon","arcs":[[1068,-1069]],"id":"feature_033"},{"properties":{"zone":10},"type":"Polygon","arcs":[[77,78,-1073,79]],"id":"feature_034"},{"properties":{"zone":10},"type":"Polygon","arcs":[[80,-361]],"id":"feature_035"},{"properties":{"zone":10},"type":"Polygon","arcs":[[81,82,83,84]],"id":"feature_036"},{"properties":{"zone":10},"type":"Polygon","arcs":[[85,-360,86,-356]],"id":"feature_037"},{"properties":{"zone":10},"type":"Polygon","arcs":[[87,88,89,-193]],"id":"feature_038"},{"properties":{"zone":10},"type":"Polygon","arcs":[[204]],"id":"feature_039"},{"properties":{"zone":10},"type":"Polygon","arcs":[[90,-345,91,-428]],"id":"feature_040"},{"properties":{"zone":10},"type":"Polygon","arcs":[[205]],"id":"feature_041"},{"properties":{"zone":10},"type":"Polygon","arcs":[[92,-289]],"id":"feature_042"},{"properties":{"zone":10},"type":"Polygon","arcs":[[-325,93]],"id":"feature_043"},{"properties":{"zone":10},"type":"Polygon","arcs":[[94,95,96,-448,-307,97,-271]],"id":"feature_044"},{"properties":{"zone":10},"type":"Polygon","arcs":[[-421,-198]],"id":"feature_045"},{"properties":{"zone":10},"type":"Polygon","arcs":[[-162,98,-266]],"id":"feature_046"},{"properties":{"zone":10},"type":"Polygon","arcs":[[99,-158,100,-233,-232,231,101,102]],"id":"feature_047"},{"properties":{"zone":10},"type":"Polygon","arcs":[[-128,-223,103,-225]],"id":"feature_048"},{"properties":{"zone":10},"type":"Polygon","arcs":[[104,-213,105,-211,106,-394,-470,107,-410]],"id":"feature_049"},{"properties":{"zone":10},"type":"Polygon","arcs":[[108,109,110,-151,111,-180,-417,112,-175,113,-320,114,-172,115,116,-285,-446,117,-273,118,119]],"id":"feature_050"},{"properties":{"zone":10},"type":"Polygon","arcs":[[-197,120,-422]],"id":"feature_051"},{"properties":{"zone":10},"type":"Polygon","arcs":[[121,122,-137,-350,123,-135,124,-430,125,-348],[126]],"id":"feature_052"},{"properties":{"zone":7},"type":"Polygon","arcs":[[127,-224]],"id":"feature_053"},{"properties":{"zone":7},"type":"Polygon","arcs":[[-305,128,-328,129,-316,130]],"id":"feature_054"},{"properties":{"zone":9},"type":"Polygon","arcs":[[-199,-425,131,132,-432,133,134,135,-351,136,137,-191,138,-314,139,-298,140,141,-312,142,-286,143,-177,-303,-184,-341,144,-381,145,-204,146,147]],"id":"feature_055"},{"properties":{"zone":9},"type":"Polygon","arcs":[[-186,-335]],"id":"feature_056"},{"properties":{"zone":9},"type":"Polygon","arcs":[[-334,148,-342,-183]],"id":"feature_057"},{"properties":{"zone":9},"type":"Polygon","arcs":[[-301,-182,149,150,151,152,153,-238,154,155,-235,156,157,158,159,160,161,-265,162,163,-262,164,165,-244,166,167,-245,168,-330,169,-332,-185]],"id":"feature_058"},{"properties":{"zone":9},"type":"Polygon","arcs":[[170,171,172,-318,173,174,175,-419,-179,-294]],"id":"feature_059"},{"properties":{"zone":9},"type":"Polygon","arcs":[[-300,176,177,-295,178,-418,179,180,181]],"id":"feature_060"},{"properties":{"zone":9},"type":"Polygon","arcs":[[182,183,-302,184,-331,185]],"id":"feature_061"},{"properties":{"zone":5},"type":"Polygon","arcs":[[186,187,-388,188,-386,189,190,191,192,193,194,195,196,197,-420,198,199,200,201,202,203],[204],[205]],"id":"feature_062"},{"properties":{"zone":5},"type":"Polygon","arcs":[[-409,206,-407,207,-412,208,209,210,211,212,213]],"id":"feature_063"},{"properties":{"zone":5},"type":"Polygon","arcs":[[214,215,-474,-399,216,-397,-472,217,218,219,220,221,222,223,224,225,226,227,228,-415,229,230,-232,231,232,233,234,235,236,237,238]],"id":"feature_064"},{"properties":{"zone":5},"type":"Polygon","arcs":[[239,240]],"id":"feature_065"},{"properties":{"zone":5},"type":"Polygon","arcs":[[241,-436,242,243]],"id":"feature_066"},{"properties":{"zone":5},"type":"Polygon","arcs":[[244,245,246,247,-433,248,249,-400,250,-406,251]],"id":"feature_067"},{"properties":{"zone":5},"type":"Polygon","arcs":[[252,-441,253,-373,254,-403,255,256]],"id":"feature_068"},{"properties":{"zone":5},"type":"Polygon","arcs":[[-371,257,-375,-438,258,259,260,261,262,263,264,265,266]],"id":"feature_069"},{"properties":{"zone":5},"type":"Polygon","arcs":[[267,-444,268,269,270,271,272]],"id":"feature_070"},{"properties":{"zone":5},"type":"Polygon","arcs":[[273,274,275]],"id":"feature_071"},{"properties":{"zone":5},"type":"Polygon","arcs":[[276,277,278,279]],"id":"feature_072"},{"properties":{"zone":5},"type":"Polygon","arcs":[[280,281]],"id":"feature_073"},{"properties":{"zone":5},"type":"Polygon","arcs":[[282,283,-447,284]],"id":"feature_074"},{"properties":{"zone":5},"type":"Polygon","arcs":[[285,286,287,288,289,290,-467,291,292,293,294,295]],"id":"feature_075"},{"properties":{"zone":5},"type":"Polygon","arcs":[[296,297,298]],"id":"feature_076"},{"properties":{"zone":5},"type":"Polygon","arcs":[[299,300,301,302]],"id":"feature_077"},{"properties":{"zone":5},"type":"Polygon","arcs":[[303,304,305,306,-457,307,308,309]],"id":"feature_078"},{"properties":{"zone":5},"type":"Polygon","arcs":[[310,311,312,313,314,315]],"id":"feature_079"},{"properties":{"zone":5},"type":"Polygon","arcs":[[316,317,318,319]],"id":"feature_080"},{"properties":{"zone":5},"type":"Polygon","arcs":[[320,321,-451]],"id":"feature_081"},{"properties":{"zone":5},"type":"Polygon","arcs":[[-461,322,323,324,325]],"id":"feature_082"},{"properties":{"zone":5},"type":"Polygon","arcs":[[326,327]],"id":"feature_083"},{"properties":{"zone":5},"type":"Polygon","arcs":[[328,329]],"id":"feature_084"},{"properties":{"zone":5},"type":"Polygon","arcs":[[330,331,332,333,334]],"id":"feature_085"},{"properties":{"zone":5},"type":"Polygon","arcs":[[-376,335,336,337,-378,338]],"id":"feature_086"},{"properties":{"zone":5},"type":"Polygon","arcs":[[339,340,341,342,-383]],"id":"feature_087"},{"properties":{"zone":5},"type":"Polygon","arcs":[[343,344,345,346,347]],"id":"feature_088"},{"properties":{"zone":5},"type":"Polygon","arcs":[[348,349,350]],"id":"feature_089"},{"properties":{"zone":5},"type":"Polygon","arcs":[[351,-389,352,353]],"id":"feature_090"},{"properties":{"zone":5},"type":"Polygon","arcs":[[354,355,356]],"id":"feature_091"},{"properties":{"zone":5},"type":"Polygon","arcs":[[357,358,359]],"id":"feature_092"},{"properties":{"zone":5},"type":"Polygon","arcs":[[360,361,362,-393,363]],"id":"feature_093"},{"properties":{"zone":5},"type":"Polygon","arcs":[[364,-1064,365,366]],"id":"feature_094"},{"properties":{"zone":5},"type":"Polygon","arcs":[[367,368]],"id":"feature_095"},{"properties":{"zone":3},"type":"Polygon","arcs":[[369,370]],"id":"feature_096"},{"properties":{"zone":3},"type":"Polygon","arcs":[[371,372,373,-439,374]],"id":"feature_097"},{"properties":{"zone":3},"type":"Polygon","arcs":[[375,376,377,378,379,380,381,382,383]],"id":"feature_098"},{"properties":{"zone":3},"type":"Polygon","arcs":[[384,385,386,387]],"id":"feature_099"},{"properties":{"zone":3},"type":"Polygon","arcs":[[388,389]],"id":"feature_100"},{"properties":{"zone":3},"type":"Polygon","arcs":[[390,391,392]],"id":"feature_101"},{"properties":{"zone":3},"type":"Polygon","arcs":[[393,394,395,-468]],"id":"feature_102"},{"properties":{"zone":3},"type":"Polygon","arcs":[[396,397,398,-473]],"id":"feature_103"},{"properties":{"zone":1},"type":"Polygon","arcs":[[399,400,401,402,403]],"id":"feature_104"},{"properties":{"zone":1},"type":"Polygon","arcs":[[404,405]],"id":"feature_105"},{"properties":{"zone":1},"type":"Polygon","arcs":[[406,407,408,409,410,411,412]],"id":"feature_106"},{"properties":{"zone":1},"type":"Polygon","arcs":[[413,414]],"id":"feature_107"},{"properties":{"zone":6},"type":"Polygon","arcs":[[415,416,417,418]],"id":"feature_108"},{"properties":{"zone":6},"type":"Polygon","arcs":[[419,420,421,422,423,424]],"id":"feature_109"},{"properties":{"zone":6},"type":"Polygon","arcs":[[425,426,427,428,429,430,431]],"id":"feature_110"},{"properties":{"zone":4},"type":"Polygon","arcs":[[432,433,434,435,436,437,438,439,440,441]],"id":"feature_111"},{"properties":{"zone":4},"type":"Polygon","arcs":[[442,443,444,445,446]],"id":"feature_112"},{"properties":{"zone":4},"type":"Polygon","arcs":[[447,448,449,450,451,452,453,454,455,456]],"id":"feature_113"},{"properties":{"zone":4},"type":"Polygon","arcs":[[457,458,459,460,461,462]],"id":"feature_114"},{"properties":{"zone":4},"type":"Polygon","arcs":[[463,464,465,466]],"id":"feature_115"},{"properties":{"zone":4},"type":"Polygon","arcs":[[467,468,469]],"id":"feature_116"},{"properties":{"zone":4},"type":"Polygon","arcs":[[470,471,472,473]],"id":"feature_117"},{"properties":{"zone":3},"type":"Polygon","arcs":[[-479,474,-1101,475]],"id":"feature_118"},{"properties":{"zone":10},"type":"Polygon","arcs":[[476,-480,477,478]],"id":"feature_119"},{"properties":{"zone":12},"type":"Polygon","arcs":[[479,480]],"id":"feature_120"},{"properties":{"zone":3},"type":"Polygon","arcs":[[481,-488]],"id":"feature_121"},{"properties":{"zone":8},"type":"Polygon","arcs":[[-486,-484]],"id":"feature_122"},{"properties":{"zone":3},"type":"Polygon","arcs":[[482,-487,483,-485]],"id":"feature_123"},{"properties":{"zone":5},"type":"Polygon","arcs":[[484,485,486,487,488]],"id":"feature_124"},{"properties":{"zone":3},"type":"Polygon","arcs":[[489,-495,-491]],"id":"feature_125"},{"properties":{"zone":8},"type":"Polygon","arcs":[[490,-494,491]],"id":"feature_126"},{"properties":{"zone":3},"type":"Polygon","arcs":[[-497,492]],"id":"feature_127"},{"properties":{"zone":5},"type":"Polygon","arcs":[[493,494,495,496,497]],"id":"feature_128"},{"properties":{"zone":11},"type":"Polygon","arcs":[[-506,498]],"id":"feature_129"},{"properties":{"zone":5},"type":"Polygon","arcs":[[-503,-501,-511,499]],"id":"feature_130"},{"properties":{"zone":3},"type":"Polygon","arcs":[[500,-502,-512]],"id":"feature_131"},{"properties":{"zone":7},"type":"Polygon","arcs":[[-523,-515,-514,-513,501,502,503]],"id":"feature_132"},{"properties":{"zone":10},"type":"Polygon","arcs":[[504,505,506,-643,507,-641,508,-639,-525]],"id":"feature_133"},{"properties":{"zone":10},"type":"Polygon","arcs":[[509,510,511,512,513,514,-522,-517,-518]],"id":"feature_134"},{"properties":{"zone":1},"type":"Polygon","arcs":[[-532,515]],"id":"feature_135"},{"properties":{"zone":8},"type":"Polygon","arcs":[[-529,-534,-519,516,-521]],"id":"feature_136"},{"properties":{"zone":3},"type":"Polygon","arcs":[[517,518,-536,-645,519]],"id":"feature_137"},{"properties":{"zone":3},"type":"Polygon","arcs":[[520,521,522,523,-530]],"id":"feature_138"},{"properties":{"zone":11},"type":"Polygon","arcs":[[524,-638,525,-636,526,-634,527]],"id":"feature_139"},{"properties":{"zone":5},"type":"Polygon","arcs":[[-535,528,529,530,531,532,-543]],"id":"feature_140"},{"properties":{"zone":8},"type":"Polygon","arcs":[[533,534,-542,-603,535]],"id":"feature_141"},{"properties":{"zone":8},"type":"Polygon","arcs":[[-540,-607]],"id":"feature_142"},{"properties":{"zone":11},"type":"Polygon","arcs":[[647]],"id":"feature_143"},{"properties":{"zone":1},"type":"Polygon","arcs":[[536,-632]],"id":"feature_144"},{"properties":{"zone":3},"type":"Polygon","arcs":[[537,-565]],"id":"feature_145"},{"properties":{"zone":3},"type":"Polygon","arcs":[[538,-647]],"id":"feature_146"},{"properties":{"zone":8},"type":"Polygon","arcs":[[-562,-559,-609,-545]],"id":"feature_147"},{"properties":{"zone":9},"type":"Polygon","arcs":[[539,-606,540,-604,541,542,543,-563,544,-608]],"id":"feature_148"},{"properties":{"zone":3},"type":"Polygon","arcs":[[545,-616,-556,546,-620,547,-618]],"id":"feature_149"},{"properties":{"zone":9},"type":"Polygon","arcs":[[548,-630,549,-628,550,-626]],"id":"feature_150"},{"properties":{"zone":3},"type":"Polygon","arcs":[[551,-561,-567]],"id":"feature_151"},{"properties":{"zone":3},"type":"Polygon","arcs":[[-611,-558,-575]],"id":"feature_152"},{"properties":{"zone":10},"type":"Polygon","arcs":[[-625,552,-623,553,-621,554,555,-615,-573,556]],"id":"feature_153"},{"properties":{"zone":8},"type":"Polygon","arcs":[[557,-610,558,-572,-576]],"id":"feature_154"},{"properties":{"zone":1},"type":"Polygon","arcs":[[559,-570,-569,568,-568,560]],"id":"feature_155"},{"properties":{"zone":5},"type":"Polygon","arcs":[[561,562,563,564,565,566,567,-569,568,569,570,-577,571]],"id":"feature_156"},{"properties":{"zone":11},"type":"Polygon","arcs":[[572,-614,573,-612,574,575,576,577]],"id":"feature_157"},{"properties":{"zone":3},"type":"Polygon","arcs":[[-580,-583,578]],"id":"feature_158"},{"properties":{"zone":5},"type":"Polygon","arcs":[[579,580,-594]],"id":"feature_159"},{"properties":{"zone":3},"type":"Polygon","arcs":[[-601,-600,599,-586,581]],"id":"feature_160"},{"properties":{"zone":1},"type":"Polygon","arcs":[[582,-593,583]],"id":"feature_161"},{"properties":{"zone":11},"type":"Polygon","arcs":[[584,585,-600,-599]],"id":"feature_162"},{"properties":{"zone":3},"type":"Polygon","arcs":[[-597,586]],"id":"feature_163"},{"properties":{"zone":5},"type":"Polygon","arcs":[[-591,587,-595,588]],"id":"feature_164"},{"properties":{"zone":3},"type":"Polygon","arcs":[[589,590,591,592,593]],"id":"feature_165"},{"properties":{"zone":1},"type":"Polygon","arcs":[[594,595]],"id":"feature_166"},{"properties":{"zone":5},"type":"Polygon","arcs":[[596,597,598,599,600,601]],"id":"feature_167"},{"properties":{"zone":5},"type":"Polygon","arcs":[[602,603,604,605,606,607,608,609,610,611,612,613,614,615,616,617,618,619,620,621,622,623,624,625,626,627,628,629,630,631,632,633,634,635,636,637,638,639,640,641,642,643,644],[645,646],[647]],"id":"feature_168"},{"properties":{"zone":7},"type":"Polygon","arcs":[[-675,648]],"id":"feature_169"},{"properties":{"zone":7},"type":"Polygon","arcs":[[742,-742,-682,-752,-765,649,-711,650,-705,651,-710,652,-780,-700,-778,-684,-741,-683]],"id":"feature_170"},{"properties":{"zone":7},"type":"Polygon","arcs":[[653,-798,-691,654,-699]],"id":"feature_171"},{"properties":{"zone":7},"type":"Polygon","arcs":[[-702,-794,-697,655,-708,656,-754,657,-748,-689,658]],"id":"feature_172"},{"properties":{"zone":9},"type":"Polygon","arcs":[[659,-685,-776,-703,-774,-679,-811],[660]],"id":"feature_173"},{"properties":{"zone":9},"type":"Polygon","arcs":[[-677,-844,661,-828,662]],"id":"feature_174"},{"properties":{"zone":5},"type":"Polygon","arcs":[[-714,663,-842,664,-838,-815,-858,665,-716,666]],"id":"feature_175"},{"properties":{"zone":5},"type":"Polygon","arcs":[[667,-756,668,-806,669,-720,-799,670,-804,671,-718,672,-738,-809,-852,673,674],[675]],"id":"feature_176"},{"properties":{"zone":5},"type":"Polygon","arcs":[[-845,676,-823,677]],"id":"feature_177"},{"properties":{"zone":5},"type":"Polygon","arcs":[[-812,678,-786,-769,679]],"id":"feature_178"},{"properties":{"zone":5},"type":"Polygon","arcs":[[680,-750,681,-744,-743,682,-740,683,-777,684]],"id":"feature_179"},{"properties":{"zone":5},"type":"Polygon","arcs":[[-730,685,-722,-833,-808,-831,-745,686]],"id":"feature_180"},{"properties":{"zone":5},"type":"Polygon","arcs":[[-835,-724,687]],"id":"feature_181"},{"properties":{"zone":5},"type":"Polygon","arcs":[[688,-747,-825,-855,689,-736,690,-797,691]],"id":"feature_182"},{"properties":{"zone":5},"type":"Polygon","arcs":[[-789,692,-728,-759,-725]],"id":"feature_183"},{"properties":{"zone":5},"type":"Polygon","arcs":[[-840,693]],"id":"feature_184"},{"properties":{"zone":5},"type":"Polygon","arcs":[[694,-766,695,696,-793,697,698]],"id":"feature_185"},{"properties":{"zone":5},"type":"Polygon","arcs":[[-779,699]],"id":"feature_186"},{"properties":{"zone":5},"type":"Polygon","arcs":[[700,-795,701]],"id":"feature_187"},{"properties":{"zone":5},"type":"Polygon","arcs":[[702,-775]],"id":"feature_188"},{"properties":{"zone":5},"type":"Polygon","arcs":[[703,704]],"id":"feature_189"},{"properties":{"zone":5},"type":"Polygon","arcs":[[-782,705]],"id":"feature_190"},{"properties":{"zone":5},"type":"Polygon","arcs":[[706,707]],"id":"feature_191"},{"properties":{"zone":5},"type":"Polygon","arcs":[[708,709]],"id":"feature_192"},{"properties":{"zone":5},"type":"Polygon","arcs":[[710,711]],"id":"feature_193"},{"properties":{"zone":3},"type":"Polygon","arcs":[[712,713,714,715]],"id":"feature_194"},{"properties":{"zone":3},"type":"Polygon","arcs":[[716,717,-802,718,-800,719],[720]],"id":"feature_195"},{"properties":{"zone":3},"type":"Polygon","arcs":[[-834,721,722,723]],"id":"feature_196"},{"properties":{"zone":3},"type":"Polygon","arcs":[[-790,724,-762,725]],"id":"feature_197"},{"properties":{"zone":3},"type":"Polygon","arcs":[[726,-760,727]],"id":"feature_198"},{"properties":{"zone":3},"type":"Polygon","arcs":[[-772,728,729,730],[731]],"id":"feature_199"},{"properties":{"zone":3},"type":"Polygon","arcs":[[732]],"id":"feature_200"},{"properties":{"zone":3},"type":"Polygon","arcs":[[-787,733]],"id":"feature_201"},{"properties":{"zone":3},"type":"Polygon","arcs":[[-758,734]],"id":"feature_202"},{"properties":{"zone":3},"type":"Polygon","arcs":[[735,736]],"id":"feature_203"},{"properties":{"zone":3},"type":"Polygon","arcs":[[-810,737,738,-850]],"id":"feature_204"},{"properties":{"zone":3},"type":"Polygon","arcs":[[739,740]],"id":"feature_205"},{"properties":{"zone":3},"type":"Polygon","arcs":[[741,-743,742,743]],"id":"feature_206"},{"properties":{"zone":3},"type":"Polygon","arcs":[[744,-830,745]],"id":"feature_207"},{"properties":{"zone":3},"type":"Polygon","arcs":[[-826,746,747,748]],"id":"feature_208"},{"properties":{"zone":3},"type":"Polygon","arcs":[[749,750,-763,751]],"id":"feature_209"},{"properties":{"zone":3},"type":"Polygon","arcs":[[752,753]],"id":"feature_210"},{"properties":{"zone":1},"type":"Polygon","arcs":[[754,755,756,757]],"id":"feature_211"},{"properties":{"zone":1},"type":"Polygon","arcs":[[758,759,760,761]],"id":"feature_212"},{"properties":{"zone":1},"type":"Polygon","arcs":[[762,763,764]],"id":"feature_213"},{"properties":{"zone":1},"type":"Polygon","arcs":[[765,766]],"id":"feature_214"},{"properties":{"zone":1},"type":"Polygon","arcs":[[-770,-784,767]],"id":"feature_215"},{"properties":{"zone":6},"type":"Polygon","arcs":[[768,-785,769,770]],"id":"feature_216"},{"properties":{"zone":4},"type":"Polygon","arcs":[[771,772]],"id":"feature_217"},{"properties":{"zone":8},"type":"Polygon","arcs":[[773,774,775,776,777,778,779,780,781,782,783,784,785]],"id":"feature_218"},{"properties":{"zone":8},"type":"Polygon","arcs":[[786,787,788,789,790]],"id":"feature_219"},{"properties":{"zone":8},"type":"Polygon","arcs":[[791,792,793,794,795,796,797]],"id":"feature_220"},{"properties":{"zone":8},"type":"Polygon","arcs":[[798,799,800,801,802,803,804]],"id":"feature_221"},{"properties":{"zone":8},"type":"Polygon","arcs":[[805,806]],"id":"feature_222"},{"properties":{"zone":8},"type":"Polygon","arcs":[[807,-832]],"id":"feature_223"},{"properties":{"zone":8},"type":"Polygon","arcs":[[808,809,-849]],"id":"feature_224"},{"properties":{"zone":8},"type":"Polygon","arcs":[[810,811,812]],"id":"feature_225"},{"properties":{"zone":12},"type":"Polygon","arcs":[[813]],"id":"feature_226"},{"properties":{"zone":12},"type":"Polygon","arcs":[[-856,814,-837,815]],"id":"feature_227"},{"properties":{"zone":12},"type":"Polygon","arcs":[[816,-847]],"id":"feature_228"},{"properties":{"zone":12},"type":"Polygon","arcs":[[817]],"id":"feature_229"},{"properties":{"zone":12},"type":"Polygon","arcs":[[818]],"id":"feature_230"},{"properties":{"zone":11},"type":"Polygon","arcs":[[819]],"id":"feature_231"},{"properties":{"zone":11},"type":"Polygon","arcs":[[820]],"id":"feature_232"},{"properties":{"zone":11},"type":"Polygon","arcs":[[821]],"id":"feature_233"},{"properties":{"zone":11},"type":"Polygon","arcs":[[822,823]],"id":"feature_234"},{"properties":{"zone":11},"type":"Polygon","arcs":[[824,825,826,-853]],"id":"feature_235"},{"properties":{"zone":11},"type":"Polygon","arcs":[[827,828]],"id":"feature_236"},{"properties":{"zone":10},"type":"Polygon","arcs":[[829,830,831,832,833,834,835]],"id":"feature_237"},{"properties":{"zone":10},"type":"Polygon","arcs":[[836,837,838]],"id":"feature_238"},{"properties":{"zone":10},"type":"Polygon","arcs":[[839,840]],"id":"feature_239"},{"properties":{"zone":10},"type":"Polygon","arcs":[[841,842]],"id":"feature_240"},{"properties":{"zone":10},"type":"Polygon","arcs":[[843,844,845,846,847]],"id":"feature_241"},{"properties":{"zone":10},"type":"Polygon","arcs":[[848,849,850,851]],"id":"feature_242"},{"properties":{"zone":10},"type":"Polygon","arcs":[[852,853,854]],"id":"feature_243"},{"properties":{"zone":10},"type":"Polygon","arcs":[[855,856,857]],"id":"feature_244"},{"properties":{"zone":3},"type":"Polygon","arcs":[[858,-860]],"id":"feature_245"},{"properties":{"zone":1},"type":"Polygon","arcs":[[859,860,-872,861]],"id":"feature_246"},{"properties":{"zone":1},"type":"Polygon","arcs":[[-874,862,-866]],"id":"feature_247"},{"properties":{"zone":1},"type":"Polygon","arcs":[[-870,-865,863]],"id":"feature_248"},{"properties":{"zone":3},"type":"Polygon","arcs":[[864,-869]],"id":"feature_249"},{"properties":{"zone":3},"type":"Polygon","arcs":[[865,866,-875]],"id":"feature_250"},{"properties":{"zone":8},"type":"Polygon","arcs":[[867,-880,-893]],"id":"feature_251"},{"properties":{"zone":5},"type":"Polygon","arcs":[[868,869,870,871,872,873,874,875,-891,-879,876]],"id":"feature_252"},{"properties":{"zone":8},"type":"Polygon","arcs":[[-890,-884,877,878]],"id":"feature_253"},{"properties":{"zone":6},"type":"Polygon","arcs":[[879,880,-904,881,-920,-894]],"id":"feature_254"},{"properties":{"zone":5},"type":"Polygon","arcs":[[882,883,-889,-886]],"id":"feature_255"},{"properties":{"zone":8},"type":"Polygon","arcs":[[884,885,-888,886,-895,-897]],"id":"feature_256"},{"properties":{"zone":9},"type":"Polygon","arcs":[[887,888,889,890,891,892,893,-919,-901,-900,-898,894,895]],"id":"feature_257"},{"properties":{"zone":5},"type":"Polygon","arcs":[[896,897,-910,898]],"id":"feature_258"},{"properties":{"zone":6},"type":"Polygon","arcs":[[899,-902,-911]],"id":"feature_259"},{"properties":{"zone":5},"type":"Polygon","arcs":[[900,-918,-909,-912,901]],"id":"feature_260"},{"properties":{"zone":3},"type":"Polygon","arcs":[[902,903,904,-907]],"id":"feature_261"},{"properties":{"zone":6},"type":"Polygon","arcs":[[-917,905,906,907,-913,908]],"id":"feature_262"},{"properties":{"zone":3},"type":"Polygon","arcs":[[909,910,911,912,913]],"id":"feature_263"},{"properties":{"zone":11},"type":"Polygon","arcs":[[-923,914]],"id":"feature_264"},{"properties":{"zone":11},"type":"Polygon","arcs":[[-925,915]],"id":"feature_265"},{"properties":{"zone":8},"type":"Polygon","arcs":[[916,917,918,919,920]],"id":"feature_266"},{"properties":{"zone":12},"type":"Polygon","arcs":[[921,922,923,924]],"id":"feature_267"},{"properties":{"zone":1},"type":"Polygon","arcs":[[-934,-936,-944,925]],"id":"feature_268"},{"properties":{"zone":1},"type":"Polygon","arcs":[[-931,926,-971,-928]],"id":"feature_269"},{"properties":{"zone":3},"type":"Polygon","arcs":[[927,-970,-943,928,-932]],"id":"feature_270"},{"properties":{"zone":5},"type":"Polygon","arcs":[[929,930,931,932,-935,933]],"id":"feature_271"},{"properties":{"zone":3},"type":"Polygon","arcs":[[934,-941,-945,935]],"id":"feature_272"},{"properties":{"zone":8},"type":"Polygon","arcs":[[936,-951,-950,-940,937,-973]],"id":"feature_273"},{"properties":{"zone":9},"type":"Polygon","arcs":[[-975,938,939,-949,-956,-959,-946,940,941,942]],"id":"feature_274"},{"properties":{"zone":8},"type":"Polygon","arcs":[[943,944,945,-962,-965,946]],"id":"feature_275"},{"properties":{"zone":4},"type":"Polygon","arcs":[[-954,947]],"id":"feature_276"},{"properties":{"zone":5},"type":"Polygon","arcs":[[-953,948,949]],"id":"feature_277"},{"properties":{"zone":3},"type":"Polygon","arcs":[[950,951,-957,952]],"id":"feature_278"},{"properties":{"zone":5},"type":"Polygon","arcs":[[953,954,-960,955,956,957]],"id":"feature_279"},{"properties":{"zone":6},"type":"Polygon","arcs":[[958,959,960,-963,961]],"id":"feature_280"},{"properties":{"zone":5},"type":"Polygon","arcs":[[962,963,964]],"id":"feature_281"},{"properties":{"zone":5},"type":"Polygon","arcs":[[965,-968]],"id":"feature_282"},{"properties":{"zone":11},"type":"Polygon","arcs":[[966,967,968]],"id":"feature_283"},{"properties":{"zone":5},"type":"Polygon","arcs":[[969,970,971,972,973,974]],"id":"feature_284"},{"properties":{"zone":10},"type":"Polygon","arcs":[[-982,975]],"id":"feature_285"},{"properties":{"zone":3},"type":"Polygon","arcs":[[-978,-999,976,-980]],"id":"feature_286"},{"properties":{"zone":9},"type":"Polygon","arcs":[[-979,-987,-1000,977]],"id":"feature_287"},{"properties":{"zone":5},"type":"Polygon","arcs":[[978,979,980,981,982,-988]],"id":"feature_288"},{"properties":{"zone":5},"type":"Polygon","arcs":[[-997,983,-991,-994,984]],"id":"feature_289"},{"properties":{"zone":8},"type":"Polygon","arcs":[[985,-1001,986,987,988,-992]],"id":"feature_290"},{"properties":{"zone":8},"type":"Polygon","arcs":[[989,-995,990]],"id":"feature_291"},{"properties":{"zone":5},"type":"Polygon","arcs":[[991,992]],"id":"feature_292"},{"properties":{"zone":3},"type":"Polygon","arcs":[[993,994,995]],"id":"feature_293"},{"properties":{"zone":10},"type":"Polygon","arcs":[[996,997]],"id":"feature_294"},{"properties":{"zone":10},"type":"Polygon","arcs":[[998,999,1000,1001]],"id":"feature_295"},{"properties":{"zone":4},"type":"Polygon","arcs":[[-1005,1002]],"id":"feature_296"},{"properties":{"zone":11},"type":"Polygon","arcs":[[1003,1004,1005,-1010]],"id":"feature_297"},{"properties":{"zone":10},"type":"Polygon","arcs":[[1006,-1008,-1014,-1012]],"id":"feature_298"},{"properties":{"zone":6},"type":"Polygon","arcs":[[1007,1008,-1019,-1015]],"id":"feature_299"},{"properties":{"zone":5},"type":"Polygon","arcs":[[1009,1010,1011,-1017,1012]],"id":"feature_300"},{"properties":{"zone":8},"type":"Polygon","arcs":[[1013,1014,-1018,1015,1016]],"id":"feature_301"},{"properties":{"zone":5},"type":"Polygon","arcs":[[1017,1018,1019,-1110,1020]],"id":"feature_302"},{"properties":{"zone":8},"type":"Polygon","arcs":[[1021,-1024]],"id":"feature_303"},{"properties":{"zone":10},"type":"Polygon","arcs":[[-1026,1022,1023,1024]],"id":"feature_304"},{"properties":{"zone":12},"type":"Polygon","arcs":[[1025,1026]],"id":"feature_305"},{"properties":{"zone":9},"type":"Polygon","arcs":[[1027,-1031,-1042,-1030]],"id":"feature_306"},{"properties":{"zone":3},"type":"Polygon","arcs":[[1028,1029,-1041,-1034]],"id":"feature_307"},{"properties":{"zone":6},"type":"Polygon","arcs":[[1030,1031,-1039,-1043]],"id":"feature_308"},{"properties":{"zone":5},"type":"Polygon","arcs":[[1032,1033,-1040,-1075]],"id":"feature_309"},{"properties":{"zone":12},"type":"Polygon","arcs":[[1034,1035,-1071,1036]],"id":"feature_310"},{"properties":{"zone":3},"type":"Polygon","arcs":[[1037,-1044,1038]],"id":"feature_311"},{"properties":{"zone":7},"type":"Polygon","arcs":[[-1050,-1076,1039,1040,1041,1042,1043,1044,-1046]],"id":"feature_312"},{"properties":{"zone":3},"type":"Polygon","arcs":[[1045,1046,-1051]],"id":"feature_313"},{"properties":{"zone":12},"type":"Polygon","arcs":[[1047,-1067,1048]],"id":"feature_314"},{"properties":{"zone":5},"type":"Polygon","arcs":[[1049,1050,1051,-1053,-1056,-1077]],"id":"feature_315"},{"properties":{"zone":3},"type":"Polygon","arcs":[[1052,1053,-1057]],"id":"feature_316"},{"properties":{"zone":8},"type":"Polygon","arcs":[[1054,-1093,-1078,1055,1056,1057,-1059,-1083]],"id":"feature_317"},{"properties":{"zone":4},"type":"Polygon","arcs":[[-1084,1058,1059]],"id":"feature_318"},{"properties":{"zone":12},"type":"Polygon","arcs":[[1060,1061,1062,-1066,-1089]],"id":"feature_319"},{"properties":{"zone":5},"type":"Polygon","arcs":[[1063,1064,-1090,1065]],"id":"feature_320"},{"properties":{"zone":10},"type":"Polygon","arcs":[[1066,1067,1068,1069,1070,1071,1072,1073,1074,1075,1076,1077,-1096,-1087,1078,-1097,1079]],"id":"feature_321"},{"properties":{"zone":5},"type":"Polygon","arcs":[[1080,-1092,-1103]],"id":"feature_322"},{"properties":{"zone":5},"type":"Polygon","arcs":[[-1106,1081,1082,1083,1084]],"id":"feature_323"},{"properties":{"zone":3},"type":"Polygon","arcs":[[-1095,1085,1086]],"id":"feature_324"},{"properties":{"zone":8},"type":"Polygon","arcs":[[1087,1088,1089,1090,-1099,1091]],"id":"feature_325"},{"properties":{"zone":6},"type":"Polygon","arcs":[[1092,1093,1094,1095]],"id":"feature_326"},{"properties":{"zone":5},"type":"Polygon","arcs":[[1096,1097]],"id":"feature_327"},{"properties":{"zone":4},"type":"Polygon","arcs":[[1098,1099,1100,1101,1102]],"id":"feature_328"},{"properties":{"zone":1},"type":"Polygon","arcs":[[-1108,1103]],"id":"feature_329"},{"properties":{"zone":3},"type":"Polygon","arcs":[[1104,1105,1106,1107]],"id":"feature_330"},{"properties":{"zone":5},"type":"Polygon","arcs":[[1108,1109]],"id":"feature_331"},{"properties":{"zone":12},"type":"Polygon","arcs":[[1110]],"id":"feature_332"}],"type":"GeometryCollection"}},"bbox":[134.3462,33.7225,134.7048,34.2135],"transform":{"scale":[3.5863586358635425e-05,4.910491049104978e-05],"translate":[134.3462,33.7225]},"arcs":[[[5881,6621],[83,122]],[[5964,6743],[-78,-122]],[[5867,6623],[-3,0]],[[5806,6788],[2,4]],[[5869,6774],[-5,-151]],[[5864,6623],[-112,-4]],[[5228,6712],[31,21]],[[5270,6720],[-33,-22]],[[5557,6793],[3,-1]],[[6020,6975],[3,6]],[[6109,6948],[31,-34]],[[6296,6963],[-20,6]],[[6346,7142],[8,19]],[[6374,7197],[3,8]],[[6388,7197],[0,-17]],[[6391,7140],[8,8]],[[6424,7188],[28,-10]],[[6432,7154],[-8,-22]],[[6731,6999],[28,-6]],[[6781,6983],[-6,-12]],[[5326,7354],[44,55]],[[5635,7420],[47,-2]],[[5728,7415],[0,-16]],[[5390,7403],[-31,-39]],[[5373,7292],[-8,2]],[[4816,7300],[-17,15]],[[4595,7166],[3,-7]],[[4283,7120],[8,14]],[[4199,7150],[-19,-14]],[[3485,7083],[56,20]],[[6187,6136],[6,-12]],[[6193,6107],[-3,-20]],[[6193,6056],[-28,14]],[[6455,6731],[11,-3]],[[5733,6917],[11,-1]],[[5869,6906],[0,6]],[[6132,6912],[8,2]],[[6140,6914],[23,-22]],[[5995,6938],[6,10]],[[6028,6928],[20,-14]],[[6071,6898],[11,-4]],[[5895,7337],[-6,-8]],[[6411,7192],[-23,5]],[[6388,7197],[-11,8]],[[6146,7250],[-48,6]],[[6477,7186],[15,-6]],[[6483,7166],[-8,4]],[[6463,7174],[-39,14]],[[5521,6679],[-6,2]],[[6686,6706],[282,-50],[-315,-58]],[[6616,6525],[-38,-41]],[[6432,8233],[316,-68],[19,-111],[-275,78],[-60,101]],[[5869,7889],[43,75]],[[5909,7964],[-78,52]],[[5835,8026],[34,-153]],[[5134,8107],[-12,27]],[[5108,8190],[81,13]],[[5220,8203],[8,-110]],[[5223,8052],[-28,2]],[[7018,6753],[-189,33],[173,234],[192,-198],[-176,-69]],[[5867,7840],[103,-26]],[[5122,8134],[-20,56]],[[5105,8190],[17,-56]],[[6310,6759],[-114,83]],[[6163,6875],[0,17]],[[6667,6836],[-28,-73]],[[6653,6598],[-37,-73]],[[6616,6525],[-38,-41]],[[6578,6484],[-115,19]],[[6466,6726],[-11,5]],[[6455,6731],[-9,2]],[[6313,6749],[184,43]],[[6497,6792],[142,-29]],[[6639,6763],[47,-57]],[[6686,6706],[-33,-108]],[[5521,6679],[22,37]],[[5546,6671],[-25,8]],[[5869,7889],[0,-16]],[[5869,7873],[-17,2]],[[5852,7885],[17,4]],[[5939,7683],[-131,23]],[[5228,8093],[-5,-41]],[[5223,8052],[-28,2]],[[5195,8054],[-61,53]],[[5134,8107],[94,-14]],[[4085,7150],[-78,-10]],[[3931,7170],[151,12]],[[5725,7443],[3,-28]],[[5728,7415],[-46,3]],[[5682,7418],[-32,2]],[[5362,7366],[8,14]],[[5420,7352],[3,-2]],[[6120,7252],[26,-2]],[[6380,7115],[-29,-6]],[[6778,6977],[3,6]],[[6781,6983],[-22,10]],[[6759,6993],[-17,4]],[[6809,7128],[37,-186]],[[5725,6619],[-199,6]],[[5808,6792],[6,9]],[[5822,6820],[13,27]],[[5889,6767],[-20,7]],[[5869,6774],[-61,18]],[[5786,6490],[81,100]],[[6146,6215],[8,-14]],[[6168,6176],[5,-9]],[[6184,6146],[-21,-4]],[[6149,6427],[345,-51],[-379,-124]],[[6497,6792],[-334,100]],[[6163,6892],[-54,56]],[[6109,6948],[-53,25]],[[5883,7026],[3,10]],[[6031,7095],[17,-2]],[[6056,7093],[3,-2]],[[6173,7081],[3,0]],[[6310,7068],[-34,-99]],[[6276,6969],[26,-9]],[[6602,6977],[-5,-10]],[[6676,6855],[-9,-19]],[[6667,6836],[-170,-44]],[[5348,7380],[-22,-24]],[[5460,7409],[268,-10]],[[5728,7399],[0,-2]],[[5647,7254],[5,-2]],[[5482,7250],[-3,4]],[[5431,7335],[-2,4]],[[5574,7240],[11,-9],[31,21],[-17,6],[-25,-18]],[[6006,6521],[5,18]],[[6463,7192],[-31,13]],[[6408,7211],[-23,6]],[[6134,7362],[379,-104]],[[5334,7300],[31,-6]],[[5365,7294],[8,-2]],[[5482,7246],[0,4]],[[5482,7250],[170,2]],[[5652,7252],[19,-6]],[[5728,7395],[0,2]],[[5728,7397],[-6,54]],[[5736,7503],[21,-7]],[[5755,7415],[0,-16]],[[5889,7327],[6,10]],[[5895,7337],[8,6]],[[6008,7308],[-2,-16]],[[5939,7199],[-3,2]],[[4871,7213],[-2,2]],[[4729,7215],[-17,23]],[[4840,7272],[20,3]],[[4860,7275],[9,-19]],[[5535,7064],[-11,15]],[[5883,7032],[0,-6]],[[5883,7026],[173,-53]],[[6056,6973],[-33,8]],[[6023,6981],[-28,-43]],[[5995,6938],[-5,-6]],[[5886,6971],[-17,-65]],[[5869,6906],[-14,-8]],[[5835,6851],[-13,-31]],[[5822,6820],[-8,-19]],[[5814,6801],[-8,-13]],[[5806,6788],[-54,-169]],[[5752,6619],[-27,0]],[[5725,6619],[0,26]],[[5752,6914],[-8,2]],[[5744,6916],[-62,14]],[[5566,6712],[-23,4]],[[5543,6716],[-11,4]],[[5557,6788],[3,4]],[[5560,6792],[-3,3]],[[5580,6832],[13,17]],[[5593,6883],[0,7]],[[6319,7083],[-9,-15]],[[6310,7068],[-134,13]],[[6176,7081],[-39,4]],[[6065,7091],[-9,2]],[[6056,7093],[-8,0]],[[6048,7093],[-37,6]],[[5878,7144],[58,57]],[[5936,7201],[9,-4]],[[5922,7118],[-3,-15]],[[5900,7034],[-14,2]],[[5886,7036],[-3,-4]],[[5883,7032],[-14,77]],[[5557,7070],[-11,19]],[[5546,7089],[101,108]],[[5652,7194],[-56,-182]],[[5596,7024],[-39,46]],[[4712,7238],[-421,-104]],[[4291,7134],[407,342]],[[5244,7535],[17,-2]],[[5382,7523],[354,-20]],[[5736,7503],[-14,-52]],[[5722,7451],[3,-8]],[[5725,7443],[-75,-23]],[[5650,7420],[-15,0]],[[5635,7420],[-527,-5],[-649,-105],[911,99]],[[5370,7409],[-22,-29]],[[5348,7380],[-75,-14]],[[5273,7366],[-47,-49]],[[5287,7300],[-418,-44]],[[4869,7256],[-9,19]],[[4860,7275],[-61,40]],[[4799,7315],[17,-15]],[[4816,7300],[24,-28]],[[4840,7272],[-128,-34]],[[5200,7511],[20,-43],[89,30],[-62,29],[-47,-16]],[[5156,7317],[-184,-30],[-135,34],[51,-51],[301,2],[-33,45]],[[6333,6193],[-9,-19]],[[6444,6188],[-3,-6]],[[6458,6180],[-271,-44]],[[6187,6136],[-3,10]],[[6184,6146],[-11,21]],[[6173,6167],[-5,9]],[[6168,6176],[-14,25]],[[6154,6201],[-8,14]],[[6310,6759],[3,-10]],[[6313,6749],[-109,-16]],[[6020,6590],[69,-15]],[[6241,6720],[205,13]],[[6446,6733],[20,-5]],[[6466,6728],[0,-2]],[[6466,6726],[-3,-223]],[[6463,6503],[-677,-13]],[[5786,6490],[220,31]],[[6006,6521],[5,18]],[[6011,6539],[-144,51]],[[5867,6590],[0,33]],[[5867,6623],[14,-2]],[[5881,6621],[5,0]],[[5886,6621],[53,-7]],[[5973,6718],[-9,25]],[[5964,6743],[-75,24]],[[5892,6767],[-3,0]],[[5889,6767],[-54,80]],[[5835,6847],[0,4]],[[5835,6851],[20,47]],[[5855,6898],[14,14]],[[5869,6912],[17,59]],[[5886,6971],[104,-39]],[[5990,6932],[320,-173]],[[6193,6107],[0,17]],[[6193,6124],[0,-17]],[[5532,6720],[-23,-37]],[[5501,6784],[56,4]],[[5557,6788],[-25,-68]],[[5580,6832],[-23,-37]],[[5557,6795],[0,-2]],[[5557,6793],[-59,-7]],[[5498,6786],[-50,-6]],[[5259,6712],[11,8]],[[5270,6720],[0,19]],[[5304,6780],[24,6]],[[5384,6822],[196,10]],[[5237,6698],[10,8]],[[5209,6662],[3,0]],[[5070,6515],[-112,28]],[[5247,6724],[-19,-12]],[[5228,6712],[9,-14]],[[5512,6300],[-268,223]],[[5512,6681],[3,0]],[[5515,6681],[31,-10]],[[5546,6671],[20,41]],[[5566,6712],[116,218]],[[5682,6930],[51,-13]],[[5733,6917],[19,-3]],[[5752,6914],[-27,-269]],[[5725,6645],[-199,-20]],[[5526,6625],[182,-350]],[[6597,6967],[3,4]],[[6737,6981],[38,-10]],[[6775,6971],[3,6]],[[6778,6977],[68,-35]],[[6846,6942],[-170,-87]],[[6676,6855],[-79,112]],[[6028,6928],[-27,20]],[[6001,6948],[19,27]],[[6020,6975],[8,-47]],[[6132,6912],[-50,-18]],[[6082,6894],[-11,4]],[[6071,6898],[-23,16]],[[6048,6914],[84,-2]],[[6163,6875],[33,-33]],[[6196,6842],[-33,33]],[[6302,6960],[-6,3]],[[6296,6963],[153,81]],[[6463,6932],[-161,28]],[[5939,7199],[67,93]],[[6006,7292],[92,-36]],[[6098,7256],[22,-4]],[[6120,7252],[26,-2]],[[6146,7250],[231,-45]],[[6377,7205],[-3,-6]],[[6351,7157],[-5,-15]],[[6346,7142],[-27,-59]],[[6319,7083],[-397,35]],[[5922,7118],[23,79]],[[5945,7197],[-6,2]],[[5889,7329],[0,-2]],[[5889,7327],[-134,72]],[[5755,7399],[134,-70]],[[5878,7144],[-9,-35]],[[5869,7109],[-217,85]],[[5652,7194],[-5,3]],[[5647,7197],[231,-53]],[[6477,7186],[-14,6]],[[6463,7192],[50,66]],[[6513,7258],[296,-130]],[[6809,7128],[-61,-87]],[[6492,7165],[-9,1]],[[6483,7166],[9,14]],[[6492,7180],[-15,6]],[[6385,7217],[-377,91]],[[6008,7308],[-105,35]],[[5903,7343],[-148,72]],[[5755,7415],[2,81]],[[5757,7496],[377,-134]],[[6134,7362],[251,-145]],[[6059,7091],[6,0]],[[6065,7091],[72,-6]],[[6137,7085],[36,-4]],[[6173,7081],[-114,10]],[[6519,7046],[-95,86]],[[6424,7132],[0,2]],[[6397,7146],[-6,-6]],[[6391,7140],[-11,-25]],[[6380,7115],[-29,-6]],[[6351,7109],[26,45]],[[6432,7205],[-24,6]],[[6408,7211],[24,-6]],[[5593,6849],[0,34]],[[5593,6883],[0,-34]],[[5596,7024],[0,-12]],[[5596,7012],[-3,-122]],[[5593,6890],[-58,174]],[[5535,7064],[22,6]],[[5557,7070],[39,-46]],[[4269,7101],[14,19]],[[4283,7120],[315,39]],[[4598,7159],[3,-2]],[[4618,7124],[-15,-4]],[[4871,7205],[0,8]],[[4871,7213],[675,-124]],[[5546,7089],[-22,-10]],[[5524,7079],[-650,55]],[[5429,7339],[-9,13]],[[5420,7352],[-50,28]],[[5370,7380],[20,23]],[[5390,7403],[70,6]],[[5460,7409],[-31,-70]],[[5671,7246],[-24,8]],[[5647,7254],[81,141]],[[5728,7395],[-57,-149]],[[4180,7136],[-301,-80]],[[3675,7016],[-190,67]],[[3485,7083],[695,53]],[[4199,7150],[-114,0]],[[4085,7150],[-3,32]],[[4082,7182],[117,-32]],[[4007,7140],[-466,-37]],[[3541,7103],[390,67]],[[3931,7170],[76,-30]],[[5939,7683],[-131,23]],[[5808,7706],[59,134]],[[5867,7840],[100,-29]],[[6068,7774],[-129,-91]],[[5102,8190],[-2,7]],[[5108,8190],[-3,0]],[[5105,8190],[-3,0]],[[6193,6056],[-3,31]],[[6190,6087],[3,-31]],[[5708,6275],[-196,25]],[[5512,6300],[196,-25]],[[5244,6523],[-174,-8]],[[5070,6515],[142,147]],[[5212,6662],[8,-4]],[[5404,6600],[-160,-77]],[[4269,7101],[334,19]],[[4603,7120],[15,4]],[[4618,7124],[-17,33]],[[4601,7157],[-6,9]],[[4595,7166],[134,49]],[[4729,7215],[140,0]],[[4869,7215],[2,-10]],[[4871,7205],[3,-71]],[[4874,7134],[-940,-509],[335,476]],[[4698,7476],[684,47]],[[5382,7523],[-121,10]],[[5261,7533],[-17,2]],[[5244,7535],[-546,-59]],[[3675,7016],[204,40]],[[3879,7056],[-204,-40]],[[5967,7811],[3,3]],[[5970,7814],[98,-40]],[[6068,7774],[-101,37]],[[6079,6273],[84,-131]],[[6163,6142],[2,-72]],[[6165,6070],[-151,211]],[[6109,6577],[-20,-2]],[[6089,6575],[-69,15]],[[6020,6590],[65,35]],[[5304,6780],[-34,-41]],[[5270,6739],[-11,-6]],[[5259,6733],[-12,-9]],[[5247,6724],[-289,-181]],[[4958,6543],[346,237]],[[5328,6786],[56,36]],[[5384,6822],[-56,-36]],[[6444,6188],[-120,-14]],[[6324,6174],[9,19]],[[6333,6193],[-187,22]],[[6146,6215],[-31,37]],[[6115,6252],[343,-72]],[[6458,6180],[-17,2]],[[6441,6182],[3,6]],[[5939,6614],[34,104]],[[5973,6718],[-34,-104]],[[6011,7099],[20,-4]],[[6031,7095],[-131,-61]],[[5900,7034],[19,69]],[[5919,7103],[92,-4]],[[5287,7300],[-61,17]],[[5226,7317],[47,49]],[[5273,7366],[53,-10]],[[5326,7356],[0,-2]],[[5326,7354],[8,-54]],[[5334,7300],[-47,0]],[[5373,7292],[-14,72]],[[5359,7364],[3,2]],[[5362,7366],[61,-16]],[[5423,7350],[8,-15]],[[5431,7335],[48,-81]],[[5479,7254],[3,-8]],[[5482,7246],[-109,46]],[[5259,6712],[189,68]],[[5448,6780],[50,6]],[[5498,6786],[3,-2]],[[5501,6784],[8,-101]],[[5509,6683],[3,-2]],[[5512,6681],[-108,-81]],[[5404,6600],[-184,58]],[[5220,6658],[-11,4]],[[5209,6662],[38,44]],[[5247,6706],[12,6]],[[6449,7044],[288,-63]],[[6737,6981],[-137,-10]],[[6600,6971],[2,6]],[[6602,6977],[-139,-45]],[[6463,6932],[-14,112]],[[6748,7041],[-6,-44]],[[6742,6997],[-11,2]],[[6731,6999],[-212,47]],[[6519,7046],[-95,88]],[[6424,7134],[8,20]],[[6432,7154],[20,24]],[[6452,7178],[11,-4]],[[6463,7174],[12,-4]],[[6475,7170],[17,-5]],[[6492,7165],[256,-124]],[[6411,7192],[13,-4]],[[6424,7188],[-25,-40]],[[6399,7148],[-2,-2]],[[6397,7146],[-20,8]],[[6377,7154],[11,26]],[[6388,7180],[23,12]],[[6374,7199],[0,-2]],[[6374,7197],[-20,-36]],[[6354,7161],[-3,-4]],[[6351,7157],[23,42]],[[6079,6273],[-65,8]],[[6014,6281],[135,146]],[[6149,6427],[-70,-154]],[[6204,6733],[37,-13]],[[6241,6720],[-132,-143]],[[6109,6577],[-24,48]],[[6085,6625],[119,108]],[[5073,8384],[77,-45]],[[5145,8337],[-109,10]],[[5036,8347],[-20,7]],[[5056,8391],[17,-7]],[[5073,8384],[-37,-37]],[[5056,8391],[-40,-37]],[[5016,8354],[40,37]],[[4333,8818],[-3,20]],[[4517,8885],[-184,-67]],[[4467,8816],[27,30]],[[4517,8885],[-23,-39]],[[4494,8846],[-27,-30]],[[4467,8816],[-134,2]],[[4333,8818],[-3,20]],[[4330,8838],[187,47]],[[5555,8916],[-202,-45]],[[5555,8916],[-118,5]],[[5518,8936],[37,-20]],[[5281,8875],[153,116]],[[5518,8936],[-81,-15]],[[5437,8921],[-84,-50]],[[5353,8871],[-72,4]],[[5281,8875],[153,116]],[[5434,8991],[84,-55]],[[7573,9001],[-126,4]],[[6867,8927],[-52,119]],[[6896,8981],[-40,71]],[[7038,9043],[-182,9]],[[6856,9052],[-41,-6]],[[6815,9046],[-11,14]],[[7593,8995],[-20,6]],[[7573,9001],[-126,4]],[[7447,9005],[20,25]],[[7470,9032],[3,4]],[[7487,9060],[3,20]],[[7280,9056],[-413,-129]],[[6867,8927],[29,54]],[[6896,8981],[142,62]],[[7038,9043],[8,7]],[[7046,9050],[3,0]],[[7049,9050],[-17,10]],[[6486,9072],[0,41]],[[7130,9078],[-20,9]],[[7280,9056],[-150,22]],[[7130,9078],[128,62]],[[7429,9113],[-149,-57]],[[7180,9126],[-70,-39]],[[7110,9087],[-78,-27]],[[7032,9060],[-228,0]],[[6804,9060],[-53,72]],[[7593,8995],[-17,110]],[[7582,9121],[3,5]],[[7651,9160],[9,-2]],[[7787,9109],[-194,-114]],[[7253,9148],[-73,-22]],[[7180,9126],[-429,6]],[[6751,9132],[-265,-60]],[[6486,9072],[0,41]],[[6486,9113],[588,96]],[[7258,9140],[-5,8]],[[7253,9148],[-20,36]],[[7417,9166],[-159,-26]],[[7972,9283],[-70,-91]],[[7110,9231],[-81,81]],[[7718,9194],[-41,6]],[[7369,9262],[6,-14]],[[7386,9223],[6,-6]],[[7392,9213],[-159,-29]],[[7233,9184],[-159,25]],[[7074,9209],[47,14]],[[7164,9270],[133,61]],[[7429,9329],[2,4]],[[7522,9382],[3,2]],[[7537,9374],[8,-6]],[[7632,9411],[100,-72]],[[7698,9341],[-3,4]],[[7693,9351],[-3,4]],[[6915,9355],[25,65]],[[7609,9415],[-8,1]],[[7562,9405],[-25,-13]],[[7525,9384],[-3,-2]],[[7522,9382],[-15,-6]],[[7314,9546],[318,-135]],[[7049,9490],[45,-81]],[[7158,9333],[-11,-23]],[[6940,9420],[42,159]],[[7007,9420],[-67,0]],[[7147,9310],[17,-40]],[[7164,9270],[-43,-47]],[[7121,9223],[-11,8]],[[7110,9231],[-81,81]],[[7029,9312],[-114,43]],[[6915,9355],[92,65]],[[7007,9420],[-19,68]],[[6985,9488],[3,0]],[[6988,9488],[-6,91]],[[6982,9579],[17,0]],[[7010,9577],[137,-267]],[[7314,9546],[-11,-31]],[[7172,9502],[-3,-8]],[[7152,9494],[-103,-4]],[[7049,9490],[-39,87]],[[7010,9577],[-11,2]],[[6999,9579],[315,-33]],[[7345,9627],[-149,70]],[[7242,9736],[-46,-39]],[[7196,9697],[-161,-4]],[[6628,9813],[67,-73]],[[7345,9627],[-103,109]],[[7286,9861],[59,-234]],[[6625,9871],[3,-58]],[[6628,9813],[-78,-4]],[[6584,9936],[32,-59]],[[6962,9708],[-205,142]],[[6865,9942],[307,10]],[[7035,9693],[-73,15]],[[6962,9708],[210,244]],[[7172,9952],[114,-91]],[[7286,9861],[-44,-125]],[[7242,9736],[-207,-43]],[[6865,9942],[-108,-92]],[[6757,9850],[108,92]],[[6584,9936],[32,-59]],[[6616,9877],[9,-6]],[[6625,9871],[-78,-62]],[[6547,9809],[3,0]],[[6550,9809],[145,-69]],[[6695,9740],[-111,196]],[[7417,9166],[-25,47]],[[7392,9213],[0,4]],[[7392,9217],[-6,6]],[[7386,9223],[-11,25]],[[7375,9248],[-6,14]],[[7369,9262],[-72,69]],[[7297,9331],[-139,2]],[[7158,9333],[-64,76]],[[7094,9409],[58,85]],[[7152,9494],[17,0]],[[7169,9494],[3,8]],[[7172,9502],[131,13]],[[7303,9515],[204,-139]],[[7507,9376],[-76,-43]],[[7431,9333],[-2,-4]],[[7429,9329],[116,39]],[[7545,9368],[-8,6]],[[7537,9374],[-12,10]],[[7525,9384],[12,8]],[[7537,9392],[25,13]],[[7562,9405],[39,11]],[[7601,9416],[8,-1]],[[7609,9415],[23,-4]],[[7632,9411],[58,-56]],[[7690,9355],[3,-4]],[[7693,9351],[2,-6]],[[7695,9345],[3,-4]],[[7698,9341],[34,-2]],[[7732,9339],[240,-56]],[[7972,9283],[-70,-91]],[[7902,9192],[-115,-83]],[[7787,9109],[-127,49]],[[7660,9158],[-9,2]],[[7651,9160],[-66,-34]],[[7585,9126],[-3,-5]],[[7582,9121],[-6,-16]],[[7576,9105],[-86,-25]],[[7490,9080],[-3,-20]],[[7487,9060],[-14,-24]],[[7473,9036],[-3,-4]],[[7470,9032],[-3,-2]],[[7467,9030],[-38,83]],[[7429,9113],[-12,53]],[[7677,9200],[41,-6]],[[7718,9194],[-41,6]],[[7821,9219],[20,45],[-81,19],[9,-46],[52,-18]],[[7746,4545],[33,198]],[[9087,3973],[-14,-16]],[[9026,3946],[-31,-6]],[[8995,3904],[0,-26]],[[8995,3841],[-5,-11]],[[8522,3368],[2,0]],[[8451,3319],[-27,8]],[[8675,3460],[19,-17]],[[8719,3425],[11,-16]],[[8736,3375],[-23,-7]],[[8560,3368],[-6,13]],[[8724,4069],[67,4]],[[8786,4010],[8,10],[-6,2],[-4,-6],[2,-6]],[[8329,3116],[-11,-4]],[[8164,3044],[-42,23]],[[9397,4176],[-142,39]],[[9277,4222],[92,30]],[[9785,4031],[-23,-31]],[[9425,4174],[-9,2]],[[7779,4743],[-47,41]],[[7674,4841],[52,18]],[[7651,4912],[118,-34]],[[7793,4822],[-17,-27]],[[7782,4793],[62,-27]],[[7852,4764],[-67,-239]],[[7585,4470],[161,75]],[[7746,4545],[33,198]],[[7732,4490],[9,0],[5,-2],[-8,7],[-6,-5]],[[8373,3136],[-251,-69]],[[8008,3010],[438,155]],[[8513,4048],[165,-40]],[[8621,3967],[-150,81]],[[8791,4073],[227,45]],[[8937,4099],[-23,-4]],[[8848,4022],[11,-20]],[[8959,3951],[-73,-13]],[[8831,3969],[-40,104]],[[8859,4549],[0,-4]],[[8736,4482],[31,21]],[[9104,4478],[90,-65]],[[8560,3368],[57,5]],[[8543,3263],[-11,-2]],[[8451,3319],[86,35]],[[8563,3366],[-3,2]],[[9009,3704],[56,-20]],[[8332,4112],[66,-31]],[[8424,3327],[-26,17]],[[8669,3464],[6,-4]],[[8675,3460],[-61,-33]],[[8522,3370],[0,-2]],[[8522,3368],[-98,-41]],[[8903,3924],[67,-73]],[[8554,3381],[0,2]],[[8624,3418],[-70,-37]],[[8697,4000],[89,-25]],[[8995,3940],[0,-36]],[[8995,3904],[0,36]],[[8853,3940],[-62,19]],[[8694,3443],[25,-18]],[[8719,3425],[-25,18]],[[8995,3878],[0,-37]],[[8995,3841],[0,37]],[[9026,3946],[47,11]],[[9073,3957],[-47,-11]],[[9762,4000],[-365,176]],[[9397,4176],[19,0]],[[9416,4176],[9,-2]],[[9425,4174],[337,-174]],[[7769,4878],[83,-114]],[[7852,4764],[-8,2]],[[7874,4810],[-11,2]],[[7769,4851],[0,27]],[[7925,4804],[5,4],[-5,4],[-6,-4],[6,-4]],[[9004,4409],[-145,136]],[[8859,4545],[245,-67]],[[9104,4478],[22,-49]],[[8967,3615],[65,-10]],[[9026,3501],[-129,46]],[[9065,3684],[69,-84]],[[9037,3615],[28,69]],[[8892,4604],[-33,-55]],[[8859,4549],[-92,-46]],[[8767,4503],[14,99]],[[8772,4505],[16,0],[9,6],[-19,4],[-6,-10]],[[8808,4153],[-75,-62],[-167,21],[45,30],[197,11]],[[8875,3549],[112,163]],[[7515,4834],[91,37]],[[8451,3319],[81,-58]],[[8532,3261],[-81,58]],[[7749,4480],[36,45]],[[7785,4525],[-53,-74]],[[8959,3951],[-100,51]],[[8859,4002],[100,-51]],[[8914,4095],[-66,-71]],[[8848,4022],[0,2]],[[8848,4024],[66,71]],[[8736,4482],[42,-20]],[[8713,4441],[23,41]],[[8638,3352],[-21,21]],[[8617,3373],[96,-5]],[[8713,3368],[-30,-8]],[[8937,4099],[81,19]],[[9018,4118],[14,-27]],[[8943,4077],[-6,22]],[[8730,3409],[6,-34]],[[8736,3375],[-6,34]],[[7606,4871],[68,-30]],[[7674,4841],[58,-57]],[[7732,4784],[-217,50]],[[7515,4834],[91,37]],[[9032,3605],[5,10]],[[9037,3615],[97,-15]],[[9134,3600],[-108,-99]],[[9026,3501],[6,104]],[[8943,4077],[89,14]],[[9032,4091],[55,-118]],[[9087,3973],[-144,104]],[[8669,3464],[-271,-120]],[[8398,3344],[271,120]],[[8750,3957],[-84,-19]],[[8621,3967],[9,25]],[[8675,3979],[-9,-41]],[[8666,3938],[-45,29]],[[8892,4604],[-111,-2]],[[8781,4602],[111,2]],[[8678,4008],[19,-8]],[[8697,4000],[89,-25]],[[8786,3975],[45,-6]],[[8831,3969],[55,-31]],[[8886,3938],[17,-14]],[[8903,3924],[67,-73]],[[8970,3851],[20,-21]],[[8990,3830],[-137,110]],[[8853,3940],[-62,19]],[[8791,3959],[-41,-2]],[[8750,3957],[-75,22]],[[8675,3979],[-45,13]],[[8630,3992],[48,16]],[[8875,3549],[112,163]],[[8987,3712],[22,-8]],[[9009,3704],[-42,-89]],[[8967,3615],[-70,-68]],[[8897,3547],[-22,2]],[[8524,3368],[-2,2]],[[8522,3370],[92,57]],[[8614,3427],[10,-9]],[[8624,3418],[-70,-35]],[[8554,3383],[9,-17]],[[8563,3366],[-26,-12]],[[8537,3354],[-13,14]],[[7793,4822],[-24,29]],[[7769,4851],[94,-39]],[[7863,4812],[11,-2]],[[7874,4810],[-30,-44]],[[7844,4766],[-62,27]],[[7782,4793],[-6,2]],[[7776,4795],[17,27]],[[7651,4912],[75,-53]],[[7726,4859],[-75,53]],[[8805,4474],[132,-41]],[[7688,4464],[61,16]],[[7749,4480],[-17,-22]],[[8724,4069],[-211,-21]],[[8513,4048],[-42,0]],[[8471,4048],[253,21]],[[9503,4385],[395,10],[68,-126],[-731,44],[268,72]],[[9740,4050],[-33,29]],[[9673,4174],[103,-120]],[[8491,3187],[279,-63],[-374,-41]],[[8700,2961],[-31,-242],[-221,-41],[112,277],[140,6]],[[8811,3201],[56,104],[125,-18],[-36,-94],[-145,8]],[[9456,4492],[-218,80],[463,8],[-95,-40],[-150,-48]],[[7596,4180],[-187,-15],[-81,59],[122,24],[146,-68]],[[8652,3297],[23,34],[27,11],[-22,-41],[-28,-4]],[[8008,3010],[114,57]],[[8122,3067],[-114,-57]],[[8591,3319],[47,33]],[[8638,3352],[45,8]],[[8683,3360],[-81,-49]],[[8164,3044],[154,68]],[[8318,3112],[-154,-68]],[[8713,4441],[65,21]],[[8778,4462],[27,12]],[[8805,4474],[132,-41]],[[8937,4433],[67,-24]],[[9004,4409],[122,20]],[[9126,4429],[68,-16]],[[9194,4413],[-481,28]],[[9673,4174],[34,-95]],[[9707,4079],[-338,173]],[[9369,4252],[304,-78]],[[8332,4112],[66,-31]],[[8398,4081],[-66,31]],[[9277,4222],[-22,-7]],[[9255,4215],[22,7]],[[8329,3116],[44,20]],[[8373,3136],[73,29]],[[8446,3165],[45,22]],[[8491,3187],[-95,-104]],[[8396,3083],[-67,33]],[[7688,4464],[44,-6]],[[7732,4458],[0,-7]],[[7732,4451],[-147,19]],[[7585,4470],[103,-6]],[[8591,3319],[11,-8]],[[8602,3311],[-59,-48]],[[8543,3263],[48,56]],[[9740,4050],[36,4]],[[9776,4054],[9,-23]],[[9785,4031],[-45,19]],[[223,6799],[-11,33]],[[223,6799],[-11,33]],[[212,6832],[-26,74]],[[295,6916],[-72,-117]],[[184,6916],[-14,49]],[[332,6977],[11,-43]],[[332,6977],[-86,-12]],[[223,6965],[-53,0]],[[170,6965],[6,14]],[[215,7034],[-95,16]],[[332,6977],[-86,-12]],[[246,6965],[97,-31]],[[343,6934],[-48,-18]],[[295,6916],[-109,-10]],[[186,6906],[-2,10]],[[184,6916],[39,49]],[[223,6965],[-47,14]],[[176,6979],[92,53]],[[491,7060],[-159,-83]],[[494,7074],[-3,-14]],[[491,7060],[-165,-26]],[[217,7048],[-97,2]],[[120,7050],[-22,2]],[[103,7099],[0,2]],[[494,7079],[0,-5]],[[494,7074],[-168,-26]],[[471,7091],[23,-12]],[[494,7079],[-165,28]],[[341,7113],[2,5]],[[341,7113],[-12,-6]],[[329,7107],[-3,-59]],[[326,7048],[0,-14]],[[326,7034],[-58,-2]],[[268,7032],[-53,2]],[[215,7034],[2,14]],[[217,7048],[20,55]],[[346,7120],[-3,-2]],[[343,7118],[-2,-5]],[[471,7091],[-125,29]],[[346,7120],[8,28]],[[465,7154],[6,-63]],[[354,7148],[-89,6]],[[265,7154],[-25,-41]],[[307,7201],[-42,-47]],[[106,7115],[-3,-16]],[[103,7099],[-5,-47]],[[98,7052],[-14,212]],[[106,7111],[0,4]],[[106,7115],[-22,149]],[[84,7264],[19,8]],[[151,7197],[-20,-84]],[[465,7154],[-111,-6]],[[354,7148],[-47,53]],[[307,7201],[-156,-4]],[[151,7197],[-48,75]],[[103,7272],[362,-118]],[[1154,7275],[17,68]],[[1204,7347],[154,-49]],[[106,7111],[25,2]],[[131,7113],[109,0]],[[240,7113],[-3,-10]],[[237,7103],[-134,-2]],[[103,7101],[3,10]],[[1358,7298],[-204,-23]],[[1154,7275],[17,68]],[[1171,7343],[33,4]],[[1204,7347],[154,-49]],[[3237,7074],[-474,-136]],[[2741,6942],[-309,33]],[[2735,6973],[-240,6]],[[2699,7008],[30,2]],[[2763,6938],[-22,4]],[[2741,6942],[-6,31]],[[2735,6973],[-6,37]],[[2729,7010],[23,2]],[[2761,6975],[2,-37]],[[2761,6975],[-9,37]],[[3020,7064],[-259,-89]],[[2432,6977],[116,47]],[[2643,7024],[-39,-2]],[[2621,7024],[22,0]],[[2643,7024],[28,17]],[[2819,7042],[-67,-30]],[[2752,7012],[-53,-4]],[[2699,7008],[-72,-6]],[[3237,7074],[-217,-10]],[[3020,7064],[-201,-22]],[[2819,7042],[-58,6]],[[3237,7091],[0,-17]],[[2643,7225],[101,-62]],[[2666,7062],[5,-21]],[[2671,7041],[-86,-5]],[[2585,7036],[-37,-12]],[[2548,7024],[73,201]],[[2666,7062],[-81,-26]],[[2643,7225],[101,-62]],[[2744,7163],[61,-58]],[[2752,7089],[-86,-27]],[[2666,7062],[-45,163]],[[2621,7225],[22,0]],[[2761,7048],[-9,41]],[[2752,7089],[53,16]],[[2805,7105],[235,13]],[[3031,7079],[-270,-31]],[[3031,7079],[9,39]],[[3040,7118],[197,-27]],[[3237,7091],[-206,-12]],[[2919,7113],[-17,112]],[[3040,7118],[-121,-5]],[[2919,7113],[-17,112]],[[2902,7225],[138,-107]],[[2627,7002],[-132,-23]],[[2495,6979],[-63,-4]],[[2432,6975],[0,2]],[[2432,6977],[172,45]],[[2604,7022],[17,2]],[[2621,7024],[6,-22]],[[5139,33],[9,26]],[[5247,104],[-83,-63]],[[5209,135],[-45,-9]],[[5153,169],[11,-43]],[[5164,126],[0,-85]],[[5164,41],[-25,-8]],[[5139,33],[9,26]],[[5148,59],[-65,134]],[[5312,189],[-56,8]],[[5197,305],[215,-93]],[[5119,220],[107,-23]],[[5220,171],[-67,-2]],[[5153,169],[-70,24]],[[5083,193],[11,31]],[[5256,197],[-33,23]],[[5214,240],[42,-43]],[[5119,220],[-25,4]],[[5094,224],[25,-4]],[[5197,305],[17,-65]],[[5214,240],[9,-20]],[[5223,220],[-26,85]],[[5312,189],[100,23]],[[5412,212],[-100,-23]],[[5247,104],[-38,31]],[[5209,135],[11,36]],[[5220,171],[6,26]],[[5226,197],[21,-93]],[[7101,8010],[-58,-64]],[[6876,8201],[225,-191]],[[7101,8010],[-58,-64]],[[7043,7946],[-326,316]],[[6530,8335],[-86,-14]],[[6449,8333],[-5,-12]],[[6444,8321],[-25,12]],[[6876,8201],[-159,61]],[[6717,8262],[-187,73]],[[6530,8335],[-58,-2]],[[6508,8416],[368,-215]],[[6472,8333],[-23,0]],[[6449,8333],[-86,25]],[[6483,8411],[25,5]],[[6508,8416],[-36,-83]],[[6483,8411],[-120,-53]],[[6363,8358],[56,-25]],[[6419,8333],[-209,112]],[[6210,8500],[273,-89]],[[6795,8474],[53,61]],[[7091,8424],[-296,50]],[[6795,8474],[53,61]],[[6848,8535],[282,-49]],[[7091,8424],[39,62]],[[7130,8486],[388,16],[-427,-78]],[[5633,7916],[-76,16]],[[5680,7912],[-47,4]],[[5633,7916],[2,34]],[[5569,7958],[-12,-26]],[[5557,7932],[-50,6]],[[5750,7902],[-70,10]],[[5680,7912],[5,46]],[[5909,7964],[3,0]],[[5912,7964],[-45,-75]],[[5855,7985],[54,-21]],[[5507,7938],[-114,55]],[[5485,7973],[22,-35]],[[5760,7977],[-75,-19]],[[5685,7958],[-50,-8]],[[5635,7950],[-66,8]],[[5569,7958],[-84,15]],[[5485,7973],[-92,20]],[[5393,7993],[72,12]],[[5621,7985],[-156,20]],[[5465,8005],[20,73]],[[5835,8026],[-1,-4]],[[5912,8161],[-77,-135]],[[5739,7989],[-118,-4]],[[5621,7985],[-136,93]],[[5485,8078],[3,15]],[[5616,8188],[-128,-95]],[[5488,8093],[-81,110]],[[5872,8194],[6,-4]],[[5722,8156],[-106,32]],[[5616,8188],[-209,15]],[[5407,8203],[44,12]],[[5616,8201],[-165,14]],[[5451,8215],[165,27]],[[5337,8213],[-117,-10]],[[5220,8203],[-31,0]],[[5189,8203],[-81,-13]],[[5108,8190],[-8,7]],[[5100,8197],[5,71]],[[5150,8252],[-42,-62]],[[5912,8161],[-78,-139]],[[5834,8022],[-3,-4]],[[5831,8018],[0,-2]],[[5831,8016],[24,-31]],[[5855,7985],[12,-96]],[[5867,7889],[-15,-4]],[[5852,7885],[0,-10]],[[5852,7875],[-102,27]],[[5750,7902],[10,75]],[[5760,7977],[-21,12]],[[5739,7989],[-17,167]],[[5722,8156],[136,22]],[[6123,8260],[20,6]],[[6165,8252],[-253,-91]],[[5259,8277],[69,-56]],[[5769,8238],[103,-44]],[[5872,8194],[-256,7]],[[5616,8201],[0,41]],[[5616,8242],[25,50]],[[6076,8294],[47,-34]],[[6123,8260],[-242,-78]],[[5328,8221],[9,-8]],[[5337,8213],[-187,39]],[[5150,8252],[-45,16]],[[5105,8268],[3,38]],[[5220,8252],[108,-31]],[[5858,8178],[20,12]],[[5878,8190],[198,104]],[[6076,8294],[-195,-112]],[[5881,8182],[-23,-4]],[[6165,8252],[-22,14]],[[6143,8266],[22,-14]],[[5220,8252],[-112,54]],[[5108,8306],[37,31]],[[5145,8337],[5,2]],[[5150,8339],[109,-62]],[[5259,8277],[-39,-25]],[[5834,8449],[-31,-85]],[[5803,8364],[-34,-126]],[[5769,8238],[-128,54]],[[5641,8292],[193,157]],[[5834,8449],[-31,-85]],[[6210,8445],[0,55]],[[6210,8500],[0,-55]],[[6123,8525],[-47,-78],[-204,72],[78,54],[173,-48]]]}