{"type":"Topology","objects":{"data":{"geometries":[{"properties":{"zone":1},"type":"Polygon","arcs":[[1194,0,1249,1,1251,2,1253,3,1255,4,1257,5,-179,1260,6]],"id":"feature_000"},{"properties":{"zone":1},"type":"Polygon","arcs":[[-62,-313,7,-311,8]],"id":"feature_001"},{"properties":{"zone":1},"type":"Polygon","arcs":[[9,-84,-136,-60,-33,-13]],"id":"feature_002"},{"properties":{"zone":1},"type":"Polygon","arcs":[[10,-82]],"id":"feature_003"},{"properties":{"zone":1},"type":"Polygon","arcs":[[-32,-14,11,12]],"id":"feature_004"},{"properties":{"zone":1},"type":"Polygon","arcs":[[13,-31,14,-36,15,-27,16]],"id":"feature_005"},{"properties":{"zone":1},"type":"Polygon","arcs":[[-21,-64,17]],"id":"feature_006"},{"properties":{"zone":1},"type":"Polygon","arcs":[[-23,18]],"id":"feature_007"},{"properties":{"zone":1},"type":"Polygon","arcs":[[-25,19]],"id":"feature_008"},{"properties":{"zone":2},"type":"Polygon","arcs":[[20,21,22,23,24,25,26,27,-65]],"id":"feature_009"},{"properties":{"zone":2},"type":"Polygon","arcs":[[-71,28,-73,29]],"id":"feature_010"},{"properties":{"zone":2},"type":"Polygon","arcs":[[30,31,32,-59]],"id":"feature_011"},{"properties":{"zone":3},"type":"Polygon","arcs":[[-38,-57,33]],"id":"feature_012"},{"properties":{"zone":3},"type":"Polygon","arcs":[[34,35,36,-58,37]],"id":"feature_013"},{"properties":{"zone":3},"type":"Polygon","arcs":[[-88,-230,38]],"id":"feature_014"},{"properties":{"zone":3},"type":"Polygon","arcs":[[-44,39,-95,40,-103,-235,41]],"id":"feature_015"},{"properties":{"zone":3},"type":"Polygon","arcs":[[42,43]],"id":"feature_016"},{"properties":{"zone":3},"type":"Polygon","arcs":[[-119,44,-245,-278]],"id":"feature_017"},{"properties":{"zone":3},"type":"Polygon","arcs":[[-374,-204,-158,-157,45,-376,46]],"id":"feature_018"},{"properties":{"zone":3},"type":"Polygon","arcs":[[-114,-197,47]],"id":"feature_019"},{"properties":{"zone":3},"type":"Polygon","arcs":[[120]],"id":"feature_020"},{"properties":{"zone":3},"type":"Polygon","arcs":[[-202,-120,-276,48]],"id":"feature_021"},{"properties":{"zone":3},"type":"Polygon","arcs":[[49,-393,50,-131]],"id":"feature_022"},{"properties":{"zone":3},"type":"Polygon","arcs":[[-228,51,-226,52],[53]],"id":"feature_023"},{"properties":{"zone":3},"type":"Polygon","arcs":[[-166,-1201,-165,-1199,-164,54]],"id":"feature_024"},{"properties":{"zone":3},"type":"Polygon","arcs":[[55,56,57,58,59,-135,-209,-295,60,-314,61,62,63,64]],"id":"feature_025"},{"properties":{"zone":3},"type":"Polygon","arcs":[[65,-253,66,-126,-365,-390]],"id":"feature_026"},{"properties":{"zone":3},"type":"Polygon","arcs":[[67,-291,68,-152,69,70,71,72,73,-309,-146]],"id":"feature_027"},{"properties":{"zone":3},"type":"Polygon","arcs":[[74,-155,75,-140]],"id":"feature_028"},{"properties":{"zone":3},"type":"Polygon","arcs":[[76,-169]],"id":"feature_029"},{"properties":{"zone":3},"type":"Polygon","arcs":[[-1158,-162,-1156,-161,77,-1186,-177,78,-379,-163]],"id":"feature_030"},{"properties":{"zone":3},"type":"Polygon","arcs":[[-1183,-173,79,-171,80,-174]],"id":"feature_031"},{"properties":{"zone":3},"type":"Polygon","arcs":[[81,82,-129,83,84]],"id":"feature_032"},{"properties":{"zone":4},"type":"Polygon","arcs":[[-386,-149,-349,85,-362,-255,86]],"id":"feature_033"},{"properties":{"zone":4},"type":"Polygon","arcs":[[-231,87,88]],"id":"feature_034"},{"properties":{"zone":4},"type":"Polygon","arcs":[[-240,89,-159,-416,90]],"id":"feature_035"},{"properties":{"zone":4},"type":"Polygon","arcs":[[-1122,91,122,92,-122,-1229,1115]],"id":"feature_036"},{"properties":{"zone":4},"type":"Polygon","arcs":[[-105,93,94,95,-445,-432]],"id":"feature_037"},{"properties":{"zone":5},"type":"Polygon","arcs":[[-301,96,-218,-382,-212,-303,97]],"id":"feature_038"},{"properties":{"zone":5},"type":"Polygon","arcs":[[-233,98]],"id":"feature_039"},{"properties":{"zone":5},"type":"Polygon","arcs":[[-426,99,-298,100,-403,101,-236,102,103,104,-431,-1802,-430,-1800,-429,-1798,-428,105]],"id":"feature_040"},{"properties":{"zone":5},"type":"Polygon","arcs":[[-437,106,1489,107]],"id":"feature_041"},{"properties":{"zone":5},"type":"Polygon","arcs":[[-266,-189,108,-356,109,-259,110,-184,111]],"id":"feature_042"},{"properties":{"zone":5},"type":"Polygon","arcs":[[112,-238,-307,-399,-198,113,114,-264]],"id":"feature_043"},{"properties":{"zone":5},"type":"Polygon","arcs":[[-201,-200,115,-396,1829,-395,116,-419,-247,117,118,-277,119],[120]],"id":"feature_044"},{"properties":{"zone":5},"type":"Polygon","arcs":[[-242,-421,1228,121,1230,122,123]],"id":"feature_045"},{"properties":{"zone":5},"type":"Polygon","arcs":[[124,-366,125,126,-251,127,-359,-187]],"id":"feature_046"},{"properties":{"zone":5},"type":"Polygon","arcs":[[128,129,130,131,-391,-364,-273,-190,132,-194,133,-342,-205,134,135]],"id":"feature_047"},{"properties":{"zone":5},"type":"Polygon","arcs":[[-274,-244,136]],"id":"feature_048"},{"properties":{"zone":5},"type":"Polygon","arcs":[[-217,-284,-214,137,-384]],"id":"feature_049"},{"properties":{"zone":5},"type":"Polygon","arcs":[[-222,138,-142,-286]],"id":"feature_050"},{"properties":{"zone":5},"type":"Polygon","arcs":[[139,140,-287,141,142,-220,143]],"id":"feature_051"},{"properties":{"zone":5},"type":"Polygon","arcs":[[144,145,-317,-293]],"id":"feature_052"},{"properties":{"zone":5},"type":"Polygon","arcs":[[-443,1777,-442,146,-433]],"id":"feature_053"},{"properties":{"zone":5},"type":"Polygon","arcs":[[-224,147,-256,-351,-440,-350,148,-385,149]],"id":"feature_054"},{"properties":{"zone":5},"type":"Polygon","arcs":[[150,151,152,-289,153,154]],"id":"feature_055"},{"properties":{"zone":5},"type":"Polygon","arcs":[[-378,155,156,157,-203,-417,158,159,160,1155,161,1157,162]],"id":"feature_056"},{"properties":{"zone":5},"type":"Polygon","arcs":[[163,1198,164,1200,165,166,-412,1180,-411,167,168,169,170,171,172,1182,173,174,-249,-371,175,176,1185,177]],"id":"feature_057"},{"properties":{"zone":5},"type":"Polygon","arcs":[[178,179,1175,180,-409,181,-1261]],"id":"feature_058"},{"properties":{"zone":6},"type":"Polygon","arcs":[[182,183,184,-257,-327,-268,-325]],"id":"feature_059"},{"properties":{"zone":6},"type":"Polygon","arcs":[[-265,-320,-271,-368,185,186,-358,187,188]],"id":"feature_060"},{"properties":{"zone":6},"type":"Polygon","arcs":[[189,-272,-318,190,-346,191,-344,192,193,194]],"id":"feature_061"},{"properties":{"zone":6},"type":"Polygon","arcs":[[195,196,197,-398,198,199,200,201]],"id":"feature_062"},{"properties":{"zone":6},"type":"Polygon","arcs":[[-373,-248,202,203]],"id":"feature_063"},{"properties":{"zone":6},"type":"Polygon","arcs":[[204,341,205,-340,206,-338,207,-280,208]],"id":"feature_064"},{"properties":{"zone":6},"type":"Polygon","arcs":[[209,-296,210,-404]],"id":"feature_065"},{"properties":{"zone":6},"type":"Polygon","arcs":[[211,-381,212,213,-283,214,-334,-304]],"id":"feature_066"},{"properties":{"zone":6},"type":"Polygon","arcs":[[-305,-332,-269,215]],"id":"feature_067"},{"properties":{"zone":7},"type":"Polygon","arcs":[[-285,216,-383,217,218,219,220,221]],"id":"feature_068"},{"properties":{"zone":7},"type":"Polygon","arcs":[[222,223,-388,224,225,226,227,228,229,230,231,232]],"id":"feature_069"},{"properties":{"zone":7},"type":"Polygon","arcs":[[233,234,235,236,-401,-308,237]],"id":"feature_070"},{"properties":{"zone":7},"type":"Polygon","arcs":[[238,239,240,-414,241]],"id":"feature_071"},{"properties":{"zone":7},"type":"Polygon","arcs":[[242,243,-279,244,245,246,-418,247,-372,248]],"id":"feature_072"},{"properties":{"zone":7},"type":"Polygon","arcs":[[-361,249,250,251,252,253,254]],"id":"feature_073"},{"properties":{"zone":8},"type":"Polygon","arcs":[[-352,255,-329]],"id":"feature_074"},{"properties":{"zone":8},"type":"Polygon","arcs":[[-328,256,257,258,259,-354]],"id":"feature_075"},{"properties":{"zone":8},"type":"Polygon","arcs":[[260,261,-323]],"id":"feature_076"},{"properties":{"zone":8},"type":"Polygon","arcs":[[262,263]],"id":"feature_077"},{"properties":{"zone":8},"type":"Polygon","arcs":[[-321,264,265,266]],"id":"feature_078"},{"properties":{"zone":8},"type":"Polygon","arcs":[[267,-326]],"id":"feature_079"},{"properties":{"zone":8},"type":"Polygon","arcs":[[268,-331,269]],"id":"feature_080"},{"properties":{"zone":8},"type":"Polygon","arcs":[[-369,270,-319,271,272]],"id":"feature_081"},{"properties":{"zone":8},"type":"Polygon","arcs":[[273,274,275,276,277,278]],"id":"feature_082"},{"properties":{"zone":8},"type":"Polygon","arcs":[[279,280,-336,281,282,283,284,285,286,287,288,289,290,291,292,-316,293,294]],"id":"feature_083"},{"properties":{"zone":8},"type":"Polygon","arcs":[[295,296,297,298,-407,-406,1815,299]],"id":"feature_084"},{"properties":{"zone":8},"type":"Polygon","arcs":[[300,301,302,303,-333,304,305]],"id":"feature_085"},{"properties":{"zone":9},"type":"Polygon","arcs":[[306,307,-400]],"id":"feature_086"},{"properties":{"zone":9},"type":"Polygon","arcs":[[347]],"id":"feature_087"},{"properties":{"zone":9},"type":"Polygon","arcs":[[308,309,310,311,312,313,314,315,316]],"id":"feature_088"},{"properties":{"zone":9},"type":"Polygon","arcs":[[317,318,319,320,321,322,323,324,325,326,327,-353,328,329,330,331,332,333,334,335,336,337,338,339,340,341,342,343,344,345,346],[347]],"id":"feature_089"},{"properties":{"zone":10},"type":"Polygon","arcs":[[348,349,-439,350,351,352,353,354,355,356,357,358,359,360,361,362]],"id":"feature_090"},{"properties":{"zone":10},"type":"Polygon","arcs":[[363,364,365,366,367,368]],"id":"feature_091"},{"properties":{"zone":10},"type":"Polygon","arcs":[[369,370,371,372,373,374,375,376,377,378]],"id":"feature_092"},{"properties":{"zone":10},"type":"Polygon","arcs":[[379,380,381,382,383]],"id":"feature_093"},{"properties":{"zone":10},"type":"Polygon","arcs":[[384,385,386,387,388]],"id":"feature_094"},{"properties":{"zone":10},"type":"Polygon","arcs":[[389,390,391,392,393]],"id":"feature_095"},{"properties":{"zone":10},"type":"Polygon","arcs":[[394,-1830,395,396,397,398,399,400,401,402,403,404,-1816,405,406,407]],"id":"feature_096"},{"properties":{"zone":10},"type":"Polygon","arcs":[[408,409,1090,410,-1181,411,412]],"id":"feature_097"},{"properties":{"zone":10},"type":"Polygon","arcs":[[413,414,415,416,417,418,419,1121,-1116,420]],"id":"feature_098"},{"properties":{"zone":10},"type":"Polygon","arcs":[[421,-453]],"id":"feature_099"},{"properties":{"zone":11},"type":"Polygon","arcs":[[-449,422,-451,423]],"id":"feature_100"},{"properties":{"zone":11},"type":"Polygon","arcs":[[424,425,426,427,1797,428,1799,429,1801,430,431,-444,432]],"id":"feature_101"},{"properties":{"zone":11},"type":"Polygon","arcs":[[-447,433,1581,434,1583,435,436,437]],"id":"feature_102"},{"properties":{"zone":11},"type":"Polygon","arcs":[[438,439]],"id":"feature_103"},{"properties":{"zone":12},"type":"Polygon","arcs":[[440]],"id":"feature_104"},{"properties":{"zone":12},"type":"Polygon","arcs":[[441,-1778,442,443,444,445,446,447]],"id":"feature_105"},{"properties":{"zone":12},"type":"Polygon","arcs":[[448,449,450,451,452,453]],"id":"feature_106"},{"properties":{"zone":11},"type":"Polygon","arcs":[[454,-457]],"id":"feature_107"},{"properties":{"zone":12},"type":"Polygon","arcs":[[455,456,457,-460]],"id":"feature_108"},{"properties":{"zone":11},"type":"Polygon","arcs":[[-469,-462,458,459,460]],"id":"feature_109"},{"properties":{"zone":1},"type":"Polygon","arcs":[[461,-468,-466,462]],"id":"feature_110"},{"properties":{"zone":3},"type":"Polygon","arcs":[[-523,463]],"id":"feature_111"},{"properties":{"zone":3},"type":"Polygon","arcs":[[-525,464,465,-467]],"id":"feature_112"},{"properties":{"zone":5},"type":"Polygon","arcs":[[-526,466,467,468,469]],"id":"feature_113"},{"properties":{"zone":2},"type":"Polygon","arcs":[[-476,-519]],"id":"feature_114"},{"properties":{"zone":3},"type":"Polygon","arcs":[[-472,-528,470]],"id":"feature_115"},{"properties":{"zone":1},"type":"Polygon","arcs":[[471,472,-477,-529]],"id":"feature_116"},{"properties":{"zone":3},"type":"Polygon","arcs":[[-521,-514,-506,473]],"id":"feature_117"},{"properties":{"zone":3},"type":"Polygon","arcs":[[474,475]],"id":"feature_118"},{"properties":{"zone":3},"type":"Polygon","arcs":[[476,477,-480,-530]],"id":"feature_119"},{"properties":{"zone":5},"type":"Polygon","arcs":[[-479,-491,-482,-539]],"id":"feature_120"},{"properties":{"zone":8},"type":"Polygon","arcs":[[-576,-492,478,-538]],"id":"feature_121"},{"properties":{"zone":10},"type":"Polygon","arcs":[[479,480,-531]],"id":"feature_122"},{"properties":{"zone":6},"type":"Polygon","arcs":[[-540,481,-490]],"id":"feature_123"},{"properties":{"zone":6},"type":"Polygon","arcs":[[-545,-516]],"id":"feature_124"},{"properties":{"zone":3},"type":"Polygon","arcs":[[-537,-483,-578]],"id":"feature_125"},{"properties":{"zone":2},"type":"Polygon","arcs":[[482,-536,-579]],"id":"feature_126"},{"properties":{"zone":10},"type":"Polygon","arcs":[[483,-507,-512,-594]],"id":"feature_127"},{"properties":{"zone":10},"type":"Polygon","arcs":[[-493,-574,-550]],"id":"feature_128"},{"properties":{"zone":2},"type":"Polygon","arcs":[[-534,484,-582]],"id":"feature_129"},{"properties":{"zone":11},"type":"Polygon","arcs":[[-569,-610,-517]],"id":"feature_130"},{"properties":{"zone":7},"type":"Polygon","arcs":[[-554,-557,-562,-500,-624,-498,-620,485,-618,-617,616,-496,486,-494]],"id":"feature_131"},{"properties":{"zone":7},"type":"Polygon","arcs":[[600]],"id":"feature_132"},{"properties":{"zone":8},"type":"Polygon","arcs":[[-566,-489,-613,-543]],"id":"feature_133"},{"properties":{"zone":2},"type":"Polygon","arcs":[[487,-592]],"id":"feature_134"},{"properties":{"zone":9},"type":"Polygon","arcs":[[488,-565,-542,-548,-541,489,490,491,-575,492,-549,-552,493,494,495,-617,-616,-499,-614]],"id":"feature_135"},{"properties":{"zone":2},"type":"Polygon","arcs":[[-590,-589,588,-588,496]],"id":"feature_136"},{"properties":{"zone":3},"type":"Polygon","arcs":[[-559,-621,497,-623]],"id":"feature_137"},{"properties":{"zone":7},"type":"Polygon","arcs":[[599]],"id":"feature_138"},{"properties":{"zone":8},"type":"Polygon","arcs":[[498,-615]],"id":"feature_139"},{"properties":{"zone":10},"type":"Polygon","arcs":[[-510,-607]],"id":"feature_140"},{"properties":{"zone":3},"type":"Polygon","arcs":[[499,-561,500,-625]],"id":"feature_141"},{"properties":{"zone":10},"type":"Polygon","arcs":[[597,-597,-511,-605,-502]],"id":"feature_142"},{"properties":{"zone":11},"type":"Polygon","arcs":[[-599,-598,501,502,-603,503]],"id":"feature_143"},{"properties":{"zone":3},"type":"Polygon","arcs":[[-627,504]],"id":"feature_144"},{"properties":{"zone":5},"type":"Polygon","arcs":[[505,-513,506,507]],"id":"feature_145"},{"properties":{"zone":7},"type":"Polygon","arcs":[[508,-608,509,-606,510,-596]],"id":"feature_146"},{"properties":{"zone":8},"type":"Polygon","arcs":[[511,512,513,514,515,-544,-567,516,-609,517,-595]],"id":"feature_147"},{"properties":{"zone":7},"type":"Polygon","arcs":[[518,519,520,521,522,523,524,525,526,527,528,529,530,531,-571,-584,532,533,534,-580,535,536,-577,537,538,539,540,-547,541,-564,542,-612,-568,543,544,545]],"id":"feature_148"},{"properties":{"zone":6},"type":"Polygon","arcs":[[546,547]],"id":"feature_149"},{"properties":{"zone":7},"type":"Polygon","arcs":[[548,549,-586,-570,550,-555,-553]],"id":"feature_150"},{"properties":{"zone":5},"type":"Polygon","arcs":[[551,552,-558,553]],"id":"feature_151"},{"properties":{"zone":3},"type":"Polygon","arcs":[[554,555,-563,556,557]],"id":"feature_152"},{"properties":{"zone":8},"type":"Polygon","arcs":[[558,-622]],"id":"feature_153"},{"properties":{"zone":5},"type":"Polygon","arcs":[[559,560,561,562]],"id":"feature_154"},{"properties":{"zone":6},"type":"Polygon","arcs":[[563,564,565]],"id":"feature_155"},{"properties":{"zone":6},"type":"Polygon","arcs":[[566,567,-611,568]],"id":"feature_156"},{"properties":{"zone":10},"type":"Polygon","arcs":[[569,-585,570,571,1900,572]],"id":"feature_157"},{"properties":{"zone":5},"type":"Polygon","arcs":[[573,574,575,576,577,578,579,580,581,582,583,584,585]],"id":"feature_158"},{"properties":{"zone":5},"type":"Polygon","arcs":[[586,587,-589,588,589,590,591,592,593,594,595,596,-598,597,598],[599],[600]],"id":"feature_159"},{"properties":{"zone":5},"type":"Polygon","arcs":[[601,602,603,604,605,606,607,608,609,610,611,612,613,614,615,616,617,618,619,620,621,622,623,624,625,626]],"id":"feature_160"},{"properties":{"zone":5},"type":"Polygon","arcs":[[-633,-685,627]],"id":"feature_161"},{"properties":{"zone":5},"type":"Polygon","arcs":[[-689,628,-687,-632,629]],"id":"feature_162"},{"properties":{"zone":7},"type":"Polygon","arcs":[[630,631,-686,632,633,-692,-694,-644,634,-642,635,-640]],"id":"feature_163"},{"properties":{"zone":5},"type":"Polygon","arcs":[[636,-649,637,-654]],"id":"feature_164"},{"properties":{"zone":10},"type":"Polygon","arcs":[[638,-646]],"id":"feature_165"},{"properties":{"zone":5},"type":"Polygon","arcs":[[639,640,641,642,643,-697,644]],"id":"feature_166"},{"properties":{"zone":5},"type":"Polygon","arcs":[[645,646]],"id":"feature_167"},{"properties":{"zone":5},"type":"Polygon","arcs":[[-652,647]],"id":"feature_168"},{"properties":{"zone":7},"type":"Polygon","arcs":[[-656,648,649,-705,-660,-657]],"id":"feature_169"},{"properties":{"zone":6},"type":"Polygon","arcs":[[650,651,652,653,654,655,-658,-673,-664]],"id":"feature_170"},{"properties":{"zone":5},"type":"Polygon","arcs":[[656,-661,-674,657]],"id":"feature_171"},{"properties":{"zone":1},"type":"Polygon","arcs":[[658,-662,-699]],"id":"feature_172"},{"properties":{"zone":8},"type":"Polygon","arcs":[[659,-704,-675,660]],"id":"feature_173"},{"properties":{"zone":6},"type":"Polygon","arcs":[[-668,-700,661,662]],"id":"feature_174"},{"properties":{"zone":5},"type":"Polygon","arcs":[[663,-672,664]],"id":"feature_175"},{"properties":{"zone":5},"type":"Polygon","arcs":[[-670,665]],"id":"feature_176"},{"properties":{"zone":10},"type":"Polygon","arcs":[[666,-701,667,668,669]],"id":"feature_177"},{"properties":{"zone":9},"type":"Polygon","arcs":[[-682,670,671,672,673,674,-703]],"id":"feature_178"},{"properties":{"zone":10},"type":"Polygon","arcs":[[675,-707]],"id":"feature_179"},{"properties":{"zone":10},"type":"Polygon","arcs":[[-678,676]],"id":"feature_180"},{"properties":{"zone":5},"type":"Polygon","arcs":[[677,678,-684,679]],"id":"feature_181"},{"properties":{"zone":7},"type":"Polygon","arcs":[[680,681,-702,682,683]],"id":"feature_182"},{"properties":{"zone":4},"type":"Polygon","arcs":[[684,685,686,687,688,689]],"id":"feature_183"},{"properties":{"zone":4},"type":"Polygon","arcs":[[690,-709]],"id":"feature_184"},{"properties":{"zone":5},"type":"Polygon","arcs":[[691,692,-695]],"id":"feature_185"},{"properties":{"zone":10},"type":"Polygon","arcs":[[693,694,695,696]],"id":"feature_186"},{"properties":{"zone":5},"type":"Polygon","arcs":[[697,698,699,700]],"id":"feature_187"},{"properties":{"zone":5},"type":"Polygon","arcs":[[701,702,703,704,705,706,707,708,709]],"id":"feature_188"},{"properties":{"zone":4},"type":"Polygon","arcs":[[710,-760,711,-758,712,-786,-716]],"id":"feature_189"},{"properties":{"zone":8},"type":"Polygon","arcs":[[-740,-797,-736,-800,713]],"id":"feature_190"},{"properties":{"zone":8},"type":"Polygon","arcs":[[714,-762,715,-791,-755,-815,716,-753,-820]],"id":"feature_191"},{"properties":{"zone":8},"type":"Polygon","arcs":[[-824,717,-772,718,-783,-770,719,-768,-830,720,-828,-780,-744,721,-725,-733,722,-731],[723]],"id":"feature_192"},{"properties":{"zone":11},"type":"Polygon","arcs":[[-734,724,725,-742,726]],"id":"feature_193"},{"properties":{"zone":10},"type":"Polygon","arcs":[[727,-751,728,-749]],"id":"feature_194"},{"properties":{"zone":9},"type":"Polygon","arcs":[[-827,729,-825,730,731,732,733,734]],"id":"feature_195"},{"properties":{"zone":5},"type":"Polygon","arcs":[[-801,735,-796,736]],"id":"feature_196"},{"properties":{"zone":5},"type":"Polygon","arcs":[[-798,737]],"id":"feature_197"},{"properties":{"zone":5},"type":"Polygon","arcs":[[738,-794,739]],"id":"feature_198"},{"properties":{"zone":5},"type":"Polygon","arcs":[[-806,740,-833]],"id":"feature_199"},{"properties":{"zone":5},"type":"Polygon","arcs":[[741,742,743,-779,744,-781,745,-812,746,-792,747]],"id":"feature_200"},{"properties":{"zone":5},"type":"Polygon","arcs":[[-822,748,749,750,751,752,753,-816,754,-790,755,-788,756,757,758,759,760,761,762,-778,763,-776,764,-810,765,-804,766,-807,-831,767,768,769,-785,770,771,772]],"id":"feature_201"},{"properties":{"zone":3},"type":"Polygon","arcs":[[773,-808,774,775,776,777]],"id":"feature_202"},{"properties":{"zone":3},"type":"Polygon","arcs":[[778,779,-837,780,781]],"id":"feature_203"},{"properties":{"zone":3},"type":"Polygon","arcs":[[782,783,784]],"id":"feature_204"},{"properties":{"zone":3},"type":"Polygon","arcs":[[785,786,787,788,789,790]],"id":"feature_205"},{"properties":{"zone":1},"type":"Polygon","arcs":[[791,792]],"id":"feature_206"},{"properties":{"zone":1},"type":"Polygon","arcs":[[793,794,795,796]],"id":"feature_207"},{"properties":{"zone":1},"type":"Polygon","arcs":[[797,798,799,800,801]],"id":"feature_208"},{"properties":{"zone":1},"type":"Polygon","arcs":[[802,803,804,805,-832,806]],"id":"feature_209"},{"properties":{"zone":1},"type":"Polygon","arcs":[[807,808,809,810]],"id":"feature_210"},{"properties":{"zone":1},"type":"Polygon","arcs":[[811,-818,-835,812]],"id":"feature_211"},{"properties":{"zone":1},"type":"Polygon","arcs":[[813,814,815]],"id":"feature_212"},{"properties":{"zone":6},"type":"Polygon","arcs":[[816,817]],"id":"feature_213"},{"properties":{"zone":6},"type":"Polygon","arcs":[[818,819,820,821,822,823,824,825,826]],"id":"feature_214"},{"properties":{"zone":6},"type":"Polygon","arcs":[[827,828,829,830,831,832,833,834,835,836]],"id":"feature_215"},{"properties":{"zone":3},"type":"Polygon","arcs":[[-845,837]],"id":"feature_216"},{"properties":{"zone":7},"type":"Polygon","arcs":[[-898,838]],"id":"feature_217"},{"properties":{"zone":7},"type":"Polygon","arcs":[[-867,-842,-850,839]],"id":"feature_218"},{"properties":{"zone":7},"type":"Polygon","arcs":[[840,-843,-855]],"id":"feature_219"},{"properties":{"zone":8},"type":"Polygon","arcs":[[841,-866,-873,-851]],"id":"feature_220"},{"properties":{"zone":8},"type":"Polygon","arcs":[[-871,-852]],"id":"feature_221"},{"properties":{"zone":1},"type":"Polygon","arcs":[[-853,842,843]],"id":"feature_222"},{"properties":{"zone":1},"type":"Polygon","arcs":[[844,845,-859,846,-857,847]],"id":"feature_223"},{"properties":{"zone":5},"type":"Polygon","arcs":[[848,849,850,-872,851,-870,-856,-881]],"id":"feature_224"},{"properties":{"zone":5},"type":"Polygon","arcs":[[852,853,854]],"id":"feature_225"},{"properties":{"zone":8},"type":"Polygon","arcs":[[-882,855,-869]],"id":"feature_226"},{"properties":{"zone":5},"type":"Polygon","arcs":[[856,857,858,859,-879,-863,860]],"id":"feature_227"},{"properties":{"zone":8},"type":"Polygon","arcs":[[-878,-865,861,862]],"id":"feature_228"},{"properties":{"zone":5},"type":"Polygon","arcs":[[-877,863,864]],"id":"feature_229"},{"properties":{"zone":5},"type":"Polygon","arcs":[[865,866,867,-874]],"id":"feature_230"},{"properties":{"zone":9},"type":"Polygon","arcs":[[-885,-883,868,869,870,871,872,873,874]],"id":"feature_231"},{"properties":{"zone":7},"type":"Polygon","arcs":[[875,876,877,878,879,880,881,882,-884]],"id":"feature_232"},{"properties":{"zone":5},"type":"Polygon","arcs":[[883,884,885]],"id":"feature_233"},{"properties":{"zone":7},"type":"Polygon","arcs":[[-888,-901,886]],"id":"feature_234"},{"properties":{"zone":1},"type":"Polygon","arcs":[[887,888,-893,-892,891,-891,889]],"id":"feature_235"},{"properties":{"zone":5},"type":"Polygon","arcs":[[890,-892,891,892,893,-896,894]],"id":"feature_236"},{"properties":{"zone":1},"type":"Polygon","arcs":[[895,896]],"id":"feature_237"},{"properties":{"zone":5},"type":"Polygon","arcs":[[897,898]],"id":"feature_238"},{"properties":{"zone":1},"type":"Polygon","arcs":[[899,900]],"id":"feature_239"},{"properties":{"zone":6},"type":"Polygon","arcs":[[-911,-904,901,-905]],"id":"feature_240"},{"properties":{"zone":10},"type":"Polygon","arcs":[[902,903,-910]],"id":"feature_241"},{"properties":{"zone":8},"type":"Polygon","arcs":[[904,905,-964,-958,-907,912,-912]],"id":"feature_242"},{"properties":{"zone":7},"type":"Polygon","arcs":[[-913,906,-957,-909,-917,-914]],"id":"feature_243"},{"properties":{"zone":5},"type":"Polygon","arcs":[[-956,907,-954,-918,908]],"id":"feature_244"},{"properties":{"zone":5},"type":"Polygon","arcs":[[909,910,911,-913,912,913,-916,914]],"id":"feature_245"},{"properties":{"zone":8},"type":"Polygon","arcs":[[-962,-951]],"id":"feature_246"},{"properties":{"zone":8},"type":"Polygon","arcs":[[-952,-960]],"id":"feature_247"},{"properties":{"zone":8},"type":"Polygon","arcs":[[915,916,917,-953,-959,-938,-925,918]],"id":"feature_248"},{"properties":{"zone":2},"type":"Polygon","arcs":[[-922,-920,967,-967]],"id":"feature_249"},{"properties":{"zone":6},"type":"Polygon","arcs":[[-968,919,-921,-969]],"id":"feature_250"},{"properties":{"zone":1},"type":"Polygon","arcs":[[920,921,-966,922,-927,-939,-970]],"id":"feature_251"},{"properties":{"zone":6},"type":"Polygon","arcs":[[923,924,-937]],"id":"feature_252"},{"properties":{"zone":6},"type":"Polygon","arcs":[[-943,-929]],"id":"feature_253"},{"properties":{"zone":6},"type":"Polygon","arcs":[[925,-935,-933]],"id":"feature_254"},{"properties":{"zone":3},"type":"Polygon","arcs":[[-940,926,927,-930]],"id":"feature_255"},{"properties":{"zone":3},"type":"Polygon","arcs":[[-942,-932,-944,928]],"id":"feature_256"},{"properties":{"zone":4},"type":"Polygon","arcs":[[-941,929,930,-945,931]],"id":"feature_257"},{"properties":{"zone":3},"type":"Polygon","arcs":[[932,-947,-948,933]],"id":"feature_258"},{"properties":{"zone":7},"type":"Polygon","arcs":[[934,935,936,937,-971,938,939,940,941,942,943,944,945,-949,946]],"id":"feature_259"},{"properties":{"zone":4},"type":"Polygon","arcs":[[947,948,949]],"id":"feature_260"},{"properties":{"zone":9},"type":"Polygon","arcs":[[950,-961,951,952,953,954,955,956,957,-963]],"id":"feature_261"},{"properties":{"zone":5},"type":"Polygon","arcs":[[958,959,960,961,962,963,964,965,966,-968,967,968,969,970]],"id":"feature_262"},{"properties":{"zone":3},"type":"Polygon","arcs":[[-1658,971,-1045,972]],"id":"feature_263"},{"properties":{"zone":12},"type":"Polygon","arcs":[[-976,973]],"id":"feature_264"},{"properties":{"zone":10},"type":"Polygon","arcs":[[-989,974,975,976]],"id":"feature_265"},{"properties":{"zone":8},"type":"Polygon","arcs":[[977,-985,978,-983]],"id":"feature_266"},{"properties":{"zone":3},"type":"Polygon","arcs":[[-991,979]],"id":"feature_267"},{"properties":{"zone":3},"type":"Polygon","arcs":[[-987,-994,-1000,980]],"id":"feature_268"},{"properties":{"zone":3},"type":"Polygon","arcs":[[-993,981,-1008]],"id":"feature_269"},{"properties":{"zone":5},"type":"Polygon","arcs":[[982,983,984,985,986,987,988,989,990,991,992,-1007,-1001,993]],"id":"feature_270"},{"properties":{"zone":8},"type":"Polygon","arcs":[[-1014,-1002,-1005]],"id":"feature_271"},{"properties":{"zone":8},"type":"Polygon","arcs":[[-998,-996,994]],"id":"feature_272"},{"properties":{"zone":5},"type":"Polygon","arcs":[[995,-1004,996]],"id":"feature_273"},{"properties":{"zone":9},"type":"Polygon","arcs":[[997,998,999,1000,-1006,1001,-1013,1002,1003]],"id":"feature_274"},{"properties":{"zone":3},"type":"Polygon","arcs":[[-1015,1004,1005,1006,1007,1008,-1031,-1030,-1011]],"id":"feature_275"},{"properties":{"zone":1},"type":"Polygon","arcs":[[1009,-1016,1010,1029]],"id":"feature_276"},{"properties":{"zone":1},"type":"Polygon","arcs":[[-1017,-1027]],"id":"feature_277"},{"properties":{"zone":5},"type":"Polygon","arcs":[[1011,1012,1013,1014,1015,-1028,1016,-1026,-1025,1024,-1024]],"id":"feature_278"},{"properties":{"zone":8},"type":"Polygon","arcs":[[1017,-1038,1018,-1047]],"id":"feature_279"},{"properties":{"zone":1},"type":"Polygon","arcs":[[-1022,1019]],"id":"feature_280"},{"properties":{"zone":1},"type":"Polygon","arcs":[[-1033,1020]],"id":"feature_281"},{"properties":{"zone":2},"type":"Polygon","arcs":[[1021,1022,1023,-1025,1024,1025,1026,1027,1028,1029,1030,1031,1032,1033]],"id":"feature_282"},{"properties":{"zone":3},"type":"Polygon","arcs":[[1034]],"id":"feature_283"},{"properties":{"zone":11},"type":"Polygon","arcs":[[1041]],"id":"feature_284"},{"properties":{"zone":3},"type":"Polygon","arcs":[[-1040,1035]],"id":"feature_285"},{"properties":{"zone":5},"type":"Polygon","arcs":[[-1043,1036,1037,1038,1039,1040],[1041]],"id":"feature_286"},{"properties":{"zone":6},"type":"Polygon","arcs":[[1042,1043]],"id":"feature_287"},{"properties":{"zone":11},"type":"Polygon","arcs":[[1044,1045]],"id":"feature_288"},{"properties":{"zone":5},"type":"Polygon","arcs":[[1046,1047]],"id":"feature_289"},{"properties":{"zone":3},"type":"Polygon","arcs":[[1048,-1277]],"id":"feature_290"},{"properties":{"zone":1},"type":"Polygon","arcs":[[-1196,-1195,-1194,-1085,1049,-1066,-1062,1050]],"id":"feature_291"},{"properties":{"zone":3},"type":"Polygon","arcs":[[-1056,-1083,-1055,1051]],"id":"feature_292"},{"properties":{"zone":5},"type":"Polygon","arcs":[[1052,-1061,-1081,1053,1054,-1082,1055]],"id":"feature_293"},{"properties":{"zone":3},"type":"Polygon","arcs":[[1056,-1059]],"id":"feature_294"},{"properties":{"zone":1},"type":"Polygon","arcs":[[1057,1058,1059,-1071,-1077,-1076,1075,-1075,1060]],"id":"feature_295"},{"properties":{"zone":2},"type":"Polygon","arcs":[[1061,-1065,-1064,-1068,1062]],"id":"feature_296"},{"properties":{"zone":5},"type":"Polygon","arcs":[[1063,1064,1065,1066,1067]],"id":"feature_297"},{"properties":{"zone":3},"type":"Polygon","arcs":[[1068]],"id":"feature_298"},{"properties":{"zone":3},"type":"Polygon","arcs":[[1069,-1074,-1078,1070]],"id":"feature_299"},{"properties":{"zone":5},"type":"Polygon","arcs":[[1071,-1088,1072,-1079,1073]],"id":"feature_300"},{"properties":{"zone":10},"type":"Polygon","arcs":[[1074,-1076,1075,1076,1077,1078,1079,1080]],"id":"feature_301"},{"properties":{"zone":8},"type":"Polygon","arcs":[[1081,1082]],"id":"feature_302"},{"properties":{"zone":1},"type":"Polygon","arcs":[[1083,1084,-1193]],"id":"feature_303"},{"properties":{"zone":1},"type":"Polygon","arcs":[[1085]],"id":"feature_304"},{"properties":{"zone":1},"type":"Polygon","arcs":[[-1089,-1281]],"id":"feature_305"},{"properties":{"zone":1},"type":"Polygon","arcs":[[1086,1087]],"id":"feature_306"},{"properties":{"zone":2},"type":"Polygon","arcs":[[-1189,1088,-1280,-1191,-1141]],"id":"feature_307"},{"properties":{"zone":8},"type":"Polygon","arcs":[[1197]],"id":"feature_308"},{"properties":{"zone":10},"type":"Polygon","arcs":[[1089,1090,1091,-1181,-1180,-1179,-1178]],"id":"feature_309"},{"properties":{"zone":1},"type":"Polygon","arcs":[[-1283,-1265,-1205,1092]],"id":"feature_310"},{"properties":{"zone":3},"type":"Polygon","arcs":[[-1199,-1202,-1201,-1200]],"id":"feature_311"},{"properties":{"zone":3},"type":"Polygon","arcs":[[1202]],"id":"feature_312"},{"properties":{"zone":1},"type":"Polygon","arcs":[[1093,-1209]],"id":"feature_313"},{"properties":{"zone":3},"type":"Polygon","arcs":[[1094,-1150,-1159,-1158,-1157,-1156,-1155,-1154,-1145,-1187,-1186,-1185]],"id":"feature_314"},{"properties":{"zone":7},"type":"Polygon","arcs":[[-1207,-1099,-1267,-1171,-1105,1095,-1225,-1270,-1224,-1113,-1247,-1108,-1103,1096,-1137,1097]],"id":"feature_315"},{"properties":{"zone":6},"type":"Polygon","arcs":[[-1143,-1148,-1144,-1173,-1100,-1217]],"id":"feature_316"},{"properties":{"zone":8},"type":"Polygon","arcs":[[1098,-1218,1099,-1172,-1268]],"id":"feature_317"},{"properties":{"zone":5},"type":"Polygon","arcs":[[-1107,1100,-1139,1101,1102]],"id":"feature_318"},{"properties":{"zone":4},"type":"Polygon","arcs":[[-1170,1103,1104]],"id":"feature_319"},{"properties":{"zone":1},"type":"Polygon","arcs":[[-1246,1105,1106,1107]],"id":"feature_320"},{"properties":{"zone":3},"type":"Polygon","arcs":[[1108,-1162]],"id":"feature_321"},{"properties":{"zone":3},"type":"Polygon","arcs":[[1109,-1164]],"id":"feature_322"},{"properties":{"zone":3},"type":"Polygon","arcs":[[1110,-1166]],"id":"feature_323"},{"properties":{"zone":3},"type":"Polygon","arcs":[[1111,-1168]],"id":"feature_324"},{"properties":{"zone":2},"type":"Polygon","arcs":[[-1223,1112]],"id":"feature_325"},{"properties":{"zone":1},"type":"Polygon","arcs":[[-1244,1113]],"id":"feature_326"},{"properties":{"zone":1},"type":"Polygon","arcs":[[-1272,-1248]],"id":"feature_327"},{"properties":{"zone":10},"type":"Polygon","arcs":[[1114,-1227]],"id":"feature_328"},{"properties":{"zone":4},"type":"Polygon","arcs":[[-1232,-1231,-1230,-1229,1115,-1122,-1121,-1845,1116,-1126,1117]],"id":"feature_329"},{"properties":{"zone":10},"type":"Polygon","arcs":[[1118,-1843,1119,1120,1121]],"id":"feature_330"},{"properties":{"zone":1},"type":"Polygon","arcs":[[1122,-1242,-1241,1240,-1240]],"id":"feature_331"},{"properties":{"zone":5},"type":"Polygon","arcs":[[1123,-1840,1124,1125]],"id":"feature_332"},{"properties":{"zone":6},"type":"Polygon","arcs":[[-1132,-1136,1126,-1238]],"id":"feature_333"},{"properties":{"zone":11},"type":"Polygon","arcs":[[-1237,1127,-1785,-1786,1128,-1791,1129,1130,-1133,1131]],"id":"feature_334"},{"properties":{"zone":5},"type":"Polygon","arcs":[[1132,1133,-1808,1134,1135]],"id":"feature_335"},{"properties":{"zone":1},"type":"Polygon","arcs":[[1136,1137,1138,1139]],"id":"feature_336"},{"properties":{"zone":3},"type":"Polygon","arcs":[[1140,-1190]],"id":"feature_337"},{"properties":{"zone":3},"type":"Polygon","arcs":[[1141,-1235]],"id":"feature_338"},{"properties":{"zone":10},"type":"Polygon","arcs":[[-1149,1142,-1216]],"id":"feature_339"},{"properties":{"zone":10},"type":"Polygon","arcs":[[-1147,1151,-1146,-1153,-1152,-1174,1143]],"id":"feature_340"},{"properties":{"zone":10},"type":"Polygon","arcs":[[-1215,-1188,1144,1145,-1152,1146,1147,1148]],"id":"feature_341"},{"properties":{"zone":5},"type":"Polygon","arcs":[[1149,1150,-1160]],"id":"feature_342"},{"properties":{"zone":5},"type":"Polygon","arcs":[[1151,1152,1153,1154,1155,1156,1157,1158,1159,1160,1161,1162,1163,1164,1165,1166,1167,1168,1169,1170,-1269,1171,1172,1173]],"id":"feature_343"},{"properties":{"zone":5},"type":"Polygon","arcs":[[-1261,-1260,1174,1175,1176,1177,1178,1179,1180,1181,1182,1183,1184,1185,1186,1187,-1214,-1266,-1282,1188,1189,1190,-1279,1191,1192,1193,1194,1195,1196,-1262],[1197],[1198,1199,1200,1201],[1202]],"id":"feature_344"},{"properties":{"zone":5},"type":"Polygon","arcs":[[1203,1204,-1264,-1213,1205,-1211]],"id":"feature_345"},{"properties":{"zone":5},"type":"Polygon","arcs":[[1206,1207,1208,1209,1210,1211,1212,-1263,1213,1214,1215,1216,1217]],"id":"feature_346"},{"properties":{"zone":5},"type":"Polygon","arcs":[[-1221,1218]],"id":"feature_347"},{"properties":{"zone":1},"type":"Polygon","arcs":[[-1285,1219,1220,1221]],"id":"feature_348"},{"properties":{"zone":5},"type":"Polygon","arcs":[[1222,1223,-1271,1224,1225,1226,1227,1228,1229,1230,1231,1232,-1276,1233,1234,1235,1236,1237,1238,1239,-1241,1240,1241,1242,1243,1244,1245,1246],[-1273,1247],[1273],[1248]],"id":"feature_349"},{"properties":{"zone":1},"type":"Polygon","arcs":[[1249,1250,1251,1252,1253,1254,1255,1256,1257,1258,1259,1260,1261]],"id":"feature_350"},{"properties":{"zone":3},"type":"Polygon","arcs":[[1262,1263,1264,1265]],"id":"feature_351"},{"properties":{"zone":4},"type":"Polygon","arcs":[[1266,1267,1268]],"id":"feature_352"},{"properties":{"zone":2},"type":"Polygon","arcs":[[1269,1270]],"id":"feature_353"},{"properties":{"zone":2},"type":"Polygon","arcs":[[1271,1272]],"id":"feature_354"},{"properties":{"zone":1},"type":"Polygon","arcs":[[1273]],"id":"feature_355"},{"properties":{"zone":4},"type":"Polygon","arcs":[[1274,1275]],"id":"feature_356"},{"properties":{"zone":5},"type":"Polygon","arcs":[[1276,1277,1278,1279,1280,1281,1282,1283,1284,1285],[1286]],"id":"feature_357"},{"properties":{"zone":3},"type":"Polygon","arcs":[[-1289,-1292]],"id":"feature_358"},{"properties":{"zone":5},"type":"Polygon","arcs":[[-1291,1287,-1304,-1293,1288]],"id":"feature_359"},{"properties":{"zone":8},"type":"Polygon","arcs":[[1289,1290,1291,1292,-1303,-1300]],"id":"feature_360"},{"properties":{"zone":3},"type":"Polygon","arcs":[[-1298,1293]],"id":"feature_361"},{"properties":{"zone":6},"type":"Polygon","arcs":[[1294,-1296,-1306]],"id":"feature_362"},{"properties":{"zone":8},"type":"Polygon","arcs":[[1295,1296,-1307]],"id":"feature_363"},{"properties":{"zone":5},"type":"Polygon","arcs":[[1297,1298,1299,-1302,1300]],"id":"feature_364"},{"properties":{"zone":9},"type":"Polygon","arcs":[[1301,1302,1303,1304,1305,1306,1307,-1310,1308]],"id":"feature_365"},{"properties":{"zone":5},"type":"Polygon","arcs":[[1309,1310]],"id":"feature_366"},{"properties":{"zone":5},"type":"Polygon","arcs":[[-1328,1311]],"id":"feature_367"},{"properties":{"zone":8},"type":"Polygon","arcs":[[-1314,-1320,1312,-1322]],"id":"feature_368"},{"properties":{"zone":5},"type":"Polygon","arcs":[[-1321,1313]],"id":"feature_369"},{"properties":{"zone":5},"type":"Polygon","arcs":[[1314,-1316,-1324]],"id":"feature_370"},{"properties":{"zone":3},"type":"Polygon","arcs":[[-1325,1315,1316]],"id":"feature_371"},{"properties":{"zone":11},"type":"Polygon","arcs":[[1317,-1349]],"id":"feature_372"},{"properties":{"zone":1},"type":"Polygon","arcs":[[1318,1319,1320,1321,1322,1323,1324,1325,-1331,-1330,1326,1327]],"id":"feature_373"},{"properties":{"zone":3},"type":"Polygon","arcs":[[1328,1329,-1333]],"id":"feature_374"},{"properties":{"zone":5},"type":"Polygon","arcs":[[1330,1331,1332]],"id":"feature_375"},{"properties":{"zone":3},"type":"Polygon","arcs":[[1333,-1347,-1336]],"id":"feature_376"},{"properties":{"zone":10},"type":"Polygon","arcs":[[-1346,1334,1335]],"id":"feature_377"},{"properties":{"zone":11},"type":"Polygon","arcs":[[-1351,1336]],"id":"feature_378"},{"properties":{"zone":8},"type":"Polygon","arcs":[[-1343,-1342,1339]],"id":"feature_379"},{"properties":{"zone":5},"type":"Polygon","arcs":[[1337,-1357]],"id":"feature_380"},{"properties":{"zone":3},"type":"Polygon","arcs":[[1338,-1355,-1354,1353,-1353]],"id":"feature_381"},{"properties":{"zone":9},"type":"Polygon","arcs":[[-1341,-1360,-1344,-1343,1339]],"id":"feature_382"},{"properties":{"zone":5},"type":"Polygon","arcs":[[-1364,-1361,1340,1341,1342,1343,-1359,-1369,1344,1345,1346,1347,1348,1349,1350,1351,1352,-1354,1353,1354,1355]],"id":"feature_383"},{"properties":{"zone":11},"type":"Polygon","arcs":[[1356,1357],[1374]],"id":"feature_384"},{"properties":{"zone":6},"type":"Polygon","arcs":[[-1366,-1370,1358,1359,1360,-1363]],"id":"feature_385"},{"properties":{"zone":3},"type":"Polygon","arcs":[[1361,-1367,1362,1363]],"id":"feature_386"},{"properties":{"zone":5},"type":"Polygon","arcs":[[1364,-1371,1365,1366]],"id":"feature_387"},{"properties":{"zone":12},"type":"Polygon","arcs":[[1367,-1374]],"id":"feature_388"},{"properties":{"zone":3},"type":"Polygon","arcs":[[1368,1369,1370,1371]],"id":"feature_389"},{"properties":{"zone":11},"type":"Polygon","arcs":[[1372,1373]],"id":"feature_390"},{"properties":{"zone":12},"type":"Polygon","arcs":[[1374]],"id":"feature_391"},{"properties":{"zone":6},"type":"Polygon","arcs":[[1375,-1379,-1378]],"id":"feature_392"},{"properties":{"zone":7},"type":"Polygon","arcs":[[1376,1377,-1381]],"id":"feature_393"},{"properties":{"zone":5},"type":"Polygon","arcs":[[1378,1379,1380]],"id":"feature_394"},{"properties":{"zone":1},"type":"Polygon","arcs":[[-1392,-1390,-1409,1381]],"id":"feature_395"},{"properties":{"zone":5},"type":"Polygon","arcs":[[-1385,1382]],"id":"feature_396"},{"properties":{"zone":6},"type":"Polygon","arcs":[[1383,1384,1385,-1418,-1395,-1441,-1389]],"id":"feature_397"},{"properties":{"zone":3},"type":"Polygon","arcs":[[-1407,1386]],"id":"feature_398"},{"properties":{"zone":1},"type":"Polygon","arcs":[[-1396,-1416]],"id":"feature_399"},{"properties":{"zone":4},"type":"Polygon","arcs":[[1387,1388,-1440,-1402,-1394]],"id":"feature_400"},{"properties":{"zone":3},"type":"Polygon","arcs":[[1389,-1391,-1400,-1397,-1410]],"id":"feature_401"},{"properties":{"zone":5},"type":"Polygon","arcs":[[1390,1391,1392,1393,-1401]],"id":"feature_402"},{"properties":{"zone":4},"type":"Polygon","arcs":[[1394,-1417,1395,-1415,-1405,-1442]],"id":"feature_403"},{"properties":{"zone":5},"type":"Polygon","arcs":[[-1411,1396,-1403,-1438,-1398]],"id":"feature_404"},{"properties":{"zone":4},"type":"Polygon","arcs":[[-1412,1397,-1447,-1431]],"id":"feature_405"},{"properties":{"zone":1},"type":"Polygon","arcs":[[1398,-1420]],"id":"feature_406"},{"properties":{"zone":5},"type":"Polygon","arcs":[[-1404,-1444]],"id":"feature_407"},{"properties":{"zone":8},"type":"Polygon","arcs":[[1399,1400,1401,-1439,1402]],"id":"feature_408"},{"properties":{"zone":6},"type":"Polygon","arcs":[[-1432,-1445,1403,-1443,1404,-1414,1405,-1424]],"id":"feature_409"},{"properties":{"zone":7},"type":"Polygon","arcs":[[1406,1407,1408,1409,1410,1411,-1430,-1423,1412]],"id":"feature_410"},{"properties":{"zone":5},"type":"Polygon","arcs":[[1413,1414,1415,1416,1417,1418,1419,1420]],"id":"feature_411"},{"properties":{"zone":3},"type":"Polygon","arcs":[[1421,1422,-1429,-1426]],"id":"feature_412"},{"properties":{"zone":3},"type":"Polygon","arcs":[[1423,1424,-1436,-1433]],"id":"feature_413"},{"properties":{"zone":1},"type":"Polygon","arcs":[[1425,-1428,1426]],"id":"feature_414"},{"properties":{"zone":5},"type":"Polygon","arcs":[[1427,1428,1429,1430,-1446,1431,1432,-1435,1433]],"id":"feature_415"},{"properties":{"zone":1},"type":"Polygon","arcs":[[1434,1435,1436]],"id":"feature_416"},{"properties":{"zone":8},"type":"Polygon","arcs":[[1437,1438,1439,1440,1441,1442,1443,1444,1445,1446]],"id":"feature_417"},{"properties":{"zone":3},"type":"Polygon","arcs":[[-1484,1447,1448,-1708,1449]],"id":"feature_418"},{"properties":{"zone":3},"type":"Polygon","arcs":[[1450,-1541,-1531,-1463]],"id":"feature_419"},{"properties":{"zone":3},"type":"Polygon","arcs":[[-1456,-1538,1451]],"id":"feature_420"},{"properties":{"zone":3},"type":"Polygon","arcs":[[1452,-1509,-1570,-1494,-1477]],"id":"feature_421"},{"properties":{"zone":3},"type":"Polygon","arcs":[[-1578,1453]],"id":"feature_422"},{"properties":{"zone":3},"type":"Polygon","arcs":[[-1528,-1458,1454]],"id":"feature_423"},{"properties":{"zone":3},"type":"Polygon","arcs":[[1455,1456,1457,-1527,-1539]],"id":"feature_424"},{"properties":{"zone":3},"type":"Polygon","arcs":[[-1476,-1522,1458]],"id":"feature_425"},{"properties":{"zone":3},"type":"Polygon","arcs":[[-1558,1459,-1520,-1569,1460]],"id":"feature_426"},{"properties":{"zone":3},"type":"Polygon","arcs":[[-1473,-1492,1461,1462,-1530,1463]],"id":"feature_427"},{"properties":{"zone":3},"type":"Polygon","arcs":[[-1543,1464,-1469]],"id":"feature_428"},{"properties":{"zone":3},"type":"Polygon","arcs":[[-1516,-1572,-1511,1465]],"id":"feature_429"},{"properties":{"zone":3},"type":"Polygon","arcs":[[1466,-1576,-1513,-1594]],"id":"feature_430"},{"properties":{"zone":3},"type":"Polygon","arcs":[[-1515,1467,-1563,-1487,-1519,-1532]],"id":"feature_431"},{"properties":{"zone":4},"type":"Polygon","arcs":[[1468,1469,-1536]],"id":"feature_432"},{"properties":{"zone":4},"type":"Polygon","arcs":[[1470,-1775,1471,-1773,-1493,1472]],"id":"feature_433"},{"properties":{"zone":2},"type":"Polygon","arcs":[[1473,1716,1474,-1715,-1523,1475]],"id":"feature_434"},{"properties":{"zone":2},"type":"Polygon","arcs":[[1476,-1508,1477]],"id":"feature_435"},{"properties":{"zone":2},"type":"Polygon","arcs":[[1478,-1496]],"id":"feature_436"},{"properties":{"zone":2},"type":"Polygon","arcs":[[1479,-1706,1480,-1704,1481,-1505,-1556,-1486,1482,-1710,1483]],"id":"feature_437"},{"properties":{"zone":5},"type":"Polygon","arcs":[[-1555,1484,1485]],"id":"feature_438"},{"properties":{"zone":5},"type":"Polygon","arcs":[[-1562,-1517,1486]],"id":"feature_439"},{"properties":{"zone":5},"type":"Polygon","arcs":[[-1781,1487,-1593,-1587,1488,1489,1490,1491,1492]],"id":"feature_440"},{"properties":{"zone":5},"type":"Polygon","arcs":[[1493,-1575,-1534,-1518,-1560,1494,1495,1496,-1567,1497,-1701,1498,-1699,1499,-1697,1500,-1695,1501,-1693,1502,-1691,1503,-1546,1504,1505,-1545,1506,1507]],"id":"feature_441"},{"properties":{"zone":5},"type":"Polygon","arcs":[[1508,1509,1510,-1571]],"id":"feature_442"},{"properties":{"zone":5},"type":"Polygon","arcs":[[1511,-1595,1512,-1580,1513,1514,-1535,-1573,1515]],"id":"feature_443"},{"properties":{"zone":6},"type":"Polygon","arcs":[[1516,-1561,1517,-1533,1518]],"id":"feature_444"},{"properties":{"zone":6},"type":"Polygon","arcs":[[1519,1520,1521,1522,1523,-1738,1524,-1736,1525,-1685,-1564]],"id":"feature_445"},{"properties":{"zone":6},"type":"Polygon","arcs":[[-1540,1526,1527,1528,1529,1530]],"id":"feature_446"},{"properties":{"zone":8},"type":"Polygon","arcs":[[1531,1532,1533,-1574,1534]],"id":"feature_447"},{"properties":{"zone":7},"type":"Polygon","arcs":[[1535,1536,1537,1538,1539,1540,1541,1542]],"id":"feature_448"},{"properties":{"zone":10},"type":"Polygon","arcs":[[1543,1544]],"id":"feature_449"},{"properties":{"zone":10},"type":"Polygon","arcs":[[1545,1546,-1689,1547,-1687,1548,1549,-1724,1550,-1722,-1758,1551,-1756,1552,-1712,1553,1554,1555]],"id":"feature_450"},{"properties":{"zone":10},"type":"Polygon","arcs":[[1556,1557]],"id":"feature_451"},{"properties":{"zone":10},"type":"Polygon","arcs":[[1558,1559,1560,1561,1562]],"id":"feature_452"},{"properties":{"zone":10},"type":"Polygon","arcs":[[1563,-1684,1564,1565,1566,1567,1568]],"id":"feature_453"},{"properties":{"zone":10},"type":"Polygon","arcs":[[1569,1570,1571,1572,1573,1574]],"id":"feature_454"},{"properties":{"zone":10},"type":"Polygon","arcs":[[1575,1576,1577,1578,1579]],"id":"feature_455"},{"properties":{"zone":11},"type":"Polygon","arcs":[[-1591,1580,1581,1582,1583,1584,1585,1586,-1592]],"id":"feature_456"},{"properties":{"zone":12},"type":"Polygon","arcs":[[1587,-1745,1588,-1743,1589,1590,1591,1592]],"id":"feature_457"},{"properties":{"zone":12},"type":"Polygon","arcs":[[1593,1594,1595]],"id":"feature_458"},{"properties":{"zone":3},"type":"Polygon","arcs":[[1596,-1602]],"id":"feature_459"},{"properties":{"zone":10},"type":"Polygon","arcs":[[1597,-1599,-1604]],"id":"feature_460"},{"properties":{"zone":11},"type":"Polygon","arcs":[[-1605,1598,1599]],"id":"feature_461"},{"properties":{"zone":5},"type":"Polygon","arcs":[[-1609,-1619,-1608,1600,1601,1602,1603,1604,1605,-1611]],"id":"feature_462"},{"properties":{"zone":2},"type":"Polygon","arcs":[[-1615,1606]],"id":"feature_463"},{"properties":{"zone":10},"type":"Polygon","arcs":[[1607,-1620,1608,-1613,1609]],"id":"feature_464"},{"properties":{"zone":6},"type":"Polygon","arcs":[[1610,1611,1612]],"id":"feature_465"},{"properties":{"zone":5},"type":"Polygon","arcs":[[-1618,1613,1614,1615]],"id":"feature_466"},{"properties":{"zone":3},"type":"Polygon","arcs":[[1616,1617]],"id":"feature_467"},{"properties":{"zone":9},"type":"Polygon","arcs":[[1618,1619]],"id":"feature_468"},{"properties":{"zone":5},"type":"Polygon","arcs":[[-1624,-1626,1620]],"id":"feature_469"},{"properties":{"zone":4},"type":"Polygon","arcs":[[-1633,1621,-1628,-1636]],"id":"feature_470"},{"properties":{"zone":8},"type":"Polygon","arcs":[[1622,-1652]],"id":"feature_471"},{"properties":{"zone":1},"type":"Polygon","arcs":[[-1627,1623,1624,-1638]],"id":"feature_472"},{"properties":{"zone":3},"type":"Polygon","arcs":[[1625,1626,-1637,1627,1628]],"id":"feature_473"},{"properties":{"zone":3},"type":"Polygon","arcs":[[-1631,1629]],"id":"feature_474"},{"properties":{"zone":8},"type":"Polygon","arcs":[[1630,1631,1632,-1635,-1647,-1643,-1640,1633]],"id":"feature_475"},{"properties":{"zone":5},"type":"Polygon","arcs":[[1634,1635,1636,1637,1638,-1645,-1648]],"id":"feature_476"},{"properties":{"zone":5},"type":"Polygon","arcs":[[1639,-1642,1640]],"id":"feature_477"},{"properties":{"zone":4},"type":"Polygon","arcs":[[1641,1642,-1651,1643]],"id":"feature_478"},{"properties":{"zone":2},"type":"Polygon","arcs":[[1644,1645,-1649]],"id":"feature_479"},{"properties":{"zone":3},"type":"Polygon","arcs":[[1646,1647,1648,1649,1650]],"id":"feature_480"},{"properties":{"zone":5},"type":"Polygon","arcs":[[1651,1652]],"id":"feature_481"},{"properties":{"zone":8},"type":"Polygon","arcs":[[-1655,1653]],"id":"feature_482"},{"properties":{"zone":5},"type":"Polygon","arcs":[[1654,1655]],"id":"feature_483"},{"properties":{"zone":3},"type":"Polygon","arcs":[[-1671,-1662,-1679,1656,1657,1658]],"id":"feature_484"},{"properties":{"zone":3},"type":"Polygon","arcs":[[-1681,-1664,1659]],"id":"feature_485"},{"properties":{"zone":3},"type":"Polygon","arcs":[[-1667,1660]],"id":"feature_486"},{"properties":{"zone":4},"type":"Polygon","arcs":[[-1680,1661,-1670,1662,1663]],"id":"feature_487"},{"properties":{"zone":5},"type":"Polygon","arcs":[[-1673,1664,-1678,1665,1666,1667,-1675]],"id":"feature_488"},{"properties":{"zone":6},"type":"Polygon","arcs":[[1668,1669,1670]],"id":"feature_489"},{"properties":{"zone":8},"type":"Polygon","arcs":[[1671,1672,-1674]],"id":"feature_490"},{"properties":{"zone":7},"type":"Polygon","arcs":[[1673,1674,1675]],"id":"feature_491"},{"properties":{"zone":10},"type":"Polygon","arcs":[[1676,1677]],"id":"feature_492"},{"properties":{"zone":11},"type":"Polygon","arcs":[[1678,1679,1680,1681]],"id":"feature_493"},{"properties":{"zone":10},"type":"Polygon","arcs":[[1682,1683,1684,-1734,-1703]],"id":"feature_494"},{"properties":{"zone":5},"type":"Polygon","arcs":[[1685,1686,1687,1688,1689,1690,1691,1692,1693,1694,1695,1696,1697,1698,1699,1700,1701,1702,-1733,-1726]],"id":"feature_495"},{"properties":{"zone":3},"type":"Polygon","arcs":[[1703,1704,1705,1706,1707,1708,1709,1710,1711,1712,-1754,1713]],"id":"feature_496"},{"properties":{"zone":2},"type":"Polygon","arcs":[[-1740,1714,1715,1716,1717]],"id":"feature_497"},{"properties":{"zone":3},"type":"Polygon","arcs":[[-1763,-1719,-1731]],"id":"feature_498"},{"properties":{"zone":2},"type":"Polygon","arcs":[[-1732,1718,-1762,1719,-1728,1720,-1759,1721,1722,1723,1724,1725]],"id":"feature_499"},{"properties":{"zone":3},"type":"Polygon","arcs":[[1726,1727,-1760]],"id":"feature_500"},{"properties":{"zone":3},"type":"Polygon","arcs":[[1728,-1752]],"id":"feature_501"},{"properties":{"zone":6},"type":"Polygon","arcs":[[1729,-1771,-1741,-1747,-1764,1730,1731,1732,1733,1734,1735,1736,1737,1738,1739]],"id":"feature_502"},{"properties":{"zone":5},"type":"Polygon","arcs":[[1740,-1770,-1748]],"id":"feature_503"},{"properties":{"zone":12},"type":"Polygon","arcs":[[-1778,-1777,-1805,-1804,1741,1742,1743,1744,1745,-1779]],"id":"feature_504"},{"properties":{"zone":3},"type":"Polygon","arcs":[[-1769,-1765,1746,1747]],"id":"feature_505"},{"properties":{"zone":9},"type":"Polygon","arcs":[[1748,-1750,-1767]],"id":"feature_506"},{"properties":{"zone":5},"type":"Polygon","arcs":[[1749,1750,1751,1752,1753,1754,1755,1756,1757,1758,1759,1760,1761,1762,1763,1764,-1768]],"id":"feature_507"},{"properties":{"zone":7},"type":"Polygon","arcs":[[1765,1766,1767,1768,1769,1770,1771,-1795,-1789]],"id":"feature_508"},{"properties":{"zone":4},"type":"Polygon","arcs":[[-1782,1772,1773,1774,1775]],"id":"feature_509"},{"properties":{"zone":5},"type":"Polygon","arcs":[[-1806,1776,1777,1778,1779,1780,1781,1782]],"id":"feature_510"},{"properties":{"zone":6},"type":"Polygon","arcs":[[1783,-1787,1784]],"id":"feature_511"},{"properties":{"zone":11},"type":"Polygon","arcs":[[1785,1786,1787,1788,-1794,1789,1790,1791]],"id":"feature_512"},{"properties":{"zone":12},"type":"Polygon","arcs":[[-1810,1792,1793,1794,1795]],"id":"feature_513"},{"properties":{"zone":11},"type":"Polygon","arcs":[[-1812,1796,1797,1798,1799,1800,1801,1802,1803,1804,1805,1806]],"id":"feature_514"},{"properties":{"zone":11},"type":"Polygon","arcs":[[1807,1808,1809,1810]],"id":"feature_515"},{"properties":{"zone":5},"type":"Polygon","arcs":[[1811,1812,-1819,-1818,1813]],"id":"feature_516"},{"properties":{"zone":8},"type":"Polygon","arcs":[[1814,1815,1816,1817,1818,1819,-1822,-1828,-1835]],"id":"feature_517"},{"properties":{"zone":5},"type":"Polygon","arcs":[[-1827,1820,1821,1822,-1825,-1837]],"id":"feature_518"},{"properties":{"zone":3},"type":"Polygon","arcs":[[1823,-1838,1824]],"id":"feature_519"},{"properties":{"zone":3},"type":"Polygon","arcs":[[1825,1826,-1836,1827]],"id":"feature_520"},{"properties":{"zone":5},"type":"Polygon","arcs":[[1828,1829,-1833,1830,-1848,1831]],"id":"feature_521"},{"properties":{"zone":10},"type":"Polygon","arcs":[[1832,1833,1834,1835,1836,1837,1838,1839,1840,-1846,1841,1842,1843]],"id":"feature_522"},{"properties":{"zone":4},"type":"Polygon","arcs":[[1844,1845,1846]],"id":"feature_523"},{"properties":{"zone":6},"type":"Polygon","arcs":[[1847,1848]],"id":"feature_524"},{"properties":{"zone":5},"type":"Polygon","arcs":[[-1923,-1850,-1869,-1857]],"id":"feature_525"},{"properties":{"zone":2},"type":"Polygon","arcs":[[1849,-1922,1850,-1870]],"id":"feature_526"},{"properties":{"zone":5},"type":"Polygon","arcs":[[1851,-1862]],"id":"feature_527"},{"properties":{"zone":7},"type":"Polygon","arcs":[[1852,-1859,1853,-1855,-1919]],"id":"feature_528"},{"properties":{"zone":5},"type":"Polygon","arcs":[[1854,1855,-1920]],"id":"feature_529"},{"properties":{"zone":5},"type":"Polygon","arcs":[[1932]],"id":"feature_530"},{"properties":{"zone":2},"type":"Polygon","arcs":[[1856,-1868,-1865,-1924]],"id":"feature_531"},{"properties":{"zone":5},"type":"Polygon","arcs":[[1857,1858,1859,-1917,-1886,-1864]],"id":"feature_532"},{"properties":{"zone":10},"type":"Polygon","arcs":[[-1874,1860,1861,1862,1863,-1885]],"id":"feature_533"},{"properties":{"zone":3},"type":"Polygon","arcs":[[1864,-1867,-1925]],"id":"feature_534"},{"properties":{"zone":2},"type":"Polygon","arcs":[[-1872,1865,-1899]],"id":"feature_535"},{"properties":{"zone":7},"type":"Polygon","arcs":[[-1926,1866,1867,1868,1869,1870,1871,-1898,-1882,-1896]],"id":"feature_536"},{"properties":{"zone":5},"type":"Polygon","arcs":[[-1888,-1931,-1892,1872,-1891]],"id":"feature_537"},{"properties":{"zone":3},"type":"Polygon","arcs":[[1873,-1884,1874]],"id":"feature_538"},{"properties":{"zone":5},"type":"Polygon","arcs":[[-1909,1875,-1907,1876,-1905,1877,-1903,-1887,-1915,1878,-1913,1879,-1911,1880]],"id":"feature_539"},{"properties":{"zone":2},"type":"Polygon","arcs":[[1881,-1897]],"id":"feature_540"},{"properties":{"zone":8},"type":"Polygon","arcs":[[-1890,1882,1883,1884,1885,-1916,1886,-1932,1887]],"id":"feature_541"},{"properties":{"zone":10},"type":"Polygon","arcs":[[1888,1889,1890]],"id":"feature_542"},{"properties":{"zone":7},"type":"Polygon","arcs":[[1891,-1930,1892]],"id":"feature_543"},{"properties":{"zone":7},"type":"Polygon","arcs":[[-1895,1893,-1928]],"id":"feature_544"},{"properties":{"zone":5},"type":"Polygon","arcs":[[1894,-1927,1895,1896,1897,1898,1899]],"id":"feature_545"},{"properties":{"zone":10},"type":"Polygon","arcs":[[1900,1901]],"id":"feature_546"},{"properties":{"zone":8},"type":"Polygon","arcs":[[1902,1903,1904,1905,1906,1907,1908,1909,1910,1911,1912,1913,1914,1915,1916,1917,1918,1919,1920,1921,1922,1923,1924,1925,1926,1927,1928,1929,1930,1931],[1932]],"id":"feature_547"}],"type":"GeometryCollection"}},"bbox":[138.4229,35.3561,139.1248,35.7294],"transform":{"scale":[7.019701970196969e-05,3.7333733373337376e-05],"translate":[138.4229,35.3561]},"arcs":[[[1413,9136],[13,57]],[[1433,9161],[40,-94]],[[1476,9059],[32,-110]],[[1510,8949],[27,-40]],[[1541,8898],[6,-21]],[[1547,8874],[20,-51]],[[1563,8796],[-150,332]],[[1798,8746],[-3,21]],[[1782,8772],[93,-69]],[[2280,8526],[35,-177]],[[2383,8397],[1,3]],[[2302,8727],[-22,-201]],[[2280,8526],[-50,37]],[[2302,8727],[-2,-19]],[[2185,8772],[7,29]],[[2188,8831],[-6,-24]],[[2178,8895],[124,-168]],[[1985,8801],[24,30]],[[2009,8850],[10,77]],[[2038,8914],[27,0]],[[1985,8799],[24,32]],[[2009,8831],[0,19]],[[2009,8850],[10,77]],[[2019,8927],[19,-13]],[[2038,8914],[27,0]],[[2065,8914],[113,-19]],[[2178,8895],[4,-88]],[[2182,8807],[-10,-35]],[[1504,9091],[276,-191]],[[1689,8845],[-13,13]],[[2185,8772],[115,-64]],[[2300,8708],[-70,-145]],[[2230,8563],[-30,-23]],[[2175,8780],[7,27]],[[2182,8807],[6,24]],[[2188,8831],[4,-30]],[[2192,8801],[-7,-29]],[[2180,8774],[2,33]],[[2121,7117],[-51,99]],[[1982,6921],[-31,57]],[[1929,7264],[2,3]],[[2045,7406],[-18,-514]],[[2027,6892],[-45,29]],[[1982,6921],[45,-29]],[[1803,8038],[2,6]],[[1659,8172],[4,-2]],[[1677,8153],[12,-2]],[[1998,8003],[0,-146]],[[1905,8102],[76,-85]],[[2600,8046],[-140,-107]],[[2442,8017],[-3,5]],[[2125,7315],[-1,8]],[[2228,7454],[-97,-236]],[[2240,7216],[0,0]],[[1554,8593],[9,80]],[[2172,8772],[3,8]],[[2175,8780],[5,-6]],[[2180,8774],[5,-2]],[[2185,8772],[15,-232]],[[2200,8540],[4,-95]],[[1809,8670],[1,5]],[[1806,8708],[69,-5]],[[1875,8703],[110,98]],[[1985,8801],[0,-2]],[[1985,8799],[187,-27]],[[2454,7904],[-8,-69]],[[2325,7888],[2,3]],[[1851,8593],[-5,-46]],[[1845,8488],[1,-2]],[[1749,8523],[-245,568]],[[1504,9091],[172,-233]],[[1676,8858],[13,-13]],[[1689,8845],[91,55]],[[1780,8900],[-12,-99]],[[1799,8414],[-33,80]],[[1855,8448],[13,-37]],[[1639,8614],[81,-88]],[[1526,8309],[18,64]],[[1719,8159],[-9,8]],[[1666,8537],[3,-3]],[[1742,8494],[36,-83]],[[2383,8397],[1,3]],[[2384,8400],[96,-249]],[[2271,8234],[44,115]],[[2315,8349],[68,48]],[[2308,7722],[7,-2]],[[2443,7816],[-97,-203]],[[2104,7221],[-34,-5]],[[2070,7216],[0,166]],[[1546,7985],[5,152]],[[1607,7899],[-11,16]],[[1614,7800],[-28,51]],[[1584,7851],[7,0]],[[1928,7262],[1,2]],[[1929,7264],[22,-286]],[[1951,6978],[-53,29]],[[1912,8129],[-60,102]],[[1925,8145],[-6,-8]],[[2061,7430],[-4,391]],[[1806,7363],[-50,161]],[[1769,7542],[27,49]],[[1905,7446],[8,-5]],[[1985,7415],[-54,-148]],[[1931,7267],[-3,-5]],[[1928,7262],[-90,-33]],[[1848,7366],[-27,-16]],[[1869,6758],[-16,2]],[[1852,6763],[-6,13]],[[2248,7885],[-6,3]],[[2218,7862],[-7,-49]],[[2207,7816],[-47,13]],[[2187,7907],[4,32]],[[2024,7802],[11,-364]],[[1948,7899],[50,-42]],[[1998,7857],[27,-25]],[[1793,7634],[-1,3]],[[1750,7703],[20,75]],[[1800,8033],[3,5]],[[1803,8038],[45,27]],[[1859,8063],[72,-151]],[[1832,7918],[37,-89],[30,89],[-50,51],[-17,-51]],[[1599,7854],[-8,-3]],[[1586,7851],[-2,0]],[[1584,7851],[-44,102]],[[2287,8049],[1,0]],[[2377,8049],[-50,-158]],[[2327,7891],[-2,-6]],[[2322,7877],[-5,3]],[[2271,8234],[209,-83]],[[2480,8151],[120,-105]],[[2600,8046],[-161,-24]],[[2439,8022],[-2,0]],[[2177,8271],[-5,8]],[[2155,8296],[-5,2]],[[2174,8461],[30,-16]],[[2204,8445],[67,-211]],[[1843,8210],[53,-94]],[[1968,8389],[0,-2]],[[1892,8435],[-4,-32]],[[1799,8414],[69,-3]],[[1868,8411],[2,-8]],[[1883,8403],[5,0]],[[1888,8403],[0,-3]],[[1839,8255],[-40,159]],[[1852,8601],[-1,-8]],[[1851,8593],[-92,107]],[[1772,7100],[-40,183]],[[2075,7824],[9,3]],[[2304,7698],[-3,-22]],[[2313,7586],[33,-11]],[[1766,8494],[-17,29]],[[1749,8523],[97,-37]],[[1846,8486],[0,-3]],[[1851,8467],[4,-19]],[[1855,8448],[-89,46]],[[1660,8170],[-1,2]],[[1659,8172],[-25,-192]],[[1634,7980],[60,26]],[[1610,7896],[-59,241]],[[1551,8137],[-25,172]],[[1526,8309],[4,-8]],[[1530,8296],[-1,-6]],[[1529,8285],[135,-91]],[[1554,8593],[3,0]],[[1566,8593],[-2,51]],[[1564,8665],[-1,8]],[[1563,8673],[13,5]],[[1609,8678],[30,-64]],[[1639,8614],[81,-88]],[[1720,8526],[22,-32]],[[1742,8494],[-73,40]],[[1669,8534],[-3,3]],[[1666,8537],[-45,-33]],[[1617,8467],[161,-56]],[[1778,8411],[54,-172]],[[1722,8156],[-3,3]],[[1719,8159],[-150,214]],[[1544,8373],[10,220]],[[1563,8820],[4,3]],[[1567,8823],[2,-5]],[[1570,8818],[30,-110]],[[1590,8697],[-27,99]],[[2167,7915],[20,-8]],[[2187,7907],[-27,-78]],[[2160,7829],[-49,17]],[[2277,8052],[10,-3]],[[2287,8049],[-20,-169]],[[2255,7883],[-7,2]],[[2248,7885],[-38,62]],[[2177,8271],[77,-104]],[[2148,8225],[-4,17]],[[2145,8242],[9,43]],[[2154,8296],[1,0]],[[2155,8296],[17,-17]],[[2172,8279],[5,-8]],[[1981,8017],[17,-14]],[[1998,8003],[-50,-104]],[[1948,7899],[-123,-254]],[[1795,7632],[-2,2]],[[1793,7634],[59,88]],[[1852,7722],[79,190]],[[1931,7912],[50,105]],[[1748,7974],[-54,32]],[[1694,8006],[64,96]],[[2174,8461],[-24,-160]],[[2150,8298],[-5,3]],[[2140,8343],[4,41]],[[2057,8504],[0,3]],[[1961,8582],[213,-121]],[[1796,7591],[-23,-41]],[[1775,7572],[0,3]],[[1926,8148],[33,167]],[[1966,8373],[2,16]],[[1968,8389],[17,148]],[[2051,8488],[-10,-38]],[[1992,8038],[-73,78]],[[1942,8574],[-34,-171]],[[1895,8335],[-43,-104]],[[1852,8231],[-13,24]],[[1839,8255],[49,145]],[[1888,8400],[4,35]],[[1892,8435],[31,150]],[[2057,7821],[18,3]],[[2075,7824],[5,-394],[266,145]],[[2366,7575],[-138,-121]],[[2228,7454],[-104,-131]],[[2124,7323],[1,-8]],[[2125,7315],[6,-97]],[[2131,7218],[-10,-101]],[[2121,7117],[-17,104]],[[2104,7221],[-34,161]],[[2070,7382],[-9,48]],[[2061,7430],[-4,391]],[[2035,7438],[10,-32]],[[2045,7406],[-60,9]],[[1985,7415],[-72,26]],[[1913,7441],[-3,2]],[[1991,7443],[44,-5]],[[1540,7953],[6,32]],[[1546,7985],[50,-70]],[[1596,7915],[5,-8]],[[1577,7901],[-37,52]],[[1832,8239],[11,-29]],[[1843,8210],[-20,-108]],[[1816,8073],[-11,-29]],[[1805,8044],[-5,-11]],[[1800,8033],[-32,-67]],[[1748,7974],[54,121]],[[1808,8121],[24,118]],[[2337,7870],[-15,7]],[[2322,7877],[3,8]],[[2325,7885],[0,3]],[[2325,7888],[121,-53]],[[2446,7835],[-3,-19]],[[2443,7816],[-87,30]],[[2097,7731],[-13,96]],[[2102,7848],[9,-2]],[[2111,7846],[96,-30]],[[2207,7816],[4,-3]],[[2211,7813],[-1,-16]],[[2188,7918],[-1,-11]],[[2187,7907],[-16,5]],[[2025,7832],[-1,-30]],[[2024,7802],[1,30]],[[2142,7972],[68,-25]],[[2210,7947],[-19,-8]],[[2191,7939],[-3,-16]],[[2157,7920],[-52,-2]],[[1992,8038],[-9,67]],[[2034,8009],[-42,29]],[[2268,8143],[-40,16]],[[2231,8175],[23,-8]],[[2254,8167],[152,-62]],[[1823,8102],[73,14]],[[1896,8116],[9,-14]],[[1905,8102],[-46,-39]],[[1859,8063],[-11,2]],[[1848,8065],[-32,8]],[[1816,8073],[7,29]],[[1961,8582],[96,-75]],[[2057,8507],[-2,-11]],[[2054,8499],[-3,-11]],[[2051,8488],[-66,49]],[[1985,8537],[-43,37]],[[1942,8574],[-19,11]],[[1923,8585],[-40,-182]],[[1883,8403],[-13,0]],[[1870,8403],[-19,64]],[[1851,8467],[-5,16]],[[1846,8483],[-1,5]],[[1845,8488],[1,59]],[[1846,8547],[6,54]],[[1852,8601],[-44,51]],[[1809,8662],[0,8]],[[1809,8670],[152,-88]],[[1775,7572],[-2,-22]],[[1773,7550],[-4,-8]],[[1769,7542],[-13,-18]],[[1756,7524],[-20,94]],[[1772,7580],[3,-8]],[[1912,8129],[7,8]],[[1919,8137],[6,8]],[[1925,8145],[1,3]],[[1926,8148],[44,-3]],[[1965,8129],[-46,-13]],[[1919,8116],[-7,13]],[[1876,7527],[115,-84]],[[1991,7443],[-75,11]],[[1759,8700],[9,101]],[[1768,8801],[14,-29]],[[1782,8772],[13,-5]],[[1795,8767],[3,-21]],[[1798,8746],[8,-38]],[[1806,8708],[4,-33]],[[1810,8675],[-1,-13]],[[1809,8662],[-1,-10]],[[1808,8652],[-49,48]],[[2148,8225],[83,-50]],[[2231,8175],[-3,-16]],[[2228,8159],[-86,-187]],[[2142,7972],[46,-49]],[[2188,7923],[0,-5]],[[2188,7918],[-17,-6]],[[2171,7912],[-4,3]],[[2167,7915],[-10,5]],[[2157,7920],[-52,-2]],[[2105,7918],[-3,-70]],[[2102,7848],[-4,-16]],[[2094,7829],[-10,-2]],[[2084,7827],[-50,182]],[[2034,8009],[-51,96]],[[1983,8105],[-18,24]],[[1965,8129],[5,16]],[[1970,8145],[71,305]],[[2041,8450],[13,49]],[[2054,8499],[1,-3]],[[2055,8496],[2,8]],[[2057,8504],[87,-120]],[[2144,8384],[-4,-41]],[[2140,8343],[5,-42]],[[2145,8301],[5,0]],[[2150,8301],[0,-3]],[[2150,8298],[4,-2]],[[2154,8296],[0,-11]],[[2154,8285],[-9,-43]],[[2145,8242],[-1,0]],[[2144,8242],[4,-17]],[[2034,8277],[8,-178],[78,-20],[0,308],[-86,-110]],[[2308,7722],[-4,-24]],[[2304,7698],[-54,-11]],[[2192,7701],[-95,30]],[[2097,7731],[-3,98]],[[2094,7829],[4,3]],[[2098,7832],[112,-35]],[[2210,7797],[8,65]],[[2218,7862],[24,26]],[[2242,7888],[13,-5]],[[2255,7883],[12,-3]],[[2267,7880],[50,0]],[[2317,7880],[20,-10]],[[2337,7870],[19,-24]],[[2356,7846],[-41,-126]],[[2315,7720],[-7,2]],[[2406,8105],[-9,-64]],[[2397,8041],[-20,8]],[[2377,8049],[-89,0]],[[2288,8049],[-11,3]],[[2277,8052],[-9,91]],[[2268,8143],[138,-38]],[[1710,8167],[12,-11]],[[1722,8156],[86,-35]],[[1808,8121],[-6,-26]],[[1802,8095],[-44,7]],[[1758,8102],[-69,49]],[[1689,8151],[-12,2]],[[1677,8153],[-14,17]],[[1663,8170],[-3,0]],[[1660,8170],[4,24]],[[1664,8194],[46,-27]],[[1968,8387],[-2,-14]],[[1966,8373],[-7,-58]],[[1959,8315],[-64,20]],[[1895,8335],[13,68]],[[1908,8403],[60,-16]],[[2313,7586],[-12,90]],[[2301,7676],[45,-63]],[[2346,7613],[20,-38]],[[2366,7575],[-20,0]],[[2346,7575],[-33,11]],[[2454,7904],[-57,137]],[[2397,8041],[40,-19]],[[2437,8022],[5,-5]],[[2442,8017],[18,-78]],[[2460,7939],[-6,-35]],[[1750,7703],[18,-29]],[[1770,7676],[22,-39]],[[1792,7637],[3,-5]],[[1795,7632],[30,13]],[[1825,7645],[51,-118]],[[1876,7527],[40,-73]],[[1916,7454],[-6,-11]],[[1910,7443],[-5,3]],[[1905,7446],[-109,145]],[[1796,7591],[-21,-16]],[[1775,7575],[-3,5]],[[1772,7583],[-13,27]],[[1759,7610],[-23,8]],[[1736,7618],[14,85]],[[1590,8697],[10,11]],[[1600,8708],[7,-24]],[[1609,8678],[-33,-31]],[[1579,8655],[-3,23]],[[1576,8678],[14,19]],[[1577,7901],[24,6]],[[1601,7907],[6,-8]],[[1607,7899],[3,-3]],[[1610,7896],[138,78]],[[1748,7974],[20,-8]],[[1768,7966],[2,-188]],[[1770,7778],[-156,22]],[[1611,7854],[-34,47]],[[2207,6645],[8,-12]],[[2152,6622],[10,72]],[[2167,6694],[-3,-22]],[[1732,7283],[74,80]],[[1806,7363],[15,-13]],[[1821,7350],[27,16]],[[1848,7366],[8,-59]],[[1856,7305],[-3,-8]],[[1849,7289],[-1,-6]],[[1843,7280],[-5,-51]],[[1838,7229],[35,-107]],[[1766,7165],[-34,118]],[[1860,6812],[10,-14]],[[1870,6779],[-4,-5]],[[1866,6771],[3,-13]],[[1869,6758],[-23,18]],[[1846,6776],[5,38]],[[2192,7701],[58,-14]],[[2250,7687],[-58,14]],[[1991,6485],[-39,137],[90,-11],[-18,-91],[-33,-35]],[[1772,7100],[-3,27]],[[1769,7133],[-3,32]],[[1766,7165],[107,-43]],[[1873,7122],[25,-115]],[[1898,7007],[-38,-195]],[[1860,6812],[-9,2]],[[1851,6814],[-79,286]],[[2152,6622],[12,50]],[[2164,6672],[3,22]],[[2167,6694],[-5,0]],[[2162,6694],[45,-49]],[[2207,6645],[8,-12]],[[2215,6633],[-63,-11]],[[5253,2764],[-49,-77]],[[5271,2802],[-18,-38]],[[5253,2764],[-49,-77]],[[5204,2687],[5,160]],[[5312,2893],[-41,-91]],[[5271,2802],[-62,45]],[[5209,2847],[40,150]],[[5312,2893],[-19,8]],[[5385,2906],[-73,-13]],[[5469,3051],[-26,-244]],[[5413,2869],[-28,37]],[[5385,2906],[-54,94]],[[5326,3088],[5,-88]],[[5331,3000],[-38,-99]],[[5293,2901],[-44,96]],[[5249,2997],[56,118]],[[5286,3134],[-99,-32]],[[5209,3212],[-22,-110]],[[5187,3102],[-120,110]],[[5523,3212],[-48,-137]],[[5386,3051],[93,152]],[[5479,3203],[-93,-152]],[[5143,3278],[-76,-66]],[[5067,3212],[-25,29]],[[5333,3365],[-68,-170]],[[5091,3346],[-49,-105]],[[5042,3241],[12,137]],[[5394,3294],[-53,65]],[[5229,3418],[-47,-121]],[[5643,3393],[-108,-133]],[[5107,3391],[-1,0]],[[5323,3573],[18,-24]],[[5361,3519],[-5,-5]],[[5820,3614],[-60,69]],[[5419,3595],[-7,-24]],[[5365,3383],[-24,-24]],[[5341,3359],[-8,6]],[[5333,3365],[-10,10]],[[5286,3420],[3,19]],[[5361,3482],[-5,32]],[[5356,3514],[5,5]],[[5361,3519],[0,3]],[[5786,3752],[15,-8]],[[5302,3598],[-27,135]],[[5441,3716],[-10,-3]],[[5251,3838],[-12,-7]],[[5193,3801],[142,107]],[[5713,3873],[-18,62]],[[5695,3935],[2,6]],[[5723,3972],[67,-157]],[[5758,4082],[-17,-80]],[[5523,3212],[-17,32]],[[5518,3297],[17,-37]],[[5535,3260],[-12,-48]],[[5584,3629],[-17,14]],[[5593,3752],[27,124]],[[5641,3878],[-31,-139]],[[5527,3351],[-9,-54]],[[5518,3297],[-12,-53]],[[5506,3244],[-1,-14]],[[5505,3230],[-14,38]],[[5491,3268],[15,78]],[[5527,3453],[1,29]],[[5567,3643],[17,-14]],[[5386,3051],[93,152]],[[5479,3203],[26,27]],[[5505,3230],[-30,-155]],[[5475,3075],[-6,-24]],[[5469,3051],[-26,-244]],[[5443,2807],[-30,62]],[[5413,2869],[-87,219]],[[5326,3088],[-21,27]],[[5305,3115],[-19,19]],[[5286,3134],[-77,78]],[[5209,3212],[-66,66]],[[5143,3278],[-52,68]],[[5091,3346],[-37,32]],[[5054,3378],[13,29]],[[5094,3399],[13,-8]],[[5107,3391],[30,-26]],[[5137,3365],[5,-6]],[[5150,3343],[32,-46]],[[5182,3297],[51,-67]],[[5256,3203],[9,-8]],[[5265,3195],[129,99]],[[5394,3294],[-29,89]],[[5365,3383],[7,16]],[[5381,3469],[5,27]],[[5462,3527],[9,25]],[[5512,3375],[-6,-29]],[[5506,3346],[-15,-78]],[[5491,3268],[-105,-217]],[[5381,3469],[-9,-70]],[[5372,3399],[9,70]],[[5292,3450],[-3,-11]],[[5289,3439],[-36,-16]],[[5133,3552],[13,5]],[[5361,3482],[-69,-32]],[[5292,3450],[-113,56]],[[5262,3608],[99,-126]],[[5179,3506],[-33,51]],[[5146,3557],[28,80]],[[5263,3724],[-1,-116]],[[5262,3608],[-83,-102]],[[5315,3614],[14,31]],[[5174,3637],[19,164]],[[5193,3801],[46,30]],[[5239,3831],[24,-107]],[[5263,3724],[-89,-87]],[[5462,3527],[-76,-31]],[[5386,3496],[26,75]],[[5412,3571],[50,-44]],[[5527,3453],[-15,-78]],[[5512,3375],[-30,150]],[[5499,3508],[28,-55]],[[5133,3552],[17,-30]],[[5070,3418],[-3,-11]],[[5067,3407],[-43,43]],[[5023,3455],[110,97]],[[5253,3423],[33,-3]],[[5286,3420],[37,-45]],[[5323,3375],[-67,-172]],[[5256,3203],[-23,27]],[[5233,3230],[-4,188]],[[5229,3418],[-79,-75]],[[5150,3343],[-8,16]],[[5142,3359],[-5,6]],[[5137,3365],[-31,26]],[[5106,3391],[-12,8]],[[5094,3399],[-24,19]],[[5070,3418],[80,104]],[[5150,3522],[103,-99]],[[5790,3815],[-4,-63]],[[5786,3752],[-36,-53]],[[5747,3697],[3,2]],[[5750,3699],[51,45]],[[5801,3744],[19,-130]],[[5820,3614],[-60,69]],[[5760,3683],[-117,-290]],[[5643,3393],[-116,-42]],[[5527,3351],[57,278]],[[5584,3629],[26,110]],[[5610,3739],[104,134]],[[5713,3873],[1,0]],[[5714,3873],[76,-58]],[[5725,3731],[-24,-53],[7,-11],[46,99],[-29,-35]],[[5645,3480],[32,61],[-36,24],[20,-35],[-16,-50]],[[5741,4002],[-18,-30]],[[5723,3972],[-26,-31]],[[5697,3941],[-2,-6]],[[5695,3935],[-54,-57]],[[5641,3878],[-21,-2]],[[5620,3876],[-27,-124]],[[5593,3752],[-26,-109]],[[5567,3643],[-39,-161]],[[5528,3482],[-29,26]],[[5499,3508],[-17,17]],[[5482,3525],[33,295],[-44,-268]],[[5471,3552],[-52,43]],[[5419,3595],[22,121]],[[5441,3716],[-10,-3]],[[5431,3713],[-69,-191]],[[5362,3522],[-1,0]],[[5361,3522],[-20,27]],[[5341,3549],[-18,24]],[[5323,3573],[-21,25]],[[5302,3598],[13,16]],[[5315,3614],[14,31]],[[5329,3645],[-54,88]],[[5275,3733],[-24,105]],[[5251,3838],[84,70]],[[5335,3908],[423,174]],[[5758,4082],[-17,-80]],[[6480,4824],[-125,-54]],[[6526,4877],[-8,-2]],[[6647,4931],[-104,-51]],[[6656,4950],[-9,-19]],[[6647,4931],[-154,-59]],[[6475,4867],[-120,-97]],[[6355,4770],[96,97]],[[6617,4931],[13,11]],[[6636,4948],[3,2]],[[6758,4931],[-81,9]],[[6700,4966],[17,-18]],[[6896,4869],[-20,89]],[[6656,4950],[-17,0]],[[6639,4950],[-3,-2]],[[6636,4948],[-6,-6]],[[6630,4942],[-13,-11]],[[6617,4931],[-10,-8]],[[6540,4956],[116,-6]],[[6896,4869],[-20,89]],[[6876,4958],[20,-89]],[[6870,5066],[-106,-129]],[[6700,4966],[-23,-26]],[[6677,4940],[14,42]],[[6893,5138],[-23,-72]],[[6870,5066],[-106,-129]],[[6764,4937],[-6,-6]],[[6758,4931],[-41,17]],[[6717,4948],[-17,18]],[[6700,4966],[11,10]],[[6711,4976],[125,107]],[[6885,5138],[-174,-162]],[[7072,5060],[-109,32]],[[6836,5083],[-1,11]],[[6875,5148],[-39,-65]],[[7059,5146],[-96,-54]],[[6963,5092],[126,104]],[[6893,5138],[-5,5]],[[6960,5319],[-67,-181]],[[7195,5330],[7,-91]],[[7202,5239],[-110,-166]],[[7092,5159],[-3,37]],[[7089,5196],[106,134]],[[7195,5330],[7,-91]],[[6933,5390],[27,-71]],[[6960,5319],[-72,-176]],[[6888,5143],[-3,-5]],[[6885,5138],[-10,10]],[[6875,5148],[-6,8]],[[6855,5435],[33,158]],[[7272,5786],[62,-297],[-110,288]],[[7272,5786],[-48,-9]],[[7224,5777],[-279,-379]],[[7288,5941],[-16,-155]],[[6945,5398],[-12,-8]],[[6933,5390],[0,10]],[[7281,5955],[7,-14]],[[7288,5941],[-343,-543]],[[6480,4824],[-5,43]],[[6475,4867],[18,5]],[[6493,4872],[25,3]],[[6518,4875],[8,2]],[[6526,4877],[17,3]],[[6543,4880],[-63,-56]],[[6989,5681],[101,175]],[[6516,4904],[-65,-37]],[[6451,4867],[42,78]],[[6607,4923],[-91,-19]],[[6516,4904],[-23,41]],[[6493,4945],[47,11]],[[6540,4956],[67,-33]],[[7092,5073],[-20,-13]],[[7072,5060],[-13,86]],[[7059,5146],[33,13]],[[7092,5159],[0,-86]],[[7281,5955],[-348,-555]],[[6933,5400],[-64,-244]],[[6869,5156],[-34,-62]],[[6835,5094],[-144,-112]],[[6691,4982],[164,453]],[[6855,5435],[33,158]],[[6888,5593],[101,88]],[[6989,5681],[101,175]],[[7090,5856],[191,99]],[[3785,9108],[19,28]],[[3807,9142],[2,2]],[[3864,9131],[11,-11]],[[3600,8874],[3,24]],[[3767,9120],[8,-8]],[[3785,9108],[69,-52]],[[3815,9026],[-1,0]],[[3725,8906],[7,-6]],[[3762,8911],[-1,0]],[[3755,8831],[3,3]],[[3768,8807],[-3,3]],[[3732,8746],[-3,2]],[[3739,8845],[-4,5]],[[3762,8810],[0,0]],[[3735,8796],[-6,-48]],[[3729,8748],[-23,8]],[[3668,8783],[6,37]],[[3751,8987],[17,64]],[[3774,9051],[15,-3]],[[3685,8845],[2,5]],[[3711,8850],[24,0]],[[3735,8850],[4,-5]],[[3739,8845],[-4,-49]],[[3735,8796],[-61,24]],[[3674,8820],[0,30]],[[3625,8853],[4,16]],[[3636,8866],[-84,-65]],[[3526,8858],[70,24]],[[3603,8898],[39,29]],[[3607,8892],[-4,6]],[[3902,8812],[-10,-77]],[[3668,8783],[38,-27]],[[3706,8756],[26,-10]],[[3732,8746],[7,2]],[[3734,8703],[15,-6]],[[3815,8692],[-1,-17]],[[3719,8552],[5,161]],[[3678,8751],[-10,32]],[[3751,8987],[38,61]],[[3789,9048],[-15,3]],[[3774,9051],[-6,0]],[[3768,9051],[11,40]],[[3779,9091],[35,-65]],[[3814,9026],[-5,-13]],[[3899,9021],[5,14]],[[3934,9043],[10,24]],[[3909,9094],[-45,37]],[[3864,9131],[-55,13]],[[3809,9144],[-2,-2]],[[3807,9142],[-3,-6]],[[3804,9136],[-19,-28]],[[3785,9108],[-10,4]],[[3775,9112],[36,54]],[[3851,9161],[4,-6]],[[3871,9144],[21,-16]],[[3977,9155],[-72,-200]],[[3894,8944],[-35,-38]],[[3785,8826],[-27,8]],[[3758,8834],[-3,-3]],[[3755,8831],[-1,41]],[[3764,8917],[-2,-6]],[[3762,8911],[-30,-11]],[[3732,8900],[-3,3]],[[3811,9166],[120,35]],[[3879,9139],[-8,5]],[[3871,9144],[-16,11]],[[3855,9155],[-4,6]],[[3851,9161],[-40,5]],[[3734,8703],[5,45]],[[3739,8748],[3,14]],[[3815,8692],[-66,5]],[[3749,8697],[-15,6]],[[3754,8872],[7,39]],[[3761,8911],[3,6]],[[3764,8917],[-10,-45]],[[3854,9056],[21,64]],[[3875,9120],[34,-26]],[[3909,9094],[35,-27]],[[3944,9067],[-10,-24]],[[3934,9043],[-30,-8]],[[3904,9035],[-50,21]],[[3678,8751],[46,-38]],[[3724,8713],[-46,38]],[[3607,8892],[35,35]],[[3642,8927],[-6,-61]],[[3636,8866],[-7,3]],[[3629,8869],[-22,23]],[[3526,8858],[70,24]],[[3596,8882],[4,-8]],[[3600,8874],[25,-21]],[[3625,8853],[-73,-52]],[[3552,8801],[-26,57]],[[3859,8906],[35,38]],[[3894,8944],[11,11]],[[3905,8955],[-3,-143]],[[3902,8812],[-48,3]],[[3827,8818],[32,88]],[[3879,9139],[52,62]],[[3931,9201],[46,-46]],[[3977,9155],[-85,-27]],[[3892,9128],[-13,11]],[[3719,8552],[95,123]],[[3832,8670],[-113,-118]],[[3809,9013],[6,13]],[[3815,9026],[84,-5]],[[3899,9021],[-90,-8]],[[3814,8675],[4,0]],[[3818,8675],[-4,0]],[[3674,8850],[93,270]],[[3767,9120],[12,-29]],[[3779,9091],[-28,-104]],[[3751,8987],[-22,-84]],[[3729,8903],[-4,3]],[[3725,8906],[-14,-56]],[[3711,8850],[-24,0]],[[3687,8850],[-2,-5]],[[3685,8845],[-11,5]],[[3742,8762],[23,48]],[[3765,8810],[3,-3]],[[3768,8807],[17,19]],[[3785,8826],[42,-8]],[[3827,8818],[27,-3]],[[3854,8815],[38,-80]],[[3892,8735],[-60,-65]],[[3832,8670],[-14,5]],[[3818,8675],[-3,17]],[[3815,8692],[-73,70]],[[7788,6688],[-23,30]],[[7151,6616],[164,171]],[[7328,6776],[-4,14]],[[8404,6740],[-219,74]],[[7340,6787],[-2,19]],[[8295,6776],[-110,38]],[[8185,6814],[50,59]],[[7788,6688],[-23,30]],[[7765,6718],[14,32]],[[7781,6753],[2,2]],[[7808,6817],[-20,-129]],[[7580,6852],[-252,-76]],[[7328,6776],[12,11]],[[7340,6787],[21,22]],[[7387,6809],[28,35]],[[8295,6776],[-60,97]],[[8235,6873],[169,-133]],[[8404,6740],[-109,36]],[[7484,6900],[-48,-27]],[[7808,6817],[-25,-62]],[[7783,6755],[-2,-2]],[[7781,6753],[-2,-3]],[[7779,6750],[-46,86]],[[7955,6932],[-147,-115]],[[7951,6946],[4,-14]],[[7955,6932],[-97,-30]],[[7835,6921],[116,25]],[[7951,6946],[-92,-33]],[[7357,6822],[-19,-16]],[[7338,6806],[-14,-16]],[[7324,6790],[70,156]],[[7432,6886],[4,-13]],[[7436,6873],[-21,-29]],[[7415,6844],[-28,-35]],[[7387,6809],[-26,0]],[[7361,6809],[-4,13]],[[7357,6822],[37,124]],[[7394,6946],[43,21]],[[7765,6929],[70,-8]],[[7835,6921],[24,-8]],[[7859,6913],[-1,-11]],[[7858,6902],[-125,-66]],[[7733,6836],[-153,16]],[[7580,6852],[-96,48]],[[7484,6900],[-52,-14]],[[7432,6886],[14,62]],[[7765,6929],[-319,19]],[[7446,6948],[-9,19]],[[7437,6967],[328,-38]],[[7984,6991],[-31,-40]],[[7976,6983],[-23,-32]],[[7953,6951],[-121,22]],[[7988,7018],[-12,-35]],[[7988,7018],[-39,-22]],[[7946,6996],[3,0]],[[7949,6996],[-117,-23]],[[7832,6973],[-47,31]],[[7873,7039],[115,-21]],[[7873,7039],[-88,-35]],[[7785,7004],[88,35]],[[7151,6616],[164,171]],[[7315,6787],[-164,-171]],[[7976,6983],[8,8]],[[7984,6991],[-8,-8]],[[553,9166],[-106,110]],[[590,9243],[-37,-77]],[[553,9166],[-35,88]],[[490,9276],[-43,0]],[[447,9276],[-10,11]],[[453,9319],[-6,8]],[[409,9440],[-3,18]],[[447,9479],[-2,-147]],[[590,9243],[-72,11]],[[518,9254],[-28,22]],[[490,9276],[-36,43]],[[453,9319],[1,0]],[[454,9319],[3,166]],[[468,9493],[122,-250]],[[468,9493],[-11,-8]],[[457,9485],[-10,-6]],[[447,9479],[-43,6]],[[445,9589],[23,-96]],[[336,9567],[-11,38]],[[341,9632],[-16,-27]],[[325,9605],[-30,-27]],[[254,9629],[57,105]],[[457,9737],[-12,-148]],[[445,9589],[-12,-3]],[[451,9766],[3,-13]],[[315,9726],[-4,8]],[[311,9734],[-62,214]],[[394,9769],[-19,-49]],[[348,9739],[-99,209]],[[249,9948],[113,35]],[[364,9975],[-5,-244]],[[451,9766],[-46,3]],[[386,9991],[65,-225]],[[405,9769],[49,-16]],[[454,9753],[3,-16]],[[457,9737],[-24,-151]],[[433,9586],[-9,-2]],[[319,9707],[-4,19]],[[315,9726],[33,13]],[[348,9739],[11,-8]],[[359,9731],[16,-11]],[[375,9720],[19,49]],[[394,9769],[-30,206]],[[364,9975],[-2,8]],[[362,9983],[10,11]],[[375,9986],[30,-217]],[[386,9991],[-11,-5]],[[375,9986],[-3,8]],[[372,9994],[14,-3]],[[372,9423],[9,14]],[[366,9547],[13,8]],[[379,9555],[25,-70]],[[404,9485],[2,-27]],[[406,9458],[3,-18]],[[409,9440],[36,-108]],[[445,9332],[2,-5]],[[447,9327],[-10,-11]],[[424,9584],[-45,-29]],[[379,9555],[-13,-8]],[[366,9547],[15,-110]],[[381,9437],[-9,-14]],[[372,9423],[65,-107]],[[437,9316],[0,-29]],[[437,9287],[-183,342]],[[254,9629],[41,-51]],[[295,9578],[43,-11]],[[336,9567],[2,0]],[[338,9567],[3,65]],[[341,9632],[-22,75]],[[319,9707],[105,-123]],[[648,5898],[0,3]],[[670,5879],[-22,16]],[[647,6110],[39,-108]],[[648,6142],[-1,-32]],[[647,6110],[39,-108]],[[686,6002],[-51,-34]],[[627,6329],[1,-11]],[[608,6206],[2,30]],[[600,6000],[6,337]],[[625,6638],[25,-472]],[[588,6554],[-23,22]],[[627,6329],[-17,-93]],[[610,6236],[-2,-30]],[[608,6206],[20,112]],[[628,6318],[-1,11]],[[627,6329],[23,-163]],[[650,6166],[-2,-24]],[[648,6142],[-13,-174]],[[635,5968],[-35,32]],[[600,6000],[6,337]],[[606,6337],[-18,217]],[[588,6554],[-3,81]],[[623,6638],[4,-309]],[[660,6683],[-33,-38]],[[660,6683],[-32,-16]],[[633,6822],[27,-139]],[[628,6667],[-1,-22]],[[627,6645],[-2,-7]],[[625,6638],[-2,0]],[[623,6638],[-15,-5]],[[610,6645],[1,19]],[[618,6844],[15,-22]],[[633,6822],[-5,-155]],[[591,6645],[19,0]],[[610,6645],[-2,-12]],[[608,6633],[-23,2]],[[585,6635],[-20,-59]],[[565,6576],[-186,313]],[[382,6875],[79,-93]],[[438,6776],[-54,99]],[[513,6921],[105,-77]],[[618,6844],[-7,-180]],[[611,6664],[-20,-19]],[[591,6645],[-153,131]],[[438,6776],[23,6]],[[473,6782],[34,123]],[[634,6839],[-17,21]],[[673,6919],[-3,-3]],[[458,6951],[55,-27]],[[385,6894],[60,60]],[[458,6951],[55,-27]],[[513,6924],[0,-3]],[[513,6921],[-9,-8]],[[503,6913],[1,0]],[[504,6913],[3,-8]],[[507,6905],[-34,-123]],[[473,6782],[-12,0]],[[461,6782],[-77,93]],[[384,6875],[-2,0]],[[382,6875],[-3,14]],[[379,6889],[6,5]],[[385,6894],[60,60]],[[445,6954],[13,-3]],[[445,6967],[-33,-29],[-50,-54],[17,107],[66,-24]],[[576,6897],[-78,142]],[[684,7050],[-11,-131]],[[673,6919],[-56,-59]],[[617,6860],[-41,37]],[[576,6897],[-78,142]],[[498,7039],[100,16]],[[595,6894],[16,8],[-20,110],[-10,-91],[14,-27]],[[684,7050],[-86,5]],[[598,7055],[86,-5]],[[670,5879],[-22,22]],[[648,5901],[22,-22]],[[634,6839],[36,77]],[[670,6916],[-36,-77]],[[1124,9032],[-5,-30]],[[1324,8914],[66,49]],[[1377,8987],[34,184]],[[743,8992],[14,40]],[[757,9032],[96,-42]],[[932,8801],[-189,191]],[[743,8992],[157,-110]],[[896,8909],[-139,123]],[[935,8987],[34,3]],[[853,8990],[82,-3]],[[935,8987],[34,3]],[[969,8990],[13,-25]],[[956,8845],[-103,145]],[[1377,8987],[6,-14]],[[1374,8968],[3,19]],[[1383,8979],[0,3]],[[1383,8982],[0,-9]],[[1383,8973],[7,-10]],[[1390,8963],[-16,5]],[[1374,8968],[9,11]],[[1500,9002],[8,5],[10,-44],[-15,29],[-3,10]],[[982,8965],[26,-38]],[[966,8917],[16,48]],[[1008,8927],[24,-134]],[[1098,8657],[-116,126]],[[990,8880],[18,47]],[[956,8845],[-9,39]],[[946,8884],[1,0]],[[947,8884],[19,33]],[[966,8917],[24,-37]],[[990,8880],[-8,-97]],[[982,8783],[-50,18]],[[932,8801],[24,44]],[[896,8909],[4,-27]],[[900,8882],[-4,27]],[[1347,8842],[-23,72]],[[1324,8914],[30,-75]],[[1301,8743],[-3,-70],[-90,174],[86,-62],[7,-42]],[[1032,8793],[66,-136]],[[1098,8657],[-66,136]],[[1364,8636],[-13,115]],[[1600,8708],[7,-24]],[[1607,8684],[2,-6]],[[1609,8678],[-33,-31]],[[1285,8636],[4,21]],[[1281,8450],[36,87]],[[1573,8373],[-34,-110]],[[1566,7969],[4,-70]],[[1245,8309],[-1,0]],[[1125,8378],[86,-13]],[[1365,8252],[-10,11]],[[1355,8307],[53,-28]],[[1164,8191],[-15,56]],[[1245,8307],[0,2]],[[1245,8309],[59,-51]],[[1597,7980],[-31,-11]],[[1566,7969],[-128,179]],[[1309,8076],[-145,115]],[[1164,8191],[140,67]],[[1304,8258],[28,-27]],[[1609,8087],[4,-19]],[[1616,8060],[2,-8]],[[1621,8038],[3,-13]],[[1629,8006],[5,-26]],[[1397,8145],[30,-40]],[[1318,7843],[-31,144]],[[1591,7883],[16,-24]],[[1611,7854],[3,-3]],[[1606,7765],[-3,-34]],[[1577,7693],[-48,51]],[[1614,7851],[37,-65]],[[1647,7792],[-37,-30]],[[1610,7762],[4,38]],[[1614,7800],[0,51]],[[1219,7709],[112,72]],[[1603,7731],[-2,-22]],[[1601,7706],[-24,-13]],[[1577,7693],[26,38]],[[1212,7540],[13,35]],[[1416,7425],[5,-62]],[[1401,7366],[-7,8]],[[1388,7374],[-11,8]],[[1377,7382],[-122,59]],[[1282,7561],[-20,38]],[[1282,7561],[-27,-120]],[[1255,7441],[-17,-11]],[[1237,7430],[-25,110]],[[1212,7540],[70,21]],[[1125,8378],[119,-69]],[[1244,8309],[1,-2]],[[1245,8307],[-96,-60]],[[1149,8247],[-24,131]],[[1390,8622],[14,126]],[[1526,7432],[15,-50]],[[1420,8378],[-68,-5]],[[1430,8346],[0,3]],[[1536,8373],[-13,-58]],[[1523,8315],[-60,8]],[[1463,8324],[-33,25]],[[1430,8349],[-10,29]],[[1420,8378],[-27,44]],[[1533,8277],[6,-14]],[[1539,8263],[-5,-16]],[[1463,8324],[0,-1]],[[1463,8323],[60,-8]],[[1523,8315],[3,-6]],[[1526,8309],[4,-8]],[[1530,8301],[0,-5]],[[1530,8296],[-1,-6]],[[1529,8290],[0,-5]],[[1529,8285],[4,-8]],[[1533,8277],[1,-30]],[[1534,8247],[75,-160]],[[1609,8087],[4,-19]],[[1613,8068],[3,-8]],[[1616,8060],[2,-8]],[[1618,8052],[3,-14]],[[1621,8038],[3,-13]],[[1624,8025],[5,-19]],[[1629,8006],[5,-26]],[[1634,7980],[-37,0]],[[1597,7980],[-159,168]],[[1438,8148],[-11,16]],[[1368,8266],[40,13]],[[1408,8279],[22,67]],[[1430,8346],[33,-22]],[[1567,8823],[2,-5]],[[1569,8818],[1,0]],[[1570,8818],[30,-110]],[[1600,8708],[-10,-11]],[[1590,8697],[-14,-19]],[[1576,8678],[3,-23]],[[1579,8655],[-3,-8]],[[1576,8647],[45,-143]],[[1621,8504],[-4,-37]],[[1617,8467],[-44,-94]],[[1573,8373],[-4,0]],[[1569,8373],[-25,0]],[[1544,8373],[-8,0]],[[1536,8373],[-140,107]],[[1364,8636],[26,-14]],[[1390,8622],[14,126]],[[1404,8748],[-47,37]],[[1354,8812],[-7,30]],[[1347,8842],[7,-3]],[[1354,8839],[59,289]],[[1413,9128],[0,8]],[[1413,9136],[-2,35]],[[1411,9171],[15,22]],[[1561,8740],[-18,27],[-80,3],[36,-14],[62,-16]],[[1557,8593],[9,0]],[[1566,8593],[-2,51]],[[1564,8644],[0,21]],[[1564,8665],[-7,-72]],[[1446,8571],[-10,-50],[133,-27],[0,66],[-123,11]],[[1331,8574],[-46,62]],[[1285,8636],[82,-76]],[[1348,8558],[-6,10]],[[1355,8263],[-144,102]],[[1211,8365],[70,85]],[[1281,8450],[36,87]],[[1317,8537],[14,37]],[[1331,8574],[11,-6]],[[1342,8568],[6,-10]],[[1348,8558],[24,-16]],[[1394,8531],[2,-51]],[[1396,8480],[-3,-58]],[[1393,8422],[-41,-49]],[[1352,8373],[3,-66]],[[1355,8307],[0,-44]],[[1241,8724],[-19,-11]],[[1274,8686],[-33,38]],[[1241,8724],[-19,-11]],[[1222,8713],[-17,0]],[[1397,8145],[30,-40]],[[1427,8105],[11,-18]],[[1536,7950],[34,-51]],[[1570,7899],[21,-16]],[[1591,7883],[16,-24]],[[1607,7859],[4,-5]],[[1611,7854],[-12,0]],[[1599,7854],[-8,-3]],[[1591,7851],[-5,0]],[[1586,7851],[-57,-107]],[[1529,7744],[-12,-3]],[[1471,7674],[55,-242]],[[1526,7432],[15,-50]],[[1541,7382],[-125,43]],[[1416,7425],[-154,174]],[[1262,7599],[-37,-24]],[[1225,7575],[-6,134]],[[1219,7709],[115,-19]],[[1335,7690],[-1,0]],[[1334,7690],[-3,91]],[[1331,7781],[-13,62]],[[1318,7843],[-31,144]],[[1287,7987],[22,89]],[[1309,8076],[23,155]],[[1332,8231],[65,-86]],[[1342,7964],[27,19]],[[1390,7679],[3,-85],[34,-27],[26,73],[-63,39]],[[1426,9193],[7,-32]],[[1433,9161],[40,-94]],[[1473,9067],[3,-8]],[[1476,9059],[32,-110]],[[1508,8949],[2,0]],[[1510,8949],[27,-40]],[[1537,8909],[4,-11]],[[1541,8898],[6,-21]],[[1547,8877],[0,-3]],[[1547,8874],[20,-51]],[[1567,8823],[-4,-3]],[[1563,8820],[0,-24]],[[1563,8796],[-137,397]],[[1394,8531],[-22,11]],[[1372,8542],[-5,18]],[[1367,8560],[-9,60]],[[1358,8620],[36,-89]],[[1427,8164],[-62,88]],[[1365,8252],[3,14]],[[1368,8266],[59,-102]],[[1438,8087],[98,-137]],[[1536,7950],[-98,137]],[[1369,7983],[-27,-19]],[[1342,7964],[27,19]],[[1371,7762],[43,156],[42,-53],[-58,-126],[-27,23]],[[1517,7741],[-46,-67]],[[1471,7674],[46,67]],[[1124,9032],[-5,-30]],[[1119,9002],[235,-190]],[[1354,8812],[3,-27]],[[1357,8785],[-6,-34]],[[1351,8751],[13,-115]],[[1364,8636],[-6,-16]],[[1358,8620],[-69,37]],[[1289,8657],[-15,29]],[[1274,8686],[-69,27]],[[1205,8713],[-81,319]],[[1247,8823],[-39,24],[90,-174],[-4,112],[-47,38]],[[3113,7829],[-119,11]],[[3043,7870],[61,-19]],[[3168,7899],[-55,-70]],[[3113,7829],[-9,22]],[[3104,7851],[-61,19]],[[3043,7870],[-38,7]],[[3296,8030],[-103,-104]],[[2995,7958],[-30,91]],[[3004,8054],[-39,-5]],[[2965,8049],[38,24]],[[3296,8030],[-103,-104]],[[3193,7926],[-25,-27]],[[3168,7899],[-135,27]],[[3323,8057],[-27,-27]],[[3323,8057],[-290,-131]],[[3033,7926],[-28,-49]],[[3005,7877],[-11,-37]],[[2994,7840],[1,118]],[[2995,7958],[9,96]],[[3004,8054],[-1,19]],[[3003,8073],[78,17]],[[3175,8090],[148,-33]],[[3175,8090],[-94,0]],[[3081,8090],[94,0]],[[9372,6975],[-38,-32]],[[9283,6991],[-20,-6]],[[9281,7004],[-23,-5]],[[9216,6978],[31,96]],[[9248,7058],[-1,16]],[[9247,7074],[57,14]],[[9827,7055],[-6,9]],[[9334,6943],[-51,48]],[[9283,6991],[-2,13]],[[9281,7004],[-23,-5]],[[9258,6999],[5,-14]],[[9263,6985],[-47,-7]],[[9216,6978],[32,80]],[[9248,7058],[56,30]],[[9304,7088],[6,18]],[[9343,7050],[29,-75]],[[9372,6975],[-38,-32]],[[9358,7122],[-15,-72]],[[9343,7050],[0,50]],[[9343,7100],[-33,6]],[[9310,7106],[48,16]],[[9358,7122],[-15,-22]],[[9964,7127],[-42,-10]],[[9965,7173],[-1,-46]],[[9964,7127],[-49,54]],[[9762,7165],[-34,51]],[[9639,7235],[-74,-14]],[[9732,7221],[-30,49]],[[9881,7202],[-7,16]],[[9814,7289],[60,-71]],[[9874,7218],[7,-16]],[[9881,7202],[1,0]],[[9882,7202],[-67,111]],[[9964,7187],[1,-14]],[[9965,7173],[-50,8]],[[9915,7181],[7,-64]],[[9922,7117],[-95,-62]],[[9827,7055],[-6,9]],[[9821,7064],[-59,101]],[[9762,7165],[-34,51]],[[9728,7216],[4,5]],[[9732,7221],[-3,78]],[[9731,7299],[-2,0]],[[9729,7299],[-27,-29]],[[9702,7270],[18,72]],[[9639,7235],[-74,-14]],[[9565,7221],[74,14]],[[9809,7358],[6,-45]],[[9815,7313],[-1,-24]],[[9814,7289],[-62,45]],[[9720,7342],[35,118]],[[9777,7388],[-25,-54]],[[9752,7334],[-32,8]],[[9755,7460],[9,10]],[[9792,7390],[-15,-2]],[[9777,7388],[-22,72]],[[9981,7435],[-51,25]],[[9964,7187],[-155,171]],[[9809,7358],[-17,32]],[[9792,7390],[-28,80]],[[9764,7470],[200,-283]],[[9930,7460],[51,-25]],[[9981,7435],[-51,25]],[[9518,7336],[34,30],[4,-145],[-38,38],[0,77]],[[9901,7047],[-51,-64]],[[9875,7028],[26,19]],[[9901,7047],[-46,-59]],[[9855,6988],[-5,-5]],[[9850,6983],[25,45]],[[9875,7028],[-20,-40]],[[4450,9182],[-88,8]],[[4285,9198],[-37,24]],[[4295,9193],[-10,5]],[[4285,9198],[-37,24]],[[4248,9222],[-22,21]],[[4506,9273],[-47,-104]],[[4345,9171],[-50,22]],[[4295,9193],[15,53]],[[4450,9185],[-45,19]],[[4403,9306],[2,-102]],[[4405,9204],[-43,-14]],[[4362,9190],[-17,-19]],[[4345,9171],[28,135]],[[4298,9254],[-54,0]],[[4246,9265],[0,46]],[[4488,9289],[-49,38]],[[4496,9359],[-124,21]],[[4265,9361],[8,81]],[[4439,9327],[-36,-21]],[[4403,9306],[-30,0]],[[4373,9306],[-14,13]],[[4369,9367],[70,-40]],[[4376,9442],[-51,-118]],[[4302,9308],[16,56]],[[4323,9466],[43,13]],[[4506,9273],[-47,-104]],[[4459,9169],[-9,13]],[[4450,9182],[0,3]],[[4450,9185],[38,104]],[[4488,9289],[8,70]],[[4496,9359],[-3,70]],[[4488,9474],[18,-201]],[[4323,9466],[-5,-102]],[[4318,9364],[-72,-53]],[[4246,9311],[0,-46]],[[4246,9265],[-2,-11]],[[4244,9254],[-18,-11]],[[4226,9243],[39,118]],[[4265,9361],[8,81]],[[4273,9442],[50,24]],[[4459,9503],[29,-29]],[[4488,9474],[0,-3]],[[4383,9468],[-17,11]],[[4366,9479],[24,65]],[[4459,9503],[-36,17]],[[4478,9600],[-19,-97]],[[4478,9600],[-55,-80]],[[4423,9520],[65,-49]],[[4488,9471],[5,-42]],[[4493,9429],[-104,8]],[[4379,9449],[4,19]],[[4383,9468],[27,44]],[[4452,9592],[26,8]],[[4452,9592],[-42,-80]],[[4410,9512],[-20,32]],[[4390,9544],[62,48]],[[4372,9380],[-3,-13]],[[4369,9367],[-10,-48]],[[4359,9319],[-49,-73]],[[4310,9246],[-12,8]],[[4298,9254],[4,54]],[[4302,9308],[23,16]],[[4325,9324],[51,118]],[[4376,9442],[3,7]],[[4379,9449],[10,-12]],[[4389,9437],[-17,-57]],[[1489,6863],[0,0]],[[1489,6863],[2,-5]],[[1491,6847],[-2,-8]],[[1768,6737],[2,-11]],[[1609,6704],[-13,72]],[[1446,6490],[30,-19]],[[1456,6145],[-36,77]],[[1591,6847],[83,77]],[[1631,6707],[-35,69]],[[1596,6776],[-5,71]],[[1591,6847],[73,-30]],[[1235,6973],[63,39]],[[1275,6635],[-40,289]],[[1331,6667],[-12,-43]],[[1825,6763],[-57,-26]],[[1768,6737],[-46,72]],[[1713,6833],[22,110]],[[1769,6691],[-158,-35]],[[1510,6667],[53,-308]],[[1533,6169],[-39,8]],[[1404,6292],[-109,-38]],[[1687,6677],[-76,-21]],[[1611,6656],[-1,11]],[[1735,6943],[-3,48]],[[1733,6988],[7,-3]],[[1760,6946],[-25,-3]],[[1298,7012],[53,-16]],[[1352,6996],[0,-3]],[[1308,6973],[-10,39]],[[1446,6490],[-5,-40]],[[1444,6650],[2,-160]],[[1365,6436],[33,79]],[[1489,6839],[0,-25]],[[1491,6812],[9,2]],[[1500,6798],[-23,-67]],[[1486,6863],[0,0]],[[1489,6863],[0,-24]],[[1471,6892],[15,-29]],[[1486,6863],[-13,-5]],[[1383,6353],[-84,-8]],[[1765,6983],[10,-3]],[[1870,6755],[-17,5]],[[1853,6760],[-1,3]],[[1852,6763],[-27,0]],[[1825,6763],[-65,183]],[[1760,6946],[0,37]],[[1441,6450],[32,-40]],[[1274,6370],[91,66]],[[1365,6436],[33,79]],[[1398,6515],[-64,162]],[[1383,6822],[1,-2]],[[1386,6817],[21,-14]],[[1408,6803],[8,0]],[[1436,6803],[5,14]],[[1444,6817],[2,3]],[[1447,6822],[1,3]],[[1451,6828],[2,2]],[[1457,6822],[20,-91]],[[1477,6731],[1,-10]],[[1476,6672],[-32,-22]],[[1444,6650],[-3,-200]],[[1476,6439],[0,32]],[[1476,6471],[34,196]],[[1510,6667],[-3,-259]],[[1563,6359],[71,-67]],[[1537,6193],[-37,72]],[[1421,6287],[-17,5]],[[1404,6292],[3,61]],[[1491,6386],[72,-27]],[[1383,6353],[-82,-2]],[[1304,6364],[96,16]],[[1401,6353],[-18,0]],[[1275,6911],[-40,13]],[[1235,6924],[0,49]],[[1235,6973],[73,0]],[[1308,6973],[46,-8]],[[1354,6965],[1,-38]],[[1355,6902],[10,3]],[[1367,6905],[2,-21]],[[1680,6715],[-16,102]],[[1664,6817],[10,107]],[[1674,6924],[39,-91]],[[1713,6833],[9,-24]],[[1722,6809],[8,-88]],[[1407,6353],[-6,0]],[[1401,6353],[-1,27]],[[1400,6380],[73,9]],[[1476,6375],[-69,-22]],[[1687,6677],[-77,-10]],[[1610,6667],[-1,37]],[[1609,6704],[22,3]],[[1631,6707],[49,8]],[[1680,6715],[50,6]],[[1730,6721],[40,5]],[[1770,6726],[-1,-35]],[[1769,6691],[-82,-14]],[[1478,6721],[-2,-49]],[[1476,6672],[2,49]],[[1457,6822],[-4,8]],[[1453,6830],[-3,28]],[[1448,6881],[-1,5]],[[1447,6889],[-1,11]],[[1446,6900],[-2,8]],[[1444,6919],[9,-6]],[[1467,6911],[4,-3]],[[1473,6908],[0,-11]],[[1473,6894],[-2,-2]],[[1471,6892],[2,-34]],[[1473,6858],[-16,-36]],[[1319,6624],[-44,11]],[[1275,6635],[44,-11]],[[1295,6254],[-21,116]],[[1274,6370],[30,-6]],[[1304,6364],[-3,-13]],[[1301,6351],[-2,-6]],[[1299,6345],[-4,-91]],[[1275,6911],[94,-30]],[[1372,6867],[6,-23]],[[1378,6844],[5,-22]],[[1383,6822],[-49,-145]],[[1334,6677],[-3,-10]],[[1331,6667],[-56,244]],[[1473,6410],[3,29]],[[1476,6439],[31,-31]],[[1507,6408],[-16,-22]],[[1491,6386],[-15,-11]],[[1476,6375],[-3,14]],[[1473,6389],[0,21]],[[1500,6265],[-6,-88]],[[1494,6177],[-38,-32]],[[1456,6145],[-36,77]],[[1420,6222],[1,65]],[[1421,6287],[79,-22]],[[1870,6812],[0,-14]],[[1870,6798],[0,-19]],[[1870,6779],[-4,-5]],[[1866,6774],[0,-3]],[[1866,6771],[3,-13]],[[1869,6758],[1,-3]],[[1870,6755],[-82,129]],[[1775,6980],[8,5]],[[1785,6985],[28,6]],[[1826,6991],[44,-179]],[[1870,6812],[-19,2]],[[1851,6814],[-63,70]],[[1788,6884],[-13,96]],[[1533,6169],[4,24]],[[1537,6193],[97,99]],[[1634,6292],[-101,-123]],[[1175,5451],[-265,-126]],[[959,5470],[-2,0]],[[1025,5643],[-68,-173]],[[957,5470],[46,198]],[[1199,5536],[-24,-85]],[[1175,5451],[-265,-126]],[[910,5325],[49,145]],[[959,5470],[66,173]],[[1025,5643],[-22,25]],[[1003,5668],[40,40]],[[1191,5732],[-30,-29]],[[1199,5536],[-81,38]],[[1114,5574],[-19,131]],[[1097,5727],[102,-191]],[[1095,5705],[-52,3]],[[1043,5708],[54,19]],[[1097,5727],[-2,-22]],[[1192,5753],[-1,-21]],[[1191,5732],[-30,-29]],[[1161,5703],[-6,16]],[[1155,5719],[37,34]],[[1192,5753],[-37,-34]],[[1118,5574],[-4,0]],[[1114,5574],[4,0]],[[148,332],[-78,-24]],[[231,375],[-32,-29]],[[412,83],[28,297]],[[149,338],[-79,-30]],[[70,308],[-6,16]],[[148,332],[1,6]],[[149,338],[9,56]],[[206,383],[-7,-37]],[[199,346],[-51,-14]],[[302,402],[14,-33]],[[302,402],[14,-33]],[[316,369],[-85,6]],[[231,375],[-9,0]],[[294,407],[8,-5]],[[225,385],[-3,-10]],[[222,375],[-16,8]],[[206,383],[-48,11]],[[158,394],[-94,-70]],[[64,324],[61,78]],[[294,407],[-18,-16]],[[269,421],[25,-14]],[[269,421],[7,-30]],[[276,391],[-50,3]],[[232,439],[37,-18]],[[194,407],[-69,-5]],[[125,402],[70,54]],[[226,394],[-1,-9]],[[225,385],[-31,22]],[[194,407],[1,49]],[[195,456],[37,-17]],[[232,439],[-6,-45]],[[412,83],[28,297]],[[440,380],[-28,-297]],[[13,597],[29,-72]],[[13,597],[29,-72]],[[42,525],[-29,72]],[[646,5903],[2,-5]],[[648,5898],[0,-3]],[[648,5895],[-4,-64]],[[608,5821],[-38,85]],[[478,5443],[83,292]],[[637,5903],[-7,-66]],[[620,5823],[-12,-2]],[[608,5821],[13,85]],[[625,5360],[-61,-69]],[[498,5306],[-20,137]],[[478,5443],[83,292]],[[561,5735],[125,-78]],[[644,5831],[-24,-8]],[[620,5823],[10,14]],[[630,5837],[14,-6]],[[684,5432],[-59,-72]],[[625,5360],[35,88]],[[684,5432],[-24,16]],[[660,5448],[26,209]],[[686,5657],[-2,-225]],[[564,5291],[-66,15]],[[498,5306],[66,-15]],[[646,5903],[-9,0]],[[637,5903],[-16,3]],[[621,5906],[-51,0]],[[570,5906],[76,-3]],[[1378,6844],[-6,23]],[[1372,6867],[-3,14]],[[1369,6881],[0,3]],[[1446,6900],[1,-11]],[[1447,6889],[0,-3]],[[1447,6886],[1,-5]],[[1448,6881],[2,-23]],[[1450,6858],[1,-30]],[[1451,6828],[-3,-3]],[[1448,6825],[-1,-3]],[[1447,6822],[-1,-2]],[[1446,6820],[-2,-3]],[[1444,6817],[-3,0]],[[1441,6817],[-5,-14]],[[1436,6803],[-20,0]],[[1416,6803],[-8,0]],[[1408,6803],[-1,0]],[[1407,6803],[-21,14]],[[1386,6817],[-2,3]],[[1384,6820],[-6,24]],[[1378,6844],[3,34]],[[1500,6798],[0,16]],[[1500,6814],[-9,-2]],[[1491,6812],[-2,2]],[[1489,6814],[2,33]],[[1491,6847],[0,11]],[[1491,6858],[-2,5]],[[1489,6863],[-3,0]],[[1486,6863],[-13,31]],[[1473,6894],[0,3]],[[1473,6897],[0,8]],[[1508,6779],[-8,19]],[[1354,6965],[-2,28]],[[1352,6993],[-1,3]],[[1351,6996],[1,0]],[[1352,6996],[15,0]],[[1379,6993],[44,52]],[[1427,7047],[13,6]],[[1464,6943],[2,-14]],[[1464,6911],[-11,2]],[[1453,6913],[-9,6]],[[1444,6919],[0,-11]],[[1444,6908],[2,-8]],[[1446,6900],[-64,-6]],[[1466,6929],[-2,14]],[[1464,6943],[-24,110]],[[1514,7085],[15,-67]],[[1367,6996],[-2,134]],[[1378,7047],[1,-54]],[[1379,6993],[3,-99]],[[1382,6894],[-1,-16]],[[1381,6878],[-12,6]],[[1369,6884],[-2,21]],[[1367,6905],[-2,0]],[[1365,6905],[-10,-3]],[[1355,6902],[0,25]],[[1355,6927],[-1,38]],[[1354,6965],[13,31]],[[1375,7100],[-1,36]],[[1778,7168],[48,-177]],[[1826,6991],[-13,0]],[[1813,6991],[-28,-6]],[[1785,6985],[-2,0]],[[1783,6985],[-10,-2]],[[1377,7066],[-2,34]],[[1375,7100],[46,60]],[[1494,7176],[17,-81]],[[1460,7160],[51,-65]],[[1511,7095],[3,-10]],[[1514,7085],[15,-67]],[[1529,7018],[-21,-239]],[[1508,6779],[-35,126]],[[1473,6905],[0,3]],[[1473,6908],[-2,0]],[[1471,6908],[-4,3]],[[1467,6911],[-3,0]],[[1464,6911],[2,18]],[[1466,6929],[-26,124]],[[1440,7053],[-13,-6]],[[1427,7047],[-4,-2]],[[1423,7045],[-45,2]],[[1378,7047],[-1,19]],[[1377,7066],[69,105]],[[1423,7181],[71,-5]],[[1494,7176],[-34,-16]],[[1460,7160],[-14,11]],[[1446,7171],[-25,-11]],[[1421,7160],[-47,-24]],[[1374,7136],[-9,-6]],[[1365,7130],[0,35]],[[1760,6983],[-20,2]],[[1740,6985],[-7,3]],[[1733,6988],[-1,3]],[[1732,6991],[-20,230]],[[1765,7165],[4,-32]],[[1769,7133],[0,-6]],[[1769,7127],[4,-144]],[[1773,6983],[-8,0]],[[1765,6983],[-5,0]],[[1760,6983],[-48,238]],[[1712,7221],[10,84]],[[1421,7363],[3,-155]],[[1407,7366],[14,-3]],[[1401,7366],[6,0]],[[1407,7366],[17,-158]],[[1424,7208],[-1,-27]],[[1423,7181],[-15,-10]],[[1386,7377],[2,-3]],[[1388,7374],[6,0]],[[1394,7374],[7,-8]],[[1377,7382],[9,-5]],[[1386,7377],[22,-206]],[[1408,7171],[-43,-6]],[[1365,7165],[-127,204]],[[1826,7352],[30,-45]],[[1856,7307],[0,-2]],[[1856,7305],[-3,-8]],[[1853,7297],[-4,-8]],[[1849,7289],[-1,-6]],[[1848,7283],[-5,-3]],[[1843,7280],[-65,-112]],[[1778,7168],[-12,-3]],[[1766,7165],[-1,0]],[[1765,7165],[-43,140]],[[1722,7305],[7,12]],[[1237,7430],[1,0]],[[1238,7430],[139,-48]],[[1377,7382],[-139,-13]],[[1238,7369],[-1,61]],[[1826,7352],[-97,-35]],[[1729,7317],[-48,98]],[[1775,7550],[51,-198]],[[1759,7610],[13,-27]],[[1772,7583],[0,-3]],[[1772,7580],[3,-30]],[[1775,7550],[-19,-26]],[[1756,7524],[-75,-109]],[[1681,7415],[-8,26]],[[1680,7460],[1,-9]],[[1681,7451],[-8,-10]],[[1673,7441],[-37,35]],[[1636,7476],[-103,126]],[[1614,7682],[22,-206]],[[1681,7451],[-1,9]],[[1680,7460],[-30,216]],[[1702,7634],[-21,-183]],[[1793,7634],[-23,42]],[[1770,7676],[-2,-2]],[[1795,7808],[57,-86]],[[1795,7634],[-2,0]],[[1795,7808],[-27,-134]],[[1768,7674],[-9,-64]],[[1759,7610],[-57,24]],[[1702,7634],[-52,42]],[[1650,7676],[-36,6]],[[1614,7682],[-81,-80]],[[1533,7602],[68,104]],[[1601,7706],[0,3]],[[1601,7709],[3,22]],[[1610,7762],[37,30]],[[1647,7792],[4,-6]],[[1651,7786],[144,22]],[[1606,7765],[4,-3]],[[1610,7762],[-6,-31]],[[1604,7731],[2,34]],[[1795,7634],[57,88]],[[1852,7722],[-57,-88]],[[4580,3728],[0,-96]],[[4535,3618],[8,118]],[[5064,3747],[10,-77]],[[4900,3766],[0,-3]],[[4934,3616],[-8,-18]],[[4887,3766],[39,-168]],[[4926,3598],[-22,-46]],[[4592,3600],[0,128]],[[5032,3691],[-98,-75]],[[4934,3616],[-34,147]],[[4900,3763],[-4,19]],[[5040,3752],[24,-5]],[[5064,3747],[10,-77]],[[5074,3670],[-42,21]],[[5032,3691],[-66,121]],[[4704,3632],[-23,188]],[[4546,3752],[35,79]],[[4711,3828],[-30,-8]],[[4681,3820],[-89,-92]],[[4592,3728],[-12,0]],[[4580,3728],[-37,8]],[[4543,3736],[3,16]],[[4546,3752],[34,-8]],[[4835,3988],[12,-24]],[[5040,3752],[-60,63]],[[4930,3878],[110,-126]],[[4767,3833],[-10,3]],[[4757,3865],[1,11]],[[4760,3884],[2,8]],[[4857,3806],[-9,3]],[[4835,3812],[-33,8]],[[4788,3823],[-13,8]],[[4688,3843],[-96,-93]],[[4891,3930],[39,-52]],[[4930,3878],[50,-63]],[[4980,3815],[-14,-3]],[[4966,3812],[-95,11]],[[4860,3825],[-83,70]],[[4778,3938],[83,-46]],[[4847,3964],[44,-34]],[[4891,3930],[-30,-38]],[[4861,3892],[-14,72]],[[4835,3988],[-37,0]],[[4801,3996],[34,-8]],[[4784,4111],[3,-99]],[[4784,4111],[-2,-107]],[[4734,3841],[-46,2]],[[4688,3843],[-96,-93]],[[4592,3750],[-12,-6]],[[4580,3744],[1,87]],[[4581,3831],[203,280]],[[5024,3450],[-1,5]],[[5023,3455],[1,-5]],[[4777,3895],[-15,-3]],[[4762,3892],[-2,-8]],[[4760,3884],[-2,-8]],[[4758,3876],[-1,-11]],[[4757,3865],[0,-29]],[[4757,3836],[10,-3]],[[4767,3833],[8,-2]],[[4775,3831],[13,-8]],[[4788,3823],[14,-3]],[[4802,3820],[33,-8]],[[4835,3812],[13,-3]],[[4848,3809],[9,-3]],[[4857,3806],[3,19]],[[4860,3825],[11,-2]],[[4871,3823],[25,-41]],[[4896,3782],[4,-16]],[[4900,3766],[-13,0]],[[4887,3766],[17,-214]],[[4904,3552],[-369,66]],[[4535,3618],[45,14]],[[4580,3632],[12,-32]],[[4592,3600],[112,32]],[[4704,3632],[7,196]],[[4711,3828],[23,13]],[[4734,3841],[48,163]],[[4782,4004],[5,8]],[[4787,4012],[14,-16]],[[4801,3996],[-3,-8]],[[4798,3988],[-20,-50]],[[4778,3938],[-1,-43]],[[4754,3804],[11,-159],[80,-31],[13,157],[-104,33]]]}