{"type":"FeatureCollection","features":[{"type":"Feature","geometry":{"type":"Point","coordinates":[130.27749,33.26771]},"properties":{"price":60500,"use":"佐賀","zone":"","station":"住宅"}},{"type":"Feature","geometry":{"type":"Point","coordinates":[130.31199,33.26115]},"properties":{"price":44700,"use":"佐賀","zone":"","station":"住宅"}},{"type":"Feature","geometry":{"type":"Point","coordinates":[130.32383,33.24312]},"properties":{"price":35900,"use":"佐賀","zone":"","station":"住宅"}},{"type":"Feature","geometry":{"type":"Point","coordinates":[130.28013,33.237]},"properties":{"price":36100,"use":"佐賀","zone":"","station":"住宅"}},{"type":"Feature","geometry":{"type":"Point","coordinates":[130.29798,33.24497]},"properties":{"price":79400,"use":"佐賀","zone":"","station":"住宅"}},{"type":"Feature","geometry":{"type":"Point","coordinates":[130.35704,33.21412]},"properties":{"price":14600,"use":"佐賀","zone":"","station":"住宅"}},{"type":"Feature","geometry":{"type":"Point","coordinates":[130.2951,33.25341]},"properties":{"price":85000,"use":"佐賀","zone":"","station":"住宅"}},{"type":"Feature","geometry":{"type":"Point","coordinates":[130.28493,33.28407]},"properties":{"price":50000,"use":"佐賀","zone":"","station":"住宅"}},{"type":"Feature","geometry":{"type":"Point","coordinates":[130.28049,33.25906]},"properties":{"price":43600,"use":"佐賀","zone":"","station":"住宅"}},{"type":"Feature","geometry":{"type":"Point","coordinates":[130.3039,33.24027]},"properties":{"price":61000,"use":"佐賀","zone":"","station":"住宅"}},{"type":"Feature","geometry":{"type":"Point","coordinates":[130.27431,33.27364]},"properties":{"price":46100,"use":"佐賀","zone":"","station":"住宅"}},{"type":"Feature","geometry":{"type":"Point","coordinates":[130.29681,33.28796]},"properties":{"price":42000,"use":"佐賀","zone":"","station":"建築中"}},{"type":"Feature","geometry":{"type":"Point","coordinates":[130.31426,33.22281]},"properties":{"price":24800,"use":"佐賀","zone":"","station":"住宅"}},{"type":"Feature","geometry":{"type":"Point","coordinates":[130.27888,33.24469]},"properties":{"price":44400,"use":"佐賀","zone":"","station":"住宅"}},{"type":"Feature","geometry":{"type":"Point","coordinates":[130.2668,33.27646]},"properties":{"price":61100,"use":"佐賀","zone":"","station":"住宅"}},{"type":"Feature","geometry":{"type":"Point","coordinates":[130.3091,33.25033]},"properties":{"price":76800,"use":"佐賀","zone":"","station":"住宅"}},{"type":"Feature","geometry":{"type":"Point","coordinates":[130.26772,33.26014]},"properties":{"price":49200,"use":"佐賀","zone":"","station":"住宅"}},{"type":"Feature","geometry":{"type":"Point","coordinates":[130.28472,33.31578]},"properties":{"price":37400,"use":"佐賀","zone":"","station":"住宅"}},{"type":"Feature","geometry":{"type":"Point","coordinates":[130.35896,33.22509]},"properties":{"price":25700,"use":"佐賀","zone":"","station":"住宅"}},{"type":"Feature","geometry":{"type":"Point","coordinates":[130.29224,33.29555]},"properties":{"price":16500,"use":"佐賀","zone":"","station":"住宅"}},{"type":"Feature","geometry":{"type":"Point","coordinates":[130.26687,33.32426]},"properties":{"price":10800,"use":"佐賀","zone":"","station":"住宅"}},{"type":"Feature","geometry":{"type":"Point","coordinates":[130.30857,33.31642]},"properties":{"price":13600,"use":"佐賀","zone":"","station":"住宅"}},{"type":"Feature","geometry":{"type":"Point","coordinates":[130.32137,33.18516]},"properties":{"price":14700,"use":"佐賀","zone":"","station":"住宅"}},{"type":"Feature","geometry":{"type":"Point","coordinates":[130.2881,33.26863]},"properties":{"price":79500,"use":"佐賀","zone":"","station":"住宅"}},{"type":"Feature","geometry":{"type":"Point","coordinates":[130.30913,33.27319]},"properties":{"price":82500,"use":"佐賀","zone":"","station":"住宅"}},{"type":"Feature","geometry":{"type":"Point","coordinates":[130.29691,33.26492]},"properties":{"price":244000,"use":"佐賀","zone":"","station":"事務所"}},{"type":"Feature","geometry":{"type":"Point","coordinates":[130.30336,33.26215]},"properties":{"price":111000,"use":"佐賀","zone":"","station":"店舗"}},{"type":"Feature","geometry":{"type":"Point","coordinates":[130.29806,33.26865]},"properties":{"price":96800,"use":"佐賀","zone":"","station":"店舗兼共同住宅"}},{"type":"Feature","geometry":{"type":"Point","coordinates":[130.28128,33.25683]},"properties":{"price":70000,"use":"佐賀","zone":"","station":"店舗兼共同住宅"}},{"type":"Feature","geometry":{"type":"Point","coordinates":[130.30206,33.25372]},"properties":{"price":79000,"use":"佐賀","zone":"","station":"店舗"}},{"type":"Feature","geometry":{"type":"Point","coordinates":[130.28705,33.27292]},"properties":{"price":80000,"use":"佐賀","zone":"","station":"店舗"}},{"type":"Feature","geometry":{"type":"Point","coordinates":[130.29593,33.25985]},"properties":{"price":112000,"use":"佐賀","zone":"","station":"事務所兼店舗"}},{"type":"Feature","geometry":{"type":"Point","coordinates":[130.3001,33.25414]},"properties":{"price":160000,"use":"佐賀","zone":"","station":"店舗兼事務所"}},{"type":"Feature","geometry":{"type":"Point","coordinates":[130.29859,33.26234]},"properties":{"price":272000,"use":"佐賀","zone":"","station":"事務所"}},{"type":"Feature","geometry":{"type":"Point","coordinates":[130.29252,33.25557]},"properties":{"price":93000,"use":"佐賀","zone":"","station":"店舗"}},{"type":"Feature","geometry":{"type":"Point","coordinates":[130.3399,33.22904]},"properties":{"price":25300,"use":"佐賀","zone":"","station":"店舗"}},{"type":"Feature","geometry":{"type":"Point","coordinates":[130.29942,33.23877]},"properties":{"price":80000,"use":"佐賀","zone":"","station":"店舗"}},{"type":"Feature","geometry":{"type":"Point","coordinates":[130.30547,33.27322]},"properties":{"price":96100,"use":"佐賀","zone":"","station":"店舗"}},{"type":"Feature","geometry":{"type":"Point","coordinates":[130.32179,33.24952]},"properties":{"price":73000,"use":"佐賀","zone":"","station":"店舗"}},{"type":"Feature","geometry":{"type":"Point","coordinates":[130.285,33.28049]},"properties":{"price":64800,"use":"佐賀","zone":"","station":"銀行"}},{"type":"Feature","geometry":{"type":"Point","coordinates":[129.97359,33.45362]},"properties":{"price":58400,"use":"唐津","zone":"","station":"住宅"}},{"type":"Feature","geometry":{"type":"Point","coordinates":[130.00779,33.43401]},"properties":{"price":38800,"use":"唐津","zone":"","station":"住宅"}},{"type":"Feature","geometry":{"type":"Point","coordinates":[129.93915,33.48644]},"properties":{"price":18500,"use":"唐津","zone":"","station":"住宅"}},{"type":"Feature","geometry":{"type":"Point","coordinates":[129.95576,33.45659]},"properties":{"price":28900,"use":"唐津","zone":"","station":"住宅"}},{"type":"Feature","geometry":{"type":"Point","coordinates":[129.97204,33.43986]},"properties":{"price":49000,"use":"唐津","zone":"","station":"住宅"}},{"type":"Feature","geometry":{"type":"Point","coordinates":[130.04065,33.45282]},"properties":{"price":25900,"use":"唐津","zone":"","station":"住宅"}},{"type":"Feature","geometry":{"type":"Point","coordinates":[129.88739,33.53055]},"properties":{"price":9090,"use":"唐津","zone":"","station":"住宅"}},{"type":"Feature","geometry":{"type":"Point","coordinates":[130.00601,33.35255]},"properties":{"price":14100,"use":"唐津","zone":"","station":"住宅"}},{"type":"Feature","geometry":{"type":"Point","coordinates":[130.02822,33.3552]},"properties":{"price":8880,"use":"唐津","zone":"","station":"住宅"}},{"type":"Feature","geometry":{"type":"Point","coordinates":[129.89743,33.53865]},"properties":{"price":11500,"use":"唐津","zone":"","station":"住宅"}},{"type":"Feature","geometry":{"type":"Point","coordinates":[129.99851,33.43737]},"properties":{"price":58400,"use":"唐津","zone":"","station":"住宅"}},{"type":"Feature","geometry":{"type":"Point","coordinates":[129.96893,33.44801]},"properties":{"price":55000,"use":"唐津","zone":"","station":"店舗兼住宅"}},{"type":"Feature","geometry":{"type":"Point","coordinates":[129.97462,33.44721]},"properties":{"price":53400,"use":"唐津","zone":"","station":"店舗兼住宅"}},{"type":"Feature","geometry":{"type":"Point","coordinates":[129.95484,33.46582]},"properties":{"price":35800,"use":"唐津","zone":"","station":"店舗"}},{"type":"Feature","geometry":{"type":"Point","coordinates":[129.98221,33.43174]},"properties":{"price":55600,"use":"唐津","zone":"","station":"店舗"}},{"type":"Feature","geometry":{"type":"Point","coordinates":[130.04109,33.45044]},"properties":{"price":31900,"use":"唐津","zone":"","station":"店舗兼住宅"}},{"type":"Feature","geometry":{"type":"Point","coordinates":[129.89501,33.53773]},"properties":{"price":22800,"use":"唐津","zone":"","station":"店舗兼住宅"}},{"type":"Feature","geometry":{"type":"Point","coordinates":[130.01244,33.35016]},"properties":{"price":17300,"use":"唐津","zone":"","station":"店舗兼住宅"}},{"type":"Feature","geometry":{"type":"Point","coordinates":[130.50486,33.37727]},"properties":{"price":57900,"use":"鳥栖","zone":"","station":"住宅"}},{"type":"Feature","geometry":{"type":"Point","coordinates":[130.51687,33.38452]},"properties":{"price":48500,"use":"鳥栖","zone":"","station":"住宅"}},{"type":"Feature","geometry":{"type":"Point","coordinates":[130.50936,33.3633]},"properties":{"price":44700,"use":"鳥栖","zone":"","station":"住宅"}},{"type":"Feature","geometry":{"type":"Point","coordinates":[130.50901,33.38062]},"properties":{"price":53000,"use":"鳥栖","zone":"","station":"住宅"}},{"type":"Feature","geometry":{"type":"Point","coordinates":[130.51207,33.39233]},"properties":{"price":35900,"use":"鳥栖","zone":"","station":"住宅"}},{"type":"Feature","geometry":{"type":"Point","coordinates":[130.49297,33.34859]},"properties":{"price":42300,"use":"鳥栖","zone":"","station":"住宅"}},{"type":"Feature","geometry":{"type":"Point","coordinates":[130.50925,33.37065]},"properties":{"price":60000,"use":"鳥栖","zone":"","station":"住宅"}},{"type":"Feature","geometry":{"type":"Point","coordinates":[130.48682,33.3751]},"properties":{"price":38200,"use":"鳥栖","zone":"","station":"住宅"}},{"type":"Feature","geometry":{"type":"Point","coordinates":[130.52481,33.38939]},"properties":{"price":35500,"use":"鳥栖","zone":"","station":"住宅"}},{"type":"Feature","geometry":{"type":"Point","coordinates":[130.51528,33.36776]},"properties":{"price":53500,"use":"鳥栖","zone":"","station":"住宅"}},{"type":"Feature","geometry":{"type":"Point","coordinates":[130.52657,33.376]},"properties":{"price":43000,"use":"鳥栖","zone":"","station":"住宅"}},{"type":"Feature","geometry":{"type":"Point","coordinates":[130.51974,33.34576]},"properties":{"price":14600,"use":"鳥栖","zone":"","station":"住宅"}},{"type":"Feature","geometry":{"type":"Point","coordinates":[130.50582,33.39433]},"properties":{"price":18600,"use":"鳥栖","zone":"","station":"住宅"}},{"type":"Feature","geometry":{"type":"Point","coordinates":[130.49207,33.37536]},"properties":{"price":69500,"use":"鳥栖","zone":"","station":"住宅"}},{"type":"Feature","geometry":{"type":"Point","coordinates":[130.51931,33.40378]},"properties":{"price":71000,"use":"鳥栖","zone":"","station":"住宅"}},{"type":"Feature","geometry":{"type":"Point","coordinates":[130.5043,33.38915]},"properties":{"price":17600,"use":"鳥栖","zone":"","station":"田"}},{"type":"Feature","geometry":{"type":"Point","coordinates":[130.51586,33.37393]},"properties":{"price":120000,"use":"鳥栖","zone":"","station":"店舗"}},{"type":"Feature","geometry":{"type":"Point","coordinates":[130.50679,33.37499]},"properties":{"price":86800,"use":"鳥栖","zone":"","station":"事務所"}},{"type":"Feature","geometry":{"type":"Point","coordinates":[130.51637,33.37125]},"properties":{"price":66500,"use":"鳥栖","zone":"","station":"店舗兼住宅"}},{"type":"Feature","geometry":{"type":"Point","coordinates":[130.4987,33.37849]},"properties":{"price":69800,"use":"鳥栖","zone":"","station":"店舗"}},{"type":"Feature","geometry":{"type":"Point","coordinates":[130.52741,33.38848]},"properties":{"price":68100,"use":"鳥栖","zone":"","station":"倉庫"}},{"type":"Feature","geometry":{"type":"Point","coordinates":[130.47757,33.35653]},"properties":{"price":27300,"use":"鳥栖","zone":"","station":"倉庫"}},{"type":"Feature","geometry":{"type":"Point","coordinates":[130.53138,33.36645]},"properties":{"price":54700,"use":"鳥栖","zone":"","station":"事務所兼倉庫"}},{"type":"Feature","geometry":{"type":"Point","coordinates":[130.10003,33.29111]},"properties":{"price":14000,"use":"多久","zone":"","station":"住宅"}},{"type":"Feature","geometry":{"type":"Point","coordinates":[130.08616,33.25752]},"properties":{"price":8210,"use":"多久","zone":"","station":"住宅"}},{"type":"Feature","geometry":{"type":"Point","coordinates":[130.15336,33.2812]},"properties":{"price":15900,"use":"多久","zone":"","station":"住宅"}},{"type":"Feature","geometry":{"type":"Point","coordinates":[130.10019,33.2897]},"properties":{"price":24800,"use":"多久","zone":"","station":"店舗、事務所兼住宅"}},{"type":"Feature","geometry":{"type":"Point","coordinates":[129.88726,33.27353]},"properties":{"price":26900,"use":"伊万里","zone":"","station":"住宅"}},{"type":"Feature","geometry":{"type":"Point","coordinates":[129.86114,33.27076]},"properties":{"price":19900,"use":"伊万里","zone":"","station":"住宅"}},{"type":"Feature","geometry":{"type":"Point","coordinates":[129.86735,33.27521]},"properties":{"price":34500,"use":"伊万里","zone":"","station":"住宅"}},{"type":"Feature","geometry":{"type":"Point","coordinates":[129.88181,33.27493]},"properties":{"price":31600,"use":"伊万里","zone":"","station":"店舗兼住宅"}},{"type":"Feature","geometry":{"type":"Point","coordinates":[129.86333,33.26779]},"properties":{"price":23500,"use":"伊万里","zone":"","station":"店舗兼住宅"}},{"type":"Feature","geometry":{"type":"Point","coordinates":[130.0281,33.19291]},"properties":{"price":45100,"use":"武雄","zone":"","station":"住宅"}},{"type":"Feature","geometry":{"type":"Point","coordinates":[130.04255,33.21583]},"properties":{"price":12300,"use":"武雄","zone":"","station":"住宅"}},{"type":"Feature","geometry":{"type":"Point","coordinates":[130.02551,33.20853]},"properties":{"price":23400,"use":"武雄","zone":"","station":"住宅"}},{"type":"Feature","geometry":{"type":"Point","coordinates":[130.01751,33.19415]},"properties":{"price":65500,"use":"武雄","zone":"","station":"店舗"}},{"type":"Feature","geometry":{"type":"Point","coordinates":[130.01713,33.19645]},"properties":{"price":35700,"use":"武雄","zone":"","station":"店舗兼住宅"}},{"type":"Feature","geometry":{"type":"Point","coordinates":[130.03733,33.20533]},"properties":{"price":31000,"use":"武雄","zone":"","station":"店舗兼作業場"}},{"type":"Feature","geometry":{"type":"Point","coordinates":[130.09162,33.11043]},"properties":{"price":26800,"use":"鹿島","zone":"","station":"住宅"}},{"type":"Feature","geometry":{"type":"Point","coordinates":[130.09485,33.09991]},"properties":{"price":25100,"use":"鹿島","zone":"","station":"住宅"}},{"type":"Feature","geometry":{"type":"Point","coordinates":[130.0936,33.11597]},"properties":{"price":19400,"use":"鹿島","zone":"","station":"住宅"}},{"type":"Feature","geometry":{"type":"Point","coordinates":[130.09536,33.11166]},"properties":{"price":36700,"use":"鹿島","zone":"","station":"店舗兼住宅"}},{"type":"Feature","geometry":{"type":"Point","coordinates":[130.19843,33.28891]},"properties":{"price":32000,"use":"小城","zone":"","station":"住宅"}},{"type":"Feature","geometry":{"type":"Point","coordinates":[130.19706,33.30264]},"properties":{"price":24000,"use":"小城","zone":"","station":"住宅"}},{"type":"Feature","geometry":{"type":"Point","coordinates":[130.20171,33.25233]},"properties":{"price":24700,"use":"小城","zone":"","station":"住宅"}},{"type":"Feature","geometry":{"type":"Point","coordinates":[130.18064,33.22752]},"properties":{"price":10800,"use":"小城","zone":"","station":"住宅"}},{"type":"Feature","geometry":{"type":"Point","coordinates":[130.22984,33.27088]},"properties":{"price":26500,"use":"小城","zone":"","station":"住宅"}},{"type":"Feature","geometry":{"type":"Point","coordinates":[130.19791,33.29338]},"properties":{"price":34800,"use":"小城","zone":"","station":"店舗兼住宅"}},{"type":"Feature","geometry":{"type":"Point","coordinates":[130.20683,33.24671]},"properties":{"price":27400,"use":"小城","zone":"","station":"店舗兼住宅"}},{"type":"Feature","geometry":{"type":"Point","coordinates":[129.98801,33.10198]},"properties":{"price":31200,"use":"佐賀嬉野","zone":"","station":"住宅"}},{"type":"Feature","geometry":{"type":"Point","coordinates":[129.9852,33.09071]},"properties":{"price":13800,"use":"佐賀嬉野","zone":"","station":"住宅"}},{"type":"Feature","geometry":{"type":"Point","coordinates":[129.9843,33.09684]},"properties":{"price":51800,"use":"佐賀嬉野","zone":"","station":"店舗兼住宅"}},{"type":"Feature","geometry":{"type":"Point","coordinates":[129.99582,33.10358]},"properties":{"price":42100,"use":"佐賀嬉野","zone":"","station":"店舗"}},{"type":"Feature","geometry":{"type":"Point","coordinates":[130.3781,33.30883]},"properties":{"price":30400,"use":"神埼","zone":"","station":"住宅"}},{"type":"Feature","geometry":{"type":"Point","coordinates":[130.34592,33.31159]},"properties":{"price":12700,"use":"神埼","zone":"","station":"住宅"}},{"type":"Feature","geometry":{"type":"Point","coordinates":[130.37522,33.31191]},"properties":{"price":35300,"use":"神埼","zone":"","station":"店舗兼住宅"}},{"type":"Feature","geometry":{"type":"Point","coordinates":[130.39718,33.31658]},"properties":{"price":28000,"use":"吉野ヶ里","zone":"","station":"住宅"}},{"type":"Feature","geometry":{"type":"Point","coordinates":[130.41135,33.3206]},"properties":{"price":27100,"use":"吉野ヶ里","zone":"","station":"住宅"}},{"type":"Feature","geometry":{"type":"Point","coordinates":[130.39964,33.34175]},"properties":{"price":18700,"use":"吉野ヶ里","zone":"","station":"住宅"}},{"type":"Feature","geometry":{"type":"Point","coordinates":[130.40632,33.35608]},"properties":{"price":8500,"use":"吉野ヶ里","zone":"","station":"住宅"}},{"type":"Feature","geometry":{"type":"Point","coordinates":[130.40893,33.32843]},"properties":{"price":27000,"use":"吉野ヶ里","zone":"","station":"診療所"}},{"type":"Feature","geometry":{"type":"Point","coordinates":[130.52838,33.42539]},"properties":{"price":53300,"use":"基山","zone":"","station":"住宅"}},{"type":"Feature","geometry":{"type":"Point","coordinates":[130.53704,33.41672]},"properties":{"price":33800,"use":"基山","zone":"","station":"住宅"}},{"type":"Feature","geometry":{"type":"Point","coordinates":[130.52243,33.42102]},"properties":{"price":43700,"use":"基山","zone":"","station":"住宅"}},{"type":"Feature","geometry":{"type":"Point","coordinates":[130.53607,33.4071]},"properties":{"price":17900,"use":"基山","zone":"","station":"住宅"}},{"type":"Feature","geometry":{"type":"Point","coordinates":[130.42285,33.33444]},"properties":{"price":29000,"use":"上峰","zone":"","station":"住宅"}},{"type":"Feature","geometry":{"type":"Point","coordinates":[130.41766,33.35014]},"properties":{"price":8450,"use":"上峰","zone":"","station":"住宅"}},{"type":"Feature","geometry":{"type":"Point","coordinates":[130.47801,33.33524]},"properties":{"price":20300,"use":"みやき","zone":"","station":"住宅"}},{"type":"Feature","geometry":{"type":"Point","coordinates":[130.44586,33.32721]},"properties":{"price":18900,"use":"みやき","zone":"","station":"住宅"}},{"type":"Feature","geometry":{"type":"Point","coordinates":[130.44011,33.35647]},"properties":{"price":23200,"use":"みやき","zone":"","station":"店舗"}},{"type":"Feature","geometry":{"type":"Point","coordinates":[129.87928,33.18427]},"properties":{"price":26000,"use":"佐賀有田","zone":"","station":"住宅"}},{"type":"Feature","geometry":{"type":"Point","coordinates":[129.90962,33.18906]},"properties":{"price":14700,"use":"佐賀有田","zone":"","station":"住宅"}},{"type":"Feature","geometry":{"type":"Point","coordinates":[129.85039,33.18778]},"properties":{"price":15500,"use":"佐賀有田","zone":"","station":"住宅"}},{"type":"Feature","geometry":{"type":"Point","coordinates":[129.87005,33.21278]},"properties":{"price":8800,"use":"佐賀有田","zone":"","station":"住宅"}},{"type":"Feature","geometry":{"type":"Point","coordinates":[129.88133,33.18262]},"properties":{"price":34100,"use":"佐賀有田","zone":"","station":"店舗"}},{"type":"Feature","geometry":{"type":"Point","coordinates":[129.84999,33.20359]},"properties":{"price":18800,"use":"佐賀有田","zone":"","station":"店舗"}},{"type":"Feature","geometry":{"type":"Point","coordinates":[130.13714,33.1848]},"properties":{"price":19600,"use":"佐賀白石","zone":"","station":"住宅"}},{"type":"Feature","geometry":{"type":"Point","coordinates":[130.10885,33.18292]},"properties":{"price":7450,"use":"佐賀白石","zone":"","station":"住宅"}},{"type":"Feature","geometry":{"type":"Point","coordinates":[130.14124,33.18618]},"properties":{"price":24400,"use":"佐賀白石","zone":"","station":"店舗"}}]}