{"type":"FeatureCollection","features":[{"type":"Feature","geometry":{"type":"Point","coordinates":[139.87963,36.56682]},"properties":{"price":112000,"use":"宇都宮","zone":"","station":"住宅"}},{"type":"Feature","geometry":{"type":"Point","coordinates":[139.8745,36.54774]},"properties":{"price":82400,"use":"宇都宮","zone":"","station":"住宅"}},{"type":"Feature","geometry":{"type":"Point","coordinates":[139.87793,36.51073]},"properties":{"price":52400,"use":"宇都宮","zone":"","station":"住宅"}},{"type":"Feature","geometry":{"type":"Point","coordinates":[139.87671,36.5524]},"properties":{"price":97300,"use":"宇都宮","zone":"","station":"住宅"}},{"type":"Feature","geometry":{"type":"Point","coordinates":[139.85494,36.6088]},"properties":{"price":48800,"use":"宇都宮","zone":"","station":"住宅"}},{"type":"Feature","geometry":{"type":"Point","coordinates":[139.92914,36.60144]},"properties":{"price":54300,"use":"宇都宮","zone":"","station":"住宅"}},{"type":"Feature","geometry":{"type":"Point","coordinates":[139.93375,36.50325]},"properties":{"price":18500,"use":"宇都宮","zone":"","station":"住宅"}},{"type":"Feature","geometry":{"type":"Point","coordinates":[139.85173,36.60024]},"properties":{"price":50000,"use":"宇都宮","zone":"","station":"住宅"}},{"type":"Feature","geometry":{"type":"Point","coordinates":[139.90015,36.52061]},"properties":{"price":26000,"use":"宇都宮","zone":"","station":"住宅"}},{"type":"Feature","geometry":{"type":"Point","coordinates":[139.89589,36.53862]},"properties":{"price":68200,"use":"宇都宮","zone":"","station":"住宅"}},{"type":"Feature","geometry":{"type":"Point","coordinates":[139.90217,36.56521]},"properties":{"price":132000,"use":"宇都宮","zone":"","station":"住宅"}},{"type":"Feature","geometry":{"type":"Point","coordinates":[139.87022,36.55857]},"properties":{"price":96000,"use":"宇都宮","zone":"","station":"住宅"}},{"type":"Feature","geometry":{"type":"Point","coordinates":[139.85815,36.57422]},"properties":{"price":67900,"use":"宇都宮","zone":"","station":"住宅"}},{"type":"Feature","geometry":{"type":"Point","coordinates":[139.94281,36.5476]},"properties":{"price":35900,"use":"宇都宮","zone":"","station":"住宅"}},{"type":"Feature","geometry":{"type":"Point","coordinates":[139.87021,36.58189]},"properties":{"price":66400,"use":"宇都宮","zone":"","station":"住宅"}},{"type":"Feature","geometry":{"type":"Point","coordinates":[139.91914,36.54803]},"properties":{"price":67900,"use":"宇都宮","zone":"","station":"住宅"}},{"type":"Feature","geometry":{"type":"Point","coordinates":[139.83918,36.58046]},"properties":{"price":43500,"use":"宇都宮","zone":"","station":"住宅"}},{"type":"Feature","geometry":{"type":"Point","coordinates":[139.90371,36.66945]},"properties":{"price":15400,"use":"宇都宮","zone":"","station":"住宅"}},{"type":"Feature","geometry":{"type":"Point","coordinates":[139.86478,36.56462]},"properties":{"price":74600,"use":"宇都宮","zone":"","station":"住宅"}},{"type":"Feature","geometry":{"type":"Point","coordinates":[139.86463,36.57217]},"properties":{"price":84400,"use":"宇都宮","zone":"","station":"住宅"}},{"type":"Feature","geometry":{"type":"Point","coordinates":[139.8726,36.56645]},"properties":{"price":95200,"use":"宇都宮","zone":"","station":"住宅"}},{"type":"Feature","geometry":{"type":"Point","coordinates":[139.94695,36.57294]},"properties":{"price":25500,"use":"宇都宮","zone":"","station":"住宅"}},{"type":"Feature","geometry":{"type":"Point","coordinates":[139.98125,36.59569]},"properties":{"price":20000,"use":"宇都宮","zone":"","station":"住宅"}},{"type":"Feature","geometry":{"type":"Point","coordinates":[139.97248,36.56104]},"properties":{"price":26000,"use":"宇都宮","zone":"","station":"住宅"}},{"type":"Feature","geometry":{"type":"Point","coordinates":[139.91412,36.5788]},"properties":{"price":63100,"use":"宇都宮","zone":"","station":"住宅"}},{"type":"Feature","geometry":{"type":"Point","coordinates":[139.84697,36.57572]},"properties":{"price":50300,"use":"宇都宮","zone":"","station":"住宅"}},{"type":"Feature","geometry":{"type":"Point","coordinates":[139.84897,36.50938]},"properties":{"price":54700,"use":"宇都宮","zone":"","station":"空地"}},{"type":"Feature","geometry":{"type":"Point","coordinates":[139.91794,36.56102]},"properties":{"price":97500,"use":"宇都宮","zone":"","station":"住宅"}},{"type":"Feature","geometry":{"type":"Point","coordinates":[139.92041,36.56488]},"properties":{"price":84400,"use":"宇都宮","zone":"","station":"住宅"}},{"type":"Feature","geometry":{"type":"Point","coordinates":[139.86079,36.48386]},"properties":{"price":53400,"use":"宇都宮","zone":"","station":"住宅"}},{"type":"Feature","geometry":{"type":"Point","coordinates":[139.91373,36.5545]},"properties":{"price":77400,"use":"宇都宮","zone":"","station":"住宅"}},{"type":"Feature","geometry":{"type":"Point","coordinates":[139.93221,36.61898]},"properties":{"price":32100,"use":"宇都宮","zone":"","station":"住宅"}},{"type":"Feature","geometry":{"type":"Point","coordinates":[139.90313,36.64921]},"properties":{"price":14700,"use":"宇都宮","zone":"","station":"住宅"}},{"type":"Feature","geometry":{"type":"Point","coordinates":[139.86403,36.54761]},"properties":{"price":69000,"use":"宇都宮","zone":"","station":"住宅"}},{"type":"Feature","geometry":{"type":"Point","coordinates":[139.84727,36.56016]},"properties":{"price":46100,"use":"宇都宮","zone":"","station":"住宅"}},{"type":"Feature","geometry":{"type":"Point","coordinates":[139.87345,36.54073]},"properties":{"price":60300,"use":"宇都宮","zone":"","station":"住宅"}},{"type":"Feature","geometry":{"type":"Point","coordinates":[139.87838,36.58136]},"properties":{"price":92900,"use":"宇都宮","zone":"","station":"住宅"}},{"type":"Feature","geometry":{"type":"Point","coordinates":[139.99155,36.57033]},"properties":{"price":66300,"use":"宇都宮","zone":"","station":"住宅"}},{"type":"Feature","geometry":{"type":"Point","coordinates":[139.90117,36.54518]},"properties":{"price":71000,"use":"宇都宮","zone":"","station":"住宅"}},{"type":"Feature","geometry":{"type":"Point","coordinates":[139.89713,36.56759]},"properties":{"price":93700,"use":"宇都宮","zone":"","station":"住宅"}},{"type":"Feature","geometry":{"type":"Point","coordinates":[139.92075,36.53678]},"properties":{"price":64400,"use":"宇都宮","zone":"","station":"住宅"}},{"type":"Feature","geometry":{"type":"Point","coordinates":[139.94615,36.63621]},"properties":{"price":14200,"use":"宇都宮","zone":"","station":"住宅"}},{"type":"Feature","geometry":{"type":"Point","coordinates":[139.92462,36.57117]},"properties":{"price":68000,"use":"宇都宮","zone":"","station":"住宅"}},{"type":"Feature","geometry":{"type":"Point","coordinates":[139.85991,36.53586]},"properties":{"price":66700,"use":"宇都宮","zone":"","station":"住宅"}},{"type":"Feature","geometry":{"type":"Point","coordinates":[139.94857,36.60775]},"properties":{"price":45000,"use":"宇都宮","zone":"","station":"住宅"}},{"type":"Feature","geometry":{"type":"Point","coordinates":[139.86199,36.52791]},"properties":{"price":70200,"use":"宇都宮","zone":"","station":"住宅"}},{"type":"Feature","geometry":{"type":"Point","coordinates":[139.86977,36.53171]},"properties":{"price":67800,"use":"宇都宮","zone":"","station":"住宅"}},{"type":"Feature","geometry":{"type":"Point","coordinates":[139.87636,36.49654]},"properties":{"price":53600,"use":"宇都宮","zone":"","station":"住宅"}},{"type":"Feature","geometry":{"type":"Point","coordinates":[139.85147,36.52765]},"properties":{"price":57200,"use":"宇都宮","zone":"","station":"住宅"}},{"type":"Feature","geometry":{"type":"Point","coordinates":[139.86063,36.51779]},"properties":{"price":60300,"use":"宇都宮","zone":"","station":"住宅"}},{"type":"Feature","geometry":{"type":"Point","coordinates":[139.91286,36.56865]},"properties":{"price":126000,"use":"宇都宮","zone":"","station":"住宅"}},{"type":"Feature","geometry":{"type":"Point","coordinates":[139.89175,36.56891]},"properties":{"price":87500,"use":"宇都宮","zone":"","station":"住宅"}},{"type":"Feature","geometry":{"type":"Point","coordinates":[139.88143,36.54738]},"properties":{"price":75800,"use":"宇都宮","zone":"","station":"住宅"}},{"type":"Feature","geometry":{"type":"Point","coordinates":[139.9254,36.5911]},"properties":{"price":63100,"use":"宇都宮","zone":"","station":"住宅"}},{"type":"Feature","geometry":{"type":"Point","coordinates":[139.88574,36.58624]},"properties":{"price":38600,"use":"宇都宮","zone":"","station":"住宅"}},{"type":"Feature","geometry":{"type":"Point","coordinates":[139.88638,36.60293]},"properties":{"price":56000,"use":"宇都宮","zone":"","station":"住宅"}},{"type":"Feature","geometry":{"type":"Point","coordinates":[139.90263,36.68028]},"properties":{"price":23300,"use":"宇都宮","zone":"","station":"住宅"}},{"type":"Feature","geometry":{"type":"Point","coordinates":[139.90485,36.55415]},"properties":{"price":143000,"use":"宇都宮","zone":"","station":"住宅"}},{"type":"Feature","geometry":{"type":"Point","coordinates":[139.8725,36.58525]},"properties":{"price":70000,"use":"宇都宮","zone":"","station":"住宅"}},{"type":"Feature","geometry":{"type":"Point","coordinates":[139.90909,36.54266]},"properties":{"price":96700,"use":"宇都宮","zone":"","station":"住宅"}},{"type":"Feature","geometry":{"type":"Point","coordinates":[139.93442,36.55431]},"properties":{"price":81700,"use":"宇都宮","zone":"","station":"住宅"}},{"type":"Feature","geometry":{"type":"Point","coordinates":[139.80863,36.67955]},"properties":{"price":12300,"use":"宇都宮","zone":"","station":"住宅"}},{"type":"Feature","geometry":{"type":"Point","coordinates":[139.85,36.64411]},"properties":{"price":20600,"use":"宇都宮","zone":"","station":"住宅"}},{"type":"Feature","geometry":{"type":"Point","coordinates":[139.84948,36.62132]},"properties":{"price":20700,"use":"宇都宮","zone":"","station":"住宅"}},{"type":"Feature","geometry":{"type":"Point","coordinates":[139.842,36.53384]},"properties":{"price":27600,"use":"宇都宮","zone":"","station":"住宅"}},{"type":"Feature","geometry":{"type":"Point","coordinates":[139.89677,36.48061]},"properties":{"price":18400,"use":"宇都宮","zone":"","station":"住宅"}},{"type":"Feature","geometry":{"type":"Point","coordinates":[139.86957,36.57647]},"properties":{"price":78100,"use":"宇都宮","zone":"","station":"住宅"}},{"type":"Feature","geometry":{"type":"Point","coordinates":[139.84731,36.59219]},"properties":{"price":48600,"use":"宇都宮","zone":"","station":"住宅"}},{"type":"Feature","geometry":{"type":"Point","coordinates":[139.85177,36.58925]},"properties":{"price":58600,"use":"宇都宮","zone":"","station":"住宅"}},{"type":"Feature","geometry":{"type":"Point","coordinates":[139.86595,36.49459]},"properties":{"price":57400,"use":"宇都宮","zone":"","station":"住宅"}},{"type":"Feature","geometry":{"type":"Point","coordinates":[139.91467,36.58434]},"properties":{"price":66100,"use":"宇都宮","zone":"","station":"住宅"}},{"type":"Feature","geometry":{"type":"Point","coordinates":[139.93138,36.59309]},"properties":{"price":58700,"use":"宇都宮","zone":"","station":"住宅"}},{"type":"Feature","geometry":{"type":"Point","coordinates":[139.89939,36.57265]},"properties":{"price":76400,"use":"宇都宮","zone":"","station":"住宅"}},{"type":"Feature","geometry":{"type":"Point","coordinates":[139.9136,36.53065]},"properties":{"price":57100,"use":"宇都宮","zone":"","station":"住宅"}},{"type":"Feature","geometry":{"type":"Point","coordinates":[139.85466,36.56091]},"properties":{"price":79900,"use":"宇都宮","zone":"","station":"住宅"}},{"type":"Feature","geometry":{"type":"Point","coordinates":[139.90783,36.53692]},"properties":{"price":89800,"use":"宇都宮","zone":"","station":"住宅"}},{"type":"Feature","geometry":{"type":"Point","coordinates":[139.90483,36.56719]},"properties":{"price":135000,"use":"宇都宮","zone":"","station":"共同住宅"}},{"type":"Feature","geometry":{"type":"Point","coordinates":[139.93224,36.55784]},"properties":{"price":79800,"use":"宇都宮","zone":"","station":"住宅"}},{"type":"Feature","geometry":{"type":"Point","coordinates":[139.91862,36.54321]},"properties":{"price":93000,"use":"宇都宮","zone":"","station":"住宅"}},{"type":"Feature","geometry":{"type":"Point","coordinates":[139.88331,36.56133]},"properties":{"price":318000,"use":"宇都宮","zone":"","station":"店舗"}},{"type":"Feature","geometry":{"type":"Point","coordinates":[139.87849,36.55659]},"properties":{"price":105000,"use":"宇都宮","zone":"","station":"店舗兼住宅"}},{"type":"Feature","geometry":{"type":"Point","coordinates":[139.85083,36.51404]},"properties":{"price":72600,"use":"宇都宮","zone":"","station":"店舗"}},{"type":"Feature","geometry":{"type":"Point","coordinates":[139.90431,36.56047]},"properties":{"price":188000,"use":"宇都宮","zone":"","station":"店舗兼共同住宅"}},{"type":"Feature","geometry":{"type":"Point","coordinates":[139.89678,36.55953]},"properties":{"price":340000,"use":"宇都宮","zone":"","station":"店舗"}},{"type":"Feature","geometry":{"type":"Point","coordinates":[139.88921,36.5589]},"properties":{"price":119000,"use":"宇都宮","zone":"","station":"事務所"}},{"type":"Feature","geometry":{"type":"Point","coordinates":[139.88928,36.56298]},"properties":{"price":151000,"use":"宇都宮","zone":"","station":"店舗兼事務所"}},{"type":"Feature","geometry":{"type":"Point","coordinates":[139.89447,36.56124]},"properties":{"price":152000,"use":"宇都宮","zone":"","station":"店舗兼住宅"}},{"type":"Feature","geometry":{"type":"Point","coordinates":[139.87962,36.56114]},"properties":{"price":187000,"use":"宇都宮","zone":"","station":"事務所兼駐車場"}},{"type":"Feature","geometry":{"type":"Point","coordinates":[139.92347,36.55753]},"properties":{"price":108000,"use":"宇都宮","zone":"","station":"店舗"}},{"type":"Feature","geometry":{"type":"Point","coordinates":[139.93174,36.59908]},"properties":{"price":64200,"use":"宇都宮","zone":"","station":"店舗"}},{"type":"Feature","geometry":{"type":"Point","coordinates":[139.86072,36.52885]},"properties":{"price":76500,"use":"宇都宮","zone":"","station":"空地"}},{"type":"Feature","geometry":{"type":"Point","coordinates":[139.87297,36.49525]},"properties":{"price":66200,"use":"宇都宮","zone":"","station":"事務所"}},{"type":"Feature","geometry":{"type":"Point","coordinates":[139.90215,36.55719]},"properties":{"price":212000,"use":"宇都宮","zone":"","station":"店舗"}},{"type":"Feature","geometry":{"type":"Point","coordinates":[139.88407,36.55176]},"properties":{"price":115000,"use":"宇都宮","zone":"","station":"店舗兼住宅"}},{"type":"Feature","geometry":{"type":"Point","coordinates":[139.87288,36.56277]},"properties":{"price":146000,"use":"宇都宮","zone":"","station":"店舗兼事務所"}},{"type":"Feature","geometry":{"type":"Point","coordinates":[139.88002,36.56274]},"properties":{"price":125000,"use":"宇都宮","zone":"","station":"店舗"}},{"type":"Feature","geometry":{"type":"Point","coordinates":[139.90176,36.56265]},"properties":{"price":161000,"use":"宇都宮","zone":"","station":"店舗兼共同住宅"}},{"type":"Feature","geometry":{"type":"Point","coordinates":[139.88185,36.55929]},"properties":{"price":155000,"use":"宇都宮","zone":"","station":"店舗"}},{"type":"Feature","geometry":{"type":"Point","coordinates":[139.86721,36.56447]},"properties":{"price":137000,"use":"宇都宮","zone":"","station":"空地"}},{"type":"Feature","geometry":{"type":"Point","coordinates":[139.88558,36.55893]},"properties":{"price":149000,"use":"宇都宮","zone":"","station":"店舗兼住宅"}},{"type":"Feature","geometry":{"type":"Point","coordinates":[139.87798,36.56065]},"properties":{"price":152000,"use":"宇都宮","zone":"","station":"店舗兼住宅"}},{"type":"Feature","geometry":{"type":"Point","coordinates":[139.86404,36.50574]},"properties":{"price":65200,"use":"宇都宮","zone":"","station":"店舗兼事務所"}},{"type":"Feature","geometry":{"type":"Point","coordinates":[139.90616,36.5507]},"properties":{"price":110000,"use":"宇都宮","zone":"","station":"店舗"}},{"type":"Feature","geometry":{"type":"Point","coordinates":[139.91608,36.56984]},"properties":{"price":109000,"use":"宇都宮","zone":"","station":"店舗"}},{"type":"Feature","geometry":{"type":"Point","coordinates":[139.90245,36.54079]},"properties":{"price":93000,"use":"宇都宮","zone":"","station":"診療所"}},{"type":"Feature","geometry":{"type":"Point","coordinates":[139.89231,36.55042]},"properties":{"price":92800,"use":"宇都宮","zone":"","station":"事務所"}},{"type":"Feature","geometry":{"type":"Point","coordinates":[139.87801,36.51809]},"properties":{"price":63200,"use":"宇都宮","zone":"","station":"店舗兼工場"}},{"type":"Feature","geometry":{"type":"Point","coordinates":[139.90133,36.57518]},"properties":{"price":113000,"use":"宇都宮","zone":"","station":"店舗"}},{"type":"Feature","geometry":{"type":"Point","coordinates":[139.86332,36.49192]},"properties":{"price":62000,"use":"宇都宮","zone":"","station":"店舗"}},{"type":"Feature","geometry":{"type":"Point","coordinates":[139.90249,36.57128]},"properties":{"price":96600,"use":"宇都宮","zone":"","station":"事務所兼住宅"}},{"type":"Feature","geometry":{"type":"Point","coordinates":[139.85326,36.56326]},"properties":{"price":95000,"use":"宇都宮","zone":"","station":"店舗"}},{"type":"Feature","geometry":{"type":"Point","coordinates":[139.98731,36.56905]},"properties":{"price":59800,"use":"宇都宮","zone":"","station":"店舗"}},{"type":"Feature","geometry":{"type":"Point","coordinates":[139.90129,36.55878]},"properties":{"price":408000,"use":"宇都宮","zone":"","station":"ホテル"}},{"type":"Feature","geometry":{"type":"Point","coordinates":[139.93864,36.58841]},"properties":{"price":23600,"use":"宇都宮","zone":"","station":"工場"}},{"type":"Feature","geometry":{"type":"Point","coordinates":[139.89163,36.53452]},"properties":{"price":45000,"use":"宇都宮","zone":"","station":"事務所兼倉庫"}},{"type":"Feature","geometry":{"type":"Point","coordinates":[139.91894,36.50524]},"properties":{"price":25200,"use":"宇都宮","zone":"","station":"工場"}},{"type":"Feature","geometry":{"type":"Point","coordinates":[139.92912,36.56818]},"properties":{"price":25700,"use":"宇都宮","zone":"","station":"工場"}},{"type":"Feature","geometry":{"type":"Point","coordinates":[139.36443,36.38405]},"properties":{"price":19600,"use":"足利","zone":"","station":"住宅"}},{"type":"Feature","geometry":{"type":"Point","coordinates":[139.38663,36.35984]},"properties":{"price":23800,"use":"足利","zone":"","station":"住宅"}},{"type":"Feature","geometry":{"type":"Point","coordinates":[139.39778,36.36079]},"properties":{"price":22600,"use":"足利","zone":"","station":"住宅"}},{"type":"Feature","geometry":{"type":"Point","coordinates":[139.54278,36.32441]},"properties":{"price":14100,"use":"足利","zone":"","station":"住宅"}},{"type":"Feature","geometry":{"type":"Point","coordinates":[139.45244,36.34093]},"properties":{"price":39400,"use":"足利","zone":"","station":"住宅"}},{"type":"Feature","geometry":{"type":"Point","coordinates":[139.42358,36.34866]},"properties":{"price":25300,"use":"足利","zone":"","station":"住宅"}},{"type":"Feature","geometry":{"type":"Point","coordinates":[139.48705,36.30282]},"properties":{"price":17000,"use":"足利","zone":"","station":"住宅"}},{"type":"Feature","geometry":{"type":"Point","coordinates":[139.46151,36.3393]},"properties":{"price":36800,"use":"足利","zone":"","station":"住宅"}},{"type":"Feature","geometry":{"type":"Point","coordinates":[139.47042,36.33954]},"properties":{"price":31800,"use":"足利","zone":"","station":"住宅"}},{"type":"Feature","geometry":{"type":"Point","coordinates":[139.46753,36.32487]},"properties":{"price":31500,"use":"足利","zone":"","station":"住宅"}},{"type":"Feature","geometry":{"type":"Point","coordinates":[139.50746,36.3162]},"properties":{"price":21800,"use":"足利","zone":"","station":"住宅"}},{"type":"Feature","geometry":{"type":"Point","coordinates":[139.46663,36.3538]},"properties":{"price":30100,"use":"足利","zone":"","station":"住宅"}},{"type":"Feature","geometry":{"type":"Point","coordinates":[139.49032,36.32376]},"properties":{"price":24100,"use":"足利","zone":"","station":"住宅"}},{"type":"Feature","geometry":{"type":"Point","coordinates":[139.44927,36.31797]},"properties":{"price":35200,"use":"足利","zone":"","station":"住宅"}},{"type":"Feature","geometry":{"type":"Point","coordinates":[139.45761,36.29927]},"properties":{"price":25600,"use":"足利","zone":"","station":"住宅"}},{"type":"Feature","geometry":{"type":"Point","coordinates":[139.42275,36.33342]},"properties":{"price":24800,"use":"足利","zone":"","station":"住宅"}},{"type":"Feature","geometry":{"type":"Point","coordinates":[139.44076,36.32423]},"properties":{"price":48600,"use":"足利","zone":"","station":"住宅"}},{"type":"Feature","geometry":{"type":"Point","coordinates":[139.46658,36.30543]},"properties":{"price":29800,"use":"足利","zone":"","station":"住宅"}},{"type":"Feature","geometry":{"type":"Point","coordinates":[139.3801,36.37393]},"properties":{"price":22600,"use":"足利","zone":"","station":"住宅"}},{"type":"Feature","geometry":{"type":"Point","coordinates":[139.46497,36.34533]},"properties":{"price":35200,"use":"足利","zone":"","station":"住宅"}},{"type":"Feature","geometry":{"type":"Point","coordinates":[139.46541,36.31678]},"properties":{"price":27300,"use":"足利","zone":"","station":"住宅"}},{"type":"Feature","geometry":{"type":"Point","coordinates":[139.44498,36.31821]},"properties":{"price":49900,"use":"足利","zone":"","station":"住宅"}},{"type":"Feature","geometry":{"type":"Point","coordinates":[139.43735,36.3139]},"properties":{"price":34500,"use":"足利","zone":"","station":"住宅"}},{"type":"Feature","geometry":{"type":"Point","coordinates":[139.40465,36.3471]},"properties":{"price":25200,"use":"足利","zone":"","station":"住宅"}},{"type":"Feature","geometry":{"type":"Point","coordinates":[139.51036,36.29375]},"properties":{"price":12900,"use":"足利","zone":"","station":"住宅"}},{"type":"Feature","geometry":{"type":"Point","coordinates":[139.43068,36.32992]},"properties":{"price":32200,"use":"足利","zone":"","station":"住宅"}},{"type":"Feature","geometry":{"type":"Point","coordinates":[139.48004,36.38626]},"properties":{"price":16100,"use":"足利","zone":"","station":"住宅"}},{"type":"Feature","geometry":{"type":"Point","coordinates":[139.41279,36.37975]},"properties":{"price":16100,"use":"足利","zone":"","station":"住宅"}},{"type":"Feature","geometry":{"type":"Point","coordinates":[139.48303,36.35892]},"properties":{"price":18100,"use":"足利","zone":"","station":"住宅"}},{"type":"Feature","geometry":{"type":"Point","coordinates":[139.44876,36.30086]},"properties":{"price":19700,"use":"足利","zone":"","station":"住宅"}},{"type":"Feature","geometry":{"type":"Point","coordinates":[139.41507,36.35053]},"properties":{"price":23500,"use":"足利","zone":"","station":"住宅"}},{"type":"Feature","geometry":{"type":"Point","coordinates":[139.45476,36.34631]},"properties":{"price":35400,"use":"足利","zone":"","station":"住宅"}},{"type":"Feature","geometry":{"type":"Point","coordinates":[139.47445,36.31888]},"properties":{"price":25900,"use":"足利","zone":"","station":"住宅"}},{"type":"Feature","geometry":{"type":"Point","coordinates":[139.45065,36.33458]},"properties":{"price":51600,"use":"足利","zone":"","station":"店舗兼事務所"}},{"type":"Feature","geometry":{"type":"Point","coordinates":[139.45605,36.33323]},"properties":{"price":51800,"use":"足利","zone":"","station":"店舗兼住宅"}},{"type":"Feature","geometry":{"type":"Point","coordinates":[139.45746,36.33691]},"properties":{"price":41000,"use":"足利","zone":"","station":"店舗兼住宅"}},{"type":"Feature","geometry":{"type":"Point","coordinates":[139.4325,36.34041]},"properties":{"price":32900,"use":"足利","zone":"","station":"店舗兼工場"}},{"type":"Feature","geometry":{"type":"Point","coordinates":[139.47101,36.30495]},"properties":{"price":33200,"use":"足利","zone":"","station":"店舗"}},{"type":"Feature","geometry":{"type":"Point","coordinates":[139.4737,36.33881]},"properties":{"price":19100,"use":"足利","zone":"","station":"倉庫"}},{"type":"Feature","geometry":{"type":"Point","coordinates":[139.43105,36.33582]},"properties":{"price":19000,"use":"足利","zone":"","station":"工場"}},{"type":"Feature","geometry":{"type":"Point","coordinates":[139.73635,36.39798]},"properties":{"price":29500,"use":"栃木","zone":"","station":"住宅"}},{"type":"Feature","geometry":{"type":"Point","coordinates":[139.74787,36.3889]},"properties":{"price":30000,"use":"栃木","zone":"","station":"住宅"}},{"type":"Feature","geometry":{"type":"Point","coordinates":[139.738,36.38861]},"properties":{"price":37100,"use":"栃木","zone":"","station":"住宅"}},{"type":"Feature","geometry":{"type":"Point","coordinates":[139.73166,36.38972]},"properties":{"price":38100,"use":"栃木","zone":"","station":"住宅"}},{"type":"Feature","geometry":{"type":"Point","coordinates":[139.74254,36.37646]},"properties":{"price":30100,"use":"栃木","zone":"","station":"住宅"}},{"type":"Feature","geometry":{"type":"Point","coordinates":[139.73143,36.38372]},"properties":{"price":34600,"use":"栃木","zone":"","station":"住宅"}},{"type":"Feature","geometry":{"type":"Point","coordinates":[139.73599,36.34444]},"properties":{"price":14200,"use":"栃木","zone":"","station":"住宅"}},{"type":"Feature","geometry":{"type":"Point","coordinates":[139.71485,36.37621]},"properties":{"price":27500,"use":"栃木","zone":"","station":"住宅"}},{"type":"Feature","geometry":{"type":"Point","coordinates":[139.72289,36.36869]},"properties":{"price":38900,"use":"栃木","zone":"","station":"住宅"}},{"type":"Feature","geometry":{"type":"Point","coordinates":[139.72028,36.37988]},"properties":{"price":30500,"use":"栃木","zone":"","station":"住宅"}},{"type":"Feature","geometry":{"type":"Point","coordinates":[139.74622,36.39638]},"properties":{"price":33800,"use":"栃木","zone":"","station":"住宅"}},{"type":"Feature","geometry":{"type":"Point","coordinates":[139.70718,36.37397]},"properties":{"price":26100,"use":"栃木","zone":"","station":"住宅"}},{"type":"Feature","geometry":{"type":"Point","coordinates":[139.71048,36.34608]},"properties":{"price":27400,"use":"栃木","zone":"","station":"住宅"}},{"type":"Feature","geometry":{"type":"Point","coordinates":[139.69888,36.33895]},"properties":{"price":28900,"use":"栃木","zone":"","station":"住宅"}},{"type":"Feature","geometry":{"type":"Point","coordinates":[139.6992,36.33594]},"properties":{"price":28900,"use":"栃木","zone":"","station":"住宅"}},{"type":"Feature","geometry":{"type":"Point","coordinates":[139.71201,36.33677]},"properties":{"price":23300,"use":"栃木","zone":"","station":"住宅"}},{"type":"Feature","geometry":{"type":"Point","coordinates":[139.6926,36.34121]},"properties":{"price":25300,"use":"栃木","zone":"","station":"住宅"}},{"type":"Feature","geometry":{"type":"Point","coordinates":[139.7151,36.32025]},"properties":{"price":23200,"use":"栃木","zone":"","station":"住宅"}},{"type":"Feature","geometry":{"type":"Point","coordinates":[139.65518,36.26667]},"properties":{"price":17100,"use":"栃木","zone":"","station":"住宅"}},{"type":"Feature","geometry":{"type":"Point","coordinates":[139.64112,36.25424]},"properties":{"price":15200,"use":"栃木","zone":"","station":"住宅"}},{"type":"Feature","geometry":{"type":"Point","coordinates":[139.64063,36.30401]},"properties":{"price":11600,"use":"栃木","zone":"","station":"住宅"}},{"type":"Feature","geometry":{"type":"Point","coordinates":[139.74162,36.40206]},"properties":{"price":24600,"use":"栃木","zone":"","station":"住宅"}},{"type":"Feature","geometry":{"type":"Point","coordinates":[139.63869,36.2679]},"properties":{"price":10800,"use":"栃木","zone":"","station":"住宅"}},{"type":"Feature","geometry":{"type":"Point","coordinates":[139.7487,36.42294]},"properties":{"price":17700,"use":"栃木","zone":"","station":"住宅"}},{"type":"Feature","geometry":{"type":"Point","coordinates":[139.74848,36.47245]},"properties":{"price":15800,"use":"栃木","zone":"","station":"住宅"}},{"type":"Feature","geometry":{"type":"Point","coordinates":[139.73517,36.43718]},"properties":{"price":12000,"use":"栃木","zone":"","station":"住宅"}},{"type":"Feature","geometry":{"type":"Point","coordinates":[139.77313,36.39009]},"properties":{"price":11100,"use":"栃木","zone":"","station":"住宅"}},{"type":"Feature","geometry":{"type":"Point","coordinates":[139.77299,36.40749]},"properties":{"price":19700,"use":"栃木","zone":"","station":"住宅"}},{"type":"Feature","geometry":{"type":"Point","coordinates":[139.69569,36.41348]},"properties":{"price":15000,"use":"栃木","zone":"","station":"住宅"}},{"type":"Feature","geometry":{"type":"Point","coordinates":[139.68604,36.39345]},"properties":{"price":12200,"use":"栃木","zone":"","station":"住宅"}},{"type":"Feature","geometry":{"type":"Point","coordinates":[139.63555,36.45369]},"properties":{"price":8400,"use":"栃木","zone":"","station":"住宅"}},{"type":"Feature","geometry":{"type":"Point","coordinates":[139.69086,36.34852]},"properties":{"price":11500,"use":"栃木","zone":"","station":"住宅"}},{"type":"Feature","geometry":{"type":"Point","coordinates":[139.6624,36.32091]},"properties":{"price":20500,"use":"栃木","zone":"","station":"住宅"}},{"type":"Feature","geometry":{"type":"Point","coordinates":[139.66864,36.31875]},"properties":{"price":17100,"use":"栃木","zone":"","station":"住宅"}},{"type":"Feature","geometry":{"type":"Point","coordinates":[139.67854,36.31882]},"properties":{"price":24200,"use":"栃木","zone":"","station":"住宅"}},{"type":"Feature","geometry":{"type":"Point","coordinates":[139.65045,36.31788]},"properties":{"price":20300,"use":"栃木","zone":"","station":"住宅"}},{"type":"Feature","geometry":{"type":"Point","coordinates":[139.65594,36.32721]},"properties":{"price":18600,"use":"栃木","zone":"","station":"住宅"}},{"type":"Feature","geometry":{"type":"Point","coordinates":[139.62642,36.3347]},"properties":{"price":8730,"use":"栃木","zone":"","station":"住宅"}},{"type":"Feature","geometry":{"type":"Point","coordinates":[139.67719,36.30401]},"properties":{"price":9600,"use":"栃木","zone":"","station":"住宅"}},{"type":"Feature","geometry":{"type":"Point","coordinates":[139.72034,36.37633]},"properties":{"price":34800,"use":"栃木","zone":"","station":"住宅"}},{"type":"Feature","geometry":{"type":"Point","coordinates":[139.65145,36.25676]},"properties":{"price":16800,"use":"栃木","zone":"","station":"住宅"}},{"type":"Feature","geometry":{"type":"Point","coordinates":[139.74937,36.43125]},"properties":{"price":22100,"use":"栃木","zone":"","station":"住宅"}},{"type":"Feature","geometry":{"type":"Point","coordinates":[139.74744,36.46739]},"properties":{"price":16900,"use":"栃木","zone":"","station":"住宅"}},{"type":"Feature","geometry":{"type":"Point","coordinates":[139.72834,36.36897]},"properties":{"price":37000,"use":"栃木","zone":"","station":"住宅"}},{"type":"Feature","geometry":{"type":"Point","coordinates":[139.74647,36.39384]},"properties":{"price":36800,"use":"栃木","zone":"","station":"事務所兼工場"}},{"type":"Feature","geometry":{"type":"Point","coordinates":[139.73248,36.37853]},"properties":{"price":44000,"use":"栃木","zone":"","station":"店舗兼住宅"}},{"type":"Feature","geometry":{"type":"Point","coordinates":[139.73123,36.37432]},"properties":{"price":37700,"use":"栃木","zone":"","station":"店舗兼住宅"}},{"type":"Feature","geometry":{"type":"Point","coordinates":[139.74005,36.38964]},"properties":{"price":40400,"use":"栃木","zone":"","station":"店舗兼住宅"}},{"type":"Feature","geometry":{"type":"Point","coordinates":[139.71503,36.33425]},"properties":{"price":27800,"use":"栃木","zone":"","station":"診療所"}},{"type":"Feature","geometry":{"type":"Point","coordinates":[139.71622,36.40028]},"properties":{"price":32300,"use":"栃木","zone":"","station":"事務所兼倉庫"}},{"type":"Feature","geometry":{"type":"Point","coordinates":[139.74994,36.46779]},"properties":{"price":20900,"use":"栃木","zone":"","station":"店舗"}},{"type":"Feature","geometry":{"type":"Point","coordinates":[139.70961,36.35076]},"properties":{"price":29600,"use":"栃木","zone":"","station":"事務所"}},{"type":"Feature","geometry":{"type":"Point","coordinates":[139.6997,36.33756]},"properties":{"price":31300,"use":"栃木","zone":"","station":"店舗兼住宅"}},{"type":"Feature","geometry":{"type":"Point","coordinates":[139.79084,36.40335]},"properties":{"price":17900,"use":"栃木","zone":"","station":"工場"}},{"type":"Feature","geometry":{"type":"Point","coordinates":[139.70927,36.40034]},"properties":{"price":21400,"use":"栃木","zone":"","station":"倉庫兼事務所"}},{"type":"Feature","geometry":{"type":"Point","coordinates":[139.57422,36.31895]},"properties":{"price":35300,"use":"佐野","zone":"","station":"住宅"}},{"type":"Feature","geometry":{"type":"Point","coordinates":[139.57552,36.30057]},"properties":{"price":28500,"use":"佐野","zone":"","station":"住宅"}},{"type":"Feature","geometry":{"type":"Point","coordinates":[139.58337,36.30481]},"properties":{"price":38900,"use":"佐野","zone":"","station":"住宅"}},{"type":"Feature","geometry":{"type":"Point","coordinates":[139.57979,36.30239]},"properties":{"price":32200,"use":"佐野","zone":"","station":"住宅"}},{"type":"Feature","geometry":{"type":"Point","coordinates":[139.59952,36.30112]},"properties":{"price":33200,"use":"佐野","zone":"","station":"住宅"}},{"type":"Feature","geometry":{"type":"Point","coordinates":[139.58814,36.31134]},"properties":{"price":34100,"use":"佐野","zone":"","station":"空地"}},{"type":"Feature","geometry":{"type":"Point","coordinates":[139.59543,36.32288]},"properties":{"price":29800,"use":"佐野","zone":"","station":"住宅"}},{"type":"Feature","geometry":{"type":"Point","coordinates":[139.6106,36.39231]},"properties":{"price":15600,"use":"佐野","zone":"","station":"住宅"}},{"type":"Feature","geometry":{"type":"Point","coordinates":[139.57959,36.31802]},"properties":{"price":29200,"use":"佐野","zone":"","station":"住宅"}},{"type":"Feature","geometry":{"type":"Point","coordinates":[139.57053,36.33113]},"properties":{"price":33100,"use":"佐野","zone":"","station":"住宅"}},{"type":"Feature","geometry":{"type":"Point","coordinates":[139.58487,36.33421]},"properties":{"price":30400,"use":"佐野","zone":"","station":"住宅"}},{"type":"Feature","geometry":{"type":"Point","coordinates":[139.60576,36.41356]},"properties":{"price":16400,"use":"佐野","zone":"","station":"事務所兼住宅"}},{"type":"Feature","geometry":{"type":"Point","coordinates":[139.58857,36.29851]},"properties":{"price":35300,"use":"佐野","zone":"","station":"住宅"}},{"type":"Feature","geometry":{"type":"Point","coordinates":[139.5894,36.31892]},"properties":{"price":32000,"use":"佐野","zone":"","station":"住宅"}},{"type":"Feature","geometry":{"type":"Point","coordinates":[139.59887,36.29862]},"properties":{"price":39600,"use":"佐野","zone":"","station":"住宅"}},{"type":"Feature","geometry":{"type":"Point","coordinates":[139.55187,36.32652]},"properties":{"price":16500,"use":"佐野","zone":"","station":"住宅"}},{"type":"Feature","geometry":{"type":"Point","coordinates":[139.60465,36.33296]},"properties":{"price":13900,"use":"佐野","zone":"","station":"住宅"}},{"type":"Feature","geometry":{"type":"Point","coordinates":[139.59564,36.28399]},"properties":{"price":14700,"use":"佐野","zone":"","station":"住宅"}},{"type":"Feature","geometry":{"type":"Point","coordinates":[139.61014,36.32376]},"properties":{"price":28700,"use":"佐野","zone":"","station":"住宅"}},{"type":"Feature","geometry":{"type":"Point","coordinates":[139.55747,36.36182]},"properties":{"price":20900,"use":"佐野","zone":"","station":"住宅"}},{"type":"Feature","geometry":{"type":"Point","coordinates":[139.56095,36.37481]},"properties":{"price":13400,"use":"佐野","zone":"","station":"住宅"}},{"type":"Feature","geometry":{"type":"Point","coordinates":[139.6091,36.38524]},"properties":{"price":9300,"use":"佐野","zone":"","station":"住宅"}},{"type":"Feature","geometry":{"type":"Point","coordinates":[139.57182,36.34762]},"properties":{"price":22000,"use":"佐野","zone":"","station":"住宅"}},{"type":"Feature","geometry":{"type":"Point","coordinates":[139.57724,36.37182]},"properties":{"price":23800,"use":"佐野","zone":"","station":"住宅"}},{"type":"Feature","geometry":{"type":"Point","coordinates":[139.57829,36.35929]},"properties":{"price":25300,"use":"佐野","zone":"","station":"住宅"}},{"type":"Feature","geometry":{"type":"Point","coordinates":[139.58308,36.37014]},"properties":{"price":27000,"use":"佐野","zone":"","station":"住宅"}},{"type":"Feature","geometry":{"type":"Point","coordinates":[139.60881,36.40721]},"properties":{"price":18800,"use":"佐野","zone":"","station":"住宅"}},{"type":"Feature","geometry":{"type":"Point","coordinates":[139.58164,36.33361]},"properties":{"price":31200,"use":"佐野","zone":"","station":"住宅"}},{"type":"Feature","geometry":{"type":"Point","coordinates":[139.58241,36.29785]},"properties":{"price":32100,"use":"佐野","zone":"","station":"住宅"}},{"type":"Feature","geometry":{"type":"Point","coordinates":[139.60193,36.31998]},"properties":{"price":29700,"use":"佐野","zone":"","station":"住宅"}},{"type":"Feature","geometry":{"type":"Point","coordinates":[139.59243,36.36717]},"properties":{"price":15700,"use":"佐野","zone":"","station":"住宅"}},{"type":"Feature","geometry":{"type":"Point","coordinates":[139.58357,36.37375]},"properties":{"price":24500,"use":"佐野","zone":"","station":"住宅"}},{"type":"Feature","geometry":{"type":"Point","coordinates":[139.57627,36.3162]},"properties":{"price":39300,"use":"佐野","zone":"","station":"店舗兼住宅"}},{"type":"Feature","geometry":{"type":"Point","coordinates":[139.57865,36.31518]},"properties":{"price":53300,"use":"佐野","zone":"","station":"店舗兼住宅"}},{"type":"Feature","geometry":{"type":"Point","coordinates":[139.57496,36.30943]},"properties":{"price":35000,"use":"佐野","zone":"","station":"店舗兼住宅"}},{"type":"Feature","geometry":{"type":"Point","coordinates":[139.55698,36.31374]},"properties":{"price":28000,"use":"佐野","zone":"","station":"店舗兼事務所"}},{"type":"Feature","geometry":{"type":"Point","coordinates":[139.56681,36.3023]},"properties":{"price":34800,"use":"佐野","zone":"","station":"店舗"}},{"type":"Feature","geometry":{"type":"Point","coordinates":[139.59866,36.29937]},"properties":{"price":45700,"use":"佐野","zone":"","station":"店舗"}},{"type":"Feature","geometry":{"type":"Point","coordinates":[139.60095,36.31025]},"properties":{"price":19400,"use":"佐野","zone":"","station":"工場"}},{"type":"Feature","geometry":{"type":"Point","coordinates":[139.56048,36.31651]},"properties":{"price":19500,"use":"佐野","zone":"","station":"工場兼事務所"}},{"type":"Feature","geometry":{"type":"Point","coordinates":[139.55391,36.28317]},"properties":{"price":16700,"use":"佐野","zone":"","station":"作業所兼事務所"}},{"type":"Feature","geometry":{"type":"Point","coordinates":[139.81392,36.55079]},"properties":{"price":25600,"use":"鹿沼","zone":"","station":"住宅"}},{"type":"Feature","geometry":{"type":"Point","coordinates":[139.74774,36.57419]},"properties":{"price":29600,"use":"鹿沼","zone":"","station":"住宅"}},{"type":"Feature","geometry":{"type":"Point","coordinates":[139.72309,36.56368]},"properties":{"price":19700,"use":"鹿沼","zone":"","station":"住宅"}},{"type":"Feature","geometry":{"type":"Point","coordinates":[139.74794,36.53931]},"properties":{"price":28200,"use":"鹿沼","zone":"","station":"住宅"}},{"type":"Feature","geometry":{"type":"Point","coordinates":[139.74633,36.5063]},"properties":{"price":22900,"use":"鹿沼","zone":"","station":"住宅"}},{"type":"Feature","geometry":{"type":"Point","coordinates":[139.75018,36.56047]},"properties":{"price":35000,"use":"鹿沼","zone":"","station":"住宅"}},{"type":"Feature","geometry":{"type":"Point","coordinates":[139.76575,36.55829]},"properties":{"price":36800,"use":"鹿沼","zone":"","station":"住宅"}},{"type":"Feature","geometry":{"type":"Point","coordinates":[139.76437,36.57207]},"properties":{"price":26800,"use":"鹿沼","zone":"","station":"住宅"}},{"type":"Feature","geometry":{"type":"Point","coordinates":[139.77913,36.55908]},"properties":{"price":29500,"use":"鹿沼","zone":"","station":"住宅"}},{"type":"Feature","geometry":{"type":"Point","coordinates":[139.75714,36.56764]},"properties":{"price":34800,"use":"鹿沼","zone":"","station":"住宅"}},{"type":"Feature","geometry":{"type":"Point","coordinates":[139.76873,36.54767]},"properties":{"price":41900,"use":"鹿沼","zone":"","station":"住宅"}},{"type":"Feature","geometry":{"type":"Point","coordinates":[139.75283,36.57229]},"properties":{"price":35200,"use":"鹿沼","zone":"","station":"住宅"}},{"type":"Feature","geometry":{"type":"Point","coordinates":[139.7455,36.55076]},"properties":{"price":28500,"use":"鹿沼","zone":"","station":"住宅"}},{"type":"Feature","geometry":{"type":"Point","coordinates":[139.71984,36.54001]},"properties":{"price":11600,"use":"鹿沼","zone":"","station":"住宅"}},{"type":"Feature","geometry":{"type":"Point","coordinates":[139.67114,36.51735]},"properties":{"price":16100,"use":"鹿沼","zone":"","station":"住宅"}},{"type":"Feature","geometry":{"type":"Point","coordinates":[139.74863,36.58581]},"properties":{"price":24000,"use":"鹿沼","zone":"","station":"住宅"}},{"type":"Feature","geometry":{"type":"Point","coordinates":[139.70807,36.49761]},"properties":{"price":12500,"use":"鹿沼","zone":"","station":"住宅"}},{"type":"Feature","geometry":{"type":"Point","coordinates":[139.75612,36.5606]},"properties":{"price":31100,"use":"鹿沼","zone":"","station":"住宅"}},{"type":"Feature","geometry":{"type":"Point","coordinates":[139.76504,36.52842]},"properties":{"price":12700,"use":"鹿沼","zone":"","station":"住宅"}},{"type":"Feature","geometry":{"type":"Point","coordinates":[139.7448,36.56572]},"properties":{"price":31600,"use":"鹿沼","zone":"","station":"住宅"}},{"type":"Feature","geometry":{"type":"Point","coordinates":[139.76152,36.58729]},"properties":{"price":13400,"use":"鹿沼","zone":"","station":"住宅"}},{"type":"Feature","geometry":{"type":"Point","coordinates":[139.74216,36.55555]},"properties":{"price":40300,"use":"鹿沼","zone":"","station":"住宅"}},{"type":"Feature","geometry":{"type":"Point","coordinates":[139.75058,36.56709]},"properties":{"price":42600,"use":"鹿沼","zone":"","station":"事務所"}},{"type":"Feature","geometry":{"type":"Point","coordinates":[139.74634,36.56314]},"properties":{"price":48500,"use":"鹿沼","zone":"","station":"店舗兼住宅"}},{"type":"Feature","geometry":{"type":"Point","coordinates":[139.74693,36.5596]},"properties":{"price":43900,"use":"鹿沼","zone":"","station":"店舗兼住宅"}},{"type":"Feature","geometry":{"type":"Point","coordinates":[139.77363,36.5649]},"properties":{"price":38400,"use":"鹿沼","zone":"","station":"教習所"}},{"type":"Feature","geometry":{"type":"Point","coordinates":[139.77479,36.55273]},"properties":{"price":48000,"use":"鹿沼","zone":"","station":"店舗"}},{"type":"Feature","geometry":{"type":"Point","coordinates":[139.81122,36.53435]},"properties":{"price":17000,"use":"鹿沼","zone":"","station":"工場"}},{"type":"Feature","geometry":{"type":"Point","coordinates":[139.6157,36.75069]},"properties":{"price":24500,"use":"日光","zone":"","station":"住宅"}},{"type":"Feature","geometry":{"type":"Point","coordinates":[139.56064,36.74006]},"properties":{"price":12000,"use":"日光","zone":"","station":"住宅"}},{"type":"Feature","geometry":{"type":"Point","coordinates":[139.6303,36.74396]},"properties":{"price":23400,"use":"日光","zone":"","station":"住宅"}},{"type":"Feature","geometry":{"type":"Point","coordinates":[139.70984,36.72436]},"properties":{"price":23400,"use":"日光","zone":"","station":"住宅"}},{"type":"Feature","geometry":{"type":"Point","coordinates":[139.68595,36.72023]},"properties":{"price":26000,"use":"日光","zone":"","station":"住宅"}},{"type":"Feature","geometry":{"type":"Point","coordinates":[139.68605,36.73467]},"properties":{"price":19200,"use":"日光","zone":"","station":"住宅"}},{"type":"Feature","geometry":{"type":"Point","coordinates":[139.71047,36.81798]},"properties":{"price":18100,"use":"日光","zone":"","station":"住宅"}},{"type":"Feature","geometry":{"type":"Point","coordinates":[139.71868,36.70899]},"properties":{"price":18600,"use":"日光","zone":"","station":"住宅"}},{"type":"Feature","geometry":{"type":"Point","coordinates":[139.6187,36.74762]},"properties":{"price":49500,"use":"日光","zone":"","station":"店舗"}},{"type":"Feature","geometry":{"type":"Point","coordinates":[139.60738,36.75198]},"properties":{"price":40000,"use":"日光","zone":"","station":"事務所"}},{"type":"Feature","geometry":{"type":"Point","coordinates":[139.71835,36.82554]},"properties":{"price":30200,"use":"日光","zone":"","station":"ホテル"}},{"type":"Feature","geometry":{"type":"Point","coordinates":[139.68418,36.72556]},"properties":{"price":32000,"use":"日光","zone":"","station":"事務所"}},{"type":"Feature","geometry":{"type":"Point","coordinates":[139.69282,36.72504]},"properties":{"price":33800,"use":"日光","zone":"","station":"店舗兼住宅"}},{"type":"Feature","geometry":{"type":"Point","coordinates":[139.8257,36.352]},"properties":{"price":32900,"use":"小山","zone":"","station":"住宅"}},{"type":"Feature","geometry":{"type":"Point","coordinates":[139.81299,36.3264]},"properties":{"price":35800,"use":"小山","zone":"","station":"住宅"}},{"type":"Feature","geometry":{"type":"Point","coordinates":[139.78504,36.3016]},"properties":{"price":35700,"use":"小山","zone":"","station":"住宅"}},{"type":"Feature","geometry":{"type":"Point","coordinates":[139.76449,36.27058]},"properties":{"price":30800,"use":"小山","zone":"","station":"住宅"}},{"type":"Feature","geometry":{"type":"Point","coordinates":[139.81841,36.31435]},"properties":{"price":72900,"use":"小山","zone":"","station":"住宅"}},{"type":"Feature","geometry":{"type":"Point","coordinates":[139.75718,36.25546]},"properties":{"price":36900,"use":"小山","zone":"","station":"住宅"}},{"type":"Feature","geometry":{"type":"Point","coordinates":[139.79405,36.30872]},"properties":{"price":45100,"use":"小山","zone":"","station":"住宅"}},{"type":"Feature","geometry":{"type":"Point","coordinates":[139.79657,36.30421]},"properties":{"price":44600,"use":"小山","zone":"","station":"住宅"}},{"type":"Feature","geometry":{"type":"Point","coordinates":[139.8295,36.31188]},"properties":{"price":57000,"use":"小山","zone":"","station":"住宅"}},{"type":"Feature","geometry":{"type":"Point","coordinates":[139.81504,36.3106]},"properties":{"price":80500,"use":"小山","zone":"","station":"住宅"}},{"type":"Feature","geometry":{"type":"Point","coordinates":[139.82143,36.32387]},"properties":{"price":49600,"use":"小山","zone":"","station":"住宅"}},{"type":"Feature","geometry":{"type":"Point","coordinates":[139.76659,36.2627]},"properties":{"price":36800,"use":"小山","zone":"","station":"住宅"}},{"type":"Feature","geometry":{"type":"Point","coordinates":[139.77554,36.26203]},"properties":{"price":36300,"use":"小山","zone":"","station":"住宅"}},{"type":"Feature","geometry":{"type":"Point","coordinates":[139.81896,36.29238]},"properties":{"price":39500,"use":"小山","zone":"","station":"住宅"}},{"type":"Feature","geometry":{"type":"Point","coordinates":[139.79406,36.30119]},"properties":{"price":53000,"use":"小山","zone":"","station":"住宅"}},{"type":"Feature","geometry":{"type":"Point","coordinates":[139.80736,36.32521]},"properties":{"price":50100,"use":"小山","zone":"","station":"住宅"}},{"type":"Feature","geometry":{"type":"Point","coordinates":[139.81506,36.2961]},"properties":{"price":59300,"use":"小山","zone":"","station":"住宅"}},{"type":"Feature","geometry":{"type":"Point","coordinates":[139.81997,36.3048]},"properties":{"price":52900,"use":"小山","zone":"","station":"住宅"}},{"type":"Feature","geometry":{"type":"Point","coordinates":[139.82095,36.27851]},"properties":{"price":35400,"use":"小山","zone":"","station":"住宅"}},{"type":"Feature","geometry":{"type":"Point","coordinates":[139.77609,36.28182]},"properties":{"price":25200,"use":"小山","zone":"","station":"住宅"}},{"type":"Feature","geometry":{"type":"Point","coordinates":[139.84296,36.30981]},"properties":{"price":20700,"use":"小山","zone":"","station":"住宅"}},{"type":"Feature","geometry":{"type":"Point","coordinates":[139.76559,36.29529]},"properties":{"price":11500,"use":"小山","zone":"","station":"住宅"}},{"type":"Feature","geometry":{"type":"Point","coordinates":[139.80676,36.27891]},"properties":{"price":26600,"use":"小山","zone":"","station":"住宅"}},{"type":"Feature","geometry":{"type":"Point","coordinates":[139.77249,36.36443]},"properties":{"price":13000,"use":"小山","zone":"","station":"住宅"}},{"type":"Feature","geometry":{"type":"Point","coordinates":[139.70609,36.25687]},"properties":{"price":9000,"use":"小山","zone":"","station":"住宅"}},{"type":"Feature","geometry":{"type":"Point","coordinates":[139.80073,36.29772]},"properties":{"price":58100,"use":"小山","zone":"","station":"住宅"}},{"type":"Feature","geometry":{"type":"Point","coordinates":[139.80767,36.3231]},"properties":{"price":53700,"use":"小山","zone":"","station":"店舗兼倉庫"}},{"type":"Feature","geometry":{"type":"Point","coordinates":[139.80708,36.2954]},"properties":{"price":79600,"use":"小山","zone":"","station":"店舗"}},{"type":"Feature","geometry":{"type":"Point","coordinates":[139.81154,36.31009]},"properties":{"price":90300,"use":"小山","zone":"","station":"事務所"}},{"type":"Feature","geometry":{"type":"Point","coordinates":[139.81145,36.29959]},"properties":{"price":64600,"use":"小山","zone":"","station":"店舗"}},{"type":"Feature","geometry":{"type":"Point","coordinates":[139.82021,36.34024]},"properties":{"price":39300,"use":"小山","zone":"","station":"店舗兼事務所、工場"}},{"type":"Feature","geometry":{"type":"Point","coordinates":[139.78817,36.2985]},"properties":{"price":53000,"use":"小山","zone":"","station":"店舗兼共同住宅"}},{"type":"Feature","geometry":{"type":"Point","coordinates":[139.80185,36.29539]},"properties":{"price":69500,"use":"小山","zone":"","station":"店舗"}},{"type":"Feature","geometry":{"type":"Point","coordinates":[139.78695,36.28606]},"properties":{"price":18000,"use":"小山","zone":"","station":"事務所兼倉庫"}},{"type":"Feature","geometry":{"type":"Point","coordinates":[139.83068,36.28893]},"properties":{"price":19200,"use":"小山","zone":"","station":"工場"}},{"type":"Feature","geometry":{"type":"Point","coordinates":[139.84852,36.34923]},"properties":{"price":17200,"use":"小山","zone":"","station":"工場兼事務所"}},{"type":"Feature","geometry":{"type":"Point","coordinates":[139.82576,36.32606]},"properties":{"price":28100,"use":"小山","zone":"","station":"工場兼事務所"}},{"type":"Feature","geometry":{"type":"Point","coordinates":[139.99294,36.441]},"properties":{"price":35100,"use":"真岡","zone":"","station":"住宅"}},{"type":"Feature","geometry":{"type":"Point","coordinates":[140.0063,36.4424]},"properties":{"price":28500,"use":"真岡","zone":"","station":"住宅"}},{"type":"Feature","geometry":{"type":"Point","coordinates":[139.96715,36.43834]},"properties":{"price":29500,"use":"真岡","zone":"","station":"住宅"}},{"type":"Feature","geometry":{"type":"Point","coordinates":[140.01721,36.44758]},"properties":{"price":34900,"use":"真岡","zone":"","station":"住宅"}},{"type":"Feature","geometry":{"type":"Point","coordinates":[139.9999,36.4447]},"properties":{"price":36100,"use":"真岡","zone":"","station":"住宅"}},{"type":"Feature","geometry":{"type":"Point","coordinates":[139.9912,36.43564]},"properties":{"price":33100,"use":"真岡","zone":"","station":"住宅"}},{"type":"Feature","geometry":{"type":"Point","coordinates":[139.99478,36.43532]},"properties":{"price":29800,"use":"真岡","zone":"","station":"住宅"}},{"type":"Feature","geometry":{"type":"Point","coordinates":[140.00838,36.43527]},"properties":{"price":30100,"use":"真岡","zone":"","station":"住宅"}},{"type":"Feature","geometry":{"type":"Point","coordinates":[139.97089,36.37774]},"properties":{"price":20100,"use":"真岡","zone":"","station":"住宅"}},{"type":"Feature","geometry":{"type":"Point","coordinates":[139.99055,36.42736]},"properties":{"price":24800,"use":"真岡","zone":"","station":"住宅"}},{"type":"Feature","geometry":{"type":"Point","coordinates":[139.96505,36.37781]},"properties":{"price":23100,"use":"真岡","zone":"","station":"住宅"}},{"type":"Feature","geometry":{"type":"Point","coordinates":[139.9656,36.37165]},"properties":{"price":19100,"use":"真岡","zone":"","station":"住宅"}},{"type":"Feature","geometry":{"type":"Point","coordinates":[140.01556,36.40213]},"properties":{"price":10500,"use":"真岡","zone":"","station":"住宅"}},{"type":"Feature","geometry":{"type":"Point","coordinates":[139.97125,36.38951]},"properties":{"price":11900,"use":"真岡","zone":"","station":"住宅"}},{"type":"Feature","geometry":{"type":"Point","coordinates":[139.97381,36.4803]},"properties":{"price":11200,"use":"真岡","zone":"","station":"住宅"}},{"type":"Feature","geometry":{"type":"Point","coordinates":[140.04212,36.48683]},"properties":{"price":9760,"use":"真岡","zone":"","station":"住宅"}},{"type":"Feature","geometry":{"type":"Point","coordinates":[139.95551,36.4221]},"properties":{"price":12400,"use":"真岡","zone":"","station":"住宅"}},{"type":"Feature","geometry":{"type":"Point","coordinates":[140.04832,36.45436]},"properties":{"price":12300,"use":"真岡","zone":"","station":"住宅"}},{"type":"Feature","geometry":{"type":"Point","coordinates":[140.0221,36.44377]},"properties":{"price":33200,"use":"真岡","zone":"","station":"住宅"}},{"type":"Feature","geometry":{"type":"Point","coordinates":[140.01082,36.44173]},"properties":{"price":39100,"use":"真岡","zone":"","station":"店舗兼住宅"}},{"type":"Feature","geometry":{"type":"Point","coordinates":[140.0022,36.44298]},"properties":{"price":39600,"use":"真岡","zone":"","station":"店舗"}},{"type":"Feature","geometry":{"type":"Point","coordinates":[139.99811,36.43381]},"properties":{"price":42200,"use":"真岡","zone":"","station":"店舗"}},{"type":"Feature","geometry":{"type":"Point","coordinates":[139.99069,36.44117]},"properties":{"price":36700,"use":"真岡","zone":"","station":"事務所"}},{"type":"Feature","geometry":{"type":"Point","coordinates":[139.96683,36.41712]},"properties":{"price":17900,"use":"真岡","zone":"","station":"工場"}},{"type":"Feature","geometry":{"type":"Point","coordinates":[140.02189,36.8705]},"properties":{"price":28700,"use":"大田原","zone":"","station":"住宅"}},{"type":"Feature","geometry":{"type":"Point","coordinates":[140.01009,36.85947]},"properties":{"price":26900,"use":"大田原","zone":"","station":"住宅"}},{"type":"Feature","geometry":{"type":"Point","coordinates":[140.01854,36.87619]},"properties":{"price":25700,"use":"大田原","zone":"","station":"住宅"}},{"type":"Feature","geometry":{"type":"Point","coordinates":[140.01039,36.86597]},"properties":{"price":25700,"use":"大田原","zone":"","station":"住宅"}},{"type":"Feature","geometry":{"type":"Point","coordinates":[139.95538,36.8462]},"properties":{"price":18900,"use":"大田原","zone":"","station":"住宅"}},{"type":"Feature","geometry":{"type":"Point","coordinates":[140.02434,36.86501]},"properties":{"price":31800,"use":"大田原","zone":"","station":"店舗兼住宅"}},{"type":"Feature","geometry":{"type":"Point","coordinates":[140.02743,36.86711]},"properties":{"price":33200,"use":"大田原","zone":"","station":"店舗兼住宅"}},{"type":"Feature","geometry":{"type":"Point","coordinates":[139.92727,36.80294]},"properties":{"price":24700,"use":"矢板","zone":"","station":"住宅"}},{"type":"Feature","geometry":{"type":"Point","coordinates":[139.92585,36.81258]},"properties":{"price":20600,"use":"矢板","zone":"","station":"住宅"}},{"type":"Feature","geometry":{"type":"Point","coordinates":[139.94631,36.81019]},"properties":{"price":15500,"use":"矢板","zone":"","station":"住宅"}},{"type":"Feature","geometry":{"type":"Point","coordinates":[139.93024,36.80964]},"properties":{"price":30400,"use":"矢板","zone":"","station":"店舗兼住宅"}},{"type":"Feature","geometry":{"type":"Point","coordinates":[139.93536,36.8054]},"properties":{"price":40700,"use":"矢板","zone":"","station":"店舗兼共同住宅"}},{"type":"Feature","geometry":{"type":"Point","coordinates":[140.0535,36.97547]},"properties":{"price":26300,"use":"那須塩原","zone":"","station":"住宅"}},{"type":"Feature","geometry":{"type":"Point","coordinates":[140.0342,36.97737]},"properties":{"price":18000,"use":"那須塩原","zone":"","station":"住宅"}},{"type":"Feature","geometry":{"type":"Point","coordinates":[140.0627,36.96936]},"properties":{"price":21700,"use":"那須塩原","zone":"","station":"住宅"}},{"type":"Feature","geometry":{"type":"Point","coordinates":[140.04238,36.96955]},"properties":{"price":19700,"use":"那須塩原","zone":"","station":"住宅"}},{"type":"Feature","geometry":{"type":"Point","coordinates":[139.9948,36.88001]},"properties":{"price":28400,"use":"那須塩原","zone":"","station":"住宅"}},{"type":"Feature","geometry":{"type":"Point","coordinates":[139.99126,36.89598]},"properties":{"price":24000,"use":"那須塩原","zone":"","station":"住宅"}},{"type":"Feature","geometry":{"type":"Point","coordinates":[139.80536,36.97844]},"properties":{"price":15200,"use":"那須塩原","zone":"","station":"住宅"}},{"type":"Feature","geometry":{"type":"Point","coordinates":[139.90305,36.94407]},"properties":{"price":12900,"use":"那須塩原","zone":"","station":"住宅"}},{"type":"Feature","geometry":{"type":"Point","coordinates":[140.05695,36.96939]},"properties":{"price":31100,"use":"那須塩原","zone":"","station":"空地"}},{"type":"Feature","geometry":{"type":"Point","coordinates":[140.02179,36.93114]},"properties":{"price":39500,"use":"那須塩原","zone":"","station":"店舗兼住宅"}},{"type":"Feature","geometry":{"type":"Point","coordinates":[139.98623,36.88545]},"properties":{"price":42800,"use":"那須塩原","zone":"","station":"店舗兼住宅"}},{"type":"Feature","geometry":{"type":"Point","coordinates":[139.81963,36.97123]},"properties":{"price":28200,"use":"那須塩原","zone":"","station":"店舗兼住宅"}},{"type":"Feature","geometry":{"type":"Point","coordinates":[139.95403,36.68699]},"properties":{"price":32200,"use":"さくら","zone":"","station":"住宅"}},{"type":"Feature","geometry":{"type":"Point","coordinates":[139.99009,36.68757]},"properties":{"price":19800,"use":"さくら","zone":"","station":"住宅"}},{"type":"Feature","geometry":{"type":"Point","coordinates":[140.02052,36.72247]},"properties":{"price":17400,"use":"さくら","zone":"","station":"住宅"}},{"type":"Feature","geometry":{"type":"Point","coordinates":[140.03002,36.70985]},"properties":{"price":11100,"use":"さくら","zone":"","station":"住宅"}},{"type":"Feature","geometry":{"type":"Point","coordinates":[139.95952,36.67972]},"properties":{"price":55400,"use":"さくら","zone":"","station":"店舗"}},{"type":"Feature","geometry":{"type":"Point","coordinates":[140.02595,36.71795]},"properties":{"price":26600,"use":"さくら","zone":"","station":"店舗兼住宅"}},{"type":"Feature","geometry":{"type":"Point","coordinates":[140.10004,36.65805]},"properties":{"price":12300,"use":"那須烏山","zone":"","station":"住宅"}},{"type":"Feature","geometry":{"type":"Point","coordinates":[140.06125,36.65841]},"properties":{"price":10800,"use":"那須烏山","zone":"","station":"住宅"}},{"type":"Feature","geometry":{"type":"Point","coordinates":[140.15099,36.65548]},"properties":{"price":15800,"use":"那須烏山","zone":"","station":"住宅"}},{"type":"Feature","geometry":{"type":"Point","coordinates":[140.15632,36.69358]},"properties":{"price":8470,"use":"那須烏山","zone":"","station":"住宅"}},{"type":"Feature","geometry":{"type":"Point","coordinates":[140.09577,36.65809]},"properties":{"price":19900,"use":"那須烏山","zone":"","station":"店舗兼住宅"}},{"type":"Feature","geometry":{"type":"Point","coordinates":[140.1537,36.65641]},"properties":{"price":23600,"use":"那須烏山","zone":"","station":"店舗兼住宅"}},{"type":"Feature","geometry":{"type":"Point","coordinates":[139.85881,36.38543]},"properties":{"price":87100,"use":"下野","zone":"","station":"住宅"}},{"type":"Feature","geometry":{"type":"Point","coordinates":[139.85557,36.36063]},"properties":{"price":13000,"use":"下野","zone":"","station":"住宅"}},{"type":"Feature","geometry":{"type":"Point","coordinates":[139.86264,36.39044]},"properties":{"price":99100,"use":"下野","zone":"","station":"住宅"}},{"type":"Feature","geometry":{"type":"Point","coordinates":[139.85885,36.44374]},"properties":{"price":51600,"use":"下野","zone":"","station":"住宅"}},{"type":"Feature","geometry":{"type":"Point","coordinates":[139.85194,36.43664]},"properties":{"price":35700,"use":"下野","zone":"","station":"住宅"}},{"type":"Feature","geometry":{"type":"Point","coordinates":[139.86084,36.43392]},"properties":{"price":36000,"use":"下野","zone":"","station":"住宅"}},{"type":"Feature","geometry":{"type":"Point","coordinates":[139.85816,36.43703]},"properties":{"price":46700,"use":"下野","zone":"","station":"住宅"}},{"type":"Feature","geometry":{"type":"Point","coordinates":[139.83975,36.38581]},"properties":{"price":47100,"use":"下野","zone":"","station":"住宅"}},{"type":"Feature","geometry":{"type":"Point","coordinates":[139.85962,36.42908]},"properties":{"price":38900,"use":"下野","zone":"","station":"住宅"}},{"type":"Feature","geometry":{"type":"Point","coordinates":[139.84197,36.37685]},"properties":{"price":39000,"use":"下野","zone":"","station":"住宅"}},{"type":"Feature","geometry":{"type":"Point","coordinates":[139.84187,36.36954]},"properties":{"price":34100,"use":"下野","zone":"","station":"住宅"}},{"type":"Feature","geometry":{"type":"Point","coordinates":[139.84453,36.38095]},"properties":{"price":36600,"use":"下野","zone":"","station":"住宅"}},{"type":"Feature","geometry":{"type":"Point","coordinates":[139.87699,36.39737]},"properties":{"price":20400,"use":"下野","zone":"","station":"住宅"}},{"type":"Feature","geometry":{"type":"Point","coordinates":[139.89821,36.37091]},"properties":{"price":11600,"use":"下野","zone":"","station":"住宅"}},{"type":"Feature","geometry":{"type":"Point","coordinates":[139.85166,36.42389]},"properties":{"price":15400,"use":"下野","zone":"","station":"住宅"}},{"type":"Feature","geometry":{"type":"Point","coordinates":[139.87467,36.37687]},"properties":{"price":37100,"use":"下野","zone":"","station":"住宅"}},{"type":"Feature","geometry":{"type":"Point","coordinates":[139.86452,36.43692]},"properties":{"price":55100,"use":"下野","zone":"","station":"事務所"}},{"type":"Feature","geometry":{"type":"Point","coordinates":[139.85811,36.41908]},"properties":{"price":17900,"use":"下野","zone":"","station":"事務所兼工場"}},{"type":"Feature","geometry":{"type":"Point","coordinates":[139.91078,36.42764]},"properties":{"price":29400,"use":"上三川","zone":"","station":"住宅"}},{"type":"Feature","geometry":{"type":"Point","coordinates":[139.91691,36.43534]},"properties":{"price":30200,"use":"上三川","zone":"","station":"住宅"}},{"type":"Feature","geometry":{"type":"Point","coordinates":[139.90424,36.45442]},"properties":{"price":32100,"use":"上三川","zone":"","station":"住宅"}},{"type":"Feature","geometry":{"type":"Point","coordinates":[139.86876,36.42868]},"properties":{"price":29400,"use":"上三川","zone":"","station":"住宅"}},{"type":"Feature","geometry":{"type":"Point","coordinates":[139.9154,36.44256]},"properties":{"price":42100,"use":"上三川","zone":"","station":"住宅"}},{"type":"Feature","geometry":{"type":"Point","coordinates":[139.88504,36.42766]},"properties":{"price":12800,"use":"上三川","zone":"","station":"住宅"}},{"type":"Feature","geometry":{"type":"Point","coordinates":[139.93914,36.45902]},"properties":{"price":12000,"use":"上三川","zone":"","station":"住宅"}},{"type":"Feature","geometry":{"type":"Point","coordinates":[139.91309,36.43315]},"properties":{"price":42100,"use":"上三川","zone":"","station":"店舗、事務所兼住宅"}},{"type":"Feature","geometry":{"type":"Point","coordinates":[140.09362,36.46436]},"properties":{"price":20500,"use":"益子","zone":"","station":"住宅"}},{"type":"Feature","geometry":{"type":"Point","coordinates":[140.07665,36.47605]},"properties":{"price":14700,"use":"益子","zone":"","station":"住宅"}},{"type":"Feature","geometry":{"type":"Point","coordinates":[140.09312,36.46296]},"properties":{"price":23600,"use":"益子","zone":"","station":"店舗兼住宅"}},{"type":"Feature","geometry":{"type":"Point","coordinates":[140.19395,36.53058]},"properties":{"price":15600,"use":"茂木","zone":"","station":"住宅"}},{"type":"Feature","geometry":{"type":"Point","coordinates":[140.1572,36.53188]},"properties":{"price":10500,"use":"茂木","zone":"","station":"住宅"}},{"type":"Feature","geometry":{"type":"Point","coordinates":[140.18241,36.53095]},"properties":{"price":23600,"use":"茂木","zone":"","station":"店舗"}},{"type":"Feature","geometry":{"type":"Point","coordinates":[140.10336,36.53971]},"properties":{"price":18300,"use":"市貝","zone":"","station":"住宅"}},{"type":"Feature","geometry":{"type":"Point","coordinates":[140.05885,36.50709]},"properties":{"price":17600,"use":"市貝","zone":"","station":"住宅"}},{"type":"Feature","geometry":{"type":"Point","coordinates":[140.06419,36.542]},"properties":{"price":20400,"use":"市貝","zone":"","station":"店舗"}},{"type":"Feature","geometry":{"type":"Point","coordinates":[140.06022,36.5511]},"properties":{"price":23400,"use":"芳賀","zone":"","station":"住宅"}},{"type":"Feature","geometry":{"type":"Point","coordinates":[140.06828,36.56903]},"properties":{"price":10700,"use":"芳賀","zone":"","station":"住宅"}},{"type":"Feature","geometry":{"type":"Point","coordinates":[140.00693,36.54614]},"properties":{"price":19500,"use":"芳賀","zone":"","station":"住宅"}},{"type":"Feature","geometry":{"type":"Point","coordinates":[140.00769,36.56327]},"properties":{"price":17400,"use":"芳賀","zone":"","station":"工場兼事務所"}},{"type":"Feature","geometry":{"type":"Point","coordinates":[139.83513,36.4604]},"properties":{"price":40100,"use":"壬生","zone":"","station":"住宅"}},{"type":"Feature","geometry":{"type":"Point","coordinates":[139.80031,36.43209]},"properties":{"price":35500,"use":"壬生","zone":"","station":"住宅"}},{"type":"Feature","geometry":{"type":"Point","coordinates":[139.82897,36.46162]},"properties":{"price":40100,"use":"壬生","zone":"","station":"住宅"}},{"type":"Feature","geometry":{"type":"Point","coordinates":[139.83146,36.46707]},"properties":{"price":42500,"use":"壬生","zone":"","station":"住宅"}},{"type":"Feature","geometry":{"type":"Point","coordinates":[139.83034,36.48331]},"properties":{"price":34800,"use":"壬生","zone":"","station":"住宅"}},{"type":"Feature","geometry":{"type":"Point","coordinates":[139.80805,36.42391]},"properties":{"price":35800,"use":"壬生","zone":"","station":"住宅"}},{"type":"Feature","geometry":{"type":"Point","coordinates":[139.79974,36.42339]},"properties":{"price":32800,"use":"壬生","zone":"","station":"住宅"}},{"type":"Feature","geometry":{"type":"Point","coordinates":[139.81966,36.45379]},"properties":{"price":36400,"use":"壬生","zone":"","station":"住宅"}},{"type":"Feature","geometry":{"type":"Point","coordinates":[139.81396,36.43174]},"properties":{"price":13800,"use":"壬生","zone":"","station":"住宅"}},{"type":"Feature","geometry":{"type":"Point","coordinates":[139.7751,36.45475]},"properties":{"price":15000,"use":"壬生","zone":"","station":"住宅"}},{"type":"Feature","geometry":{"type":"Point","coordinates":[139.82568,36.4989]},"properties":{"price":14500,"use":"壬生","zone":"","station":"住宅"}},{"type":"Feature","geometry":{"type":"Point","coordinates":[139.82765,36.46896]},"properties":{"price":43000,"use":"壬生","zone":"","station":"店舗兼住宅"}},{"type":"Feature","geometry":{"type":"Point","coordinates":[139.73487,36.22919]},"properties":{"price":43000,"use":"野木","zone":"","station":"住宅"}},{"type":"Feature","geometry":{"type":"Point","coordinates":[139.74122,36.23756]},"properties":{"price":32900,"use":"野木","zone":"","station":"住宅"}},{"type":"Feature","geometry":{"type":"Point","coordinates":[139.7182,36.23182]},"properties":{"price":23800,"use":"野木","zone":"","station":"住宅"}},{"type":"Feature","geometry":{"type":"Point","coordinates":[139.7237,36.23584]},"properties":{"price":32500,"use":"野木","zone":"","station":"住宅"}},{"type":"Feature","geometry":{"type":"Point","coordinates":[139.73362,36.22355]},"properties":{"price":39700,"use":"野木","zone":"","station":"住宅"}},{"type":"Feature","geometry":{"type":"Point","coordinates":[139.708,36.21117]},"properties":{"price":21900,"use":"野木","zone":"","station":"住宅"}},{"type":"Feature","geometry":{"type":"Point","coordinates":[139.73583,36.23023]},"properties":{"price":51000,"use":"野木","zone":"","station":"店舗兼住宅"}},{"type":"Feature","geometry":{"type":"Point","coordinates":[139.72499,36.2143]},"properties":{"price":17600,"use":"野木","zone":"","station":"工場"}},{"type":"Feature","geometry":{"type":"Point","coordinates":[139.84996,36.77338]},"properties":{"price":15700,"use":"塩谷","zone":"","station":"住宅"}},{"type":"Feature","geometry":{"type":"Point","coordinates":[139.89328,36.75657]},"properties":{"price":8700,"use":"塩谷","zone":"","station":"住宅"}},{"type":"Feature","geometry":{"type":"Point","coordinates":[139.9745,36.63339]},"properties":{"price":31900,"use":"高根沢","zone":"","station":"住宅"}},{"type":"Feature","geometry":{"type":"Point","coordinates":[139.98866,36.62197]},"properties":{"price":52400,"use":"高根沢","zone":"","station":"住宅"}},{"type":"Feature","geometry":{"type":"Point","coordinates":[140.02882,36.65468]},"properties":{"price":23600,"use":"高根沢","zone":"","station":"住宅"}},{"type":"Feature","geometry":{"type":"Point","coordinates":[139.98746,36.62773]},"properties":{"price":42700,"use":"高根沢","zone":"","station":"住宅"}},{"type":"Feature","geometry":{"type":"Point","coordinates":[139.96567,36.63632]},"properties":{"price":12200,"use":"高根沢","zone":"","station":"住宅"}},{"type":"Feature","geometry":{"type":"Point","coordinates":[140.0311,36.59621]},"properties":{"price":13700,"use":"高根沢","zone":"","station":"住宅"}},{"type":"Feature","geometry":{"type":"Point","coordinates":[140.05631,36.64094]},"properties":{"price":8230,"use":"高根沢","zone":"","station":"住宅"}},{"type":"Feature","geometry":{"type":"Point","coordinates":[139.98964,36.61736]},"properties":{"price":55200,"use":"高根沢","zone":"","station":"店舗兼倉庫"}},{"type":"Feature","geometry":{"type":"Point","coordinates":[140.12163,37.02102]},"properties":{"price":15600,"use":"那須","zone":"","station":"住宅"}},{"type":"Feature","geometry":{"type":"Point","coordinates":[140.05788,36.98753]},"properties":{"price":11000,"use":"那須","zone":"","station":"住宅"}},{"type":"Feature","geometry":{"type":"Point","coordinates":[140.11948,37.02183]},"properties":{"price":24300,"use":"那須","zone":"","station":"事務所兼車庫"}},{"type":"Feature","geometry":{"type":"Point","coordinates":[140.15808,36.73899]},"properties":{"price":11200,"use":"栃木那珂川","zone":"","station":"住宅"}},{"type":"Feature","geometry":{"type":"Point","coordinates":[140.17376,36.7369]},"properties":{"price":12700,"use":"栃木那珂川","zone":"","station":"住宅"}},{"type":"Feature","geometry":{"type":"Point","coordinates":[140.16889,36.73706]},"properties":{"price":19700,"use":"栃木那珂川","zone":"","station":"店舗兼住宅"}}]}