{"type":"FeatureCollection","features":[{"type":"Feature","geometry":{"type":"Point","coordinates":[134.55974,34.06914]},"properties":{"price":139000,"use":"徳島","zone":"","station":"住宅"}},{"type":"Feature","geometry":{"type":"Point","coordinates":[134.54665,34.06215]},"properties":{"price":112000,"use":"徳島","zone":"","station":"住宅"}},{"type":"Feature","geometry":{"type":"Point","coordinates":[134.55706,34.08175]},"properties":{"price":127000,"use":"徳島","zone":"","station":"住宅"}},{"type":"Feature","geometry":{"type":"Point","coordinates":[134.56416,34.0804]},"properties":{"price":113000,"use":"徳島","zone":"","station":"住宅"}},{"type":"Feature","geometry":{"type":"Point","coordinates":[134.56504,34.05495]},"properties":{"price":83300,"use":"徳島","zone":"","station":"住宅"}},{"type":"Feature","geometry":{"type":"Point","coordinates":[134.56115,34.04957]},"properties":{"price":118000,"use":"徳島","zone":"","station":"住宅"}},{"type":"Feature","geometry":{"type":"Point","coordinates":[134.56472,34.07392]},"properties":{"price":87600,"use":"徳島","zone":"","station":"住宅"}},{"type":"Feature","geometry":{"type":"Point","coordinates":[134.54034,34.08023]},"properties":{"price":94500,"use":"徳島","zone":"","station":"住宅"}},{"type":"Feature","geometry":{"type":"Point","coordinates":[134.55435,34.0644]},"properties":{"price":112000,"use":"徳島","zone":"","station":"住宅"}},{"type":"Feature","geometry":{"type":"Point","coordinates":[134.51358,34.07267]},"properties":{"price":68100,"use":"徳島","zone":"","station":"住宅"}},{"type":"Feature","geometry":{"type":"Point","coordinates":[134.55368,34.08998]},"properties":{"price":83300,"use":"徳島","zone":"","station":"住宅"}},{"type":"Feature","geometry":{"type":"Point","coordinates":[134.57656,34.06706]},"properties":{"price":78000,"use":"徳島","zone":"","station":"住宅"}},{"type":"Feature","geometry":{"type":"Point","coordinates":[134.58225,34.05066]},"properties":{"price":38500,"use":"徳島","zone":"","station":"住宅"}},{"type":"Feature","geometry":{"type":"Point","coordinates":[134.56354,34.04459]},"properties":{"price":67800,"use":"徳島","zone":"","station":"住宅"}},{"type":"Feature","geometry":{"type":"Point","coordinates":[134.56461,34.03415]},"properties":{"price":43600,"use":"徳島","zone":"","station":"住宅"}},{"type":"Feature","geometry":{"type":"Point","coordinates":[134.54905,34.02617]},"properties":{"price":50500,"use":"徳島","zone":"","station":"住宅"}},{"type":"Feature","geometry":{"type":"Point","coordinates":[134.52898,34.04416]},"properties":{"price":61400,"use":"徳島","zone":"","station":"住宅"}},{"type":"Feature","geometry":{"type":"Point","coordinates":[134.55893,34.05817]},"properties":{"price":93500,"use":"徳島","zone":"","station":"住宅"}},{"type":"Feature","geometry":{"type":"Point","coordinates":[134.51772,34.08891]},"properties":{"price":62000,"use":"徳島","zone":"","station":"住宅"}},{"type":"Feature","geometry":{"type":"Point","coordinates":[134.49359,34.05915]},"properties":{"price":43700,"use":"徳島","zone":"","station":"住宅"}},{"type":"Feature","geometry":{"type":"Point","coordinates":[134.51017,34.08336]},"properties":{"price":52700,"use":"徳島","zone":"","station":"住宅"}},{"type":"Feature","geometry":{"type":"Point","coordinates":[134.56312,34.10577]},"properties":{"price":48300,"use":"徳島","zone":"","station":"住宅"}},{"type":"Feature","geometry":{"type":"Point","coordinates":[134.58132,34.07024]},"properties":{"price":60400,"use":"徳島","zone":"","station":"住宅"}},{"type":"Feature","geometry":{"type":"Point","coordinates":[134.55193,34.07853]},"properties":{"price":153000,"use":"徳島","zone":"","station":"住宅"}},{"type":"Feature","geometry":{"type":"Point","coordinates":[134.54037,34.05431]},"properties":{"price":71200,"use":"徳島","zone":"","station":"住宅"}},{"type":"Feature","geometry":{"type":"Point","coordinates":[134.52384,34.08201]},"properties":{"price":69600,"use":"徳島","zone":"","station":"住宅"}},{"type":"Feature","geometry":{"type":"Point","coordinates":[134.5221,34.07642]},"properties":{"price":90000,"use":"徳島","zone":"","station":"住宅"}},{"type":"Feature","geometry":{"type":"Point","coordinates":[134.48969,34.07153]},"properties":{"price":44900,"use":"徳島","zone":"","station":"住宅"}},{"type":"Feature","geometry":{"type":"Point","coordinates":[134.57135,34.11692]},"properties":{"price":48100,"use":"徳島","zone":"","station":"住宅"}},{"type":"Feature","geometry":{"type":"Point","coordinates":[134.54531,34.07843]},"properties":{"price":113000,"use":"徳島","zone":"","station":"住宅"}},{"type":"Feature","geometry":{"type":"Point","coordinates":[134.54508,34.08501]},"properties":{"price":83600,"use":"徳島","zone":"","station":"住宅"}},{"type":"Feature","geometry":{"type":"Point","coordinates":[134.52492,34.11366]},"properties":{"price":27600,"use":"徳島","zone":"","station":"住宅"}},{"type":"Feature","geometry":{"type":"Point","coordinates":[134.53663,33.99337]},"properties":{"price":21200,"use":"徳島","zone":"","station":"住宅"}},{"type":"Feature","geometry":{"type":"Point","coordinates":[134.50716,34.0373]},"properties":{"price":27000,"use":"徳島","zone":"","station":"住宅"}},{"type":"Feature","geometry":{"type":"Point","coordinates":[134.44283,34.04135]},"properties":{"price":13500,"use":"徳島","zone":"","station":"住宅"}},{"type":"Feature","geometry":{"type":"Point","coordinates":[134.47949,34.08913]},"properties":{"price":30000,"use":"徳島","zone":"","station":"住宅"}},{"type":"Feature","geometry":{"type":"Point","coordinates":[134.57517,34.06102]},"properties":{"price":80500,"use":"徳島","zone":"","station":"住宅"}},{"type":"Feature","geometry":{"type":"Point","coordinates":[134.55735,34.02407]},"properties":{"price":31000,"use":"徳島","zone":"","station":"住宅"}},{"type":"Feature","geometry":{"type":"Point","coordinates":[134.58209,34.10819]},"properties":{"price":43800,"use":"徳島","zone":"","station":"住宅"}},{"type":"Feature","geometry":{"type":"Point","coordinates":[134.56647,34.06739]},"properties":{"price":80800,"use":"徳島","zone":"","station":"住宅"}},{"type":"Feature","geometry":{"type":"Point","coordinates":[134.56175,34.07995]},"properties":{"price":145000,"use":"徳島","zone":"","station":"共同住宅"}},{"type":"Feature","geometry":{"type":"Point","coordinates":[134.53804,34.04863]},"properties":{"price":68000,"use":"徳島","zone":"","station":"住宅"}},{"type":"Feature","geometry":{"type":"Point","coordinates":[134.55107,34.07323]},"properties":{"price":368000,"use":"徳島","zone":"","station":"店舗"}},{"type":"Feature","geometry":{"type":"Point","coordinates":[134.55199,34.07014]},"properties":{"price":182000,"use":"徳島","zone":"","station":"店舗兼共同住宅"}},{"type":"Feature","geometry":{"type":"Point","coordinates":[134.56612,34.05974]},"properties":{"price":104000,"use":"徳島","zone":"","station":"店舗兼共同住宅"}},{"type":"Feature","geometry":{"type":"Point","coordinates":[134.54685,34.07237]},"properties":{"price":138000,"use":"徳島","zone":"","station":"事務所"}},{"type":"Feature","geometry":{"type":"Point","coordinates":[134.55781,34.06881]},"properties":{"price":207000,"use":"徳島","zone":"","station":"事務所"}},{"type":"Feature","geometry":{"type":"Point","coordinates":[134.54634,34.06939]},"properties":{"price":157000,"use":"徳島","zone":"","station":"事務所"}},{"type":"Feature","geometry":{"type":"Point","coordinates":[134.5387,34.07982]},"properties":{"price":105000,"use":"徳島","zone":"","station":"店舗兼住宅"}},{"type":"Feature","geometry":{"type":"Point","coordinates":[134.55867,34.07955]},"properties":{"price":156000,"use":"徳島","zone":"","station":"店舗"}},{"type":"Feature","geometry":{"type":"Point","coordinates":[134.56581,34.07071]},"properties":{"price":122000,"use":"徳島","zone":"","station":"店舗兼住宅"}},{"type":"Feature","geometry":{"type":"Point","coordinates":[134.53248,34.07833]},"properties":{"price":111000,"use":"徳島","zone":"","station":"診療所兼住宅"}},{"type":"Feature","geometry":{"type":"Point","coordinates":[134.54747,34.06292]},"properties":{"price":111000,"use":"徳島","zone":"","station":"店舗兼住宅"}},{"type":"Feature","geometry":{"type":"Point","coordinates":[134.54642,34.05535]},"properties":{"price":113000,"use":"徳島","zone":"","station":"店舗兼住宅"}},{"type":"Feature","geometry":{"type":"Point","coordinates":[134.5516,34.07176]},"properties":{"price":252000,"use":"徳島","zone":"","station":"事務所"}},{"type":"Feature","geometry":{"type":"Point","coordinates":[134.57441,34.08076]},"properties":{"price":106000,"use":"徳島","zone":"","station":"店舗兼住宅"}},{"type":"Feature","geometry":{"type":"Point","coordinates":[134.58406,34.06726]},"properties":{"price":96200,"use":"徳島","zone":"","station":"店舗兼共同住宅"}},{"type":"Feature","geometry":{"type":"Point","coordinates":[134.51044,34.08093]},"properties":{"price":100000,"use":"徳島","zone":"","station":"事務所"}},{"type":"Feature","geometry":{"type":"Point","coordinates":[134.50907,34.1165]},"properties":{"price":61000,"use":"徳島","zone":"","station":"店舗"}},{"type":"Feature","geometry":{"type":"Point","coordinates":[134.58836,34.04816]},"properties":{"price":19200,"use":"徳島","zone":"","station":"工場"}},{"type":"Feature","geometry":{"type":"Point","coordinates":[134.58239,34.12232]},"properties":{"price":25000,"use":"徳島","zone":"","station":"倉庫兼事務所"}},{"type":"Feature","geometry":{"type":"Point","coordinates":[134.57655,34.03645]},"properties":{"price":31700,"use":"徳島","zone":"","station":"倉庫"}},{"type":"Feature","geometry":{"type":"Point","coordinates":[134.6138,34.18202]},"properties":{"price":34500,"use":"鳴門","zone":"","station":"住宅"}},{"type":"Feature","geometry":{"type":"Point","coordinates":[134.62692,34.211]},"properties":{"price":13700,"use":"鳴門","zone":"","station":"住宅"}},{"type":"Feature","geometry":{"type":"Point","coordinates":[134.605,34.1686]},"properties":{"price":40200,"use":"鳴門","zone":"","station":"住宅"}},{"type":"Feature","geometry":{"type":"Point","coordinates":[134.62605,34.17057]},"properties":{"price":23800,"use":"鳴門","zone":"","station":"住宅"}},{"type":"Feature","geometry":{"type":"Point","coordinates":[134.60053,34.19945]},"properties":{"price":18600,"use":"鳴門","zone":"","station":"住宅"}},{"type":"Feature","geometry":{"type":"Point","coordinates":[134.61596,34.17114]},"properties":{"price":47100,"use":"鳴門","zone":"","station":"住宅"}},{"type":"Feature","geometry":{"type":"Point","coordinates":[134.53802,34.16249]},"properties":{"price":21500,"use":"鳴門","zone":"","station":"住宅"}},{"type":"Feature","geometry":{"type":"Point","coordinates":[134.57631,34.16795]},"properties":{"price":31500,"use":"鳴門","zone":"","station":"住宅"}},{"type":"Feature","geometry":{"type":"Point","coordinates":[134.59992,34.18039]},"properties":{"price":38400,"use":"鳴門","zone":"","station":"住宅"}},{"type":"Feature","geometry":{"type":"Point","coordinates":[134.58279,34.20329]},"properties":{"price":22400,"use":"鳴門","zone":"","station":"住宅"}},{"type":"Feature","geometry":{"type":"Point","coordinates":[134.53061,34.15535]},"properties":{"price":16300,"use":"鳴門","zone":"","station":"住宅"}},{"type":"Feature","geometry":{"type":"Point","coordinates":[134.61118,34.15277]},"properties":{"price":16000,"use":"鳴門","zone":"","station":"住宅"}},{"type":"Feature","geometry":{"type":"Point","coordinates":[134.58693,34.21836]},"properties":{"price":16300,"use":"鳴門","zone":"","station":"住宅"}},{"type":"Feature","geometry":{"type":"Point","coordinates":[134.60506,34.18646]},"properties":{"price":38900,"use":"鳴門","zone":"","station":"住宅"}},{"type":"Feature","geometry":{"type":"Point","coordinates":[134.60744,34.17639]},"properties":{"price":57300,"use":"鳴門","zone":"","station":"診療所兼住宅"}},{"type":"Feature","geometry":{"type":"Point","coordinates":[134.60424,34.17694]},"properties":{"price":68200,"use":"鳴門","zone":"","station":"店舗兼住宅"}},{"type":"Feature","geometry":{"type":"Point","coordinates":[134.61976,34.17109]},"properties":{"price":17500,"use":"鳴門","zone":"","station":"工場"}},{"type":"Feature","geometry":{"type":"Point","coordinates":[134.58801,34.01548]},"properties":{"price":39900,"use":"小松島","zone":"","station":"住宅"}},{"type":"Feature","geometry":{"type":"Point","coordinates":[134.56998,34.01905]},"properties":{"price":35700,"use":"小松島","zone":"","station":"住宅"}},{"type":"Feature","geometry":{"type":"Point","coordinates":[134.61331,33.97814]},"properties":{"price":34900,"use":"小松島","zone":"","station":"住宅"}},{"type":"Feature","geometry":{"type":"Point","coordinates":[134.57938,34.00508]},"properties":{"price":37800,"use":"小松島","zone":"","station":"住宅"}},{"type":"Feature","geometry":{"type":"Point","coordinates":[134.59009,34.00299]},"properties":{"price":38500,"use":"小松島","zone":"","station":"住宅"}},{"type":"Feature","geometry":{"type":"Point","coordinates":[134.57823,34.01027]},"properties":{"price":39900,"use":"小松島","zone":"","station":"住宅"}},{"type":"Feature","geometry":{"type":"Point","coordinates":[134.55987,34.0108]},"properties":{"price":24300,"use":"小松島","zone":"","station":"住宅"}},{"type":"Feature","geometry":{"type":"Point","coordinates":[134.6365,33.9822]},"properties":{"price":15000,"use":"小松島","zone":"","station":"住宅"}},{"type":"Feature","geometry":{"type":"Point","coordinates":[134.59807,33.99646]},"properties":{"price":29100,"use":"小松島","zone":"","station":"住宅"}},{"type":"Feature","geometry":{"type":"Point","coordinates":[134.58416,34.01122]},"properties":{"price":51900,"use":"小松島","zone":"","station":"店舗兼住宅"}},{"type":"Feature","geometry":{"type":"Point","coordinates":[134.58913,34.01307]},"properties":{"price":23400,"use":"小松島","zone":"","station":"作業場"}},{"type":"Feature","geometry":{"type":"Point","coordinates":[134.65722,33.88825]},"properties":{"price":35100,"use":"阿南","zone":"","station":"住宅"}},{"type":"Feature","geometry":{"type":"Point","coordinates":[134.66947,33.92108]},"properties":{"price":51100,"use":"阿南","zone":"","station":"住宅"}},{"type":"Feature","geometry":{"type":"Point","coordinates":[134.68827,33.92428]},"properties":{"price":29100,"use":"阿南","zone":"","station":"住宅"}},{"type":"Feature","geometry":{"type":"Point","coordinates":[134.63451,33.87153]},"properties":{"price":20700,"use":"阿南","zone":"","station":"住宅"}},{"type":"Feature","geometry":{"type":"Point","coordinates":[134.66969,33.8982]},"properties":{"price":38600,"use":"阿南","zone":"","station":"住宅"}},{"type":"Feature","geometry":{"type":"Point","coordinates":[134.62565,33.94138]},"properties":{"price":34900,"use":"阿南","zone":"","station":"住宅"}},{"type":"Feature","geometry":{"type":"Point","coordinates":[134.66334,33.94528]},"properties":{"price":33000,"use":"阿南","zone":"","station":"住宅"}},{"type":"Feature","geometry":{"type":"Point","coordinates":[134.62643,33.96057]},"properties":{"price":48600,"use":"阿南","zone":"","station":"住宅"}},{"type":"Feature","geometry":{"type":"Point","coordinates":[134.6421,33.92375]},"properties":{"price":34700,"use":"阿南","zone":"","station":"住宅"}},{"type":"Feature","geometry":{"type":"Point","coordinates":[134.66244,33.92997]},"properties":{"price":19500,"use":"阿南","zone":"","station":"住宅"}},{"type":"Feature","geometry":{"type":"Point","coordinates":[134.67512,33.92224]},"properties":{"price":32300,"use":"阿南","zone":"","station":"住宅"}},{"type":"Feature","geometry":{"type":"Point","coordinates":[134.68676,33.90158]},"properties":{"price":14900,"use":"阿南","zone":"","station":"住宅"}},{"type":"Feature","geometry":{"type":"Point","coordinates":[134.67901,33.94425]},"properties":{"price":22000,"use":"阿南","zone":"","station":"住宅"}},{"type":"Feature","geometry":{"type":"Point","coordinates":[134.62863,33.95177]},"properties":{"price":51300,"use":"阿南","zone":"","station":"住宅"}},{"type":"Feature","geometry":{"type":"Point","coordinates":[134.65831,33.91779]},"properties":{"price":69100,"use":"阿南","zone":"","station":"事務所"}},{"type":"Feature","geometry":{"type":"Point","coordinates":[134.67015,33.91693]},"properties":{"price":61300,"use":"阿南","zone":"","station":"店舗"}},{"type":"Feature","geometry":{"type":"Point","coordinates":[134.66784,33.88343]},"properties":{"price":10100,"use":"阿南","zone":"","station":"工場兼倉庫"}},{"type":"Feature","geometry":{"type":"Point","coordinates":[134.36271,34.07151]},"properties":{"price":37400,"use":"吉野川","zone":"","station":"住宅"}},{"type":"Feature","geometry":{"type":"Point","coordinates":[134.35567,34.06092]},"properties":{"price":32300,"use":"吉野川","zone":"","station":"住宅"}},{"type":"Feature","geometry":{"type":"Point","coordinates":[134.35949,34.07644]},"properties":{"price":34400,"use":"吉野川","zone":"","station":"住宅"}},{"type":"Feature","geometry":{"type":"Point","coordinates":[134.15298,34.06653]},"properties":{"price":21600,"use":"美馬","zone":"","station":"住宅"}},{"type":"Feature","geometry":{"type":"Point","coordinates":[134.15908,34.07268]},"properties":{"price":20200,"use":"美馬","zone":"","station":"住宅"}},{"type":"Feature","geometry":{"type":"Point","coordinates":[134.15475,34.06469]},"properties":{"price":51100,"use":"美馬","zone":"","station":"店舗兼倉庫"}},{"type":"Feature","geometry":{"type":"Point","coordinates":[133.81216,34.02602]},"properties":{"price":37100,"use":"徳島三好","zone":"","station":"住宅"}},{"type":"Feature","geometry":{"type":"Point","coordinates":[133.80289,34.02601]},"properties":{"price":33500,"use":"徳島三好","zone":"","station":"住宅"}},{"type":"Feature","geometry":{"type":"Point","coordinates":[133.80669,34.02749]},"properties":{"price":48200,"use":"徳島三好","zone":"","station":"店舗兼車庫"}},{"type":"Feature","geometry":{"type":"Point","coordinates":[134.4586,34.07102]},"properties":{"price":32700,"use":"石井","zone":"","station":"住宅"}},{"type":"Feature","geometry":{"type":"Point","coordinates":[134.43652,34.06542]},"properties":{"price":34200,"use":"石井","zone":"","station":"住宅"}},{"type":"Feature","geometry":{"type":"Point","coordinates":[134.44208,34.0754]},"properties":{"price":32900,"use":"石井","zone":"","station":"住宅"}},{"type":"Feature","geometry":{"type":"Point","coordinates":[134.44166,34.06764]},"properties":{"price":60000,"use":"石井","zone":"","station":"店舗"}},{"type":"Feature","geometry":{"type":"Point","coordinates":[134.4184,33.66689]},"properties":{"price":16200,"use":"牟岐","zone":"","station":"住宅"}},{"type":"Feature","geometry":{"type":"Point","coordinates":[134.42522,33.66614]},"properties":{"price":15400,"use":"牟岐","zone":"","station":"住宅"}},{"type":"Feature","geometry":{"type":"Point","coordinates":[134.41954,33.67251]},"properties":{"price":29600,"use":"牟岐","zone":"","station":"診療所兼住宅"}},{"type":"Feature","geometry":{"type":"Point","coordinates":[134.53582,33.73304]},"properties":{"price":15300,"use":"美波","zone":"","station":"住宅"}},{"type":"Feature","geometry":{"type":"Point","coordinates":[134.53063,33.7311]},"properties":{"price":22300,"use":"美波","zone":"","station":"住宅"}},{"type":"Feature","geometry":{"type":"Point","coordinates":[134.53204,33.7319]},"properties":{"price":26600,"use":"美波","zone":"","station":"店舗兼住宅"}},{"type":"Feature","geometry":{"type":"Point","coordinates":[134.58159,34.13485]},"properties":{"price":49600,"use":"松茂","zone":"","station":"住宅"}},{"type":"Feature","geometry":{"type":"Point","coordinates":[134.59117,34.1274]},"properties":{"price":41100,"use":"松茂","zone":"","station":"住宅"}},{"type":"Feature","geometry":{"type":"Point","coordinates":[134.57368,34.13199]},"properties":{"price":41800,"use":"松茂","zone":"","station":"住宅"}},{"type":"Feature","geometry":{"type":"Point","coordinates":[134.58043,34.14692]},"properties":{"price":26400,"use":"松茂","zone":"","station":"住宅"}},{"type":"Feature","geometry":{"type":"Point","coordinates":[134.60492,34.13605]},"properties":{"price":21300,"use":"松茂","zone":"","station":"荷捌所、倉庫兼事務所"}},{"type":"Feature","geometry":{"type":"Point","coordinates":[134.53228,34.13014]},"properties":{"price":45300,"use":"北島","zone":"","station":"住宅"}},{"type":"Feature","geometry":{"type":"Point","coordinates":[134.54991,34.12318]},"properties":{"price":62000,"use":"北島","zone":"","station":"住宅"}},{"type":"Feature","geometry":{"type":"Point","coordinates":[134.55354,34.13389]},"properties":{"price":40300,"use":"北島","zone":"","station":"住宅"}},{"type":"Feature","geometry":{"type":"Point","coordinates":[134.54836,34.1239]},"properties":{"price":72000,"use":"北島","zone":"","station":"銀行"}},{"type":"Feature","geometry":{"type":"Point","coordinates":[134.55949,34.14093]},"properties":{"price":21400,"use":"北島","zone":"","station":"工場"}},{"type":"Feature","geometry":{"type":"Point","coordinates":[134.48981,34.1224]},"properties":{"price":49000,"use":"藍住","zone":"","station":"住宅"}},{"type":"Feature","geometry":{"type":"Point","coordinates":[134.50261,34.13169]},"properties":{"price":47400,"use":"藍住","zone":"","station":"住宅"}},{"type":"Feature","geometry":{"type":"Point","coordinates":[134.49341,34.11951]},"properties":{"price":49400,"use":"藍住","zone":"","station":"建築中"}},{"type":"Feature","geometry":{"type":"Point","coordinates":[134.49831,34.11799]},"properties":{"price":96100,"use":"藍住","zone":"","station":"店舗"}},{"type":"Feature","geometry":{"type":"Point","coordinates":[134.05796,34.04208]},"properties":{"price":23900,"use":"つるぎ","zone":"","station":"住宅"}},{"type":"Feature","geometry":{"type":"Point","coordinates":[134.07361,34.04465]},"properties":{"price":19100,"use":"つるぎ","zone":"","station":"住宅"}}]}