{"type":"FeatureCollection","features":[{"type":"Feature","geometry":{"type":"Point","coordinates":[130.71902,32.80406]},"properties":{"price":239000,"use":"熊本中央","zone":"","station":"住宅"}},{"type":"Feature","geometry":{"type":"Point","coordinates":[130.71358,32.81459]},"properties":{"price":98400,"use":"熊本中央","zone":"","station":"住宅"}},{"type":"Feature","geometry":{"type":"Point","coordinates":[130.7339,32.79375]},"properties":{"price":172000,"use":"熊本中央","zone":"","station":"住宅"}},{"type":"Feature","geometry":{"type":"Point","coordinates":[130.71783,32.7935]},"properties":{"price":107000,"use":"熊本中央","zone":"","station":"住宅"}},{"type":"Feature","geometry":{"type":"Point","coordinates":[130.70958,32.81174]},"properties":{"price":135000,"use":"熊本中央","zone":"","station":"空地"}},{"type":"Feature","geometry":{"type":"Point","coordinates":[130.69928,32.78888]},"properties":{"price":82900,"use":"熊本中央","zone":"","station":"住宅"}},{"type":"Feature","geometry":{"type":"Point","coordinates":[130.73414,32.77925]},"properties":{"price":84300,"use":"熊本中央","zone":"","station":"住宅"}},{"type":"Feature","geometry":{"type":"Point","coordinates":[130.74594,32.78549]},"properties":{"price":119000,"use":"熊本中央","zone":"","station":"住宅"}},{"type":"Feature","geometry":{"type":"Point","coordinates":[130.75142,32.80273]},"properties":{"price":95800,"use":"熊本中央","zone":"","station":"住宅"}},{"type":"Feature","geometry":{"type":"Point","coordinates":[130.72313,32.78461]},"properties":{"price":79800,"use":"熊本中央","zone":"","station":"住宅"}},{"type":"Feature","geometry":{"type":"Point","coordinates":[130.73276,32.80432]},"properties":{"price":120000,"use":"熊本中央","zone":"","station":"住宅"}},{"type":"Feature","geometry":{"type":"Point","coordinates":[130.72696,32.78934]},"properties":{"price":90000,"use":"熊本中央","zone":"","station":"住宅"}},{"type":"Feature","geometry":{"type":"Point","coordinates":[130.7318,32.811]},"properties":{"price":81500,"use":"熊本中央","zone":"","station":"住宅"}},{"type":"Feature","geometry":{"type":"Point","coordinates":[130.72491,32.82064]},"properties":{"price":63400,"use":"熊本中央","zone":"","station":"住宅"}},{"type":"Feature","geometry":{"type":"Point","coordinates":[130.70456,32.81489]},"properties":{"price":154000,"use":"熊本中央","zone":"","station":"住宅"}},{"type":"Feature","geometry":{"type":"Point","coordinates":[130.73847,32.79792]},"properties":{"price":150000,"use":"熊本中央","zone":"","station":"住宅"}},{"type":"Feature","geometry":{"type":"Point","coordinates":[130.72603,32.79747]},"properties":{"price":180000,"use":"熊本中央","zone":"","station":"住宅"}},{"type":"Feature","geometry":{"type":"Point","coordinates":[130.73817,32.79405]},"properties":{"price":171000,"use":"熊本中央","zone":"","station":"共同住宅"}},{"type":"Feature","geometry":{"type":"Point","coordinates":[130.73824,32.79067]},"properties":{"price":116000,"use":"熊本中央","zone":"","station":"住宅"}},{"type":"Feature","geometry":{"type":"Point","coordinates":[130.7063,32.78909]},"properties":{"price":70600,"use":"熊本中央","zone":"","station":"住宅"}},{"type":"Feature","geometry":{"type":"Point","coordinates":[130.73993,32.80468]},"properties":{"price":122000,"use":"熊本中央","zone":"","station":"住宅"}},{"type":"Feature","geometry":{"type":"Point","coordinates":[130.72121,32.79023]},"properties":{"price":119000,"use":"熊本中央","zone":"","station":"住宅"}},{"type":"Feature","geometry":{"type":"Point","coordinates":[130.72332,32.81071]},"properties":{"price":111000,"use":"熊本中央","zone":"","station":"住宅"}},{"type":"Feature","geometry":{"type":"Point","coordinates":[130.70819,32.80003]},"properties":{"price":1430000,"use":"熊本中央","zone":"","station":"店舗兼住宅"}},{"type":"Feature","geometry":{"type":"Point","coordinates":[130.71068,32.80448]},"properties":{"price":1250000,"use":"熊本中央","zone":"","station":"店舗"}},{"type":"Feature","geometry":{"type":"Point","coordinates":[130.70614,32.80096]},"properties":{"price":654000,"use":"熊本中央","zone":"","station":"店舗"}},{"type":"Feature","geometry":{"type":"Point","coordinates":[130.71227,32.81089]},"properties":{"price":152000,"use":"熊本中央","zone":"","station":"診療所"}},{"type":"Feature","geometry":{"type":"Point","coordinates":[130.69715,32.80371]},"properties":{"price":218000,"use":"熊本中央","zone":"","station":"診療所兼住宅"}},{"type":"Feature","geometry":{"type":"Point","coordinates":[130.70987,32.80049]},"properties":{"price":594000,"use":"熊本中央","zone":"","station":"店舗兼住宅"}},{"type":"Feature","geometry":{"type":"Point","coordinates":[130.70067,32.79639]},"properties":{"price":238000,"use":"熊本中央","zone":"","station":"専門学校兼保育園"}},{"type":"Feature","geometry":{"type":"Point","coordinates":[130.69668,32.79577]},"properties":{"price":252000,"use":"熊本中央","zone":"","station":"診療所"}},{"type":"Feature","geometry":{"type":"Point","coordinates":[130.71614,32.81158]},"properties":{"price":195000,"use":"熊本中央","zone":"","station":"診療所"}},{"type":"Feature","geometry":{"type":"Point","coordinates":[130.71403,32.806]},"properties":{"price":458000,"use":"熊本中央","zone":"","station":"事務所"}},{"type":"Feature","geometry":{"type":"Point","coordinates":[130.72915,32.79543]},"properties":{"price":208000,"use":"熊本中央","zone":"","station":"店舗、事務所兼住宅"}},{"type":"Feature","geometry":{"type":"Point","coordinates":[130.74002,32.7879]},"properties":{"price":181000,"use":"熊本中央","zone":"","station":"事務所"}},{"type":"Feature","geometry":{"type":"Point","coordinates":[130.70987,32.79192]},"properties":{"price":187000,"use":"熊本中央","zone":"","station":"店舗兼共同住宅"}},{"type":"Feature","geometry":{"type":"Point","coordinates":[130.70921,32.80246]},"properties":{"price":2400000,"use":"熊本中央","zone":"","station":"店舗"}},{"type":"Feature","geometry":{"type":"Point","coordinates":[130.76201,32.80579]},"properties":{"price":155000,"use":"熊本中央","zone":"","station":"診療所"}},{"type":"Feature","geometry":{"type":"Point","coordinates":[130.71282,32.80104]},"properties":{"price":548000,"use":"熊本中央","zone":"","station":"事務所"}},{"type":"Feature","geometry":{"type":"Point","coordinates":[130.70111,32.79949]},"properties":{"price":529000,"use":"熊本中央","zone":"","station":"事務所兼共同住宅"}},{"type":"Feature","geometry":{"type":"Point","coordinates":[130.71169,32.80726]},"properties":{"price":416000,"use":"熊本中央","zone":"","station":"店舗兼共同住宅"}},{"type":"Feature","geometry":{"type":"Point","coordinates":[130.71528,32.80108]},"properties":{"price":354000,"use":"熊本中央","zone":"","station":"事務所"}},{"type":"Feature","geometry":{"type":"Point","coordinates":[130.72412,32.79574]},"properties":{"price":270000,"use":"熊本中央","zone":"","station":"店舗兼共同住宅"}},{"type":"Feature","geometry":{"type":"Point","coordinates":[130.7383,32.79656]},"properties":{"price":168000,"use":"熊本中央","zone":"","station":"事務所兼住宅"}},{"type":"Feature","geometry":{"type":"Point","coordinates":[130.71457,32.78126]},"properties":{"price":144000,"use":"熊本中央","zone":"","station":"店舗"}},{"type":"Feature","geometry":{"type":"Point","coordinates":[130.70548,32.79982]},"properties":{"price":988000,"use":"熊本中央","zone":"","station":"店舗兼事務所"}},{"type":"Feature","geometry":{"type":"Point","coordinates":[130.74542,32.79022]},"properties":{"price":186000,"use":"熊本中央","zone":"","station":"店舗兼事務所"}},{"type":"Feature","geometry":{"type":"Point","coordinates":[130.70048,32.78106]},"properties":{"price":76000,"use":"熊本中央","zone":"","station":"事務所兼作業所"}},{"type":"Feature","geometry":{"type":"Point","coordinates":[130.76506,32.77265]},"properties":{"price":84900,"use":"熊本東","zone":"","station":"住宅"}},{"type":"Feature","geometry":{"type":"Point","coordinates":[130.75513,32.79309]},"properties":{"price":104000,"use":"熊本東","zone":"","station":"住宅"}},{"type":"Feature","geometry":{"type":"Point","coordinates":[130.74662,32.77786]},"properties":{"price":87700,"use":"熊本東","zone":"","station":"住宅"}},{"type":"Feature","geometry":{"type":"Point","coordinates":[130.7814,32.77485]},"properties":{"price":58300,"use":"熊本東","zone":"","station":"住宅"}},{"type":"Feature","geometry":{"type":"Point","coordinates":[130.79049,32.81566]},"properties":{"price":66900,"use":"熊本東","zone":"","station":"住宅"}},{"type":"Feature","geometry":{"type":"Point","coordinates":[130.7712,32.77636]},"properties":{"price":92000,"use":"熊本東","zone":"","station":"住宅"}},{"type":"Feature","geometry":{"type":"Point","coordinates":[130.79492,32.81497]},"properties":{"price":49500,"use":"熊本東","zone":"","station":"住宅"}},{"type":"Feature","geometry":{"type":"Point","coordinates":[130.75696,32.82356]},"properties":{"price":58400,"use":"熊本東","zone":"","station":"住宅"}},{"type":"Feature","geometry":{"type":"Point","coordinates":[130.75809,32.77793]},"properties":{"price":94000,"use":"熊本東","zone":"","station":"住宅"}},{"type":"Feature","geometry":{"type":"Point","coordinates":[130.77237,32.79244]},"properties":{"price":76400,"use":"熊本東","zone":"","station":"住宅"}},{"type":"Feature","geometry":{"type":"Point","coordinates":[130.74802,32.79571]},"properties":{"price":93300,"use":"熊本東","zone":"","station":"住宅"}},{"type":"Feature","geometry":{"type":"Point","coordinates":[130.78346,32.83386]},"properties":{"price":56700,"use":"熊本東","zone":"","station":"住宅"}},{"type":"Feature","geometry":{"type":"Point","coordinates":[130.76379,32.82284]},"properties":{"price":64000,"use":"熊本東","zone":"","station":"住宅"}},{"type":"Feature","geometry":{"type":"Point","coordinates":[130.76624,32.82987]},"properties":{"price":58200,"use":"熊本東","zone":"","station":"住宅"}},{"type":"Feature","geometry":{"type":"Point","coordinates":[130.77206,32.80844]},"properties":{"price":83900,"use":"熊本東","zone":"","station":"住宅"}},{"type":"Feature","geometry":{"type":"Point","coordinates":[130.75258,32.8152]},"properties":{"price":78400,"use":"熊本東","zone":"","station":"住宅"}},{"type":"Feature","geometry":{"type":"Point","coordinates":[130.7639,32.8158]},"properties":{"price":73900,"use":"熊本東","zone":"","station":"住宅"}},{"type":"Feature","geometry":{"type":"Point","coordinates":[130.78993,32.82114]},"properties":{"price":41100,"use":"熊本東","zone":"","station":"住宅"}},{"type":"Feature","geometry":{"type":"Point","coordinates":[130.7396,32.77324]},"properties":{"price":70200,"use":"熊本東","zone":"","station":"住宅"}},{"type":"Feature","geometry":{"type":"Point","coordinates":[130.75833,32.81034]},"properties":{"price":80200,"use":"熊本東","zone":"","station":"住宅"}},{"type":"Feature","geometry":{"type":"Point","coordinates":[130.77975,32.81895]},"properties":{"price":68200,"use":"熊本東","zone":"","station":"住宅"}},{"type":"Feature","geometry":{"type":"Point","coordinates":[130.7346,32.76505]},"properties":{"price":41300,"use":"熊本東","zone":"","station":"住宅"}},{"type":"Feature","geometry":{"type":"Point","coordinates":[130.77606,32.78331]},"properties":{"price":95000,"use":"熊本東","zone":"","station":"住宅"}},{"type":"Feature","geometry":{"type":"Point","coordinates":[130.77929,32.8201]},"properties":{"price":28500,"use":"熊本東","zone":"","station":"畑"}},{"type":"Feature","geometry":{"type":"Point","coordinates":[130.74874,32.80798]},"properties":{"price":153000,"use":"熊本東","zone":"","station":"店舗"}},{"type":"Feature","geometry":{"type":"Point","coordinates":[130.76068,32.7783]},"properties":{"price":170000,"use":"熊本東","zone":"","station":"店舗兼事務所"}},{"type":"Feature","geometry":{"type":"Point","coordinates":[130.76489,32.80356]},"properties":{"price":114000,"use":"熊本東","zone":"","station":"店舗兼共同住宅"}},{"type":"Feature","geometry":{"type":"Point","coordinates":[130.77549,32.77788]},"properties":{"price":111000,"use":"熊本東","zone":"","station":"店舗"}},{"type":"Feature","geometry":{"type":"Point","coordinates":[130.77536,32.8046]},"properties":{"price":89800,"use":"熊本東","zone":"","station":"店舗兼事務所"}},{"type":"Feature","geometry":{"type":"Point","coordinates":[130.78069,32.84174]},"properties":{"price":90500,"use":"熊本東","zone":"","station":"店舗兼倉庫"}},{"type":"Feature","geometry":{"type":"Point","coordinates":[130.78787,32.82606]},"properties":{"price":49600,"use":"熊本東","zone":"","station":"倉庫"}},{"type":"Feature","geometry":{"type":"Point","coordinates":[130.66004,32.77972]},"properties":{"price":57600,"use":"熊本西","zone":"","station":"住宅"}},{"type":"Feature","geometry":{"type":"Point","coordinates":[130.68629,32.77201]},"properties":{"price":61100,"use":"熊本西","zone":"","station":"住宅"}},{"type":"Feature","geometry":{"type":"Point","coordinates":[130.67357,32.79939]},"properties":{"price":40400,"use":"熊本西","zone":"","station":"住宅"}},{"type":"Feature","geometry":{"type":"Point","coordinates":[130.67607,32.81354]},"properties":{"price":37700,"use":"熊本西","zone":"","station":"住宅"}},{"type":"Feature","geometry":{"type":"Point","coordinates":[130.68607,32.82967]},"properties":{"price":35100,"use":"熊本西","zone":"","station":"住宅"}},{"type":"Feature","geometry":{"type":"Point","coordinates":[130.69005,32.81929]},"properties":{"price":41300,"use":"熊本西","zone":"","station":"住宅"}},{"type":"Feature","geometry":{"type":"Point","coordinates":[130.69091,32.80726]},"properties":{"price":81200,"use":"熊本西","zone":"","station":"住宅"}},{"type":"Feature","geometry":{"type":"Point","coordinates":[130.70497,32.82199]},"properties":{"price":65900,"use":"熊本西","zone":"","station":"住宅"}},{"type":"Feature","geometry":{"type":"Point","coordinates":[130.65601,32.78017]},"properties":{"price":61800,"use":"熊本西","zone":"","station":"住宅"}},{"type":"Feature","geometry":{"type":"Point","coordinates":[130.63261,32.78186]},"properties":{"price":36100,"use":"熊本西","zone":"","station":"住宅"}},{"type":"Feature","geometry":{"type":"Point","coordinates":[130.68758,32.81281]},"properties":{"price":63200,"use":"熊本西","zone":"","station":"住宅"}},{"type":"Feature","geometry":{"type":"Point","coordinates":[130.68744,32.79171]},"properties":{"price":215000,"use":"熊本西","zone":"","station":"共同住宅"}},{"type":"Feature","geometry":{"type":"Point","coordinates":[130.67814,32.78827]},"properties":{"price":69700,"use":"熊本西","zone":"","station":"住宅"}},{"type":"Feature","geometry":{"type":"Point","coordinates":[130.70569,32.83135]},"properties":{"price":56000,"use":"熊本西","zone":"","station":"住宅"}},{"type":"Feature","geometry":{"type":"Point","coordinates":[130.70582,32.81909]},"properties":{"price":148000,"use":"熊本西","zone":"","station":"店舗兼住宅"}},{"type":"Feature","geometry":{"type":"Point","coordinates":[130.68368,32.78059]},"properties":{"price":81800,"use":"熊本西","zone":"","station":"診療所"}},{"type":"Feature","geometry":{"type":"Point","coordinates":[130.6912,32.78419]},"properties":{"price":182000,"use":"熊本西","zone":"","station":"店舗兼共同住宅"}},{"type":"Feature","geometry":{"type":"Point","coordinates":[130.70797,32.8258]},"properties":{"price":93000,"use":"熊本西","zone":"","station":"診療所"}},{"type":"Feature","geometry":{"type":"Point","coordinates":[130.65414,32.77745]},"properties":{"price":77400,"use":"熊本西","zone":"","station":"店舗、事務所兼共同住宅"}},{"type":"Feature","geometry":{"type":"Point","coordinates":[130.67982,32.78474]},"properties":{"price":154000,"use":"熊本西","zone":"","station":"店舗兼共同住宅"}},{"type":"Feature","geometry":{"type":"Point","coordinates":[130.69783,32.81285]},"properties":{"price":128000,"use":"熊本西","zone":"","station":"事務所兼デイサービスセンター"}},{"type":"Feature","geometry":{"type":"Point","coordinates":[130.68479,32.77511]},"properties":{"price":55000,"use":"熊本西","zone":"","station":"倉庫"}},{"type":"Feature","geometry":{"type":"Point","coordinates":[130.71136,32.76914]},"properties":{"price":83000,"use":"熊本南","zone":"","station":"住宅"}},{"type":"Feature","geometry":{"type":"Point","coordinates":[130.69828,32.76981]},"properties":{"price":65400,"use":"熊本南","zone":"","station":"住宅"}},{"type":"Feature","geometry":{"type":"Point","coordinates":[130.67816,32.76773]},"properties":{"price":67300,"use":"熊本南","zone":"","station":"住宅"}},{"type":"Feature","geometry":{"type":"Point","coordinates":[130.67821,32.76004]},"properties":{"price":73000,"use":"熊本南","zone":"","station":"住宅"}},{"type":"Feature","geometry":{"type":"Point","coordinates":[130.72157,32.76021]},"properties":{"price":57600,"use":"熊本南","zone":"","station":"住宅"}},{"type":"Feature","geometry":{"type":"Point","coordinates":[130.68041,32.73251]},"properties":{"price":45400,"use":"熊本南","zone":"","station":"住宅"}},{"type":"Feature","geometry":{"type":"Point","coordinates":[130.68046,32.71273]},"properties":{"price":45000,"use":"熊本南","zone":"","station":"住宅"}},{"type":"Feature","geometry":{"type":"Point","coordinates":[130.65758,32.75998]},"properties":{"price":45500,"use":"熊本南","zone":"","station":"住宅"}},{"type":"Feature","geometry":{"type":"Point","coordinates":[130.69916,32.77533]},"properties":{"price":111000,"use":"熊本南","zone":"","station":"住宅"}},{"type":"Feature","geometry":{"type":"Point","coordinates":[130.68539,32.73908]},"properties":{"price":60300,"use":"熊本南","zone":"","station":"住宅"}},{"type":"Feature","geometry":{"type":"Point","coordinates":[130.68389,32.75252]},"properties":{"price":53100,"use":"熊本南","zone":"","station":"住宅"}},{"type":"Feature","geometry":{"type":"Point","coordinates":[130.73496,32.71]},"properties":{"price":39100,"use":"熊本南","zone":"","station":"住宅"}},{"type":"Feature","geometry":{"type":"Point","coordinates":[130.73329,32.71664]},"properties":{"price":22600,"use":"熊本南","zone":"","station":"住宅"}},{"type":"Feature","geometry":{"type":"Point","coordinates":[130.67131,32.74764]},"properties":{"price":34800,"use":"熊本南","zone":"","station":"住宅"}},{"type":"Feature","geometry":{"type":"Point","coordinates":[130.63357,32.7307]},"properties":{"price":16100,"use":"熊本南","zone":"","station":"住宅"}},{"type":"Feature","geometry":{"type":"Point","coordinates":[130.72726,32.76285]},"properties":{"price":74100,"use":"熊本南","zone":"","station":"住宅"}},{"type":"Feature","geometry":{"type":"Point","coordinates":[130.68256,32.7405]},"properties":{"price":66200,"use":"熊本南","zone":"","station":"店舗兼住宅"}},{"type":"Feature","geometry":{"type":"Point","coordinates":[130.70612,32.77205]},"properties":{"price":138000,"use":"熊本南","zone":"","station":"店舗"}},{"type":"Feature","geometry":{"type":"Point","coordinates":[130.68091,32.76353]},"properties":{"price":109000,"use":"熊本南","zone":"","station":"診療所兼住宅"}},{"type":"Feature","geometry":{"type":"Point","coordinates":[130.69478,32.75849]},"properties":{"price":52900,"use":"熊本南","zone":"","station":"建築中"}},{"type":"Feature","geometry":{"type":"Point","coordinates":[130.70652,32.76906]},"properties":{"price":91000,"use":"熊本南","zone":"","station":"事務所兼倉庫"}},{"type":"Feature","geometry":{"type":"Point","coordinates":[130.78834,32.85468]},"properties":{"price":65000,"use":"熊本北","zone":"","station":"住宅"}},{"type":"Feature","geometry":{"type":"Point","coordinates":[130.71479,32.82659]},"properties":{"price":54300,"use":"熊本北","zone":"","station":"住宅"}},{"type":"Feature","geometry":{"type":"Point","coordinates":[130.69279,32.84541]},"properties":{"price":15300,"use":"熊本北","zone":"","station":"住宅"}},{"type":"Feature","geometry":{"type":"Point","coordinates":[130.71521,32.83662]},"properties":{"price":52800,"use":"熊本北","zone":"","station":"住宅"}},{"type":"Feature","geometry":{"type":"Point","coordinates":[130.72447,32.84883]},"properties":{"price":53300,"use":"熊本北","zone":"","station":"住宅"}},{"type":"Feature","geometry":{"type":"Point","coordinates":[130.74748,32.84551]},"properties":{"price":54800,"use":"熊本北","zone":"","station":"住宅"}},{"type":"Feature","geometry":{"type":"Point","coordinates":[130.76131,32.8416]},"properties":{"price":55700,"use":"熊本北","zone":"","station":"住宅"}},{"type":"Feature","geometry":{"type":"Point","coordinates":[130.74992,32.83058]},"properties":{"price":38600,"use":"熊本北","zone":"","station":"住宅"}},{"type":"Feature","geometry":{"type":"Point","coordinates":[130.75997,32.84831]},"properties":{"price":71400,"use":"熊本北","zone":"","station":"住宅"}},{"type":"Feature","geometry":{"type":"Point","coordinates":[130.76815,32.85521]},"properties":{"price":73000,"use":"熊本北","zone":"","station":"住宅"}},{"type":"Feature","geometry":{"type":"Point","coordinates":[130.70716,32.87792]},"properties":{"price":37500,"use":"熊本北","zone":"","station":"住宅"}},{"type":"Feature","geometry":{"type":"Point","coordinates":[130.72618,32.87302]},"properties":{"price":39500,"use":"熊本北","zone":"","station":"住宅"}},{"type":"Feature","geometry":{"type":"Point","coordinates":[130.75296,32.82547]},"properties":{"price":48900,"use":"熊本北","zone":"","station":"住宅"}},{"type":"Feature","geometry":{"type":"Point","coordinates":[130.72402,32.84232]},"properties":{"price":52600,"use":"熊本北","zone":"","station":"住宅"}},{"type":"Feature","geometry":{"type":"Point","coordinates":[130.69356,32.89818]},"properties":{"price":35000,"use":"熊本北","zone":"","station":"住宅"}},{"type":"Feature","geometry":{"type":"Point","coordinates":[130.68619,32.90255]},"properties":{"price":35300,"use":"熊本北","zone":"","station":"住宅"}},{"type":"Feature","geometry":{"type":"Point","coordinates":[130.72662,32.83165]},"properties":{"price":52300,"use":"熊本北","zone":"","station":"住宅"}},{"type":"Feature","geometry":{"type":"Point","coordinates":[130.76537,32.84216]},"properties":{"price":17700,"use":"熊本北","zone":"","station":"畑"}},{"type":"Feature","geometry":{"type":"Point","coordinates":[130.74416,32.84934]},"properties":{"price":85200,"use":"熊本北","zone":"","station":"診療所"}},{"type":"Feature","geometry":{"type":"Point","coordinates":[130.68956,32.89652]},"properties":{"price":56000,"use":"熊本北","zone":"","station":"店舗"}},{"type":"Feature","geometry":{"type":"Point","coordinates":[130.72232,32.82696]},"properties":{"price":114000,"use":"熊本北","zone":"","station":"店舗兼共同住宅"}},{"type":"Feature","geometry":{"type":"Point","coordinates":[130.70974,32.8589]},"properties":{"price":82600,"use":"熊本北","zone":"","station":"店舗兼工場"}},{"type":"Feature","geometry":{"type":"Point","coordinates":[130.61435,32.50147]},"properties":{"price":31500,"use":"八代","zone":"","station":"住宅"}},{"type":"Feature","geometry":{"type":"Point","coordinates":[130.65838,32.57069]},"properties":{"price":17000,"use":"八代","zone":"","station":"住宅"}},{"type":"Feature","geometry":{"type":"Point","coordinates":[130.62881,32.50344]},"properties":{"price":22800,"use":"八代","zone":"","station":"住宅"}},{"type":"Feature","geometry":{"type":"Point","coordinates":[130.60345,32.49669]},"properties":{"price":26200,"use":"八代","zone":"","station":"住宅"}},{"type":"Feature","geometry":{"type":"Point","coordinates":[130.57633,32.43493]},"properties":{"price":20700,"use":"八代","zone":"","station":"住宅"}},{"type":"Feature","geometry":{"type":"Point","coordinates":[130.60714,32.52633]},"properties":{"price":26300,"use":"八代","zone":"","station":"住宅"}},{"type":"Feature","geometry":{"type":"Point","coordinates":[130.62926,32.51816]},"properties":{"price":31800,"use":"八代","zone":"","station":"住宅"}},{"type":"Feature","geometry":{"type":"Point","coordinates":[130.60364,32.50589]},"properties":{"price":50100,"use":"八代","zone":"","station":"店舗兼住宅"}},{"type":"Feature","geometry":{"type":"Point","coordinates":[130.60016,32.50452]},"properties":{"price":46900,"use":"八代","zone":"","station":"店舗兼住宅"}},{"type":"Feature","geometry":{"type":"Point","coordinates":[130.63127,32.51126]},"properties":{"price":44700,"use":"八代","zone":"","station":"店舗兼工場"}},{"type":"Feature","geometry":{"type":"Point","coordinates":[130.59872,32.49846]},"properties":{"price":38200,"use":"八代","zone":"","station":"店舗兼住宅"}},{"type":"Feature","geometry":{"type":"Point","coordinates":[130.55168,32.53177]},"properties":{"price":11300,"use":"八代","zone":"","station":"事務所、作業所兼倉庫"}},{"type":"Feature","geometry":{"type":"Point","coordinates":[130.76838,32.21874]},"properties":{"price":24100,"use":"人吉","zone":"","station":"住宅"}},{"type":"Feature","geometry":{"type":"Point","coordinates":[130.74158,32.20895]},"properties":{"price":13300,"use":"人吉","zone":"","station":"住宅"}},{"type":"Feature","geometry":{"type":"Point","coordinates":[130.76199,32.20442]},"properties":{"price":19300,"use":"人吉","zone":"","station":"住宅"}},{"type":"Feature","geometry":{"type":"Point","coordinates":[130.75894,32.21352]},"properties":{"price":31400,"use":"人吉","zone":"","station":"店舗、倉庫兼住宅"}},{"type":"Feature","geometry":{"type":"Point","coordinates":[130.76327,32.22584]},"properties":{"price":26100,"use":"人吉","zone":"","station":"店舗"}},{"type":"Feature","geometry":{"type":"Point","coordinates":[130.45796,32.96703]},"properties":{"price":19100,"use":"荒尾","zone":"","station":"住宅"}},{"type":"Feature","geometry":{"type":"Point","coordinates":[130.47737,32.98589]},"properties":{"price":39500,"use":"荒尾","zone":"","station":"住宅"}},{"type":"Feature","geometry":{"type":"Point","coordinates":[130.43192,32.99672]},"properties":{"price":23400,"use":"荒尾","zone":"","station":"住宅"}},{"type":"Feature","geometry":{"type":"Point","coordinates":[130.43665,32.98043]},"properties":{"price":23800,"use":"荒尾","zone":"","station":"住宅"}},{"type":"Feature","geometry":{"type":"Point","coordinates":[130.43911,32.94964]},"properties":{"price":14700,"use":"荒尾","zone":"","station":"住宅"}},{"type":"Feature","geometry":{"type":"Point","coordinates":[130.49902,32.96198]},"properties":{"price":12300,"use":"荒尾","zone":"","station":"住宅"}},{"type":"Feature","geometry":{"type":"Point","coordinates":[130.46929,32.98327]},"properties":{"price":49800,"use":"荒尾","zone":"","station":"店舗、事務所兼教室"}},{"type":"Feature","geometry":{"type":"Point","coordinates":[130.45054,32.98549]},"properties":{"price":40000,"use":"荒尾","zone":"","station":"店舗"}},{"type":"Feature","geometry":{"type":"Point","coordinates":[130.4659,32.97905]},"properties":{"price":31500,"use":"荒尾","zone":"","station":"店舗兼住宅"}},{"type":"Feature","geometry":{"type":"Point","coordinates":[130.43848,33.00384]},"properties":{"price":46500,"use":"荒尾","zone":"","station":"営業所兼工場"}},{"type":"Feature","geometry":{"type":"Point","coordinates":[130.45699,32.95972]},"properties":{"price":8600,"use":"荒尾","zone":"","station":"荷捌所"}},{"type":"Feature","geometry":{"type":"Point","coordinates":[130.39686,32.21355]},"properties":{"price":34100,"use":"水俣","zone":"","station":"住宅"}},{"type":"Feature","geometry":{"type":"Point","coordinates":[130.39179,32.20093]},"properties":{"price":16700,"use":"水俣","zone":"","station":"住宅"}},{"type":"Feature","geometry":{"type":"Point","coordinates":[130.41093,32.20879]},"properties":{"price":33500,"use":"水俣","zone":"","station":"住宅"}},{"type":"Feature","geometry":{"type":"Point","coordinates":[130.40294,32.21043]},"properties":{"price":47700,"use":"水俣","zone":"","station":"店舗兼事務所"}},{"type":"Feature","geometry":{"type":"Point","coordinates":[130.4033,32.2119]},"properties":{"price":40500,"use":"水俣","zone":"","station":"店舗兼住宅"}},{"type":"Feature","geometry":{"type":"Point","coordinates":[130.55397,32.93132]},"properties":{"price":33400,"use":"玉名","zone":"","station":"住宅"}},{"type":"Feature","geometry":{"type":"Point","coordinates":[130.54698,32.93656]},"properties":{"price":28700,"use":"玉名","zone":"","station":"住宅"}},{"type":"Feature","geometry":{"type":"Point","coordinates":[130.51103,32.93863]},"properties":{"price":11900,"use":"玉名","zone":"","station":"住宅"}},{"type":"Feature","geometry":{"type":"Point","coordinates":[130.56329,32.92843]},"properties":{"price":36300,"use":"玉名","zone":"","station":"店舗兼住宅"}},{"type":"Feature","geometry":{"type":"Point","coordinates":[130.55949,32.92889]},"properties":{"price":52100,"use":"玉名","zone":"","station":"事務所"}},{"type":"Feature","geometry":{"type":"Point","coordinates":[130.54598,32.92322]},"properties":{"price":34900,"use":"玉名","zone":"","station":"診療所"}},{"type":"Feature","geometry":{"type":"Point","coordinates":[130.70031,33.01119]},"properties":{"price":23200,"use":"山鹿","zone":"","station":"住宅"}},{"type":"Feature","geometry":{"type":"Point","coordinates":[130.6831,33.01255]},"properties":{"price":26100,"use":"山鹿","zone":"","station":"住宅"}},{"type":"Feature","geometry":{"type":"Point","coordinates":[130.71125,33.0057]},"properties":{"price":21100,"use":"山鹿","zone":"","station":"住宅"}},{"type":"Feature","geometry":{"type":"Point","coordinates":[130.6913,33.01401]},"properties":{"price":31800,"use":"山鹿","zone":"","station":"店舗兼住宅"}},{"type":"Feature","geometry":{"type":"Point","coordinates":[130.7068,33.00969]},"properties":{"price":40100,"use":"山鹿","zone":"","station":"銀行"}},{"type":"Feature","geometry":{"type":"Point","coordinates":[130.81177,32.97919]},"properties":{"price":28600,"use":"菊池","zone":"","station":"住宅"}},{"type":"Feature","geometry":{"type":"Point","coordinates":[130.81273,32.93547]},"properties":{"price":6200,"use":"菊池","zone":"","station":"住宅"}},{"type":"Feature","geometry":{"type":"Point","coordinates":[130.80734,32.97332]},"properties":{"price":23900,"use":"菊池","zone":"","station":"住宅"}},{"type":"Feature","geometry":{"type":"Point","coordinates":[130.79992,32.91692]},"properties":{"price":9000,"use":"菊池","zone":"","station":"住宅"}},{"type":"Feature","geometry":{"type":"Point","coordinates":[130.80574,32.98031]},"properties":{"price":29000,"use":"菊池","zone":"","station":"店舗兼住宅"}},{"type":"Feature","geometry":{"type":"Point","coordinates":[130.81235,32.98157]},"properties":{"price":28600,"use":"菊池","zone":"","station":"店舗兼住宅"}},{"type":"Feature","geometry":{"type":"Point","coordinates":[130.77216,32.92609]},"properties":{"price":23200,"use":"菊池","zone":"","station":"事務所"}},{"type":"Feature","geometry":{"type":"Point","coordinates":[130.65984,32.68154]},"properties":{"price":41400,"use":"宇土","zone":"","station":"住宅"}},{"type":"Feature","geometry":{"type":"Point","coordinates":[130.67414,32.6735]},"properties":{"price":26800,"use":"宇土","zone":"","station":"住宅"}},{"type":"Feature","geometry":{"type":"Point","coordinates":[130.6592,32.68619]},"properties":{"price":47400,"use":"宇土","zone":"","station":"店舗"}},{"type":"Feature","geometry":{"type":"Point","coordinates":[130.6898,32.60017]},"properties":{"price":16200,"use":"宇城","zone":"","station":"住宅"}},{"type":"Feature","geometry":{"type":"Point","coordinates":[130.69944,32.59749]},"properties":{"price":23700,"use":"宇城","zone":"","station":"住宅"}},{"type":"Feature","geometry":{"type":"Point","coordinates":[130.67946,32.64587]},"properties":{"price":40400,"use":"宇城","zone":"","station":"住宅"}},{"type":"Feature","geometry":{"type":"Point","coordinates":[130.6756,32.65248]},"properties":{"price":53700,"use":"宇城","zone":"","station":"店舗"}},{"type":"Feature","geometry":{"type":"Point","coordinates":[130.70238,32.59401]},"properties":{"price":29900,"use":"宇城","zone":"","station":"診療所、事務所兼住宅"}},{"type":"Feature","geometry":{"type":"Point","coordinates":[131.03891,32.9774]},"properties":{"price":12900,"use":"阿蘇","zone":"","station":"住宅"}},{"type":"Feature","geometry":{"type":"Point","coordinates":[131.09724,32.9392]},"properties":{"price":8500,"use":"阿蘇","zone":"","station":"住宅"}},{"type":"Feature","geometry":{"type":"Point","coordinates":[131.0404,32.97468]},"properties":{"price":20600,"use":"阿蘇","zone":"","station":"店舗兼工場"}},{"type":"Feature","geometry":{"type":"Point","coordinates":[130.19683,32.46137]},"properties":{"price":44500,"use":"天草","zone":"","station":"住宅"}},{"type":"Feature","geometry":{"type":"Point","coordinates":[130.17664,32.45941]},"properties":{"price":34400,"use":"天草","zone":"","station":"住宅"}},{"type":"Feature","geometry":{"type":"Point","coordinates":[130.2013,32.44266]},"properties":{"price":42500,"use":"天草","zone":"","station":"住宅"}},{"type":"Feature","geometry":{"type":"Point","coordinates":[130.0163,32.19393]},"properties":{"price":13100,"use":"天草","zone":"","station":"住宅"}},{"type":"Feature","geometry":{"type":"Point","coordinates":[130.02897,32.20045]},"properties":{"price":16000,"use":"天草","zone":"","station":"住宅"}},{"type":"Feature","geometry":{"type":"Point","coordinates":[130.18825,32.46649]},"properties":{"price":70600,"use":"天草","zone":"","station":"店舗"}},{"type":"Feature","geometry":{"type":"Point","coordinates":[130.19477,32.45403]},"properties":{"price":93000,"use":"天草","zone":"","station":"店舗"}},{"type":"Feature","geometry":{"type":"Point","coordinates":[130.02595,32.19545]},"properties":{"price":27100,"use":"天草","zone":"","station":"店舗兼住宅"}},{"type":"Feature","geometry":{"type":"Point","coordinates":[130.78343,32.87211]},"properties":{"price":61100,"use":"合志","zone":"","station":"住宅"}},{"type":"Feature","geometry":{"type":"Point","coordinates":[130.77837,32.86865]},"properties":{"price":74500,"use":"合志","zone":"","station":"住宅"}},{"type":"Feature","geometry":{"type":"Point","coordinates":[130.74341,32.87032]},"properties":{"price":46200,"use":"合志","zone":"","station":"住宅"}},{"type":"Feature","geometry":{"type":"Point","coordinates":[130.74109,32.85616]},"properties":{"price":53000,"use":"合志","zone":"","station":"住宅"}},{"type":"Feature","geometry":{"type":"Point","coordinates":[130.7888,32.89441]},"properties":{"price":17700,"use":"合志","zone":"","station":"住宅"}},{"type":"Feature","geometry":{"type":"Point","coordinates":[130.75793,32.89801]},"properties":{"price":29000,"use":"合志","zone":"","station":"住宅"}},{"type":"Feature","geometry":{"type":"Point","coordinates":[130.77915,32.8678]},"properties":{"price":99800,"use":"合志","zone":"","station":"店舗兼住宅"}},{"type":"Feature","geometry":{"type":"Point","coordinates":[130.44603,32.93317]},"properties":{"price":17000,"use":"長洲","zone":"","station":"住宅"}},{"type":"Feature","geometry":{"type":"Point","coordinates":[130.48826,32.93287]},"properties":{"price":11900,"use":"長洲","zone":"","station":"住宅"}},{"type":"Feature","geometry":{"type":"Point","coordinates":[130.44304,32.9325]},"properties":{"price":20500,"use":"長洲","zone":"","station":"店舗兼住宅"}},{"type":"Feature","geometry":{"type":"Point","coordinates":[130.86871,32.8863]},"properties":{"price":42600,"use":"熊本大津","zone":"","station":"住宅"}},{"type":"Feature","geometry":{"type":"Point","coordinates":[130.89262,32.87848]},"properties":{"price":36500,"use":"熊本大津","zone":"","station":"住宅"}},{"type":"Feature","geometry":{"type":"Point","coordinates":[130.86969,32.87963]},"properties":{"price":77000,"use":"熊本大津","zone":"","station":"店舗"}},{"type":"Feature","geometry":{"type":"Point","coordinates":[130.85621,32.89898]},"properties":{"price":30000,"use":"熊本大津","zone":"","station":"事務所兼工場"}},{"type":"Feature","geometry":{"type":"Point","coordinates":[130.80403,32.85838]},"properties":{"price":28000,"use":"菊陽","zone":"","station":"住宅"}},{"type":"Feature","geometry":{"type":"Point","coordinates":[130.78906,32.85769]},"properties":{"price":80500,"use":"菊陽","zone":"","station":"住宅"}},{"type":"Feature","geometry":{"type":"Point","coordinates":[130.82349,32.86078]},"properties":{"price":65800,"use":"菊陽","zone":"","station":"住宅"}},{"type":"Feature","geometry":{"type":"Point","coordinates":[130.77408,32.85917]},"properties":{"price":75800,"use":"菊陽","zone":"","station":"住宅"}},{"type":"Feature","geometry":{"type":"Point","coordinates":[130.78542,32.86876]},"properties":{"price":68000,"use":"菊陽","zone":"","station":"住宅"}},{"type":"Feature","geometry":{"type":"Point","coordinates":[130.75701,32.85997]},"properties":{"price":62800,"use":"菊陽","zone":"","station":"住宅"}},{"type":"Feature","geometry":{"type":"Point","coordinates":[130.79278,32.87148]},"properties":{"price":44000,"use":"菊陽","zone":"","station":"住宅"}},{"type":"Feature","geometry":{"type":"Point","coordinates":[130.78191,32.862]},"properties":{"price":102000,"use":"菊陽","zone":"","station":"住宅"}},{"type":"Feature","geometry":{"type":"Point","coordinates":[130.79596,32.86105]},"properties":{"price":95500,"use":"菊陽","zone":"","station":"店舗兼共同住宅"}},{"type":"Feature","geometry":{"type":"Point","coordinates":[130.80234,32.71175]},"properties":{"price":30800,"use":"御船","zone":"","station":"住宅"}},{"type":"Feature","geometry":{"type":"Point","coordinates":[130.79756,32.70704]},"properties":{"price":21100,"use":"御船","zone":"","station":"住宅"}},{"type":"Feature","geometry":{"type":"Point","coordinates":[130.7993,32.71217]},"properties":{"price":35900,"use":"御船","zone":"","station":"店舗兼住宅"}},{"type":"Feature","geometry":{"type":"Point","coordinates":[130.73978,32.74476]},"properties":{"price":65200,"use":"嘉島","zone":"","station":"住宅"}},{"type":"Feature","geometry":{"type":"Point","coordinates":[130.74475,32.74702]},"properties":{"price":30600,"use":"嘉島","zone":"","station":"住宅"}},{"type":"Feature","geometry":{"type":"Point","coordinates":[130.76933,32.74923]},"properties":{"price":19500,"use":"嘉島","zone":"","station":"住宅"}},{"type":"Feature","geometry":{"type":"Point","coordinates":[130.82089,32.7962]},"properties":{"price":40700,"use":"益城","zone":"","station":"住宅"}},{"type":"Feature","geometry":{"type":"Point","coordinates":[130.80177,32.78588]},"properties":{"price":46500,"use":"益城","zone":"","station":"住宅"}},{"type":"Feature","geometry":{"type":"Point","coordinates":[130.80804,32.78395]},"properties":{"price":37400,"use":"益城","zone":"","station":"住宅"}},{"type":"Feature","geometry":{"type":"Point","coordinates":[130.83031,32.79454]},"properties":{"price":13000,"use":"益城","zone":"","station":"住宅"}},{"type":"Feature","geometry":{"type":"Point","coordinates":[130.8043,32.78505]},"properties":{"price":65900,"use":"益城","zone":"","station":"店舗"}},{"type":"Feature","geometry":{"type":"Point","coordinates":[130.78855,32.7964]},"properties":{"price":46500,"use":"益城","zone":"","station":"事務所"}},{"type":"Feature","geometry":{"type":"Point","coordinates":[130.49587,32.30327]},"properties":{"price":24200,"use":"芦北","zone":"","station":"住宅"}},{"type":"Feature","geometry":{"type":"Point","coordinates":[130.50683,32.26957]},"properties":{"price":14900,"use":"芦北","zone":"","station":"住宅"}}]}