{"type":"FeatureCollection","features":[{"type":"Feature","geometry":{"type":"Point","coordinates":[131.59393,33.23747]},"properties":{"price":106000,"use":"大分","zone":"","station":"住宅"}},{"type":"Feature","geometry":{"type":"Point","coordinates":[131.59883,33.24134]},"properties":{"price":86900,"use":"大分","zone":"","station":"住宅"}},{"type":"Feature","geometry":{"type":"Point","coordinates":[131.56202,33.24324]},"properties":{"price":13500,"use":"大分","zone":"","station":"住宅"}},{"type":"Feature","geometry":{"type":"Point","coordinates":[131.64194,33.23832]},"properties":{"price":62700,"use":"大分","zone":"","station":"住宅"}},{"type":"Feature","geometry":{"type":"Point","coordinates":[131.59546,33.24109]},"properties":{"price":102000,"use":"大分","zone":"","station":"共同住宅"}},{"type":"Feature","geometry":{"type":"Point","coordinates":[131.61251,33.24454]},"properties":{"price":120000,"use":"大分","zone":"","station":"住宅"}},{"type":"Feature","geometry":{"type":"Point","coordinates":[131.61864,33.24109]},"properties":{"price":99300,"use":"大分","zone":"","station":"住宅"}},{"type":"Feature","geometry":{"type":"Point","coordinates":[131.61821,33.23357]},"properties":{"price":94300,"use":"大分","zone":"","station":"住宅"}},{"type":"Feature","geometry":{"type":"Point","coordinates":[131.60678,33.22903]},"properties":{"price":160000,"use":"大分","zone":"","station":"住宅"}},{"type":"Feature","geometry":{"type":"Point","coordinates":[131.61355,33.22567]},"properties":{"price":95500,"use":"大分","zone":"","station":"住宅"}},{"type":"Feature","geometry":{"type":"Point","coordinates":[131.63107,33.16105]},"properties":{"price":32000,"use":"大分","zone":"","station":"住宅"}},{"type":"Feature","geometry":{"type":"Point","coordinates":[131.59297,33.22758]},"properties":{"price":86700,"use":"大分","zone":"","station":"住宅"}},{"type":"Feature","geometry":{"type":"Point","coordinates":[131.59532,33.23352]},"properties":{"price":90000,"use":"大分","zone":"","station":"空地"}},{"type":"Feature","geometry":{"type":"Point","coordinates":[131.66689,33.24267]},"properties":{"price":48700,"use":"大分","zone":"","station":"住宅"}},{"type":"Feature","geometry":{"type":"Point","coordinates":[131.58561,33.2215]},"properties":{"price":50400,"use":"大分","zone":"","station":"住宅"}},{"type":"Feature","geometry":{"type":"Point","coordinates":[131.56506,33.17513]},"properties":{"price":16400,"use":"大分","zone":"","station":"住宅"}},{"type":"Feature","geometry":{"type":"Point","coordinates":[131.59356,33.20963]},"properties":{"price":68400,"use":"大分","zone":"","station":"住宅"}},{"type":"Feature","geometry":{"type":"Point","coordinates":[131.59307,33.21324]},"properties":{"price":69400,"use":"大分","zone":"","station":"住宅"}},{"type":"Feature","geometry":{"type":"Point","coordinates":[131.6059,33.21388]},"properties":{"price":81500,"use":"大分","zone":"","station":"住宅"}},{"type":"Feature","geometry":{"type":"Point","coordinates":[131.60351,33.24722]},"properties":{"price":66900,"use":"大分","zone":"","station":"住宅"}},{"type":"Feature","geometry":{"type":"Point","coordinates":[131.58167,33.19684]},"properties":{"price":48600,"use":"大分","zone":"","station":"住宅"}},{"type":"Feature","geometry":{"type":"Point","coordinates":[131.61722,33.20955]},"properties":{"price":44000,"use":"大分","zone":"","station":"住宅"}},{"type":"Feature","geometry":{"type":"Point","coordinates":[131.63299,33.21639]},"properties":{"price":60300,"use":"大分","zone":"","station":"住宅"}},{"type":"Feature","geometry":{"type":"Point","coordinates":[131.63462,33.22543]},"properties":{"price":90800,"use":"大分","zone":"","station":"住宅"}},{"type":"Feature","geometry":{"type":"Point","coordinates":[131.62868,33.23845]},"properties":{"price":86300,"use":"大分","zone":"","station":"住宅"}},{"type":"Feature","geometry":{"type":"Point","coordinates":[131.6046,33.22919]},"properties":{"price":362000,"use":"大分","zone":"","station":"共同住宅"}},{"type":"Feature","geometry":{"type":"Point","coordinates":[131.63074,33.24714]},"properties":{"price":63500,"use":"大分","zone":"","station":"住宅"}},{"type":"Feature","geometry":{"type":"Point","coordinates":[131.64116,33.24448]},"properties":{"price":69500,"use":"大分","zone":"","station":"住宅"}},{"type":"Feature","geometry":{"type":"Point","coordinates":[131.66349,33.25162]},"properties":{"price":48100,"use":"大分","zone":"","station":"共同住宅"}},{"type":"Feature","geometry":{"type":"Point","coordinates":[131.61064,33.2284]},"properties":{"price":155000,"use":"大分","zone":"","station":"住宅"}},{"type":"Feature","geometry":{"type":"Point","coordinates":[131.67218,33.23509]},"properties":{"price":43300,"use":"大分","zone":"","station":"住宅"}},{"type":"Feature","geometry":{"type":"Point","coordinates":[131.66418,33.22942]},"properties":{"price":38500,"use":"大分","zone":"","station":"住宅"}},{"type":"Feature","geometry":{"type":"Point","coordinates":[131.65749,33.21725]},"properties":{"price":78500,"use":"大分","zone":"","station":"住宅"}},{"type":"Feature","geometry":{"type":"Point","coordinates":[131.65292,33.23683]},"properties":{"price":43000,"use":"大分","zone":"","station":"住宅"}},{"type":"Feature","geometry":{"type":"Point","coordinates":[131.61412,33.25026]},"properties":{"price":65200,"use":"大分","zone":"","station":"住宅"}},{"type":"Feature","geometry":{"type":"Point","coordinates":[131.6609,33.15013]},"properties":{"price":29500,"use":"大分","zone":"","station":"住宅"}},{"type":"Feature","geometry":{"type":"Point","coordinates":[131.67403,33.21485]},"properties":{"price":45700,"use":"大分","zone":"","station":"住宅"}},{"type":"Feature","geometry":{"type":"Point","coordinates":[131.67893,33.22888]},"properties":{"price":49300,"use":"大分","zone":"","station":"住宅"}},{"type":"Feature","geometry":{"type":"Point","coordinates":[131.67121,33.20979]},"properties":{"price":55000,"use":"大分","zone":"","station":"住宅"}},{"type":"Feature","geometry":{"type":"Point","coordinates":[131.69072,33.23867]},"properties":{"price":43000,"use":"大分","zone":"","station":"住宅"}},{"type":"Feature","geometry":{"type":"Point","coordinates":[131.67705,33.25023]},"properties":{"price":39000,"use":"大分","zone":"","station":"住宅"}},{"type":"Feature","geometry":{"type":"Point","coordinates":[131.69306,33.25573]},"properties":{"price":23700,"use":"大分","zone":"","station":"住宅"}},{"type":"Feature","geometry":{"type":"Point","coordinates":[131.58003,33.23575]},"properties":{"price":80400,"use":"大分","zone":"","station":"住宅"}},{"type":"Feature","geometry":{"type":"Point","coordinates":[131.64888,33.22828]},"properties":{"price":79800,"use":"大分","zone":"","station":"住宅"}},{"type":"Feature","geometry":{"type":"Point","coordinates":[131.72107,33.23964]},"properties":{"price":33300,"use":"大分","zone":"","station":"住宅"}},{"type":"Feature","geometry":{"type":"Point","coordinates":[131.72793,33.24758]},"properties":{"price":41400,"use":"大分","zone":"","station":"住宅"}},{"type":"Feature","geometry":{"type":"Point","coordinates":[131.68371,33.23046]},"properties":{"price":38800,"use":"大分","zone":"","station":"住宅"}},{"type":"Feature","geometry":{"type":"Point","coordinates":[131.6978,33.19259]},"properties":{"price":11800,"use":"大分","zone":"","station":"空地"}},{"type":"Feature","geometry":{"type":"Point","coordinates":[131.58312,33.21387]},"properties":{"price":61800,"use":"大分","zone":"","station":"住宅"}},{"type":"Feature","geometry":{"type":"Point","coordinates":[131.77151,33.238]},"properties":{"price":18100,"use":"大分","zone":"","station":"住宅"}},{"type":"Feature","geometry":{"type":"Point","coordinates":[131.75369,33.22827]},"properties":{"price":39000,"use":"大分","zone":"","station":"住宅"}},{"type":"Feature","geometry":{"type":"Point","coordinates":[131.57547,33.21117]},"properties":{"price":55400,"use":"大分","zone":"","station":"住宅"}},{"type":"Feature","geometry":{"type":"Point","coordinates":[131.55854,33.18674]},"properties":{"price":29200,"use":"大分","zone":"","station":"住宅"}},{"type":"Feature","geometry":{"type":"Point","coordinates":[131.56949,33.18808]},"properties":{"price":46300,"use":"大分","zone":"","station":"住宅"}},{"type":"Feature","geometry":{"type":"Point","coordinates":[131.74108,33.22906]},"properties":{"price":26200,"use":"大分","zone":"","station":"住宅"}},{"type":"Feature","geometry":{"type":"Point","coordinates":[131.57648,33.20071]},"properties":{"price":60300,"use":"大分","zone":"","station":"住宅"}},{"type":"Feature","geometry":{"type":"Point","coordinates":[131.71258,33.24083]},"properties":{"price":43000,"use":"大分","zone":"","station":"住宅"}},{"type":"Feature","geometry":{"type":"Point","coordinates":[131.61333,33.1878]},"properties":{"price":51000,"use":"大分","zone":"","station":"住宅"}},{"type":"Feature","geometry":{"type":"Point","coordinates":[131.66959,33.18418]},"properties":{"price":29100,"use":"大分","zone":"","station":"住宅"}},{"type":"Feature","geometry":{"type":"Point","coordinates":[131.67411,33.15392]},"properties":{"price":27500,"use":"大分","zone":"","station":"住宅"}},{"type":"Feature","geometry":{"type":"Point","coordinates":[131.52855,33.1839]},"properties":{"price":34900,"use":"大分","zone":"","station":"住宅"}},{"type":"Feature","geometry":{"type":"Point","coordinates":[131.5864,33.18093]},"properties":{"price":44700,"use":"大分","zone":"","station":"住宅"}},{"type":"Feature","geometry":{"type":"Point","coordinates":[131.62046,33.19208]},"properties":{"price":47600,"use":"大分","zone":"","station":"住宅"}},{"type":"Feature","geometry":{"type":"Point","coordinates":[131.65452,33.16477]},"properties":{"price":13200,"use":"大分","zone":"","station":"住宅"}},{"type":"Feature","geometry":{"type":"Point","coordinates":[131.69234,33.21436]},"properties":{"price":30200,"use":"大分","zone":"","station":"住宅"}},{"type":"Feature","geometry":{"type":"Point","coordinates":[131.76235,33.23644]},"properties":{"price":36400,"use":"大分","zone":"","station":"住宅"}},{"type":"Feature","geometry":{"type":"Point","coordinates":[131.72729,33.23486]},"properties":{"price":33700,"use":"大分","zone":"","station":"住宅"}},{"type":"Feature","geometry":{"type":"Point","coordinates":[131.60078,33.19579]},"properties":{"price":47900,"use":"大分","zone":"","station":"住宅"}},{"type":"Feature","geometry":{"type":"Point","coordinates":[131.59409,33.18557]},"properties":{"price":41000,"use":"大分","zone":"","station":"住宅"}},{"type":"Feature","geometry":{"type":"Point","coordinates":[131.60446,33.22308]},"properties":{"price":66100,"use":"大分","zone":"","station":"住宅"}},{"type":"Feature","geometry":{"type":"Point","coordinates":[131.56852,33.21417]},"properties":{"price":70100,"use":"大分","zone":"","station":"共同住宅"}},{"type":"Feature","geometry":{"type":"Point","coordinates":[131.5738,33.23941]},"properties":{"price":31800,"use":"大分","zone":"","station":"住宅"}},{"type":"Feature","geometry":{"type":"Point","coordinates":[131.72198,33.22832]},"properties":{"price":14300,"use":"大分","zone":"","station":"住宅"}},{"type":"Feature","geometry":{"type":"Point","coordinates":[131.56584,33.1826]},"properties":{"price":39600,"use":"大分","zone":"","station":"住宅"}},{"type":"Feature","geometry":{"type":"Point","coordinates":[131.58318,33.21084]},"properties":{"price":61000,"use":"大分","zone":"","station":"住宅"}},{"type":"Feature","geometry":{"type":"Point","coordinates":[131.71765,33.24862]},"properties":{"price":45300,"use":"大分","zone":"","station":"住宅"}},{"type":"Feature","geometry":{"type":"Point","coordinates":[131.6044,33.20956]},"properties":{"price":72600,"use":"大分","zone":"","station":"住宅"}},{"type":"Feature","geometry":{"type":"Point","coordinates":[131.62907,33.21833]},"properties":{"price":76700,"use":"大分","zone":"","station":"住宅"}},{"type":"Feature","geometry":{"type":"Point","coordinates":[131.62763,33.22697]},"properties":{"price":73600,"use":"大分","zone":"","station":"共同住宅"}},{"type":"Feature","geometry":{"type":"Point","coordinates":[131.69827,33.22636]},"properties":{"price":6870,"use":"大分","zone":"","station":"田"}},{"type":"Feature","geometry":{"type":"Point","coordinates":[131.62991,33.16906]},"properties":{"price":7230,"use":"大分","zone":"","station":"田"}},{"type":"Feature","geometry":{"type":"Point","coordinates":[131.60702,33.23663]},"properties":{"price":599000,"use":"大分","zone":"","station":"銀行"}},{"type":"Feature","geometry":{"type":"Point","coordinates":[131.60583,33.23934]},"properties":{"price":374000,"use":"大分","zone":"","station":"店舗"}},{"type":"Feature","geometry":{"type":"Point","coordinates":[131.60252,33.24059]},"properties":{"price":185000,"use":"大分","zone":"","station":"店舗兼共同住宅"}},{"type":"Feature","geometry":{"type":"Point","coordinates":[131.6097,33.23618]},"properties":{"price":215000,"use":"大分","zone":"","station":"店舗、事務所兼住宅"}},{"type":"Feature","geometry":{"type":"Point","coordinates":[131.61373,33.24648]},"properties":{"price":138000,"use":"大分","zone":"","station":"事務所"}},{"type":"Feature","geometry":{"type":"Point","coordinates":[131.61271,33.23239]},"properties":{"price":189000,"use":"大分","zone":"","station":"事務所"}},{"type":"Feature","geometry":{"type":"Point","coordinates":[131.68091,33.2542]},"properties":{"price":50900,"use":"大分","zone":"","station":"事務所"}},{"type":"Feature","geometry":{"type":"Point","coordinates":[131.60033,33.23119]},"properties":{"price":139000,"use":"大分","zone":"","station":"店舗兼住宅"}},{"type":"Feature","geometry":{"type":"Point","coordinates":[131.56933,33.21268]},"properties":{"price":76200,"use":"大分","zone":"","station":"店舗"}},{"type":"Feature","geometry":{"type":"Point","coordinates":[131.62584,33.24068]},"properties":{"price":106000,"use":"大分","zone":"","station":"店舗"}},{"type":"Feature","geometry":{"type":"Point","coordinates":[131.6507,33.24382]},"properties":{"price":108000,"use":"大分","zone":"","station":"銀行"}},{"type":"Feature","geometry":{"type":"Point","coordinates":[131.6888,33.24086]},"properties":{"price":56000,"use":"大分","zone":"","station":"店舗兼住宅"}},{"type":"Feature","geometry":{"type":"Point","coordinates":[131.59579,33.22779]},"properties":{"price":180000,"use":"大分","zone":"","station":"店舗"}},{"type":"Feature","geometry":{"type":"Point","coordinates":[131.71191,33.24577]},"properties":{"price":55000,"use":"大分","zone":"","station":"店舗"}},{"type":"Feature","geometry":{"type":"Point","coordinates":[131.72081,33.24551]},"properties":{"price":52000,"use":"大分","zone":"","station":"店舗兼事務所"}},{"type":"Feature","geometry":{"type":"Point","coordinates":[131.74934,33.23496]},"properties":{"price":47000,"use":"大分","zone":"","station":"店舗兼住宅"}},{"type":"Feature","geometry":{"type":"Point","coordinates":[131.60671,33.21553]},"properties":{"price":98000,"use":"大分","zone":"","station":"店舗兼作業場"}},{"type":"Feature","geometry":{"type":"Point","coordinates":[131.59026,33.24289]},"properties":{"price":126000,"use":"大分","zone":"","station":"事務所"}},{"type":"Feature","geometry":{"type":"Point","coordinates":[131.60371,33.23476]},"properties":{"price":177000,"use":"大分","zone":"","station":"店舗兼共同住宅"}},{"type":"Feature","geometry":{"type":"Point","coordinates":[131.61221,33.23563]},"properties":{"price":162000,"use":"大分","zone":"","station":"店舗兼共同住宅"}},{"type":"Feature","geometry":{"type":"Point","coordinates":[131.68115,33.22792]},"properties":{"price":86700,"use":"大分","zone":"","station":"銀行"}},{"type":"Feature","geometry":{"type":"Point","coordinates":[131.59982,33.24683]},"properties":{"price":100000,"use":"大分","zone":"","station":"店舗兼共同住宅"}},{"type":"Feature","geometry":{"type":"Point","coordinates":[131.5788,33.19477]},"properties":{"price":77400,"use":"大分","zone":"","station":"店舗兼共同住宅"}},{"type":"Feature","geometry":{"type":"Point","coordinates":[131.59117,33.21481]},"properties":{"price":70000,"use":"大分","zone":"","station":"銀行"}},{"type":"Feature","geometry":{"type":"Point","coordinates":[131.65916,33.22611]},"properties":{"price":85700,"use":"大分","zone":"","station":"店舗兼共同住宅"}},{"type":"Feature","geometry":{"type":"Point","coordinates":[131.63512,33.22873]},"properties":{"price":105000,"use":"大分","zone":"","station":"店舗"}},{"type":"Feature","geometry":{"type":"Point","coordinates":[131.60436,33.23632]},"properties":{"price":298000,"use":"大分","zone":"","station":"診療所兼住宅"}},{"type":"Feature","geometry":{"type":"Point","coordinates":[131.65421,33.24632]},"properties":{"price":69000,"use":"大分","zone":"","station":"店舗、事務所兼共同住宅"}},{"type":"Feature","geometry":{"type":"Point","coordinates":[131.61862,33.21338]},"properties":{"price":73000,"use":"大分","zone":"","station":"店舗"}},{"type":"Feature","geometry":{"type":"Point","coordinates":[131.59097,33.23236]},"properties":{"price":117000,"use":"大分","zone":"","station":"診療所兼住宅"}},{"type":"Feature","geometry":{"type":"Point","coordinates":[131.60833,33.21168]},"properties":{"price":91300,"use":"大分","zone":"","station":"事務所"}},{"type":"Feature","geometry":{"type":"Point","coordinates":[131.58263,33.24624]},"properties":{"price":69400,"use":"大分","zone":"","station":"事務所兼住宅"}},{"type":"Feature","geometry":{"type":"Point","coordinates":[131.59653,33.21365]},"properties":{"price":112000,"use":"大分","zone":"","station":"診療所"}},{"type":"Feature","geometry":{"type":"Point","coordinates":[131.59393,33.19061]},"properties":{"price":101000,"use":"大分","zone":"","station":"店舗"}},{"type":"Feature","geometry":{"type":"Point","coordinates":[131.6027,33.22805]},"properties":{"price":239000,"use":"大分","zone":"","station":"事務所"}},{"type":"Feature","geometry":{"type":"Point","coordinates":[131.60581,33.24113]},"properties":{"price":180000,"use":"大分","zone":"","station":"店舗"}},{"type":"Feature","geometry":{"type":"Point","coordinates":[131.60609,33.23403]},"properties":{"price":697000,"use":"大分","zone":"","station":"事務所、店舗兼住宅"}},{"type":"Feature","geometry":{"type":"Point","coordinates":[131.60815,33.25786]},"properties":{"price":28300,"use":"大分","zone":"","station":"工場"}},{"type":"Feature","geometry":{"type":"Point","coordinates":[131.67801,33.25709]},"properties":{"price":19400,"use":"大分","zone":"","station":"事務所兼倉庫"}},{"type":"Feature","geometry":{"type":"Point","coordinates":[131.77363,33.24434]},"properties":{"price":16000,"use":"大分","zone":"","station":"工場"}},{"type":"Feature","geometry":{"type":"Point","coordinates":[131.70439,33.25823]},"properties":{"price":23300,"use":"大分","zone":"","station":"事務所兼倉庫"}},{"type":"Feature","geometry":{"type":"Point","coordinates":[131.59626,33.25059]},"properties":{"price":25500,"use":"大分","zone":"","station":"工場"}},{"type":"Feature","geometry":{"type":"Point","coordinates":[131.61021,33.25348]},"properties":{"price":40500,"use":"大分","zone":"","station":"工場"}},{"type":"Feature","geometry":{"type":"Point","coordinates":[131.66162,33.25549]},"properties":{"price":32900,"use":"大分","zone":"","station":"事務所兼倉庫"}},{"type":"Feature","geometry":{"type":"Point","coordinates":[131.70083,33.23013]},"properties":{"price":25700,"use":"大分","zone":"","station":"事務所兼倉庫"}},{"type":"Feature","geometry":{"type":"Point","coordinates":[131.72158,33.23785]},"properties":{"price":16400,"use":"大分","zone":"","station":"工場"}},{"type":"Feature","geometry":{"type":"Point","coordinates":[131.49471,33.27694]},"properties":{"price":71100,"use":"別府","zone":"","station":"住宅"}},{"type":"Feature","geometry":{"type":"Point","coordinates":[131.47925,33.28976]},"properties":{"price":56300,"use":"別府","zone":"","station":"住宅"}},{"type":"Feature","geometry":{"type":"Point","coordinates":[131.48073,33.28223]},"properties":{"price":53500,"use":"別府","zone":"","station":"住宅"}},{"type":"Feature","geometry":{"type":"Point","coordinates":[131.48554,33.29343]},"properties":{"price":65100,"use":"別府","zone":"","station":"住宅"}},{"type":"Feature","geometry":{"type":"Point","coordinates":[131.46782,33.29086]},"properties":{"price":34900,"use":"別府","zone":"","station":"住宅"}},{"type":"Feature","geometry":{"type":"Point","coordinates":[131.49645,33.3203]},"properties":{"price":43100,"use":"別府","zone":"","station":"住宅"}},{"type":"Feature","geometry":{"type":"Point","coordinates":[131.49916,33.27069]},"properties":{"price":32300,"use":"別府","zone":"","station":"住宅"}},{"type":"Feature","geometry":{"type":"Point","coordinates":[131.49064,33.30729]},"properties":{"price":52900,"use":"別府","zone":"","station":"住宅"}},{"type":"Feature","geometry":{"type":"Point","coordinates":[131.49483,33.29259]},"properties":{"price":67500,"use":"別府","zone":"","station":"住宅"}},{"type":"Feature","geometry":{"type":"Point","coordinates":[131.48355,33.32966]},"properties":{"price":30000,"use":"別府","zone":"","station":"住宅"}},{"type":"Feature","geometry":{"type":"Point","coordinates":[131.47259,33.31305]},"properties":{"price":37200,"use":"別府","zone":"","station":"住宅"}},{"type":"Feature","geometry":{"type":"Point","coordinates":[131.48789,33.28145]},"properties":{"price":64900,"use":"別府","zone":"","station":"住宅"}},{"type":"Feature","geometry":{"type":"Point","coordinates":[131.46045,33.28949]},"properties":{"price":25000,"use":"別府","zone":"","station":"建築中"}},{"type":"Feature","geometry":{"type":"Point","coordinates":[131.47143,33.29856]},"properties":{"price":37600,"use":"別府","zone":"","station":"住宅"}},{"type":"Feature","geometry":{"type":"Point","coordinates":[131.50863,33.2678]},"properties":{"price":27200,"use":"別府","zone":"","station":"住宅"}},{"type":"Feature","geometry":{"type":"Point","coordinates":[131.46413,33.30512]},"properties":{"price":35000,"use":"別府","zone":"","station":"住宅"}},{"type":"Feature","geometry":{"type":"Point","coordinates":[131.49399,33.28657]},"properties":{"price":53300,"use":"別府","zone":"","station":"住宅"}},{"type":"Feature","geometry":{"type":"Point","coordinates":[131.48875,33.3025]},"properties":{"price":44800,"use":"別府","zone":"","station":"住宅"}},{"type":"Feature","geometry":{"type":"Point","coordinates":[131.48859,33.31863]},"properties":{"price":26100,"use":"別府","zone":"","station":"住宅"}},{"type":"Feature","geometry":{"type":"Point","coordinates":[131.48937,33.31115]},"properties":{"price":47100,"use":"別府","zone":"","station":"住宅"}},{"type":"Feature","geometry":{"type":"Point","coordinates":[131.48114,33.30859]},"properties":{"price":52500,"use":"別府","zone":"","station":"住宅"}},{"type":"Feature","geometry":{"type":"Point","coordinates":[131.4535,33.32755]},"properties":{"price":6770,"use":"別府","zone":"","station":"住宅"}},{"type":"Feature","geometry":{"type":"Point","coordinates":[131.45632,33.24722]},"properties":{"price":3220,"use":"別府","zone":"","station":"住宅"}},{"type":"Feature","geometry":{"type":"Point","coordinates":[131.47508,33.27979]},"properties":{"price":5970,"use":"別府","zone":"","station":"住宅"}},{"type":"Feature","geometry":{"type":"Point","coordinates":[131.49979,33.29651]},"properties":{"price":65300,"use":"別府","zone":"","station":"共同住宅"}},{"type":"Feature","geometry":{"type":"Point","coordinates":[131.48527,33.3219]},"properties":{"price":9560,"use":"別府","zone":"","station":"田"}},{"type":"Feature","geometry":{"type":"Point","coordinates":[131.5035,33.27943]},"properties":{"price":135000,"use":"別府","zone":"","station":"店舗兼住宅"}},{"type":"Feature","geometry":{"type":"Point","coordinates":[131.50395,33.27798]},"properties":{"price":60700,"use":"別府","zone":"","station":"店舗"}},{"type":"Feature","geometry":{"type":"Point","coordinates":[131.50662,33.28156]},"properties":{"price":88500,"use":"別府","zone":"","station":"旅館"}},{"type":"Feature","geometry":{"type":"Point","coordinates":[131.48936,33.27908]},"properties":{"price":67000,"use":"別府","zone":"","station":"店舗兼住宅"}},{"type":"Feature","geometry":{"type":"Point","coordinates":[131.47504,33.30763]},"properties":{"price":57100,"use":"別府","zone":"","station":"店舗"}},{"type":"Feature","geometry":{"type":"Point","coordinates":[131.49527,33.30204]},"properties":{"price":74500,"use":"別府","zone":"","station":"店舗兼共同住宅"}},{"type":"Feature","geometry":{"type":"Point","coordinates":[131.50095,33.30012]},"properties":{"price":67800,"use":"別府","zone":"","station":"店舗兼住宅"}},{"type":"Feature","geometry":{"type":"Point","coordinates":[131.48049,33.31311]},"properties":{"price":68000,"use":"別府","zone":"","station":"店舗"}},{"type":"Feature","geometry":{"type":"Point","coordinates":[131.47847,33.31587]},"properties":{"price":53000,"use":"別府","zone":"","station":"旅館"}},{"type":"Feature","geometry":{"type":"Point","coordinates":[131.49688,33.323]},"properties":{"price":50200,"use":"別府","zone":"","station":"事務所兼倉庫"}},{"type":"Feature","geometry":{"type":"Point","coordinates":[131.49352,33.32331]},"properties":{"price":48400,"use":"別府","zone":"","station":"店舗兼住宅"}},{"type":"Feature","geometry":{"type":"Point","coordinates":[131.49834,33.31275]},"properties":{"price":63000,"use":"別府","zone":"","station":"店舗"}},{"type":"Feature","geometry":{"type":"Point","coordinates":[131.47668,33.28425]},"properties":{"price":59200,"use":"別府","zone":"","station":"事務所"}},{"type":"Feature","geometry":{"type":"Point","coordinates":[131.51018,33.26967]},"properties":{"price":53600,"use":"別府","zone":"","station":"店舗兼共同住宅"}},{"type":"Feature","geometry":{"type":"Point","coordinates":[131.49701,33.28371]},"properties":{"price":75400,"use":"別府","zone":"","station":"店舗兼住宅"}},{"type":"Feature","geometry":{"type":"Point","coordinates":[131.49625,33.33731]},"properties":{"price":31600,"use":"別府","zone":"","station":"工場兼住宅"}},{"type":"Feature","geometry":{"type":"Point","coordinates":[131.19939,33.59644]},"properties":{"price":39000,"use":"中津","zone":"","station":"住宅"}},{"type":"Feature","geometry":{"type":"Point","coordinates":[131.22297,33.58208]},"properties":{"price":17000,"use":"中津","zone":"","station":"住宅"}},{"type":"Feature","geometry":{"type":"Point","coordinates":[131.19439,33.57535]},"properties":{"price":24500,"use":"中津","zone":"","station":"住宅"}},{"type":"Feature","geometry":{"type":"Point","coordinates":[131.19164,33.60864]},"properties":{"price":22000,"use":"中津","zone":"","station":"住宅"}},{"type":"Feature","geometry":{"type":"Point","coordinates":[131.23756,33.5884]},"properties":{"price":14000,"use":"中津","zone":"","station":"アパート"}},{"type":"Feature","geometry":{"type":"Point","coordinates":[131.18966,33.59839]},"properties":{"price":72500,"use":"中津","zone":"","station":"店舗兼事務所"}},{"type":"Feature","geometry":{"type":"Point","coordinates":[131.21075,33.58976]},"properties":{"price":46400,"use":"中津","zone":"","station":"店舗兼工場"}},{"type":"Feature","geometry":{"type":"Point","coordinates":[131.22864,33.59815]},"properties":{"price":25800,"use":"中津","zone":"","station":"店舗"}},{"type":"Feature","geometry":{"type":"Point","coordinates":[131.24424,33.60786]},"properties":{"price":12100,"use":"中津","zone":"","station":"倉庫兼事務所"}},{"type":"Feature","geometry":{"type":"Point","coordinates":[130.93092,33.32276]},"properties":{"price":37400,"use":"日田","zone":"","station":"住宅"}},{"type":"Feature","geometry":{"type":"Point","coordinates":[130.91742,33.32066]},"properties":{"price":29100,"use":"日田","zone":"","station":"住宅"}},{"type":"Feature","geometry":{"type":"Point","coordinates":[130.94116,33.34919]},"properties":{"price":26100,"use":"日田","zone":"","station":"住宅"}},{"type":"Feature","geometry":{"type":"Point","coordinates":[130.93767,33.3311]},"properties":{"price":38200,"use":"日田","zone":"","station":"住宅"}},{"type":"Feature","geometry":{"type":"Point","coordinates":[130.94034,33.31313]},"properties":{"price":46000,"use":"日田","zone":"","station":"共同住宅"}},{"type":"Feature","geometry":{"type":"Point","coordinates":[130.93755,33.3176]},"properties":{"price":65000,"use":"日田","zone":"","station":"空地"}},{"type":"Feature","geometry":{"type":"Point","coordinates":[130.92826,33.30957]},"properties":{"price":38300,"use":"日田","zone":"","station":"店舗"}},{"type":"Feature","geometry":{"type":"Point","coordinates":[130.94226,33.34093]},"properties":{"price":53200,"use":"日田","zone":"","station":"営業所兼倉庫"}},{"type":"Feature","geometry":{"type":"Point","coordinates":[130.92388,33.32275]},"properties":{"price":58000,"use":"日田","zone":"","station":"店舗"}},{"type":"Feature","geometry":{"type":"Point","coordinates":[131.89634,32.96088]},"properties":{"price":45200,"use":"佐伯","zone":"","station":"住宅"}},{"type":"Feature","geometry":{"type":"Point","coordinates":[131.88592,32.95459]},"properties":{"price":36000,"use":"佐伯","zone":"","station":"住宅"}},{"type":"Feature","geometry":{"type":"Point","coordinates":[131.9045,32.97533]},"properties":{"price":27300,"use":"佐伯","zone":"","station":"住宅"}},{"type":"Feature","geometry":{"type":"Point","coordinates":[131.90892,32.95265]},"properties":{"price":27200,"use":"佐伯","zone":"","station":"住宅"}},{"type":"Feature","geometry":{"type":"Point","coordinates":[131.89479,32.95805]},"properties":{"price":49000,"use":"佐伯","zone":"","station":"店舗"}},{"type":"Feature","geometry":{"type":"Point","coordinates":[131.90382,32.9723]},"properties":{"price":46500,"use":"佐伯","zone":"","station":"店舗"}},{"type":"Feature","geometry":{"type":"Point","coordinates":[131.8675,32.96139]},"properties":{"price":49900,"use":"佐伯","zone":"","station":"店舗"}},{"type":"Feature","geometry":{"type":"Point","coordinates":[131.80204,33.12356]},"properties":{"price":40500,"use":"臼杵","zone":"","station":"住宅"}},{"type":"Feature","geometry":{"type":"Point","coordinates":[131.80275,33.13136]},"properties":{"price":20500,"use":"臼杵","zone":"","station":"住宅"}},{"type":"Feature","geometry":{"type":"Point","coordinates":[131.79219,33.12254]},"properties":{"price":32300,"use":"臼杵","zone":"","station":"住宅"}},{"type":"Feature","geometry":{"type":"Point","coordinates":[131.79982,33.12017]},"properties":{"price":52900,"use":"臼杵","zone":"","station":"店舗"}},{"type":"Feature","geometry":{"type":"Point","coordinates":[131.79249,33.12545]},"properties":{"price":45200,"use":"臼杵","zone":"","station":"店舗"}},{"type":"Feature","geometry":{"type":"Point","coordinates":[131.78114,33.11085]},"properties":{"price":47900,"use":"臼杵","zone":"","station":"店舗兼事務所"}},{"type":"Feature","geometry":{"type":"Point","coordinates":[131.86251,33.07261]},"properties":{"price":33400,"use":"津久見","zone":"","station":"住宅"}},{"type":"Feature","geometry":{"type":"Point","coordinates":[131.83785,33.08211]},"properties":{"price":15500,"use":"津久見","zone":"","station":"住宅"}},{"type":"Feature","geometry":{"type":"Point","coordinates":[131.85121,33.0924]},"properties":{"price":16200,"use":"津久見","zone":"","station":"住宅"}},{"type":"Feature","geometry":{"type":"Point","coordinates":[131.86374,33.0736]},"properties":{"price":38000,"use":"津久見","zone":"","station":"診療所兼住宅"}},{"type":"Feature","geometry":{"type":"Point","coordinates":[131.86405,33.0755]},"properties":{"price":44800,"use":"津久見","zone":"","station":"店舗"}},{"type":"Feature","geometry":{"type":"Point","coordinates":[131.39564,32.96792]},"properties":{"price":25100,"use":"竹田","zone":"","station":"店舗兼住宅"}},{"type":"Feature","geometry":{"type":"Point","coordinates":[131.38526,32.97468]},"properties":{"price":12400,"use":"竹田","zone":"","station":"住宅"}},{"type":"Feature","geometry":{"type":"Point","coordinates":[131.39902,32.97607]},"properties":{"price":24000,"use":"竹田","zone":"","station":"住宅"}},{"type":"Feature","geometry":{"type":"Point","coordinates":[131.3924,32.967]},"properties":{"price":37000,"use":"竹田","zone":"","station":"空地"}},{"type":"Feature","geometry":{"type":"Point","coordinates":[131.38202,32.96055]},"properties":{"price":30500,"use":"竹田","zone":"","station":"店舗"}},{"type":"Feature","geometry":{"type":"Point","coordinates":[131.44644,33.55971]},"properties":{"price":16300,"use":"豊後高田","zone":"","station":"住宅"}},{"type":"Feature","geometry":{"type":"Point","coordinates":[131.44755,33.56516]},"properties":{"price":11400,"use":"豊後高田","zone":"","station":"住宅"}},{"type":"Feature","geometry":{"type":"Point","coordinates":[131.4457,33.54776]},"properties":{"price":9130,"use":"豊後高田","zone":"","station":"住宅"}},{"type":"Feature","geometry":{"type":"Point","coordinates":[131.43604,33.55849]},"properties":{"price":32000,"use":"豊後高田","zone":"","station":"診療所"}},{"type":"Feature","geometry":{"type":"Point","coordinates":[131.61089,33.41961]},"properties":{"price":22600,"use":"杵築","zone":"","station":"住宅"}},{"type":"Feature","geometry":{"type":"Point","coordinates":[131.60446,33.41678]},"properties":{"price":19700,"use":"杵築","zone":"","station":"住宅"}},{"type":"Feature","geometry":{"type":"Point","coordinates":[131.58786,33.4112]},"properties":{"price":12300,"use":"杵築","zone":"","station":"住宅"}},{"type":"Feature","geometry":{"type":"Point","coordinates":[131.62457,33.41811]},"properties":{"price":37700,"use":"杵築","zone":"","station":"店舗"}},{"type":"Feature","geometry":{"type":"Point","coordinates":[131.62854,33.41635]},"properties":{"price":44100,"use":"杵築","zone":"","station":"店舗"}},{"type":"Feature","geometry":{"type":"Point","coordinates":[131.3311,33.53161]},"properties":{"price":20800,"use":"宇佐","zone":"","station":"住宅"}},{"type":"Feature","geometry":{"type":"Point","coordinates":[131.35478,33.54377]},"properties":{"price":12000,"use":"宇佐","zone":"","station":"住宅"}},{"type":"Feature","geometry":{"type":"Point","coordinates":[131.37563,33.56353]},"properties":{"price":11400,"use":"宇佐","zone":"","station":"住宅"}},{"type":"Feature","geometry":{"type":"Point","coordinates":[131.32717,33.53103]},"properties":{"price":32400,"use":"宇佐","zone":"","station":"店舗兼住宅"}},{"type":"Feature","geometry":{"type":"Point","coordinates":[131.32959,33.5338]},"properties":{"price":46600,"use":"宇佐","zone":"","station":"店舗"}},{"type":"Feature","geometry":{"type":"Point","coordinates":[131.34011,33.53462]},"properties":{"price":28300,"use":"宇佐","zone":"","station":"店舗"}},{"type":"Feature","geometry":{"type":"Point","coordinates":[131.59816,32.98485]},"properties":{"price":28000,"use":"豊後大野","zone":"","station":"住宅"}},{"type":"Feature","geometry":{"type":"Point","coordinates":[131.57534,32.97902]},"properties":{"price":16900,"use":"豊後大野","zone":"","station":"住宅"}},{"type":"Feature","geometry":{"type":"Point","coordinates":[131.58423,32.97861]},"properties":{"price":51100,"use":"豊後大野","zone":"","station":"店舗"}},{"type":"Feature","geometry":{"type":"Point","coordinates":[131.59343,32.98429]},"properties":{"price":52100,"use":"豊後大野","zone":"","station":"店舗、事務所兼共同住宅"}},{"type":"Feature","geometry":{"type":"Point","coordinates":[131.51806,33.19825]},"properties":{"price":31000,"use":"由布","zone":"","station":"住宅"}},{"type":"Feature","geometry":{"type":"Point","coordinates":[131.51711,33.2036]},"properties":{"price":34400,"use":"由布","zone":"","station":"住宅"}},{"type":"Feature","geometry":{"type":"Point","coordinates":[131.35418,33.26313]},"properties":{"price":33200,"use":"由布","zone":"","station":"住宅"}},{"type":"Feature","geometry":{"type":"Point","coordinates":[131.35828,33.25864]},"properties":{"price":37400,"use":"由布","zone":"","station":"住宅"}},{"type":"Feature","geometry":{"type":"Point","coordinates":[131.32666,33.2683]},"properties":{"price":11600,"use":"由布","zone":"","station":"別荘"}},{"type":"Feature","geometry":{"type":"Point","coordinates":[131.51806,33.20012]},"properties":{"price":43300,"use":"由布","zone":"","station":"店舗"}},{"type":"Feature","geometry":{"type":"Point","coordinates":[131.35743,33.26426]},"properties":{"price":128000,"use":"由布","zone":"","station":"店舗兼事務所"}},{"type":"Feature","geometry":{"type":"Point","coordinates":[131.36452,33.26729]},"properties":{"price":202000,"use":"由布","zone":"","station":"店舗"}},{"type":"Feature","geometry":{"type":"Point","coordinates":[131.73666,33.56296]},"properties":{"price":12700,"use":"国東","zone":"","station":"住宅"}},{"type":"Feature","geometry":{"type":"Point","coordinates":[131.72496,33.56115]},"properties":{"price":9750,"use":"国東","zone":"","station":"住宅"}},{"type":"Feature","geometry":{"type":"Point","coordinates":[131.73241,33.56363]},"properties":{"price":24700,"use":"国東","zone":"","station":"店舗"}},{"type":"Feature","geometry":{"type":"Point","coordinates":[131.53505,33.36657]},"properties":{"price":36500,"use":"日出","zone":"","station":"住宅"}},{"type":"Feature","geometry":{"type":"Point","coordinates":[131.5518,33.37193]},"properties":{"price":19600,"use":"日出","zone":"","station":"住宅"}},{"type":"Feature","geometry":{"type":"Point","coordinates":[131.53173,33.36884]},"properties":{"price":40800,"use":"日出","zone":"","station":"事務所"}},{"type":"Feature","geometry":{"type":"Point","coordinates":[131.53193,33.37438]},"properties":{"price":53300,"use":"日出","zone":"","station":"店舗兼共同住宅"}},{"type":"Feature","geometry":{"type":"Point","coordinates":[131.15503,33.27751]},"properties":{"price":24000,"use":"玖珠","zone":"","station":"住宅"}},{"type":"Feature","geometry":{"type":"Point","coordinates":[131.16008,33.30018]},"properties":{"price":16700,"use":"玖珠","zone":"","station":"住宅"}},{"type":"Feature","geometry":{"type":"Point","coordinates":[131.15204,33.27619]},"properties":{"price":43800,"use":"玖珠","zone":"","station":"銀行"}}]}