{"type":"FeatureCollection","features":[{"type":"Feature","geometry":{"type":"Point","coordinates":[141.11027,39.7318]},"properties":{"price":62900,"use":"盛岡","zone":"","station":"住宅"}},{"type":"Feature","geometry":{"type":"Point","coordinates":[141.10483,39.72035]},"properties":{"price":45600,"use":"盛岡","zone":"","station":"住宅"}},{"type":"Feature","geometry":{"type":"Point","coordinates":[141.10675,39.70814]},"properties":{"price":41500,"use":"盛岡","zone":"","station":"住宅"}},{"type":"Feature","geometry":{"type":"Point","coordinates":[141.12427,39.71971]},"properties":{"price":48500,"use":"盛岡","zone":"","station":"住宅"}},{"type":"Feature","geometry":{"type":"Point","coordinates":[141.11283,39.71651]},"properties":{"price":53500,"use":"盛岡","zone":"","station":"住宅"}},{"type":"Feature","geometry":{"type":"Point","coordinates":[141.17107,39.70251]},"properties":{"price":40700,"use":"盛岡","zone":"","station":"住宅"}},{"type":"Feature","geometry":{"type":"Point","coordinates":[141.16586,39.71273]},"properties":{"price":52800,"use":"盛岡","zone":"","station":"住宅"}},{"type":"Feature","geometry":{"type":"Point","coordinates":[141.1417,39.73683]},"properties":{"price":55900,"use":"盛岡","zone":"","station":"住宅"}},{"type":"Feature","geometry":{"type":"Point","coordinates":[141.16989,39.67135]},"properties":{"price":41800,"use":"盛岡","zone":"","station":"住宅"}},{"type":"Feature","geometry":{"type":"Point","coordinates":[141.15179,39.72848]},"properties":{"price":45600,"use":"盛岡","zone":"","station":"住宅"}},{"type":"Feature","geometry":{"type":"Point","coordinates":[141.1336,39.72559]},"properties":{"price":63100,"use":"盛岡","zone":"","station":"住宅"}},{"type":"Feature","geometry":{"type":"Point","coordinates":[141.12624,39.7322]},"properties":{"price":41700,"use":"盛岡","zone":"","station":"住宅"}},{"type":"Feature","geometry":{"type":"Point","coordinates":[141.14322,39.71657]},"properties":{"price":73500,"use":"盛岡","zone":"","station":"住宅"}},{"type":"Feature","geometry":{"type":"Point","coordinates":[141.1404,39.70814]},"properties":{"price":78800,"use":"盛岡","zone":"","station":"住宅"}},{"type":"Feature","geometry":{"type":"Point","coordinates":[141.15953,39.71066]},"properties":{"price":71300,"use":"盛岡","zone":"","station":"住宅"}},{"type":"Feature","geometry":{"type":"Point","coordinates":[141.16695,39.72852]},"properties":{"price":44000,"use":"盛岡","zone":"","station":"住宅"}},{"type":"Feature","geometry":{"type":"Point","coordinates":[141.16284,39.70657]},"properties":{"price":96100,"use":"盛岡","zone":"","station":"住宅"}},{"type":"Feature","geometry":{"type":"Point","coordinates":[141.17458,39.71235]},"properties":{"price":55100,"use":"盛岡","zone":"","station":"住宅"}},{"type":"Feature","geometry":{"type":"Point","coordinates":[141.16484,39.69415]},"properties":{"price":73900,"use":"盛岡","zone":"","station":"住宅"}},{"type":"Feature","geometry":{"type":"Point","coordinates":[141.17668,39.69225]},"properties":{"price":44700,"use":"盛岡","zone":"","station":"住宅"}},{"type":"Feature","geometry":{"type":"Point","coordinates":[141.1222,39.69577]},"properties":{"price":70100,"use":"盛岡","zone":"","station":"住宅"}},{"type":"Feature","geometry":{"type":"Point","coordinates":[141.18571,39.61855]},"properties":{"price":29700,"use":"盛岡","zone":"","station":"住宅"}},{"type":"Feature","geometry":{"type":"Point","coordinates":[141.1486,39.69073]},"properties":{"price":62700,"use":"盛岡","zone":"","station":"住宅"}},{"type":"Feature","geometry":{"type":"Point","coordinates":[141.15055,39.67578]},"properties":{"price":68600,"use":"盛岡","zone":"","station":"住宅"}},{"type":"Feature","geometry":{"type":"Point","coordinates":[141.15111,39.65167]},"properties":{"price":70300,"use":"盛岡","zone":"","station":"住宅"}},{"type":"Feature","geometry":{"type":"Point","coordinates":[141.15262,39.66968]},"properties":{"price":69400,"use":"盛岡","zone":"","station":"住宅"}},{"type":"Feature","geometry":{"type":"Point","coordinates":[141.13421,39.72154]},"properties":{"price":72400,"use":"盛岡","zone":"","station":"住宅"}},{"type":"Feature","geometry":{"type":"Point","coordinates":[141.16614,39.71605]},"properties":{"price":45700,"use":"盛岡","zone":"","station":"住宅"}},{"type":"Feature","geometry":{"type":"Point","coordinates":[141.16834,39.67881]},"properties":{"price":50000,"use":"盛岡","zone":"","station":"住宅"}},{"type":"Feature","geometry":{"type":"Point","coordinates":[141.18724,39.75798]},"properties":{"price":13800,"use":"盛岡","zone":"","station":"住宅"}},{"type":"Feature","geometry":{"type":"Point","coordinates":[141.15197,39.74486]},"properties":{"price":44100,"use":"盛岡","zone":"","station":"住宅"}},{"type":"Feature","geometry":{"type":"Point","coordinates":[141.13342,39.7547]},"properties":{"price":38900,"use":"盛岡","zone":"","station":"住宅"}},{"type":"Feature","geometry":{"type":"Point","coordinates":[141.16667,39.74635]},"properties":{"price":30800,"use":"盛岡","zone":"","station":"住宅"}},{"type":"Feature","geometry":{"type":"Point","coordinates":[141.16697,39.84578]},"properties":{"price":18000,"use":"盛岡","zone":"","station":"住宅"}},{"type":"Feature","geometry":{"type":"Point","coordinates":[141.13357,39.7344]},"properties":{"price":40100,"use":"盛岡","zone":"","station":"住宅"}},{"type":"Feature","geometry":{"type":"Point","coordinates":[141.15338,39.68139]},"properties":{"price":62800,"use":"盛岡","zone":"","station":"住宅"}},{"type":"Feature","geometry":{"type":"Point","coordinates":[141.1529,39.70936]},"properties":{"price":80300,"use":"盛岡","zone":"","station":"住宅"}},{"type":"Feature","geometry":{"type":"Point","coordinates":[141.15146,39.83593]},"properties":{"price":12200,"use":"盛岡","zone":"","station":"住宅"}},{"type":"Feature","geometry":{"type":"Point","coordinates":[141.11402,39.71022]},"properties":{"price":46200,"use":"盛岡","zone":"","station":"住宅"}},{"type":"Feature","geometry":{"type":"Point","coordinates":[141.08603,39.71417]},"properties":{"price":22500,"use":"盛岡","zone":"","station":"住宅"}},{"type":"Feature","geometry":{"type":"Point","coordinates":[141.13986,39.6603]},"properties":{"price":28900,"use":"盛岡","zone":"","station":"住宅"}},{"type":"Feature","geometry":{"type":"Point","coordinates":[141.1565,39.71467]},"properties":{"price":47400,"use":"盛岡","zone":"","station":"住宅"}},{"type":"Feature","geometry":{"type":"Point","coordinates":[141.10683,39.68195]},"properties":{"price":27100,"use":"盛岡","zone":"","station":"住宅"}},{"type":"Feature","geometry":{"type":"Point","coordinates":[141.14148,39.67835]},"properties":{"price":92600,"use":"盛岡","zone":"","station":"住宅"}},{"type":"Feature","geometry":{"type":"Point","coordinates":[141.18474,39.65337]},"properties":{"price":37100,"use":"盛岡","zone":"","station":"住宅"}},{"type":"Feature","geometry":{"type":"Point","coordinates":[141.13103,39.67358]},"properties":{"price":84400,"use":"盛岡","zone":"","station":"住宅"}},{"type":"Feature","geometry":{"type":"Point","coordinates":[141.14284,39.65273]},"properties":{"price":19400,"use":"盛岡","zone":"","station":"田"}},{"type":"Feature","geometry":{"type":"Point","coordinates":[141.14668,39.70327]},"properties":{"price":283000,"use":"盛岡","zone":"","station":"店舗"}},{"type":"Feature","geometry":{"type":"Point","coordinates":[141.1384,39.70181]},"properties":{"price":281000,"use":"盛岡","zone":"","station":"店舗兼事務所"}},{"type":"Feature","geometry":{"type":"Point","coordinates":[141.13751,39.70641]},"properties":{"price":119000,"use":"盛岡","zone":"","station":"店舗兼共同住宅"}},{"type":"Feature","geometry":{"type":"Point","coordinates":[141.1139,39.72833]},"properties":{"price":59100,"use":"盛岡","zone":"","station":"店舗兼住宅"}},{"type":"Feature","geometry":{"type":"Point","coordinates":[141.15561,39.70001]},"properties":{"price":188000,"use":"盛岡","zone":"","station":"店舗兼事務所"}},{"type":"Feature","geometry":{"type":"Point","coordinates":[141.11194,39.70855]},"properties":{"price":63500,"use":"盛岡","zone":"","station":"店舗"}},{"type":"Feature","geometry":{"type":"Point","coordinates":[141.14965,39.70388]},"properties":{"price":213000,"use":"盛岡","zone":"","station":"事務所"}},{"type":"Feature","geometry":{"type":"Point","coordinates":[141.1597,39.69733]},"properties":{"price":75000,"use":"盛岡","zone":"","station":"店舗"}},{"type":"Feature","geometry":{"type":"Point","coordinates":[141.16185,39.65907]},"properties":{"price":65600,"use":"盛岡","zone":"","station":"店舗兼事務所"}},{"type":"Feature","geometry":{"type":"Point","coordinates":[141.14177,39.70594]},"properties":{"price":139000,"use":"盛岡","zone":"","station":"事務所兼専門学校"}},{"type":"Feature","geometry":{"type":"Point","coordinates":[141.17046,39.69281]},"properties":{"price":69800,"use":"盛岡","zone":"","station":"店舗"}},{"type":"Feature","geometry":{"type":"Point","coordinates":[141.15384,39.6985]},"properties":{"price":116000,"use":"盛岡","zone":"","station":"事務所"}},{"type":"Feature","geometry":{"type":"Point","coordinates":[141.14428,39.70264]},"properties":{"price":198000,"use":"盛岡","zone":"","station":"店舗兼事務所"}},{"type":"Feature","geometry":{"type":"Point","coordinates":[141.13236,39.68459]},"properties":{"price":107000,"use":"盛岡","zone":"","station":"店舗"}},{"type":"Feature","geometry":{"type":"Point","coordinates":[141.15304,39.69407]},"properties":{"price":88800,"use":"盛岡","zone":"","station":"店舗兼住宅"}},{"type":"Feature","geometry":{"type":"Point","coordinates":[141.13468,39.72334]},"properties":{"price":67800,"use":"盛岡","zone":"","station":"店舗"}},{"type":"Feature","geometry":{"type":"Point","coordinates":[141.13216,39.74893]},"properties":{"price":43300,"use":"盛岡","zone":"","station":"店舗兼工場"}},{"type":"Feature","geometry":{"type":"Point","coordinates":[141.1564,39.67963]},"properties":{"price":70500,"use":"盛岡","zone":"","station":"店舗"}},{"type":"Feature","geometry":{"type":"Point","coordinates":[141.13248,39.69931]},"properties":{"price":127000,"use":"盛岡","zone":"","station":"店舗事務所兼共同住宅"}},{"type":"Feature","geometry":{"type":"Point","coordinates":[141.14786,39.67683]},"properties":{"price":41300,"use":"盛岡","zone":"","station":"事務所兼倉庫"}},{"type":"Feature","geometry":{"type":"Point","coordinates":[141.94296,39.64607]},"properties":{"price":57100,"use":"宮古","zone":"","station":"住宅"}},{"type":"Feature","geometry":{"type":"Point","coordinates":[141.96308,39.62804]},"properties":{"price":40000,"use":"宮古","zone":"","station":"住宅"}},{"type":"Feature","geometry":{"type":"Point","coordinates":[141.91153,39.64259]},"properties":{"price":39700,"use":"宮古","zone":"","station":"住宅"}},{"type":"Feature","geometry":{"type":"Point","coordinates":[141.93405,39.6477]},"properties":{"price":41100,"use":"宮古","zone":"","station":"住宅"}},{"type":"Feature","geometry":{"type":"Point","coordinates":[141.94819,39.64179]},"properties":{"price":60000,"use":"宮古","zone":"","station":"店舗"}},{"type":"Feature","geometry":{"type":"Point","coordinates":[141.71488,39.06114]},"properties":{"price":39300,"use":"大船渡","zone":"","station":"住宅"}},{"type":"Feature","geometry":{"type":"Point","coordinates":[141.7158,39.11124]},"properties":{"price":32000,"use":"大船渡","zone":"","station":"住宅"}},{"type":"Feature","geometry":{"type":"Point","coordinates":[141.71928,39.04264]},"properties":{"price":23700,"use":"大船渡","zone":"","station":"住宅"}},{"type":"Feature","geometry":{"type":"Point","coordinates":[141.72219,39.05996]},"properties":{"price":52100,"use":"大船渡","zone":"","station":"店舗"}},{"type":"Feature","geometry":{"type":"Point","coordinates":[141.71999,39.08519]},"properties":{"price":31300,"use":"大船渡","zone":"","station":"店舗"}},{"type":"Feature","geometry":{"type":"Point","coordinates":[141.10494,39.3847]},"properties":{"price":29000,"use":"花巻","zone":"","station":"住宅"}},{"type":"Feature","geometry":{"type":"Point","coordinates":[141.11955,39.40154]},"properties":{"price":25500,"use":"花巻","zone":"","station":"住宅"}},{"type":"Feature","geometry":{"type":"Point","coordinates":[141.23476,39.38284]},"properties":{"price":14800,"use":"花巻","zone":"","station":"住宅"}},{"type":"Feature","geometry":{"type":"Point","coordinates":[141.10259,39.40293]},"properties":{"price":32500,"use":"花巻","zone":"","station":"住宅"}},{"type":"Feature","geometry":{"type":"Point","coordinates":[141.1283,39.42216]},"properties":{"price":16700,"use":"花巻","zone":"","station":"住宅"}},{"type":"Feature","geometry":{"type":"Point","coordinates":[141.15576,39.49802]},"properties":{"price":18000,"use":"花巻","zone":"","station":"住宅"}},{"type":"Feature","geometry":{"type":"Point","coordinates":[141.14009,39.48551]},"properties":{"price":14500,"use":"花巻","zone":"","station":"住宅"}},{"type":"Feature","geometry":{"type":"Point","coordinates":[141.11616,39.38608]},"properties":{"price":38800,"use":"花巻","zone":"","station":"店舗兼住宅"}},{"type":"Feature","geometry":{"type":"Point","coordinates":[141.10713,39.39334]},"properties":{"price":37600,"use":"花巻","zone":"","station":"店舗"}},{"type":"Feature","geometry":{"type":"Point","coordinates":[141.15226,39.49371]},"properties":{"price":22600,"use":"花巻","zone":"","station":"店舗兼住宅"}},{"type":"Feature","geometry":{"type":"Point","coordinates":[141.22905,39.38742]},"properties":{"price":17700,"use":"花巻","zone":"","station":"店舗兼住宅"}},{"type":"Feature","geometry":{"type":"Point","coordinates":[141.11688,39.44501]},"properties":{"price":9210,"use":"花巻","zone":"","station":"工場"}},{"type":"Feature","geometry":{"type":"Point","coordinates":[141.10726,39.28938]},"properties":{"price":37100,"use":"北上","zone":"","station":"住宅"}},{"type":"Feature","geometry":{"type":"Point","coordinates":[141.11547,39.32022]},"properties":{"price":24800,"use":"北上","zone":"","station":"住宅"}},{"type":"Feature","geometry":{"type":"Point","coordinates":[141.1131,39.30772]},"properties":{"price":32100,"use":"北上","zone":"","station":"住宅"}},{"type":"Feature","geometry":{"type":"Point","coordinates":[141.13037,39.29022]},"properties":{"price":34700,"use":"北上","zone":"","station":"住宅"}},{"type":"Feature","geometry":{"type":"Point","coordinates":[141.12665,39.30475]},"properties":{"price":29600,"use":"北上","zone":"","station":"住宅"}},{"type":"Feature","geometry":{"type":"Point","coordinates":[141.11907,39.28189]},"properties":{"price":56200,"use":"北上","zone":"","station":"事務所"}},{"type":"Feature","geometry":{"type":"Point","coordinates":[141.1087,39.2924]},"properties":{"price":44500,"use":"北上","zone":"","station":"店舗"}},{"type":"Feature","geometry":{"type":"Point","coordinates":[141.10933,39.28585]},"properties":{"price":46400,"use":"北上","zone":"","station":"店舗兼住宅"}},{"type":"Feature","geometry":{"type":"Point","coordinates":[141.09822,39.31307]},"properties":{"price":14400,"use":"北上","zone":"","station":"倉庫兼事務所"}},{"type":"Feature","geometry":{"type":"Point","coordinates":[141.76415,40.19082]},"properties":{"price":27100,"use":"久慈","zone":"","station":"住宅"}},{"type":"Feature","geometry":{"type":"Point","coordinates":[141.74466,40.19355]},"properties":{"price":17000,"use":"久慈","zone":"","station":"住宅"}},{"type":"Feature","geometry":{"type":"Point","coordinates":[141.75589,40.19178]},"properties":{"price":20500,"use":"久慈","zone":"","station":"住宅"}},{"type":"Feature","geometry":{"type":"Point","coordinates":[141.76759,40.19025]},"properties":{"price":31800,"use":"久慈","zone":"","station":"店舗兼住宅"}},{"type":"Feature","geometry":{"type":"Point","coordinates":[141.51981,39.32561]},"properties":{"price":13600,"use":"遠野","zone":"","station":"住宅"}},{"type":"Feature","geometry":{"type":"Point","coordinates":[141.52391,39.3364]},"properties":{"price":21500,"use":"遠野","zone":"","station":"住宅"}},{"type":"Feature","geometry":{"type":"Point","coordinates":[141.53715,39.32923]},"properties":{"price":23400,"use":"遠野","zone":"","station":"住宅"}},{"type":"Feature","geometry":{"type":"Point","coordinates":[141.52992,39.32967]},"properties":{"price":32000,"use":"遠野","zone":"","station":"店舗"}},{"type":"Feature","geometry":{"type":"Point","coordinates":[141.2574,38.99768]},"properties":{"price":11400,"use":"一関","zone":"","station":"住宅"}},{"type":"Feature","geometry":{"type":"Point","coordinates":[141.2481,38.99491]},"properties":{"price":7700,"use":"一関","zone":"","station":"住宅"}},{"type":"Feature","geometry":{"type":"Point","coordinates":[141.12204,38.92864]},"properties":{"price":39200,"use":"一関","zone":"","station":"住宅"}},{"type":"Feature","geometry":{"type":"Point","coordinates":[141.13324,38.94257]},"properties":{"price":36600,"use":"一関","zone":"","station":"建築中"}},{"type":"Feature","geometry":{"type":"Point","coordinates":[141.32997,38.91921]},"properties":{"price":18400,"use":"一関","zone":"","station":"住宅"}},{"type":"Feature","geometry":{"type":"Point","coordinates":[141.34276,38.9218]},"properties":{"price":15500,"use":"一関","zone":"","station":"住宅"}},{"type":"Feature","geometry":{"type":"Point","coordinates":[141.13583,38.92703]},"properties":{"price":44900,"use":"一関","zone":"","station":"店舗"}},{"type":"Feature","geometry":{"type":"Point","coordinates":[141.11581,38.93732]},"properties":{"price":54200,"use":"一関","zone":"","station":"店舗"}},{"type":"Feature","geometry":{"type":"Point","coordinates":[141.33573,38.91743]},"properties":{"price":26200,"use":"一関","zone":"","station":"店舗"}},{"type":"Feature","geometry":{"type":"Point","coordinates":[141.25121,38.99203]},"properties":{"price":18200,"use":"一関","zone":"","station":"店舗兼住宅"}},{"type":"Feature","geometry":{"type":"Point","coordinates":[141.63149,39.02524]},"properties":{"price":22300,"use":"陸前高田","zone":"","station":"住宅"}},{"type":"Feature","geometry":{"type":"Point","coordinates":[141.63388,39.02126]},"properties":{"price":22400,"use":"陸前高田","zone":"","station":"住宅"}},{"type":"Feature","geometry":{"type":"Point","coordinates":[141.64929,39.01651]},"properties":{"price":13900,"use":"陸前高田","zone":"","station":"住宅"}},{"type":"Feature","geometry":{"type":"Point","coordinates":[141.62876,39.01545]},"properties":{"price":35400,"use":"陸前高田","zone":"","station":"店舗兼事務所"}},{"type":"Feature","geometry":{"type":"Point","coordinates":[141.85758,39.27135]},"properties":{"price":58200,"use":"釜石","zone":"","station":"住宅"}},{"type":"Feature","geometry":{"type":"Point","coordinates":[141.8917,39.25924]},"properties":{"price":22900,"use":"釜石","zone":"","station":"住宅"}},{"type":"Feature","geometry":{"type":"Point","coordinates":[141.83735,39.26017]},"properties":{"price":40500,"use":"釜石","zone":"","station":"住宅"}},{"type":"Feature","geometry":{"type":"Point","coordinates":[141.87962,39.2734]},"properties":{"price":60700,"use":"釜石","zone":"","station":"店舗兼住宅"}},{"type":"Feature","geometry":{"type":"Point","coordinates":[141.82275,39.25731]},"properties":{"price":47100,"use":"釜石","zone":"","station":"店舗"}},{"type":"Feature","geometry":{"type":"Point","coordinates":[141.29733,40.29102]},"properties":{"price":22900,"use":"二戸","zone":"","station":"住宅"}},{"type":"Feature","geometry":{"type":"Point","coordinates":[141.29516,40.2656]},"properties":{"price":17700,"use":"二戸","zone":"","station":"住宅"}},{"type":"Feature","geometry":{"type":"Point","coordinates":[141.29856,40.27313]},"properties":{"price":23000,"use":"二戸","zone":"","station":"住宅"}},{"type":"Feature","geometry":{"type":"Point","coordinates":[141.30126,40.27171]},"properties":{"price":31200,"use":"二戸","zone":"","station":"店舗兼住宅"}},{"type":"Feature","geometry":{"type":"Point","coordinates":[141.10005,39.90759]},"properties":{"price":10900,"use":"八幡平","zone":"","station":"住宅"}},{"type":"Feature","geometry":{"type":"Point","coordinates":[141.09027,39.94967]},"properties":{"price":15200,"use":"八幡平","zone":"","station":"住宅"}},{"type":"Feature","geometry":{"type":"Point","coordinates":[141.09623,39.91209]},"properties":{"price":22800,"use":"八幡平","zone":"","station":"店舗"}},{"type":"Feature","geometry":{"type":"Point","coordinates":[141.15276,39.13909]},"properties":{"price":27500,"use":"奥州","zone":"","station":"住宅"}},{"type":"Feature","geometry":{"type":"Point","coordinates":[141.12507,39.16224]},"properties":{"price":20200,"use":"奥州","zone":"","station":"住宅"}},{"type":"Feature","geometry":{"type":"Point","coordinates":[141.15234,39.14966]},"properties":{"price":28500,"use":"奥州","zone":"","station":"住宅"}},{"type":"Feature","geometry":{"type":"Point","coordinates":[141.15962,39.17358]},"properties":{"price":16400,"use":"奥州","zone":"","station":"住宅"}},{"type":"Feature","geometry":{"type":"Point","coordinates":[141.10757,39.1191]},"properties":{"price":9830,"use":"奥州","zone":"","station":"住宅"}},{"type":"Feature","geometry":{"type":"Point","coordinates":[141.16968,39.18779]},"properties":{"price":19200,"use":"奥州","zone":"","station":"住宅"}},{"type":"Feature","geometry":{"type":"Point","coordinates":[141.1245,39.06068]},"properties":{"price":13000,"use":"奥州","zone":"","station":"住宅"}},{"type":"Feature","geometry":{"type":"Point","coordinates":[141.12225,39.03762]},"properties":{"price":17900,"use":"奥州","zone":"","station":"住宅"}},{"type":"Feature","geometry":{"type":"Point","coordinates":[141.11364,39.13463]},"properties":{"price":11800,"use":"奥州","zone":"","station":"住宅"}},{"type":"Feature","geometry":{"type":"Point","coordinates":[141.14442,39.13952]},"properties":{"price":36300,"use":"奥州","zone":"","station":"店舗"}},{"type":"Feature","geometry":{"type":"Point","coordinates":[141.14963,39.13705]},"properties":{"price":33200,"use":"奥州","zone":"","station":"事務所"}},{"type":"Feature","geometry":{"type":"Point","coordinates":[141.17936,39.19069]},"properties":{"price":24700,"use":"奥州","zone":"","station":"店舗"}},{"type":"Feature","geometry":{"type":"Point","coordinates":[141.12266,39.04912]},"properties":{"price":19800,"use":"奥州","zone":"","station":"店舗兼住宅"}},{"type":"Feature","geometry":{"type":"Point","coordinates":[141.02333,39.7131]},"properties":{"price":16700,"use":"滝沢","zone":"","station":"住宅"}},{"type":"Feature","geometry":{"type":"Point","coordinates":[141.14208,39.77734]},"properties":{"price":34900,"use":"滝沢","zone":"","station":"住宅"}},{"type":"Feature","geometry":{"type":"Point","coordinates":[141.11468,39.74761]},"properties":{"price":46500,"use":"滝沢","zone":"","station":"住宅"}},{"type":"Feature","geometry":{"type":"Point","coordinates":[141.0712,39.73678]},"properties":{"price":26300,"use":"滝沢","zone":"","station":"住宅"}},{"type":"Feature","geometry":{"type":"Point","coordinates":[141.07357,39.71085]},"properties":{"price":39300,"use":"滝沢","zone":"","station":"住宅"}},{"type":"Feature","geometry":{"type":"Point","coordinates":[141.08733,39.74366]},"properties":{"price":20800,"use":"滝沢","zone":"","station":"住宅"}},{"type":"Feature","geometry":{"type":"Point","coordinates":[140.96838,39.69969]},"properties":{"price":15100,"use":"雫石","zone":"","station":"住宅"}},{"type":"Feature","geometry":{"type":"Point","coordinates":[140.96775,39.69323]},"properties":{"price":14400,"use":"雫石","zone":"","station":"住宅"}},{"type":"Feature","geometry":{"type":"Point","coordinates":[140.97189,39.69406]},"properties":{"price":23600,"use":"雫石","zone":"","station":"店舗"}},{"type":"Feature","geometry":{"type":"Point","coordinates":[141.22737,39.97534]},"properties":{"price":15900,"use":"岩手","zone":"","station":"住宅"}},{"type":"Feature","geometry":{"type":"Point","coordinates":[141.21408,39.95551]},"properties":{"price":11200,"use":"岩手","zone":"","station":"住宅"}},{"type":"Feature","geometry":{"type":"Point","coordinates":[141.22358,39.97234]},"properties":{"price":23000,"use":"岩手","zone":"","station":"銀行"}},{"type":"Feature","geometry":{"type":"Point","coordinates":[141.16856,39.57042]},"properties":{"price":35300,"use":"紫波","zone":"","station":"住宅"}},{"type":"Feature","geometry":{"type":"Point","coordinates":[141.15833,39.55022]},"properties":{"price":30700,"use":"紫波","zone":"","station":"住宅"}},{"type":"Feature","geometry":{"type":"Point","coordinates":[141.16948,39.55398]},"properties":{"price":31500,"use":"紫波","zone":"","station":"店舗"}},{"type":"Feature","geometry":{"type":"Point","coordinates":[141.14331,39.60183]},"properties":{"price":45000,"use":"矢巾","zone":"","station":"住宅"}},{"type":"Feature","geometry":{"type":"Point","coordinates":[141.17035,39.61439]},"properties":{"price":55300,"use":"矢巾","zone":"","station":"住宅"}},{"type":"Feature","geometry":{"type":"Point","coordinates":[141.15962,39.61149]},"properties":{"price":65500,"use":"矢巾","zone":"","station":"住宅"}},{"type":"Feature","geometry":{"type":"Point","coordinates":[141.13989,39.62015]},"properties":{"price":14300,"use":"矢巾","zone":"","station":"住宅"}},{"type":"Feature","geometry":{"type":"Point","coordinates":[141.15131,39.61359]},"properties":{"price":75200,"use":"矢巾","zone":"","station":"店舗"}},{"type":"Feature","geometry":{"type":"Point","coordinates":[141.10956,39.6403]},"properties":{"price":25500,"use":"矢巾","zone":"","station":"事務所兼倉庫"}},{"type":"Feature","geometry":{"type":"Point","coordinates":[141.12547,39.19456]},"properties":{"price":14600,"use":"金ケ崎","zone":"","station":"住宅"}},{"type":"Feature","geometry":{"type":"Point","coordinates":[141.09811,39.21663]},"properties":{"price":21100,"use":"金ケ崎","zone":"","station":"住宅"}},{"type":"Feature","geometry":{"type":"Point","coordinates":[141.11849,39.19558]},"properties":{"price":17800,"use":"金ケ崎","zone":"","station":"店舗"}},{"type":"Feature","geometry":{"type":"Point","coordinates":[141.10886,38.99632]},"properties":{"price":17800,"use":"平泉","zone":"","station":"住宅"}},{"type":"Feature","geometry":{"type":"Point","coordinates":[141.11824,38.99095]},"properties":{"price":15900,"use":"平泉","zone":"","station":"住宅"}},{"type":"Feature","geometry":{"type":"Point","coordinates":[141.11654,38.98863]},"properties":{"price":25200,"use":"平泉","zone":"","station":"店舗兼住宅"}},{"type":"Feature","geometry":{"type":"Point","coordinates":[141.90014,39.35687]},"properties":{"price":27200,"use":"大槌","zone":"","station":"住宅"}},{"type":"Feature","geometry":{"type":"Point","coordinates":[141.89833,39.36756]},"properties":{"price":24600,"use":"大槌","zone":"","station":"住宅"}},{"type":"Feature","geometry":{"type":"Point","coordinates":[141.90441,39.35916]},"properties":{"price":33700,"use":"大槌","zone":"","station":"店舗"}},{"type":"Feature","geometry":{"type":"Point","coordinates":[141.97137,39.48547]},"properties":{"price":18600,"use":"岩手山田","zone":"","station":"住宅"}},{"type":"Feature","geometry":{"type":"Point","coordinates":[141.97302,39.43287]},"properties":{"price":19600,"use":"岩手山田","zone":"","station":"住宅"}},{"type":"Feature","geometry":{"type":"Point","coordinates":[141.95037,39.46473]},"properties":{"price":36500,"use":"岩手山田","zone":"","station":"店舗"}},{"type":"Feature","geometry":{"type":"Point","coordinates":[141.7887,39.84824]},"properties":{"price":15500,"use":"岩泉","zone":"","station":"住宅"}},{"type":"Feature","geometry":{"type":"Point","coordinates":[141.79679,39.8447]},"properties":{"price":17100,"use":"岩泉","zone":"","station":"住宅"}},{"type":"Feature","geometry":{"type":"Point","coordinates":[141.79168,39.84624]},"properties":{"price":21100,"use":"岩泉","zone":"","station":"店舗兼住宅"}},{"type":"Feature","geometry":{"type":"Point","coordinates":[141.81608,40.11451]},"properties":{"price":12800,"use":"岩手野田","zone":"","station":"住宅"}},{"type":"Feature","geometry":{"type":"Point","coordinates":[141.81508,40.11041]},"properties":{"price":13300,"use":"岩手野田","zone":"","station":"住宅"}},{"type":"Feature","geometry":{"type":"Point","coordinates":[141.30219,40.21834]},"properties":{"price":16000,"use":"一戸","zone":"","station":"住宅"}},{"type":"Feature","geometry":{"type":"Point","coordinates":[141.29428,40.2121]},"properties":{"price":17100,"use":"一戸","zone":"","station":"住宅"}},{"type":"Feature","geometry":{"type":"Point","coordinates":[141.298,40.21164]},"properties":{"price":18300,"use":"一戸","zone":"","station":"店舗兼住宅"}}]}