{"type":"FeatureCollection","features":[{"type":"Feature","geometry":{"type":"Point","coordinates":[140.7671,40.77982]},"properties":{"price":16400,"use":"青森","zone":"","station":"住宅"}},{"type":"Feature","geometry":{"type":"Point","coordinates":[140.69855,40.82805]},"properties":{"price":41700,"use":"青森","zone":"","station":"住宅"}},{"type":"Feature","geometry":{"type":"Point","coordinates":[140.7002,40.82091]},"properties":{"price":26700,"use":"青森","zone":"","station":"住宅"}},{"type":"Feature","geometry":{"type":"Point","coordinates":[140.72108,40.83559]},"properties":{"price":37600,"use":"青森","zone":"","station":"住宅"}},{"type":"Feature","geometry":{"type":"Point","coordinates":[140.72804,40.81847]},"properties":{"price":41600,"use":"青森","zone":"","station":"住宅"}},{"type":"Feature","geometry":{"type":"Point","coordinates":[140.82196,40.85333]},"properties":{"price":16000,"use":"青森","zone":"","station":"住宅"}},{"type":"Feature","geometry":{"type":"Point","coordinates":[140.72958,40.82836]},"properties":{"price":47700,"use":"青森","zone":"","station":"住宅"}},{"type":"Feature","geometry":{"type":"Point","coordinates":[140.74212,40.82133]},"properties":{"price":57000,"use":"青森","zone":"","station":"住宅"}},{"type":"Feature","geometry":{"type":"Point","coordinates":[140.73919,40.81583]},"properties":{"price":39000,"use":"青森","zone":"","station":"住宅"}},{"type":"Feature","geometry":{"type":"Point","coordinates":[140.70459,40.8091]},"properties":{"price":26300,"use":"青森","zone":"","station":"住宅"}},{"type":"Feature","geometry":{"type":"Point","coordinates":[140.76121,40.8138]},"properties":{"price":40700,"use":"青森","zone":"","station":"住宅"}},{"type":"Feature","geometry":{"type":"Point","coordinates":[140.58581,40.71629]},"properties":{"price":14900,"use":"青森","zone":"","station":"住宅"}},{"type":"Feature","geometry":{"type":"Point","coordinates":[140.76451,40.81905]},"properties":{"price":49600,"use":"青森","zone":"","station":"住宅"}},{"type":"Feature","geometry":{"type":"Point","coordinates":[140.7736,40.82151]},"properties":{"price":43300,"use":"青森","zone":"","station":"住宅"}},{"type":"Feature","geometry":{"type":"Point","coordinates":[140.77512,40.80005]},"properties":{"price":28800,"use":"青森","zone":"","station":"住宅"}},{"type":"Feature","geometry":{"type":"Point","coordinates":[140.80385,40.82904]},"properties":{"price":39300,"use":"青森","zone":"","station":"住宅"}},{"type":"Feature","geometry":{"type":"Point","coordinates":[140.72179,40.82903]},"properties":{"price":45600,"use":"青森","zone":"","station":"住宅"}},{"type":"Feature","geometry":{"type":"Point","coordinates":[140.76906,40.81497]},"properties":{"price":43900,"use":"青森","zone":"","station":"共同住宅"}},{"type":"Feature","geometry":{"type":"Point","coordinates":[140.75835,40.81772]},"properties":{"price":62400,"use":"青森","zone":"","station":"住宅"}},{"type":"Feature","geometry":{"type":"Point","coordinates":[140.809,40.83858]},"properties":{"price":24700,"use":"青森","zone":"","station":"住宅"}},{"type":"Feature","geometry":{"type":"Point","coordinates":[140.80368,40.79426]},"properties":{"price":20300,"use":"青森","zone":"","station":"住宅"}},{"type":"Feature","geometry":{"type":"Point","coordinates":[140.86464,40.8915]},"properties":{"price":20400,"use":"青森","zone":"","station":"住宅"}},{"type":"Feature","geometry":{"type":"Point","coordinates":[140.78791,40.8192]},"properties":{"price":41200,"use":"青森","zone":"","station":"住宅"}},{"type":"Feature","geometry":{"type":"Point","coordinates":[140.79685,40.82355]},"properties":{"price":43700,"use":"青森","zone":"","station":"住宅"}},{"type":"Feature","geometry":{"type":"Point","coordinates":[140.77126,40.82775]},"properties":{"price":43800,"use":"青森","zone":"","station":"住宅"}},{"type":"Feature","geometry":{"type":"Point","coordinates":[140.7381,40.80299]},"properties":{"price":49000,"use":"青森","zone":"","station":"住宅"}},{"type":"Feature","geometry":{"type":"Point","coordinates":[140.74538,40.8174]},"properties":{"price":52400,"use":"青森","zone":"","station":"住宅"}},{"type":"Feature","geometry":{"type":"Point","coordinates":[140.6899,40.86238]},"properties":{"price":16400,"use":"青森","zone":"","station":"住宅"}},{"type":"Feature","geometry":{"type":"Point","coordinates":[140.7222,40.82356]},"properties":{"price":34200,"use":"青森","zone":"","station":"住宅"}},{"type":"Feature","geometry":{"type":"Point","coordinates":[140.78488,40.83103]},"properties":{"price":38700,"use":"青森","zone":"","station":"住宅"}},{"type":"Feature","geometry":{"type":"Point","coordinates":[140.79869,40.81562]},"properties":{"price":39000,"use":"青森","zone":"","station":"住宅"}},{"type":"Feature","geometry":{"type":"Point","coordinates":[140.76663,40.8046]},"properties":{"price":37900,"use":"青森","zone":"","station":"住宅"}},{"type":"Feature","geometry":{"type":"Point","coordinates":[140.57526,40.71058]},"properties":{"price":9400,"use":"青森","zone":"","station":"住宅"}},{"type":"Feature","geometry":{"type":"Point","coordinates":[140.72312,40.80857]},"properties":{"price":38000,"use":"青森","zone":"","station":"住宅"}},{"type":"Feature","geometry":{"type":"Point","coordinates":[140.70433,40.80294]},"properties":{"price":22100,"use":"青森","zone":"","station":"住宅"}},{"type":"Feature","geometry":{"type":"Point","coordinates":[140.71975,40.81662]},"properties":{"price":36800,"use":"青森","zone":"","station":"住宅"}},{"type":"Feature","geometry":{"type":"Point","coordinates":[140.75144,40.80071]},"properties":{"price":83100,"use":"青森","zone":"","station":"住宅"}},{"type":"Feature","geometry":{"type":"Point","coordinates":[140.7111,40.83111]},"properties":{"price":35200,"use":"青森","zone":"","station":"住宅"}},{"type":"Feature","geometry":{"type":"Point","coordinates":[140.76552,40.83099]},"properties":{"price":33400,"use":"青森","zone":"","station":"住宅"}},{"type":"Feature","geometry":{"type":"Point","coordinates":[140.68339,40.84061]},"properties":{"price":9500,"use":"青森","zone":"","station":"住宅"}},{"type":"Feature","geometry":{"type":"Point","coordinates":[140.67384,40.89674]},"properties":{"price":7900,"use":"青森","zone":"","station":"住宅"}},{"type":"Feature","geometry":{"type":"Point","coordinates":[140.84221,40.8468]},"properties":{"price":7600,"use":"青森","zone":"","station":"住宅"}},{"type":"Feature","geometry":{"type":"Point","coordinates":[140.74065,40.78333]},"properties":{"price":13500,"use":"青森","zone":"","station":"住宅"}},{"type":"Feature","geometry":{"type":"Point","coordinates":[140.82132,40.8362]},"properties":{"price":9600,"use":"青森","zone":"","station":"住宅"}},{"type":"Feature","geometry":{"type":"Point","coordinates":[140.81196,40.81247]},"properties":{"price":8600,"use":"青森","zone":"","station":"空地"}},{"type":"Feature","geometry":{"type":"Point","coordinates":[140.78781,40.79367]},"properties":{"price":12400,"use":"青森","zone":"","station":"住宅"}},{"type":"Feature","geometry":{"type":"Point","coordinates":[140.73381,40.81102]},"properties":{"price":39700,"use":"青森","zone":"","station":"住宅"}},{"type":"Feature","geometry":{"type":"Point","coordinates":[140.72495,40.80222]},"properties":{"price":50600,"use":"青森","zone":"","station":"住宅"}},{"type":"Feature","geometry":{"type":"Point","coordinates":[140.69085,40.83149]},"properties":{"price":54800,"use":"青森","zone":"","station":"住宅"}},{"type":"Feature","geometry":{"type":"Point","coordinates":[140.67385,40.83243]},"properties":{"price":6600,"use":"青森","zone":"","station":"畑"}},{"type":"Feature","geometry":{"type":"Point","coordinates":[140.73514,40.81648]},"properties":{"price":49900,"use":"青森","zone":"","station":"店舗兼住宅"}},{"type":"Feature","geometry":{"type":"Point","coordinates":[140.74413,40.82596]},"properties":{"price":81300,"use":"青森","zone":"","station":"店舗兼住宅"}},{"type":"Feature","geometry":{"type":"Point","coordinates":[140.73936,40.82642]},"properties":{"price":196000,"use":"青森","zone":"","station":"店舗兼事務所"}},{"type":"Feature","geometry":{"type":"Point","coordinates":[140.7399,40.82347]},"properties":{"price":133000,"use":"青森","zone":"","station":"事務所"}},{"type":"Feature","geometry":{"type":"Point","coordinates":[140.7662,40.82445]},"properties":{"price":55400,"use":"青森","zone":"","station":"店舗兼住宅"}},{"type":"Feature","geometry":{"type":"Point","coordinates":[140.77533,40.82512]},"properties":{"price":61300,"use":"青森","zone":"","station":"店舗兼住宅"}},{"type":"Feature","geometry":{"type":"Point","coordinates":[140.86153,40.88923]},"properties":{"price":33400,"use":"青森","zone":"","station":"店舗兼住宅"}},{"type":"Feature","geometry":{"type":"Point","coordinates":[140.7408,40.82757]},"properties":{"price":64100,"use":"青森","zone":"","station":"店舗兼住宅"}},{"type":"Feature","geometry":{"type":"Point","coordinates":[140.75107,40.82569]},"properties":{"price":65100,"use":"青森","zone":"","station":"店舗兼住宅"}},{"type":"Feature","geometry":{"type":"Point","coordinates":[140.74704,40.82595]},"properties":{"price":63100,"use":"青森","zone":"","station":"店舗"}},{"type":"Feature","geometry":{"type":"Point","coordinates":[140.74523,40.82152]},"properties":{"price":67400,"use":"青森","zone":"","station":"店舗兼住宅"}},{"type":"Feature","geometry":{"type":"Point","coordinates":[140.74585,40.82459]},"properties":{"price":73300,"use":"青森","zone":"","station":"店舗"}},{"type":"Feature","geometry":{"type":"Point","coordinates":[140.73612,40.82638]},"properties":{"price":75400,"use":"青森","zone":"","station":"店舗兼住宅"}},{"type":"Feature","geometry":{"type":"Point","coordinates":[140.7413,40.80631]},"properties":{"price":85200,"use":"青森","zone":"","station":"店舗"}},{"type":"Feature","geometry":{"type":"Point","coordinates":[140.7935,40.82708]},"properties":{"price":66700,"use":"青森","zone":"","station":"店舗兼倉庫"}},{"type":"Feature","geometry":{"type":"Point","coordinates":[140.58921,40.71165]},"properties":{"price":17200,"use":"青森","zone":"","station":"店舗兼住宅"}},{"type":"Feature","geometry":{"type":"Point","coordinates":[140.7585,40.79589]},"properties":{"price":73700,"use":"青森","zone":"","station":"事務所兼共同住宅"}},{"type":"Feature","geometry":{"type":"Point","coordinates":[140.74996,40.82805]},"properties":{"price":57200,"use":"青森","zone":"","station":"店舗兼共同住宅"}},{"type":"Feature","geometry":{"type":"Point","coordinates":[140.80129,40.83801]},"properties":{"price":31600,"use":"青森","zone":"","station":"店舗兼住宅"}},{"type":"Feature","geometry":{"type":"Point","coordinates":[140.74472,40.79819]},"properties":{"price":71000,"use":"青森","zone":"","station":"店舗"}},{"type":"Feature","geometry":{"type":"Point","coordinates":[140.71045,40.84297]},"properties":{"price":17200,"use":"青森","zone":"","station":"工場"}},{"type":"Feature","geometry":{"type":"Point","coordinates":[140.7381,40.76677]},"properties":{"price":15900,"use":"青森","zone":"","station":"事務所兼倉庫"}},{"type":"Feature","geometry":{"type":"Point","coordinates":[140.73021,40.83473]},"properties":{"price":12900,"use":"青森","zone":"","station":"倉庫"}},{"type":"Feature","geometry":{"type":"Point","coordinates":[140.7063,40.83793]},"properties":{"price":18200,"use":"青森","zone":"","station":"工場"}},{"type":"Feature","geometry":{"type":"Point","coordinates":[140.81727,40.84772]},"properties":{"price":15300,"use":"青森","zone":"","station":"事務所兼倉庫"}},{"type":"Feature","geometry":{"type":"Point","coordinates":[140.74938,40.79335]},"properties":{"price":30000,"use":"青森","zone":"","station":"事務所兼工場"}},{"type":"Feature","geometry":{"type":"Point","coordinates":[140.46114,40.61992]},"properties":{"price":21900,"use":"弘前","zone":"","station":"住宅"}},{"type":"Feature","geometry":{"type":"Point","coordinates":[140.42391,40.6185]},"properties":{"price":9700,"use":"弘前","zone":"","station":"住宅"}},{"type":"Feature","geometry":{"type":"Point","coordinates":[140.45686,40.60479]},"properties":{"price":32900,"use":"弘前","zone":"","station":"住宅"}},{"type":"Feature","geometry":{"type":"Point","coordinates":[140.46759,40.61267]},"properties":{"price":36500,"use":"弘前","zone":"","station":"住宅"}},{"type":"Feature","geometry":{"type":"Point","coordinates":[140.50522,40.60745]},"properties":{"price":43200,"use":"弘前","zone":"","station":"住宅"}},{"type":"Feature","geometry":{"type":"Point","coordinates":[140.41887,40.61659]},"properties":{"price":15800,"use":"弘前","zone":"","station":"住宅"}},{"type":"Feature","geometry":{"type":"Point","coordinates":[140.45582,40.59702]},"properties":{"price":24800,"use":"弘前","zone":"","station":"住宅"}},{"type":"Feature","geometry":{"type":"Point","coordinates":[140.47507,40.6043]},"properties":{"price":43300,"use":"弘前","zone":"","station":"住宅"}},{"type":"Feature","geometry":{"type":"Point","coordinates":[140.4834,40.58619]},"properties":{"price":29300,"use":"弘前","zone":"","station":"住宅"}},{"type":"Feature","geometry":{"type":"Point","coordinates":[140.47069,40.59128]},"properties":{"price":35200,"use":"弘前","zone":"","station":"住宅"}},{"type":"Feature","geometry":{"type":"Point","coordinates":[140.47715,40.58005]},"properties":{"price":30100,"use":"弘前","zone":"","station":"住宅"}},{"type":"Feature","geometry":{"type":"Point","coordinates":[140.52197,40.59129]},"properties":{"price":10800,"use":"弘前","zone":"","station":"住宅"}},{"type":"Feature","geometry":{"type":"Point","coordinates":[140.47288,40.60732]},"properties":{"price":43200,"use":"弘前","zone":"","station":"住宅"}},{"type":"Feature","geometry":{"type":"Point","coordinates":[140.492,40.6]},"properties":{"price":44600,"use":"弘前","zone":"","station":"住宅"}},{"type":"Feature","geometry":{"type":"Point","coordinates":[140.47803,40.59372]},"properties":{"price":45900,"use":"弘前","zone":"","station":"住宅"}},{"type":"Feature","geometry":{"type":"Point","coordinates":[140.48177,40.61618]},"properties":{"price":39000,"use":"弘前","zone":"","station":"住宅"}},{"type":"Feature","geometry":{"type":"Point","coordinates":[140.4561,40.60996]},"properties":{"price":29400,"use":"弘前","zone":"","station":"住宅"}},{"type":"Feature","geometry":{"type":"Point","coordinates":[140.46241,40.60259]},"properties":{"price":59300,"use":"弘前","zone":"","station":"住宅"}},{"type":"Feature","geometry":{"type":"Point","coordinates":[140.45224,40.61321]},"properties":{"price":19600,"use":"弘前","zone":"","station":"住宅"}},{"type":"Feature","geometry":{"type":"Point","coordinates":[140.46777,40.59025]},"properties":{"price":28000,"use":"弘前","zone":"","station":"住宅"}},{"type":"Feature","geometry":{"type":"Point","coordinates":[140.46942,40.57796]},"properties":{"price":24000,"use":"弘前","zone":"","station":"住宅"}},{"type":"Feature","geometry":{"type":"Point","coordinates":[140.49161,40.61159]},"properties":{"price":27000,"use":"弘前","zone":"","station":"住宅"}},{"type":"Feature","geometry":{"type":"Point","coordinates":[140.49358,40.62065]},"properties":{"price":23800,"use":"弘前","zone":"","station":"住宅"}},{"type":"Feature","geometry":{"type":"Point","coordinates":[140.48154,40.60802]},"properties":{"price":33000,"use":"弘前","zone":"","station":"住宅"}},{"type":"Feature","geometry":{"type":"Point","coordinates":[140.44172,40.56501]},"properties":{"price":7500,"use":"弘前","zone":"","station":"住宅"}},{"type":"Feature","geometry":{"type":"Point","coordinates":[140.48649,40.56081]},"properties":{"price":7500,"use":"弘前","zone":"","station":"住宅"}},{"type":"Feature","geometry":{"type":"Point","coordinates":[140.41191,40.59416]},"properties":{"price":5600,"use":"弘前","zone":"","station":"住宅"}},{"type":"Feature","geometry":{"type":"Point","coordinates":[140.45783,40.63524]},"properties":{"price":9400,"use":"弘前","zone":"","station":"住宅"}},{"type":"Feature","geometry":{"type":"Point","coordinates":[140.47502,40.57521]},"properties":{"price":28700,"use":"弘前","zone":"","station":"住宅"}},{"type":"Feature","geometry":{"type":"Point","coordinates":[140.5117,40.60503]},"properties":{"price":47500,"use":"弘前","zone":"","station":"住宅"}},{"type":"Feature","geometry":{"type":"Point","coordinates":[140.4928,40.57297]},"properties":{"price":35100,"use":"弘前","zone":"","station":"住宅"}},{"type":"Feature","geometry":{"type":"Point","coordinates":[140.48391,40.59964]},"properties":{"price":93700,"use":"弘前","zone":"","station":"診療所"}},{"type":"Feature","geometry":{"type":"Point","coordinates":[140.50712,40.60328]},"properties":{"price":48600,"use":"弘前","zone":"","station":"教室兼住宅"}},{"type":"Feature","geometry":{"type":"Point","coordinates":[140.47035,40.60083]},"properties":{"price":57500,"use":"弘前","zone":"","station":"店舗"}},{"type":"Feature","geometry":{"type":"Point","coordinates":[140.4809,40.58871]},"properties":{"price":37000,"use":"弘前","zone":"","station":"店舗兼住宅"}},{"type":"Feature","geometry":{"type":"Point","coordinates":[140.47089,40.60444]},"properties":{"price":61600,"use":"弘前","zone":"","station":"店舗兼住宅"}},{"type":"Feature","geometry":{"type":"Point","coordinates":[140.4721,40.60182]},"properties":{"price":71700,"use":"弘前","zone":"","station":"店舗"}},{"type":"Feature","geometry":{"type":"Point","coordinates":[140.45981,40.59872]},"properties":{"price":41500,"use":"弘前","zone":"","station":"店舗"}},{"type":"Feature","geometry":{"type":"Point","coordinates":[140.47626,40.59728]},"properties":{"price":61500,"use":"弘前","zone":"","station":"店舗兼住宅"}},{"type":"Feature","geometry":{"type":"Point","coordinates":[140.49828,40.60845]},"properties":{"price":40400,"use":"弘前","zone":"","station":"店舗"}},{"type":"Feature","geometry":{"type":"Point","coordinates":[140.46873,40.62564]},"properties":{"price":8700,"use":"弘前","zone":"","station":"工場"}},{"type":"Feature","geometry":{"type":"Point","coordinates":[141.43351,40.48778]},"properties":{"price":11800,"use":"八戸","zone":"","station":"住宅"}},{"type":"Feature","geometry":{"type":"Point","coordinates":[141.4403,40.5865]},"properties":{"price":22500,"use":"八戸","zone":"","station":"住宅"}},{"type":"Feature","geometry":{"type":"Point","coordinates":[141.47383,40.5416]},"properties":{"price":36300,"use":"八戸","zone":"","station":"住宅"}},{"type":"Feature","geometry":{"type":"Point","coordinates":[141.47434,40.53196]},"properties":{"price":47000,"use":"八戸","zone":"","station":"住宅"}},{"type":"Feature","geometry":{"type":"Point","coordinates":[141.49098,40.49983]},"properties":{"price":34000,"use":"八戸","zone":"","station":"住宅"}},{"type":"Feature","geometry":{"type":"Point","coordinates":[141.49436,40.45845]},"properties":{"price":7900,"use":"八戸","zone":"","station":"住宅"}},{"type":"Feature","geometry":{"type":"Point","coordinates":[141.47706,40.50599]},"properties":{"price":53600,"use":"八戸","zone":"","station":"住宅"}},{"type":"Feature","geometry":{"type":"Point","coordinates":[141.45865,40.50226]},"properties":{"price":33000,"use":"八戸","zone":"","station":"住宅"}},{"type":"Feature","geometry":{"type":"Point","coordinates":[141.53005,40.50367]},"properties":{"price":27800,"use":"八戸","zone":"","station":"住宅"}},{"type":"Feature","geometry":{"type":"Point","coordinates":[141.46919,40.50191]},"properties":{"price":45700,"use":"八戸","zone":"","station":"住宅"}},{"type":"Feature","geometry":{"type":"Point","coordinates":[141.48207,40.53898]},"properties":{"price":42700,"use":"八戸","zone":"","station":"住宅"}},{"type":"Feature","geometry":{"type":"Point","coordinates":[141.43263,40.5135]},"properties":{"price":43200,"use":"八戸","zone":"","station":"住宅"}},{"type":"Feature","geometry":{"type":"Point","coordinates":[141.50041,40.50921]},"properties":{"price":50300,"use":"八戸","zone":"","station":"空地"}},{"type":"Feature","geometry":{"type":"Point","coordinates":[141.50354,40.49085]},"properties":{"price":29200,"use":"八戸","zone":"","station":"住宅"}},{"type":"Feature","geometry":{"type":"Point","coordinates":[141.48435,40.50774]},"properties":{"price":52300,"use":"八戸","zone":"","station":"住宅"}},{"type":"Feature","geometry":{"type":"Point","coordinates":[141.50303,40.51958]},"properties":{"price":44800,"use":"八戸","zone":"","station":"住宅"}},{"type":"Feature","geometry":{"type":"Point","coordinates":[141.50968,40.51621]},"properties":{"price":45800,"use":"八戸","zone":"","station":"住宅"}},{"type":"Feature","geometry":{"type":"Point","coordinates":[141.53595,40.48811]},"properties":{"price":23300,"use":"八戸","zone":"","station":"住宅"}},{"type":"Feature","geometry":{"type":"Point","coordinates":[141.53308,40.49558]},"properties":{"price":35600,"use":"八戸","zone":"","station":"住宅"}},{"type":"Feature","geometry":{"type":"Point","coordinates":[141.55563,40.51538]},"properties":{"price":27900,"use":"八戸","zone":"","station":"住宅"}},{"type":"Feature","geometry":{"type":"Point","coordinates":[141.54777,40.5074]},"properties":{"price":39000,"use":"八戸","zone":"","station":"住宅"}},{"type":"Feature","geometry":{"type":"Point","coordinates":[141.52946,40.52048]},"properties":{"price":31300,"use":"八戸","zone":"","station":"住宅"}},{"type":"Feature","geometry":{"type":"Point","coordinates":[141.53937,40.51519]},"properties":{"price":28400,"use":"八戸","zone":"","station":"住宅"}},{"type":"Feature","geometry":{"type":"Point","coordinates":[141.56194,40.53196]},"properties":{"price":19800,"use":"八戸","zone":"","station":"住宅"}},{"type":"Feature","geometry":{"type":"Point","coordinates":[141.44692,40.56159]},"properties":{"price":19900,"use":"八戸","zone":"","station":"住宅"}},{"type":"Feature","geometry":{"type":"Point","coordinates":[141.48689,40.50325]},"properties":{"price":43100,"use":"八戸","zone":"","station":"住宅"}},{"type":"Feature","geometry":{"type":"Point","coordinates":[141.47812,40.50889]},"properties":{"price":55500,"use":"八戸","zone":"","station":"住宅"}},{"type":"Feature","geometry":{"type":"Point","coordinates":[141.52587,40.52675]},"properties":{"price":28800,"use":"八戸","zone":"","station":"住宅"}},{"type":"Feature","geometry":{"type":"Point","coordinates":[141.43861,40.57439]},"properties":{"price":9100,"use":"八戸","zone":"","station":"住宅"}},{"type":"Feature","geometry":{"type":"Point","coordinates":[141.3846,40.51419]},"properties":{"price":10300,"use":"八戸","zone":"","station":"住宅"}},{"type":"Feature","geometry":{"type":"Point","coordinates":[141.57561,40.51941]},"properties":{"price":11600,"use":"八戸","zone":"","station":"住宅"}},{"type":"Feature","geometry":{"type":"Point","coordinates":[141.62678,40.49439]},"properties":{"price":6900,"use":"八戸","zone":"","station":"住宅"}},{"type":"Feature","geometry":{"type":"Point","coordinates":[141.43767,40.50601]},"properties":{"price":39500,"use":"八戸","zone":"","station":"住宅"}},{"type":"Feature","geometry":{"type":"Point","coordinates":[141.51308,40.49023]},"properties":{"price":50500,"use":"八戸","zone":"","station":"住宅"}},{"type":"Feature","geometry":{"type":"Point","coordinates":[141.4655,40.58166]},"properties":{"price":5400,"use":"八戸","zone":"","station":"畑"}},{"type":"Feature","geometry":{"type":"Point","coordinates":[141.48952,40.51029]},"properties":{"price":72200,"use":"八戸","zone":"","station":"店舗、診療所兼住宅"}},{"type":"Feature","geometry":{"type":"Point","coordinates":[141.49179,40.50752]},"properties":{"price":57600,"use":"八戸","zone":"","station":"店舗兼倉庫"}},{"type":"Feature","geometry":{"type":"Point","coordinates":[141.49615,40.51236]},"properties":{"price":63000,"use":"八戸","zone":"","station":"事務所"}},{"type":"Feature","geometry":{"type":"Point","coordinates":[141.51873,40.52298]},"properties":{"price":46200,"use":"八戸","zone":"","station":"店舗兼住宅"}},{"type":"Feature","geometry":{"type":"Point","coordinates":[141.49001,40.50954]},"properties":{"price":130000,"use":"八戸","zone":"","station":"店舗兼事務所"}},{"type":"Feature","geometry":{"type":"Point","coordinates":[141.49348,40.51038]},"properties":{"price":61900,"use":"八戸","zone":"","station":"店舗兼共同住宅"}},{"type":"Feature","geometry":{"type":"Point","coordinates":[141.49728,40.51883]},"properties":{"price":73300,"use":"八戸","zone":"","station":"事務所"}},{"type":"Feature","geometry":{"type":"Point","coordinates":[141.49728,40.50075]},"properties":{"price":44100,"use":"八戸","zone":"","station":"店舗兼住宅"}},{"type":"Feature","geometry":{"type":"Point","coordinates":[141.48656,40.50703]},"properties":{"price":74100,"use":"八戸","zone":"","station":"事務所兼店舗"}},{"type":"Feature","geometry":{"type":"Point","coordinates":[141.47276,40.5247]},"properties":{"price":59300,"use":"八戸","zone":"","station":"店舗"}},{"type":"Feature","geometry":{"type":"Point","coordinates":[141.48897,40.52341]},"properties":{"price":54000,"use":"八戸","zone":"","station":"事務所兼住宅"}},{"type":"Feature","geometry":{"type":"Point","coordinates":[141.4493,40.51152]},"properties":{"price":51000,"use":"八戸","zone":"","station":"事務所兼店舗"}},{"type":"Feature","geometry":{"type":"Point","coordinates":[141.5567,40.53192]},"properties":{"price":32100,"use":"八戸","zone":"","station":"店舗兼住宅"}},{"type":"Feature","geometry":{"type":"Point","coordinates":[141.51162,40.49435]},"properties":{"price":69400,"use":"八戸","zone":"","station":"事務所"}},{"type":"Feature","geometry":{"type":"Point","coordinates":[141.50755,40.52789]},"properties":{"price":10000,"use":"八戸","zone":"","station":"工場"}},{"type":"Feature","geometry":{"type":"Point","coordinates":[141.45971,40.59696]},"properties":{"price":10600,"use":"八戸","zone":"","station":"工場"}},{"type":"Feature","geometry":{"type":"Point","coordinates":[141.50669,40.54598]},"properties":{"price":9000,"use":"八戸","zone":"","station":"工場"}},{"type":"Feature","geometry":{"type":"Point","coordinates":[141.4507,40.52173]},"properties":{"price":24000,"use":"八戸","zone":"","station":"事務所兼倉庫"}},{"type":"Feature","geometry":{"type":"Point","coordinates":[141.45458,40.50969]},"properties":{"price":21500,"use":"八戸","zone":"","station":"工場兼事務所"}},{"type":"Feature","geometry":{"type":"Point","coordinates":[140.59,40.63621]},"properties":{"price":11900,"use":"黒石","zone":"","station":"住宅"}},{"type":"Feature","geometry":{"type":"Point","coordinates":[140.59655,40.65467]},"properties":{"price":12400,"use":"黒石","zone":"","station":"住宅"}},{"type":"Feature","geometry":{"type":"Point","coordinates":[140.59362,40.64412]},"properties":{"price":19800,"use":"黒石","zone":"","station":"店舗兼住宅"}},{"type":"Feature","geometry":{"type":"Point","coordinates":[140.59669,40.64142]},"properties":{"price":16900,"use":"黒石","zone":"","station":"店舗兼倉庫"}},{"type":"Feature","geometry":{"type":"Point","coordinates":[140.45805,40.80624]},"properties":{"price":20000,"use":"五所川原","zone":"","station":"住宅"}},{"type":"Feature","geometry":{"type":"Point","coordinates":[140.44106,40.81418]},"properties":{"price":16700,"use":"五所川原","zone":"","station":"住宅"}},{"type":"Feature","geometry":{"type":"Point","coordinates":[140.45417,40.81239]},"properties":{"price":19000,"use":"五所川原","zone":"","station":"住宅"}},{"type":"Feature","geometry":{"type":"Point","coordinates":[140.44349,40.81014]},"properties":{"price":43800,"use":"五所川原","zone":"","station":"店舗兼住宅"}},{"type":"Feature","geometry":{"type":"Point","coordinates":[140.44517,40.80756]},"properties":{"price":32700,"use":"五所川原","zone":"","station":"店舗兼住宅"}},{"type":"Feature","geometry":{"type":"Point","coordinates":[141.20511,40.61347]},"properties":{"price":24100,"use":"十和田","zone":"","station":"住宅"}},{"type":"Feature","geometry":{"type":"Point","coordinates":[141.22586,40.60197]},"properties":{"price":16100,"use":"十和田","zone":"","station":"住宅"}},{"type":"Feature","geometry":{"type":"Point","coordinates":[141.23594,40.6208]},"properties":{"price":14700,"use":"十和田","zone":"","station":"住宅"}},{"type":"Feature","geometry":{"type":"Point","coordinates":[141.21367,40.61404]},"properties":{"price":30800,"use":"十和田","zone":"","station":"店舗"}},{"type":"Feature","geometry":{"type":"Point","coordinates":[141.20788,40.61601]},"properties":{"price":25400,"use":"十和田","zone":"","station":"店舗兼住宅"}},{"type":"Feature","geometry":{"type":"Point","coordinates":[141.22793,40.5981]},"properties":{"price":19100,"use":"十和田","zone":"","station":"店舗兼作業場"}},{"type":"Feature","geometry":{"type":"Point","coordinates":[141.37288,40.68038]},"properties":{"price":32900,"use":"三沢","zone":"","station":"住宅"}},{"type":"Feature","geometry":{"type":"Point","coordinates":[141.37608,40.68719]},"properties":{"price":28900,"use":"三沢","zone":"","station":"住宅"}},{"type":"Feature","geometry":{"type":"Point","coordinates":[141.36337,40.68185]},"properties":{"price":33500,"use":"三沢","zone":"","station":"店舗兼住宅"}},{"type":"Feature","geometry":{"type":"Point","coordinates":[141.3656,40.67622]},"properties":{"price":41700,"use":"三沢","zone":"","station":"店舗"}},{"type":"Feature","geometry":{"type":"Point","coordinates":[141.20084,41.28797]},"properties":{"price":17000,"use":"むつ","zone":"","station":"住宅"}},{"type":"Feature","geometry":{"type":"Point","coordinates":[141.17053,41.28332]},"properties":{"price":13100,"use":"むつ","zone":"","station":"住宅"}},{"type":"Feature","geometry":{"type":"Point","coordinates":[141.15769,41.39775]},"properties":{"price":5800,"use":"むつ","zone":"","station":"住宅"}},{"type":"Feature","geometry":{"type":"Point","coordinates":[141.19787,41.30089]},"properties":{"price":13800,"use":"むつ","zone":"","station":"住宅"}},{"type":"Feature","geometry":{"type":"Point","coordinates":[141.21385,41.29619]},"properties":{"price":28000,"use":"むつ","zone":"","station":"店舗兼住宅"}},{"type":"Feature","geometry":{"type":"Point","coordinates":[141.1839,41.28745]},"properties":{"price":39400,"use":"むつ","zone":"","station":"店舗"}},{"type":"Feature","geometry":{"type":"Point","coordinates":[141.16186,41.40523]},"properties":{"price":9700,"use":"むつ","zone":"","station":"店舗"}},{"type":"Feature","geometry":{"type":"Point","coordinates":[140.38605,40.80507]},"properties":{"price":10000,"use":"つがる","zone":"","station":"住宅"}},{"type":"Feature","geometry":{"type":"Point","coordinates":[140.37824,40.81857]},"properties":{"price":8800,"use":"つがる","zone":"","station":"住宅"}},{"type":"Feature","geometry":{"type":"Point","coordinates":[140.37204,40.79551]},"properties":{"price":4050,"use":"つがる","zone":"","station":"住宅"}},{"type":"Feature","geometry":{"type":"Point","coordinates":[140.39754,40.7976]},"properties":{"price":5100,"use":"つがる","zone":"","station":"住宅"}},{"type":"Feature","geometry":{"type":"Point","coordinates":[140.39518,40.80784]},"properties":{"price":8900,"use":"つがる","zone":"","station":"住宅"}},{"type":"Feature","geometry":{"type":"Point","coordinates":[140.38474,40.80955]},"properties":{"price":14300,"use":"つがる","zone":"","station":"店舗兼住宅"}},{"type":"Feature","geometry":{"type":"Point","coordinates":[140.5771,40.5716]},"properties":{"price":5450,"use":"平川","zone":"","station":"住宅"}},{"type":"Feature","geometry":{"type":"Point","coordinates":[140.5704,40.58429]},"properties":{"price":13600,"use":"平川","zone":"","station":"住宅"}},{"type":"Feature","geometry":{"type":"Point","coordinates":[140.58249,40.61342]},"properties":{"price":11100,"use":"平川","zone":"","station":"住宅"}},{"type":"Feature","geometry":{"type":"Point","coordinates":[140.55916,40.58913]},"properties":{"price":20000,"use":"平川","zone":"","station":"住宅"}},{"type":"Feature","geometry":{"type":"Point","coordinates":[140.52087,40.61784]},"properties":{"price":6400,"use":"平川","zone":"","station":"住宅"}},{"type":"Feature","geometry":{"type":"Point","coordinates":[140.57729,40.61428]},"properties":{"price":13800,"use":"平川","zone":"","station":"店舗兼住宅"}},{"type":"Feature","geometry":{"type":"Point","coordinates":[140.56234,40.58507]},"properties":{"price":23600,"use":"平川","zone":"","station":"店舗"}},{"type":"Feature","geometry":{"type":"Point","coordinates":[140.95592,40.91983]},"properties":{"price":8700,"use":"平内","zone":"","station":"住宅"}},{"type":"Feature","geometry":{"type":"Point","coordinates":[140.96645,40.9275]},"properties":{"price":6100,"use":"平内","zone":"","station":"住宅"}},{"type":"Feature","geometry":{"type":"Point","coordinates":[140.9567,40.9275]},"properties":{"price":16400,"use":"平内","zone":"","station":"店舗兼住宅"}},{"type":"Feature","geometry":{"type":"Point","coordinates":[140.64402,41.04311]},"properties":{"price":6100,"use":"外ヶ浜","zone":"","station":"住宅"}},{"type":"Feature","geometry":{"type":"Point","coordinates":[140.64501,41.03769]},"properties":{"price":7500,"use":"外ヶ浜","zone":"","station":"住宅"}},{"type":"Feature","geometry":{"type":"Point","coordinates":[140.64322,41.0436]},"properties":{"price":10400,"use":"外ヶ浜","zone":"","station":"店舗兼住宅"}},{"type":"Feature","geometry":{"type":"Point","coordinates":[140.2263,40.77904]},"properties":{"price":10600,"use":"鰺ヶ沢","zone":"","station":"住宅"}},{"type":"Feature","geometry":{"type":"Point","coordinates":[140.20627,40.7801]},"properties":{"price":13000,"use":"鰺ヶ沢","zone":"","station":"住宅"}},{"type":"Feature","geometry":{"type":"Point","coordinates":[140.22,40.77711]},"properties":{"price":17300,"use":"鰺ヶ沢","zone":"","station":"店舗兼住宅"}},{"type":"Feature","geometry":{"type":"Point","coordinates":[140.50269,40.64665]},"properties":{"price":11300,"use":"藤崎","zone":"","station":"住宅"}},{"type":"Feature","geometry":{"type":"Point","coordinates":[140.49814,40.65305]},"properties":{"price":13000,"use":"藤崎","zone":"","station":"住宅"}},{"type":"Feature","geometry":{"type":"Point","coordinates":[140.50877,40.69702]},"properties":{"price":3600,"use":"藤崎","zone":"","station":"店舗兼住宅"}},{"type":"Feature","geometry":{"type":"Point","coordinates":[140.58161,40.52157]},"properties":{"price":10700,"use":"大鰐","zone":"","station":"住宅"}},{"type":"Feature","geometry":{"type":"Point","coordinates":[140.56901,40.51687]},"properties":{"price":12400,"use":"大鰐","zone":"","station":"住宅"}},{"type":"Feature","geometry":{"type":"Point","coordinates":[140.55401,40.53574]},"properties":{"price":6100,"use":"大鰐","zone":"","station":"住宅"}},{"type":"Feature","geometry":{"type":"Point","coordinates":[140.57154,40.52014]},"properties":{"price":13400,"use":"大鰐","zone":"","station":"店舗兼住宅"}},{"type":"Feature","geometry":{"type":"Point","coordinates":[140.55003,40.6305]},"properties":{"price":11900,"use":"田舎館","zone":"","station":"住宅"}},{"type":"Feature","geometry":{"type":"Point","coordinates":[140.51885,40.649]},"properties":{"price":9200,"use":"田舎館","zone":"","station":"住宅"}},{"type":"Feature","geometry":{"type":"Point","coordinates":[140.51979,40.63764]},"properties":{"price":5900,"use":"田舎館","zone":"","station":"住宅"}},{"type":"Feature","geometry":{"type":"Point","coordinates":[140.53135,40.64541]},"properties":{"price":3500,"use":"田舎館","zone":"","station":"工場"}},{"type":"Feature","geometry":{"type":"Point","coordinates":[140.457,40.69848]},"properties":{"price":11100,"use":"板柳","zone":"","station":"住宅"}},{"type":"Feature","geometry":{"type":"Point","coordinates":[140.46467,40.70025]},"properties":{"price":9800,"use":"板柳","zone":"","station":"住宅"}},{"type":"Feature","geometry":{"type":"Point","coordinates":[140.45626,40.69585]},"properties":{"price":13500,"use":"板柳","zone":"","station":"店舗兼住宅"}},{"type":"Feature","geometry":{"type":"Point","coordinates":[140.42884,40.76026]},"properties":{"price":8800,"use":"鶴田","zone":"","station":"住宅"}},{"type":"Feature","geometry":{"type":"Point","coordinates":[140.43393,40.75577]},"properties":{"price":8700,"use":"鶴田","zone":"","station":"住宅"}},{"type":"Feature","geometry":{"type":"Point","coordinates":[140.43279,40.75629]},"properties":{"price":13200,"use":"鶴田","zone":"","station":"店舗"}},{"type":"Feature","geometry":{"type":"Point","coordinates":[141.12466,40.85618]},"properties":{"price":13100,"use":"野辺地","zone":"","station":"住宅"}},{"type":"Feature","geometry":{"type":"Point","coordinates":[141.14063,40.87202]},"properties":{"price":8700,"use":"野辺地","zone":"","station":"住宅"}},{"type":"Feature","geometry":{"type":"Point","coordinates":[141.12745,40.86661]},"properties":{"price":18600,"use":"野辺地","zone":"","station":"店舗兼住宅"}},{"type":"Feature","geometry":{"type":"Point","coordinates":[141.15979,40.69582]},"properties":{"price":15000,"use":"七戸","zone":"","station":"住宅"}},{"type":"Feature","geometry":{"type":"Point","coordinates":[141.16401,40.69215]},"properties":{"price":7600,"use":"七戸","zone":"","station":"住宅"}},{"type":"Feature","geometry":{"type":"Point","coordinates":[141.15365,40.69726]},"properties":{"price":16800,"use":"七戸","zone":"","station":"店舗"}},{"type":"Feature","geometry":{"type":"Point","coordinates":[141.32113,40.60417]},"properties":{"price":9800,"use":"六戸","zone":"","station":"住宅"}},{"type":"Feature","geometry":{"type":"Point","coordinates":[141.33128,40.61084]},"properties":{"price":6800,"use":"六戸","zone":"","station":"住宅"}},{"type":"Feature","geometry":{"type":"Point","coordinates":[141.2314,40.78296]},"properties":{"price":3600,"use":"東北","zone":"","station":"住宅"}},{"type":"Feature","geometry":{"type":"Point","coordinates":[141.2086,40.77961]},"properties":{"price":4900,"use":"東北","zone":"","station":"住宅"}},{"type":"Feature","geometry":{"type":"Point","coordinates":[141.25842,40.73293]},"properties":{"price":7900,"use":"東北","zone":"","station":"住宅"}},{"type":"Feature","geometry":{"type":"Point","coordinates":[141.26289,40.73173]},"properties":{"price":12000,"use":"東北","zone":"","station":"店舗兼住宅"}},{"type":"Feature","geometry":{"type":"Point","coordinates":[141.37465,40.972]},"properties":{"price":8900,"use":"六ヶ所","zone":"","station":"住宅"}},{"type":"Feature","geometry":{"type":"Point","coordinates":[141.27588,40.89294]},"properties":{"price":2600,"use":"六ヶ所","zone":"","station":"住宅"}},{"type":"Feature","geometry":{"type":"Point","coordinates":[141.36127,40.96861]},"properties":{"price":11500,"use":"六ヶ所","zone":"","station":"事務所"}},{"type":"Feature","geometry":{"type":"Point","coordinates":[141.42842,40.59618]},"properties":{"price":16400,"use":"おいらせ","zone":"","station":"住宅"}},{"type":"Feature","geometry":{"type":"Point","coordinates":[141.4336,40.59726]},"properties":{"price":13600,"use":"おいらせ","zone":"","station":"住宅"}},{"type":"Feature","geometry":{"type":"Point","coordinates":[141.40345,40.59159]},"properties":{"price":5700,"use":"おいらせ","zone":"","station":"住宅"}},{"type":"Feature","geometry":{"type":"Point","coordinates":[141.39663,40.60282]},"properties":{"price":10500,"use":"おいらせ","zone":"","station":"住宅"}},{"type":"Feature","geometry":{"type":"Point","coordinates":[141.368,40.66196]},"properties":{"price":22900,"use":"おいらせ","zone":"","station":"住宅"}},{"type":"Feature","geometry":{"type":"Point","coordinates":[141.25034,40.37625]},"properties":{"price":15300,"use":"三戸","zone":"","station":"住宅"}},{"type":"Feature","geometry":{"type":"Point","coordinates":[141.25706,40.37766]},"properties":{"price":18400,"use":"三戸","zone":"","station":"店舗兼住宅"}},{"type":"Feature","geometry":{"type":"Point","coordinates":[141.30523,40.5229]},"properties":{"price":13900,"use":"五戸","zone":"","station":"住宅"}},{"type":"Feature","geometry":{"type":"Point","coordinates":[141.31313,40.52631]},"properties":{"price":7700,"use":"五戸","zone":"","station":"住宅"}},{"type":"Feature","geometry":{"type":"Point","coordinates":[141.30042,40.52215]},"properties":{"price":19200,"use":"五戸","zone":"","station":"店舗兼住宅"}},{"type":"Feature","geometry":{"type":"Point","coordinates":[141.26929,40.40259]},"properties":{"price":11400,"use":"青森南部","zone":"","station":"住宅兼倉庫"}},{"type":"Feature","geometry":{"type":"Point","coordinates":[141.27415,40.40036]},"properties":{"price":8100,"use":"青森南部","zone":"","station":"住宅"}},{"type":"Feature","geometry":{"type":"Point","coordinates":[141.27009,40.39559]},"properties":{"price":13200,"use":"青森南部","zone":"","station":"店舗兼住宅"}},{"type":"Feature","geometry":{"type":"Point","coordinates":[141.57093,40.47678]},"properties":{"price":10000,"use":"階上","zone":"","station":"住宅"}},{"type":"Feature","geometry":{"type":"Point","coordinates":[141.66113,40.45806]},"properties":{"price":7400,"use":"階上","zone":"","station":"住宅"}}]}