{"type":"FeatureCollection","features":[{"type":"Feature","geometry":{"type":"Point","coordinates":[138.55064,35.64946]},"properties":{"price":52800,"use":"甲府","zone":"","station":"住宅"}},{"type":"Feature","geometry":{"type":"Point","coordinates":[138.56019,35.68322]},"properties":{"price":56100,"use":"甲府","zone":"","station":"住宅"}},{"type":"Feature","geometry":{"type":"Point","coordinates":[138.57346,35.68347]},"properties":{"price":60000,"use":"甲府","zone":"","station":"住宅"}},{"type":"Feature","geometry":{"type":"Point","coordinates":[138.56917,35.67719]},"properties":{"price":49700,"use":"甲府","zone":"","station":"住宅"}},{"type":"Feature","geometry":{"type":"Point","coordinates":[138.5846,35.66225]},"properties":{"price":41800,"use":"甲府","zone":"","station":"住宅"}},{"type":"Feature","geometry":{"type":"Point","coordinates":[138.57454,35.67552]},"properties":{"price":61000,"use":"甲府","zone":"","station":"住宅"}},{"type":"Feature","geometry":{"type":"Point","coordinates":[138.56418,35.63042]},"properties":{"price":44500,"use":"甲府","zone":"","station":"住宅"}},{"type":"Feature","geometry":{"type":"Point","coordinates":[138.56023,35.65778]},"properties":{"price":61600,"use":"甲府","zone":"","station":"住宅"}},{"type":"Feature","geometry":{"type":"Point","coordinates":[138.53981,35.66387]},"properties":{"price":40800,"use":"甲府","zone":"","station":"住宅"}},{"type":"Feature","geometry":{"type":"Point","coordinates":[138.54979,35.6749]},"properties":{"price":49500,"use":"甲府","zone":"","station":"住宅"}},{"type":"Feature","geometry":{"type":"Point","coordinates":[138.56801,35.68622]},"properties":{"price":37900,"use":"甲府","zone":"","station":"住宅"}},{"type":"Feature","geometry":{"type":"Point","coordinates":[138.5597,35.66563]},"properties":{"price":48800,"use":"甲府","zone":"","station":"住宅兼作業所"}},{"type":"Feature","geometry":{"type":"Point","coordinates":[138.54287,35.68259]},"properties":{"price":44100,"use":"甲府","zone":"","station":"住宅"}},{"type":"Feature","geometry":{"type":"Point","coordinates":[138.56275,35.64282]},"properties":{"price":40000,"use":"甲府","zone":"","station":"住宅"}},{"type":"Feature","geometry":{"type":"Point","coordinates":[138.5778,35.65836]},"properties":{"price":43300,"use":"甲府","zone":"","station":"住宅"}},{"type":"Feature","geometry":{"type":"Point","coordinates":[138.57839,35.6428]},"properties":{"price":45900,"use":"甲府","zone":"","station":"住宅"}},{"type":"Feature","geometry":{"type":"Point","coordinates":[138.5764,35.64907]},"properties":{"price":49500,"use":"甲府","zone":"","station":"住宅"}},{"type":"Feature","geometry":{"type":"Point","coordinates":[138.58197,35.62774]},"properties":{"price":38700,"use":"甲府","zone":"","station":"住宅"}},{"type":"Feature","geometry":{"type":"Point","coordinates":[138.55496,35.6332]},"properties":{"price":39700,"use":"甲府","zone":"","station":"住宅"}},{"type":"Feature","geometry":{"type":"Point","coordinates":[138.59697,35.65263]},"properties":{"price":33300,"use":"甲府","zone":"","station":"住宅"}},{"type":"Feature","geometry":{"type":"Point","coordinates":[138.59736,35.65692]},"properties":{"price":41100,"use":"甲府","zone":"","station":"住宅"}},{"type":"Feature","geometry":{"type":"Point","coordinates":[138.56384,35.6115]},"properties":{"price":44400,"use":"甲府","zone":"","station":"住宅"}},{"type":"Feature","geometry":{"type":"Point","coordinates":[138.60559,35.60594]},"properties":{"price":19700,"use":"甲府","zone":"","station":"住宅"}},{"type":"Feature","geometry":{"type":"Point","coordinates":[138.58932,35.65345]},"properties":{"price":40800,"use":"甲府","zone":"","station":"住宅"}},{"type":"Feature","geometry":{"type":"Point","coordinates":[138.54422,35.68648]},"properties":{"price":35300,"use":"甲府","zone":"","station":"住宅"}},{"type":"Feature","geometry":{"type":"Point","coordinates":[138.5549,35.67498]},"properties":{"price":52300,"use":"甲府","zone":"","station":"住宅"}},{"type":"Feature","geometry":{"type":"Point","coordinates":[138.57927,35.58146]},"properties":{"price":12700,"use":"甲府","zone":"","station":"住宅"}},{"type":"Feature","geometry":{"type":"Point","coordinates":[138.56542,35.63927]},"properties":{"price":48700,"use":"甲府","zone":"","station":"住宅"}},{"type":"Feature","geometry":{"type":"Point","coordinates":[138.54316,35.67679]},"properties":{"price":43600,"use":"甲府","zone":"","station":"住宅"}},{"type":"Feature","geometry":{"type":"Point","coordinates":[138.57017,35.66085]},"properties":{"price":88400,"use":"甲府","zone":"","station":"店舗兼事務所"}},{"type":"Feature","geometry":{"type":"Point","coordinates":[138.57901,35.59469]},"properties":{"price":33100,"use":"甲府","zone":"","station":"銀行"}},{"type":"Feature","geometry":{"type":"Point","coordinates":[138.5662,35.65553]},"properties":{"price":64500,"use":"甲府","zone":"","station":"空地"}},{"type":"Feature","geometry":{"type":"Point","coordinates":[138.57178,35.66231]},"properties":{"price":62500,"use":"甲府","zone":"","station":"診療所兼住宅"}},{"type":"Feature","geometry":{"type":"Point","coordinates":[138.56836,35.66539]},"properties":{"price":294000,"use":"甲府","zone":"","station":"店舗兼事務所"}},{"type":"Feature","geometry":{"type":"Point","coordinates":[138.56574,35.65892]},"properties":{"price":79400,"use":"甲府","zone":"","station":"事務所"}},{"type":"Feature","geometry":{"type":"Point","coordinates":[138.57002,35.65375]},"properties":{"price":52000,"use":"甲府","zone":"","station":"店舗兼住宅"}},{"type":"Feature","geometry":{"type":"Point","coordinates":[138.56841,35.63206]},"properties":{"price":56500,"use":"甲府","zone":"","station":"空地"}},{"type":"Feature","geometry":{"type":"Point","coordinates":[138.55407,35.67797]},"properties":{"price":63200,"use":"甲府","zone":"","station":"店舗"}},{"type":"Feature","geometry":{"type":"Point","coordinates":[138.5725,35.63279]},"properties":{"price":55700,"use":"甲府","zone":"","station":"店舗"}},{"type":"Feature","geometry":{"type":"Point","coordinates":[138.58665,35.65969]},"properties":{"price":48300,"use":"甲府","zone":"","station":"店舗"}},{"type":"Feature","geometry":{"type":"Point","coordinates":[138.56517,35.6619]},"properties":{"price":70200,"use":"甲府","zone":"","station":"店舗兼事務所"}},{"type":"Feature","geometry":{"type":"Point","coordinates":[138.56399,35.66622]},"properties":{"price":67700,"use":"甲府","zone":"","station":"診療所兼住宅"}},{"type":"Feature","geometry":{"type":"Point","coordinates":[138.55101,35.67223]},"properties":{"price":59100,"use":"甲府","zone":"","station":"店舗"}},{"type":"Feature","geometry":{"type":"Point","coordinates":[138.57036,35.67188]},"properties":{"price":77200,"use":"甲府","zone":"","station":"養護所"}},{"type":"Feature","geometry":{"type":"Point","coordinates":[138.55519,35.64593]},"properties":{"price":68400,"use":"甲府","zone":"","station":"店舗"}},{"type":"Feature","geometry":{"type":"Point","coordinates":[138.54587,35.65357]},"properties":{"price":75000,"use":"甲府","zone":"","station":"店舗"}},{"type":"Feature","geometry":{"type":"Point","coordinates":[138.61072,35.6461]},"properties":{"price":71700,"use":"甲府","zone":"","station":"店舗"}},{"type":"Feature","geometry":{"type":"Point","coordinates":[138.55925,35.64355]},"properties":{"price":54900,"use":"甲府","zone":"","station":"診療所兼住宅"}},{"type":"Feature","geometry":{"type":"Point","coordinates":[138.5684,35.66889]},"properties":{"price":123000,"use":"甲府","zone":"","station":"店舗、事務所兼共同住宅"}},{"type":"Feature","geometry":{"type":"Point","coordinates":[138.60239,35.65415]},"properties":{"price":54300,"use":"甲府","zone":"","station":"店舗"}},{"type":"Feature","geometry":{"type":"Point","coordinates":[138.5716,35.61306]},"properties":{"price":41500,"use":"甲府","zone":"","station":"店舗兼住宅"}},{"type":"Feature","geometry":{"type":"Point","coordinates":[138.56194,35.59944]},"properties":{"price":21000,"use":"甲府","zone":"","station":"工場"}},{"type":"Feature","geometry":{"type":"Point","coordinates":[138.5488,35.65251]},"properties":{"price":44700,"use":"甲府","zone":"","station":"事務所兼倉庫"}},{"type":"Feature","geometry":{"type":"Point","coordinates":[138.78791,35.49091]},"properties":{"price":46800,"use":"富士吉田","zone":"","station":"住宅"}},{"type":"Feature","geometry":{"type":"Point","coordinates":[138.78187,35.47383]},"properties":{"price":26700,"use":"富士吉田","zone":"","station":"住宅"}},{"type":"Feature","geometry":{"type":"Point","coordinates":[138.79837,35.46934]},"properties":{"price":23100,"use":"富士吉田","zone":"","station":"住宅"}},{"type":"Feature","geometry":{"type":"Point","coordinates":[138.79953,35.4975]},"properties":{"price":31300,"use":"富士吉田","zone":"","station":"住宅"}},{"type":"Feature","geometry":{"type":"Point","coordinates":[138.78535,35.47969]},"properties":{"price":66600,"use":"富士吉田","zone":"","station":"店舗"}},{"type":"Feature","geometry":{"type":"Point","coordinates":[138.80488,35.48008]},"properties":{"price":53900,"use":"富士吉田","zone":"","station":"店舗"}},{"type":"Feature","geometry":{"type":"Point","coordinates":[138.8065,35.48638]},"properties":{"price":49900,"use":"富士吉田","zone":"","station":"事務所"}},{"type":"Feature","geometry":{"type":"Point","coordinates":[138.80716,35.47417]},"properties":{"price":52500,"use":"富士吉田","zone":"","station":"店舗"}},{"type":"Feature","geometry":{"type":"Point","coordinates":[138.90976,35.5614]},"properties":{"price":44600,"use":"都留","zone":"","station":"住宅"}},{"type":"Feature","geometry":{"type":"Point","coordinates":[138.87102,35.53327]},"properties":{"price":37300,"use":"都留","zone":"","station":"住宅"}},{"type":"Feature","geometry":{"type":"Point","coordinates":[138.91825,35.57179]},"properties":{"price":43900,"use":"都留","zone":"","station":"住宅"}},{"type":"Feature","geometry":{"type":"Point","coordinates":[138.87302,35.53631]},"properties":{"price":40300,"use":"都留","zone":"","station":"店舗"}},{"type":"Feature","geometry":{"type":"Point","coordinates":[138.93395,35.59948]},"properties":{"price":67100,"use":"都留","zone":"","station":"店舗"}},{"type":"Feature","geometry":{"type":"Point","coordinates":[138.93559,35.5832]},"properties":{"price":18400,"use":"都留","zone":"","station":"倉庫兼事務所"}},{"type":"Feature","geometry":{"type":"Point","coordinates":[138.68682,35.69538]},"properties":{"price":33800,"use":"山梨","zone":"","station":"住宅"}},{"type":"Feature","geometry":{"type":"Point","coordinates":[138.68916,35.68569]},"properties":{"price":31800,"use":"山梨","zone":"","station":"住宅"}},{"type":"Feature","geometry":{"type":"Point","coordinates":[138.70026,35.69727]},"properties":{"price":29100,"use":"山梨","zone":"","station":"住宅"}},{"type":"Feature","geometry":{"type":"Point","coordinates":[138.68407,35.6867]},"properties":{"price":54600,"use":"山梨","zone":"","station":"店舗、事務所兼住宅"}},{"type":"Feature","geometry":{"type":"Point","coordinates":[138.67053,35.68745]},"properties":{"price":35200,"use":"山梨","zone":"","station":"店舗"}},{"type":"Feature","geometry":{"type":"Point","coordinates":[138.94218,35.61039]},"properties":{"price":64700,"use":"大月","zone":"","station":"住宅"}},{"type":"Feature","geometry":{"type":"Point","coordinates":[138.94912,35.61508]},"properties":{"price":59000,"use":"大月","zone":"","station":"住宅"}},{"type":"Feature","geometry":{"type":"Point","coordinates":[138.98842,35.61132]},"properties":{"price":35700,"use":"大月","zone":"","station":"住宅"}},{"type":"Feature","geometry":{"type":"Point","coordinates":[138.94316,35.61208]},"properties":{"price":74500,"use":"大月","zone":"","station":"店舗兼住宅"}},{"type":"Feature","geometry":{"type":"Point","coordinates":[138.92764,35.60542]},"properties":{"price":45500,"use":"大月","zone":"","station":"店舗"}},{"type":"Feature","geometry":{"type":"Point","coordinates":[138.45886,35.70219]},"properties":{"price":33600,"use":"韮崎","zone":"","station":"住宅"}},{"type":"Feature","geometry":{"type":"Point","coordinates":[138.45461,35.70537]},"properties":{"price":41200,"use":"韮崎","zone":"","station":"住宅"}},{"type":"Feature","geometry":{"type":"Point","coordinates":[138.45277,35.72115]},"properties":{"price":36100,"use":"韮崎","zone":"","station":"住宅"}},{"type":"Feature","geometry":{"type":"Point","coordinates":[138.45041,35.7093]},"properties":{"price":44300,"use":"韮崎","zone":"","station":"事務所兼住宅"}},{"type":"Feature","geometry":{"type":"Point","coordinates":[138.45466,35.71037]},"properties":{"price":53700,"use":"韮崎","zone":"","station":"店舗"}},{"type":"Feature","geometry":{"type":"Point","coordinates":[138.46431,35.59201]},"properties":{"price":22500,"use":"南アルプス","zone":"","station":"住宅"}},{"type":"Feature","geometry":{"type":"Point","coordinates":[138.46153,35.60997]},"properties":{"price":27600,"use":"南アルプス","zone":"","station":"住宅"}},{"type":"Feature","geometry":{"type":"Point","coordinates":[138.46621,35.64184]},"properties":{"price":27200,"use":"南アルプス","zone":"","station":"住宅"}},{"type":"Feature","geometry":{"type":"Point","coordinates":[138.46637,35.65495]},"properties":{"price":18500,"use":"南アルプス","zone":"","station":"住宅"}},{"type":"Feature","geometry":{"type":"Point","coordinates":[138.4949,35.62515]},"properties":{"price":20000,"use":"南アルプス","zone":"","station":"住宅"}},{"type":"Feature","geometry":{"type":"Point","coordinates":[138.48934,35.59791]},"properties":{"price":26700,"use":"南アルプス","zone":"","station":"住宅"}},{"type":"Feature","geometry":{"type":"Point","coordinates":[138.46567,35.6197]},"properties":{"price":51200,"use":"南アルプス","zone":"","station":"店舗"}},{"type":"Feature","geometry":{"type":"Point","coordinates":[138.4657,35.63094]},"properties":{"price":29300,"use":"南アルプス","zone":"","station":"店舗兼住宅"}},{"type":"Feature","geometry":{"type":"Point","coordinates":[138.46704,35.60757]},"properties":{"price":31400,"use":"南アルプス","zone":"","station":"店舗"}},{"type":"Feature","geometry":{"type":"Point","coordinates":[138.43695,35.88988]},"properties":{"price":10300,"use":"北杜","zone":"","station":"別荘"}},{"type":"Feature","geometry":{"type":"Point","coordinates":[138.3742,35.8278]},"properties":{"price":20000,"use":"北杜","zone":"","station":"住宅"}},{"type":"Feature","geometry":{"type":"Point","coordinates":[138.40716,35.87791]},"properties":{"price":13400,"use":"北杜","zone":"","station":"住宅"}},{"type":"Feature","geometry":{"type":"Point","coordinates":[138.52683,35.66232]},"properties":{"price":45200,"use":"甲斐","zone":"","station":"住宅"}},{"type":"Feature","geometry":{"type":"Point","coordinates":[138.49814,35.69589]},"properties":{"price":22400,"use":"甲斐","zone":"","station":"住宅"}},{"type":"Feature","geometry":{"type":"Point","coordinates":[138.51913,35.65757]},"properties":{"price":41600,"use":"甲斐","zone":"","station":"住宅"}},{"type":"Feature","geometry":{"type":"Point","coordinates":[138.51351,35.65231]},"properties":{"price":38100,"use":"甲斐","zone":"","station":"住宅"}},{"type":"Feature","geometry":{"type":"Point","coordinates":[138.48103,35.69091]},"properties":{"price":30000,"use":"甲斐","zone":"","station":"住宅"}},{"type":"Feature","geometry":{"type":"Point","coordinates":[138.52261,35.68587]},"properties":{"price":44900,"use":"甲斐","zone":"","station":"住宅"}},{"type":"Feature","geometry":{"type":"Point","coordinates":[138.52195,35.63743]},"properties":{"price":37500,"use":"甲斐","zone":"","station":"住宅"}},{"type":"Feature","geometry":{"type":"Point","coordinates":[138.52013,35.67903]},"properties":{"price":47600,"use":"甲斐","zone":"","station":"住宅"}},{"type":"Feature","geometry":{"type":"Point","coordinates":[138.52787,35.67336]},"properties":{"price":47200,"use":"甲斐","zone":"","station":"住宅"}},{"type":"Feature","geometry":{"type":"Point","coordinates":[138.51209,35.67291]},"properties":{"price":28500,"use":"甲斐","zone":"","station":"住宅"}},{"type":"Feature","geometry":{"type":"Point","coordinates":[138.50692,35.68369]},"properties":{"price":53200,"use":"甲斐","zone":"","station":"店舗"}},{"type":"Feature","geometry":{"type":"Point","coordinates":[138.64622,35.66113]},"properties":{"price":31300,"use":"笛吹","zone":"","station":"住宅"}},{"type":"Feature","geometry":{"type":"Point","coordinates":[138.66323,35.67389]},"properties":{"price":18500,"use":"笛吹","zone":"","station":"住宅"}},{"type":"Feature","geometry":{"type":"Point","coordinates":[138.64248,35.65417]},"properties":{"price":34900,"use":"笛吹","zone":"","station":"住宅"}},{"type":"Feature","geometry":{"type":"Point","coordinates":[138.59924,35.6294]},"properties":{"price":27200,"use":"笛吹","zone":"","station":"住宅"}},{"type":"Feature","geometry":{"type":"Point","coordinates":[138.61719,35.60318]},"properties":{"price":16300,"use":"笛吹","zone":"","station":"住宅"}},{"type":"Feature","geometry":{"type":"Point","coordinates":[138.65658,35.63625]},"properties":{"price":20900,"use":"笛吹","zone":"","station":"住宅"}},{"type":"Feature","geometry":{"type":"Point","coordinates":[138.68462,35.64956]},"properties":{"price":20800,"use":"笛吹","zone":"","station":"住宅"}},{"type":"Feature","geometry":{"type":"Point","coordinates":[138.69955,35.65294]},"properties":{"price":18800,"use":"笛吹","zone":"","station":"住宅"}},{"type":"Feature","geometry":{"type":"Point","coordinates":[138.64114,35.61259]},"properties":{"price":19500,"use":"笛吹","zone":"","station":"住宅"}},{"type":"Feature","geometry":{"type":"Point","coordinates":[138.62928,35.59608]},"properties":{"price":11800,"use":"笛吹","zone":"","station":"住宅"}},{"type":"Feature","geometry":{"type":"Point","coordinates":[138.65917,35.67026]},"properties":{"price":31600,"use":"笛吹","zone":"","station":"店舗"}},{"type":"Feature","geometry":{"type":"Point","coordinates":[138.63239,35.65069]},"properties":{"price":40200,"use":"笛吹","zone":"","station":"診療所兼住宅"}},{"type":"Feature","geometry":{"type":"Point","coordinates":[138.65446,35.63465]},"properties":{"price":23800,"use":"笛吹","zone":"","station":"店舗兼共同住宅"}},{"type":"Feature","geometry":{"type":"Point","coordinates":[138.63421,35.64549]},"properties":{"price":64100,"use":"笛吹","zone":"","station":"店舗"}},{"type":"Feature","geometry":{"type":"Point","coordinates":[138.63558,35.65663]},"properties":{"price":78400,"use":"笛吹","zone":"","station":"店舗兼住宅"}},{"type":"Feature","geometry":{"type":"Point","coordinates":[139.11109,35.62531]},"properties":{"price":66800,"use":"上野原","zone":"","station":"住宅"}},{"type":"Feature","geometry":{"type":"Point","coordinates":[139.11163,35.62978]},"properties":{"price":65600,"use":"上野原","zone":"","station":"住宅"}},{"type":"Feature","geometry":{"type":"Point","coordinates":[139.11615,35.62537]},"properties":{"price":68600,"use":"上野原","zone":"","station":"店舗兼住宅"}},{"type":"Feature","geometry":{"type":"Point","coordinates":[138.73347,35.70023]},"properties":{"price":29300,"use":"甲州","zone":"","station":"住宅"}},{"type":"Feature","geometry":{"type":"Point","coordinates":[138.73563,35.70638]},"properties":{"price":32300,"use":"甲州","zone":"","station":"住宅"}},{"type":"Feature","geometry":{"type":"Point","coordinates":[138.72307,35.69904]},"properties":{"price":31900,"use":"甲州","zone":"","station":"住宅"}},{"type":"Feature","geometry":{"type":"Point","coordinates":[138.71258,35.66677]},"properties":{"price":19000,"use":"甲州","zone":"","station":"住宅"}},{"type":"Feature","geometry":{"type":"Point","coordinates":[138.71958,35.65896]},"properties":{"price":16300,"use":"甲州","zone":"","station":"住宅"}},{"type":"Feature","geometry":{"type":"Point","coordinates":[138.73059,35.70507]},"properties":{"price":47700,"use":"甲州","zone":"","station":"店舗兼住宅"}},{"type":"Feature","geometry":{"type":"Point","coordinates":[138.72614,35.70304]},"properties":{"price":39000,"use":"甲州","zone":"","station":"店舗兼共同住宅"}},{"type":"Feature","geometry":{"type":"Point","coordinates":[138.56128,35.57639]},"properties":{"price":11400,"use":"山梨中央","zone":"","station":"住宅"}},{"type":"Feature","geometry":{"type":"Point","coordinates":[138.5298,35.58859]},"properties":{"price":29000,"use":"山梨中央","zone":"","station":"住宅"}},{"type":"Feature","geometry":{"type":"Point","coordinates":[138.52561,35.60821]},"properties":{"price":36100,"use":"山梨中央","zone":"","station":"住宅"}},{"type":"Feature","geometry":{"type":"Point","coordinates":[138.54532,35.61466]},"properties":{"price":41200,"use":"山梨中央","zone":"","station":"住宅"}},{"type":"Feature","geometry":{"type":"Point","coordinates":[138.50435,35.58009]},"properties":{"price":16900,"use":"山梨中央","zone":"","station":"住宅"}},{"type":"Feature","geometry":{"type":"Point","coordinates":[138.54075,35.61162]},"properties":{"price":56900,"use":"山梨中央","zone":"","station":"店舗兼住宅"}},{"type":"Feature","geometry":{"type":"Point","coordinates":[138.4888,35.55788]},"properties":{"price":24900,"use":"市川三郷","zone":"","station":"住宅"}},{"type":"Feature","geometry":{"type":"Point","coordinates":[138.5168,35.568]},"properties":{"price":25400,"use":"市川三郷","zone":"","station":"住宅"}},{"type":"Feature","geometry":{"type":"Point","coordinates":[138.49931,35.56533]},"properties":{"price":28000,"use":"市川三郷","zone":"","station":"住宅"}},{"type":"Feature","geometry":{"type":"Point","coordinates":[138.50002,35.56291]},"properties":{"price":29200,"use":"市川三郷","zone":"","station":"店舗兼住宅"}},{"type":"Feature","geometry":{"type":"Point","coordinates":[138.43656,35.37212]},"properties":{"price":16600,"use":"身延","zone":"","station":"住宅"}},{"type":"Feature","geometry":{"type":"Point","coordinates":[138.4406,35.41181]},"properties":{"price":10500,"use":"身延","zone":"","station":"住宅"}},{"type":"Feature","geometry":{"type":"Point","coordinates":[138.45248,35.36284]},"properties":{"price":24500,"use":"身延","zone":"","station":"店舗兼住宅"}},{"type":"Feature","geometry":{"type":"Point","coordinates":[138.46738,35.56427]},"properties":{"price":27200,"use":"山梨富士川","zone":"","station":"住宅"}},{"type":"Feature","geometry":{"type":"Point","coordinates":[138.46416,35.57597]},"properties":{"price":23400,"use":"山梨富士川","zone":"","station":"住宅"}},{"type":"Feature","geometry":{"type":"Point","coordinates":[138.45908,35.54236]},"properties":{"price":22000,"use":"山梨富士川","zone":"","station":"住宅"}},{"type":"Feature","geometry":{"type":"Point","coordinates":[138.46883,35.55888]},"properties":{"price":39700,"use":"山梨富士川","zone":"","station":"店舗"}},{"type":"Feature","geometry":{"type":"Point","coordinates":[138.54476,35.62615]},"properties":{"price":49700,"use":"山梨昭和","zone":"","station":"住宅"}},{"type":"Feature","geometry":{"type":"Point","coordinates":[138.5397,35.64145]},"properties":{"price":56900,"use":"山梨昭和","zone":"","station":"住宅"}},{"type":"Feature","geometry":{"type":"Point","coordinates":[138.52108,35.61362]},"properties":{"price":55000,"use":"山梨昭和","zone":"","station":"住宅"}},{"type":"Feature","geometry":{"type":"Point","coordinates":[138.52375,35.61861]},"properties":{"price":61700,"use":"山梨昭和","zone":"","station":"住宅"}},{"type":"Feature","geometry":{"type":"Point","coordinates":[138.52607,35.62465]},"properties":{"price":78000,"use":"山梨昭和","zone":"","station":"店舗"}},{"type":"Feature","geometry":{"type":"Point","coordinates":[138.51336,35.62492]},"properties":{"price":16100,"use":"山梨昭和","zone":"","station":"工場、倉庫兼事務所"}},{"type":"Feature","geometry":{"type":"Point","coordinates":[138.85018,35.52291]},"properties":{"price":23900,"use":"西桂","zone":"","station":"住宅"}},{"type":"Feature","geometry":{"type":"Point","coordinates":[138.84428,35.523]},"properties":{"price":33300,"use":"西桂","zone":"","station":"店舗兼住宅"}},{"type":"Feature","geometry":{"type":"Point","coordinates":[138.85556,35.45643]},"properties":{"price":21500,"use":"忍野","zone":"","station":"住宅"}},{"type":"Feature","geometry":{"type":"Point","coordinates":[138.83897,35.45769]},"properties":{"price":28900,"use":"忍野","zone":"","station":"住宅"}},{"type":"Feature","geometry":{"type":"Point","coordinates":[138.84894,35.4594]},"properties":{"price":28400,"use":"忍野","zone":"","station":"店舗"}},{"type":"Feature","geometry":{"type":"Point","coordinates":[138.84593,35.41645]},"properties":{"price":17100,"use":"山中湖","zone":"","station":"住宅"}},{"type":"Feature","geometry":{"type":"Point","coordinates":[138.84126,35.4384]},"properties":{"price":19300,"use":"山中湖","zone":"","station":"住宅"}},{"type":"Feature","geometry":{"type":"Point","coordinates":[138.88639,35.40932]},"properties":{"price":20800,"use":"山中湖","zone":"","station":"店舗"}},{"type":"Feature","geometry":{"type":"Point","coordinates":[138.7639,35.5005]},"properties":{"price":38700,"use":"富士河口湖","zone":"","station":"住宅"}},{"type":"Feature","geometry":{"type":"Point","coordinates":[138.76134,35.4868]},"properties":{"price":46900,"use":"富士河口湖","zone":"","station":"住宅"}},{"type":"Feature","geometry":{"type":"Point","coordinates":[138.73973,35.50374]},"properties":{"price":29100,"use":"富士河口湖","zone":"","station":"住宅"}},{"type":"Feature","geometry":{"type":"Point","coordinates":[138.72018,35.50192]},"properties":{"price":9800,"use":"富士河口湖","zone":"","station":"住宅"}},{"type":"Feature","geometry":{"type":"Point","coordinates":[138.7636,35.49369]},"properties":{"price":52400,"use":"富士河口湖","zone":"","station":"店舗"}},{"type":"Feature","geometry":{"type":"Point","coordinates":[138.756,35.50093]},"properties":{"price":60600,"use":"富士河口湖","zone":"","station":"店舗"}}]}