{"type":"FeatureCollection","features":[{"type":"Feature","geometry":{"type":"Point","coordinates":[139.14486,37.95265]},"properties":{"price":35400,"use":"新潟北","zone":"","station":"住宅"}},{"type":"Feature","geometry":{"type":"Point","coordinates":[139.18677,37.93945]},"properties":{"price":28000,"use":"新潟北","zone":"","station":"住宅"}},{"type":"Feature","geometry":{"type":"Point","coordinates":[139.14609,37.94451]},"properties":{"price":34500,"use":"新潟北","zone":"","station":"住宅"}},{"type":"Feature","geometry":{"type":"Point","coordinates":[139.22582,37.9181]},"properties":{"price":44400,"use":"新潟北","zone":"","station":"住宅"}},{"type":"Feature","geometry":{"type":"Point","coordinates":[139.20983,37.91013]},"properties":{"price":29200,"use":"新潟北","zone":"","station":"住宅"}},{"type":"Feature","geometry":{"type":"Point","coordinates":[139.18044,37.91901]},"properties":{"price":40300,"use":"新潟北","zone":"","station":"住宅"}},{"type":"Feature","geometry":{"type":"Point","coordinates":[139.22316,37.90717]},"properties":{"price":31100,"use":"新潟北","zone":"","station":"住宅"}},{"type":"Feature","geometry":{"type":"Point","coordinates":[139.20237,37.9623]},"properties":{"price":12300,"use":"新潟北","zone":"","station":"住宅"}},{"type":"Feature","geometry":{"type":"Point","coordinates":[139.2226,37.86675]},"properties":{"price":6650,"use":"新潟北","zone":"","station":"住宅"}},{"type":"Feature","geometry":{"type":"Point","coordinates":[139.22135,37.92802]},"properties":{"price":45900,"use":"新潟北","zone":"","station":"住宅"}},{"type":"Feature","geometry":{"type":"Point","coordinates":[139.21875,37.9142]},"properties":{"price":40000,"use":"新潟北","zone":"","station":"店舗兼住宅"}},{"type":"Feature","geometry":{"type":"Point","coordinates":[139.19825,37.93992]},"properties":{"price":15200,"use":"新潟北","zone":"","station":"事務所"}},{"type":"Feature","geometry":{"type":"Point","coordinates":[139.14428,37.9625]},"properties":{"price":11300,"use":"新潟北","zone":"","station":"工場"}},{"type":"Feature","geometry":{"type":"Point","coordinates":[139.11236,37.90337]},"properties":{"price":71500,"use":"新潟東","zone":"","station":"住宅"}},{"type":"Feature","geometry":{"type":"Point","coordinates":[139.09617,37.94049]},"properties":{"price":77200,"use":"新潟東","zone":"","station":"住宅"}},{"type":"Feature","geometry":{"type":"Point","coordinates":[139.09224,37.93558]},"properties":{"price":58900,"use":"新潟東","zone":"","station":"住宅"}},{"type":"Feature","geometry":{"type":"Point","coordinates":[139.11613,37.91859]},"properties":{"price":67100,"use":"新潟東","zone":"","station":"住宅"}},{"type":"Feature","geometry":{"type":"Point","coordinates":[139.10544,37.9393]},"properties":{"price":72000,"use":"新潟東","zone":"","station":"住宅"}},{"type":"Feature","geometry":{"type":"Point","coordinates":[139.09784,37.94474]},"properties":{"price":69200,"use":"新潟東","zone":"","station":"住宅"}},{"type":"Feature","geometry":{"type":"Point","coordinates":[139.09789,37.90162]},"properties":{"price":78500,"use":"新潟東","zone":"","station":"住宅"}},{"type":"Feature","geometry":{"type":"Point","coordinates":[139.08542,37.91054]},"properties":{"price":71000,"use":"新潟東","zone":"","station":"住宅"}},{"type":"Feature","geometry":{"type":"Point","coordinates":[139.09899,37.89594]},"properties":{"price":79500,"use":"新潟東","zone":"","station":"住宅"}},{"type":"Feature","geometry":{"type":"Point","coordinates":[139.08737,37.89924]},"properties":{"price":83500,"use":"新潟東","zone":"","station":"住宅"}},{"type":"Feature","geometry":{"type":"Point","coordinates":[139.08695,37.91966]},"properties":{"price":76800,"use":"新潟東","zone":"","station":"住宅"}},{"type":"Feature","geometry":{"type":"Point","coordinates":[139.13339,37.941]},"properties":{"price":15400,"use":"新潟東","zone":"","station":"住宅"}},{"type":"Feature","geometry":{"type":"Point","coordinates":[139.11882,37.93179]},"properties":{"price":79400,"use":"新潟東","zone":"","station":"住宅"}},{"type":"Feature","geometry":{"type":"Point","coordinates":[139.07429,37.93832]},"properties":{"price":61600,"use":"新潟東","zone":"","station":"店舗"}},{"type":"Feature","geometry":{"type":"Point","coordinates":[139.09072,37.92344]},"properties":{"price":65000,"use":"新潟東","zone":"","station":"事務所"}},{"type":"Feature","geometry":{"type":"Point","coordinates":[139.09436,37.9169]},"properties":{"price":68800,"use":"新潟東","zone":"","station":"店舗"}},{"type":"Feature","geometry":{"type":"Point","coordinates":[139.11281,37.92379]},"properties":{"price":70500,"use":"新潟東","zone":"","station":"事務所兼倉庫"}},{"type":"Feature","geometry":{"type":"Point","coordinates":[139.07621,37.90009]},"properties":{"price":62500,"use":"新潟東","zone":"","station":"事務所兼倉庫"}},{"type":"Feature","geometry":{"type":"Point","coordinates":[139.08287,37.92308]},"properties":{"price":34100,"use":"新潟東","zone":"","station":"工場兼倉庫"}},{"type":"Feature","geometry":{"type":"Point","coordinates":[139.08063,37.9283]},"properties":{"price":21300,"use":"新潟東","zone":"","station":"工場兼事務所"}},{"type":"Feature","geometry":{"type":"Point","coordinates":[139.07595,37.93218]},"properties":{"price":27200,"use":"新潟東","zone":"","station":"工場"}},{"type":"Feature","geometry":{"type":"Point","coordinates":[139.09736,37.95349]},"properties":{"price":28700,"use":"新潟東","zone":"","station":"事務所兼倉庫"}},{"type":"Feature","geometry":{"type":"Point","coordinates":[139.01744,37.91046]},"properties":{"price":128000,"use":"新潟中央","zone":"","station":"住宅"}},{"type":"Feature","geometry":{"type":"Point","coordinates":[139.04587,37.93432]},"properties":{"price":64400,"use":"新潟中央","zone":"","station":"住宅"}},{"type":"Feature","geometry":{"type":"Point","coordinates":[139.04814,37.8982]},"properties":{"price":96600,"use":"新潟中央","zone":"","station":"住宅"}},{"type":"Feature","geometry":{"type":"Point","coordinates":[139.04428,37.91432]},"properties":{"price":137000,"use":"新潟中央","zone":"","station":"共同住宅"}},{"type":"Feature","geometry":{"type":"Point","coordinates":[139.05394,37.90217]},"properties":{"price":106000,"use":"新潟中央","zone":"","station":"住宅"}},{"type":"Feature","geometry":{"type":"Point","coordinates":[139.04102,37.92558]},"properties":{"price":168000,"use":"新潟中央","zone":"","station":"住宅"}},{"type":"Feature","geometry":{"type":"Point","coordinates":[139.03785,37.92837]},"properties":{"price":108000,"use":"新潟中央","zone":"","station":"住宅"}},{"type":"Feature","geometry":{"type":"Point","coordinates":[139.03195,37.92256]},"properties":{"price":172000,"use":"新潟中央","zone":"","station":"住宅"}},{"type":"Feature","geometry":{"type":"Point","coordinates":[139.05273,37.9368]},"properties":{"price":76100,"use":"新潟中央","zone":"","station":"住宅"}},{"type":"Feature","geometry":{"type":"Point","coordinates":[139.02571,37.88731]},"properties":{"price":91500,"use":"新潟中央","zone":"","station":"住宅"}},{"type":"Feature","geometry":{"type":"Point","coordinates":[139.03905,37.89947]},"properties":{"price":117000,"use":"新潟中央","zone":"","station":"住宅"}},{"type":"Feature","geometry":{"type":"Point","coordinates":[139.07373,37.89081]},"properties":{"price":96600,"use":"新潟中央","zone":"","station":"住宅"}},{"type":"Feature","geometry":{"type":"Point","coordinates":[139.05859,37.89618]},"properties":{"price":84600,"use":"新潟中央","zone":"","station":"住宅"}},{"type":"Feature","geometry":{"type":"Point","coordinates":[139.06766,37.9062]},"properties":{"price":135000,"use":"新潟中央","zone":"","station":"住宅"}},{"type":"Feature","geometry":{"type":"Point","coordinates":[139.0221,37.89493]},"properties":{"price":102000,"use":"新潟中央","zone":"","station":"住宅"}},{"type":"Feature","geometry":{"type":"Point","coordinates":[139.04716,37.88719]},"properties":{"price":80100,"use":"新潟中央","zone":"","station":"住宅"}},{"type":"Feature","geometry":{"type":"Point","coordinates":[139.05156,37.90766]},"properties":{"price":126000,"use":"新潟中央","zone":"","station":"住宅"}},{"type":"Feature","geometry":{"type":"Point","coordinates":[139.08354,37.89069]},"properties":{"price":71500,"use":"新潟中央","zone":"","station":"住宅"}},{"type":"Feature","geometry":{"type":"Point","coordinates":[139.02754,37.91838]},"properties":{"price":115000,"use":"新潟中央","zone":"","station":"住宅"}},{"type":"Feature","geometry":{"type":"Point","coordinates":[139.0129,37.90276]},"properties":{"price":78500,"use":"新潟中央","zone":"","station":"住宅"}},{"type":"Feature","geometry":{"type":"Point","coordinates":[139.03697,37.88977]},"properties":{"price":95500,"use":"新潟中央","zone":"","station":"住宅"}},{"type":"Feature","geometry":{"type":"Point","coordinates":[139.05803,37.93382]},"properties":{"price":71300,"use":"新潟中央","zone":"","station":"住宅"}},{"type":"Feature","geometry":{"type":"Point","coordinates":[139.04451,37.92077]},"properties":{"price":245000,"use":"新潟中央","zone":"","station":"店舗"}},{"type":"Feature","geometry":{"type":"Point","coordinates":[139.06014,37.91405]},"properties":{"price":584000,"use":"新潟中央","zone":"","station":"事務所"}},{"type":"Feature","geometry":{"type":"Point","coordinates":[139.0473,37.92877]},"properties":{"price":105000,"use":"新潟中央","zone":"","station":"店舗兼住宅"}},{"type":"Feature","geometry":{"type":"Point","coordinates":[139.04857,37.9317]},"properties":{"price":91100,"use":"新潟中央","zone":"","station":"店舗兼住宅"}},{"type":"Feature","geometry":{"type":"Point","coordinates":[139.06148,37.91755]},"properties":{"price":130000,"use":"新潟中央","zone":"","station":"事務所兼住宅"}},{"type":"Feature","geometry":{"type":"Point","coordinates":[139.06775,37.91754]},"properties":{"price":139000,"use":"新潟中央","zone":"","station":"事務所兼共同住宅"}},{"type":"Feature","geometry":{"type":"Point","coordinates":[139.06841,37.92082]},"properties":{"price":88200,"use":"新潟中央","zone":"","station":"店舗兼住宅"}},{"type":"Feature","geometry":{"type":"Point","coordinates":[139.06368,37.90666]},"properties":{"price":229000,"use":"新潟中央","zone":"","station":"事務所"}},{"type":"Feature","geometry":{"type":"Point","coordinates":[139.03074,37.9169]},"properties":{"price":116000,"use":"新潟中央","zone":"","station":"事務所兼住宅"}},{"type":"Feature","geometry":{"type":"Point","coordinates":[139.06187,37.91503]},"properties":{"price":229000,"use":"新潟中央","zone":"","station":"店舗"}},{"type":"Feature","geometry":{"type":"Point","coordinates":[139.04805,37.91999]},"properties":{"price":151000,"use":"新潟中央","zone":"","station":"事務所兼住宅"}},{"type":"Feature","geometry":{"type":"Point","coordinates":[139.04991,37.90292]},"properties":{"price":125000,"use":"新潟中央","zone":"","station":"事務所兼倉庫"}},{"type":"Feature","geometry":{"type":"Point","coordinates":[139.05399,37.91716]},"properties":{"price":328000,"use":"新潟中央","zone":"","station":"事務所"}},{"type":"Feature","geometry":{"type":"Point","coordinates":[139.04954,37.92134]},"properties":{"price":226000,"use":"新潟中央","zone":"","station":"事務所"}},{"type":"Feature","geometry":{"type":"Point","coordinates":[139.06171,37.9082]},"properties":{"price":304000,"use":"新潟中央","zone":"","station":"校舎"}},{"type":"Feature","geometry":{"type":"Point","coordinates":[139.03305,37.91424]},"properties":{"price":91800,"use":"新潟中央","zone":"","station":"店舗"}},{"type":"Feature","geometry":{"type":"Point","coordinates":[139.04071,37.91636]},"properties":{"price":126000,"use":"新潟中央","zone":"","station":"店舗兼住宅"}},{"type":"Feature","geometry":{"type":"Point","coordinates":[139.02631,37.89822]},"properties":{"price":122000,"use":"新潟中央","zone":"","station":"店舗"}},{"type":"Feature","geometry":{"type":"Point","coordinates":[139.07099,37.8889]},"properties":{"price":114000,"use":"新潟中央","zone":"","station":"事務所"}},{"type":"Feature","geometry":{"type":"Point","coordinates":[139.036,37.85639]},"properties":{"price":49200,"use":"新潟江南","zone":"","station":"住宅"}},{"type":"Feature","geometry":{"type":"Point","coordinates":[139.03809,37.86319]},"properties":{"price":53000,"use":"新潟江南","zone":"","station":"住宅"}},{"type":"Feature","geometry":{"type":"Point","coordinates":[139.15159,37.85115]},"properties":{"price":22100,"use":"新潟江南","zone":"","station":"住宅"}},{"type":"Feature","geometry":{"type":"Point","coordinates":[139.14773,37.85735]},"properties":{"price":45000,"use":"新潟江南","zone":"","station":"住宅"}},{"type":"Feature","geometry":{"type":"Point","coordinates":[139.11331,37.84695]},"properties":{"price":33200,"use":"新潟江南","zone":"","station":"住宅"}},{"type":"Feature","geometry":{"type":"Point","coordinates":[139.10202,37.87308]},"properties":{"price":91500,"use":"新潟江南","zone":"","station":"住宅"}},{"type":"Feature","geometry":{"type":"Point","coordinates":[139.1184,37.86547]},"properties":{"price":42100,"use":"新潟江南","zone":"","station":"住宅"}},{"type":"Feature","geometry":{"type":"Point","coordinates":[139.113,37.87477]},"properties":{"price":55700,"use":"新潟江南","zone":"","station":"住宅"}},{"type":"Feature","geometry":{"type":"Point","coordinates":[139.10404,37.88228]},"properties":{"price":53900,"use":"新潟江南","zone":"","station":"住宅"}},{"type":"Feature","geometry":{"type":"Point","coordinates":[139.10462,37.86887]},"properties":{"price":47200,"use":"新潟江南","zone":"","station":"住宅"}},{"type":"Feature","geometry":{"type":"Point","coordinates":[139.13762,37.89882]},"properties":{"price":17600,"use":"新潟江南","zone":"","station":"住宅"}},{"type":"Feature","geometry":{"type":"Point","coordinates":[139.0867,37.85766]},"properties":{"price":22300,"use":"新潟江南","zone":"","station":"住宅"}},{"type":"Feature","geometry":{"type":"Point","coordinates":[139.1634,37.87041]},"properties":{"price":11700,"use":"新潟江南","zone":"","station":"住宅"}},{"type":"Feature","geometry":{"type":"Point","coordinates":[139.1231,37.85953]},"properties":{"price":25500,"use":"新潟江南","zone":"","station":"事務所兼倉庫"}},{"type":"Feature","geometry":{"type":"Point","coordinates":[139.10139,37.8823]},"properties":{"price":30000,"use":"新潟江南","zone":"","station":"事務所兼倉庫"}},{"type":"Feature","geometry":{"type":"Point","coordinates":[139.12063,37.77703]},"properties":{"price":32000,"use":"新潟秋葉","zone":"","station":"住宅"}},{"type":"Feature","geometry":{"type":"Point","coordinates":[139.11556,37.83201]},"properties":{"price":50500,"use":"新潟秋葉","zone":"","station":"住宅"}},{"type":"Feature","geometry":{"type":"Point","coordinates":[139.06752,37.74058]},"properties":{"price":8100,"use":"新潟秋葉","zone":"","station":"住宅"}},{"type":"Feature","geometry":{"type":"Point","coordinates":[139.11953,37.79595]},"properties":{"price":38000,"use":"新潟秋葉","zone":"","station":"住宅"}},{"type":"Feature","geometry":{"type":"Point","coordinates":[139.12314,37.80453]},"properties":{"price":38200,"use":"新潟秋葉","zone":"","station":"住宅"}},{"type":"Feature","geometry":{"type":"Point","coordinates":[139.06963,37.76184]},"properties":{"price":18400,"use":"新潟秋葉","zone":"","station":"住宅"}},{"type":"Feature","geometry":{"type":"Point","coordinates":[139.13498,37.80053]},"properties":{"price":34200,"use":"新潟秋葉","zone":"","station":"住宅"}},{"type":"Feature","geometry":{"type":"Point","coordinates":[139.11314,37.77328]},"properties":{"price":35500,"use":"新潟秋葉","zone":"","station":"住宅"}},{"type":"Feature","geometry":{"type":"Point","coordinates":[139.14161,37.78715]},"properties":{"price":21500,"use":"新潟秋葉","zone":"","station":"住宅"}},{"type":"Feature","geometry":{"type":"Point","coordinates":[139.12317,37.79423]},"properties":{"price":38700,"use":"新潟秋葉","zone":"","station":"住宅"}},{"type":"Feature","geometry":{"type":"Point","coordinates":[139.11927,37.82706]},"properties":{"price":26500,"use":"新潟秋葉","zone":"","station":"住宅"}},{"type":"Feature","geometry":{"type":"Point","coordinates":[139.07432,37.75385]},"properties":{"price":24100,"use":"新潟秋葉","zone":"","station":"住宅"}},{"type":"Feature","geometry":{"type":"Point","coordinates":[139.09712,37.7394]},"properties":{"price":17700,"use":"新潟秋葉","zone":"","station":"住宅"}},{"type":"Feature","geometry":{"type":"Point","coordinates":[139.14451,37.82506]},"properties":{"price":9530,"use":"新潟秋葉","zone":"","station":"住宅"}},{"type":"Feature","geometry":{"type":"Point","coordinates":[139.14931,37.78878]},"properties":{"price":12900,"use":"新潟秋葉","zone":"","station":"住宅"}},{"type":"Feature","geometry":{"type":"Point","coordinates":[139.12996,37.78729]},"properties":{"price":17300,"use":"新潟秋葉","zone":"","station":"住宅"}},{"type":"Feature","geometry":{"type":"Point","coordinates":[139.12434,37.79749]},"properties":{"price":52100,"use":"新潟秋葉","zone":"","station":"銀行"}},{"type":"Feature","geometry":{"type":"Point","coordinates":[139.06711,37.75638]},"properties":{"price":23100,"use":"新潟秋葉","zone":"","station":"店舗兼住宅"}},{"type":"Feature","geometry":{"type":"Point","coordinates":[139.10253,37.81494]},"properties":{"price":29100,"use":"新潟秋葉","zone":"","station":"店舗"}},{"type":"Feature","geometry":{"type":"Point","coordinates":[139.14212,37.78984]},"properties":{"price":16200,"use":"新潟秋葉","zone":"","station":"事務所兼住宅"}},{"type":"Feature","geometry":{"type":"Point","coordinates":[139.01925,37.75914]},"properties":{"price":42000,"use":"新潟南","zone":"","station":"住宅"}},{"type":"Feature","geometry":{"type":"Point","coordinates":[139.01402,37.77137]},"properties":{"price":26800,"use":"新潟南","zone":"","station":"住宅"}},{"type":"Feature","geometry":{"type":"Point","coordinates":[139.05631,37.75055]},"properties":{"price":17900,"use":"新潟南","zone":"","station":"住宅"}},{"type":"Feature","geometry":{"type":"Point","coordinates":[138.95232,37.87123]},"properties":{"price":63800,"use":"新潟西","zone":"","station":"住宅"}},{"type":"Feature","geometry":{"type":"Point","coordinates":[139.01144,37.85233]},"properties":{"price":53800,"use":"新潟西","zone":"","station":"住宅"}},{"type":"Feature","geometry":{"type":"Point","coordinates":[138.97288,37.87285]},"properties":{"price":73500,"use":"新潟西","zone":"","station":"住宅"}},{"type":"Feature","geometry":{"type":"Point","coordinates":[139.00434,37.89367]},"properties":{"price":116000,"use":"新潟西","zone":"","station":"住宅"}},{"type":"Feature","geometry":{"type":"Point","coordinates":[139.01422,37.86393]},"properties":{"price":58300,"use":"新潟西","zone":"","station":"住宅"}},{"type":"Feature","geometry":{"type":"Point","coordinates":[138.91172,37.84574]},"properties":{"price":28600,"use":"新潟西","zone":"","station":"住宅"}},{"type":"Feature","geometry":{"type":"Point","coordinates":[138.94307,37.86479]},"properties":{"price":38900,"use":"新潟西","zone":"","station":"住宅"}},{"type":"Feature","geometry":{"type":"Point","coordinates":[138.9969,37.89585]},"properties":{"price":94200,"use":"新潟西","zone":"","station":"住宅"}},{"type":"Feature","geometry":{"type":"Point","coordinates":[138.98399,37.88397]},"properties":{"price":54400,"use":"新潟西","zone":"","station":"住宅"}},{"type":"Feature","geometry":{"type":"Point","coordinates":[138.99102,37.88486]},"properties":{"price":90900,"use":"新潟西","zone":"","station":"住宅"}},{"type":"Feature","geometry":{"type":"Point","coordinates":[138.96623,37.87367]},"properties":{"price":66000,"use":"新潟西","zone":"","station":"住宅"}},{"type":"Feature","geometry":{"type":"Point","coordinates":[138.98374,37.8934]},"properties":{"price":54300,"use":"新潟西","zone":"","station":"住宅"}},{"type":"Feature","geometry":{"type":"Point","coordinates":[138.97787,37.88518]},"properties":{"price":71800,"use":"新潟西","zone":"","station":"住宅"}},{"type":"Feature","geometry":{"type":"Point","coordinates":[138.96629,37.87563]},"properties":{"price":47700,"use":"新潟西","zone":"","station":"住宅"}},{"type":"Feature","geometry":{"type":"Point","coordinates":[139.00209,37.90228]},"properties":{"price":49100,"use":"新潟西","zone":"","station":"住宅"}},{"type":"Feature","geometry":{"type":"Point","coordinates":[138.99508,37.87738]},"properties":{"price":58300,"use":"新潟西","zone":"","station":"住宅"}},{"type":"Feature","geometry":{"type":"Point","coordinates":[138.93014,37.86038]},"properties":{"price":39400,"use":"新潟西","zone":"","station":"住宅"}},{"type":"Feature","geometry":{"type":"Point","coordinates":[138.95728,37.86384]},"properties":{"price":59200,"use":"新潟西","zone":"","station":"住宅"}},{"type":"Feature","geometry":{"type":"Point","coordinates":[139.00045,37.89743]},"properties":{"price":124000,"use":"新潟西","zone":"","station":"住宅"}},{"type":"Feature","geometry":{"type":"Point","coordinates":[139.01057,37.84735]},"properties":{"price":46600,"use":"新潟西","zone":"","station":"住宅"}},{"type":"Feature","geometry":{"type":"Point","coordinates":[139.00224,37.88932]},"properties":{"price":96800,"use":"新潟西","zone":"","station":"住宅"}},{"type":"Feature","geometry":{"type":"Point","coordinates":[139.00843,37.88258]},"properties":{"price":65500,"use":"新潟西","zone":"","station":"住宅"}},{"type":"Feature","geometry":{"type":"Point","coordinates":[138.94129,37.83687]},"properties":{"price":10800,"use":"新潟西","zone":"","station":"住宅"}},{"type":"Feature","geometry":{"type":"Point","coordinates":[138.88426,37.82569]},"properties":{"price":9570,"use":"新潟西","zone":"","station":"住宅"}},{"type":"Feature","geometry":{"type":"Point","coordinates":[138.99491,37.85381]},"properties":{"price":13600,"use":"新潟西","zone":"","station":"住宅"}},{"type":"Feature","geometry":{"type":"Point","coordinates":[138.99132,37.89186]},"properties":{"price":76700,"use":"新潟西","zone":"","station":"銀行"}},{"type":"Feature","geometry":{"type":"Point","coordinates":[138.99632,37.88677]},"properties":{"price":90800,"use":"新潟西","zone":"","station":"空地"}},{"type":"Feature","geometry":{"type":"Point","coordinates":[138.8747,37.72021]},"properties":{"price":20400,"use":"新潟西蒲","zone":"","station":"住宅"}},{"type":"Feature","geometry":{"type":"Point","coordinates":[138.91134,37.79553]},"properties":{"price":25300,"use":"新潟西蒲","zone":"","station":"住宅"}},{"type":"Feature","geometry":{"type":"Point","coordinates":[138.90745,37.78656]},"properties":{"price":24500,"use":"新潟西蒲","zone":"","station":"住宅"}},{"type":"Feature","geometry":{"type":"Point","coordinates":[138.88561,37.76431]},"properties":{"price":28800,"use":"新潟西蒲","zone":"","station":"住宅"}},{"type":"Feature","geometry":{"type":"Point","coordinates":[138.88402,37.75197]},"properties":{"price":25300,"use":"新潟西蒲","zone":"","station":"住宅"}},{"type":"Feature","geometry":{"type":"Point","coordinates":[138.88265,37.72652]},"properties":{"price":24600,"use":"新潟西蒲","zone":"","station":"住宅"}},{"type":"Feature","geometry":{"type":"Point","coordinates":[138.88597,37.75868]},"properties":{"price":34300,"use":"新潟西蒲","zone":"","station":"店舗"}},{"type":"Feature","geometry":{"type":"Point","coordinates":[138.91717,37.79423]},"properties":{"price":22900,"use":"新潟西蒲","zone":"","station":"店舗"}},{"type":"Feature","geometry":{"type":"Point","coordinates":[138.83811,37.73707]},"properties":{"price":27200,"use":"新潟西蒲","zone":"","station":"旅館"}},{"type":"Feature","geometry":{"type":"Point","coordinates":[138.85856,37.44905]},"properties":{"price":69600,"use":"長岡","zone":"","station":"住宅"}},{"type":"Feature","geometry":{"type":"Point","coordinates":[138.81743,37.4383]},"properties":{"price":52900,"use":"長岡","zone":"","station":"住宅"}},{"type":"Feature","geometry":{"type":"Point","coordinates":[138.84855,37.4413]},"properties":{"price":72900,"use":"長岡","zone":"","station":"住宅"}},{"type":"Feature","geometry":{"type":"Point","coordinates":[138.84193,37.44194]},"properties":{"price":62100,"use":"長岡","zone":"","station":"住宅"}},{"type":"Feature","geometry":{"type":"Point","coordinates":[138.86003,37.43492]},"properties":{"price":57200,"use":"長岡","zone":"","station":"住宅"}},{"type":"Feature","geometry":{"type":"Point","coordinates":[138.84552,37.45835]},"properties":{"price":55800,"use":"長岡","zone":"","station":"住宅"}},{"type":"Feature","geometry":{"type":"Point","coordinates":[138.8437,37.41992]},"properties":{"price":42500,"use":"長岡","zone":"","station":"住宅"}},{"type":"Feature","geometry":{"type":"Point","coordinates":[138.87644,37.44186]},"properties":{"price":44500,"use":"長岡","zone":"","station":"住宅"}},{"type":"Feature","geometry":{"type":"Point","coordinates":[138.86399,37.45168]},"properties":{"price":59400,"use":"長岡","zone":"","station":"住宅"}},{"type":"Feature","geometry":{"type":"Point","coordinates":[138.82648,37.46591]},"properties":{"price":50600,"use":"長岡","zone":"","station":"住宅"}},{"type":"Feature","geometry":{"type":"Point","coordinates":[138.86894,37.46543]},"properties":{"price":54100,"use":"長岡","zone":"","station":"住宅"}},{"type":"Feature","geometry":{"type":"Point","coordinates":[138.79856,37.45113]},"properties":{"price":41000,"use":"長岡","zone":"","station":"住宅"}},{"type":"Feature","geometry":{"type":"Point","coordinates":[138.86803,37.4321]},"properties":{"price":36900,"use":"長岡","zone":"","station":"住宅"}},{"type":"Feature","geometry":{"type":"Point","coordinates":[138.86349,37.49815]},"properties":{"price":34200,"use":"長岡","zone":"","station":"住宅"}},{"type":"Feature","geometry":{"type":"Point","coordinates":[138.82449,37.44632]},"properties":{"price":64100,"use":"長岡","zone":"","station":"住宅"}},{"type":"Feature","geometry":{"type":"Point","coordinates":[138.83588,37.47614]},"properties":{"price":46500,"use":"長岡","zone":"","station":"住宅"}},{"type":"Feature","geometry":{"type":"Point","coordinates":[138.82841,37.42334]},"properties":{"price":48400,"use":"長岡","zone":"","station":"住宅"}},{"type":"Feature","geometry":{"type":"Point","coordinates":[138.78109,37.45424]},"properties":{"price":28000,"use":"長岡","zone":"","station":"住宅"}},{"type":"Feature","geometry":{"type":"Point","coordinates":[138.83864,37.4487]},"properties":{"price":63300,"use":"長岡","zone":"","station":"住宅"}},{"type":"Feature","geometry":{"type":"Point","coordinates":[138.86081,37.44315]},"properties":{"price":68200,"use":"長岡","zone":"","station":"住宅"}},{"type":"Feature","geometry":{"type":"Point","coordinates":[138.79968,37.44651]},"properties":{"price":47800,"use":"長岡","zone":"","station":"住宅"}},{"type":"Feature","geometry":{"type":"Point","coordinates":[138.84053,37.43352]},"properties":{"price":56500,"use":"長岡","zone":"","station":"住宅"}},{"type":"Feature","geometry":{"type":"Point","coordinates":[138.85197,37.43335]},"properties":{"price":57300,"use":"長岡","zone":"","station":"住宅"}},{"type":"Feature","geometry":{"type":"Point","coordinates":[138.80523,37.53556]},"properties":{"price":14600,"use":"長岡","zone":"","station":"住宅"}},{"type":"Feature","geometry":{"type":"Point","coordinates":[138.86155,37.45999]},"properties":{"price":57400,"use":"長岡","zone":"","station":"住宅"}},{"type":"Feature","geometry":{"type":"Point","coordinates":[138.84529,37.43101]},"properties":{"price":44400,"use":"長岡","zone":"","station":"住宅"}},{"type":"Feature","geometry":{"type":"Point","coordinates":[138.82024,37.44952]},"properties":{"price":57300,"use":"長岡","zone":"","station":"住宅"}},{"type":"Feature","geometry":{"type":"Point","coordinates":[138.99469,37.47954]},"properties":{"price":19300,"use":"長岡","zone":"","station":"空地"}},{"type":"Feature","geometry":{"type":"Point","coordinates":[138.858,37.46215]},"properties":{"price":57400,"use":"長岡","zone":"","station":"住宅"}},{"type":"Feature","geometry":{"type":"Point","coordinates":[138.87672,37.54161]},"properties":{"price":24800,"use":"長岡","zone":"","station":"住宅"}},{"type":"Feature","geometry":{"type":"Point","coordinates":[138.99331,37.47017]},"properties":{"price":10500,"use":"長岡","zone":"","station":"住宅"}},{"type":"Feature","geometry":{"type":"Point","coordinates":[138.81172,37.54437]},"properties":{"price":16700,"use":"長岡","zone":"","station":"住宅"}},{"type":"Feature","geometry":{"type":"Point","coordinates":[138.78409,37.3934]},"properties":{"price":29600,"use":"長岡","zone":"","station":"住宅"}},{"type":"Feature","geometry":{"type":"Point","coordinates":[138.80185,37.39425]},"properties":{"price":24800,"use":"長岡","zone":"","station":"住宅"}},{"type":"Feature","geometry":{"type":"Point","coordinates":[138.77901,37.38582]},"properties":{"price":9500,"use":"長岡","zone":"","station":"住宅"}},{"type":"Feature","geometry":{"type":"Point","coordinates":[138.79471,37.51918]},"properties":{"price":6750,"use":"長岡","zone":"","station":"住宅"}},{"type":"Feature","geometry":{"type":"Point","coordinates":[138.85623,37.28702]},"properties":{"price":3900,"use":"長岡","zone":"","station":"住宅"}},{"type":"Feature","geometry":{"type":"Point","coordinates":[138.87058,37.42626]},"properties":{"price":18300,"use":"長岡","zone":"","station":"住宅"}},{"type":"Feature","geometry":{"type":"Point","coordinates":[138.74551,37.45099]},"properties":{"price":11200,"use":"長岡","zone":"","station":"住宅"}},{"type":"Feature","geometry":{"type":"Point","coordinates":[138.87955,37.45351]},"properties":{"price":34600,"use":"長岡","zone":"","station":"住宅"}},{"type":"Feature","geometry":{"type":"Point","coordinates":[138.83875,37.40477]},"properties":{"price":21100,"use":"長岡","zone":"","station":"住宅"}},{"type":"Feature","geometry":{"type":"Point","coordinates":[138.79768,37.43262]},"properties":{"price":14800,"use":"長岡","zone":"","station":"住宅"}},{"type":"Feature","geometry":{"type":"Point","coordinates":[138.84581,37.49054]},"properties":{"price":10700,"use":"長岡","zone":"","station":"住宅"}},{"type":"Feature","geometry":{"type":"Point","coordinates":[138.88662,37.47286]},"properties":{"price":17000,"use":"長岡","zone":"","station":"住宅"}},{"type":"Feature","geometry":{"type":"Point","coordinates":[138.83294,37.57734]},"properties":{"price":7670,"use":"長岡","zone":"","station":"住宅"}},{"type":"Feature","geometry":{"type":"Point","coordinates":[138.78302,37.4972]},"properties":{"price":15100,"use":"長岡","zone":"","station":"住宅"}},{"type":"Feature","geometry":{"type":"Point","coordinates":[138.85472,37.26492]},"properties":{"price":6090,"use":"長岡","zone":"","station":"住宅"}},{"type":"Feature","geometry":{"type":"Point","coordinates":[138.85197,37.44693]},"properties":{"price":228000,"use":"長岡","zone":"","station":"店舗兼事務所"}},{"type":"Feature","geometry":{"type":"Point","coordinates":[138.85413,37.45699]},"properties":{"price":67000,"use":"長岡","zone":"","station":"事務所"}},{"type":"Feature","geometry":{"type":"Point","coordinates":[138.85476,37.44552]},"properties":{"price":101000,"use":"長岡","zone":"","station":"店舗兼住宅"}},{"type":"Feature","geometry":{"type":"Point","coordinates":[138.85019,37.44559]},"properties":{"price":89200,"use":"長岡","zone":"","station":"店舗兼住宅"}},{"type":"Feature","geometry":{"type":"Point","coordinates":[138.8414,37.4214]},"properties":{"price":50400,"use":"長岡","zone":"","station":"店舗兼住宅"}},{"type":"Feature","geometry":{"type":"Point","coordinates":[138.99487,37.47488]},"properties":{"price":25400,"use":"長岡","zone":"","station":"店舗"}},{"type":"Feature","geometry":{"type":"Point","coordinates":[138.8568,37.45062]},"properties":{"price":82400,"use":"長岡","zone":"","station":"店舗兼住宅"}},{"type":"Feature","geometry":{"type":"Point","coordinates":[138.84717,37.44765]},"properties":{"price":100000,"use":"長岡","zone":"","station":"店舗兼事務所"}},{"type":"Feature","geometry":{"type":"Point","coordinates":[138.84721,37.44279]},"properties":{"price":80900,"use":"長岡","zone":"","station":"事務所"}},{"type":"Feature","geometry":{"type":"Point","coordinates":[138.85702,37.44348]},"properties":{"price":77100,"use":"長岡","zone":"","station":"事務所"}},{"type":"Feature","geometry":{"type":"Point","coordinates":[138.83737,37.42412]},"properties":{"price":52500,"use":"長岡","zone":"","station":"工場、店舗兼事務所"}},{"type":"Feature","geometry":{"type":"Point","coordinates":[138.86142,37.27104]},"properties":{"price":20800,"use":"長岡","zone":"","station":"店舗兼住宅"}},{"type":"Feature","geometry":{"type":"Point","coordinates":[138.84358,37.44537]},"properties":{"price":69600,"use":"長岡","zone":"","station":"店舗兼住宅"}},{"type":"Feature","geometry":{"type":"Point","coordinates":[138.85725,37.48104]},"properties":{"price":34900,"use":"長岡","zone":"","station":"事務所兼倉庫"}},{"type":"Feature","geometry":{"type":"Point","coordinates":[138.82463,37.45706]},"properties":{"price":75400,"use":"長岡","zone":"","station":"店舗、事務所兼倉庫"}},{"type":"Feature","geometry":{"type":"Point","coordinates":[138.86239,37.47153]},"properties":{"price":16800,"use":"長岡","zone":"","station":"工場"}},{"type":"Feature","geometry":{"type":"Point","coordinates":[138.82846,37.4727]},"properties":{"price":23500,"use":"長岡","zone":"","station":"工場"}},{"type":"Feature","geometry":{"type":"Point","coordinates":[138.86121,37.49574]},"properties":{"price":23600,"use":"長岡","zone":"","station":"事務所兼倉庫"}},{"type":"Feature","geometry":{"type":"Point","coordinates":[138.7914,37.44979]},"properties":{"price":30800,"use":"長岡","zone":"","station":"倉庫兼事務所"}},{"type":"Feature","geometry":{"type":"Point","coordinates":[138.97019,37.63774]},"properties":{"price":44800,"use":"三条","zone":"","station":"住宅"}},{"type":"Feature","geometry":{"type":"Point","coordinates":[138.96189,37.62566]},"properties":{"price":37800,"use":"三条","zone":"","station":"住宅"}},{"type":"Feature","geometry":{"type":"Point","coordinates":[138.95366,37.64481]},"properties":{"price":44500,"use":"三条","zone":"","station":"住宅"}},{"type":"Feature","geometry":{"type":"Point","coordinates":[138.97327,37.62691]},"properties":{"price":29100,"use":"三条","zone":"","station":"住宅"}},{"type":"Feature","geometry":{"type":"Point","coordinates":[138.94296,37.62544]},"properties":{"price":33900,"use":"三条","zone":"","station":"住宅"}},{"type":"Feature","geometry":{"type":"Point","coordinates":[138.92244,37.57169]},"properties":{"price":13000,"use":"三条","zone":"","station":"住宅"}},{"type":"Feature","geometry":{"type":"Point","coordinates":[138.92121,37.62321]},"properties":{"price":11600,"use":"三条","zone":"","station":"住宅"}},{"type":"Feature","geometry":{"type":"Point","coordinates":[138.95619,37.62907]},"properties":{"price":49400,"use":"三条","zone":"","station":"店舗兼住宅"}},{"type":"Feature","geometry":{"type":"Point","coordinates":[138.95563,37.63208]},"properties":{"price":45200,"use":"三条","zone":"","station":"店舗"}},{"type":"Feature","geometry":{"type":"Point","coordinates":[138.56026,37.37285]},"properties":{"price":42700,"use":"柏崎","zone":"","station":"住宅"}},{"type":"Feature","geometry":{"type":"Point","coordinates":[138.57644,37.37431]},"properties":{"price":34400,"use":"柏崎","zone":"","station":"住宅"}},{"type":"Feature","geometry":{"type":"Point","coordinates":[138.53838,37.36358]},"properties":{"price":19600,"use":"柏崎","zone":"","station":"住宅"}},{"type":"Feature","geometry":{"type":"Point","coordinates":[138.56784,37.38091]},"properties":{"price":28700,"use":"柏崎","zone":"","station":"住宅"}},{"type":"Feature","geometry":{"type":"Point","coordinates":[138.53032,37.35692]},"properties":{"price":19600,"use":"柏崎","zone":"","station":"住宅"}},{"type":"Feature","geometry":{"type":"Point","coordinates":[138.55402,37.3675]},"properties":{"price":55100,"use":"柏崎","zone":"","station":"店舗兼住宅"}},{"type":"Feature","geometry":{"type":"Point","coordinates":[138.57683,37.36986]},"properties":{"price":42900,"use":"柏崎","zone":"","station":"店舗兼住宅"}},{"type":"Feature","geometry":{"type":"Point","coordinates":[139.31968,37.95212]},"properties":{"price":35200,"use":"新発田","zone":"","station":"住宅"}},{"type":"Feature","geometry":{"type":"Point","coordinates":[139.33281,37.95249]},"properties":{"price":31500,"use":"新発田","zone":"","station":"住宅"}},{"type":"Feature","geometry":{"type":"Point","coordinates":[139.31129,37.8818]},"properties":{"price":16200,"use":"新発田","zone":"","station":"住宅"}},{"type":"Feature","geometry":{"type":"Point","coordinates":[139.33211,37.95955]},"properties":{"price":41100,"use":"新発田","zone":"","station":"住宅"}},{"type":"Feature","geometry":{"type":"Point","coordinates":[139.3607,37.91957]},"properties":{"price":18200,"use":"新発田","zone":"","station":"住宅"}},{"type":"Feature","geometry":{"type":"Point","coordinates":[139.32435,38.01693]},"properties":{"price":12400,"use":"新発田","zone":"","station":"住宅"}},{"type":"Feature","geometry":{"type":"Point","coordinates":[139.26801,37.89164]},"properties":{"price":12400,"use":"新発田","zone":"","station":"住宅"}},{"type":"Feature","geometry":{"type":"Point","coordinates":[139.34827,37.93191]},"properties":{"price":25700,"use":"新発田","zone":"","station":"住宅"}},{"type":"Feature","geometry":{"type":"Point","coordinates":[139.31414,37.94572]},"properties":{"price":40600,"use":"新発田","zone":"","station":"住宅"}},{"type":"Feature","geometry":{"type":"Point","coordinates":[139.30993,37.95786]},"properties":{"price":39100,"use":"新発田","zone":"","station":"住宅"}},{"type":"Feature","geometry":{"type":"Point","coordinates":[139.28692,37.95004]},"properties":{"price":12400,"use":"新発田","zone":"","station":"住宅"}},{"type":"Feature","geometry":{"type":"Point","coordinates":[139.3187,37.96527]},"properties":{"price":22700,"use":"新発田","zone":"","station":"住宅"}},{"type":"Feature","geometry":{"type":"Point","coordinates":[139.3032,37.92172]},"properties":{"price":6800,"use":"新発田","zone":"","station":"住宅"}},{"type":"Feature","geometry":{"type":"Point","coordinates":[139.32377,37.95996]},"properties":{"price":35700,"use":"新発田","zone":"","station":"住宅"}},{"type":"Feature","geometry":{"type":"Point","coordinates":[139.32787,37.9473]},"properties":{"price":47600,"use":"新発田","zone":"","station":"店舗"}},{"type":"Feature","geometry":{"type":"Point","coordinates":[139.30915,37.88051]},"properties":{"price":31300,"use":"新発田","zone":"","station":"店舗兼住宅"}},{"type":"Feature","geometry":{"type":"Point","coordinates":[139.32959,37.94394]},"properties":{"price":32100,"use":"新発田","zone":"","station":"店舗兼住宅"}},{"type":"Feature","geometry":{"type":"Point","coordinates":[139.34171,37.94844]},"properties":{"price":34800,"use":"新発田","zone":"","station":"店舗兼住宅"}},{"type":"Feature","geometry":{"type":"Point","coordinates":[139.24543,37.94706]},"properties":{"price":12500,"use":"新発田","zone":"","station":"工場"}},{"type":"Feature","geometry":{"type":"Point","coordinates":[138.81045,37.30989]},"properties":{"price":25800,"use":"小千谷","zone":"","station":"住宅"}},{"type":"Feature","geometry":{"type":"Point","coordinates":[138.7866,37.31079]},"properties":{"price":34400,"use":"小千谷","zone":"","station":"住宅"}},{"type":"Feature","geometry":{"type":"Point","coordinates":[138.79791,37.30965]},"properties":{"price":41800,"use":"小千谷","zone":"","station":"店舗兼住宅"}},{"type":"Feature","geometry":{"type":"Point","coordinates":[139.03969,37.66054]},"properties":{"price":31700,"use":"加茂","zone":"","station":"住宅"}},{"type":"Feature","geometry":{"type":"Point","coordinates":[139.05723,37.66313]},"properties":{"price":23700,"use":"加茂","zone":"","station":"住宅"}},{"type":"Feature","geometry":{"type":"Point","coordinates":[139.03397,37.65268]},"properties":{"price":24100,"use":"加茂","zone":"","station":"住宅"}},{"type":"Feature","geometry":{"type":"Point","coordinates":[139.04268,37.66359]},"properties":{"price":42300,"use":"加茂","zone":"","station":"店舗兼住宅"}},{"type":"Feature","geometry":{"type":"Point","coordinates":[139.05224,37.65916]},"properties":{"price":39300,"use":"加茂","zone":"","station":"店舗"}},{"type":"Feature","geometry":{"type":"Point","coordinates":[138.76037,37.13505]},"properties":{"price":26100,"use":"十日町","zone":"","station":"住宅"}},{"type":"Feature","geometry":{"type":"Point","coordinates":[138.76663,37.14593]},"properties":{"price":20400,"use":"十日町","zone":"","station":"住宅"}},{"type":"Feature","geometry":{"type":"Point","coordinates":[138.75344,37.12691]},"properties":{"price":34500,"use":"十日町","zone":"","station":"住宅"}},{"type":"Feature","geometry":{"type":"Point","coordinates":[138.74874,37.18056]},"properties":{"price":11500,"use":"十日町","zone":"","station":"住宅"}},{"type":"Feature","geometry":{"type":"Point","coordinates":[138.76077,37.1334]},"properties":{"price":42000,"use":"十日町","zone":"","station":"店舗兼住宅"}},{"type":"Feature","geometry":{"type":"Point","coordinates":[138.75954,37.12786]},"properties":{"price":30400,"use":"十日町","zone":"","station":"店舗兼住宅"}},{"type":"Feature","geometry":{"type":"Point","coordinates":[138.73842,37.16205]},"properties":{"price":20700,"use":"十日町","zone":"","station":"店舗兼住宅"}},{"type":"Feature","geometry":{"type":"Point","coordinates":[138.92599,37.5212]},"properties":{"price":20600,"use":"見附","zone":"","station":"住宅"}},{"type":"Feature","geometry":{"type":"Point","coordinates":[138.91146,37.5328]},"properties":{"price":35200,"use":"見附","zone":"","station":"住宅"}},{"type":"Feature","geometry":{"type":"Point","coordinates":[138.8864,37.5414]},"properties":{"price":34800,"use":"見附","zone":"","station":"住宅"}},{"type":"Feature","geometry":{"type":"Point","coordinates":[138.92681,37.52963]},"properties":{"price":25000,"use":"見附","zone":"","station":"住宅"}},{"type":"Feature","geometry":{"type":"Point","coordinates":[138.92822,37.49362]},"properties":{"price":9000,"use":"見附","zone":"","station":"住宅"}},{"type":"Feature","geometry":{"type":"Point","coordinates":[138.92312,37.52687]},"properties":{"price":42200,"use":"見附","zone":"","station":"店舗兼住宅"}},{"type":"Feature","geometry":{"type":"Point","coordinates":[138.90663,37.53449]},"properties":{"price":34800,"use":"見附","zone":"","station":"事務所兼作業所"}},{"type":"Feature","geometry":{"type":"Point","coordinates":[138.90681,37.53923]},"properties":{"price":38400,"use":"見附","zone":"","station":"事務所"}},{"type":"Feature","geometry":{"type":"Point","coordinates":[138.89604,37.53673]},"properties":{"price":17000,"use":"見附","zone":"","station":"倉庫"}},{"type":"Feature","geometry":{"type":"Point","coordinates":[139.48597,38.22658]},"properties":{"price":27000,"use":"村上","zone":"","station":"住宅"}},{"type":"Feature","geometry":{"type":"Point","coordinates":[139.46869,38.21679]},"properties":{"price":32300,"use":"村上","zone":"","station":"住宅"}},{"type":"Feature","geometry":{"type":"Point","coordinates":[139.458,38.22893]},"properties":{"price":22100,"use":"村上","zone":"","station":"住宅"}},{"type":"Feature","geometry":{"type":"Point","coordinates":[139.44662,38.11583]},"properties":{"price":19300,"use":"村上","zone":"","station":"住宅"}},{"type":"Feature","geometry":{"type":"Point","coordinates":[139.44199,38.18011]},"properties":{"price":10000,"use":"村上","zone":"","station":"住宅"}},{"type":"Feature","geometry":{"type":"Point","coordinates":[139.4578,38.18401]},"properties":{"price":13900,"use":"村上","zone":"","station":"住宅"}},{"type":"Feature","geometry":{"type":"Point","coordinates":[139.43887,38.10974]},"properties":{"price":15500,"use":"村上","zone":"","station":"住宅"}},{"type":"Feature","geometry":{"type":"Point","coordinates":[139.46469,38.22008]},"properties":{"price":41800,"use":"村上","zone":"","station":"ホテル兼店舗"}},{"type":"Feature","geometry":{"type":"Point","coordinates":[139.4407,38.21403]},"properties":{"price":29100,"use":"村上","zone":"","station":"店舗兼住宅"}},{"type":"Feature","geometry":{"type":"Point","coordinates":[139.44863,38.11997]},"properties":{"price":29700,"use":"村上","zone":"","station":"店舗兼住宅"}},{"type":"Feature","geometry":{"type":"Point","coordinates":[139.4598,38.17992]},"properties":{"price":12200,"use":"村上","zone":"","station":"事務所"}},{"type":"Feature","geometry":{"type":"Point","coordinates":[138.92389,37.65677]},"properties":{"price":35600,"use":"燕","zone":"","station":"住宅"}},{"type":"Feature","geometry":{"type":"Point","coordinates":[138.93395,37.67145]},"properties":{"price":27400,"use":"燕","zone":"","station":"住宅"}},{"type":"Feature","geometry":{"type":"Point","coordinates":[138.91508,37.66828]},"properties":{"price":34200,"use":"燕","zone":"","station":"住宅"}},{"type":"Feature","geometry":{"type":"Point","coordinates":[138.84671,37.62058]},"properties":{"price":22700,"use":"燕","zone":"","station":"住宅"}},{"type":"Feature","geometry":{"type":"Point","coordinates":[138.8342,37.64523]},"properties":{"price":13900,"use":"燕","zone":"","station":"住宅"}},{"type":"Feature","geometry":{"type":"Point","coordinates":[138.88122,37.691]},"properties":{"price":40700,"use":"燕","zone":"","station":"住宅"}},{"type":"Feature","geometry":{"type":"Point","coordinates":[138.88604,37.68624]},"properties":{"price":34500,"use":"燕","zone":"","station":"住宅"}},{"type":"Feature","geometry":{"type":"Point","coordinates":[138.92604,37.66414]},"properties":{"price":32800,"use":"燕","zone":"","station":"店舗兼住宅"}},{"type":"Feature","geometry":{"type":"Point","coordinates":[138.93668,37.64909]},"properties":{"price":108000,"use":"燕","zone":"","station":"ホテル"}},{"type":"Feature","geometry":{"type":"Point","coordinates":[138.91547,37.67001]},"properties":{"price":48500,"use":"燕","zone":"","station":"店舗"}},{"type":"Feature","geometry":{"type":"Point","coordinates":[138.84193,37.6279]},"properties":{"price":28100,"use":"燕","zone":"","station":"店舗"}},{"type":"Feature","geometry":{"type":"Point","coordinates":[138.87776,37.6877]},"properties":{"price":34700,"use":"燕","zone":"","station":"店舗兼住宅"}},{"type":"Feature","geometry":{"type":"Point","coordinates":[137.85924,37.0404]},"properties":{"price":43400,"use":"糸魚川","zone":"","station":"住宅"}},{"type":"Feature","geometry":{"type":"Point","coordinates":[137.87457,37.04029]},"properties":{"price":23800,"use":"糸魚川","zone":"","station":"住宅"}},{"type":"Feature","geometry":{"type":"Point","coordinates":[137.88987,37.04705]},"properties":{"price":28000,"use":"糸魚川","zone":"","station":"住宅"}},{"type":"Feature","geometry":{"type":"Point","coordinates":[137.98815,37.10115]},"properties":{"price":23700,"use":"糸魚川","zone":"","station":"住宅"}},{"type":"Feature","geometry":{"type":"Point","coordinates":[137.98873,37.09331]},"properties":{"price":22700,"use":"糸魚川","zone":"","station":"住宅"}},{"type":"Feature","geometry":{"type":"Point","coordinates":[137.81436,37.02856]},"properties":{"price":22300,"use":"糸魚川","zone":"","station":"住宅"}},{"type":"Feature","geometry":{"type":"Point","coordinates":[137.83006,37.03272]},"properties":{"price":27800,"use":"糸魚川","zone":"","station":"住宅"}},{"type":"Feature","geometry":{"type":"Point","coordinates":[137.86057,37.04459]},"properties":{"price":52200,"use":"糸魚川","zone":"","station":"店舗兼住宅"}},{"type":"Feature","geometry":{"type":"Point","coordinates":[137.82572,37.03096]},"properties":{"price":30800,"use":"糸魚川","zone":"","station":"事務所"}},{"type":"Feature","geometry":{"type":"Point","coordinates":[137.98862,37.09729]},"properties":{"price":34900,"use":"糸魚川","zone":"","station":"店舗"}},{"type":"Feature","geometry":{"type":"Point","coordinates":[137.86791,37.04204]},"properties":{"price":59300,"use":"糸魚川","zone":"","station":"店舗"}},{"type":"Feature","geometry":{"type":"Point","coordinates":[138.26314,37.02995]},"properties":{"price":21400,"use":"妙高","zone":"","station":"住宅"}},{"type":"Feature","geometry":{"type":"Point","coordinates":[138.2471,37.01831]},"properties":{"price":21900,"use":"妙高","zone":"","station":"住宅"}},{"type":"Feature","geometry":{"type":"Point","coordinates":[138.26284,37.0562]},"properties":{"price":23300,"use":"妙高","zone":"","station":"住宅"}},{"type":"Feature","geometry":{"type":"Point","coordinates":[138.19989,36.86212]},"properties":{"price":9070,"use":"妙高","zone":"","station":"住宅"}},{"type":"Feature","geometry":{"type":"Point","coordinates":[138.2153,36.93423]},"properties":{"price":7910,"use":"妙高","zone":"","station":"住宅"}},{"type":"Feature","geometry":{"type":"Point","coordinates":[138.25376,37.02735]},"properties":{"price":38300,"use":"妙高","zone":"","station":"事務所兼住宅"}},{"type":"Feature","geometry":{"type":"Point","coordinates":[138.22533,36.93358]},"properties":{"price":12300,"use":"妙高","zone":"","station":"店舗兼住宅"}},{"type":"Feature","geometry":{"type":"Point","coordinates":[138.17764,36.89378]},"properties":{"price":17600,"use":"妙高","zone":"","station":"店舗"}},{"type":"Feature","geometry":{"type":"Point","coordinates":[138.26002,37.05626]},"properties":{"price":29700,"use":"妙高","zone":"","station":"店舗"}},{"type":"Feature","geometry":{"type":"Point","coordinates":[139.17309,37.73952]},"properties":{"price":24800,"use":"五泉","zone":"","station":"住宅"}},{"type":"Feature","geometry":{"type":"Point","coordinates":[139.16968,37.69034]},"properties":{"price":15700,"use":"五泉","zone":"","station":"住宅"}},{"type":"Feature","geometry":{"type":"Point","coordinates":[139.18009,37.73062]},"properties":{"price":22000,"use":"五泉","zone":"","station":"住宅"}},{"type":"Feature","geometry":{"type":"Point","coordinates":[139.18611,37.69662]},"properties":{"price":18100,"use":"五泉","zone":"","station":"住宅"}},{"type":"Feature","geometry":{"type":"Point","coordinates":[139.17653,37.73869]},"properties":{"price":27300,"use":"五泉","zone":"","station":"店舗兼住宅"}},{"type":"Feature","geometry":{"type":"Point","coordinates":[139.17826,37.69386]},"properties":{"price":24700,"use":"五泉","zone":"","station":"店舗"}},{"type":"Feature","geometry":{"type":"Point","coordinates":[138.24895,37.11216]},"properties":{"price":50500,"use":"上越","zone":"","station":"住宅"}},{"type":"Feature","geometry":{"type":"Point","coordinates":[138.26023,37.17464]},"properties":{"price":33100,"use":"上越","zone":"","station":"住宅"}},{"type":"Feature","geometry":{"type":"Point","coordinates":[138.25112,37.08657]},"properties":{"price":30200,"use":"上越","zone":"","station":"住宅"}},{"type":"Feature","geometry":{"type":"Point","coordinates":[138.26832,37.11446]},"properties":{"price":31000,"use":"上越","zone":"","station":"住宅"}},{"type":"Feature","geometry":{"type":"Point","coordinates":[138.22453,36.98216]},"properties":{"price":8720,"use":"上越","zone":"","station":"住宅"}},{"type":"Feature","geometry":{"type":"Point","coordinates":[138.24582,37.12653]},"properties":{"price":26300,"use":"上越","zone":"","station":"住宅"}},{"type":"Feature","geometry":{"type":"Point","coordinates":[138.2285,37.13842]},"properties":{"price":29100,"use":"上越","zone":"","station":"住宅"}},{"type":"Feature","geometry":{"type":"Point","coordinates":[138.22945,37.15348]},"properties":{"price":43500,"use":"上越","zone":"","station":"住宅"}},{"type":"Feature","geometry":{"type":"Point","coordinates":[138.23192,36.97436]},"properties":{"price":5280,"use":"上越","zone":"","station":"住宅"}},{"type":"Feature","geometry":{"type":"Point","coordinates":[138.24059,37.17753]},"properties":{"price":21800,"use":"上越","zone":"","station":"住宅"}},{"type":"Feature","geometry":{"type":"Point","coordinates":[138.22658,37.16794]},"properties":{"price":22000,"use":"上越","zone":"","station":"住宅"}},{"type":"Feature","geometry":{"type":"Point","coordinates":[138.25333,37.10362]},"properties":{"price":34600,"use":"上越","zone":"","station":"住宅"}},{"type":"Feature","geometry":{"type":"Point","coordinates":[138.28062,37.12123]},"properties":{"price":30000,"use":"上越","zone":"","station":"住宅"}},{"type":"Feature","geometry":{"type":"Point","coordinates":[138.24034,37.15175]},"properties":{"price":31600,"use":"上越","zone":"","station":"住宅"}},{"type":"Feature","geometry":{"type":"Point","coordinates":[138.23916,37.11778]},"properties":{"price":29200,"use":"上越","zone":"","station":"住宅"}},{"type":"Feature","geometry":{"type":"Point","coordinates":[138.2277,37.12086]},"properties":{"price":18200,"use":"上越","zone":"","station":"住宅"}},{"type":"Feature","geometry":{"type":"Point","coordinates":[138.26129,37.15986]},"properties":{"price":39900,"use":"上越","zone":"","station":"住宅"}},{"type":"Feature","geometry":{"type":"Point","coordinates":[138.23337,37.09487]},"properties":{"price":30500,"use":"上越","zone":"","station":"住宅"}},{"type":"Feature","geometry":{"type":"Point","coordinates":[138.2521,37.16057]},"properties":{"price":44000,"use":"上越","zone":"","station":"住宅"}},{"type":"Feature","geometry":{"type":"Point","coordinates":[138.24013,37.167]},"properties":{"price":46900,"use":"上越","zone":"","station":"住宅"}},{"type":"Feature","geometry":{"type":"Point","coordinates":[138.23986,37.08246]},"properties":{"price":31000,"use":"上越","zone":"","station":"住宅"}},{"type":"Feature","geometry":{"type":"Point","coordinates":[138.28161,37.18186]},"properties":{"price":25000,"use":"上越","zone":"","station":"住宅"}},{"type":"Feature","geometry":{"type":"Point","coordinates":[138.22035,37.14324]},"properties":{"price":25900,"use":"上越","zone":"","station":"住宅"}},{"type":"Feature","geometry":{"type":"Point","coordinates":[138.39326,37.28127]},"properties":{"price":19300,"use":"上越","zone":"","station":"住宅"}},{"type":"Feature","geometry":{"type":"Point","coordinates":[138.37525,37.26521]},"properties":{"price":15600,"use":"上越","zone":"","station":"住宅"}},{"type":"Feature","geometry":{"type":"Point","coordinates":[138.34213,37.23197]},"properties":{"price":17400,"use":"上越","zone":"","station":"住宅"}},{"type":"Feature","geometry":{"type":"Point","coordinates":[138.32187,37.22429]},"properties":{"price":19100,"use":"上越","zone":"","station":"住宅"}},{"type":"Feature","geometry":{"type":"Point","coordinates":[138.2516,37.18068]},"properties":{"price":22500,"use":"上越","zone":"","station":"住宅"}},{"type":"Feature","geometry":{"type":"Point","coordinates":[138.23331,37.16203]},"properties":{"price":35200,"use":"上越","zone":"","station":"住宅"}},{"type":"Feature","geometry":{"type":"Point","coordinates":[138.145,37.16263]},"properties":{"price":8750,"use":"上越","zone":"","station":"住宅"}},{"type":"Feature","geometry":{"type":"Point","coordinates":[138.32029,37.16777]},"properties":{"price":7850,"use":"上越","zone":"","station":"住宅"}},{"type":"Feature","geometry":{"type":"Point","coordinates":[138.29383,37.10742]},"properties":{"price":9280,"use":"上越","zone":"","station":"住宅"}},{"type":"Feature","geometry":{"type":"Point","coordinates":[138.30039,37.17705]},"properties":{"price":8400,"use":"上越","zone":"","station":"住宅"}},{"type":"Feature","geometry":{"type":"Point","coordinates":[138.22947,37.08147]},"properties":{"price":12300,"use":"上越","zone":"","station":"住宅"}},{"type":"Feature","geometry":{"type":"Point","coordinates":[138.36453,37.21497]},"properties":{"price":4590,"use":"上越","zone":"","station":"住宅"}},{"type":"Feature","geometry":{"type":"Point","coordinates":[138.24527,37.11429]},"properties":{"price":66900,"use":"上越","zone":"","station":"校舎"}},{"type":"Feature","geometry":{"type":"Point","coordinates":[138.23754,37.16976]},"properties":{"price":44300,"use":"上越","zone":"","station":"事務所兼店舗"}},{"type":"Feature","geometry":{"type":"Point","coordinates":[138.26729,37.11945]},"properties":{"price":31900,"use":"上越","zone":"","station":"店舗"}},{"type":"Feature","geometry":{"type":"Point","coordinates":[138.25126,37.1155]},"properties":{"price":47200,"use":"上越","zone":"","station":"事務所"}},{"type":"Feature","geometry":{"type":"Point","coordinates":[138.24318,37.11142]},"properties":{"price":31000,"use":"上越","zone":"","station":"店舗兼住宅"}},{"type":"Feature","geometry":{"type":"Point","coordinates":[138.22828,37.15121]},"properties":{"price":51500,"use":"上越","zone":"","station":"店舗"}},{"type":"Feature","geometry":{"type":"Point","coordinates":[138.3895,37.27862]},"properties":{"price":23400,"use":"上越","zone":"","station":"店舗兼住宅"}},{"type":"Feature","geometry":{"type":"Point","coordinates":[138.32331,37.22272]},"properties":{"price":21300,"use":"上越","zone":"","station":"事務所兼車庫"}},{"type":"Feature","geometry":{"type":"Point","coordinates":[138.25647,37.15221]},"properties":{"price":70900,"use":"上越","zone":"","station":"店舗"}},{"type":"Feature","geometry":{"type":"Point","coordinates":[138.23336,36.9891]},"properties":{"price":9900,"use":"上越","zone":"","station":"店舗"}},{"type":"Feature","geometry":{"type":"Point","coordinates":[138.2477,37.08015]},"properties":{"price":55000,"use":"上越","zone":"","station":"事務所兼共同住宅"}},{"type":"Feature","geometry":{"type":"Point","coordinates":[138.24336,37.1368]},"properties":{"price":22000,"use":"上越","zone":"","station":"事務所"}},{"type":"Feature","geometry":{"type":"Point","coordinates":[138.25591,37.07902]},"properties":{"price":11800,"use":"上越","zone":"","station":"工場兼事務所"}},{"type":"Feature","geometry":{"type":"Point","coordinates":[138.28232,37.17394]},"properties":{"price":10000,"use":"上越","zone":"","station":"工場兼事務所"}},{"type":"Feature","geometry":{"type":"Point","coordinates":[139.23327,37.77686]},"properties":{"price":17700,"use":"阿賀野","zone":"","station":"住宅"}},{"type":"Feature","geometry":{"type":"Point","coordinates":[139.23697,37.76904]},"properties":{"price":17500,"use":"阿賀野","zone":"","station":"住宅"}},{"type":"Feature","geometry":{"type":"Point","coordinates":[139.20719,37.85276]},"properties":{"price":5790,"use":"阿賀野","zone":"","station":"住宅"}},{"type":"Feature","geometry":{"type":"Point","coordinates":[139.19014,37.84246]},"properties":{"price":27000,"use":"阿賀野","zone":"","station":"住宅"}},{"type":"Feature","geometry":{"type":"Point","coordinates":[139.22407,37.83669]},"properties":{"price":27800,"use":"阿賀野","zone":"","station":"住宅"}},{"type":"Feature","geometry":{"type":"Point","coordinates":[139.22951,37.82888]},"properties":{"price":25700,"use":"阿賀野","zone":"","station":"住宅"}},{"type":"Feature","geometry":{"type":"Point","coordinates":[139.2884,37.82671]},"properties":{"price":5000,"use":"阿賀野","zone":"","station":"別荘"}},{"type":"Feature","geometry":{"type":"Point","coordinates":[139.2333,37.77335]},"properties":{"price":21500,"use":"阿賀野","zone":"","station":"銀行"}},{"type":"Feature","geometry":{"type":"Point","coordinates":[139.22689,37.83968]},"properties":{"price":28200,"use":"阿賀野","zone":"","station":"店舗兼住宅"}},{"type":"Feature","geometry":{"type":"Point","coordinates":[138.43167,38.09107]},"properties":{"price":18600,"use":"佐渡","zone":"","station":"住宅"}},{"type":"Feature","geometry":{"type":"Point","coordinates":[138.43927,38.07668]},"properties":{"price":16200,"use":"佐渡","zone":"","station":"住宅"}},{"type":"Feature","geometry":{"type":"Point","coordinates":[138.23772,38.02515]},"properties":{"price":12500,"use":"佐渡","zone":"","station":"住宅"}},{"type":"Feature","geometry":{"type":"Point","coordinates":[138.34482,37.96667]},"properties":{"price":12000,"use":"佐渡","zone":"","station":"住宅"}},{"type":"Feature","geometry":{"type":"Point","coordinates":[138.32947,37.99677]},"properties":{"price":15100,"use":"佐渡","zone":"","station":"住宅"}},{"type":"Feature","geometry":{"type":"Point","coordinates":[138.31666,38.00165]},"properties":{"price":21000,"use":"佐渡","zone":"","station":"住宅"}},{"type":"Feature","geometry":{"type":"Point","coordinates":[138.3647,38.02618]},"properties":{"price":16700,"use":"佐渡","zone":"","station":"住宅"}},{"type":"Feature","geometry":{"type":"Point","coordinates":[138.38666,38.04395]},"properties":{"price":9300,"use":"佐渡","zone":"","station":"住宅"}},{"type":"Feature","geometry":{"type":"Point","coordinates":[138.43378,38.04386]},"properties":{"price":3650,"use":"佐渡","zone":"","station":"住宅"}},{"type":"Feature","geometry":{"type":"Point","coordinates":[138.38029,37.97874]},"properties":{"price":8790,"use":"佐渡","zone":"","station":"住宅"}},{"type":"Feature","geometry":{"type":"Point","coordinates":[138.40044,37.99443]},"properties":{"price":12500,"use":"佐渡","zone":"","station":"住宅"}},{"type":"Feature","geometry":{"type":"Point","coordinates":[138.34734,37.97765]},"properties":{"price":8700,"use":"佐渡","zone":"","station":"住宅"}},{"type":"Feature","geometry":{"type":"Point","coordinates":[138.43282,38.08673]},"properties":{"price":24600,"use":"佐渡","zone":"","station":"事務所"}},{"type":"Feature","geometry":{"type":"Point","coordinates":[138.3626,38.02006]},"properties":{"price":29400,"use":"佐渡","zone":"","station":"店舗"}},{"type":"Feature","geometry":{"type":"Point","coordinates":[138.32051,38.00169]},"properties":{"price":26300,"use":"佐渡","zone":"","station":"店舗"}},{"type":"Feature","geometry":{"type":"Point","coordinates":[138.92633,37.24182]},"properties":{"price":22900,"use":"魚沼","zone":"","station":"住宅"}},{"type":"Feature","geometry":{"type":"Point","coordinates":[139.00253,37.30475]},"properties":{"price":5480,"use":"魚沼","zone":"","station":"住宅"}},{"type":"Feature","geometry":{"type":"Point","coordinates":[138.96507,37.22971]},"properties":{"price":30500,"use":"魚沼","zone":"","station":"住宅"}},{"type":"Feature","geometry":{"type":"Point","coordinates":[138.9643,37.22398]},"properties":{"price":20400,"use":"魚沼","zone":"","station":"住宅"}},{"type":"Feature","geometry":{"type":"Point","coordinates":[138.96949,37.23296]},"properties":{"price":21400,"use":"魚沼","zone":"","station":"住宅"}},{"type":"Feature","geometry":{"type":"Point","coordinates":[139.03878,37.21375]},"properties":{"price":4670,"use":"魚沼","zone":"","station":"住宅"}},{"type":"Feature","geometry":{"type":"Point","coordinates":[138.98136,37.25571]},"properties":{"price":9340,"use":"魚沼","zone":"","station":"住宅"}},{"type":"Feature","geometry":{"type":"Point","coordinates":[139.06522,37.35662]},"properties":{"price":3300,"use":"魚沼","zone":"","station":"住宅"}},{"type":"Feature","geometry":{"type":"Point","coordinates":[139.01777,37.32191]},"properties":{"price":7510,"use":"魚沼","zone":"","station":"住宅"}},{"type":"Feature","geometry":{"type":"Point","coordinates":[138.92775,37.24026]},"properties":{"price":28700,"use":"魚沼","zone":"","station":"店舗兼住宅"}},{"type":"Feature","geometry":{"type":"Point","coordinates":[138.9597,37.23168]},"properties":{"price":34200,"use":"魚沼","zone":"","station":"店舗兼住宅"}},{"type":"Feature","geometry":{"type":"Point","coordinates":[139.01903,37.32156]},"properties":{"price":10800,"use":"魚沼","zone":"","station":"店舗兼住宅"}},{"type":"Feature","geometry":{"type":"Point","coordinates":[138.97433,37.25644]},"properties":{"price":12800,"use":"魚沼","zone":"","station":"事務所"}},{"type":"Feature","geometry":{"type":"Point","coordinates":[138.80642,36.98566]},"properties":{"price":16400,"use":"南魚沼","zone":"","station":"住宅"}},{"type":"Feature","geometry":{"type":"Point","coordinates":[138.88444,37.05974]},"properties":{"price":20100,"use":"南魚沼","zone":"","station":"住宅"}},{"type":"Feature","geometry":{"type":"Point","coordinates":[138.92121,37.16367]},"properties":{"price":22800,"use":"南魚沼","zone":"","station":"住宅"}},{"type":"Feature","geometry":{"type":"Point","coordinates":[138.91004,37.14861]},"properties":{"price":12200,"use":"南魚沼","zone":"","station":"住宅"}},{"type":"Feature","geometry":{"type":"Point","coordinates":[138.84733,37.03875]},"properties":{"price":23900,"use":"南魚沼","zone":"","station":"住宅"}},{"type":"Feature","geometry":{"type":"Point","coordinates":[138.87699,37.06606]},"properties":{"price":35900,"use":"南魚沼","zone":"","station":"店舗"}},{"type":"Feature","geometry":{"type":"Point","coordinates":[138.92399,37.1676]},"properties":{"price":30100,"use":"南魚沼","zone":"","station":"店舗"}},{"type":"Feature","geometry":{"type":"Point","coordinates":[138.85209,37.04057]},"properties":{"price":29900,"use":"南魚沼","zone":"","station":"店舗兼住宅"}},{"type":"Feature","geometry":{"type":"Point","coordinates":[139.40069,38.05968]},"properties":{"price":17000,"use":"胎内","zone":"","station":"住宅"}},{"type":"Feature","geometry":{"type":"Point","coordinates":[139.41222,38.06366]},"properties":{"price":18400,"use":"胎内","zone":"","station":"住宅"}},{"type":"Feature","geometry":{"type":"Point","coordinates":[139.40314,38.05085]},"properties":{"price":33400,"use":"胎内","zone":"","station":"店舗兼住宅"}},{"type":"Feature","geometry":{"type":"Point","coordinates":[139.25384,38.00293]},"properties":{"price":10200,"use":"聖籠","zone":"","station":"住宅"}},{"type":"Feature","geometry":{"type":"Point","coordinates":[139.27759,37.96803]},"properties":{"price":19600,"use":"聖籠","zone":"","station":"住宅"}},{"type":"Feature","geometry":{"type":"Point","coordinates":[138.83272,37.69856]},"properties":{"price":20300,"use":"弥彦","zone":"","station":"住宅"}},{"type":"Feature","geometry":{"type":"Point","coordinates":[138.86551,37.68382]},"properties":{"price":22200,"use":"弥彦","zone":"","station":"住宅"}},{"type":"Feature","geometry":{"type":"Point","coordinates":[138.82717,37.70385]},"properties":{"price":34600,"use":"弥彦","zone":"","station":"旅館"}},{"type":"Feature","geometry":{"type":"Point","coordinates":[139.05849,37.69134]},"properties":{"price":17700,"use":"田上","zone":"","station":"住宅"}},{"type":"Feature","geometry":{"type":"Point","coordinates":[139.06295,37.6843]},"properties":{"price":14500,"use":"田上","zone":"","station":"住宅"}},{"type":"Feature","geometry":{"type":"Point","coordinates":[139.4675,37.68392]},"properties":{"price":7400,"use":"阿賀","zone":"","station":"住宅"}},{"type":"Feature","geometry":{"type":"Point","coordinates":[139.45132,37.68302]},"properties":{"price":11500,"use":"阿賀","zone":"","station":"住宅"}},{"type":"Feature","geometry":{"type":"Point","coordinates":[139.45489,37.68218]},"properties":{"price":17700,"use":"阿賀","zone":"","station":"銀行"}},{"type":"Feature","geometry":{"type":"Point","coordinates":[138.82148,36.93366]},"properties":{"price":20600,"use":"新潟湯沢","zone":"","station":"住宅"}},{"type":"Feature","geometry":{"type":"Point","coordinates":[138.80511,36.94482]},"properties":{"price":21200,"use":"新潟湯沢","zone":"","station":"住宅"}},{"type":"Feature","geometry":{"type":"Point","coordinates":[138.8111,36.93634]},"properties":{"price":42500,"use":"新潟湯沢","zone":"","station":"店舗兼住宅"}}]}