{"type":"FeatureCollection","features":[{"type":"Feature","geometry":{"type":"Point","coordinates":[130.92718,33.98705]},"properties":{"price":57900,"use":"下関","zone":"","station":"住宅"}},{"type":"Feature","geometry":{"type":"Point","coordinates":[130.92644,33.97149]},"properties":{"price":40800,"use":"下関","zone":"","station":"住宅"}},{"type":"Feature","geometry":{"type":"Point","coordinates":[130.93762,33.96366]},"properties":{"price":49300,"use":"下関","zone":"","station":"住宅"}},{"type":"Feature","geometry":{"type":"Point","coordinates":[130.93778,33.97461]},"properties":{"price":49600,"use":"下関","zone":"","station":"住宅"}},{"type":"Feature","geometry":{"type":"Point","coordinates":[130.94542,33.95995]},"properties":{"price":55500,"use":"下関","zone":"","station":"事務所兼住宅"}},{"type":"Feature","geometry":{"type":"Point","coordinates":[130.97275,34.10386]},"properties":{"price":9450,"use":"下関","zone":"","station":"住宅"}},{"type":"Feature","geometry":{"type":"Point","coordinates":[130.89837,33.9396]},"properties":{"price":32400,"use":"下関","zone":"","station":"住宅"}},{"type":"Feature","geometry":{"type":"Point","coordinates":[130.93872,33.98036]},"properties":{"price":53000,"use":"下関","zone":"","station":"住宅"}},{"type":"Feature","geometry":{"type":"Point","coordinates":[130.92881,33.96632]},"properties":{"price":32800,"use":"下関","zone":"","station":"住宅"}},{"type":"Feature","geometry":{"type":"Point","coordinates":[130.99412,34.00994]},"properties":{"price":46100,"use":"下関","zone":"","station":"住宅"}},{"type":"Feature","geometry":{"type":"Point","coordinates":[130.91347,33.98865]},"properties":{"price":45500,"use":"下関","zone":"","station":"住宅"}},{"type":"Feature","geometry":{"type":"Point","coordinates":[130.91545,33.95768]},"properties":{"price":30900,"use":"下関","zone":"","station":"住宅"}},{"type":"Feature","geometry":{"type":"Point","coordinates":[130.92006,33.91815]},"properties":{"price":35000,"use":"下関","zone":"","station":"住宅"}},{"type":"Feature","geometry":{"type":"Point","coordinates":[130.94159,33.98716]},"properties":{"price":53700,"use":"下関","zone":"","station":"空地"}},{"type":"Feature","geometry":{"type":"Point","coordinates":[130.98546,34.00254]},"properties":{"price":54900,"use":"下関","zone":"","station":"住宅"}},{"type":"Feature","geometry":{"type":"Point","coordinates":[130.99794,34.01989]},"properties":{"price":42600,"use":"下関","zone":"","station":"住宅"}},{"type":"Feature","geometry":{"type":"Point","coordinates":[130.92482,33.96381]},"properties":{"price":24100,"use":"下関","zone":"","station":"住宅"}},{"type":"Feature","geometry":{"type":"Point","coordinates":[130.92877,33.99626]},"properties":{"price":55900,"use":"下関","zone":"","station":"住宅"}},{"type":"Feature","geometry":{"type":"Point","coordinates":[130.92144,33.9297]},"properties":{"price":32500,"use":"下関","zone":"","station":"住宅"}},{"type":"Feature","geometry":{"type":"Point","coordinates":[130.94917,34.0129]},"properties":{"price":71200,"use":"下関","zone":"","station":"住宅"}},{"type":"Feature","geometry":{"type":"Point","coordinates":[130.91213,34.02691]},"properties":{"price":32800,"use":"下関","zone":"","station":"住宅"}},{"type":"Feature","geometry":{"type":"Point","coordinates":[131.05611,34.05324]},"properties":{"price":16800,"use":"下関","zone":"","station":"住宅"}},{"type":"Feature","geometry":{"type":"Point","coordinates":[130.95881,34.00837]},"properties":{"price":74600,"use":"下関","zone":"","station":"住宅"}},{"type":"Feature","geometry":{"type":"Point","coordinates":[130.9249,33.92516]},"properties":{"price":20400,"use":"下関","zone":"","station":"住宅"}},{"type":"Feature","geometry":{"type":"Point","coordinates":[130.91382,34.07684]},"properties":{"price":8250,"use":"下関","zone":"","station":"住宅"}},{"type":"Feature","geometry":{"type":"Point","coordinates":[131.00854,34.04838]},"properties":{"price":28000,"use":"下関","zone":"","station":"住宅"}},{"type":"Feature","geometry":{"type":"Point","coordinates":[130.89765,34.07051]},"properties":{"price":21400,"use":"下関","zone":"","station":"住宅"}},{"type":"Feature","geometry":{"type":"Point","coordinates":[130.98989,33.99211]},"properties":{"price":54000,"use":"下関","zone":"","station":"住宅"}},{"type":"Feature","geometry":{"type":"Point","coordinates":[130.9213,34.16243]},"properties":{"price":17000,"use":"下関","zone":"","station":"住宅"}},{"type":"Feature","geometry":{"type":"Point","coordinates":[131.02546,34.05905]},"properties":{"price":31600,"use":"下関","zone":"","station":"住宅"}},{"type":"Feature","geometry":{"type":"Point","coordinates":[130.93139,34.0065]},"properties":{"price":90000,"use":"下関","zone":"","station":"住宅"}},{"type":"Feature","geometry":{"type":"Point","coordinates":[131.0128,34.03254]},"properties":{"price":41300,"use":"下関","zone":"","station":"住宅"}},{"type":"Feature","geometry":{"type":"Point","coordinates":[130.9087,33.93973]},"properties":{"price":24100,"use":"下関","zone":"","station":"住宅"}},{"type":"Feature","geometry":{"type":"Point","coordinates":[130.9873,33.9965]},"properties":{"price":77900,"use":"下関","zone":"","station":"住宅"}},{"type":"Feature","geometry":{"type":"Point","coordinates":[130.92001,34.03]},"properties":{"price":41500,"use":"下関","zone":"","station":"住宅"}},{"type":"Feature","geometry":{"type":"Point","coordinates":[130.91765,33.98432]},"properties":{"price":44700,"use":"下関","zone":"","station":"住宅"}},{"type":"Feature","geometry":{"type":"Point","coordinates":[131.03907,34.07427]},"properties":{"price":22400,"use":"下関","zone":"","station":"住宅"}},{"type":"Feature","geometry":{"type":"Point","coordinates":[131.06956,34.0899]},"properties":{"price":18600,"use":"下関","zone":"","station":"住宅"}},{"type":"Feature","geometry":{"type":"Point","coordinates":[131.01001,34.03949]},"properties":{"price":22800,"use":"下関","zone":"","station":"住宅"}},{"type":"Feature","geometry":{"type":"Point","coordinates":[130.88184,33.94656]},"properties":{"price":21200,"use":"下関","zone":"","station":"住宅"}},{"type":"Feature","geometry":{"type":"Point","coordinates":[130.92156,34.00247]},"properties":{"price":46900,"use":"下関","zone":"","station":"住宅"}},{"type":"Feature","geometry":{"type":"Point","coordinates":[130.9469,34.00374]},"properties":{"price":56500,"use":"下関","zone":"","station":"住宅"}},{"type":"Feature","geometry":{"type":"Point","coordinates":[130.94578,33.99348]},"properties":{"price":53900,"use":"下関","zone":"","station":"住宅"}},{"type":"Feature","geometry":{"type":"Point","coordinates":[130.92705,33.95708]},"properties":{"price":34100,"use":"下関","zone":"","station":"住宅"}},{"type":"Feature","geometry":{"type":"Point","coordinates":[130.97124,34.00174]},"properties":{"price":32800,"use":"下関","zone":"","station":"住宅"}},{"type":"Feature","geometry":{"type":"Point","coordinates":[130.95338,33.97306]},"properties":{"price":37400,"use":"下関","zone":"","station":"住宅"}},{"type":"Feature","geometry":{"type":"Point","coordinates":[130.96957,33.97481]},"properties":{"price":30200,"use":"下関","zone":"","station":"住宅"}},{"type":"Feature","geometry":{"type":"Point","coordinates":[130.92611,34.03225]},"properties":{"price":15400,"use":"下関","zone":"","station":"住宅"}},{"type":"Feature","geometry":{"type":"Point","coordinates":[131.04241,34.06287]},"properties":{"price":13600,"use":"下関","zone":"","station":"住宅"}},{"type":"Feature","geometry":{"type":"Point","coordinates":[130.92696,33.98224]},"properties":{"price":40500,"use":"下関","zone":"","station":"住宅"}},{"type":"Feature","geometry":{"type":"Point","coordinates":[130.91621,33.96615]},"properties":{"price":26400,"use":"下関","zone":"","station":"住宅"}},{"type":"Feature","geometry":{"type":"Point","coordinates":[130.91222,33.91727]},"properties":{"price":30300,"use":"下関","zone":"","station":"住宅"}},{"type":"Feature","geometry":{"type":"Point","coordinates":[130.94534,33.97162]},"properties":{"price":39000,"use":"下関","zone":"","station":"住宅"}},{"type":"Feature","geometry":{"type":"Point","coordinates":[130.96322,34.01385]},"properties":{"price":57400,"use":"下関","zone":"","station":"住宅"}},{"type":"Feature","geometry":{"type":"Point","coordinates":[131.03856,34.07973]},"properties":{"price":5850,"use":"下関","zone":"","station":"田"}},{"type":"Feature","geometry":{"type":"Point","coordinates":[130.92477,33.95056]},"properties":{"price":181000,"use":"下関","zone":"","station":"ホテル"}},{"type":"Feature","geometry":{"type":"Point","coordinates":[130.92001,33.95556]},"properties":{"price":61500,"use":"下関","zone":"","station":"店舗、事務所兼共同住宅"}},{"type":"Feature","geometry":{"type":"Point","coordinates":[131.01101,34.03017]},"properties":{"price":57700,"use":"下関","zone":"","station":"店舗兼倉庫"}},{"type":"Feature","geometry":{"type":"Point","coordinates":[130.94558,34.00817]},"properties":{"price":100000,"use":"下関","zone":"","station":"店舗兼住宅"}},{"type":"Feature","geometry":{"type":"Point","coordinates":[130.98917,33.99882]},"properties":{"price":62500,"use":"下関","zone":"","station":"店舗兼住宅"}},{"type":"Feature","geometry":{"type":"Point","coordinates":[130.94025,33.95701]},"properties":{"price":67800,"use":"下関","zone":"","station":"事務所、車庫兼住宅"}},{"type":"Feature","geometry":{"type":"Point","coordinates":[130.92519,34.00332]},"properties":{"price":67000,"use":"下関","zone":"","station":"店舗兼住宅"}},{"type":"Feature","geometry":{"type":"Point","coordinates":[130.94299,33.95816]},"properties":{"price":73800,"use":"下関","zone":"","station":"店舗兼住宅"}},{"type":"Feature","geometry":{"type":"Point","coordinates":[130.92917,33.98793]},"properties":{"price":67200,"use":"下関","zone":"","station":"店舗兼住宅"}},{"type":"Feature","geometry":{"type":"Point","coordinates":[130.91327,33.92934]},"properties":{"price":45400,"use":"下関","zone":"","station":"会館"}},{"type":"Feature","geometry":{"type":"Point","coordinates":[130.94183,33.96329]},"properties":{"price":62500,"use":"下関","zone":"","station":"倉庫、作業所兼住宅"}},{"type":"Feature","geometry":{"type":"Point","coordinates":[131.03274,34.0699]},"properties":{"price":42900,"use":"下関","zone":"","station":"事務所"}},{"type":"Feature","geometry":{"type":"Point","coordinates":[130.93072,33.96875]},"properties":{"price":58700,"use":"下関","zone":"","station":"店舗兼共同住宅"}},{"type":"Feature","geometry":{"type":"Point","coordinates":[130.90357,34.06929]},"properties":{"price":32300,"use":"下関","zone":"","station":"店舗"}},{"type":"Feature","geometry":{"type":"Point","coordinates":[131.00079,34.01946]},"properties":{"price":65700,"use":"下関","zone":"","station":"店舗兼住宅"}},{"type":"Feature","geometry":{"type":"Point","coordinates":[130.92136,34.01403]},"properties":{"price":51900,"use":"下関","zone":"","station":"診療所"}},{"type":"Feature","geometry":{"type":"Point","coordinates":[130.94502,33.95802]},"properties":{"price":58900,"use":"下関","zone":"","station":"事務所"}},{"type":"Feature","geometry":{"type":"Point","coordinates":[130.93371,33.95267]},"properties":{"price":119000,"use":"下関","zone":"","station":"事務所"}},{"type":"Feature","geometry":{"type":"Point","coordinates":[130.92107,33.93389]},"properties":{"price":34600,"use":"下関","zone":"","station":"店舗兼住宅"}},{"type":"Feature","geometry":{"type":"Point","coordinates":[130.9448,33.96343]},"properties":{"price":50900,"use":"下関","zone":"","station":"店舗兼住宅"}},{"type":"Feature","geometry":{"type":"Point","coordinates":[130.92548,33.99566]},"properties":{"price":59900,"use":"下関","zone":"","station":"店舗兼共同住宅"}},{"type":"Feature","geometry":{"type":"Point","coordinates":[130.95261,33.99678]},"properties":{"price":67200,"use":"下関","zone":"","station":"店舗兼事務所"}},{"type":"Feature","geometry":{"type":"Point","coordinates":[130.90116,33.93191]},"properties":{"price":14100,"use":"下関","zone":"","station":"工場"}},{"type":"Feature","geometry":{"type":"Point","coordinates":[131.01518,34.01763]},"properties":{"price":14500,"use":"下関","zone":"","station":"倉庫兼事務所"}},{"type":"Feature","geometry":{"type":"Point","coordinates":[130.88016,33.94769]},"properties":{"price":16600,"use":"下関","zone":"","station":"倉庫"}},{"type":"Feature","geometry":{"type":"Point","coordinates":[131.28161,33.94467]},"properties":{"price":30800,"use":"宇部","zone":"","station":"住宅"}},{"type":"Feature","geometry":{"type":"Point","coordinates":[131.22257,34.04359]},"properties":{"price":11200,"use":"宇部","zone":"","station":"住宅"}},{"type":"Feature","geometry":{"type":"Point","coordinates":[131.20669,33.98275]},"properties":{"price":37900,"use":"宇部","zone":"","station":"住宅"}},{"type":"Feature","geometry":{"type":"Point","coordinates":[131.28067,33.97219]},"properties":{"price":27100,"use":"宇部","zone":"","station":"住宅"}},{"type":"Feature","geometry":{"type":"Point","coordinates":[131.2525,33.94203]},"properties":{"price":32300,"use":"宇部","zone":"","station":"住宅"}},{"type":"Feature","geometry":{"type":"Point","coordinates":[131.3083,33.95985]},"properties":{"price":21800,"use":"宇部","zone":"","station":"住宅"}},{"type":"Feature","geometry":{"type":"Point","coordinates":[131.24804,33.95067]},"properties":{"price":82700,"use":"宇部","zone":"","station":"店舗"}},{"type":"Feature","geometry":{"type":"Point","coordinates":[131.25458,33.94374]},"properties":{"price":44400,"use":"宇部","zone":"","station":"事務所兼住宅"}},{"type":"Feature","geometry":{"type":"Point","coordinates":[131.2642,33.96406]},"properties":{"price":41400,"use":"宇部","zone":"","station":"診療所"}},{"type":"Feature","geometry":{"type":"Point","coordinates":[131.23715,33.96631]},"properties":{"price":49300,"use":"宇部","zone":"","station":"店舗"}},{"type":"Feature","geometry":{"type":"Point","coordinates":[131.23879,33.96196]},"properties":{"price":53800,"use":"宇部","zone":"","station":"店舗"}},{"type":"Feature","geometry":{"type":"Point","coordinates":[131.3063,33.95236]},"properties":{"price":30000,"use":"宇部","zone":"","station":"店舗兼住宅"}},{"type":"Feature","geometry":{"type":"Point","coordinates":[131.35423,33.99801]},"properties":{"price":23400,"use":"山口","zone":"","station":"住宅"}},{"type":"Feature","geometry":{"type":"Point","coordinates":[131.505,34.1539]},"properties":{"price":27400,"use":"山口","zone":"","station":"住宅"}},{"type":"Feature","geometry":{"type":"Point","coordinates":[131.4703,34.17764]},"properties":{"price":70900,"use":"山口","zone":"","station":"住宅"}},{"type":"Feature","geometry":{"type":"Point","coordinates":[131.44201,34.15893]},"properties":{"price":36600,"use":"山口","zone":"","station":"住宅"}},{"type":"Feature","geometry":{"type":"Point","coordinates":[131.36307,34.00666]},"properties":{"price":24500,"use":"山口","zone":"","station":"住宅"}},{"type":"Feature","geometry":{"type":"Point","coordinates":[131.48904,34.15778]},"properties":{"price":34600,"use":"山口","zone":"","station":"住宅"}},{"type":"Feature","geometry":{"type":"Point","coordinates":[131.37861,34.07541]},"properties":{"price":28600,"use":"山口","zone":"","station":"住宅"}},{"type":"Feature","geometry":{"type":"Point","coordinates":[131.45512,34.01323]},"properties":{"price":9800,"use":"山口","zone":"","station":"住宅"}},{"type":"Feature","geometry":{"type":"Point","coordinates":[131.39148,34.09768]},"properties":{"price":58100,"use":"山口","zone":"","station":"住宅"}},{"type":"Feature","geometry":{"type":"Point","coordinates":[131.39807,34.12347]},"properties":{"price":30500,"use":"山口","zone":"","station":"住宅"}},{"type":"Feature","geometry":{"type":"Point","coordinates":[131.45993,34.1688]},"properties":{"price":52500,"use":"山口","zone":"","station":"住宅"}},{"type":"Feature","geometry":{"type":"Point","coordinates":[131.45192,34.15506]},"properties":{"price":46700,"use":"山口","zone":"","station":"住宅"}},{"type":"Feature","geometry":{"type":"Point","coordinates":[131.47646,34.17391]},"properties":{"price":64900,"use":"山口","zone":"","station":"店舗兼共同住宅"}},{"type":"Feature","geometry":{"type":"Point","coordinates":[131.47775,34.17743]},"properties":{"price":82800,"use":"山口","zone":"","station":"店舗"}},{"type":"Feature","geometry":{"type":"Point","coordinates":[131.4623,34.15492]},"properties":{"price":66100,"use":"山口","zone":"","station":"店舗兼住宅"}},{"type":"Feature","geometry":{"type":"Point","coordinates":[131.46654,34.17068]},"properties":{"price":86500,"use":"山口","zone":"","station":"事務所"}},{"type":"Feature","geometry":{"type":"Point","coordinates":[131.45041,34.16921]},"properties":{"price":86600,"use":"山口","zone":"","station":"事務所"}},{"type":"Feature","geometry":{"type":"Point","coordinates":[131.50094,34.19442]},"properties":{"price":37300,"use":"山口","zone":"","station":"店舗兼住宅"}},{"type":"Feature","geometry":{"type":"Point","coordinates":[131.35387,34.00953]},"properties":{"price":32300,"use":"山口","zone":"","station":"店舗"}},{"type":"Feature","geometry":{"type":"Point","coordinates":[131.40003,34.0936]},"properties":{"price":161000,"use":"山口","zone":"","station":"事務所"}},{"type":"Feature","geometry":{"type":"Point","coordinates":[131.39288,34.09782]},"properties":{"price":88900,"use":"山口","zone":"","station":"店舗"}},{"type":"Feature","geometry":{"type":"Point","coordinates":[131.40958,34.40891]},"properties":{"price":27400,"use":"萩","zone":"","station":"住宅"}},{"type":"Feature","geometry":{"type":"Point","coordinates":[131.40467,34.40521]},"properties":{"price":28200,"use":"萩","zone":"","station":"住宅"}},{"type":"Feature","geometry":{"type":"Point","coordinates":[131.41636,34.40633]},"properties":{"price":16700,"use":"萩","zone":"","station":"住宅"}},{"type":"Feature","geometry":{"type":"Point","coordinates":[131.40433,34.40887]},"properties":{"price":50000,"use":"萩","zone":"","station":"医院兼事務所"}},{"type":"Feature","geometry":{"type":"Point","coordinates":[131.40699,34.4058]},"properties":{"price":41700,"use":"萩","zone":"","station":"店舗"}},{"type":"Feature","geometry":{"type":"Point","coordinates":[131.65643,34.06027]},"properties":{"price":10200,"use":"防府","zone":"","station":"住宅"}},{"type":"Feature","geometry":{"type":"Point","coordinates":[131.57794,34.06167]},"properties":{"price":42800,"use":"防府","zone":"","station":"住宅"}},{"type":"Feature","geometry":{"type":"Point","coordinates":[131.57174,34.05931]},"properties":{"price":40300,"use":"防府","zone":"","station":"住宅"}},{"type":"Feature","geometry":{"type":"Point","coordinates":[131.55536,34.04749]},"properties":{"price":30600,"use":"防府","zone":"","station":"住宅"}},{"type":"Feature","geometry":{"type":"Point","coordinates":[131.5838,34.02329]},"properties":{"price":14000,"use":"防府","zone":"","station":"住宅"}},{"type":"Feature","geometry":{"type":"Point","coordinates":[131.49006,34.05137]},"properties":{"price":20400,"use":"防府","zone":"","station":"住宅"}},{"type":"Feature","geometry":{"type":"Point","coordinates":[131.60323,34.05506]},"properties":{"price":26300,"use":"防府","zone":"","station":"住宅"}},{"type":"Feature","geometry":{"type":"Point","coordinates":[131.57071,34.02955]},"properties":{"price":27000,"use":"防府","zone":"","station":"住宅"}},{"type":"Feature","geometry":{"type":"Point","coordinates":[131.57704,34.05343]},"properties":{"price":37700,"use":"防府","zone":"","station":"住宅"}},{"type":"Feature","geometry":{"type":"Point","coordinates":[131.5808,34.05151]},"properties":{"price":30600,"use":"防府","zone":"","station":"住宅"}},{"type":"Feature","geometry":{"type":"Point","coordinates":[131.55209,34.07319]},"properties":{"price":28100,"use":"防府","zone":"","station":"住宅"}},{"type":"Feature","geometry":{"type":"Point","coordinates":[131.56974,34.03982]},"properties":{"price":29700,"use":"防府","zone":"","station":"住宅"}},{"type":"Feature","geometry":{"type":"Point","coordinates":[131.53795,34.01792]},"properties":{"price":21200,"use":"防府","zone":"","station":"住宅"}},{"type":"Feature","geometry":{"type":"Point","coordinates":[131.56792,34.06501]},"properties":{"price":30500,"use":"防府","zone":"","station":"住宅"}},{"type":"Feature","geometry":{"type":"Point","coordinates":[131.56163,34.04482]},"properties":{"price":33000,"use":"防府","zone":"","station":"住宅"}},{"type":"Feature","geometry":{"type":"Point","coordinates":[131.48154,34.04286]},"properties":{"price":11500,"use":"防府","zone":"","station":"住宅"}},{"type":"Feature","geometry":{"type":"Point","coordinates":[131.52166,34.05357]},"properties":{"price":12500,"use":"防府","zone":"","station":"住宅"}},{"type":"Feature","geometry":{"type":"Point","coordinates":[131.5667,34.05865]},"properties":{"price":41500,"use":"防府","zone":"","station":"住宅"}},{"type":"Feature","geometry":{"type":"Point","coordinates":[131.61325,34.06361]},"properties":{"price":5540,"use":"防府","zone":"","station":"田"}},{"type":"Feature","geometry":{"type":"Point","coordinates":[131.56671,34.05209]},"properties":{"price":124000,"use":"防府","zone":"","station":"店舗"}},{"type":"Feature","geometry":{"type":"Point","coordinates":[131.56728,34.05644]},"properties":{"price":41100,"use":"防府","zone":"","station":"店舗"}},{"type":"Feature","geometry":{"type":"Point","coordinates":[131.57312,34.05263]},"properties":{"price":55400,"use":"防府","zone":"","station":"事務所"}},{"type":"Feature","geometry":{"type":"Point","coordinates":[131.5706,34.05425]},"properties":{"price":78000,"use":"防府","zone":"","station":"店舗"}},{"type":"Feature","geometry":{"type":"Point","coordinates":[131.56948,34.05601]},"properties":{"price":60100,"use":"防府","zone":"","station":"店舗"}},{"type":"Feature","geometry":{"type":"Point","coordinates":[131.57535,34.05484]},"properties":{"price":52300,"use":"防府","zone":"","station":"店舗兼住宅"}},{"type":"Feature","geometry":{"type":"Point","coordinates":[131.56685,34.04052]},"properties":{"price":38200,"use":"防府","zone":"","station":"店舗兼住宅"}},{"type":"Feature","geometry":{"type":"Point","coordinates":[131.59198,34.05555]},"properties":{"price":45400,"use":"防府","zone":"","station":"店舗"}},{"type":"Feature","geometry":{"type":"Point","coordinates":[131.56338,34.01834]},"properties":{"price":11900,"use":"防府","zone":"","station":"工場"}},{"type":"Feature","geometry":{"type":"Point","coordinates":[131.584,34.02812]},"properties":{"price":10600,"use":"防府","zone":"","station":"工場"}},{"type":"Feature","geometry":{"type":"Point","coordinates":[131.57623,34.03503]},"properties":{"price":22100,"use":"防府","zone":"","station":"事務所兼作業場"}},{"type":"Feature","geometry":{"type":"Point","coordinates":[131.58954,34.05076]},"properties":{"price":29800,"use":"防府","zone":"","station":"工場"}},{"type":"Feature","geometry":{"type":"Point","coordinates":[131.87547,34.00322]},"properties":{"price":52300,"use":"下松","zone":"","station":"住宅"}},{"type":"Feature","geometry":{"type":"Point","coordinates":[131.87905,34.00953]},"properties":{"price":36000,"use":"下松","zone":"","station":"住宅"}},{"type":"Feature","geometry":{"type":"Point","coordinates":[131.86923,34.01737]},"properties":{"price":55300,"use":"下松","zone":"","station":"住宅"}},{"type":"Feature","geometry":{"type":"Point","coordinates":[131.85429,34.02247]},"properties":{"price":51100,"use":"下松","zone":"","station":"住宅"}},{"type":"Feature","geometry":{"type":"Point","coordinates":[131.86324,34.02596]},"properties":{"price":66700,"use":"下松","zone":"","station":"住宅"}},{"type":"Feature","geometry":{"type":"Point","coordinates":[131.87973,34.03292]},"properties":{"price":16900,"use":"下松","zone":"","station":"住宅"}},{"type":"Feature","geometry":{"type":"Point","coordinates":[131.88093,34.03836]},"properties":{"price":35800,"use":"下松","zone":"","station":"住宅"}},{"type":"Feature","geometry":{"type":"Point","coordinates":[131.9137,34.0302]},"properties":{"price":35400,"use":"下松","zone":"","station":"住宅"}},{"type":"Feature","geometry":{"type":"Point","coordinates":[131.85362,34.03692]},"properties":{"price":38200,"use":"下松","zone":"","station":"住宅"}},{"type":"Feature","geometry":{"type":"Point","coordinates":[131.90614,34.0389]},"properties":{"price":12700,"use":"下松","zone":"","station":"住宅"}},{"type":"Feature","geometry":{"type":"Point","coordinates":[131.86159,34.03471]},"properties":{"price":33300,"use":"下松","zone":"","station":"住宅"}},{"type":"Feature","geometry":{"type":"Point","coordinates":[131.86566,34.00935]},"properties":{"price":51300,"use":"下松","zone":"","station":"店舗兼住宅"}},{"type":"Feature","geometry":{"type":"Point","coordinates":[131.85587,34.02392]},"properties":{"price":73500,"use":"下松","zone":"","station":"店舗"}},{"type":"Feature","geometry":{"type":"Point","coordinates":[131.86901,34.01463]},"properties":{"price":71100,"use":"下松","zone":"","station":"店舗、事務所兼住宅"}},{"type":"Feature","geometry":{"type":"Point","coordinates":[131.86255,34.02833]},"properties":{"price":105000,"use":"下松","zone":"","station":"店舗"}},{"type":"Feature","geometry":{"type":"Point","coordinates":[131.86176,34.00949]},"properties":{"price":48500,"use":"下松","zone":"","station":"事務所兼作業所"}},{"type":"Feature","geometry":{"type":"Point","coordinates":[131.85202,34.02554]},"properties":{"price":49300,"use":"下松","zone":"","station":"事務所兼倉庫"}},{"type":"Feature","geometry":{"type":"Point","coordinates":[131.84953,34.03064]},"properties":{"price":26900,"use":"下松","zone":"","station":"倉庫"}},{"type":"Feature","geometry":{"type":"Point","coordinates":[131.91104,34.02308]},"properties":{"price":25000,"use":"下松","zone":"","station":"倉庫"}},{"type":"Feature","geometry":{"type":"Point","coordinates":[132.19531,34.12629]},"properties":{"price":52900,"use":"岩国","zone":"","station":"住宅"}},{"type":"Feature","geometry":{"type":"Point","coordinates":[132.21374,34.16441]},"properties":{"price":90900,"use":"岩国","zone":"","station":"住宅"}},{"type":"Feature","geometry":{"type":"Point","coordinates":[132.19726,34.10521]},"properties":{"price":33900,"use":"岩国","zone":"","station":"住宅"}},{"type":"Feature","geometry":{"type":"Point","coordinates":[132.23156,34.1742]},"properties":{"price":59400,"use":"岩国","zone":"","station":"住宅"}},{"type":"Feature","geometry":{"type":"Point","coordinates":[132.20805,34.13914]},"properties":{"price":71800,"use":"岩国","zone":"","station":"住宅"}},{"type":"Feature","geometry":{"type":"Point","coordinates":[132.17544,34.16668]},"properties":{"price":51400,"use":"岩国","zone":"","station":"住宅"}},{"type":"Feature","geometry":{"type":"Point","coordinates":[132.19859,34.1306]},"properties":{"price":65800,"use":"岩国","zone":"","station":"住宅"}},{"type":"Feature","geometry":{"type":"Point","coordinates":[132.20153,34.16473]},"properties":{"price":47900,"use":"岩国","zone":"","station":"住宅"}},{"type":"Feature","geometry":{"type":"Point","coordinates":[132.20121,34.14979]},"properties":{"price":49000,"use":"岩国","zone":"","station":"住宅"}},{"type":"Feature","geometry":{"type":"Point","coordinates":[132.0998,34.10407]},"properties":{"price":26600,"use":"岩国","zone":"","station":"住宅"}},{"type":"Feature","geometry":{"type":"Point","coordinates":[132.20565,34.0822]},"properties":{"price":32200,"use":"岩国","zone":"","station":"住宅"}},{"type":"Feature","geometry":{"type":"Point","coordinates":[132.20605,34.07079]},"properties":{"price":41200,"use":"岩国","zone":"","station":"住宅"}},{"type":"Feature","geometry":{"type":"Point","coordinates":[132.19406,34.09667]},"properties":{"price":10500,"use":"岩国","zone":"","station":"住宅"}},{"type":"Feature","geometry":{"type":"Point","coordinates":[132.17486,34.15616]},"properties":{"price":39100,"use":"岩国","zone":"","station":"住宅"}},{"type":"Feature","geometry":{"type":"Point","coordinates":[132.19106,34.1663]},"properties":{"price":68400,"use":"岩国","zone":"","station":"住宅"}},{"type":"Feature","geometry":{"type":"Point","coordinates":[132.19762,34.16718]},"properties":{"price":55900,"use":"岩国","zone":"","station":"住宅"}},{"type":"Feature","geometry":{"type":"Point","coordinates":[132.05971,34.09018]},"properties":{"price":30700,"use":"岩国","zone":"","station":"住宅"}},{"type":"Feature","geometry":{"type":"Point","coordinates":[132.2189,34.15147]},"properties":{"price":61000,"use":"岩国","zone":"","station":"住宅"}},{"type":"Feature","geometry":{"type":"Point","coordinates":[132.08493,34.09752]},"properties":{"price":35900,"use":"岩国","zone":"","station":"住宅"}},{"type":"Feature","geometry":{"type":"Point","coordinates":[132.18802,34.14484]},"properties":{"price":34700,"use":"岩国","zone":"","station":"住宅"}},{"type":"Feature","geometry":{"type":"Point","coordinates":[132.21334,34.03301]},"properties":{"price":28000,"use":"岩国","zone":"","station":"住宅"}},{"type":"Feature","geometry":{"type":"Point","coordinates":[132.19233,34.04405]},"properties":{"price":13200,"use":"岩国","zone":"","station":"住宅"}},{"type":"Feature","geometry":{"type":"Point","coordinates":[132.18679,34.12754]},"properties":{"price":21300,"use":"岩国","zone":"","station":"住宅"}},{"type":"Feature","geometry":{"type":"Point","coordinates":[132.18409,34.13684]},"properties":{"price":53700,"use":"岩国","zone":"","station":"住宅"}},{"type":"Feature","geometry":{"type":"Point","coordinates":[132.20185,34.09258]},"properties":{"price":8310,"use":"岩国","zone":"","station":"畑"}},{"type":"Feature","geometry":{"type":"Point","coordinates":[132.22433,34.17284]},"properties":{"price":110000,"use":"岩国","zone":"","station":"店舗、事務所兼共同住宅"}},{"type":"Feature","geometry":{"type":"Point","coordinates":[132.19052,34.13923]},"properties":{"price":71200,"use":"岩国","zone":"","station":"店舗"}},{"type":"Feature","geometry":{"type":"Point","coordinates":[132.22033,34.16816]},"properties":{"price":93600,"use":"岩国","zone":"","station":"店舗"}},{"type":"Feature","geometry":{"type":"Point","coordinates":[132.22764,34.17248]},"properties":{"price":86300,"use":"岩国","zone":"","station":"学習塾"}},{"type":"Feature","geometry":{"type":"Point","coordinates":[132.22188,34.173]},"properties":{"price":80100,"use":"岩国","zone":"","station":"店舗兼住宅"}},{"type":"Feature","geometry":{"type":"Point","coordinates":[132.20756,34.13742]},"properties":{"price":88900,"use":"岩国","zone":"","station":"店舗兼共同住宅"}},{"type":"Feature","geometry":{"type":"Point","coordinates":[132.21674,34.16495]},"properties":{"price":77700,"use":"岩国","zone":"","station":"店舗兼住宅"}},{"type":"Feature","geometry":{"type":"Point","coordinates":[132.1807,34.16473]},"properties":{"price":76500,"use":"岩国","zone":"","station":"店舗兼住宅"}},{"type":"Feature","geometry":{"type":"Point","coordinates":[132.1984,34.16555]},"properties":{"price":78400,"use":"岩国","zone":"","station":"店舗"}},{"type":"Feature","geometry":{"type":"Point","coordinates":[132.07778,34.0945]},"properties":{"price":37900,"use":"岩国","zone":"","station":"店舗兼住宅"}},{"type":"Feature","geometry":{"type":"Point","coordinates":[132.23087,34.16972]},"properties":{"price":83500,"use":"岩国","zone":"","station":"店舗兼住宅"}},{"type":"Feature","geometry":{"type":"Point","coordinates":[132.21049,34.17058]},"properties":{"price":87200,"use":"岩国","zone":"","station":"店舗"}},{"type":"Feature","geometry":{"type":"Point","coordinates":[132.21071,34.0544]},"properties":{"price":14400,"use":"岩国","zone":"","station":"工場"}},{"type":"Feature","geometry":{"type":"Point","coordinates":[132.24149,34.16972]},"properties":{"price":25900,"use":"岩国","zone":"","station":"工場"}},{"type":"Feature","geometry":{"type":"Point","coordinates":[132.22876,34.1587]},"properties":{"price":35800,"use":"岩国","zone":"","station":"工場"}},{"type":"Feature","geometry":{"type":"Point","coordinates":[131.96607,33.92724]},"properties":{"price":26000,"use":"光","zone":"","station":"住宅"}},{"type":"Feature","geometry":{"type":"Point","coordinates":[131.93814,33.97377]},"properties":{"price":35100,"use":"光","zone":"","station":"住宅"}},{"type":"Feature","geometry":{"type":"Point","coordinates":[131.95588,33.9507]},"properties":{"price":29500,"use":"光","zone":"","station":"住宅"}},{"type":"Feature","geometry":{"type":"Point","coordinates":[131.94793,33.96218]},"properties":{"price":28900,"use":"光","zone":"","station":"住宅"}},{"type":"Feature","geometry":{"type":"Point","coordinates":[131.99276,33.97644]},"properties":{"price":17400,"use":"光","zone":"","station":"住宅"}},{"type":"Feature","geometry":{"type":"Point","coordinates":[131.92323,33.97409]},"properties":{"price":44800,"use":"光","zone":"","station":"住宅"}},{"type":"Feature","geometry":{"type":"Point","coordinates":[131.91937,33.97059]},"properties":{"price":45000,"use":"光","zone":"","station":"住宅"}},{"type":"Feature","geometry":{"type":"Point","coordinates":[131.93482,33.97719]},"properties":{"price":35900,"use":"光","zone":"","station":"住宅"}},{"type":"Feature","geometry":{"type":"Point","coordinates":[131.9757,33.9352]},"properties":{"price":28000,"use":"光","zone":"","station":"住宅"}},{"type":"Feature","geometry":{"type":"Point","coordinates":[131.93827,33.98724]},"properties":{"price":11500,"use":"光","zone":"","station":"住宅"}},{"type":"Feature","geometry":{"type":"Point","coordinates":[131.9522,33.98932]},"properties":{"price":28400,"use":"光","zone":"","station":"住宅"}},{"type":"Feature","geometry":{"type":"Point","coordinates":[131.99805,33.98073]},"properties":{"price":18800,"use":"光","zone":"","station":"住宅"}},{"type":"Feature","geometry":{"type":"Point","coordinates":[131.92627,33.97145]},"properties":{"price":67400,"use":"光","zone":"","station":"店舗"}},{"type":"Feature","geometry":{"type":"Point","coordinates":[131.9569,33.95499]},"properties":{"price":36000,"use":"光","zone":"","station":"店舗"}},{"type":"Feature","geometry":{"type":"Point","coordinates":[131.94389,33.95986]},"properties":{"price":48000,"use":"光","zone":"","station":"店舗兼住宅"}},{"type":"Feature","geometry":{"type":"Point","coordinates":[131.93488,33.97241]},"properties":{"price":48500,"use":"光","zone":"","station":"店舗兼事務所"}},{"type":"Feature","geometry":{"type":"Point","coordinates":[131.98669,34.01479]},"properties":{"price":11900,"use":"光","zone":"","station":"工場"}},{"type":"Feature","geometry":{"type":"Point","coordinates":[131.92703,33.96754]},"properties":{"price":19900,"use":"光","zone":"","station":"工場"}},{"type":"Feature","geometry":{"type":"Point","coordinates":[131.92168,33.97178]},"properties":{"price":30100,"use":"光","zone":"","station":"倉庫"}},{"type":"Feature","geometry":{"type":"Point","coordinates":[131.19216,34.37264]},"properties":{"price":19600,"use":"長門","zone":"","station":"住宅"}},{"type":"Feature","geometry":{"type":"Point","coordinates":[131.20008,34.38723]},"properties":{"price":19200,"use":"長門","zone":"","station":"住宅"}},{"type":"Feature","geometry":{"type":"Point","coordinates":[131.1859,34.36342]},"properties":{"price":21000,"use":"長門","zone":"","station":"住宅"}},{"type":"Feature","geometry":{"type":"Point","coordinates":[131.25207,34.36029]},"properties":{"price":7050,"use":"長門","zone":"","station":"住宅"}},{"type":"Feature","geometry":{"type":"Point","coordinates":[131.18701,34.37276]},"properties":{"price":34000,"use":"長門","zone":"","station":"店舗"}},{"type":"Feature","geometry":{"type":"Point","coordinates":[132.10635,33.97202]},"properties":{"price":30900,"use":"柳井","zone":"","station":"住宅"}},{"type":"Feature","geometry":{"type":"Point","coordinates":[132.09785,33.97063]},"properties":{"price":28900,"use":"柳井","zone":"","station":"住宅"}},{"type":"Feature","geometry":{"type":"Point","coordinates":[132.10357,33.98045]},"properties":{"price":26100,"use":"柳井","zone":"","station":"住宅"}},{"type":"Feature","geometry":{"type":"Point","coordinates":[132.10781,33.96698]},"properties":{"price":54800,"use":"柳井","zone":"","station":"店舗"}},{"type":"Feature","geometry":{"type":"Point","coordinates":[132.12826,33.95895]},"properties":{"price":29500,"use":"柳井","zone":"","station":"店舗兼作業所"}},{"type":"Feature","geometry":{"type":"Point","coordinates":[132.11175,33.96319]},"properties":{"price":31500,"use":"柳井","zone":"","station":"店舗兼工場"}},{"type":"Feature","geometry":{"type":"Point","coordinates":[131.20023,34.16519]},"properties":{"price":13800,"use":"美祢","zone":"","station":"住宅"}},{"type":"Feature","geometry":{"type":"Point","coordinates":[131.23103,34.16742]},"properties":{"price":8500,"use":"美祢","zone":"","station":"住宅"}},{"type":"Feature","geometry":{"type":"Point","coordinates":[131.20579,34.18071]},"properties":{"price":12500,"use":"美祢","zone":"","station":"住宅"}},{"type":"Feature","geometry":{"type":"Point","coordinates":[131.27955,34.20142]},"properties":{"price":3330,"use":"美祢","zone":"","station":"住宅"}},{"type":"Feature","geometry":{"type":"Point","coordinates":[131.20334,34.16658]},"properties":{"price":21000,"use":"美祢","zone":"","station":"事務所"}},{"type":"Feature","geometry":{"type":"Point","coordinates":[131.21123,34.18089]},"properties":{"price":16700,"use":"美祢","zone":"","station":"店舗"}},{"type":"Feature","geometry":{"type":"Point","coordinates":[131.93097,34.02909]},"properties":{"price":15200,"use":"周南","zone":"","station":"住宅"}},{"type":"Feature","geometry":{"type":"Point","coordinates":[131.84884,34.03879]},"properties":{"price":32800,"use":"周南","zone":"","station":"住宅"}},{"type":"Feature","geometry":{"type":"Point","coordinates":[131.82421,34.04157]},"properties":{"price":51000,"use":"周南","zone":"","station":"住宅"}},{"type":"Feature","geometry":{"type":"Point","coordinates":[131.79459,34.06828]},"properties":{"price":30600,"use":"周南","zone":"","station":"住宅"}},{"type":"Feature","geometry":{"type":"Point","coordinates":[131.77406,34.10111]},"properties":{"price":9070,"use":"周南","zone":"","station":"住宅"}},{"type":"Feature","geometry":{"type":"Point","coordinates":[131.8223,34.05682]},"properties":{"price":61200,"use":"周南","zone":"","station":"住宅"}},{"type":"Feature","geometry":{"type":"Point","coordinates":[131.80299,34.04855]},"properties":{"price":42400,"use":"周南","zone":"","station":"住宅"}},{"type":"Feature","geometry":{"type":"Point","coordinates":[131.81004,34.05782]},"properties":{"price":81200,"use":"周南","zone":"","station":"住宅"}},{"type":"Feature","geometry":{"type":"Point","coordinates":[131.86298,34.11588]},"properties":{"price":14900,"use":"周南","zone":"","station":"住宅"}},{"type":"Feature","geometry":{"type":"Point","coordinates":[131.75256,34.07201]},"properties":{"price":38900,"use":"周南","zone":"","station":"住宅"}},{"type":"Feature","geometry":{"type":"Point","coordinates":[131.81598,34.04739]},"properties":{"price":54000,"use":"周南","zone":"","station":"住宅"}},{"type":"Feature","geometry":{"type":"Point","coordinates":[131.83217,34.02939]},"properties":{"price":35100,"use":"周南","zone":"","station":"空地"}},{"type":"Feature","geometry":{"type":"Point","coordinates":[131.76262,34.08191]},"properties":{"price":37500,"use":"周南","zone":"","station":"住宅"}},{"type":"Feature","geometry":{"type":"Point","coordinates":[131.78366,34.09114]},"properties":{"price":32500,"use":"周南","zone":"","station":"住宅"}},{"type":"Feature","geometry":{"type":"Point","coordinates":[131.70273,34.07404]},"properties":{"price":25400,"use":"周南","zone":"","station":"住宅"}},{"type":"Feature","geometry":{"type":"Point","coordinates":[131.84308,34.04296]},"properties":{"price":53100,"use":"周南","zone":"","station":"住宅"}},{"type":"Feature","geometry":{"type":"Point","coordinates":[131.8078,34.06585]},"properties":{"price":35200,"use":"周南","zone":"","station":"住宅"}},{"type":"Feature","geometry":{"type":"Point","coordinates":[131.7734,34.07227]},"properties":{"price":70800,"use":"周南","zone":"","station":"住宅"}},{"type":"Feature","geometry":{"type":"Point","coordinates":[131.7572,34.07552]},"properties":{"price":48500,"use":"周南","zone":"","station":"住宅"}},{"type":"Feature","geometry":{"type":"Point","coordinates":[131.98111,34.0342]},"properties":{"price":13700,"use":"周南","zone":"","station":"住宅"}},{"type":"Feature","geometry":{"type":"Point","coordinates":[131.73517,34.06518]},"properties":{"price":29100,"use":"周南","zone":"","station":"住宅"}},{"type":"Feature","geometry":{"type":"Point","coordinates":[131.70418,34.06993]},"properties":{"price":17800,"use":"周南","zone":"","station":"住宅"}},{"type":"Feature","geometry":{"type":"Point","coordinates":[131.80049,34.09419]},"properties":{"price":17300,"use":"周南","zone":"","station":"住宅"}},{"type":"Feature","geometry":{"type":"Point","coordinates":[131.6741,34.08956]},"properties":{"price":14300,"use":"周南","zone":"","station":"住宅"}},{"type":"Feature","geometry":{"type":"Point","coordinates":[131.85177,34.04768]},"properties":{"price":19300,"use":"周南","zone":"","station":"住宅"}},{"type":"Feature","geometry":{"type":"Point","coordinates":[131.78039,34.0718]},"properties":{"price":38200,"use":"周南","zone":"","station":"住宅"}},{"type":"Feature","geometry":{"type":"Point","coordinates":[131.78105,34.09158]},"properties":{"price":7490,"use":"周南","zone":"","station":"田"}},{"type":"Feature","geometry":{"type":"Point","coordinates":[131.80478,34.05219]},"properties":{"price":139000,"use":"周南","zone":"","station":"店舗"}},{"type":"Feature","geometry":{"type":"Point","coordinates":[131.80819,34.05328]},"properties":{"price":79300,"use":"周南","zone":"","station":"事務所"}},{"type":"Feature","geometry":{"type":"Point","coordinates":[131.80096,34.05593]},"properties":{"price":53900,"use":"周南","zone":"","station":"店舗兼住宅"}},{"type":"Feature","geometry":{"type":"Point","coordinates":[131.86218,34.1166]},"properties":{"price":18600,"use":"周南","zone":"","station":"店舗兼住宅"}},{"type":"Feature","geometry":{"type":"Point","coordinates":[131.80851,34.05174]},"properties":{"price":112000,"use":"周南","zone":"","station":"店舗"}},{"type":"Feature","geometry":{"type":"Point","coordinates":[131.82902,34.04932]},"properties":{"price":73600,"use":"周南","zone":"","station":"建築中"}},{"type":"Feature","geometry":{"type":"Point","coordinates":[131.80285,34.05362]},"properties":{"price":75200,"use":"周南","zone":"","station":"事務所"}},{"type":"Feature","geometry":{"type":"Point","coordinates":[131.81067,34.04598]},"properties":{"price":60300,"use":"周南","zone":"","station":"事務所兼住宅"}},{"type":"Feature","geometry":{"type":"Point","coordinates":[131.80924,34.04897]},"properties":{"price":52100,"use":"周南","zone":"","station":"店舗兼住宅"}},{"type":"Feature","geometry":{"type":"Point","coordinates":[131.76978,34.07207]},"properties":{"price":81500,"use":"周南","zone":"","station":"事務所"}},{"type":"Feature","geometry":{"type":"Point","coordinates":[131.76587,34.06696]},"properties":{"price":34600,"use":"周南","zone":"","station":"空地"}},{"type":"Feature","geometry":{"type":"Point","coordinates":[131.8309,34.03605]},"properties":{"price":50800,"use":"周南","zone":"","station":"店舗"}},{"type":"Feature","geometry":{"type":"Point","coordinates":[131.96522,34.04965]},"properties":{"price":16100,"use":"周南","zone":"","station":"店舗兼住宅"}},{"type":"Feature","geometry":{"type":"Point","coordinates":[131.79317,34.0411]},"properties":{"price":17900,"use":"周南","zone":"","station":"工場"}},{"type":"Feature","geometry":{"type":"Point","coordinates":[131.81134,34.01271]},"properties":{"price":15900,"use":"周南","zone":"","station":"工場"}},{"type":"Feature","geometry":{"type":"Point","coordinates":[131.74118,34.06646]},"properties":{"price":16000,"use":"周南","zone":"","station":"工場"}},{"type":"Feature","geometry":{"type":"Point","coordinates":[131.7884,34.06486]},"properties":{"price":21000,"use":"周南","zone":"","station":"工場"}},{"type":"Feature","geometry":{"type":"Point","coordinates":[131.82073,34.02106]},"properties":{"price":24000,"use":"周南","zone":"","station":"事務所兼倉庫"}},{"type":"Feature","geometry":{"type":"Point","coordinates":[131.17878,33.97021]},"properties":{"price":23200,"use":"山陽小野田","zone":"","station":"住宅"}},{"type":"Feature","geometry":{"type":"Point","coordinates":[131.17906,34.0173]},"properties":{"price":22900,"use":"山陽小野田","zone":"","station":"住宅"}},{"type":"Feature","geometry":{"type":"Point","coordinates":[131.175,33.98493]},"properties":{"price":35100,"use":"山陽小野田","zone":"","station":"住宅"}},{"type":"Feature","geometry":{"type":"Point","coordinates":[131.07793,34.04332]},"properties":{"price":18000,"use":"山陽小野田","zone":"","station":"住宅"}},{"type":"Feature","geometry":{"type":"Point","coordinates":[131.17886,34.0044]},"properties":{"price":46900,"use":"山陽小野田","zone":"","station":"店舗"}},{"type":"Feature","geometry":{"type":"Point","coordinates":[131.16088,34.05491]},"properties":{"price":28000,"use":"山陽小野田","zone":"","station":"店舗兼住宅"}},{"type":"Feature","geometry":{"type":"Point","coordinates":[131.17345,33.98407]},"properties":{"price":36500,"use":"山陽小野田","zone":"","station":"店舗"}},{"type":"Feature","geometry":{"type":"Point","coordinates":[132.19803,33.92708]},"properties":{"price":17100,"use":"周防大島","zone":"","station":"住宅"}},{"type":"Feature","geometry":{"type":"Point","coordinates":[132.19813,33.88384]},"properties":{"price":9800,"use":"周防大島","zone":"","station":"住宅"}},{"type":"Feature","geometry":{"type":"Point","coordinates":[132.20921,33.94762]},"properties":{"price":18900,"use":"周防大島","zone":"","station":"店舗"}},{"type":"Feature","geometry":{"type":"Point","coordinates":[132.21402,34.19798]},"properties":{"price":54000,"use":"和木","zone":"","station":"住宅"}},{"type":"Feature","geometry":{"type":"Point","coordinates":[132.21916,34.20512]},"properties":{"price":76500,"use":"和木","zone":"","station":"住宅"}},{"type":"Feature","geometry":{"type":"Point","coordinates":[132.22663,34.20393]},"properties":{"price":76900,"use":"和木","zone":"","station":"住宅"}},{"type":"Feature","geometry":{"type":"Point","coordinates":[132.21983,34.20515]},"properties":{"price":80400,"use":"和木","zone":"","station":"店舗兼倉庫"}},{"type":"Feature","geometry":{"type":"Point","coordinates":[132.05438,33.9599]},"properties":{"price":20700,"use":"田布施","zone":"","station":"住宅"}},{"type":"Feature","geometry":{"type":"Point","coordinates":[132.04964,33.93648]},"properties":{"price":15500,"use":"田布施","zone":"","station":"住宅"}},{"type":"Feature","geometry":{"type":"Point","coordinates":[132.04365,33.95642]},"properties":{"price":33500,"use":"田布施","zone":"","station":"店舗兼事務所"}},{"type":"Feature","geometry":{"type":"Point","coordinates":[132.09237,33.95516]},"properties":{"price":18700,"use":"平生","zone":"","station":"住宅"}},{"type":"Feature","geometry":{"type":"Point","coordinates":[132.0772,33.93544]},"properties":{"price":20900,"use":"平生","zone":"","station":"住宅"}},{"type":"Feature","geometry":{"type":"Point","coordinates":[132.07427,33.93851]},"properties":{"price":29100,"use":"平生","zone":"","station":"店舗"}}]}