{"type":"FeatureCollection","features":[{"type":"Feature","geometry":{"type":"Point","coordinates":[136.26547,36.06146]},"properties":{"price":19700,"use":"福井","zone":"","station":"住宅"}},{"type":"Feature","geometry":{"type":"Point","coordinates":[136.2328,36.09743]},"properties":{"price":55000,"use":"福井","zone":"","station":"住宅"}},{"type":"Feature","geometry":{"type":"Point","coordinates":[136.24807,36.07914]},"properties":{"price":51800,"use":"福井","zone":"","station":"住宅"}},{"type":"Feature","geometry":{"type":"Point","coordinates":[136.20948,36.06901]},"properties":{"price":64500,"use":"福井","zone":"","station":"住宅"}},{"type":"Feature","geometry":{"type":"Point","coordinates":[136.20203,36.07671]},"properties":{"price":57200,"use":"福井","zone":"","station":"住宅"}},{"type":"Feature","geometry":{"type":"Point","coordinates":[136.22307,36.07164]},"properties":{"price":82100,"use":"福井","zone":"","station":"住宅"}},{"type":"Feature","geometry":{"type":"Point","coordinates":[136.23907,36.06776]},"properties":{"price":67400,"use":"福井","zone":"","station":"住宅"}},{"type":"Feature","geometry":{"type":"Point","coordinates":[136.23519,36.05307]},"properties":{"price":69000,"use":"福井","zone":"","station":"住宅"}},{"type":"Feature","geometry":{"type":"Point","coordinates":[136.2019,36.05709]},"properties":{"price":43800,"use":"福井","zone":"","station":"住宅"}},{"type":"Feature","geometry":{"type":"Point","coordinates":[136.18975,36.06526]},"properties":{"price":51600,"use":"福井","zone":"","station":"住宅"}},{"type":"Feature","geometry":{"type":"Point","coordinates":[136.18217,36.02999]},"properties":{"price":30400,"use":"福井","zone":"","station":"住宅"}},{"type":"Feature","geometry":{"type":"Point","coordinates":[136.2257,36.05586]},"properties":{"price":63800,"use":"福井","zone":"","station":"住宅"}},{"type":"Feature","geometry":{"type":"Point","coordinates":[136.1866,36.04051]},"properties":{"price":59000,"use":"福井","zone":"","station":"住宅"}},{"type":"Feature","geometry":{"type":"Point","coordinates":[136.18894,36.04842]},"properties":{"price":58300,"use":"福井","zone":"","station":"住宅"}},{"type":"Feature","geometry":{"type":"Point","coordinates":[136.14598,36.02284]},"properties":{"price":12800,"use":"福井","zone":"","station":"住宅"}},{"type":"Feature","geometry":{"type":"Point","coordinates":[136.19727,36.00096]},"properties":{"price":24800,"use":"福井","zone":"","station":"住宅"}},{"type":"Feature","geometry":{"type":"Point","coordinates":[136.21222,36.0783]},"properties":{"price":83200,"use":"福井","zone":"","station":"住宅"}},{"type":"Feature","geometry":{"type":"Point","coordinates":[136.22183,36.06852]},"properties":{"price":94100,"use":"福井","zone":"","station":"住宅"}},{"type":"Feature","geometry":{"type":"Point","coordinates":[136.22994,36.07001]},"properties":{"price":72500,"use":"福井","zone":"","station":"住宅"}},{"type":"Feature","geometry":{"type":"Point","coordinates":[136.22827,36.08011]},"properties":{"price":58600,"use":"福井","zone":"","station":"住宅"}},{"type":"Feature","geometry":{"type":"Point","coordinates":[136.18763,36.00163]},"properties":{"price":23600,"use":"福井","zone":"","station":"住宅"}},{"type":"Feature","geometry":{"type":"Point","coordinates":[136.20298,36.03687]},"properties":{"price":52800,"use":"福井","zone":"","station":"住宅"}},{"type":"Feature","geometry":{"type":"Point","coordinates":[136.21695,36.0848]},"properties":{"price":83000,"use":"福井","zone":"","station":"住宅"}},{"type":"Feature","geometry":{"type":"Point","coordinates":[136.2447,36.06642]},"properties":{"price":76400,"use":"福井","zone":"","station":"住宅"}},{"type":"Feature","geometry":{"type":"Point","coordinates":[136.19127,36.06876]},"properties":{"price":47100,"use":"福井","zone":"","station":"住宅"}},{"type":"Feature","geometry":{"type":"Point","coordinates":[136.24581,36.05003]},"properties":{"price":58900,"use":"福井","zone":"","station":"住宅"}},{"type":"Feature","geometry":{"type":"Point","coordinates":[136.20368,36.04572]},"properties":{"price":31100,"use":"福井","zone":"","station":"住宅"}},{"type":"Feature","geometry":{"type":"Point","coordinates":[136.20277,36.09367]},"properties":{"price":53000,"use":"福井","zone":"","station":"住宅"}},{"type":"Feature","geometry":{"type":"Point","coordinates":[136.22399,36.04832]},"properties":{"price":73300,"use":"福井","zone":"","station":"住宅"}},{"type":"Feature","geometry":{"type":"Point","coordinates":[136.21304,36.05568]},"properties":{"price":56800,"use":"福井","zone":"","station":"住宅"}},{"type":"Feature","geometry":{"type":"Point","coordinates":[136.20002,36.07314]},"properties":{"price":50100,"use":"福井","zone":"","station":"空地"}},{"type":"Feature","geometry":{"type":"Point","coordinates":[136.25146,36.06142]},"properties":{"price":54700,"use":"福井","zone":"","station":"住宅"}},{"type":"Feature","geometry":{"type":"Point","coordinates":[136.19107,36.03017]},"properties":{"price":17600,"use":"福井","zone":"","station":"住宅"}},{"type":"Feature","geometry":{"type":"Point","coordinates":[136.12896,36.05257]},"properties":{"price":12400,"use":"福井","zone":"","station":"住宅"}},{"type":"Feature","geometry":{"type":"Point","coordinates":[136.23211,36.00956]},"properties":{"price":15400,"use":"福井","zone":"","station":"住宅"}},{"type":"Feature","geometry":{"type":"Point","coordinates":[136.2312,36.06117]},"properties":{"price":67100,"use":"福井","zone":"","station":"住宅"}},{"type":"Feature","geometry":{"type":"Point","coordinates":[136.22308,36.07872]},"properties":{"price":67300,"use":"福井","zone":"","station":"住宅"}},{"type":"Feature","geometry":{"type":"Point","coordinates":[136.18498,36.12011]},"properties":{"price":13800,"use":"福井","zone":"","station":"住宅"}},{"type":"Feature","geometry":{"type":"Point","coordinates":[136.23702,36.11022]},"properties":{"price":42000,"use":"福井","zone":"","station":"住宅"}},{"type":"Feature","geometry":{"type":"Point","coordinates":[136.22257,36.06287]},"properties":{"price":360000,"use":"福井","zone":"","station":"店舗兼住宅"}},{"type":"Feature","geometry":{"type":"Point","coordinates":[136.22026,36.06171]},"properties":{"price":395000,"use":"福井","zone":"","station":"店舗兼事務所"}},{"type":"Feature","geometry":{"type":"Point","coordinates":[136.22131,36.06153]},"properties":{"price":406000,"use":"福井","zone":"","station":"店舗兼住宅"}},{"type":"Feature","geometry":{"type":"Point","coordinates":[136.21414,36.0631]},"properties":{"price":150000,"use":"福井","zone":"","station":"事務所"}},{"type":"Feature","geometry":{"type":"Point","coordinates":[136.21786,36.06387]},"properties":{"price":218000,"use":"福井","zone":"","station":"店舗"}},{"type":"Feature","geometry":{"type":"Point","coordinates":[136.22186,36.06672]},"properties":{"price":122000,"use":"福井","zone":"","station":"店舗兼事務所"}},{"type":"Feature","geometry":{"type":"Point","coordinates":[136.21543,36.05802]},"properties":{"price":81800,"use":"福井","zone":"","station":"事務所兼住宅"}},{"type":"Feature","geometry":{"type":"Point","coordinates":[136.18809,36.04154]},"properties":{"price":64400,"use":"福井","zone":"","station":"店舗"}},{"type":"Feature","geometry":{"type":"Point","coordinates":[136.21151,36.06082]},"properties":{"price":63600,"use":"福井","zone":"","station":"事務所"}},{"type":"Feature","geometry":{"type":"Point","coordinates":[136.22641,36.0613]},"properties":{"price":127000,"use":"福井","zone":"","station":"診療所兼住宅"}},{"type":"Feature","geometry":{"type":"Point","coordinates":[136.21856,36.07237]},"properties":{"price":102000,"use":"福井","zone":"","station":"店舗兼住宅"}},{"type":"Feature","geometry":{"type":"Point","coordinates":[136.23257,36.09188]},"properties":{"price":62400,"use":"福井","zone":"","station":"店舗兼住宅"}},{"type":"Feature","geometry":{"type":"Point","coordinates":[136.24292,36.06859]},"properties":{"price":85000,"use":"福井","zone":"","station":"店舗"}},{"type":"Feature","geometry":{"type":"Point","coordinates":[136.23277,36.0423]},"properties":{"price":69800,"use":"福井","zone":"","station":"店舗"}},{"type":"Feature","geometry":{"type":"Point","coordinates":[136.22448,36.06393]},"properties":{"price":195000,"use":"福井","zone":"","station":"店舗兼共同住宅"}},{"type":"Feature","geometry":{"type":"Point","coordinates":[136.24224,36.09247]},"properties":{"price":75000,"use":"福井","zone":"","station":"店舗兼事務所"}},{"type":"Feature","geometry":{"type":"Point","coordinates":[136.24345,36.11789]},"properties":{"price":39000,"use":"福井","zone":"","station":"店舗"}},{"type":"Feature","geometry":{"type":"Point","coordinates":[136.22492,36.11431]},"properties":{"price":16700,"use":"福井","zone":"","station":"工場"}},{"type":"Feature","geometry":{"type":"Point","coordinates":[136.10148,36.15446]},"properties":{"price":10300,"use":"福井","zone":"","station":"事務所、作業所兼倉庫"}},{"type":"Feature","geometry":{"type":"Point","coordinates":[136.24854,36.0536]},"properties":{"price":47700,"use":"福井","zone":"","station":"事務所兼倉庫"}},{"type":"Feature","geometry":{"type":"Point","coordinates":[136.23523,36.08228]},"properties":{"price":47000,"use":"福井","zone":"","station":"事務所兼倉庫"}},{"type":"Feature","geometry":{"type":"Point","coordinates":[136.25939,36.08217]},"properties":{"price":22000,"use":"福井","zone":"","station":"倉庫"}},{"type":"Feature","geometry":{"type":"Point","coordinates":[136.28202,36.08143]},"properties":{"price":22900,"use":"福井","zone":"","station":"倉庫"}},{"type":"Feature","geometry":{"type":"Point","coordinates":[136.07542,35.64816]},"properties":{"price":68100,"use":"敦賀","zone":"","station":"住宅"}},{"type":"Feature","geometry":{"type":"Point","coordinates":[136.05924,35.64771]},"properties":{"price":46400,"use":"敦賀","zone":"","station":"住宅"}},{"type":"Feature","geometry":{"type":"Point","coordinates":[136.04314,35.63107]},"properties":{"price":40800,"use":"敦賀","zone":"","station":"住宅"}},{"type":"Feature","geometry":{"type":"Point","coordinates":[136.03169,35.62064]},"properties":{"price":26200,"use":"敦賀","zone":"","station":"住宅"}},{"type":"Feature","geometry":{"type":"Point","coordinates":[136.0763,35.6605]},"properties":{"price":38400,"use":"敦賀","zone":"","station":"住宅"}},{"type":"Feature","geometry":{"type":"Point","coordinates":[136.07205,35.64894]},"properties":{"price":79500,"use":"敦賀","zone":"","station":"店舗、事務所兼住宅"}},{"type":"Feature","geometry":{"type":"Point","coordinates":[136.05568,35.64615]},"properties":{"price":68200,"use":"敦賀","zone":"","station":"事務所"}},{"type":"Feature","geometry":{"type":"Point","coordinates":[135.75307,35.49212]},"properties":{"price":49900,"use":"小浜","zone":"","station":"住宅"}},{"type":"Feature","geometry":{"type":"Point","coordinates":[135.75176,35.5049]},"properties":{"price":36200,"use":"小浜","zone":"","station":"住宅"}},{"type":"Feature","geometry":{"type":"Point","coordinates":[135.76771,35.48301]},"properties":{"price":31100,"use":"小浜","zone":"","station":"住宅"}},{"type":"Feature","geometry":{"type":"Point","coordinates":[135.74323,35.4936]},"properties":{"price":55800,"use":"小浜","zone":"","station":"店舗兼住宅"}},{"type":"Feature","geometry":{"type":"Point","coordinates":[135.75995,35.494]},"properties":{"price":53600,"use":"小浜","zone":"","station":"店舗兼倉庫"}},{"type":"Feature","geometry":{"type":"Point","coordinates":[136.49805,35.98417]},"properties":{"price":17000,"use":"大野","zone":"","station":"住宅"}},{"type":"Feature","geometry":{"type":"Point","coordinates":[136.48715,35.987]},"properties":{"price":17500,"use":"大野","zone":"","station":"住宅"}},{"type":"Feature","geometry":{"type":"Point","coordinates":[136.50286,35.97443]},"properties":{"price":18100,"use":"大野","zone":"","station":"住宅"}},{"type":"Feature","geometry":{"type":"Point","coordinates":[136.4897,35.98529]},"properties":{"price":31400,"use":"大野","zone":"","station":"店舗"}},{"type":"Feature","geometry":{"type":"Point","coordinates":[136.50011,36.06712]},"properties":{"price":14400,"use":"勝山","zone":"","station":"住宅"}},{"type":"Feature","geometry":{"type":"Point","coordinates":[136.50587,36.06411]},"properties":{"price":15500,"use":"勝山","zone":"","station":"住宅"}},{"type":"Feature","geometry":{"type":"Point","coordinates":[136.50491,36.05253]},"properties":{"price":13500,"use":"勝山","zone":"","station":"住宅"}},{"type":"Feature","geometry":{"type":"Point","coordinates":[136.5018,36.05992]},"properties":{"price":27600,"use":"勝山","zone":"","station":"店舗兼住宅"}},{"type":"Feature","geometry":{"type":"Point","coordinates":[136.47891,36.0751]},"properties":{"price":19600,"use":"勝山","zone":"","station":"老人ホーム"}},{"type":"Feature","geometry":{"type":"Point","coordinates":[136.18391,35.94049]},"properties":{"price":32500,"use":"鯖江","zone":"","station":"住宅"}},{"type":"Feature","geometry":{"type":"Point","coordinates":[136.18373,35.94898]},"properties":{"price":34100,"use":"鯖江","zone":"","station":"住宅"}},{"type":"Feature","geometry":{"type":"Point","coordinates":[136.18665,35.96811]},"properties":{"price":41100,"use":"鯖江","zone":"","station":"住宅"}},{"type":"Feature","geometry":{"type":"Point","coordinates":[136.18165,35.98174]},"properties":{"price":37500,"use":"鯖江","zone":"","station":"住宅"}},{"type":"Feature","geometry":{"type":"Point","coordinates":[136.1851,35.94559]},"properties":{"price":43000,"use":"鯖江","zone":"","station":"店舗兼住宅"}},{"type":"Feature","geometry":{"type":"Point","coordinates":[136.18021,35.97268]},"properties":{"price":35700,"use":"鯖江","zone":"","station":"店舗兼事務所"}},{"type":"Feature","geometry":{"type":"Point","coordinates":[136.17639,35.9508]},"properties":{"price":39800,"use":"鯖江","zone":"","station":"店舗兼事務所"}},{"type":"Feature","geometry":{"type":"Point","coordinates":[136.19817,36.22688]},"properties":{"price":19400,"use":"あわら","zone":"","station":"住宅"}},{"type":"Feature","geometry":{"type":"Point","coordinates":[136.1834,36.22147]},"properties":{"price":15900,"use":"あわら","zone":"","station":"住宅"}},{"type":"Feature","geometry":{"type":"Point","coordinates":[136.23163,36.2122]},"properties":{"price":23100,"use":"あわら","zone":"","station":"住宅"}},{"type":"Feature","geometry":{"type":"Point","coordinates":[136.22204,36.21652]},"properties":{"price":23900,"use":"あわら","zone":"","station":"住宅"}},{"type":"Feature","geometry":{"type":"Point","coordinates":[136.23865,36.21852]},"properties":{"price":23000,"use":"あわら","zone":"","station":"住宅"}},{"type":"Feature","geometry":{"type":"Point","coordinates":[136.19221,36.22459]},"properties":{"price":41100,"use":"あわら","zone":"","station":"店舗兼住宅"}},{"type":"Feature","geometry":{"type":"Point","coordinates":[136.23347,36.21467]},"properties":{"price":37100,"use":"あわら","zone":"","station":"店舗兼住宅"}},{"type":"Feature","geometry":{"type":"Point","coordinates":[136.16188,35.8923]},"properties":{"price":38200,"use":"福井越前","zone":"","station":"住宅"}},{"type":"Feature","geometry":{"type":"Point","coordinates":[136.15918,35.90395]},"properties":{"price":36200,"use":"福井越前","zone":"","station":"住宅"}},{"type":"Feature","geometry":{"type":"Point","coordinates":[136.2454,35.92441]},"properties":{"price":15000,"use":"福井越前","zone":"","station":"住宅"}},{"type":"Feature","geometry":{"type":"Point","coordinates":[136.16265,35.91284]},"properties":{"price":36500,"use":"福井越前","zone":"","station":"住宅"}},{"type":"Feature","geometry":{"type":"Point","coordinates":[136.1506,35.89837]},"properties":{"price":35600,"use":"福井越前","zone":"","station":"住宅"}},{"type":"Feature","geometry":{"type":"Point","coordinates":[136.24311,35.90964]},"properties":{"price":22700,"use":"福井越前","zone":"","station":"住宅"}},{"type":"Feature","geometry":{"type":"Point","coordinates":[136.16989,35.90394]},"properties":{"price":59700,"use":"福井越前","zone":"","station":"店舗"}},{"type":"Feature","geometry":{"type":"Point","coordinates":[136.16577,35.90492]},"properties":{"price":37900,"use":"福井越前","zone":"","station":"店舗兼住宅"}},{"type":"Feature","geometry":{"type":"Point","coordinates":[136.23922,35.91717]},"properties":{"price":25200,"use":"福井越前","zone":"","station":"店舗兼住宅"}},{"type":"Feature","geometry":{"type":"Point","coordinates":[136.19182,35.90245]},"properties":{"price":45000,"use":"福井越前","zone":"","station":"店舗"}},{"type":"Feature","geometry":{"type":"Point","coordinates":[136.14496,36.2178]},"properties":{"price":17300,"use":"坂井","zone":"","station":"住宅"}},{"type":"Feature","geometry":{"type":"Point","coordinates":[136.1422,36.22372]},"properties":{"price":21800,"use":"坂井","zone":"","station":"住宅"}},{"type":"Feature","geometry":{"type":"Point","coordinates":[136.27691,36.15753]},"properties":{"price":24800,"use":"坂井","zone":"","station":"住宅"}},{"type":"Feature","geometry":{"type":"Point","coordinates":[136.26753,36.14397]},"properties":{"price":30700,"use":"坂井","zone":"","station":"住宅"}},{"type":"Feature","geometry":{"type":"Point","coordinates":[136.22169,36.12933]},"properties":{"price":34700,"use":"坂井","zone":"","station":"住宅"}},{"type":"Feature","geometry":{"type":"Point","coordinates":[136.22371,36.12419]},"properties":{"price":32900,"use":"坂井","zone":"","station":"住宅"}},{"type":"Feature","geometry":{"type":"Point","coordinates":[136.23742,36.16003]},"properties":{"price":28900,"use":"坂井","zone":"","station":"住宅"}},{"type":"Feature","geometry":{"type":"Point","coordinates":[136.1496,36.21651]},"properties":{"price":28400,"use":"坂井","zone":"","station":"店舗兼住宅"}},{"type":"Feature","geometry":{"type":"Point","coordinates":[136.26999,36.15014]},"properties":{"price":29000,"use":"坂井","zone":"","station":"店舗兼住宅"}},{"type":"Feature","geometry":{"type":"Point","coordinates":[136.22753,36.12747]},"properties":{"price":33800,"use":"坂井","zone":"","station":"事務所兼住宅"}},{"type":"Feature","geometry":{"type":"Point","coordinates":[136.23495,36.16254]},"properties":{"price":29000,"use":"坂井","zone":"","station":"店舗兼住宅"}},{"type":"Feature","geometry":{"type":"Point","coordinates":[136.29074,36.09405]},"properties":{"price":43900,"use":"永平寺","zone":"","station":"住宅"}},{"type":"Feature","geometry":{"type":"Point","coordinates":[136.29296,36.09118]},"properties":{"price":34200,"use":"永平寺","zone":"","station":"住宅"}},{"type":"Feature","geometry":{"type":"Point","coordinates":[136.30134,36.09349]},"properties":{"price":34200,"use":"永平寺","zone":"","station":"店舗兼住宅"}},{"type":"Feature","geometry":{"type":"Point","coordinates":[136.13464,35.97552]},"properties":{"price":27400,"use":"越前","zone":"","station":"住宅"}},{"type":"Feature","geometry":{"type":"Point","coordinates":[136.05411,35.95606]},"properties":{"price":14800,"use":"越前","zone":"","station":"住宅"}},{"type":"Feature","geometry":{"type":"Point","coordinates":[136.07372,35.94407]},"properties":{"price":8500,"use":"越前","zone":"","station":"住宅"}},{"type":"Feature","geometry":{"type":"Point","coordinates":[136.13206,35.97668]},"properties":{"price":27100,"use":"越前","zone":"","station":"店舗兼住宅"}},{"type":"Feature","geometry":{"type":"Point","coordinates":[135.94385,35.60201]},"properties":{"price":14300,"use":"福井美浜","zone":"","station":"住宅"}},{"type":"Feature","geometry":{"type":"Point","coordinates":[135.91811,35.60826]},"properties":{"price":15600,"use":"福井美浜","zone":"","station":"住宅"}},{"type":"Feature","geometry":{"type":"Point","coordinates":[135.93718,35.60451]},"properties":{"price":24000,"use":"福井美浜","zone":"","station":"店舗兼住宅"}},{"type":"Feature","geometry":{"type":"Point","coordinates":[135.54993,35.49028]},"properties":{"price":41500,"use":"福井高浜","zone":"","station":"住宅"}},{"type":"Feature","geometry":{"type":"Point","coordinates":[135.57453,35.48957]},"properties":{"price":27500,"use":"福井高浜","zone":"","station":"住宅"}},{"type":"Feature","geometry":{"type":"Point","coordinates":[135.5486,35.48965]},"properties":{"price":46300,"use":"福井高浜","zone":"","station":"店舗"}},{"type":"Feature","geometry":{"type":"Point","coordinates":[135.90834,35.55558]},"properties":{"price":22600,"use":"若狭","zone":"","station":"住宅"}},{"type":"Feature","geometry":{"type":"Point","coordinates":[135.85851,35.46077]},"properties":{"price":17700,"use":"若狭","zone":"","station":"住宅"}},{"type":"Feature","geometry":{"type":"Point","coordinates":[135.90761,35.55054]},"properties":{"price":22400,"use":"若狭","zone":"","station":"事務所"}},{"type":"Feature","geometry":{"type":"Point","coordinates":[135.85543,35.46332]},"properties":{"price":22600,"use":"若狭","zone":"","station":"店舗兼住宅"}}]}