{"type":"FeatureCollection","features":[{"type":"Feature","geometry":{"type":"Point","coordinates":[137.25238,36.70653]},"properties":{"price":38100,"use":"富山","zone":"","station":"住宅"}},{"type":"Feature","geometry":{"type":"Point","coordinates":[137.23127,36.74992]},"properties":{"price":37100,"use":"富山","zone":"","station":"住宅"}},{"type":"Feature","geometry":{"type":"Point","coordinates":[137.20948,36.7455]},"properties":{"price":22000,"use":"富山","zone":"","station":"住宅"}},{"type":"Feature","geometry":{"type":"Point","coordinates":[137.20404,36.69826]},"properties":{"price":112000,"use":"富山","zone":"","station":"住宅"}},{"type":"Feature","geometry":{"type":"Point","coordinates":[137.17251,36.71433]},"properties":{"price":31200,"use":"富山","zone":"","station":"住宅"}},{"type":"Feature","geometry":{"type":"Point","coordinates":[137.18464,36.70155]},"properties":{"price":49800,"use":"富山","zone":"","station":"住宅"}},{"type":"Feature","geometry":{"type":"Point","coordinates":[137.21351,36.66135]},"properties":{"price":47900,"use":"富山","zone":"","station":"住宅"}},{"type":"Feature","geometry":{"type":"Point","coordinates":[137.23703,36.7363]},"properties":{"price":30800,"use":"富山","zone":"","station":"住宅"}},{"type":"Feature","geometry":{"type":"Point","coordinates":[137.24206,36.68247]},"properties":{"price":44000,"use":"富山","zone":"","station":"住宅"}},{"type":"Feature","geometry":{"type":"Point","coordinates":[137.19956,36.71234]},"properties":{"price":43700,"use":"富山","zone":"","station":"住宅"}},{"type":"Feature","geometry":{"type":"Point","coordinates":[137.25508,36.6862]},"properties":{"price":38200,"use":"富山","zone":"","station":"住宅"}},{"type":"Feature","geometry":{"type":"Point","coordinates":[137.29028,36.73551]},"properties":{"price":17400,"use":"富山","zone":"","station":"住宅"}},{"type":"Feature","geometry":{"type":"Point","coordinates":[137.23777,36.67101]},"properties":{"price":43200,"use":"富山","zone":"","station":"建築中"}},{"type":"Feature","geometry":{"type":"Point","coordinates":[137.30879,36.75118]},"properties":{"price":23600,"use":"富山","zone":"","station":"住宅"}},{"type":"Feature","geometry":{"type":"Point","coordinates":[137.23534,36.73927]},"properties":{"price":31500,"use":"富山","zone":"","station":"住宅"}},{"type":"Feature","geometry":{"type":"Point","coordinates":[137.24352,36.69278]},"properties":{"price":60900,"use":"富山","zone":"","station":"住宅"}},{"type":"Feature","geometry":{"type":"Point","coordinates":[137.22869,36.69748]},"properties":{"price":63700,"use":"富山","zone":"","station":"住宅"}},{"type":"Feature","geometry":{"type":"Point","coordinates":[137.2354,36.70996]},"properties":{"price":40900,"use":"富山","zone":"","station":"住宅"}},{"type":"Feature","geometry":{"type":"Point","coordinates":[137.27104,36.67798]},"properties":{"price":30300,"use":"富山","zone":"","station":"住宅"}},{"type":"Feature","geometry":{"type":"Point","coordinates":[137.12974,36.6547]},"properties":{"price":23800,"use":"富山","zone":"","station":"住宅"}},{"type":"Feature","geometry":{"type":"Point","coordinates":[137.26136,36.69914]},"properties":{"price":32300,"use":"富山","zone":"","station":"住宅"}},{"type":"Feature","geometry":{"type":"Point","coordinates":[137.19663,36.69741]},"properties":{"price":55200,"use":"富山","zone":"","station":"住宅"}},{"type":"Feature","geometry":{"type":"Point","coordinates":[137.23932,36.70633]},"properties":{"price":37000,"use":"富山","zone":"","station":"住宅"}},{"type":"Feature","geometry":{"type":"Point","coordinates":[137.13858,36.59373]},"properties":{"price":21100,"use":"富山","zone":"","station":"住宅"}},{"type":"Feature","geometry":{"type":"Point","coordinates":[137.22433,36.65665]},"properties":{"price":40400,"use":"富山","zone":"","station":"住宅"}},{"type":"Feature","geometry":{"type":"Point","coordinates":[137.22722,36.68319]},"properties":{"price":61000,"use":"富山","zone":"","station":"住宅"}},{"type":"Feature","geometry":{"type":"Point","coordinates":[137.21366,36.68223]},"properties":{"price":84500,"use":"富山","zone":"","station":"住宅"}},{"type":"Feature","geometry":{"type":"Point","coordinates":[137.24424,36.71835]},"properties":{"price":34400,"use":"富山","zone":"","station":"住宅"}},{"type":"Feature","geometry":{"type":"Point","coordinates":[137.20859,36.68429]},"properties":{"price":89200,"use":"富山","zone":"","station":"住宅"}},{"type":"Feature","geometry":{"type":"Point","coordinates":[137.20346,36.68685]},"properties":{"price":86500,"use":"富山","zone":"","station":"住宅"}},{"type":"Feature","geometry":{"type":"Point","coordinates":[137.16254,36.66332]},"properties":{"price":36800,"use":"富山","zone":"","station":"住宅"}},{"type":"Feature","geometry":{"type":"Point","coordinates":[137.21908,36.7062]},"properties":{"price":102000,"use":"富山","zone":"","station":"住宅"}},{"type":"Feature","geometry":{"type":"Point","coordinates":[137.20718,36.60988]},"properties":{"price":21500,"use":"富山","zone":"","station":"住宅"}},{"type":"Feature","geometry":{"type":"Point","coordinates":[137.23005,36.68992]},"properties":{"price":62800,"use":"富山","zone":"","station":"住宅"}},{"type":"Feature","geometry":{"type":"Point","coordinates":[137.20679,36.70207]},"properties":{"price":112000,"use":"富山","zone":"","station":"住宅"}},{"type":"Feature","geometry":{"type":"Point","coordinates":[137.19632,36.57394]},"properties":{"price":16000,"use":"富山","zone":"","station":"住宅"}},{"type":"Feature","geometry":{"type":"Point","coordinates":[137.21985,36.68193]},"properties":{"price":78500,"use":"富山","zone":"","station":"住宅"}},{"type":"Feature","geometry":{"type":"Point","coordinates":[137.22331,36.68587]},"properties":{"price":63800,"use":"富山","zone":"","station":"住宅"}},{"type":"Feature","geometry":{"type":"Point","coordinates":[137.20682,36.69489]},"properties":{"price":129000,"use":"富山","zone":"","station":"住宅"}},{"type":"Feature","geometry":{"type":"Point","coordinates":[137.22416,36.69492]},"properties":{"price":62500,"use":"富山","zone":"","station":"住宅"}},{"type":"Feature","geometry":{"type":"Point","coordinates":[137.20409,36.6767]},"properties":{"price":79100,"use":"富山","zone":"","station":"住宅"}},{"type":"Feature","geometry":{"type":"Point","coordinates":[137.18396,36.71792]},"properties":{"price":27000,"use":"富山","zone":"","station":"住宅"}},{"type":"Feature","geometry":{"type":"Point","coordinates":[137.22971,36.64812]},"properties":{"price":33400,"use":"富山","zone":"","station":"住宅"}},{"type":"Feature","geometry":{"type":"Point","coordinates":[137.25185,36.67685]},"properties":{"price":38400,"use":"富山","zone":"","station":"住宅"}},{"type":"Feature","geometry":{"type":"Point","coordinates":[137.22142,36.71444]},"properties":{"price":50900,"use":"富山","zone":"","station":"住宅"}},{"type":"Feature","geometry":{"type":"Point","coordinates":[137.17705,36.66603]},"properties":{"price":45500,"use":"富山","zone":"","station":"住宅"}},{"type":"Feature","geometry":{"type":"Point","coordinates":[137.16423,36.70788]},"properties":{"price":34800,"use":"富山","zone":"","station":"住宅"}},{"type":"Feature","geometry":{"type":"Point","coordinates":[137.2489,36.62924]},"properties":{"price":13400,"use":"富山","zone":"","station":"住宅"}},{"type":"Feature","geometry":{"type":"Point","coordinates":[137.15322,36.70241]},"properties":{"price":14500,"use":"富山","zone":"","station":"住宅"}},{"type":"Feature","geometry":{"type":"Point","coordinates":[137.26851,36.73478]},"properties":{"price":14400,"use":"富山","zone":"","station":"住宅"}},{"type":"Feature","geometry":{"type":"Point","coordinates":[137.27802,36.62436]},"properties":{"price":17000,"use":"富山","zone":"","station":"住宅"}},{"type":"Feature","geometry":{"type":"Point","coordinates":[137.20946,36.67297]},"properties":{"price":70500,"use":"富山","zone":"","station":"住宅"}},{"type":"Feature","geometry":{"type":"Point","coordinates":[137.22059,36.63378]},"properties":{"price":21000,"use":"富山","zone":"","station":"住宅"}},{"type":"Feature","geometry":{"type":"Point","coordinates":[137.2674,36.69095]},"properties":{"price":30300,"use":"富山","zone":"","station":"住宅"}},{"type":"Feature","geometry":{"type":"Point","coordinates":[137.23198,36.671]},"properties":{"price":39800,"use":"富山","zone":"","station":"住宅"}},{"type":"Feature","geometry":{"type":"Point","coordinates":[137.23762,36.66561]},"properties":{"price":33300,"use":"富山","zone":"","station":"住宅"}},{"type":"Feature","geometry":{"type":"Point","coordinates":[137.29518,36.61296]},"properties":{"price":12400,"use":"富山","zone":"","station":"住宅"}},{"type":"Feature","geometry":{"type":"Point","coordinates":[137.20225,36.75643]},"properties":{"price":21600,"use":"富山","zone":"","station":"住宅"}},{"type":"Feature","geometry":{"type":"Point","coordinates":[137.2246,36.66268]},"properties":{"price":48600,"use":"富山","zone":"","station":"住宅"}},{"type":"Feature","geometry":{"type":"Point","coordinates":[137.25013,36.69783]},"properties":{"price":29000,"use":"富山","zone":"","station":"住宅"}},{"type":"Feature","geometry":{"type":"Point","coordinates":[137.2225,36.67739]},"properties":{"price":78000,"use":"富山","zone":"","station":"住宅"}},{"type":"Feature","geometry":{"type":"Point","coordinates":[137.21482,36.66942]},"properties":{"price":54100,"use":"富山","zone":"","station":"住宅"}},{"type":"Feature","geometry":{"type":"Point","coordinates":[137.20456,36.68213]},"properties":{"price":71600,"use":"富山","zone":"","station":"住宅"}},{"type":"Feature","geometry":{"type":"Point","coordinates":[137.20588,36.65179]},"properties":{"price":29400,"use":"富山","zone":"","station":"住宅"}},{"type":"Feature","geometry":{"type":"Point","coordinates":[137.32007,36.7421]},"properties":{"price":15200,"use":"富山","zone":"","station":"住宅"}},{"type":"Feature","geometry":{"type":"Point","coordinates":[137.13385,36.63802]},"properties":{"price":21900,"use":"富山","zone":"","station":"住宅"}},{"type":"Feature","geometry":{"type":"Point","coordinates":[137.17698,36.65939]},"properties":{"price":43500,"use":"富山","zone":"","station":"住宅"}},{"type":"Feature","geometry":{"type":"Point","coordinates":[137.21348,36.71233]},"properties":{"price":96000,"use":"富山","zone":"","station":"住宅"}},{"type":"Feature","geometry":{"type":"Point","coordinates":[137.26674,36.7016]},"properties":{"price":11000,"use":"富山","zone":"","station":"田"}},{"type":"Feature","geometry":{"type":"Point","coordinates":[137.21535,36.68948]},"properties":{"price":370000,"use":"富山","zone":"","station":"店舗"}},{"type":"Feature","geometry":{"type":"Point","coordinates":[137.2059,36.58379]},"properties":{"price":25200,"use":"富山","zone":"","station":"店舗兼住宅"}},{"type":"Feature","geometry":{"type":"Point","coordinates":[137.29812,36.60971]},"properties":{"price":20200,"use":"富山","zone":"","station":"店舗"}},{"type":"Feature","geometry":{"type":"Point","coordinates":[137.17018,36.71083]},"properties":{"price":68300,"use":"富山","zone":"","station":"店舗兼住宅"}},{"type":"Feature","geometry":{"type":"Point","coordinates":[137.22159,36.70537]},"properties":{"price":62600,"use":"富山","zone":"","station":"店舗兼住宅"}},{"type":"Feature","geometry":{"type":"Point","coordinates":[137.20998,36.66915]},"properties":{"price":94100,"use":"富山","zone":"","station":"店舗"}},{"type":"Feature","geometry":{"type":"Point","coordinates":[137.21521,36.68678]},"properties":{"price":88500,"use":"富山","zone":"","station":"店舗兼住宅"}},{"type":"Feature","geometry":{"type":"Point","coordinates":[137.21968,36.6886]},"properties":{"price":123000,"use":"富山","zone":"","station":"店舗兼住宅"}},{"type":"Feature","geometry":{"type":"Point","coordinates":[137.22176,36.67115]},"properties":{"price":62800,"use":"富山","zone":"","station":"事務所"}},{"type":"Feature","geometry":{"type":"Point","coordinates":[137.22248,36.69217]},"properties":{"price":77000,"use":"富山","zone":"","station":"空地"}},{"type":"Feature","geometry":{"type":"Point","coordinates":[137.21023,36.6834]},"properties":{"price":79400,"use":"富山","zone":"","station":"病院"}},{"type":"Feature","geometry":{"type":"Point","coordinates":[137.20934,36.69524]},"properties":{"price":194000,"use":"富山","zone":"","station":"事務所"}},{"type":"Feature","geometry":{"type":"Point","coordinates":[137.19524,36.65532]},"properties":{"price":31400,"use":"富山","zone":"","station":"事務所"}},{"type":"Feature","geometry":{"type":"Point","coordinates":[137.20758,36.69319]},"properties":{"price":106000,"use":"富山","zone":"","station":"店舗兼住宅"}},{"type":"Feature","geometry":{"type":"Point","coordinates":[137.21286,36.69899]},"properties":{"price":585000,"use":"富山","zone":"","station":"店舗兼事務所"}},{"type":"Feature","geometry":{"type":"Point","coordinates":[137.229,36.75415]},"properties":{"price":36000,"use":"富山","zone":"","station":"銀行"}},{"type":"Feature","geometry":{"type":"Point","coordinates":[137.25114,36.68972]},"properties":{"price":66800,"use":"富山","zone":"","station":"店舗"}},{"type":"Feature","geometry":{"type":"Point","coordinates":[137.21458,36.69937]},"properties":{"price":415000,"use":"富山","zone":"","station":"旅館兼店舗"}},{"type":"Feature","geometry":{"type":"Point","coordinates":[137.13978,36.58906]},"properties":{"price":25000,"use":"富山","zone":"","station":"事務所"}},{"type":"Feature","geometry":{"type":"Point","coordinates":[137.22101,36.6949]},"properties":{"price":85500,"use":"富山","zone":"","station":"店舗兼住宅"}},{"type":"Feature","geometry":{"type":"Point","coordinates":[137.21469,36.69415]},"properties":{"price":182000,"use":"富山","zone":"","station":"店舗"}},{"type":"Feature","geometry":{"type":"Point","coordinates":[137.20967,36.6894]},"properties":{"price":145000,"use":"富山","zone":"","station":"事務所"}},{"type":"Feature","geometry":{"type":"Point","coordinates":[137.21488,36.69714]},"properties":{"price":273000,"use":"富山","zone":"","station":"事務所"}},{"type":"Feature","geometry":{"type":"Point","coordinates":[137.2276,36.6677]},"properties":{"price":63000,"use":"富山","zone":"","station":"店舗"}},{"type":"Feature","geometry":{"type":"Point","coordinates":[137.21068,36.67987]},"properties":{"price":84800,"use":"富山","zone":"","station":"店舗"}},{"type":"Feature","geometry":{"type":"Point","coordinates":[137.17234,36.66117]},"properties":{"price":74700,"use":"富山","zone":"","station":"店舗"}},{"type":"Feature","geometry":{"type":"Point","coordinates":[137.24141,36.69571]},"properties":{"price":63200,"use":"富山","zone":"","station":"工場兼事務所"}},{"type":"Feature","geometry":{"type":"Point","coordinates":[137.22449,36.72576]},"properties":{"price":50400,"use":"富山","zone":"","station":"店舗兼倉庫"}},{"type":"Feature","geometry":{"type":"Point","coordinates":[137.23324,36.71768]},"properties":{"price":51500,"use":"富山","zone":"","station":"空地"}},{"type":"Feature","geometry":{"type":"Point","coordinates":[137.21941,36.68602]},"properties":{"price":80000,"use":"富山","zone":"","station":"店舗兼共同住宅"}},{"type":"Feature","geometry":{"type":"Point","coordinates":[137.22428,36.69699]},"properties":{"price":71200,"use":"富山","zone":"","station":"事務所兼倉庫"}},{"type":"Feature","geometry":{"type":"Point","coordinates":[137.21982,36.69112]},"properties":{"price":85700,"use":"富山","zone":"","station":"店舗兼住宅"}},{"type":"Feature","geometry":{"type":"Point","coordinates":[137.21487,36.69035]},"properties":{"price":197000,"use":"富山","zone":"","station":"店舗兼住宅"}},{"type":"Feature","geometry":{"type":"Point","coordinates":[137.13195,36.67826]},"properties":{"price":29000,"use":"富山","zone":"","station":"倉庫兼事務所"}},{"type":"Feature","geometry":{"type":"Point","coordinates":[137.29761,36.74282]},"properties":{"price":13400,"use":"富山","zone":"","station":"工場"}},{"type":"Feature","geometry":{"type":"Point","coordinates":[137.26795,36.71367]},"properties":{"price":16800,"use":"富山","zone":"","station":"工場"}},{"type":"Feature","geometry":{"type":"Point","coordinates":[137.21014,36.74913]},"properties":{"price":16800,"use":"富山","zone":"","station":"工場"}},{"type":"Feature","geometry":{"type":"Point","coordinates":[137.20069,36.65514]},"properties":{"price":35000,"use":"富山","zone":"","station":"倉庫兼事務所"}},{"type":"Feature","geometry":{"type":"Point","coordinates":[137.01275,36.75052]},"properties":{"price":26000,"use":"高岡","zone":"","station":"住宅"}},{"type":"Feature","geometry":{"type":"Point","coordinates":[137.01623,36.76315]},"properties":{"price":33800,"use":"高岡","zone":"","station":"住宅"}},{"type":"Feature","geometry":{"type":"Point","coordinates":[137.03545,36.74866]},"properties":{"price":36800,"use":"高岡","zone":"","station":"住宅"}},{"type":"Feature","geometry":{"type":"Point","coordinates":[137.03839,36.78649]},"properties":{"price":22600,"use":"高岡","zone":"","station":"住宅"}},{"type":"Feature","geometry":{"type":"Point","coordinates":[137.0291,36.7436]},"properties":{"price":51000,"use":"高岡","zone":"","station":"住宅"}},{"type":"Feature","geometry":{"type":"Point","coordinates":[136.97825,36.75161]},"properties":{"price":21300,"use":"高岡","zone":"","station":"住宅"}},{"type":"Feature","geometry":{"type":"Point","coordinates":[136.99683,36.74369]},"properties":{"price":28200,"use":"高岡","zone":"","station":"住宅"}},{"type":"Feature","geometry":{"type":"Point","coordinates":[136.96559,36.72305]},"properties":{"price":35500,"use":"高岡","zone":"","station":"住宅"}},{"type":"Feature","geometry":{"type":"Point","coordinates":[137.03602,36.73471]},"properties":{"price":37500,"use":"高岡","zone":"","station":"住宅"}},{"type":"Feature","geometry":{"type":"Point","coordinates":[137.01776,36.73132]},"properties":{"price":69200,"use":"高岡","zone":"","station":"住宅"}},{"type":"Feature","geometry":{"type":"Point","coordinates":[136.97162,36.74099]},"properties":{"price":22300,"use":"高岡","zone":"","station":"住宅"}},{"type":"Feature","geometry":{"type":"Point","coordinates":[137.00697,36.73213]},"properties":{"price":43800,"use":"高岡","zone":"","station":"住宅"}},{"type":"Feature","geometry":{"type":"Point","coordinates":[137.03399,36.76396]},"properties":{"price":33600,"use":"高岡","zone":"","station":"住宅"}},{"type":"Feature","geometry":{"type":"Point","coordinates":[136.99249,36.74231]},"properties":{"price":36900,"use":"高岡","zone":"","station":"住宅"}},{"type":"Feature","geometry":{"type":"Point","coordinates":[137.06922,36.78108]},"properties":{"price":24200,"use":"高岡","zone":"","station":"住宅"}},{"type":"Feature","geometry":{"type":"Point","coordinates":[137.0154,36.68357]},"properties":{"price":24400,"use":"高岡","zone":"","station":"住宅"}},{"type":"Feature","geometry":{"type":"Point","coordinates":[136.96818,36.68809]},"properties":{"price":26300,"use":"高岡","zone":"","station":"住宅"}},{"type":"Feature","geometry":{"type":"Point","coordinates":[137.04814,36.79577]},"properties":{"price":26400,"use":"高岡","zone":"","station":"住宅"}},{"type":"Feature","geometry":{"type":"Point","coordinates":[136.96089,36.72434]},"properties":{"price":29500,"use":"高岡","zone":"","station":"住宅"}},{"type":"Feature","geometry":{"type":"Point","coordinates":[136.9778,36.67823]},"properties":{"price":29800,"use":"高岡","zone":"","station":"住宅"}},{"type":"Feature","geometry":{"type":"Point","coordinates":[137.07696,36.77149]},"properties":{"price":29000,"use":"高岡","zone":"","station":"住宅"}},{"type":"Feature","geometry":{"type":"Point","coordinates":[137.04338,36.757]},"properties":{"price":35000,"use":"高岡","zone":"","station":"住宅"}},{"type":"Feature","geometry":{"type":"Point","coordinates":[136.99155,36.71995]},"properties":{"price":27000,"use":"高岡","zone":"","station":"住宅"}},{"type":"Feature","geometry":{"type":"Point","coordinates":[137.04139,36.76396]},"properties":{"price":37600,"use":"高岡","zone":"","station":"住宅"}},{"type":"Feature","geometry":{"type":"Point","coordinates":[136.93729,36.70312]},"properties":{"price":22600,"use":"高岡","zone":"","station":"住宅"}},{"type":"Feature","geometry":{"type":"Point","coordinates":[137.00503,36.75027]},"properties":{"price":33000,"use":"高岡","zone":"","station":"工場兼住宅"}},{"type":"Feature","geometry":{"type":"Point","coordinates":[137.0044,36.75507]},"properties":{"price":34100,"use":"高岡","zone":"","station":"住宅"}},{"type":"Feature","geometry":{"type":"Point","coordinates":[137.02118,36.69417]},"properties":{"price":24300,"use":"高岡","zone":"","station":"住宅"}},{"type":"Feature","geometry":{"type":"Point","coordinates":[136.98991,36.75543]},"properties":{"price":30000,"use":"高岡","zone":"","station":"住宅"}},{"type":"Feature","geometry":{"type":"Point","coordinates":[137.00014,36.73872]},"properties":{"price":47700,"use":"高岡","zone":"","station":"住宅"}},{"type":"Feature","geometry":{"type":"Point","coordinates":[136.92737,36.70926]},"properties":{"price":21500,"use":"高岡","zone":"","station":"住宅"}},{"type":"Feature","geometry":{"type":"Point","coordinates":[137.07451,36.76738]},"properties":{"price":17000,"use":"高岡","zone":"","station":"住宅"}},{"type":"Feature","geometry":{"type":"Point","coordinates":[136.98727,36.73906]},"properties":{"price":15500,"use":"高岡","zone":"","station":"田"}},{"type":"Feature","geometry":{"type":"Point","coordinates":[137.01356,36.74466]},"properties":{"price":86800,"use":"高岡","zone":"","station":"店舗兼住宅"}},{"type":"Feature","geometry":{"type":"Point","coordinates":[137.0198,36.75206]},"properties":{"price":75500,"use":"高岡","zone":"","station":"事務所"}},{"type":"Feature","geometry":{"type":"Point","coordinates":[137.00989,36.7463]},"properties":{"price":56200,"use":"高岡","zone":"","station":"店舗兼住宅"}},{"type":"Feature","geometry":{"type":"Point","coordinates":[137.00531,36.74071]},"properties":{"price":47800,"use":"高岡","zone":"","station":"事務所兼住宅"}},{"type":"Feature","geometry":{"type":"Point","coordinates":[137.01927,36.73885]},"properties":{"price":68900,"use":"高岡","zone":"","station":"店舗"}},{"type":"Feature","geometry":{"type":"Point","coordinates":[137.01693,36.74409]},"properties":{"price":80400,"use":"高岡","zone":"","station":"店舗兼住宅"}},{"type":"Feature","geometry":{"type":"Point","coordinates":[137.02006,36.73287]},"properties":{"price":95300,"use":"高岡","zone":"","station":"店舗"}},{"type":"Feature","geometry":{"type":"Point","coordinates":[137.0402,36.75356]},"properties":{"price":70300,"use":"高岡","zone":"","station":"店舗"}},{"type":"Feature","geometry":{"type":"Point","coordinates":[137.01486,36.75609]},"properties":{"price":47500,"use":"高岡","zone":"","station":"店舗兼住宅"}},{"type":"Feature","geometry":{"type":"Point","coordinates":[136.99878,36.75499]},"properties":{"price":69200,"use":"高岡","zone":"","station":"店舗兼住宅"}},{"type":"Feature","geometry":{"type":"Point","coordinates":[136.97823,36.69195]},"properties":{"price":31200,"use":"高岡","zone":"","station":"事務所兼倉庫"}},{"type":"Feature","geometry":{"type":"Point","coordinates":[137.01588,36.72787]},"properties":{"price":98800,"use":"高岡","zone":"","station":"店舗"}},{"type":"Feature","geometry":{"type":"Point","coordinates":[137.096,36.76706]},"properties":{"price":15300,"use":"高岡","zone":"","station":"工場"}},{"type":"Feature","geometry":{"type":"Point","coordinates":[137.04487,36.76417]},"properties":{"price":37400,"use":"高岡","zone":"","station":"工場"}},{"type":"Feature","geometry":{"type":"Point","coordinates":[137.40271,36.81045]},"properties":{"price":26000,"use":"魚津","zone":"","station":"住宅"}},{"type":"Feature","geometry":{"type":"Point","coordinates":[137.41298,36.82678]},"properties":{"price":41400,"use":"魚津","zone":"","station":"住宅"}},{"type":"Feature","geometry":{"type":"Point","coordinates":[137.39543,36.81349]},"properties":{"price":27200,"use":"魚津","zone":"","station":"住宅"}},{"type":"Feature","geometry":{"type":"Point","coordinates":[137.39945,36.81467]},"properties":{"price":42000,"use":"魚津","zone":"","station":"店舗兼住宅"}},{"type":"Feature","geometry":{"type":"Point","coordinates":[137.40672,36.8232]},"properties":{"price":69800,"use":"魚津","zone":"","station":"店舗兼倉庫"}},{"type":"Feature","geometry":{"type":"Point","coordinates":[136.97869,36.85732]},"properties":{"price":34600,"use":"氷見","zone":"","station":"住宅"}},{"type":"Feature","geometry":{"type":"Point","coordinates":[136.99535,36.8405]},"properties":{"price":31100,"use":"氷見","zone":"","station":"住宅"}},{"type":"Feature","geometry":{"type":"Point","coordinates":[136.98289,36.83398]},"properties":{"price":26600,"use":"氷見","zone":"","station":"住宅"}},{"type":"Feature","geometry":{"type":"Point","coordinates":[136.98177,36.84819]},"properties":{"price":29200,"use":"氷見","zone":"","station":"住宅"}},{"type":"Feature","geometry":{"type":"Point","coordinates":[136.9876,36.85711]},"properties":{"price":41000,"use":"氷見","zone":"","station":"店舗兼旅館"}},{"type":"Feature","geometry":{"type":"Point","coordinates":[137.34098,36.76798]},"properties":{"price":20600,"use":"滑川","zone":"","station":"住宅兼作業所"}},{"type":"Feature","geometry":{"type":"Point","coordinates":[137.34762,36.77161]},"properties":{"price":23400,"use":"滑川","zone":"","station":"住宅"}},{"type":"Feature","geometry":{"type":"Point","coordinates":[137.34452,36.7557]},"properties":{"price":24400,"use":"滑川","zone":"","station":"住宅"}},{"type":"Feature","geometry":{"type":"Point","coordinates":[137.34743,36.77001]},"properties":{"price":32800,"use":"滑川","zone":"","station":"店舗兼住宅"}},{"type":"Feature","geometry":{"type":"Point","coordinates":[137.44489,36.86531]},"properties":{"price":37500,"use":"黒部","zone":"","station":"住宅"}},{"type":"Feature","geometry":{"type":"Point","coordinates":[137.41858,36.88841]},"properties":{"price":16000,"use":"黒部","zone":"","station":"住宅"}},{"type":"Feature","geometry":{"type":"Point","coordinates":[137.4481,36.88569]},"properties":{"price":32200,"use":"黒部","zone":"","station":"住宅"}},{"type":"Feature","geometry":{"type":"Point","coordinates":[137.51967,36.86843]},"properties":{"price":15600,"use":"黒部","zone":"","station":"住宅"}},{"type":"Feature","geometry":{"type":"Point","coordinates":[137.44488,36.87316]},"properties":{"price":48500,"use":"黒部","zone":"","station":"店舗兼住宅"}},{"type":"Feature","geometry":{"type":"Point","coordinates":[137.58315,36.81563]},"properties":{"price":48900,"use":"黒部","zone":"","station":"店舗兼住宅"}},{"type":"Feature","geometry":{"type":"Point","coordinates":[136.95152,36.63172]},"properties":{"price":55200,"use":"砺波","zone":"","station":"住宅"}},{"type":"Feature","geometry":{"type":"Point","coordinates":[136.9861,36.57982]},"properties":{"price":14700,"use":"砺波","zone":"","station":"住宅"}},{"type":"Feature","geometry":{"type":"Point","coordinates":[136.95731,36.65021]},"properties":{"price":28300,"use":"砺波","zone":"","station":"住宅"}},{"type":"Feature","geometry":{"type":"Point","coordinates":[136.95521,36.63874]},"properties":{"price":49500,"use":"砺波","zone":"","station":"事務所"}},{"type":"Feature","geometry":{"type":"Point","coordinates":[136.95122,36.64204]},"properties":{"price":45300,"use":"砺波","zone":"","station":"店舗兼住宅"}},{"type":"Feature","geometry":{"type":"Point","coordinates":[136.98514,36.57657]},"properties":{"price":24400,"use":"砺波","zone":"","station":"事務所"}},{"type":"Feature","geometry":{"type":"Point","coordinates":[136.86603,36.67868]},"properties":{"price":25600,"use":"小矢部","zone":"","station":"住宅"}},{"type":"Feature","geometry":{"type":"Point","coordinates":[136.87529,36.67863]},"properties":{"price":25300,"use":"小矢部","zone":"","station":"住宅"}},{"type":"Feature","geometry":{"type":"Point","coordinates":[136.85208,36.67041]},"properties":{"price":14700,"use":"小矢部","zone":"","station":"住宅"}},{"type":"Feature","geometry":{"type":"Point","coordinates":[136.86612,36.67529]},"properties":{"price":45200,"use":"小矢部","zone":"","station":"学習塾"}},{"type":"Feature","geometry":{"type":"Point","coordinates":[136.86506,36.6737]},"properties":{"price":53100,"use":"小矢部","zone":"","station":"店舗兼倉庫"}},{"type":"Feature","geometry":{"type":"Point","coordinates":[136.89792,36.52035]},"properties":{"price":20700,"use":"南砺","zone":"","station":"住宅"}},{"type":"Feature","geometry":{"type":"Point","coordinates":[136.96835,36.56267]},"properties":{"price":18600,"use":"南砺","zone":"","station":"住宅"}},{"type":"Feature","geometry":{"type":"Point","coordinates":[136.92071,36.58789]},"properties":{"price":25600,"use":"南砺","zone":"","station":"住宅"}},{"type":"Feature","geometry":{"type":"Point","coordinates":[136.92589,36.5888]},"properties":{"price":20100,"use":"南砺","zone":"","station":"住宅"}},{"type":"Feature","geometry":{"type":"Point","coordinates":[136.87357,36.56288]},"properties":{"price":21700,"use":"南砺","zone":"","station":"住宅"}},{"type":"Feature","geometry":{"type":"Point","coordinates":[136.87096,36.5529]},"properties":{"price":22200,"use":"南砺","zone":"","station":"住宅"}},{"type":"Feature","geometry":{"type":"Point","coordinates":[136.90192,36.52152]},"properties":{"price":30300,"use":"南砺","zone":"","station":"店舗兼住宅"}},{"type":"Feature","geometry":{"type":"Point","coordinates":[136.96954,36.5656]},"properties":{"price":33000,"use":"南砺","zone":"","station":"店舗兼住宅"}},{"type":"Feature","geometry":{"type":"Point","coordinates":[136.9159,36.59294]},"properties":{"price":36300,"use":"南砺","zone":"","station":"店舗兼事務所"}},{"type":"Feature","geometry":{"type":"Point","coordinates":[137.07813,36.77831]},"properties":{"price":30200,"use":"射水","zone":"","station":"住宅"}},{"type":"Feature","geometry":{"type":"Point","coordinates":[137.0756,36.78471]},"properties":{"price":19000,"use":"射水","zone":"","station":"住宅"}},{"type":"Feature","geometry":{"type":"Point","coordinates":[137.14098,36.75492]},"properties":{"price":13400,"use":"射水","zone":"","station":"住宅"}},{"type":"Feature","geometry":{"type":"Point","coordinates":[137.05835,36.73971]},"properties":{"price":38000,"use":"射水","zone":"","station":"住宅"}},{"type":"Feature","geometry":{"type":"Point","coordinates":[137.10811,36.7044]},"properties":{"price":19000,"use":"射水","zone":"","station":"住宅"}},{"type":"Feature","geometry":{"type":"Point","coordinates":[137.14818,36.74202]},"properties":{"price":14000,"use":"射水","zone":"","station":"住宅"}},{"type":"Feature","geometry":{"type":"Point","coordinates":[137.0916,36.7226]},"properties":{"price":29700,"use":"射水","zone":"","station":"住宅"}},{"type":"Feature","geometry":{"type":"Point","coordinates":[137.09413,36.71841]},"properties":{"price":50600,"use":"射水","zone":"","station":"住宅"}},{"type":"Feature","geometry":{"type":"Point","coordinates":[137.10344,36.72459]},"properties":{"price":36400,"use":"射水","zone":"","station":"住宅"}},{"type":"Feature","geometry":{"type":"Point","coordinates":[137.09343,36.70343]},"properties":{"price":34500,"use":"射水","zone":"","station":"住宅"}},{"type":"Feature","geometry":{"type":"Point","coordinates":[137.0895,36.7249]},"properties":{"price":37300,"use":"射水","zone":"","station":"住宅"}},{"type":"Feature","geometry":{"type":"Point","coordinates":[137.05081,36.72282]},"properties":{"price":36300,"use":"射水","zone":"","station":"住宅"}},{"type":"Feature","geometry":{"type":"Point","coordinates":[137.05849,36.7349]},"properties":{"price":28300,"use":"射水","zone":"","station":"住宅"}},{"type":"Feature","geometry":{"type":"Point","coordinates":[137.06304,36.76002]},"properties":{"price":19300,"use":"射水","zone":"","station":"住宅"}},{"type":"Feature","geometry":{"type":"Point","coordinates":[137.10011,36.69872]},"properties":{"price":45000,"use":"射水","zone":"","station":"住宅"}},{"type":"Feature","geometry":{"type":"Point","coordinates":[137.113,36.71802]},"properties":{"price":30000,"use":"射水","zone":"","station":"住宅"}},{"type":"Feature","geometry":{"type":"Point","coordinates":[137.08222,36.78082]},"properties":{"price":39700,"use":"射水","zone":"","station":"事務所"}},{"type":"Feature","geometry":{"type":"Point","coordinates":[137.0876,36.77571]},"properties":{"price":39700,"use":"射水","zone":"","station":"店舗兼住宅"}},{"type":"Feature","geometry":{"type":"Point","coordinates":[137.05073,36.73305]},"properties":{"price":46000,"use":"射水","zone":"","station":"店舗"}},{"type":"Feature","geometry":{"type":"Point","coordinates":[137.0933,36.722]},"properties":{"price":46100,"use":"射水","zone":"","station":"店舗兼住宅"}},{"type":"Feature","geometry":{"type":"Point","coordinates":[137.09,36.71482]},"properties":{"price":59300,"use":"射水","zone":"","station":"店舗"}},{"type":"Feature","geometry":{"type":"Point","coordinates":[137.0887,36.75959]},"properties":{"price":20200,"use":"射水","zone":"","station":"店舗兼住宅"}},{"type":"Feature","geometry":{"type":"Point","coordinates":[137.15035,36.76081]},"properties":{"price":13100,"use":"射水","zone":"","station":"工場"}},{"type":"Feature","geometry":{"type":"Point","coordinates":[137.30106,36.70726]},"properties":{"price":15200,"use":"舟橋","zone":"","station":"住宅"}},{"type":"Feature","geometry":{"type":"Point","coordinates":[137.30308,36.69815]},"properties":{"price":25000,"use":"舟橋","zone":"","station":"住宅"}},{"type":"Feature","geometry":{"type":"Point","coordinates":[137.30664,36.70595]},"properties":{"price":27000,"use":"舟橋","zone":"","station":"店舗兼住宅"}},{"type":"Feature","geometry":{"type":"Point","coordinates":[137.36111,36.70886]},"properties":{"price":14900,"use":"上市","zone":"","station":"住宅"}},{"type":"Feature","geometry":{"type":"Point","coordinates":[137.3593,36.69053]},"properties":{"price":19100,"use":"上市","zone":"","station":"住宅"}},{"type":"Feature","geometry":{"type":"Point","coordinates":[137.36348,36.70623]},"properties":{"price":26900,"use":"上市","zone":"","station":"店舗兼住宅"}},{"type":"Feature","geometry":{"type":"Point","coordinates":[137.29521,36.66493]},"properties":{"price":17200,"use":"立山","zone":"","station":"住宅"}},{"type":"Feature","geometry":{"type":"Point","coordinates":[137.31709,36.6981]},"properties":{"price":15900,"use":"立山","zone":"","station":"住宅"}},{"type":"Feature","geometry":{"type":"Point","coordinates":[137.31282,36.66394]},"properties":{"price":30700,"use":"立山","zone":"","station":"店舗兼住宅"}},{"type":"Feature","geometry":{"type":"Point","coordinates":[137.50801,36.93477]},"properties":{"price":23200,"use":"入善","zone":"","station":"住宅"}},{"type":"Feature","geometry":{"type":"Point","coordinates":[137.45682,36.92243]},"properties":{"price":16600,"use":"入善","zone":"","station":"住宅"}},{"type":"Feature","geometry":{"type":"Point","coordinates":[137.50317,36.94115]},"properties":{"price":32400,"use":"入善","zone":"","station":"店舗兼住宅"}},{"type":"Feature","geometry":{"type":"Point","coordinates":[137.5594,36.96015]},"properties":{"price":16500,"use":"富山朝日","zone":"","station":"住宅"}},{"type":"Feature","geometry":{"type":"Point","coordinates":[137.5584,36.93711]},"properties":{"price":17700,"use":"富山朝日","zone":"","station":"住宅"}},{"type":"Feature","geometry":{"type":"Point","coordinates":[137.55897,36.95352]},"properties":{"price":26900,"use":"富山朝日","zone":"","station":"店舗兼住宅"}}]}