{"type":"FeatureCollection","features":[{"type":"Feature","geometry":{"type":"Point","coordinates":[138.21248,36.67239]},"properties":{"price":69300,"use":"長野","zone":"","station":"住宅"}},{"type":"Feature","geometry":{"type":"Point","coordinates":[138.2491,36.68006]},"properties":{"price":48000,"use":"長野","zone":"","station":"住宅"}},{"type":"Feature","geometry":{"type":"Point","coordinates":[138.20358,36.65018]},"properties":{"price":78900,"use":"長野","zone":"","station":"住宅"}},{"type":"Feature","geometry":{"type":"Point","coordinates":[138.21979,36.64523]},"properties":{"price":72800,"use":"長野","zone":"","station":"住宅"}},{"type":"Feature","geometry":{"type":"Point","coordinates":[138.18827,36.66529]},"properties":{"price":63200,"use":"長野","zone":"","station":"住宅"}},{"type":"Feature","geometry":{"type":"Point","coordinates":[138.23288,36.65226]},"properties":{"price":61800,"use":"長野","zone":"","station":"住宅"}},{"type":"Feature","geometry":{"type":"Point","coordinates":[138.20153,36.66764]},"properties":{"price":72500,"use":"長野","zone":"","station":"住宅"}},{"type":"Feature","geometry":{"type":"Point","coordinates":[138.21674,36.68184]},"properties":{"price":50700,"use":"長野","zone":"","station":"住宅"}},{"type":"Feature","geometry":{"type":"Point","coordinates":[138.17014,36.62993]},"properties":{"price":63300,"use":"長野","zone":"","station":"住宅"}},{"type":"Feature","geometry":{"type":"Point","coordinates":[138.1867,36.63349]},"properties":{"price":97200,"use":"長野","zone":"","station":"住宅"}},{"type":"Feature","geometry":{"type":"Point","coordinates":[138.20888,36.63237]},"properties":{"price":60400,"use":"長野","zone":"","station":"住宅"}},{"type":"Feature","geometry":{"type":"Point","coordinates":[138.15052,36.6182]},"properties":{"price":47000,"use":"長野","zone":"","station":"住宅"}},{"type":"Feature","geometry":{"type":"Point","coordinates":[138.17895,36.65321]},"properties":{"price":86700,"use":"長野","zone":"","station":"住宅"}},{"type":"Feature","geometry":{"type":"Point","coordinates":[138.2045,36.66023]},"properties":{"price":77100,"use":"長野","zone":"","station":"住宅"}},{"type":"Feature","geometry":{"type":"Point","coordinates":[138.21012,36.64539]},"properties":{"price":74700,"use":"長野","zone":"","station":"住宅"}},{"type":"Feature","geometry":{"type":"Point","coordinates":[138.18819,36.62726]},"properties":{"price":69600,"use":"長野","zone":"","station":"住宅"}},{"type":"Feature","geometry":{"type":"Point","coordinates":[138.15199,36.59555]},"properties":{"price":55700,"use":"長野","zone":"","station":"住宅"}},{"type":"Feature","geometry":{"type":"Point","coordinates":[138.16931,36.61361]},"properties":{"price":55200,"use":"長野","zone":"","station":"住宅"}},{"type":"Feature","geometry":{"type":"Point","coordinates":[138.12182,36.56921]},"properties":{"price":11800,"use":"長野","zone":"","station":"住宅"}},{"type":"Feature","geometry":{"type":"Point","coordinates":[138.19832,36.56059]},"properties":{"price":35300,"use":"長野","zone":"","station":"住宅"}},{"type":"Feature","geometry":{"type":"Point","coordinates":[138.25739,36.62669]},"properties":{"price":34400,"use":"長野","zone":"","station":"住宅"}},{"type":"Feature","geometry":{"type":"Point","coordinates":[138.23068,36.68967]},"properties":{"price":44500,"use":"長野","zone":"","station":"住宅"}},{"type":"Feature","geometry":{"type":"Point","coordinates":[138.23437,36.66193]},"properties":{"price":65200,"use":"長野","zone":"","station":"住宅"}},{"type":"Feature","geometry":{"type":"Point","coordinates":[138.1539,36.60879]},"properties":{"price":17400,"use":"長野","zone":"","station":"住宅"}},{"type":"Feature","geometry":{"type":"Point","coordinates":[138.27513,36.69865]},"properties":{"price":11300,"use":"長野","zone":"","station":"空地"}},{"type":"Feature","geometry":{"type":"Point","coordinates":[138.18254,36.65971]},"properties":{"price":72600,"use":"長野","zone":"","station":"住宅"}},{"type":"Feature","geometry":{"type":"Point","coordinates":[138.17065,36.64063]},"properties":{"price":39800,"use":"長野","zone":"","station":"住宅"}},{"type":"Feature","geometry":{"type":"Point","coordinates":[138.19956,36.65995]},"properties":{"price":76900,"use":"長野","zone":"","station":"住宅"}},{"type":"Feature","geometry":{"type":"Point","coordinates":[138.17498,36.65963]},"properties":{"price":60600,"use":"長野","zone":"","station":"住宅"}},{"type":"Feature","geometry":{"type":"Point","coordinates":[138.18097,36.58443]},"properties":{"price":48100,"use":"長野","zone":"","station":"住宅"}},{"type":"Feature","geometry":{"type":"Point","coordinates":[138.29895,36.72856]},"properties":{"price":9450,"use":"長野","zone":"","station":"住宅"}},{"type":"Feature","geometry":{"type":"Point","coordinates":[138.14384,36.58287]},"properties":{"price":48100,"use":"長野","zone":"","station":"住宅"}},{"type":"Feature","geometry":{"type":"Point","coordinates":[138.29383,36.72167]},"properties":{"price":26300,"use":"長野","zone":"","station":"住宅"}},{"type":"Feature","geometry":{"type":"Point","coordinates":[138.23564,36.64902]},"properties":{"price":35100,"use":"長野","zone":"","station":"住宅"}},{"type":"Feature","geometry":{"type":"Point","coordinates":[138.18935,36.60936]},"properties":{"price":56100,"use":"長野","zone":"","station":"住宅"}},{"type":"Feature","geometry":{"type":"Point","coordinates":[138.26029,36.66641]},"properties":{"price":55000,"use":"長野","zone":"","station":"住宅"}},{"type":"Feature","geometry":{"type":"Point","coordinates":[138.15758,36.58121]},"properties":{"price":52900,"use":"長野","zone":"","station":"住宅"}},{"type":"Feature","geometry":{"type":"Point","coordinates":[138.27326,36.70715]},"properties":{"price":27400,"use":"長野","zone":"","station":"空地"}},{"type":"Feature","geometry":{"type":"Point","coordinates":[138.14234,36.57408]},"properties":{"price":53400,"use":"長野","zone":"","station":"住宅"}},{"type":"Feature","geometry":{"type":"Point","coordinates":[138.25232,36.65979]},"properties":{"price":54500,"use":"長野","zone":"","station":"住宅"}},{"type":"Feature","geometry":{"type":"Point","coordinates":[138.18584,36.61849]},"properties":{"price":56700,"use":"長野","zone":"","station":"住宅"}},{"type":"Feature","geometry":{"type":"Point","coordinates":[138.16577,36.63384]},"properties":{"price":29900,"use":"長野","zone":"","station":"住宅"}},{"type":"Feature","geometry":{"type":"Point","coordinates":[138.22325,36.65654]},"properties":{"price":58300,"use":"長野","zone":"","station":"住宅"}},{"type":"Feature","geometry":{"type":"Point","coordinates":[138.19563,36.66618]},"properties":{"price":42000,"use":"長野","zone":"","station":"住宅"}},{"type":"Feature","geometry":{"type":"Point","coordinates":[138.13344,36.583]},"properties":{"price":48400,"use":"長野","zone":"","station":"住宅"}},{"type":"Feature","geometry":{"type":"Point","coordinates":[138.20477,36.56797]},"properties":{"price":30000,"use":"長野","zone":"","station":"住宅"}},{"type":"Feature","geometry":{"type":"Point","coordinates":[138.23677,36.67918]},"properties":{"price":54900,"use":"長野","zone":"","station":"住宅"}},{"type":"Feature","geometry":{"type":"Point","coordinates":[138.18925,36.64036]},"properties":{"price":135000,"use":"長野","zone":"","station":"住宅"}},{"type":"Feature","geometry":{"type":"Point","coordinates":[138.19147,36.65246]},"properties":{"price":132000,"use":"長野","zone":"","station":"店舗兼事務所"}},{"type":"Feature","geometry":{"type":"Point","coordinates":[138.18757,36.64407]},"properties":{"price":360000,"use":"長野","zone":"","station":"店舗兼ホテル"}},{"type":"Feature","geometry":{"type":"Point","coordinates":[138.22077,36.67535]},"properties":{"price":68300,"use":"長野","zone":"","station":"店舗兼事務所"}},{"type":"Feature","geometry":{"type":"Point","coordinates":[138.19605,36.65413]},"properties":{"price":91600,"use":"長野","zone":"","station":"事務所"}},{"type":"Feature","geometry":{"type":"Point","coordinates":[138.1939,36.64927]},"properties":{"price":105000,"use":"長野","zone":"","station":"空地"}},{"type":"Feature","geometry":{"type":"Point","coordinates":[138.13955,36.57746]},"properties":{"price":59700,"use":"長野","zone":"","station":"店舗"}},{"type":"Feature","geometry":{"type":"Point","coordinates":[138.18261,36.65027]},"properties":{"price":137000,"use":"長野","zone":"","station":"事務所"}},{"type":"Feature","geometry":{"type":"Point","coordinates":[138.18523,36.6442]},"properties":{"price":170000,"use":"長野","zone":"","station":"事務所"}},{"type":"Feature","geometry":{"type":"Point","coordinates":[138.187,36.64598]},"properties":{"price":206000,"use":"長野","zone":"","station":"店舗"}},{"type":"Feature","geometry":{"type":"Point","coordinates":[138.19741,36.64189]},"properties":{"price":117000,"use":"長野","zone":"","station":"店舗兼事務所"}},{"type":"Feature","geometry":{"type":"Point","coordinates":[138.18568,36.64556]},"properties":{"price":102000,"use":"長野","zone":"","station":"店舗兼住宅"}},{"type":"Feature","geometry":{"type":"Point","coordinates":[138.1886,36.64752]},"properties":{"price":160000,"use":"長野","zone":"","station":"ホテル兼店舗"}},{"type":"Feature","geometry":{"type":"Point","coordinates":[138.18932,36.64449]},"properties":{"price":179000,"use":"長野","zone":"","station":"店舗"}},{"type":"Feature","geometry":{"type":"Point","coordinates":[138.2058,36.64845]},"properties":{"price":68600,"use":"長野","zone":"","station":"店舗"}},{"type":"Feature","geometry":{"type":"Point","coordinates":[138.18599,36.65118]},"properties":{"price":96900,"use":"長野","zone":"","station":"事務所"}},{"type":"Feature","geometry":{"type":"Point","coordinates":[138.25203,36.65806]},"properties":{"price":57600,"use":"長野","zone":"","station":"銀行"}},{"type":"Feature","geometry":{"type":"Point","coordinates":[138.16861,36.60317]},"properties":{"price":70100,"use":"長野","zone":"","station":"空地"}},{"type":"Feature","geometry":{"type":"Point","coordinates":[138.22055,36.66857]},"properties":{"price":66600,"use":"長野","zone":"","station":"店舗兼共同住宅"}},{"type":"Feature","geometry":{"type":"Point","coordinates":[138.20024,36.65191]},"properties":{"price":74600,"use":"長野","zone":"","station":"事務所"}},{"type":"Feature","geometry":{"type":"Point","coordinates":[138.21028,36.63823]},"properties":{"price":61400,"use":"長野","zone":"","station":"店舗"}},{"type":"Feature","geometry":{"type":"Point","coordinates":[138.17616,36.6137]},"properties":{"price":67500,"use":"長野","zone":"","station":"店舗"}},{"type":"Feature","geometry":{"type":"Point","coordinates":[138.21936,36.65394]},"properties":{"price":64200,"use":"長野","zone":"","station":"店舗兼事務所"}},{"type":"Feature","geometry":{"type":"Point","coordinates":[138.27555,36.71151]},"properties":{"price":38500,"use":"長野","zone":"","station":"店舗兼住宅"}},{"type":"Feature","geometry":{"type":"Point","coordinates":[138.19092,36.64082]},"properties":{"price":153000,"use":"長野","zone":"","station":"店舗兼共同住宅"}},{"type":"Feature","geometry":{"type":"Point","coordinates":[138.14058,36.58841]},"properties":{"price":14800,"use":"長野","zone":"","station":"工場"}},{"type":"Feature","geometry":{"type":"Point","coordinates":[138.26155,36.67093]},"properties":{"price":30400,"use":"長野","zone":"","station":"倉庫兼事務所"}},{"type":"Feature","geometry":{"type":"Point","coordinates":[137.96105,36.24127]},"properties":{"price":74600,"use":"松本","zone":"","station":"住宅"}},{"type":"Feature","geometry":{"type":"Point","coordinates":[137.9701,36.24786]},"properties":{"price":74600,"use":"松本","zone":"","station":"住宅"}},{"type":"Feature","geometry":{"type":"Point","coordinates":[137.9777,36.23185]},"properties":{"price":81200,"use":"松本","zone":"","station":"住宅"}},{"type":"Feature","geometry":{"type":"Point","coordinates":[137.94483,36.24846]},"properties":{"price":51100,"use":"松本","zone":"","station":"住宅"}},{"type":"Feature","geometry":{"type":"Point","coordinates":[137.96737,36.24064]},"properties":{"price":89700,"use":"松本","zone":"","station":"住宅"}},{"type":"Feature","geometry":{"type":"Point","coordinates":[137.96851,36.21923]},"properties":{"price":63700,"use":"松本","zone":"","station":"住宅"}},{"type":"Feature","geometry":{"type":"Point","coordinates":[137.96276,36.22867]},"properties":{"price":72200,"use":"松本","zone":"","station":"住宅"}},{"type":"Feature","geometry":{"type":"Point","coordinates":[137.9809,36.22024]},"properties":{"price":66000,"use":"松本","zone":"","station":"住宅"}},{"type":"Feature","geometry":{"type":"Point","coordinates":[137.94934,36.21737]},"properties":{"price":63300,"use":"松本","zone":"","station":"住宅"}},{"type":"Feature","geometry":{"type":"Point","coordinates":[137.85077,36.212]},"properties":{"price":12300,"use":"松本","zone":"","station":"住宅"}},{"type":"Feature","geometry":{"type":"Point","coordinates":[137.9812,36.23614]},"properties":{"price":76500,"use":"松本","zone":"","station":"住宅"}},{"type":"Feature","geometry":{"type":"Point","coordinates":[138.00142,36.24556]},"properties":{"price":44200,"use":"松本","zone":"","station":"住宅"}},{"type":"Feature","geometry":{"type":"Point","coordinates":[137.97514,36.26385]},"properties":{"price":52300,"use":"松本","zone":"","station":"住宅"}},{"type":"Feature","geometry":{"type":"Point","coordinates":[137.93382,36.18192]},"properties":{"price":43200,"use":"松本","zone":"","station":"住宅"}},{"type":"Feature","geometry":{"type":"Point","coordinates":[137.86041,36.20133]},"properties":{"price":32900,"use":"松本","zone":"","station":"住宅"}},{"type":"Feature","geometry":{"type":"Point","coordinates":[137.98973,36.17776]},"properties":{"price":39000,"use":"松本","zone":"","station":"住宅"}},{"type":"Feature","geometry":{"type":"Point","coordinates":[137.97525,36.19771]},"properties":{"price":21300,"use":"松本","zone":"","station":"住宅"}},{"type":"Feature","geometry":{"type":"Point","coordinates":[137.98741,36.25445]},"properties":{"price":57600,"use":"松本","zone":"","station":"住宅"}},{"type":"Feature","geometry":{"type":"Point","coordinates":[137.94463,36.24001]},"properties":{"price":54100,"use":"松本","zone":"","station":"住宅"}},{"type":"Feature","geometry":{"type":"Point","coordinates":[137.88851,36.24212]},"properties":{"price":31600,"use":"松本","zone":"","station":"住宅"}},{"type":"Feature","geometry":{"type":"Point","coordinates":[137.84175,36.1964]},"properties":{"price":17200,"use":"松本","zone":"","station":"住宅"}},{"type":"Feature","geometry":{"type":"Point","coordinates":[137.97099,36.19709]},"properties":{"price":52200,"use":"松本","zone":"","station":"住宅"}},{"type":"Feature","geometry":{"type":"Point","coordinates":[137.98493,36.24267]},"properties":{"price":67500,"use":"松本","zone":"","station":"住宅"}},{"type":"Feature","geometry":{"type":"Point","coordinates":[137.95138,36.19801]},"properties":{"price":48900,"use":"松本","zone":"","station":"住宅"}},{"type":"Feature","geometry":{"type":"Point","coordinates":[137.96124,36.2524]},"properties":{"price":51800,"use":"松本","zone":"","station":"住宅"}},{"type":"Feature","geometry":{"type":"Point","coordinates":[137.95757,36.18093]},"properties":{"price":58500,"use":"松本","zone":"","station":"住宅"}},{"type":"Feature","geometry":{"type":"Point","coordinates":[137.91721,36.20489]},"properties":{"price":17200,"use":"松本","zone":"","station":"住宅"}},{"type":"Feature","geometry":{"type":"Point","coordinates":[137.99803,36.29043]},"properties":{"price":11300,"use":"松本","zone":"","station":"住宅"}},{"type":"Feature","geometry":{"type":"Point","coordinates":[137.98725,36.15956]},"properties":{"price":13100,"use":"松本","zone":"","station":"住宅"}},{"type":"Feature","geometry":{"type":"Point","coordinates":[137.91463,36.22088]},"properties":{"price":23100,"use":"松本","zone":"","station":"住宅"}},{"type":"Feature","geometry":{"type":"Point","coordinates":[137.91709,36.15963]},"properties":{"price":30800,"use":"松本","zone":"","station":"住宅"}},{"type":"Feature","geometry":{"type":"Point","coordinates":[137.98378,36.20156]},"properties":{"price":35000,"use":"松本","zone":"","station":"住宅"}},{"type":"Feature","geometry":{"type":"Point","coordinates":[137.96946,36.20766]},"properties":{"price":67500,"use":"松本","zone":"","station":"共同住宅"}},{"type":"Feature","geometry":{"type":"Point","coordinates":[137.95459,36.22686]},"properties":{"price":67400,"use":"松本","zone":"","station":"住宅"}},{"type":"Feature","geometry":{"type":"Point","coordinates":[137.8594,36.20293]},"properties":{"price":30000,"use":"松本","zone":"","station":"店舗兼住宅"}},{"type":"Feature","geometry":{"type":"Point","coordinates":[137.96567,36.23007]},"properties":{"price":235000,"use":"松本","zone":"","station":"店舗兼事務所"}},{"type":"Feature","geometry":{"type":"Point","coordinates":[137.97416,36.23135]},"properties":{"price":106000,"use":"松本","zone":"","station":"店舗、事務所兼住宅"}},{"type":"Feature","geometry":{"type":"Point","coordinates":[137.96918,36.22781]},"properties":{"price":120000,"use":"松本","zone":"","station":"店舗兼事務所"}},{"type":"Feature","geometry":{"type":"Point","coordinates":[137.97349,36.24289]},"properties":{"price":70200,"use":"松本","zone":"","station":"事務所"}},{"type":"Feature","geometry":{"type":"Point","coordinates":[137.99012,36.26291]},"properties":{"price":46600,"use":"松本","zone":"","station":"店舗兼住宅"}},{"type":"Feature","geometry":{"type":"Point","coordinates":[137.968,36.2304]},"properties":{"price":148000,"use":"松本","zone":"","station":"店舗兼共同住宅"}},{"type":"Feature","geometry":{"type":"Point","coordinates":[137.9602,36.17474]},"properties":{"price":60900,"use":"松本","zone":"","station":"店舗兼事務所"}},{"type":"Feature","geometry":{"type":"Point","coordinates":[137.96689,36.23195]},"properties":{"price":222000,"use":"松本","zone":"","station":"店舗兼事務所"}},{"type":"Feature","geometry":{"type":"Point","coordinates":[137.96976,36.23365]},"properties":{"price":117000,"use":"松本","zone":"","station":"店舗兼住宅"}},{"type":"Feature","geometry":{"type":"Point","coordinates":[137.95535,36.23138]},"properties":{"price":76700,"use":"松本","zone":"","station":"店舗兼事務所"}},{"type":"Feature","geometry":{"type":"Point","coordinates":[137.96012,36.21708]},"properties":{"price":70300,"use":"松本","zone":"","station":"事務所"}},{"type":"Feature","geometry":{"type":"Point","coordinates":[137.97296,36.2169]},"properties":{"price":68700,"use":"松本","zone":"","station":"店舗兼住宅"}},{"type":"Feature","geometry":{"type":"Point","coordinates":[137.96406,36.18617]},"properties":{"price":70200,"use":"松本","zone":"","station":"店舗"}},{"type":"Feature","geometry":{"type":"Point","coordinates":[137.89069,36.23738]},"properties":{"price":38100,"use":"松本","zone":"","station":"店舗兼住宅"}},{"type":"Feature","geometry":{"type":"Point","coordinates":[137.97941,36.23293]},"properties":{"price":97900,"use":"松本","zone":"","station":"店舗"}},{"type":"Feature","geometry":{"type":"Point","coordinates":[137.97017,36.2325]},"properties":{"price":79200,"use":"松本","zone":"","station":"店舗兼倉庫"}},{"type":"Feature","geometry":{"type":"Point","coordinates":[137.96295,36.22533]},"properties":{"price":74600,"use":"松本","zone":"","station":"店舗兼共同住宅"}},{"type":"Feature","geometry":{"type":"Point","coordinates":[137.93591,36.20217]},"properties":{"price":23700,"use":"松本","zone":"","station":"工場"}},{"type":"Feature","geometry":{"type":"Point","coordinates":[138.24163,36.41377]},"properties":{"price":39600,"use":"上田","zone":"","station":"住宅"}},{"type":"Feature","geometry":{"type":"Point","coordinates":[138.24894,36.39989]},"properties":{"price":64200,"use":"上田","zone":"","station":"住宅"}},{"type":"Feature","geometry":{"type":"Point","coordinates":[138.23557,36.3901]},"properties":{"price":39200,"use":"上田","zone":"","station":"住宅"}},{"type":"Feature","geometry":{"type":"Point","coordinates":[138.24772,36.41068]},"properties":{"price":46100,"use":"上田","zone":"","station":"住宅"}},{"type":"Feature","geometry":{"type":"Point","coordinates":[138.23746,36.40883]},"properties":{"price":42900,"use":"上田","zone":"","station":"住宅"}},{"type":"Feature","geometry":{"type":"Point","coordinates":[138.23475,36.41491]},"properties":{"price":32800,"use":"上田","zone":"","station":"住宅"}},{"type":"Feature","geometry":{"type":"Point","coordinates":[138.26949,36.38931]},"properties":{"price":39000,"use":"上田","zone":"","station":"住宅"}},{"type":"Feature","geometry":{"type":"Point","coordinates":[138.22316,36.3937]},"properties":{"price":36000,"use":"上田","zone":"","station":"住宅"}},{"type":"Feature","geometry":{"type":"Point","coordinates":[138.27453,36.32187]},"properties":{"price":23300,"use":"上田","zone":"","station":"住宅"}},{"type":"Feature","geometry":{"type":"Point","coordinates":[138.269,36.35123]},"properties":{"price":18600,"use":"上田","zone":"","station":"住宅"}},{"type":"Feature","geometry":{"type":"Point","coordinates":[138.25055,36.39803]},"properties":{"price":108000,"use":"上田","zone":"","station":"店舗"}},{"type":"Feature","geometry":{"type":"Point","coordinates":[138.25566,36.40084]},"properties":{"price":53000,"use":"上田","zone":"","station":"店舗兼住宅"}},{"type":"Feature","geometry":{"type":"Point","coordinates":[138.24941,36.40789]},"properties":{"price":54300,"use":"上田","zone":"","station":"事務所"}},{"type":"Feature","geometry":{"type":"Point","coordinates":[138.26537,36.4104]},"properties":{"price":42100,"use":"上田","zone":"","station":"事務所兼作業所"}},{"type":"Feature","geometry":{"type":"Point","coordinates":[138.26986,36.32611]},"properties":{"price":24600,"use":"上田","zone":"","station":"店舗"}},{"type":"Feature","geometry":{"type":"Point","coordinates":[138.23723,36.36137]},"properties":{"price":10300,"use":"上田","zone":"","station":"工場"}},{"type":"Feature","geometry":{"type":"Point","coordinates":[138.04802,36.07008]},"properties":{"price":41000,"use":"岡谷","zone":"","station":"住宅"}},{"type":"Feature","geometry":{"type":"Point","coordinates":[138.0596,36.06629]},"properties":{"price":39300,"use":"岡谷","zone":"","station":"住宅"}},{"type":"Feature","geometry":{"type":"Point","coordinates":[138.05084,36.05728]},"properties":{"price":40500,"use":"岡谷","zone":"","station":"住宅"}},{"type":"Feature","geometry":{"type":"Point","coordinates":[138.0496,36.06227]},"properties":{"price":40300,"use":"岡谷","zone":"","station":"店舗兼住宅"}},{"type":"Feature","geometry":{"type":"Point","coordinates":[138.051,36.06975]},"properties":{"price":42800,"use":"岡谷","zone":"","station":"店舗兼住宅"}},{"type":"Feature","geometry":{"type":"Point","coordinates":[138.05762,36.06083]},"properties":{"price":46400,"use":"岡谷","zone":"","station":"店舗兼住宅"}},{"type":"Feature","geometry":{"type":"Point","coordinates":[137.84526,35.49648]},"properties":{"price":27600,"use":"飯田","zone":"","station":"住宅"}},{"type":"Feature","geometry":{"type":"Point","coordinates":[137.83559,35.52021]},"properties":{"price":29900,"use":"飯田","zone":"","station":"住宅"}},{"type":"Feature","geometry":{"type":"Point","coordinates":[137.84935,35.5214]},"properties":{"price":29300,"use":"飯田","zone":"","station":"住宅"}},{"type":"Feature","geometry":{"type":"Point","coordinates":[137.78989,35.50074]},"properties":{"price":21700,"use":"飯田","zone":"","station":"住宅"}},{"type":"Feature","geometry":{"type":"Point","coordinates":[137.81353,35.45551]},"properties":{"price":12000,"use":"飯田","zone":"","station":"住宅"}},{"type":"Feature","geometry":{"type":"Point","coordinates":[137.82292,35.51805]},"properties":{"price":59600,"use":"飯田","zone":"","station":"店舗兼住宅"}},{"type":"Feature","geometry":{"type":"Point","coordinates":[137.83999,35.49678]},"properties":{"price":31400,"use":"飯田","zone":"","station":"店舗兼住宅"}},{"type":"Feature","geometry":{"type":"Point","coordinates":[137.81443,35.51952]},"properties":{"price":41400,"use":"飯田","zone":"","station":"店舗兼住宅"}},{"type":"Feature","geometry":{"type":"Point","coordinates":[137.80118,35.50417]},"properties":{"price":60600,"use":"飯田","zone":"","station":"事務所"}},{"type":"Feature","geometry":{"type":"Point","coordinates":[137.84171,35.51707]},"properties":{"price":37300,"use":"飯田","zone":"","station":"店舗兼住宅"}},{"type":"Feature","geometry":{"type":"Point","coordinates":[138.11708,36.05202]},"properties":{"price":42600,"use":"諏訪","zone":"","station":"住宅"}},{"type":"Feature","geometry":{"type":"Point","coordinates":[138.11482,36.03498]},"properties":{"price":50400,"use":"諏訪","zone":"","station":"住宅"}},{"type":"Feature","geometry":{"type":"Point","coordinates":[138.12245,36.04662]},"properties":{"price":19500,"use":"諏訪","zone":"","station":"住宅"}},{"type":"Feature","geometry":{"type":"Point","coordinates":[138.119,36.04347]},"properties":{"price":48100,"use":"諏訪","zone":"","station":"事務所"}},{"type":"Feature","geometry":{"type":"Point","coordinates":[138.11625,36.04291]},"properties":{"price":40700,"use":"諏訪","zone":"","station":"店舗兼住宅"}},{"type":"Feature","geometry":{"type":"Point","coordinates":[138.11709,36.0458]},"properties":{"price":71900,"use":"諏訪","zone":"","station":"店舗"}},{"type":"Feature","geometry":{"type":"Point","coordinates":[138.31413,36.67889]},"properties":{"price":35000,"use":"須坂","zone":"","station":"住宅"}},{"type":"Feature","geometry":{"type":"Point","coordinates":[138.29987,36.64813]},"properties":{"price":45300,"use":"須坂","zone":"","station":"住宅"}},{"type":"Feature","geometry":{"type":"Point","coordinates":[138.3219,36.65433]},"properties":{"price":37300,"use":"須坂","zone":"","station":"住宅"}},{"type":"Feature","geometry":{"type":"Point","coordinates":[138.28854,36.65529]},"properties":{"price":42300,"use":"須坂","zone":"","station":"住宅"}},{"type":"Feature","geometry":{"type":"Point","coordinates":[138.30646,36.62883]},"properties":{"price":12700,"use":"須坂","zone":"","station":"住宅"}},{"type":"Feature","geometry":{"type":"Point","coordinates":[138.29214,36.66634]},"properties":{"price":13300,"use":"須坂","zone":"","station":"住宅"}},{"type":"Feature","geometry":{"type":"Point","coordinates":[138.3057,36.65649]},"properties":{"price":55000,"use":"須坂","zone":"","station":"店舗兼住宅"}},{"type":"Feature","geometry":{"type":"Point","coordinates":[138.29083,36.65446]},"properties":{"price":41900,"use":"須坂","zone":"","station":"店舗兼住宅"}},{"type":"Feature","geometry":{"type":"Point","coordinates":[138.27371,36.63676]},"properties":{"price":44200,"use":"須坂","zone":"","station":"店舗"}},{"type":"Feature","geometry":{"type":"Point","coordinates":[138.30784,36.67701]},"properties":{"price":12100,"use":"須坂","zone":"","station":"工場"}},{"type":"Feature","geometry":{"type":"Point","coordinates":[138.4286,36.32692]},"properties":{"price":25300,"use":"小諸","zone":"","station":"住宅"}},{"type":"Feature","geometry":{"type":"Point","coordinates":[138.43727,36.31466]},"properties":{"price":20200,"use":"小諸","zone":"","station":"住宅"}},{"type":"Feature","geometry":{"type":"Point","coordinates":[138.42019,36.32637]},"properties":{"price":25500,"use":"小諸","zone":"","station":"住宅"}},{"type":"Feature","geometry":{"type":"Point","coordinates":[138.42424,36.32773]},"properties":{"price":36900,"use":"小諸","zone":"","station":"店舗"}},{"type":"Feature","geometry":{"type":"Point","coordinates":[138.45325,36.29212]},"properties":{"price":10300,"use":"小諸","zone":"","station":"工場"}},{"type":"Feature","geometry":{"type":"Point","coordinates":[137.96483,35.83051]},"properties":{"price":29200,"use":"伊那","zone":"","station":"住宅"}},{"type":"Feature","geometry":{"type":"Point","coordinates":[137.95765,35.84924]},"properties":{"price":25600,"use":"伊那","zone":"","station":"住宅"}},{"type":"Feature","geometry":{"type":"Point","coordinates":[138.05401,35.83876]},"properties":{"price":11800,"use":"伊那","zone":"","station":"住宅"}},{"type":"Feature","geometry":{"type":"Point","coordinates":[137.96037,35.84011]},"properties":{"price":43000,"use":"伊那","zone":"","station":"店舗兼住宅"}},{"type":"Feature","geometry":{"type":"Point","coordinates":[137.95794,35.84115]},"properties":{"price":28200,"use":"伊那","zone":"","station":"店舗兼住宅"}},{"type":"Feature","geometry":{"type":"Point","coordinates":[138.05556,35.83675]},"properties":{"price":17500,"use":"伊那","zone":"","station":"店舗兼住宅"}},{"type":"Feature","geometry":{"type":"Point","coordinates":[137.93148,35.7143]},"properties":{"price":16900,"use":"駒ケ根","zone":"","station":"住宅"}},{"type":"Feature","geometry":{"type":"Point","coordinates":[137.93242,35.74046]},"properties":{"price":25100,"use":"駒ケ根","zone":"","station":"住宅"}},{"type":"Feature","geometry":{"type":"Point","coordinates":[137.93536,35.736]},"properties":{"price":34200,"use":"駒ケ根","zone":"","station":"店舗兼住宅"}},{"type":"Feature","geometry":{"type":"Point","coordinates":[137.93682,35.73957]},"properties":{"price":25700,"use":"駒ケ根","zone":"","station":"事務所兼住宅"}},{"type":"Feature","geometry":{"type":"Point","coordinates":[137.93947,35.72535]},"properties":{"price":31100,"use":"駒ケ根","zone":"","station":"店舗"}},{"type":"Feature","geometry":{"type":"Point","coordinates":[138.37736,36.74533]},"properties":{"price":35800,"use":"信州中野","zone":"","station":"共同住宅"}},{"type":"Feature","geometry":{"type":"Point","coordinates":[138.37846,36.75067]},"properties":{"price":31400,"use":"信州中野","zone":"","station":"住宅"}},{"type":"Feature","geometry":{"type":"Point","coordinates":[138.36757,36.75336]},"properties":{"price":33500,"use":"信州中野","zone":"","station":"住宅"}},{"type":"Feature","geometry":{"type":"Point","coordinates":[138.37091,36.74399]},"properties":{"price":44300,"use":"信州中野","zone":"","station":"店舗兼住宅"}},{"type":"Feature","geometry":{"type":"Point","coordinates":[138.36969,36.74617]},"properties":{"price":37000,"use":"信州中野","zone":"","station":"住宅兼倉庫"}},{"type":"Feature","geometry":{"type":"Point","coordinates":[137.85446,36.50464]},"properties":{"price":18700,"use":"大町","zone":"","station":"住宅"}},{"type":"Feature","geometry":{"type":"Point","coordinates":[137.84339,36.51282]},"properties":{"price":11800,"use":"大町","zone":"","station":"住宅"}},{"type":"Feature","geometry":{"type":"Point","coordinates":[137.85163,36.49782]},"properties":{"price":13800,"use":"大町","zone":"","station":"住宅"}},{"type":"Feature","geometry":{"type":"Point","coordinates":[137.8606,36.50211]},"properties":{"price":20500,"use":"大町","zone":"","station":"店舗"}},{"type":"Feature","geometry":{"type":"Point","coordinates":[137.85866,36.50382]},"properties":{"price":20000,"use":"大町","zone":"","station":"店舗兼住宅"}},{"type":"Feature","geometry":{"type":"Point","coordinates":[137.85088,36.48114]},"properties":{"price":14400,"use":"大町","zone":"","station":"診療所"}},{"type":"Feature","geometry":{"type":"Point","coordinates":[138.35773,36.84204]},"properties":{"price":25700,"use":"飯山","zone":"","station":"住宅"}},{"type":"Feature","geometry":{"type":"Point","coordinates":[138.3568,36.85062]},"properties":{"price":19600,"use":"飯山","zone":"","station":"住宅"}},{"type":"Feature","geometry":{"type":"Point","coordinates":[138.3833,36.85428]},"properties":{"price":11000,"use":"飯山","zone":"","station":"住宅"}},{"type":"Feature","geometry":{"type":"Point","coordinates":[138.36328,36.85267]},"properties":{"price":25500,"use":"飯山","zone":"","station":"店舗兼住宅"}},{"type":"Feature","geometry":{"type":"Point","coordinates":[138.14954,35.99297]},"properties":{"price":38500,"use":"茅野","zone":"","station":"住宅"}},{"type":"Feature","geometry":{"type":"Point","coordinates":[138.15683,35.99545]},"properties":{"price":43600,"use":"茅野","zone":"","station":"住宅"}},{"type":"Feature","geometry":{"type":"Point","coordinates":[138.15856,35.99504]},"properties":{"price":50500,"use":"茅野","zone":"","station":"店舗兼住宅"}},{"type":"Feature","geometry":{"type":"Point","coordinates":[138.16295,35.99836]},"properties":{"price":47200,"use":"茅野","zone":"","station":"店舗兼住宅"}},{"type":"Feature","geometry":{"type":"Point","coordinates":[138.14399,35.99574]},"properties":{"price":51200,"use":"茅野","zone":"","station":"店舗兼住宅"}},{"type":"Feature","geometry":{"type":"Point","coordinates":[137.95541,36.11438]},"properties":{"price":61000,"use":"塩尻","zone":"","station":"住宅"}},{"type":"Feature","geometry":{"type":"Point","coordinates":[137.95308,36.12633]},"properties":{"price":54200,"use":"塩尻","zone":"","station":"住宅"}},{"type":"Feature","geometry":{"type":"Point","coordinates":[137.96287,36.10702]},"properties":{"price":49600,"use":"塩尻","zone":"","station":"住宅"}},{"type":"Feature","geometry":{"type":"Point","coordinates":[137.96251,36.12329]},"properties":{"price":20700,"use":"塩尻","zone":"","station":"住宅"}},{"type":"Feature","geometry":{"type":"Point","coordinates":[137.97276,36.13536]},"properties":{"price":13200,"use":"塩尻","zone":"","station":"住宅"}},{"type":"Feature","geometry":{"type":"Point","coordinates":[137.96276,36.17101]},"properties":{"price":55700,"use":"塩尻","zone":"","station":"住宅"}},{"type":"Feature","geometry":{"type":"Point","coordinates":[137.9821,36.09342]},"properties":{"price":15000,"use":"塩尻","zone":"","station":"住宅"}},{"type":"Feature","geometry":{"type":"Point","coordinates":[137.95897,36.13319]},"properties":{"price":50200,"use":"塩尻","zone":"","station":"住宅"}},{"type":"Feature","geometry":{"type":"Point","coordinates":[137.95092,36.1119]},"properties":{"price":60800,"use":"塩尻","zone":"","station":"店舗兼住宅"}},{"type":"Feature","geometry":{"type":"Point","coordinates":[138.47403,36.23721]},"properties":{"price":29400,"use":"佐久","zone":"","station":"住宅"}},{"type":"Feature","geometry":{"type":"Point","coordinates":[138.46873,36.22518]},"properties":{"price":30700,"use":"佐久","zone":"","station":"住宅"}},{"type":"Feature","geometry":{"type":"Point","coordinates":[138.48216,36.26964]},"properties":{"price":32200,"use":"佐久","zone":"","station":"住宅"}},{"type":"Feature","geometry":{"type":"Point","coordinates":[138.48028,36.18702]},"properties":{"price":23500,"use":"佐久","zone":"","station":"住宅"}},{"type":"Feature","geometry":{"type":"Point","coordinates":[138.47812,36.27253]},"properties":{"price":37600,"use":"佐久","zone":"","station":"店舗兼住宅"}},{"type":"Feature","geometry":{"type":"Point","coordinates":[138.47939,36.19794]},"properties":{"price":26000,"use":"佐久","zone":"","station":"店舗"}},{"type":"Feature","geometry":{"type":"Point","coordinates":[138.46747,36.2532]},"properties":{"price":37400,"use":"佐久","zone":"","station":"店舗"}},{"type":"Feature","geometry":{"type":"Point","coordinates":[138.46805,36.27766]},"properties":{"price":91500,"use":"佐久","zone":"","station":"店舗"}},{"type":"Feature","geometry":{"type":"Point","coordinates":[138.4612,36.27984]},"properties":{"price":59600,"use":"佐久","zone":"","station":"店舗"}},{"type":"Feature","geometry":{"type":"Point","coordinates":[138.12423,36.53009]},"properties":{"price":39900,"use":"千曲","zone":"","station":"住宅"}},{"type":"Feature","geometry":{"type":"Point","coordinates":[138.09873,36.52352]},"properties":{"price":24300,"use":"千曲","zone":"","station":"住宅"}},{"type":"Feature","geometry":{"type":"Point","coordinates":[138.14574,36.47472]},"properties":{"price":23600,"use":"千曲","zone":"","station":"住宅"}},{"type":"Feature","geometry":{"type":"Point","coordinates":[138.15243,36.49101]},"properties":{"price":28400,"use":"千曲","zone":"","station":"住宅"}},{"type":"Feature","geometry":{"type":"Point","coordinates":[138.13806,36.48814]},"properties":{"price":20000,"use":"千曲","zone":"","station":"住宅"}},{"type":"Feature","geometry":{"type":"Point","coordinates":[138.12574,36.53159]},"properties":{"price":47400,"use":"千曲","zone":"","station":"店舗"}},{"type":"Feature","geometry":{"type":"Point","coordinates":[138.15075,36.48349]},"properties":{"price":30000,"use":"千曲","zone":"","station":"店舗兼共同住宅"}},{"type":"Feature","geometry":{"type":"Point","coordinates":[138.12215,36.52896]},"properties":{"price":42000,"use":"千曲","zone":"","station":"店舗"}},{"type":"Feature","geometry":{"type":"Point","coordinates":[138.3386,36.35168]},"properties":{"price":26500,"use":"東御","zone":"","station":"住宅"}},{"type":"Feature","geometry":{"type":"Point","coordinates":[138.34593,36.36093]},"properties":{"price":27500,"use":"東御","zone":"","station":"住宅"}},{"type":"Feature","geometry":{"type":"Point","coordinates":[138.33181,36.35798]},"properties":{"price":31200,"use":"東御","zone":"","station":"店舗"}},{"type":"Feature","geometry":{"type":"Point","coordinates":[138.36276,36.3497]},"properties":{"price":24000,"use":"東御","zone":"","station":"店舗"}},{"type":"Feature","geometry":{"type":"Point","coordinates":[137.93215,36.35665]},"properties":{"price":25000,"use":"安曇野","zone":"","station":"住宅"}},{"type":"Feature","geometry":{"type":"Point","coordinates":[137.91657,36.35176]},"properties":{"price":16500,"use":"安曇野","zone":"","station":"住宅"}},{"type":"Feature","geometry":{"type":"Point","coordinates":[137.87789,36.30741]},"properties":{"price":23000,"use":"安曇野","zone":"","station":"住宅"}},{"type":"Feature","geometry":{"type":"Point","coordinates":[137.92371,36.28229]},"properties":{"price":15900,"use":"安曇野","zone":"","station":"住宅"}},{"type":"Feature","geometry":{"type":"Point","coordinates":[137.93988,36.30752]},"properties":{"price":25600,"use":"安曇野","zone":"","station":"住宅"}},{"type":"Feature","geometry":{"type":"Point","coordinates":[137.90536,36.30631]},"properties":{"price":46200,"use":"安曇野","zone":"","station":"住宅"}},{"type":"Feature","geometry":{"type":"Point","coordinates":[137.87937,36.33909]},"properties":{"price":33000,"use":"安曇野","zone":"","station":"住宅"}},{"type":"Feature","geometry":{"type":"Point","coordinates":[137.86034,36.30705]},"properties":{"price":17000,"use":"安曇野","zone":"","station":"住宅"}},{"type":"Feature","geometry":{"type":"Point","coordinates":[137.89556,36.27439]},"properties":{"price":26100,"use":"安曇野","zone":"","station":"住宅"}},{"type":"Feature","geometry":{"type":"Point","coordinates":[137.87462,36.25273]},"properties":{"price":19400,"use":"安曇野","zone":"","station":"住宅"}},{"type":"Feature","geometry":{"type":"Point","coordinates":[137.83164,36.36034]},"properties":{"price":11700,"use":"安曇野","zone":"","station":"住宅"}},{"type":"Feature","geometry":{"type":"Point","coordinates":[137.92962,36.35401]},"properties":{"price":29000,"use":"安曇野","zone":"","station":"店舗兼住宅"}},{"type":"Feature","geometry":{"type":"Point","coordinates":[137.90251,36.30062]},"properties":{"price":43600,"use":"安曇野","zone":"","station":"店舗"}},{"type":"Feature","geometry":{"type":"Point","coordinates":[137.89839,36.25539]},"properties":{"price":31900,"use":"安曇野","zone":"","station":"店舗兼住宅"}},{"type":"Feature","geometry":{"type":"Point","coordinates":[137.88258,36.34009]},"properties":{"price":44500,"use":"安曇野","zone":"","station":"診療所"}},{"type":"Feature","geometry":{"type":"Point","coordinates":[137.9169,36.30107]},"properties":{"price":48800,"use":"安曇野","zone":"","station":"店舗"}},{"type":"Feature","geometry":{"type":"Point","coordinates":[137.93533,36.27314]},"properties":{"price":16100,"use":"安曇野","zone":"","station":"工場"}},{"type":"Feature","geometry":{"type":"Point","coordinates":[138.47223,36.11998]},"properties":{"price":11900,"use":"小海","zone":"","station":"住宅"}},{"type":"Feature","geometry":{"type":"Point","coordinates":[138.48193,36.08115]},"properties":{"price":14900,"use":"小海","zone":"","station":"住宅"}},{"type":"Feature","geometry":{"type":"Point","coordinates":[138.48288,36.09541]},"properties":{"price":22700,"use":"小海","zone":"","station":"店舗兼住宅"}},{"type":"Feature","geometry":{"type":"Point","coordinates":[138.61817,36.3365]},"properties":{"price":90500,"use":"軽井沢","zone":"","station":"別荘"}},{"type":"Feature","geometry":{"type":"Point","coordinates":[138.60095,36.31546]},"properties":{"price":21200,"use":"軽井沢","zone":"","station":"別荘"}},{"type":"Feature","geometry":{"type":"Point","coordinates":[138.62929,36.35815]},"properties":{"price":149000,"use":"軽井沢","zone":"","station":"保養所"}},{"type":"Feature","geometry":{"type":"Point","coordinates":[138.62916,36.31739]},"properties":{"price":33800,"use":"軽井沢","zone":"","station":"別荘"}},{"type":"Feature","geometry":{"type":"Point","coordinates":[138.55737,36.35338]},"properties":{"price":20800,"use":"軽井沢","zone":"","station":"別荘"}},{"type":"Feature","geometry":{"type":"Point","coordinates":[138.61477,36.36801]},"properties":{"price":18000,"use":"軽井沢","zone":"","station":"別荘"}},{"type":"Feature","geometry":{"type":"Point","coordinates":[138.63452,36.35088]},"properties":{"price":179000,"use":"軽井沢","zone":"","station":"店舗兼共同住宅"}},{"type":"Feature","geometry":{"type":"Point","coordinates":[138.63002,36.32949]},"properties":{"price":72900,"use":"軽井沢","zone":"","station":"店舗"}},{"type":"Feature","geometry":{"type":"Point","coordinates":[138.5126,36.32593]},"properties":{"price":19400,"use":"御代田","zone":"","station":"住宅"}},{"type":"Feature","geometry":{"type":"Point","coordinates":[138.49363,36.32183]},"properties":{"price":13900,"use":"御代田","zone":"","station":"住宅"}},{"type":"Feature","geometry":{"type":"Point","coordinates":[138.51376,36.30938]},"properties":{"price":21400,"use":"御代田","zone":"","station":"住宅"}},{"type":"Feature","geometry":{"type":"Point","coordinates":[138.50673,36.31808]},"properties":{"price":28300,"use":"御代田","zone":"","station":"店舗"}},{"type":"Feature","geometry":{"type":"Point","coordinates":[138.08734,36.07394]},"properties":{"price":38900,"use":"下諏訪","zone":"","station":"住宅"}},{"type":"Feature","geometry":{"type":"Point","coordinates":[138.08393,36.06769]},"properties":{"price":43400,"use":"下諏訪","zone":"","station":"住宅"}},{"type":"Feature","geometry":{"type":"Point","coordinates":[138.09246,36.06759]},"properties":{"price":46600,"use":"下諏訪","zone":"","station":"店舗兼住宅"}},{"type":"Feature","geometry":{"type":"Point","coordinates":[138.2414,35.91838]},"properties":{"price":20000,"use":"長野富士見","zone":"","station":"住宅"}},{"type":"Feature","geometry":{"type":"Point","coordinates":[138.24017,35.90981]},"properties":{"price":19800,"use":"長野富士見","zone":"","station":"住宅"}},{"type":"Feature","geometry":{"type":"Point","coordinates":[138.23804,35.91125]},"properties":{"price":24800,"use":"長野富士見","zone":"","station":"店舗兼住宅"}},{"type":"Feature","geometry":{"type":"Point","coordinates":[137.99005,35.98623]},"properties":{"price":13600,"use":"辰野","zone":"","station":"住宅"}},{"type":"Feature","geometry":{"type":"Point","coordinates":[137.99498,35.98039]},"properties":{"price":21000,"use":"辰野","zone":"","station":"住宅"}},{"type":"Feature","geometry":{"type":"Point","coordinates":[137.99614,35.98243]},"properties":{"price":23900,"use":"辰野","zone":"","station":"店舗兼住宅"}},{"type":"Feature","geometry":{"type":"Point","coordinates":[137.97934,35.90251]},"properties":{"price":18400,"use":"箕輪","zone":"","station":"住宅"}},{"type":"Feature","geometry":{"type":"Point","coordinates":[137.98435,35.90958]},"properties":{"price":23800,"use":"箕輪","zone":"","station":"住宅"}},{"type":"Feature","geometry":{"type":"Point","coordinates":[137.98582,35.91253]},"properties":{"price":25800,"use":"箕輪","zone":"","station":"店舗兼住宅"}},{"type":"Feature","geometry":{"type":"Point","coordinates":[137.92384,35.67623]},"properties":{"price":12300,"use":"飯島","zone":"","station":"住宅"}},{"type":"Feature","geometry":{"type":"Point","coordinates":[137.90141,35.65397]},"properties":{"price":8070,"use":"飯島","zone":"","station":"住宅"}},{"type":"Feature","geometry":{"type":"Point","coordinates":[137.9265,35.67797]},"properties":{"price":19200,"use":"飯島","zone":"","station":"店舗兼住宅"}},{"type":"Feature","geometry":{"type":"Point","coordinates":[137.96992,35.86707]},"properties":{"price":18100,"use":"南箕輪","zone":"","station":"住宅"}},{"type":"Feature","geometry":{"type":"Point","coordinates":[137.94639,35.85521]},"properties":{"price":18600,"use":"南箕輪","zone":"","station":"住宅"}},{"type":"Feature","geometry":{"type":"Point","coordinates":[137.95471,35.89841]},"properties":{"price":11000,"use":"南箕輪","zone":"","station":"倉庫"}},{"type":"Feature","geometry":{"type":"Point","coordinates":[137.94965,35.63507]},"properties":{"price":4540,"use":"長野中川","zone":"","station":"住宅"}},{"type":"Feature","geometry":{"type":"Point","coordinates":[137.91889,35.62462]},"properties":{"price":4630,"use":"長野中川","zone":"","station":"住宅"}},{"type":"Feature","geometry":{"type":"Point","coordinates":[137.94107,35.76385]},"properties":{"price":20900,"use":"長野宮田","zone":"","station":"住宅"}},{"type":"Feature","geometry":{"type":"Point","coordinates":[137.93635,35.76331]},"properties":{"price":15100,"use":"長野宮田","zone":"","station":"住宅"}},{"type":"Feature","geometry":{"type":"Point","coordinates":[137.91408,35.5917]},"properties":{"price":19200,"use":"松川","zone":"","station":"住宅"}},{"type":"Feature","geometry":{"type":"Point","coordinates":[137.91511,35.60194]},"properties":{"price":17200,"use":"松川","zone":"","station":"住宅"}},{"type":"Feature","geometry":{"type":"Point","coordinates":[137.91613,35.59586]},"properties":{"price":21900,"use":"松川","zone":"","station":"店舗兼住宅"}},{"type":"Feature","geometry":{"type":"Point","coordinates":[137.8886,35.55673]},"properties":{"price":20100,"use":"高森","zone":"","station":"住宅"}},{"type":"Feature","geometry":{"type":"Point","coordinates":[137.86943,35.55073]},"properties":{"price":13300,"use":"高森","zone":"","station":"住宅"}},{"type":"Feature","geometry":{"type":"Point","coordinates":[137.88486,35.5502]},"properties":{"price":21500,"use":"高森","zone":"","station":"店舗兼住宅"}},{"type":"Feature","geometry":{"type":"Point","coordinates":[137.69267,35.78837]},"properties":{"price":14700,"use":"上松","zone":"","station":"住宅"}},{"type":"Feature","geometry":{"type":"Point","coordinates":[137.68887,35.7792]},"properties":{"price":10800,"use":"上松","zone":"","station":"住宅"}},{"type":"Feature","geometry":{"type":"Point","coordinates":[137.69418,35.78384]},"properties":{"price":15900,"use":"上松","zone":"","station":"店舗"}},{"type":"Feature","geometry":{"type":"Point","coordinates":[137.7014,35.85172]},"properties":{"price":21500,"use":"木曽","zone":"","station":"住宅"}},{"type":"Feature","geometry":{"type":"Point","coordinates":[137.68557,35.83675]},"properties":{"price":14300,"use":"木曽","zone":"","station":"住宅"}},{"type":"Feature","geometry":{"type":"Point","coordinates":[137.6975,35.85016]},"properties":{"price":28600,"use":"木曽","zone":"","station":"店舗兼住宅"}},{"type":"Feature","geometry":{"type":"Point","coordinates":[137.87574,36.42286]},"properties":{"price":15400,"use":"長野池田","zone":"","station":"住宅"}},{"type":"Feature","geometry":{"type":"Point","coordinates":[137.88225,36.37716]},"properties":{"price":7650,"use":"長野池田","zone":"","station":"住宅"}},{"type":"Feature","geometry":{"type":"Point","coordinates":[137.87805,36.42176]},"properties":{"price":15800,"use":"長野池田","zone":"","station":"店舗兼住宅"}},{"type":"Feature","geometry":{"type":"Point","coordinates":[137.85961,36.42479]},"properties":{"price":19100,"use":"まつかわ","zone":"","station":"住宅"}},{"type":"Feature","geometry":{"type":"Point","coordinates":[137.86683,36.40808]},"properties":{"price":15500,"use":"まつかわ","zone":"","station":"住宅"}},{"type":"Feature","geometry":{"type":"Point","coordinates":[137.84498,36.68568]},"properties":{"price":15900,"use":"白馬","zone":"","station":"住宅"}},{"type":"Feature","geometry":{"type":"Point","coordinates":[137.87066,36.69728]},"properties":{"price":7250,"use":"白馬","zone":"","station":"住宅"}},{"type":"Feature","geometry":{"type":"Point","coordinates":[137.8402,36.70039]},"properties":{"price":22400,"use":"白馬","zone":"","station":"店舗兼住宅"}},{"type":"Feature","geometry":{"type":"Point","coordinates":[138.18252,36.46565]},"properties":{"price":26800,"use":"坂城","zone":"","station":"住宅"}},{"type":"Feature","geometry":{"type":"Point","coordinates":[138.19793,36.44153]},"properties":{"price":22100,"use":"坂城","zone":"","station":"住宅"}},{"type":"Feature","geometry":{"type":"Point","coordinates":[138.18123,36.46288]},"properties":{"price":29700,"use":"坂城","zone":"","station":"店舗"}},{"type":"Feature","geometry":{"type":"Point","coordinates":[138.31926,36.69931]},"properties":{"price":45000,"use":"小布施","zone":"","station":"住宅"}},{"type":"Feature","geometry":{"type":"Point","coordinates":[138.31372,36.68937]},"properties":{"price":41000,"use":"小布施","zone":"","station":"住宅"}},{"type":"Feature","geometry":{"type":"Point","coordinates":[138.31572,36.70852]},"properties":{"price":12300,"use":"小布施","zone":"","station":"住宅"}},{"type":"Feature","geometry":{"type":"Point","coordinates":[138.31584,36.69561]},"properties":{"price":51000,"use":"小布施","zone":"","station":"店舗兼住宅"}},{"type":"Feature","geometry":{"type":"Point","coordinates":[138.41135,36.74284]},"properties":{"price":22800,"use":"山ノ内","zone":"","station":"住宅"}},{"type":"Feature","geometry":{"type":"Point","coordinates":[138.42221,36.73709]},"properties":{"price":23300,"use":"山ノ内","zone":"","station":"住宅"}},{"type":"Feature","geometry":{"type":"Point","coordinates":[138.41539,36.74136]},"properties":{"price":29000,"use":"山ノ内","zone":"","station":"店舗兼住宅"}},{"type":"Feature","geometry":{"type":"Point","coordinates":[138.45095,36.92177]},"properties":{"price":23000,"use":"野沢温泉","zone":"","station":"民宿"}},{"type":"Feature","geometry":{"type":"Point","coordinates":[138.44245,36.9158]},"properties":{"price":17300,"use":"野沢温泉","zone":"","station":"民宿"}},{"type":"Feature","geometry":{"type":"Point","coordinates":[138.2036,36.83167]},"properties":{"price":6690,"use":"信濃","zone":"","station":"住宅"}},{"type":"Feature","geometry":{"type":"Point","coordinates":[138.21372,36.79923]},"properties":{"price":10100,"use":"信濃","zone":"","station":"住宅"}},{"type":"Feature","geometry":{"type":"Point","coordinates":[138.215,36.79724]},"properties":{"price":14200,"use":"信濃","zone":"","station":"店舗"}},{"type":"Feature","geometry":{"type":"Point","coordinates":[138.25642,36.74125]},"properties":{"price":10800,"use":"飯綱","zone":"","station":"住宅"}},{"type":"Feature","geometry":{"type":"Point","coordinates":[138.2317,36.75272]},"properties":{"price":10100,"use":"飯綱","zone":"","station":"住宅"}}]}