{"type":"FeatureCollection","features":[{"type":"Feature","geometry":{"type":"Point","coordinates":[135.91198,35.10887]},"properties":{"price":62400,"use":"大津","zone":"","station":"住宅"}},{"type":"Feature","geometry":{"type":"Point","coordinates":[135.91556,35.12295]},"properties":{"price":97000,"use":"大津","zone":"","station":"住宅"}},{"type":"Feature","geometry":{"type":"Point","coordinates":[135.90057,35.09722]},"properties":{"price":41400,"use":"大津","zone":"","station":"住宅"}},{"type":"Feature","geometry":{"type":"Point","coordinates":[135.87669,35.07481]},"properties":{"price":77300,"use":"大津","zone":"","station":"住宅"}},{"type":"Feature","geometry":{"type":"Point","coordinates":[135.97299,35.25188]},"properties":{"price":16100,"use":"大津","zone":"","station":"住宅"}},{"type":"Feature","geometry":{"type":"Point","coordinates":[135.87364,35.05281]},"properties":{"price":86200,"use":"大津","zone":"","station":"住宅"}},{"type":"Feature","geometry":{"type":"Point","coordinates":[135.85598,35.0329]},"properties":{"price":96400,"use":"大津","zone":"","station":"住宅"}},{"type":"Feature","geometry":{"type":"Point","coordinates":[135.86248,35.0344]},"properties":{"price":97500,"use":"大津","zone":"","station":"住宅"}},{"type":"Feature","geometry":{"type":"Point","coordinates":[135.85956,35.02014]},"properties":{"price":72500,"use":"大津","zone":"","station":"住宅"}},{"type":"Feature","geometry":{"type":"Point","coordinates":[135.93792,34.98182]},"properties":{"price":116000,"use":"大津","zone":"","station":"住宅"}},{"type":"Feature","geometry":{"type":"Point","coordinates":[135.83001,34.99181]},"properties":{"price":98900,"use":"大津","zone":"","station":"住宅"}},{"type":"Feature","geometry":{"type":"Point","coordinates":[135.9193,35.11056]},"properties":{"price":49000,"use":"大津","zone":"","station":"住宅"}},{"type":"Feature","geometry":{"type":"Point","coordinates":[135.87485,34.99507]},"properties":{"price":119000,"use":"大津","zone":"","station":"住宅"}},{"type":"Feature","geometry":{"type":"Point","coordinates":[135.86962,35.00326]},"properties":{"price":175000,"use":"大津","zone":"","station":"住宅"}},{"type":"Feature","geometry":{"type":"Point","coordinates":[135.85623,35.00898]},"properties":{"price":104000,"use":"大津","zone":"","station":"空地"}},{"type":"Feature","geometry":{"type":"Point","coordinates":[135.86886,35.00111]},"properties":{"price":153000,"use":"大津","zone":"","station":"住宅"}},{"type":"Feature","geometry":{"type":"Point","coordinates":[135.87976,34.98925]},"properties":{"price":84400,"use":"大津","zone":"","station":"住宅"}},{"type":"Feature","geometry":{"type":"Point","coordinates":[135.9129,34.98425]},"properties":{"price":118000,"use":"大津","zone":"","station":"住宅"}},{"type":"Feature","geometry":{"type":"Point","coordinates":[135.91751,35.14516]},"properties":{"price":45700,"use":"大津","zone":"","station":"住宅"}},{"type":"Feature","geometry":{"type":"Point","coordinates":[135.89144,34.95753]},"properties":{"price":52000,"use":"大津","zone":"","station":"住宅"}},{"type":"Feature","geometry":{"type":"Point","coordinates":[135.90398,34.94124]},"properties":{"price":61600,"use":"大津","zone":"","station":"住宅"}},{"type":"Feature","geometry":{"type":"Point","coordinates":[135.9037,34.94686]},"properties":{"price":56600,"use":"大津","zone":"","station":"住宅"}},{"type":"Feature","geometry":{"type":"Point","coordinates":[135.90778,34.97089]},"properties":{"price":85400,"use":"大津","zone":"","station":"住宅"}},{"type":"Feature","geometry":{"type":"Point","coordinates":[135.91137,34.96601]},"properties":{"price":93100,"use":"大津","zone":"","station":"住宅"}},{"type":"Feature","geometry":{"type":"Point","coordinates":[135.92873,34.98384]},"properties":{"price":107000,"use":"大津","zone":"","station":"住宅"}},{"type":"Feature","geometry":{"type":"Point","coordinates":[135.91641,34.94416]},"properties":{"price":45400,"use":"大津","zone":"","station":"住宅"}},{"type":"Feature","geometry":{"type":"Point","coordinates":[135.91674,34.98822]},"properties":{"price":123000,"use":"大津","zone":"","station":"住宅"}},{"type":"Feature","geometry":{"type":"Point","coordinates":[135.93408,34.93419]},"properties":{"price":44200,"use":"大津","zone":"","station":"住宅"}},{"type":"Feature","geometry":{"type":"Point","coordinates":[135.89545,34.96763]},"properties":{"price":89500,"use":"大津","zone":"","station":"住宅"}},{"type":"Feature","geometry":{"type":"Point","coordinates":[135.9111,34.97591]},"properties":{"price":99100,"use":"大津","zone":"","station":"住宅"}},{"type":"Feature","geometry":{"type":"Point","coordinates":[135.97309,34.97545]},"properties":{"price":98000,"use":"大津","zone":"","station":"住宅"}},{"type":"Feature","geometry":{"type":"Point","coordinates":[135.89171,34.98363]},"properties":{"price":96400,"use":"大津","zone":"","station":"住宅"}},{"type":"Feature","geometry":{"type":"Point","coordinates":[135.89498,35.09999]},"properties":{"price":81500,"use":"大津","zone":"","station":"住宅"}},{"type":"Feature","geometry":{"type":"Point","coordinates":[135.92155,35.20206]},"properties":{"price":19600,"use":"大津","zone":"","station":"住宅"}},{"type":"Feature","geometry":{"type":"Point","coordinates":[135.87578,35.05536]},"properties":{"price":50500,"use":"大津","zone":"","station":"住宅"}},{"type":"Feature","geometry":{"type":"Point","coordinates":[135.83838,34.99665]},"properties":{"price":61500,"use":"大津","zone":"","station":"住宅"}},{"type":"Feature","geometry":{"type":"Point","coordinates":[135.90323,34.96902]},"properties":{"price":74900,"use":"大津","zone":"","station":"住宅"}},{"type":"Feature","geometry":{"type":"Point","coordinates":[135.89286,35.11016]},"properties":{"price":70300,"use":"大津","zone":"","station":"住宅"}},{"type":"Feature","geometry":{"type":"Point","coordinates":[135.83353,35.02935]},"properties":{"price":23800,"use":"大津","zone":"","station":"住宅"}},{"type":"Feature","geometry":{"type":"Point","coordinates":[135.87568,35.00274]},"properties":{"price":154000,"use":"大津","zone":"","station":"住宅"}},{"type":"Feature","geometry":{"type":"Point","coordinates":[135.84824,35.02613]},"properties":{"price":69300,"use":"大津","zone":"","station":"住宅"}},{"type":"Feature","geometry":{"type":"Point","coordinates":[135.91197,34.96012]},"properties":{"price":65700,"use":"大津","zone":"","station":"住宅"}},{"type":"Feature","geometry":{"type":"Point","coordinates":[135.9152,34.97013]},"properties":{"price":87200,"use":"大津","zone":"","station":"住宅"}},{"type":"Feature","geometry":{"type":"Point","coordinates":[135.86568,35.00641]},"properties":{"price":155000,"use":"大津","zone":"","station":"住宅"}},{"type":"Feature","geometry":{"type":"Point","coordinates":[135.90414,34.93335]},"properties":{"price":31500,"use":"大津","zone":"","station":"住宅"}},{"type":"Feature","geometry":{"type":"Point","coordinates":[135.92019,35.15949]},"properties":{"price":35800,"use":"大津","zone":"","station":"住宅"}},{"type":"Feature","geometry":{"type":"Point","coordinates":[135.86333,35.00721]},"properties":{"price":253000,"use":"大津","zone":"","station":"共同住宅"}},{"type":"Feature","geometry":{"type":"Point","coordinates":[135.93492,34.97298]},"properties":{"price":115000,"use":"大津","zone":"","station":"住宅"}},{"type":"Feature","geometry":{"type":"Point","coordinates":[135.877,35.14275]},"properties":{"price":17800,"use":"大津","zone":"","station":"住宅"}},{"type":"Feature","geometry":{"type":"Point","coordinates":[135.88366,35.09039]},"properties":{"price":19800,"use":"大津","zone":"","station":"住宅"}},{"type":"Feature","geometry":{"type":"Point","coordinates":[135.89435,35.13548]},"properties":{"price":27000,"use":"大津","zone":"","station":"住宅"}},{"type":"Feature","geometry":{"type":"Point","coordinates":[135.89203,34.94514]},"properties":{"price":23300,"use":"大津","zone":"","station":"住宅"}},{"type":"Feature","geometry":{"type":"Point","coordinates":[135.92355,34.9314]},"properties":{"price":22400,"use":"大津","zone":"","station":"住宅"}},{"type":"Feature","geometry":{"type":"Point","coordinates":[135.9592,34.96022]},"properties":{"price":23100,"use":"大津","zone":"","station":"住宅"}},{"type":"Feature","geometry":{"type":"Point","coordinates":[135.85347,34.9944]},"properties":{"price":41900,"use":"大津","zone":"","station":"住宅"}},{"type":"Feature","geometry":{"type":"Point","coordinates":[135.91803,35.16223]},"properties":{"price":31100,"use":"大津","zone":"","station":"住宅"}},{"type":"Feature","geometry":{"type":"Point","coordinates":[135.86583,35.04966]},"properties":{"price":99700,"use":"大津","zone":"","station":"住宅"}},{"type":"Feature","geometry":{"type":"Point","coordinates":[135.91057,35.11687]},"properties":{"price":93100,"use":"大津","zone":"","station":"住宅"}},{"type":"Feature","geometry":{"type":"Point","coordinates":[135.91935,35.11959]},"properties":{"price":91800,"use":"大津","zone":"","station":"店舗"}},{"type":"Feature","geometry":{"type":"Point","coordinates":[135.86771,35.00729]},"properties":{"price":227000,"use":"大津","zone":"","station":"事務所兼住宅"}},{"type":"Feature","geometry":{"type":"Point","coordinates":[135.86433,35.02687]},"properties":{"price":128000,"use":"大津","zone":"","station":"店舗"}},{"type":"Feature","geometry":{"type":"Point","coordinates":[135.86536,35.04886]},"properties":{"price":107000,"use":"大津","zone":"","station":"店舗兼住宅"}},{"type":"Feature","geometry":{"type":"Point","coordinates":[135.92427,35.13447]},"properties":{"price":68500,"use":"大津","zone":"","station":"店舗"}},{"type":"Feature","geometry":{"type":"Point","coordinates":[135.86592,35.00371]},"properties":{"price":366000,"use":"大津","zone":"","station":"事務所"}},{"type":"Feature","geometry":{"type":"Point","coordinates":[135.92513,34.98609]},"properties":{"price":270000,"use":"大津","zone":"","station":"銀行"}},{"type":"Feature","geometry":{"type":"Point","coordinates":[135.88292,34.99579]},"properties":{"price":112000,"use":"大津","zone":"","station":"営業所"}},{"type":"Feature","geometry":{"type":"Point","coordinates":[135.87091,35.00454]},"properties":{"price":209000,"use":"大津","zone":"","station":"事務所"}},{"type":"Feature","geometry":{"type":"Point","coordinates":[135.85776,35.02332]},"properties":{"price":183000,"use":"大津","zone":"","station":"事務所"}},{"type":"Feature","geometry":{"type":"Point","coordinates":[135.88094,35.00533]},"properties":{"price":270000,"use":"大津","zone":"","station":"店舗兼共同住宅"}},{"type":"Feature","geometry":{"type":"Point","coordinates":[135.92313,35.16199]},"properties":{"price":59900,"use":"大津","zone":"","station":"店舗兼共同住宅"}},{"type":"Feature","geometry":{"type":"Point","coordinates":[135.90372,35.10241]},"properties":{"price":62000,"use":"大津","zone":"","station":"店舗"}},{"type":"Feature","geometry":{"type":"Point","coordinates":[135.90152,34.97914]},"properties":{"price":265000,"use":"大津","zone":"","station":"店舗兼住宅"}},{"type":"Feature","geometry":{"type":"Point","coordinates":[135.92466,34.98424]},"properties":{"price":160000,"use":"大津","zone":"","station":"銀行"}},{"type":"Feature","geometry":{"type":"Point","coordinates":[135.90959,34.9727]},"properties":{"price":98500,"use":"大津","zone":"","station":"銀行"}},{"type":"Feature","geometry":{"type":"Point","coordinates":[135.90465,34.97909]},"properties":{"price":158000,"use":"大津","zone":"","station":"店舗兼共同住宅"}},{"type":"Feature","geometry":{"type":"Point","coordinates":[135.88109,35.00002]},"properties":{"price":264000,"use":"大津","zone":"","station":"店舗兼住宅"}},{"type":"Feature","geometry":{"type":"Point","coordinates":[135.92051,34.99437]},"properties":{"price":107000,"use":"大津","zone":"","station":"店舗兼工場"}},{"type":"Feature","geometry":{"type":"Point","coordinates":[135.86092,35.00923]},"properties":{"price":121000,"use":"大津","zone":"","station":"店舗"}},{"type":"Feature","geometry":{"type":"Point","coordinates":[135.90187,34.97688]},"properties":{"price":169000,"use":"大津","zone":"","station":"店舗兼共同住宅"}},{"type":"Feature","geometry":{"type":"Point","coordinates":[135.90912,34.98608]},"properties":{"price":137000,"use":"大津","zone":"","station":"店舗"}},{"type":"Feature","geometry":{"type":"Point","coordinates":[135.89726,34.98149]},"properties":{"price":55100,"use":"大津","zone":"","station":"工場"}},{"type":"Feature","geometry":{"type":"Point","coordinates":[135.92592,34.93175]},"properties":{"price":29800,"use":"大津","zone":"","station":"工場"}},{"type":"Feature","geometry":{"type":"Point","coordinates":[136.20066,35.20581]},"properties":{"price":49700,"use":"彦根","zone":"","station":"住宅"}},{"type":"Feature","geometry":{"type":"Point","coordinates":[136.21958,35.22843]},"properties":{"price":52500,"use":"彦根","zone":"","station":"住宅"}},{"type":"Feature","geometry":{"type":"Point","coordinates":[136.24935,35.27303]},"properties":{"price":54300,"use":"彦根","zone":"","station":"住宅"}},{"type":"Feature","geometry":{"type":"Point","coordinates":[136.27521,35.24873]},"properties":{"price":33700,"use":"彦根","zone":"","station":"住宅"}},{"type":"Feature","geometry":{"type":"Point","coordinates":[136.24886,35.28395]},"properties":{"price":43600,"use":"彦根","zone":"","station":"住宅"}},{"type":"Feature","geometry":{"type":"Point","coordinates":[136.24641,35.24648]},"properties":{"price":70900,"use":"彦根","zone":"","station":"住宅"}},{"type":"Feature","geometry":{"type":"Point","coordinates":[136.25638,35.23258]},"properties":{"price":34700,"use":"彦根","zone":"","station":"住宅"}},{"type":"Feature","geometry":{"type":"Point","coordinates":[136.26129,35.25187]},"properties":{"price":37800,"use":"彦根","zone":"","station":"住宅"}},{"type":"Feature","geometry":{"type":"Point","coordinates":[136.22615,35.22291]},"properties":{"price":53400,"use":"彦根","zone":"","station":"住宅"}},{"type":"Feature","geometry":{"type":"Point","coordinates":[136.28701,35.27971]},"properties":{"price":32500,"use":"彦根","zone":"","station":"住宅"}},{"type":"Feature","geometry":{"type":"Point","coordinates":[136.24884,35.24987]},"properties":{"price":43200,"use":"彦根","zone":"","station":"住宅"}},{"type":"Feature","geometry":{"type":"Point","coordinates":[136.28335,35.28081]},"properties":{"price":22400,"use":"彦根","zone":"","station":"住宅"}},{"type":"Feature","geometry":{"type":"Point","coordinates":[136.24271,35.25583]},"properties":{"price":53400,"use":"彦根","zone":"","station":"住宅"}},{"type":"Feature","geometry":{"type":"Point","coordinates":[136.23367,35.2249]},"properties":{"price":27700,"use":"彦根","zone":"","station":"住宅"}},{"type":"Feature","geometry":{"type":"Point","coordinates":[136.23861,35.26532]},"properties":{"price":54400,"use":"彦根","zone":"","station":"住宅"}},{"type":"Feature","geometry":{"type":"Point","coordinates":[136.17213,35.22642]},"properties":{"price":13500,"use":"彦根","zone":"","station":"住宅"}},{"type":"Feature","geometry":{"type":"Point","coordinates":[136.27804,35.29056]},"properties":{"price":12300,"use":"彦根","zone":"","station":"住宅"}},{"type":"Feature","geometry":{"type":"Point","coordinates":[136.22472,35.25567]},"properties":{"price":30400,"use":"彦根","zone":"","station":"住宅"}},{"type":"Feature","geometry":{"type":"Point","coordinates":[136.26242,35.27397]},"properties":{"price":74400,"use":"彦根","zone":"","station":"事務所"}},{"type":"Feature","geometry":{"type":"Point","coordinates":[136.24795,35.24762]},"properties":{"price":68700,"use":"彦根","zone":"","station":"店舗兼事務所"}},{"type":"Feature","geometry":{"type":"Point","coordinates":[136.26228,35.27208]},"properties":{"price":125000,"use":"彦根","zone":"","station":"店舗"}},{"type":"Feature","geometry":{"type":"Point","coordinates":[136.25175,35.271]},"properties":{"price":89500,"use":"彦根","zone":"","station":"店舗"}},{"type":"Feature","geometry":{"type":"Point","coordinates":[136.24064,35.26202]},"properties":{"price":90500,"use":"彦根","zone":"","station":"店舗"}},{"type":"Feature","geometry":{"type":"Point","coordinates":[136.25508,35.27025]},"properties":{"price":64100,"use":"彦根","zone":"","station":"店舗"}},{"type":"Feature","geometry":{"type":"Point","coordinates":[136.1963,35.20396]},"properties":{"price":57900,"use":"彦根","zone":"","station":"店舗兼住宅"}},{"type":"Feature","geometry":{"type":"Point","coordinates":[136.26614,35.26009]},"properties":{"price":64300,"use":"彦根","zone":"","station":"店舗"}},{"type":"Feature","geometry":{"type":"Point","coordinates":[136.25437,35.23826]},"properties":{"price":48800,"use":"彦根","zone":"","station":"事務所兼住宅"}},{"type":"Feature","geometry":{"type":"Point","coordinates":[136.26525,35.27208]},"properties":{"price":120000,"use":"彦根","zone":"","station":"ホテル兼店舗"}},{"type":"Feature","geometry":{"type":"Point","coordinates":[136.22147,35.22001]},"properties":{"price":21000,"use":"彦根","zone":"","station":"工場"}},{"type":"Feature","geometry":{"type":"Point","coordinates":[136.27259,35.22758]},"properties":{"price":27900,"use":"彦根","zone":"","station":"工場"}},{"type":"Feature","geometry":{"type":"Point","coordinates":[136.23725,35.26127]},"properties":{"price":38100,"use":"彦根","zone":"","station":"工場"}},{"type":"Feature","geometry":{"type":"Point","coordinates":[136.27255,35.39859]},"properties":{"price":54300,"use":"長浜","zone":"","station":"住宅"}},{"type":"Feature","geometry":{"type":"Point","coordinates":[136.22579,35.50347]},"properties":{"price":19500,"use":"長浜","zone":"","station":"住宅"}},{"type":"Feature","geometry":{"type":"Point","coordinates":[136.27488,35.36696]},"properties":{"price":38000,"use":"長浜","zone":"","station":"住宅"}},{"type":"Feature","geometry":{"type":"Point","coordinates":[136.28857,35.38204]},"properties":{"price":59500,"use":"長浜","zone":"","station":"住宅"}},{"type":"Feature","geometry":{"type":"Point","coordinates":[136.27129,35.37721]},"properties":{"price":66700,"use":"長浜","zone":"","station":"住宅"}},{"type":"Feature","geometry":{"type":"Point","coordinates":[136.25052,35.38739]},"properties":{"price":46000,"use":"長浜","zone":"","station":"住宅"}},{"type":"Feature","geometry":{"type":"Point","coordinates":[136.25917,35.3866]},"properties":{"price":51800,"use":"長浜","zone":"","station":"住宅"}},{"type":"Feature","geometry":{"type":"Point","coordinates":[136.30014,35.43443]},"properties":{"price":29800,"use":"長浜","zone":"","station":"住宅"}},{"type":"Feature","geometry":{"type":"Point","coordinates":[136.2555,35.41791]},"properties":{"price":11400,"use":"長浜","zone":"","station":"住宅"}},{"type":"Feature","geometry":{"type":"Point","coordinates":[136.27152,35.42811]},"properties":{"price":13600,"use":"長浜","zone":"","station":"住宅"}},{"type":"Feature","geometry":{"type":"Point","coordinates":[136.21361,35.51022]},"properties":{"price":11400,"use":"長浜","zone":"","station":"住宅"}},{"type":"Feature","geometry":{"type":"Point","coordinates":[136.25193,35.44629]},"properties":{"price":13300,"use":"長浜","zone":"","station":"住宅"}},{"type":"Feature","geometry":{"type":"Point","coordinates":[136.23686,35.4652]},"properties":{"price":24900,"use":"長浜","zone":"","station":"住宅"}},{"type":"Feature","geometry":{"type":"Point","coordinates":[136.25021,35.46897]},"properties":{"price":10200,"use":"長浜","zone":"","station":"住宅"}},{"type":"Feature","geometry":{"type":"Point","coordinates":[136.26723,35.40465]},"properties":{"price":13800,"use":"長浜","zone":"","station":"住宅"}},{"type":"Feature","geometry":{"type":"Point","coordinates":[136.31049,35.3871]},"properties":{"price":19500,"use":"長浜","zone":"","station":"住宅"}},{"type":"Feature","geometry":{"type":"Point","coordinates":[136.22165,35.4145]},"properties":{"price":10000,"use":"長浜","zone":"","station":"住宅"}},{"type":"Feature","geometry":{"type":"Point","coordinates":[136.24952,35.40345]},"properties":{"price":24900,"use":"長浜","zone":"","station":"住宅"}},{"type":"Feature","geometry":{"type":"Point","coordinates":[136.26496,35.41293]},"properties":{"price":10200,"use":"長浜","zone":"","station":"住宅"}},{"type":"Feature","geometry":{"type":"Point","coordinates":[136.26604,35.37948]},"properties":{"price":120000,"use":"長浜","zone":"","station":"店舗"}},{"type":"Feature","geometry":{"type":"Point","coordinates":[136.27005,35.38052]},"properties":{"price":79000,"use":"長浜","zone":"","station":"店舗兼住宅"}},{"type":"Feature","geometry":{"type":"Point","coordinates":[136.27377,35.38079]},"properties":{"price":87200,"use":"長浜","zone":"","station":"店舗兼住宅"}},{"type":"Feature","geometry":{"type":"Point","coordinates":[136.2215,35.50441]},"properties":{"price":30800,"use":"長浜","zone":"","station":"店舗"}},{"type":"Feature","geometry":{"type":"Point","coordinates":[136.29758,35.4281]},"properties":{"price":30000,"use":"長浜","zone":"","station":"銀行"}},{"type":"Feature","geometry":{"type":"Point","coordinates":[136.25836,35.42417]},"properties":{"price":23800,"use":"長浜","zone":"","station":"店舗兼住宅"}},{"type":"Feature","geometry":{"type":"Point","coordinates":[136.26921,35.39178]},"properties":{"price":60500,"use":"長浜","zone":"","station":"店舗"}},{"type":"Feature","geometry":{"type":"Point","coordinates":[136.23407,35.46872]},"properties":{"price":31500,"use":"長浜","zone":"","station":"店舗兼住宅"}},{"type":"Feature","geometry":{"type":"Point","coordinates":[136.26995,35.38443]},"properties":{"price":52400,"use":"長浜","zone":"","station":"店舗兼住宅"}},{"type":"Feature","geometry":{"type":"Point","coordinates":[136.23888,35.4642]},"properties":{"price":15700,"use":"長浜","zone":"","station":"倉庫"}},{"type":"Feature","geometry":{"type":"Point","coordinates":[136.09502,35.12599]},"properties":{"price":93500,"use":"近江八幡","zone":"","station":"住宅兼事務所"}},{"type":"Feature","geometry":{"type":"Point","coordinates":[136.07323,35.10919]},"properties":{"price":54300,"use":"近江八幡","zone":"","station":"住宅"}},{"type":"Feature","geometry":{"type":"Point","coordinates":[136.08897,35.11529]},"properties":{"price":71600,"use":"近江八幡","zone":"","station":"住宅"}},{"type":"Feature","geometry":{"type":"Point","coordinates":[136.05848,35.11711]},"properties":{"price":30700,"use":"近江八幡","zone":"","station":"住宅"}},{"type":"Feature","geometry":{"type":"Point","coordinates":[136.09436,35.13892]},"properties":{"price":38200,"use":"近江八幡","zone":"","station":"住宅"}},{"type":"Feature","geometry":{"type":"Point","coordinates":[136.0895,35.14297]},"properties":{"price":42600,"use":"近江八幡","zone":"","station":"住宅"}},{"type":"Feature","geometry":{"type":"Point","coordinates":[136.09961,35.12793]},"properties":{"price":99900,"use":"近江八幡","zone":"","station":"住宅"}},{"type":"Feature","geometry":{"type":"Point","coordinates":[136.1308,35.14821]},"properties":{"price":54100,"use":"近江八幡","zone":"","station":"住宅"}},{"type":"Feature","geometry":{"type":"Point","coordinates":[136.13095,35.15246]},"properties":{"price":25800,"use":"近江八幡","zone":"","station":"住宅"}},{"type":"Feature","geometry":{"type":"Point","coordinates":[136.07685,35.14131]},"properties":{"price":37600,"use":"近江八幡","zone":"","station":"住宅"}},{"type":"Feature","geometry":{"type":"Point","coordinates":[136.13459,35.13502]},"properties":{"price":15800,"use":"近江八幡","zone":"","station":"住宅"}},{"type":"Feature","geometry":{"type":"Point","coordinates":[136.10267,35.12363]},"properties":{"price":164000,"use":"近江八幡","zone":"","station":"店舗兼事務所"}},{"type":"Feature","geometry":{"type":"Point","coordinates":[136.09916,35.12253]},"properties":{"price":125000,"use":"近江八幡","zone":"","station":"店舗兼事務所"}},{"type":"Feature","geometry":{"type":"Point","coordinates":[136.12146,35.11029]},"properties":{"price":21700,"use":"近江八幡","zone":"","station":"工場"}},{"type":"Feature","geometry":{"type":"Point","coordinates":[135.95739,35.02632]},"properties":{"price":198000,"use":"草津","zone":"","station":"住宅"}},{"type":"Feature","geometry":{"type":"Point","coordinates":[135.94078,35.02801]},"properties":{"price":62500,"use":"草津","zone":"","station":"住宅"}},{"type":"Feature","geometry":{"type":"Point","coordinates":[135.95398,35.0175]},"properties":{"price":108000,"use":"草津","zone":"","station":"住宅"}},{"type":"Feature","geometry":{"type":"Point","coordinates":[135.96786,35.02364]},"properties":{"price":137000,"use":"草津","zone":"","station":"住宅"}},{"type":"Feature","geometry":{"type":"Point","coordinates":[135.94732,35.0081]},"properties":{"price":136000,"use":"草津","zone":"","station":"住宅"}},{"type":"Feature","geometry":{"type":"Point","coordinates":[135.96255,35.00674]},"properties":{"price":97500,"use":"草津","zone":"","station":"住宅"}},{"type":"Feature","geometry":{"type":"Point","coordinates":[135.94541,35.00248]},"properties":{"price":325000,"use":"草津","zone":"","station":"事務所兼共同住宅"}},{"type":"Feature","geometry":{"type":"Point","coordinates":[135.97108,34.98776]},"properties":{"price":93700,"use":"草津","zone":"","station":"住宅"}},{"type":"Feature","geometry":{"type":"Point","coordinates":[135.95864,35.03136]},"properties":{"price":147000,"use":"草津","zone":"","station":"住宅"}},{"type":"Feature","geometry":{"type":"Point","coordinates":[135.95715,35.01289]},"properties":{"price":92300,"use":"草津","zone":"","station":"住宅"}},{"type":"Feature","geometry":{"type":"Point","coordinates":[135.96423,35.01236]},"properties":{"price":112000,"use":"草津","zone":"","station":"住宅"}},{"type":"Feature","geometry":{"type":"Point","coordinates":[135.93258,35.02549]},"properties":{"price":30300,"use":"草津","zone":"","station":"住宅"}},{"type":"Feature","geometry":{"type":"Point","coordinates":[135.96658,34.99985]},"properties":{"price":85500,"use":"草津","zone":"","station":"住宅"}},{"type":"Feature","geometry":{"type":"Point","coordinates":[135.93953,35.0014]},"properties":{"price":172000,"use":"草津","zone":"","station":"住宅"}},{"type":"Feature","geometry":{"type":"Point","coordinates":[135.96231,35.02151]},"properties":{"price":436000,"use":"草津","zone":"","station":"店舗兼事務所"}},{"type":"Feature","geometry":{"type":"Point","coordinates":[135.95899,35.01547]},"properties":{"price":99000,"use":"草津","zone":"","station":"店舗兼住宅"}},{"type":"Feature","geometry":{"type":"Point","coordinates":[135.95011,35.02747]},"properties":{"price":161000,"use":"草津","zone":"","station":"店舗"}},{"type":"Feature","geometry":{"type":"Point","coordinates":[135.94835,35.00332]},"properties":{"price":379000,"use":"草津","zone":"","station":"店舗兼共同住宅"}},{"type":"Feature","geometry":{"type":"Point","coordinates":[135.96157,35.02303]},"properties":{"price":346000,"use":"草津","zone":"","station":"店舗兼事務所"}},{"type":"Feature","geometry":{"type":"Point","coordinates":[135.94182,35.01857]},"properties":{"price":106000,"use":"草津","zone":"","station":"事務所"}},{"type":"Feature","geometry":{"type":"Point","coordinates":[135.94565,35.00524]},"properties":{"price":160000,"use":"草津","zone":"","station":"店舗兼工場"}},{"type":"Feature","geometry":{"type":"Point","coordinates":[135.95534,35.00713]},"properties":{"price":126000,"use":"草津","zone":"","station":"店舗兼工場"}},{"type":"Feature","geometry":{"type":"Point","coordinates":[135.96941,35.00794]},"properties":{"price":79500,"use":"草津","zone":"","station":"店舗兼住宅"}},{"type":"Feature","geometry":{"type":"Point","coordinates":[135.94997,34.99038]},"properties":{"price":61200,"use":"草津","zone":"","station":"事務所兼倉庫"}},{"type":"Feature","geometry":{"type":"Point","coordinates":[135.95218,35.10797]},"properties":{"price":54000,"use":"守山","zone":"","station":"住宅"}},{"type":"Feature","geometry":{"type":"Point","coordinates":[135.99396,35.06475]},"properties":{"price":87100,"use":"守山","zone":"","station":"住宅"}},{"type":"Feature","geometry":{"type":"Point","coordinates":[136.00679,35.05187]},"properties":{"price":97400,"use":"守山","zone":"","station":"住宅"}},{"type":"Feature","geometry":{"type":"Point","coordinates":[135.98678,35.0535]},"properties":{"price":134000,"use":"守山","zone":"","station":"住宅"}},{"type":"Feature","geometry":{"type":"Point","coordinates":[135.99852,35.07077]},"properties":{"price":96800,"use":"守山","zone":"","station":"住宅"}},{"type":"Feature","geometry":{"type":"Point","coordinates":[135.99113,35.05914]},"properties":{"price":122000,"use":"守山","zone":"","station":"住宅"}},{"type":"Feature","geometry":{"type":"Point","coordinates":[135.98427,35.06069]},"properties":{"price":104000,"use":"守山","zone":"","station":"住宅"}},{"type":"Feature","geometry":{"type":"Point","coordinates":[135.99055,35.07439]},"properties":{"price":96300,"use":"守山","zone":"","station":"住宅"}},{"type":"Feature","geometry":{"type":"Point","coordinates":[135.96993,35.08148]},"properties":{"price":27500,"use":"守山","zone":"","station":"住宅"}},{"type":"Feature","geometry":{"type":"Point","coordinates":[135.99417,35.07072]},"properties":{"price":106000,"use":"守山","zone":"","station":"店舗"}},{"type":"Feature","geometry":{"type":"Point","coordinates":[135.98264,35.05043]},"properties":{"price":104000,"use":"守山","zone":"","station":"店舗"}},{"type":"Feature","geometry":{"type":"Point","coordinates":[135.9981,35.05078]},"properties":{"price":141000,"use":"守山","zone":"","station":"店舗兼事務所"}},{"type":"Feature","geometry":{"type":"Point","coordinates":[135.99485,35.05019]},"properties":{"price":200000,"use":"守山","zone":"","station":"店舗兼事務所"}},{"type":"Feature","geometry":{"type":"Point","coordinates":[135.99416,35.05984]},"properties":{"price":118000,"use":"守山","zone":"","station":"店舗兼事務所"}},{"type":"Feature","geometry":{"type":"Point","coordinates":[135.95144,35.1119]},"properties":{"price":55100,"use":"守山","zone":"","station":"事務所"}},{"type":"Feature","geometry":{"type":"Point","coordinates":[135.97233,35.04821]},"properties":{"price":38000,"use":"守山","zone":"","station":"工場"}},{"type":"Feature","geometry":{"type":"Point","coordinates":[135.97285,35.01564]},"properties":{"price":103000,"use":"栗東","zone":"","station":"住宅"}},{"type":"Feature","geometry":{"type":"Point","coordinates":[136.01752,35.03388]},"properties":{"price":70200,"use":"栗東","zone":"","station":"住宅"}},{"type":"Feature","geometry":{"type":"Point","coordinates":[136.00006,35.02058]},"properties":{"price":85000,"use":"栗東","zone":"","station":"住宅"}},{"type":"Feature","geometry":{"type":"Point","coordinates":[136.02329,34.99798]},"properties":{"price":56900,"use":"栗東","zone":"","station":"住宅"}},{"type":"Feature","geometry":{"type":"Point","coordinates":[135.97852,35.03693]},"properties":{"price":142000,"use":"栗東","zone":"","station":"住宅"}},{"type":"Feature","geometry":{"type":"Point","coordinates":[135.97537,35.0304]},"properties":{"price":101000,"use":"栗東","zone":"","station":"住宅"}},{"type":"Feature","geometry":{"type":"Point","coordinates":[135.97046,35.0369]},"properties":{"price":110000,"use":"栗東","zone":"","station":"住宅"}},{"type":"Feature","geometry":{"type":"Point","coordinates":[136.00657,35.03319]},"properties":{"price":75700,"use":"栗東","zone":"","station":"住宅"}},{"type":"Feature","geometry":{"type":"Point","coordinates":[135.98237,35.0202]},"properties":{"price":83900,"use":"栗東","zone":"","station":"住宅"}},{"type":"Feature","geometry":{"type":"Point","coordinates":[136.02863,34.99113]},"properties":{"price":18000,"use":"栗東","zone":"","station":"住宅"}},{"type":"Feature","geometry":{"type":"Point","coordinates":[135.99642,35.02064]},"properties":{"price":83000,"use":"栗東","zone":"","station":"店舗、事務所兼住宅"}},{"type":"Feature","geometry":{"type":"Point","coordinates":[135.98975,35.02463]},"properties":{"price":113000,"use":"栗東","zone":"","station":"店舗兼工場"}},{"type":"Feature","geometry":{"type":"Point","coordinates":[135.97237,35.03711]},"properties":{"price":115000,"use":"栗東","zone":"","station":"店舗兼住宅"}},{"type":"Feature","geometry":{"type":"Point","coordinates":[136.02304,35.00139]},"properties":{"price":59500,"use":"栗東","zone":"","station":"銀行"}},{"type":"Feature","geometry":{"type":"Point","coordinates":[135.98152,35.02996]},"properties":{"price":44000,"use":"栗東","zone":"","station":"工場"}},{"type":"Feature","geometry":{"type":"Point","coordinates":[136.17194,34.97927]},"properties":{"price":55300,"use":"甲賀","zone":"","station":"住宅"}},{"type":"Feature","geometry":{"type":"Point","coordinates":[136.16547,34.98282]},"properties":{"price":32200,"use":"甲賀","zone":"","station":"住宅"}},{"type":"Feature","geometry":{"type":"Point","coordinates":[136.16983,34.97199]},"properties":{"price":38500,"use":"甲賀","zone":"","station":"住宅"}},{"type":"Feature","geometry":{"type":"Point","coordinates":[136.1629,34.93223]},"properties":{"price":35000,"use":"甲賀","zone":"","station":"住宅"}},{"type":"Feature","geometry":{"type":"Point","coordinates":[136.19592,34.96428]},"properties":{"price":27400,"use":"甲賀","zone":"","station":"住宅"}},{"type":"Feature","geometry":{"type":"Point","coordinates":[136.28873,34.93086]},"properties":{"price":13800,"use":"甲賀","zone":"","station":"住宅"}},{"type":"Feature","geometry":{"type":"Point","coordinates":[136.27864,34.93646]},"properties":{"price":15100,"use":"甲賀","zone":"","station":"住宅"}},{"type":"Feature","geometry":{"type":"Point","coordinates":[136.05109,34.86888]},"properties":{"price":15600,"use":"甲賀","zone":"","station":"住宅"}},{"type":"Feature","geometry":{"type":"Point","coordinates":[136.22633,34.89077]},"properties":{"price":12200,"use":"甲賀","zone":"","station":"住宅"}},{"type":"Feature","geometry":{"type":"Point","coordinates":[136.20826,34.90402]},"properties":{"price":15600,"use":"甲賀","zone":"","station":"住宅"}},{"type":"Feature","geometry":{"type":"Point","coordinates":[136.05007,34.88344]},"properties":{"price":16500,"use":"甲賀","zone":"","station":"住宅"}},{"type":"Feature","geometry":{"type":"Point","coordinates":[136.18437,34.91716]},"properties":{"price":20500,"use":"甲賀","zone":"","station":"住宅"}},{"type":"Feature","geometry":{"type":"Point","coordinates":[136.18193,35.00573]},"properties":{"price":16400,"use":"甲賀","zone":"","station":"住宅"}},{"type":"Feature","geometry":{"type":"Point","coordinates":[136.1357,34.97674]},"properties":{"price":14000,"use":"甲賀","zone":"","station":"住宅"}},{"type":"Feature","geometry":{"type":"Point","coordinates":[136.22105,34.91033]},"properties":{"price":10600,"use":"甲賀","zone":"","station":"住宅"}},{"type":"Feature","geometry":{"type":"Point","coordinates":[136.22088,34.8664]},"properties":{"price":7150,"use":"甲賀","zone":"","station":"住宅"}},{"type":"Feature","geometry":{"type":"Point","coordinates":[136.16664,34.91855]},"properties":{"price":11000,"use":"甲賀","zone":"","station":"住宅"}},{"type":"Feature","geometry":{"type":"Point","coordinates":[136.17469,34.94263]},"properties":{"price":20900,"use":"甲賀","zone":"","station":"住宅"}},{"type":"Feature","geometry":{"type":"Point","coordinates":[136.16558,34.92936]},"properties":{"price":24400,"use":"甲賀","zone":"","station":"住宅"}},{"type":"Feature","geometry":{"type":"Point","coordinates":[136.17039,34.96652]},"properties":{"price":67400,"use":"甲賀","zone":"","station":"店舗兼住宅"}},{"type":"Feature","geometry":{"type":"Point","coordinates":[136.16471,34.96629]},"properties":{"price":77000,"use":"甲賀","zone":"","station":"店舗"}},{"type":"Feature","geometry":{"type":"Point","coordinates":[136.05537,34.87712]},"properties":{"price":30600,"use":"甲賀","zone":"","station":"店舗兼住宅"}},{"type":"Feature","geometry":{"type":"Point","coordinates":[136.21287,34.90224]},"properties":{"price":31900,"use":"甲賀","zone":"","station":"事務所"}},{"type":"Feature","geometry":{"type":"Point","coordinates":[136.17532,34.89008]},"properties":{"price":19200,"use":"甲賀","zone":"","station":"工場"}},{"type":"Feature","geometry":{"type":"Point","coordinates":[136.01484,35.05894]},"properties":{"price":69700,"use":"野洲","zone":"","station":"住宅"}},{"type":"Feature","geometry":{"type":"Point","coordinates":[136.01723,35.06377]},"properties":{"price":102000,"use":"野洲","zone":"","station":"住宅"}},{"type":"Feature","geometry":{"type":"Point","coordinates":[136.0306,35.06996]},"properties":{"price":102000,"use":"野洲","zone":"","station":"住宅"}},{"type":"Feature","geometry":{"type":"Point","coordinates":[136.02927,35.07532]},"properties":{"price":102000,"use":"野洲","zone":"","station":"住宅"}},{"type":"Feature","geometry":{"type":"Point","coordinates":[136.01054,35.09908]},"properties":{"price":57600,"use":"野洲","zone":"","station":"住宅"}},{"type":"Feature","geometry":{"type":"Point","coordinates":[136.01438,35.10207]},"properties":{"price":32000,"use":"野洲","zone":"","station":"住宅"}},{"type":"Feature","geometry":{"type":"Point","coordinates":[136.04233,35.08797]},"properties":{"price":22000,"use":"野洲","zone":"","station":"住宅"}},{"type":"Feature","geometry":{"type":"Point","coordinates":[136.02998,35.05782]},"properties":{"price":19600,"use":"野洲","zone":"","station":"住宅"}},{"type":"Feature","geometry":{"type":"Point","coordinates":[136.0004,35.11226]},"properties":{"price":17600,"use":"野洲","zone":"","station":"住宅"}},{"type":"Feature","geometry":{"type":"Point","coordinates":[136.02317,35.06807]},"properties":{"price":165000,"use":"野洲","zone":"","station":"店舗兼住宅"}},{"type":"Feature","geometry":{"type":"Point","coordinates":[136.03403,35.06958]},"properties":{"price":72900,"use":"野洲","zone":"","station":"店舗"}},{"type":"Feature","geometry":{"type":"Point","coordinates":[136.04713,35.08156]},"properties":{"price":26500,"use":"野洲","zone":"","station":"倉庫兼事務所"}},{"type":"Feature","geometry":{"type":"Point","coordinates":[136.06271,35.00355]},"properties":{"price":43000,"use":"湖南","zone":"","station":"住宅"}},{"type":"Feature","geometry":{"type":"Point","coordinates":[136.06482,35.00827]},"properties":{"price":50300,"use":"湖南","zone":"","station":"住宅"}},{"type":"Feature","geometry":{"type":"Point","coordinates":[136.05184,35.01488]},"properties":{"price":34300,"use":"湖南","zone":"","station":"住宅"}},{"type":"Feature","geometry":{"type":"Point","coordinates":[136.1328,35.0201]},"properties":{"price":31500,"use":"湖南","zone":"","station":"住宅"}},{"type":"Feature","geometry":{"type":"Point","coordinates":[136.08819,35.00429]},"properties":{"price":63700,"use":"湖南","zone":"","station":"住宅"}},{"type":"Feature","geometry":{"type":"Point","coordinates":[136.10448,34.97964]},"properties":{"price":29400,"use":"湖南","zone":"","station":"住宅"}},{"type":"Feature","geometry":{"type":"Point","coordinates":[136.11848,35.0045]},"properties":{"price":34800,"use":"湖南","zone":"","station":"住宅"}},{"type":"Feature","geometry":{"type":"Point","coordinates":[136.1126,34.98267]},"properties":{"price":41300,"use":"湖南","zone":"","station":"住宅"}},{"type":"Feature","geometry":{"type":"Point","coordinates":[136.05538,35.03764]},"properties":{"price":34500,"use":"湖南","zone":"","station":"住宅"}},{"type":"Feature","geometry":{"type":"Point","coordinates":[136.06125,35.01425]},"properties":{"price":28300,"use":"湖南","zone":"","station":"住宅"}},{"type":"Feature","geometry":{"type":"Point","coordinates":[136.10164,34.9753]},"properties":{"price":23900,"use":"湖南","zone":"","station":"住宅"}},{"type":"Feature","geometry":{"type":"Point","coordinates":[136.11783,34.99288]},"properties":{"price":17100,"use":"湖南","zone":"","station":"住宅"}},{"type":"Feature","geometry":{"type":"Point","coordinates":[136.05931,35.01132]},"properties":{"price":57000,"use":"湖南","zone":"","station":"医院"}},{"type":"Feature","geometry":{"type":"Point","coordinates":[136.11934,35.00191]},"properties":{"price":52100,"use":"湖南","zone":"","station":"店舗兼住宅"}},{"type":"Feature","geometry":{"type":"Point","coordinates":[136.11377,34.98498]},"properties":{"price":50800,"use":"湖南","zone":"","station":"事務所"}},{"type":"Feature","geometry":{"type":"Point","coordinates":[136.07865,35.00944]},"properties":{"price":23500,"use":"湖南","zone":"","station":"工場"}},{"type":"Feature","geometry":{"type":"Point","coordinates":[136.07449,35.00826]},"properties":{"price":30900,"use":"湖南","zone":"","station":"倉庫"}},{"type":"Feature","geometry":{"type":"Point","coordinates":[136.01191,35.29744]},"properties":{"price":20100,"use":"滋賀高島","zone":"","station":"住宅"}},{"type":"Feature","geometry":{"type":"Point","coordinates":[136.00154,35.31085]},"properties":{"price":12400,"use":"滋賀高島","zone":"","station":"住宅"}},{"type":"Feature","geometry":{"type":"Point","coordinates":[136.0345,35.44059]},"properties":{"price":11600,"use":"滋賀高島","zone":"","station":"住宅"}},{"type":"Feature","geometry":{"type":"Point","coordinates":[136.05738,35.45094]},"properties":{"price":13500,"use":"滋賀高島","zone":"","station":"住宅"}},{"type":"Feature","geometry":{"type":"Point","coordinates":[136.03121,35.40516]},"properties":{"price":26300,"use":"滋賀高島","zone":"","station":"住宅"}},{"type":"Feature","geometry":{"type":"Point","coordinates":[136.02028,35.40956]},"properties":{"price":17400,"use":"滋賀高島","zone":"","station":"住宅"}},{"type":"Feature","geometry":{"type":"Point","coordinates":[136.01791,35.33447]},"properties":{"price":22300,"use":"滋賀高島","zone":"","station":"住宅"}},{"type":"Feature","geometry":{"type":"Point","coordinates":[136.00472,35.33514]},"properties":{"price":13600,"use":"滋賀高島","zone":"","station":"住宅"}},{"type":"Feature","geometry":{"type":"Point","coordinates":[136.0358,35.34408]},"properties":{"price":14600,"use":"滋賀高島","zone":"","station":"住宅"}},{"type":"Feature","geometry":{"type":"Point","coordinates":[136.05119,35.35604]},"properties":{"price":13000,"use":"滋賀高島","zone":"","station":"住宅"}},{"type":"Feature","geometry":{"type":"Point","coordinates":[136.01041,35.2933]},"properties":{"price":32900,"use":"滋賀高島","zone":"","station":"店舗"}},{"type":"Feature","geometry":{"type":"Point","coordinates":[136.02371,35.32401]},"properties":{"price":29500,"use":"滋賀高島","zone":"","station":"店舗"}},{"type":"Feature","geometry":{"type":"Point","coordinates":[136.03385,35.40133]},"properties":{"price":35400,"use":"滋賀高島","zone":"","station":"営業所"}},{"type":"Feature","geometry":{"type":"Point","coordinates":[136.19927,35.11769]},"properties":{"price":50800,"use":"東近江","zone":"","station":"住宅"}},{"type":"Feature","geometry":{"type":"Point","coordinates":[136.20983,35.10277]},"properties":{"price":48300,"use":"東近江","zone":"","station":"住宅"}},{"type":"Feature","geometry":{"type":"Point","coordinates":[136.2298,35.09755]},"properties":{"price":44500,"use":"東近江","zone":"","station":"住宅"}},{"type":"Feature","geometry":{"type":"Point","coordinates":[136.20068,35.11258]},"properties":{"price":49800,"use":"東近江","zone":"","station":"住宅"}},{"type":"Feature","geometry":{"type":"Point","coordinates":[136.1894,35.10432]},"properties":{"price":53900,"use":"東近江","zone":"","station":"住宅"}},{"type":"Feature","geometry":{"type":"Point","coordinates":[136.20789,35.1144]},"properties":{"price":59800,"use":"東近江","zone":"","station":"住宅"}},{"type":"Feature","geometry":{"type":"Point","coordinates":[136.1876,35.14848]},"properties":{"price":42000,"use":"東近江","zone":"","station":"住宅"}},{"type":"Feature","geometry":{"type":"Point","coordinates":[136.17918,35.14511]},"properties":{"price":43200,"use":"東近江","zone":"","station":"住宅"}},{"type":"Feature","geometry":{"type":"Point","coordinates":[136.15834,35.189]},"properties":{"price":23600,"use":"東近江","zone":"","station":"住宅"}},{"type":"Feature","geometry":{"type":"Point","coordinates":[136.27717,35.10709]},"properties":{"price":9700,"use":"東近江","zone":"","station":"住宅"}},{"type":"Feature","geometry":{"type":"Point","coordinates":[136.27678,35.13805]},"properties":{"price":9700,"use":"東近江","zone":"","station":"住宅"}},{"type":"Feature","geometry":{"type":"Point","coordinates":[136.2177,35.14289]},"properties":{"price":12600,"use":"東近江","zone":"","station":"住宅"}},{"type":"Feature","geometry":{"type":"Point","coordinates":[136.23135,35.15348]},"properties":{"price":11900,"use":"東近江","zone":"","station":"住宅"}},{"type":"Feature","geometry":{"type":"Point","coordinates":[136.13364,35.19699]},"properties":{"price":12500,"use":"東近江","zone":"","station":"住宅"}},{"type":"Feature","geometry":{"type":"Point","coordinates":[136.1761,35.05921]},"properties":{"price":15900,"use":"東近江","zone":"","station":"住宅"}},{"type":"Feature","geometry":{"type":"Point","coordinates":[136.18708,35.06121]},"properties":{"price":32300,"use":"東近江","zone":"","station":"住宅"}},{"type":"Feature","geometry":{"type":"Point","coordinates":[136.17895,35.18096]},"properties":{"price":61400,"use":"東近江","zone":"","station":"住宅"}},{"type":"Feature","geometry":{"type":"Point","coordinates":[136.15748,35.18005]},"properties":{"price":59600,"use":"東近江","zone":"","station":"住宅"}},{"type":"Feature","geometry":{"type":"Point","coordinates":[136.17677,35.11646]},"properties":{"price":18500,"use":"東近江","zone":"","station":"住宅"}},{"type":"Feature","geometry":{"type":"Point","coordinates":[136.14082,35.09752]},"properties":{"price":14700,"use":"東近江","zone":"","station":"住宅"}},{"type":"Feature","geometry":{"type":"Point","coordinates":[136.2006,35.14303]},"properties":{"price":11900,"use":"東近江","zone":"","station":"住宅"}},{"type":"Feature","geometry":{"type":"Point","coordinates":[136.19077,35.03887]},"properties":{"price":10000,"use":"東近江","zone":"","station":"住宅"}},{"type":"Feature","geometry":{"type":"Point","coordinates":[136.19809,35.11448]},"properties":{"price":76700,"use":"東近江","zone":"","station":"店舗兼共同住宅"}},{"type":"Feature","geometry":{"type":"Point","coordinates":[136.20648,35.10746]},"properties":{"price":63800,"use":"東近江","zone":"","station":"店舗"}},{"type":"Feature","geometry":{"type":"Point","coordinates":[136.19604,35.11421]},"properties":{"price":83500,"use":"東近江","zone":"","station":"店舗"}},{"type":"Feature","geometry":{"type":"Point","coordinates":[136.19653,35.10582]},"properties":{"price":59500,"use":"東近江","zone":"","station":"店舗"}},{"type":"Feature","geometry":{"type":"Point","coordinates":[136.18226,35.14571]},"properties":{"price":39800,"use":"東近江","zone":"","station":"銀行"}},{"type":"Feature","geometry":{"type":"Point","coordinates":[136.1697,35.18011]},"properties":{"price":69500,"use":"東近江","zone":"","station":"店舗兼住宅"}},{"type":"Feature","geometry":{"type":"Point","coordinates":[136.2206,35.09715]},"properties":{"price":24700,"use":"東近江","zone":"","station":"工場"}},{"type":"Feature","geometry":{"type":"Point","coordinates":[136.17755,35.14515]},"properties":{"price":23300,"use":"東近江","zone":"","station":"事務所兼倉庫"}},{"type":"Feature","geometry":{"type":"Point","coordinates":[136.28835,35.31825]},"properties":{"price":59700,"use":"米原","zone":"","station":"住宅"}},{"type":"Feature","geometry":{"type":"Point","coordinates":[136.35851,35.33529]},"properties":{"price":12900,"use":"米原","zone":"","station":"住宅"}},{"type":"Feature","geometry":{"type":"Point","coordinates":[136.29196,35.31082]},"properties":{"price":52800,"use":"米原","zone":"","station":"住宅"}},{"type":"Feature","geometry":{"type":"Point","coordinates":[136.3955,35.34088]},"properties":{"price":17700,"use":"米原","zone":"","station":"住宅"}},{"type":"Feature","geometry":{"type":"Point","coordinates":[136.35462,35.38162]},"properties":{"price":22900,"use":"米原","zone":"","station":"住宅"}},{"type":"Feature","geometry":{"type":"Point","coordinates":[136.37518,35.38878]},"properties":{"price":10600,"use":"米原","zone":"","station":"住宅"}},{"type":"Feature","geometry":{"type":"Point","coordinates":[136.38776,35.36682]},"properties":{"price":10000,"use":"米原","zone":"","station":"住宅"}},{"type":"Feature","geometry":{"type":"Point","coordinates":[136.29416,35.31729]},"properties":{"price":39400,"use":"米原","zone":"","station":"住宅"}},{"type":"Feature","geometry":{"type":"Point","coordinates":[136.25942,35.30498]},"properties":{"price":14200,"use":"米原","zone":"","station":"住宅"}},{"type":"Feature","geometry":{"type":"Point","coordinates":[136.28276,35.31215]},"properties":{"price":55100,"use":"米原","zone":"","station":"住宅"}},{"type":"Feature","geometry":{"type":"Point","coordinates":[136.28464,35.33895]},"properties":{"price":16000,"use":"米原","zone":"","station":"住宅"}},{"type":"Feature","geometry":{"type":"Point","coordinates":[136.40188,35.34325]},"properties":{"price":17300,"use":"米原","zone":"","station":"店舗兼住宅"}},{"type":"Feature","geometry":{"type":"Point","coordinates":[136.29492,35.34683]},"properties":{"price":36300,"use":"米原","zone":"","station":"店舗兼工場"}},{"type":"Feature","geometry":{"type":"Point","coordinates":[136.37904,35.38465]},"properties":{"price":13200,"use":"米原","zone":"","station":"銀行"}},{"type":"Feature","geometry":{"type":"Point","coordinates":[136.23075,35.03447]},"properties":{"price":9580,"use":"滋賀日野","zone":"","station":"住宅"}},{"type":"Feature","geometry":{"type":"Point","coordinates":[136.23118,35.01433]},"properties":{"price":20000,"use":"滋賀日野","zone":"","station":"住宅"}},{"type":"Feature","geometry":{"type":"Point","coordinates":[136.25531,35.01523]},"properties":{"price":24800,"use":"滋賀日野","zone":"","station":"住宅"}},{"type":"Feature","geometry":{"type":"Point","coordinates":[136.23778,35.05192]},"properties":{"price":10300,"use":"滋賀日野","zone":"","station":"住宅"}},{"type":"Feature","geometry":{"type":"Point","coordinates":[136.20981,35.00121]},"properties":{"price":9780,"use":"滋賀日野","zone":"","station":"住宅"}},{"type":"Feature","geometry":{"type":"Point","coordinates":[136.22027,35.01274]},"properties":{"price":26700,"use":"滋賀日野","zone":"","station":"店舗兼住宅"}},{"type":"Feature","geometry":{"type":"Point","coordinates":[136.23896,35.03211]},"properties":{"price":15000,"use":"滋賀日野","zone":"","station":"工場"}},{"type":"Feature","geometry":{"type":"Point","coordinates":[136.12878,35.06378]},"properties":{"price":13500,"use":"滋賀竜王","zone":"","station":"住宅"}},{"type":"Feature","geometry":{"type":"Point","coordinates":[136.10884,35.05759]},"properties":{"price":24100,"use":"滋賀竜王","zone":"","station":"住宅"}},{"type":"Feature","geometry":{"type":"Point","coordinates":[136.1095,35.05457]},"properties":{"price":26000,"use":"滋賀竜王","zone":"","station":"事務所兼倉庫"}},{"type":"Feature","geometry":{"type":"Point","coordinates":[136.23949,35.1655]},"properties":{"price":11500,"use":"愛荘","zone":"","station":"住宅"}},{"type":"Feature","geometry":{"type":"Point","coordinates":[136.20295,35.17332]},"properties":{"price":36900,"use":"愛荘","zone":"","station":"住宅"}},{"type":"Feature","geometry":{"type":"Point","coordinates":[136.21305,35.16722]},"properties":{"price":41400,"use":"愛荘","zone":"","station":"住宅"}},{"type":"Feature","geometry":{"type":"Point","coordinates":[136.21255,35.185]},"properties":{"price":36900,"use":"愛荘","zone":"","station":"営業所"}},{"type":"Feature","geometry":{"type":"Point","coordinates":[136.24351,35.1727]},"properties":{"price":23900,"use":"愛荘","zone":"","station":"銀行"}},{"type":"Feature","geometry":{"type":"Point","coordinates":[136.23026,35.18587]},"properties":{"price":12000,"use":"豊郷","zone":"","station":"住宅"}},{"type":"Feature","geometry":{"type":"Point","coordinates":[136.21617,35.19815]},"properties":{"price":12400,"use":"豊郷","zone":"","station":"住宅"}},{"type":"Feature","geometry":{"type":"Point","coordinates":[136.22874,35.19848]},"properties":{"price":23500,"use":"豊郷","zone":"","station":"銀行"}},{"type":"Feature","geometry":{"type":"Point","coordinates":[136.27081,35.2061]},"properties":{"price":8520,"use":"甲良","zone":"","station":"住宅"}},{"type":"Feature","geometry":{"type":"Point","coordinates":[136.2414,35.21408]},"properties":{"price":9650,"use":"甲良","zone":"","station":"住宅"}},{"type":"Feature","geometry":{"type":"Point","coordinates":[136.25438,35.2091]},"properties":{"price":13100,"use":"甲良","zone":"","station":"住宅"}},{"type":"Feature","geometry":{"type":"Point","coordinates":[136.28761,35.22493]},"properties":{"price":21500,"use":"多賀","zone":"","station":"住宅"}},{"type":"Feature","geometry":{"type":"Point","coordinates":[136.29551,35.23169]},"properties":{"price":14400,"use":"多賀","zone":"","station":"住宅"}},{"type":"Feature","geometry":{"type":"Point","coordinates":[136.30242,35.23461]},"properties":{"price":7980,"use":"多賀","zone":"","station":"住宅"}},{"type":"Feature","geometry":{"type":"Point","coordinates":[136.29062,35.22421]},"properties":{"price":30200,"use":"多賀","zone":"","station":"店舗兼住宅"}}]}