{"type":"FeatureCollection","features":[{"type":"Feature","geometry":{"type":"Point","coordinates":[140.35903,38.24438]},"properties":{"price":78000,"use":"山形","zone":"","station":"住宅"}},{"type":"Feature","geometry":{"type":"Point","coordinates":[140.3375,38.29325]},"properties":{"price":44700,"use":"山形","zone":"","station":"住宅"}},{"type":"Feature","geometry":{"type":"Point","coordinates":[140.27045,38.22557]},"properties":{"price":29100,"use":"山形","zone":"","station":"住宅"}},{"type":"Feature","geometry":{"type":"Point","coordinates":[140.31236,38.2599]},"properties":{"price":72200,"use":"山形","zone":"","station":"住宅"}},{"type":"Feature","geometry":{"type":"Point","coordinates":[140.33455,38.23283]},"properties":{"price":84600,"use":"山形","zone":"","station":"住宅"}},{"type":"Feature","geometry":{"type":"Point","coordinates":[140.34291,38.24663]},"properties":{"price":87200,"use":"山形","zone":"","station":"住宅"}},{"type":"Feature","geometry":{"type":"Point","coordinates":[140.35033,38.26451]},"properties":{"price":45000,"use":"山形","zone":"","station":"住宅"}},{"type":"Feature","geometry":{"type":"Point","coordinates":[140.35546,38.25902]},"properties":{"price":41800,"use":"山形","zone":"","station":"住宅"}},{"type":"Feature","geometry":{"type":"Point","coordinates":[140.35965,38.25617]},"properties":{"price":46900,"use":"山形","zone":"","station":"住宅"}},{"type":"Feature","geometry":{"type":"Point","coordinates":[140.31559,38.23316]},"properties":{"price":69400,"use":"山形","zone":"","station":"住宅"}},{"type":"Feature","geometry":{"type":"Point","coordinates":[140.32006,38.21291]},"properties":{"price":67800,"use":"山形","zone":"","station":"住宅"}},{"type":"Feature","geometry":{"type":"Point","coordinates":[140.31456,38.24691]},"properties":{"price":78100,"use":"山形","zone":"","station":"住宅"}},{"type":"Feature","geometry":{"type":"Point","coordinates":[140.30855,38.28087]},"properties":{"price":53000,"use":"山形","zone":"","station":"住宅"}},{"type":"Feature","geometry":{"type":"Point","coordinates":[140.33969,38.26219]},"properties":{"price":58500,"use":"山形","zone":"","station":"住宅"}},{"type":"Feature","geometry":{"type":"Point","coordinates":[140.3045,38.23483]},"properties":{"price":56800,"use":"山形","zone":"","station":"住宅"}},{"type":"Feature","geometry":{"type":"Point","coordinates":[140.32853,38.24327]},"properties":{"price":98000,"use":"山形","zone":"","station":"共同住宅"}},{"type":"Feature","geometry":{"type":"Point","coordinates":[140.31719,38.20504]},"properties":{"price":50200,"use":"山形","zone":"","station":"住宅"}},{"type":"Feature","geometry":{"type":"Point","coordinates":[140.32275,38.252]},"properties":{"price":87000,"use":"山形","zone":"","station":"住宅"}},{"type":"Feature","geometry":{"type":"Point","coordinates":[140.35874,38.30878]},"properties":{"price":26300,"use":"山形","zone":"","station":"住宅"}},{"type":"Feature","geometry":{"type":"Point","coordinates":[140.32151,38.27532]},"properties":{"price":58100,"use":"山形","zone":"","station":"住宅"}},{"type":"Feature","geometry":{"type":"Point","coordinates":[140.3505,38.25167]},"properties":{"price":78600,"use":"山形","zone":"","station":"住宅"}},{"type":"Feature","geometry":{"type":"Point","coordinates":[140.30524,38.30679]},"properties":{"price":18000,"use":"山形","zone":"","station":"住宅"}},{"type":"Feature","geometry":{"type":"Point","coordinates":[140.33813,38.28277]},"properties":{"price":50200,"use":"山形","zone":"","station":"住宅"}},{"type":"Feature","geometry":{"type":"Point","coordinates":[140.2974,38.25646]},"properties":{"price":28500,"use":"山形","zone":"","station":"住宅"}},{"type":"Feature","geometry":{"type":"Point","coordinates":[140.32299,38.22771]},"properties":{"price":40600,"use":"山形","zone":"","station":"田"}},{"type":"Feature","geometry":{"type":"Point","coordinates":[140.33803,38.25202]},"properties":{"price":219000,"use":"山形","zone":"","station":"店舗、公民館兼駐車場"}},{"type":"Feature","geometry":{"type":"Point","coordinates":[140.32482,38.2525]},"properties":{"price":115000,"use":"山形","zone":"","station":"店舗、事務所兼共同住宅"}},{"type":"Feature","geometry":{"type":"Point","coordinates":[140.34153,38.26459]},"properties":{"price":74400,"use":"山形","zone":"","station":"店舗、事務所兼住宅"}},{"type":"Feature","geometry":{"type":"Point","coordinates":[140.3307,38.24691]},"properties":{"price":216000,"use":"山形","zone":"","station":"事務所"}},{"type":"Feature","geometry":{"type":"Point","coordinates":[140.33347,38.24346]},"properties":{"price":121000,"use":"山形","zone":"","station":"事務所"}},{"type":"Feature","geometry":{"type":"Point","coordinates":[140.33257,38.25248]},"properties":{"price":131000,"use":"山形","zone":"","station":"店舗兼住宅"}},{"type":"Feature","geometry":{"type":"Point","coordinates":[140.34422,38.24283]},"properties":{"price":137000,"use":"山形","zone":"","station":"店舗兼共同住宅"}},{"type":"Feature","geometry":{"type":"Point","coordinates":[140.36935,38.23999]},"properties":{"price":62900,"use":"山形","zone":"","station":"店舗"}},{"type":"Feature","geometry":{"type":"Point","coordinates":[140.31104,38.22599]},"properties":{"price":66000,"use":"山形","zone":"","station":"店舗"}},{"type":"Feature","geometry":{"type":"Point","coordinates":[140.3313,38.23785]},"properties":{"price":71700,"use":"山形","zone":"","station":"店舗兼住宅"}},{"type":"Feature","geometry":{"type":"Point","coordinates":[140.39537,38.16365]},"properties":{"price":23800,"use":"山形","zone":"","station":"旅館兼住宅"}},{"type":"Feature","geometry":{"type":"Point","coordinates":[140.33553,38.25937]},"properties":{"price":79700,"use":"山形","zone":"","station":"店舗兼住宅"}},{"type":"Feature","geometry":{"type":"Point","coordinates":[140.31929,38.22063]},"properties":{"price":66700,"use":"山形","zone":"","station":"店舗"}},{"type":"Feature","geometry":{"type":"Point","coordinates":[140.36153,38.26409]},"properties":{"price":40000,"use":"山形","zone":"","station":"事務所"}},{"type":"Feature","geometry":{"type":"Point","coordinates":[140.32675,38.27632]},"properties":{"price":66000,"use":"山形","zone":"","station":"事務所兼住宅"}},{"type":"Feature","geometry":{"type":"Point","coordinates":[140.31384,38.22916]},"properties":{"price":61300,"use":"山形","zone":"","station":"店舗"}},{"type":"Feature","geometry":{"type":"Point","coordinates":[140.33487,38.25455]},"properties":{"price":81300,"use":"山形","zone":"","station":"店舗兼住宅"}},{"type":"Feature","geometry":{"type":"Point","coordinates":[140.33207,38.28227]},"properties":{"price":63100,"use":"山形","zone":"","station":"店舗"}},{"type":"Feature","geometry":{"type":"Point","coordinates":[140.33639,38.2731]},"properties":{"price":36600,"use":"山形","zone":"","station":"工場"}},{"type":"Feature","geometry":{"type":"Point","coordinates":[140.28005,38.24022]},"properties":{"price":15400,"use":"山形","zone":"","station":"事務所"}},{"type":"Feature","geometry":{"type":"Point","coordinates":[140.30849,38.19181]},"properties":{"price":18200,"use":"山形","zone":"","station":"工場"}},{"type":"Feature","geometry":{"type":"Point","coordinates":[140.36396,38.2886]},"properties":{"price":25200,"use":"山形","zone":"","station":"事務所兼倉庫"}},{"type":"Feature","geometry":{"type":"Point","coordinates":[140.09913,37.91388]},"properties":{"price":23400,"use":"米沢","zone":"","station":"住宅"}},{"type":"Feature","geometry":{"type":"Point","coordinates":[140.12619,37.8914]},"properties":{"price":17400,"use":"米沢","zone":"","station":"住宅"}},{"type":"Feature","geometry":{"type":"Point","coordinates":[140.11564,37.91386]},"properties":{"price":26900,"use":"米沢","zone":"","station":"住宅"}},{"type":"Feature","geometry":{"type":"Point","coordinates":[140.12485,37.9584]},"properties":{"price":14300,"use":"米沢","zone":"","station":"住宅"}},{"type":"Feature","geometry":{"type":"Point","coordinates":[140.07149,37.91158]},"properties":{"price":12200,"use":"米沢","zone":"","station":"住宅"}},{"type":"Feature","geometry":{"type":"Point","coordinates":[140.11123,37.91205]},"properties":{"price":45900,"use":"米沢","zone":"","station":"店舗"}},{"type":"Feature","geometry":{"type":"Point","coordinates":[140.10974,37.91037]},"properties":{"price":32600,"use":"米沢","zone":"","station":"店舗兼住宅"}},{"type":"Feature","geometry":{"type":"Point","coordinates":[140.10633,37.9194]},"properties":{"price":25500,"use":"米沢","zone":"","station":"店舗兼住宅"}},{"type":"Feature","geometry":{"type":"Point","coordinates":[139.8208,38.73154]},"properties":{"price":31000,"use":"鶴岡","zone":"","station":"住宅"}},{"type":"Feature","geometry":{"type":"Point","coordinates":[139.83881,38.72117]},"properties":{"price":28800,"use":"鶴岡","zone":"","station":"住宅"}},{"type":"Feature","geometry":{"type":"Point","coordinates":[139.78722,38.72665]},"properties":{"price":17000,"use":"鶴岡","zone":"","station":"住宅"}},{"type":"Feature","geometry":{"type":"Point","coordinates":[139.81918,38.73965]},"properties":{"price":27100,"use":"鶴岡","zone":"","station":"住宅"}},{"type":"Feature","geometry":{"type":"Point","coordinates":[139.84274,38.65205]},"properties":{"price":4210,"use":"鶴岡","zone":"","station":"住宅"}},{"type":"Feature","geometry":{"type":"Point","coordinates":[139.84727,38.74251]},"properties":{"price":23400,"use":"鶴岡","zone":"","station":"住宅"}},{"type":"Feature","geometry":{"type":"Point","coordinates":[139.80131,38.73607]},"properties":{"price":37800,"use":"鶴岡","zone":"","station":"住宅"}},{"type":"Feature","geometry":{"type":"Point","coordinates":[139.9069,38.7671]},"properties":{"price":14600,"use":"鶴岡","zone":"","station":"住宅"}},{"type":"Feature","geometry":{"type":"Point","coordinates":[139.55077,38.55968]},"properties":{"price":11000,"use":"鶴岡","zone":"","station":"住宅"}},{"type":"Feature","geometry":{"type":"Point","coordinates":[139.83647,38.69373]},"properties":{"price":14900,"use":"鶴岡","zone":"","station":"住宅"}},{"type":"Feature","geometry":{"type":"Point","coordinates":[139.83561,38.73832]},"properties":{"price":45700,"use":"鶴岡","zone":"","station":"店舗兼住宅"}},{"type":"Feature","geometry":{"type":"Point","coordinates":[139.60916,38.61611]},"properties":{"price":25500,"use":"鶴岡","zone":"","station":"旅館"}},{"type":"Feature","geometry":{"type":"Point","coordinates":[139.79715,38.73608]},"properties":{"price":39700,"use":"鶴岡","zone":"","station":"店舗兼事務所"}},{"type":"Feature","geometry":{"type":"Point","coordinates":[139.90131,38.76729]},"properties":{"price":16500,"use":"鶴岡","zone":"","station":"事務所"}},{"type":"Feature","geometry":{"type":"Point","coordinates":[139.8481,38.67961]},"properties":{"price":14000,"use":"鶴岡","zone":"","station":"店舗兼住宅"}},{"type":"Feature","geometry":{"type":"Point","coordinates":[139.8318,38.7273]},"properties":{"price":38500,"use":"鶴岡","zone":"","station":"店舗"}},{"type":"Feature","geometry":{"type":"Point","coordinates":[139.83865,38.90711]},"properties":{"price":31100,"use":"酒田","zone":"","station":"住宅"}},{"type":"Feature","geometry":{"type":"Point","coordinates":[139.83849,38.93015]},"properties":{"price":22200,"use":"酒田","zone":"","station":"住宅"}},{"type":"Feature","geometry":{"type":"Point","coordinates":[139.85096,38.92231]},"properties":{"price":29000,"use":"酒田","zone":"","station":"住宅"}},{"type":"Feature","geometry":{"type":"Point","coordinates":[139.81342,38.90408]},"properties":{"price":21200,"use":"酒田","zone":"","station":"住宅"}},{"type":"Feature","geometry":{"type":"Point","coordinates":[139.83335,38.88244]},"properties":{"price":21900,"use":"酒田","zone":"","station":"住宅"}},{"type":"Feature","geometry":{"type":"Point","coordinates":[139.86241,38.9195]},"properties":{"price":30700,"use":"酒田","zone":"","station":"住宅"}},{"type":"Feature","geometry":{"type":"Point","coordinates":[139.84708,38.89814]},"properties":{"price":35100,"use":"酒田","zone":"","station":"住宅"}},{"type":"Feature","geometry":{"type":"Point","coordinates":[139.93941,38.96772]},"properties":{"price":8440,"use":"酒田","zone":"","station":"住宅"}},{"type":"Feature","geometry":{"type":"Point","coordinates":[139.84226,38.92485]},"properties":{"price":27400,"use":"酒田","zone":"","station":"住宅"}},{"type":"Feature","geometry":{"type":"Point","coordinates":[139.84075,38.97236]},"properties":{"price":5550,"use":"酒田","zone":"","station":"住宅"}},{"type":"Feature","geometry":{"type":"Point","coordinates":[139.85504,38.91158]},"properties":{"price":30500,"use":"酒田","zone":"","station":"住宅"}},{"type":"Feature","geometry":{"type":"Point","coordinates":[139.84827,38.93127]},"properties":{"price":31200,"use":"酒田","zone":"","station":"住宅"}},{"type":"Feature","geometry":{"type":"Point","coordinates":[139.80192,38.87982]},"properties":{"price":7050,"use":"酒田","zone":"","station":"住宅"}},{"type":"Feature","geometry":{"type":"Point","coordinates":[139.82832,38.92071]},"properties":{"price":17800,"use":"酒田","zone":"","station":"住宅"}},{"type":"Feature","geometry":{"type":"Point","coordinates":[139.8564,38.92347]},"properties":{"price":30500,"use":"酒田","zone":"","station":"住宅"}},{"type":"Feature","geometry":{"type":"Point","coordinates":[139.86202,38.88705]},"properties":{"price":24500,"use":"酒田","zone":"","station":"住宅"}},{"type":"Feature","geometry":{"type":"Point","coordinates":[139.83595,38.91661]},"properties":{"price":51700,"use":"酒田","zone":"","station":"店舗兼住宅"}},{"type":"Feature","geometry":{"type":"Point","coordinates":[139.85826,38.9235]},"properties":{"price":33600,"use":"酒田","zone":"","station":"店舗"}},{"type":"Feature","geometry":{"type":"Point","coordinates":[139.85373,38.9089]},"properties":{"price":36000,"use":"酒田","zone":"","station":"店舗"}},{"type":"Feature","geometry":{"type":"Point","coordinates":[139.84419,38.86502]},"properties":{"price":8420,"use":"酒田","zone":"","station":"事務所兼工場"}},{"type":"Feature","geometry":{"type":"Point","coordinates":[139.84344,38.89533]},"properties":{"price":17700,"use":"酒田","zone":"","station":"工場兼事務所"}},{"type":"Feature","geometry":{"type":"Point","coordinates":[139.83111,38.91388]},"properties":{"price":22800,"use":"酒田","zone":"","station":"倉庫兼事務所"}},{"type":"Feature","geometry":{"type":"Point","coordinates":[140.29905,38.761]},"properties":{"price":25400,"use":"新庄","zone":"","station":"住宅"}},{"type":"Feature","geometry":{"type":"Point","coordinates":[140.3013,38.75481]},"properties":{"price":22700,"use":"新庄","zone":"","station":"住宅"}},{"type":"Feature","geometry":{"type":"Point","coordinates":[140.2969,38.76401]},"properties":{"price":28300,"use":"新庄","zone":"","station":"住宅"}},{"type":"Feature","geometry":{"type":"Point","coordinates":[140.29404,38.77322]},"properties":{"price":30400,"use":"新庄","zone":"","station":"医院"}},{"type":"Feature","geometry":{"type":"Point","coordinates":[140.30345,38.76309]},"properties":{"price":42400,"use":"新庄","zone":"","station":"事務所"}},{"type":"Feature","geometry":{"type":"Point","coordinates":[140.28081,38.38275]},"properties":{"price":27300,"use":"寒河江","zone":"","station":"住宅"}},{"type":"Feature","geometry":{"type":"Point","coordinates":[140.27995,38.36952]},"properties":{"price":27000,"use":"寒河江","zone":"","station":"住宅"}},{"type":"Feature","geometry":{"type":"Point","coordinates":[140.26488,38.36891]},"properties":{"price":30900,"use":"寒河江","zone":"","station":"住宅"}},{"type":"Feature","geometry":{"type":"Point","coordinates":[140.27593,38.37458]},"properties":{"price":47400,"use":"寒河江","zone":"","station":"店舗兼住宅"}},{"type":"Feature","geometry":{"type":"Point","coordinates":[140.28204,38.3746]},"properties":{"price":39200,"use":"寒河江","zone":"","station":"店舗"}},{"type":"Feature","geometry":{"type":"Point","coordinates":[140.27463,38.15979]},"properties":{"price":29800,"use":"上山","zone":"","station":"住宅"}},{"type":"Feature","geometry":{"type":"Point","coordinates":[140.28164,38.167]},"properties":{"price":25400,"use":"上山","zone":"","station":"住宅"}},{"type":"Feature","geometry":{"type":"Point","coordinates":[140.28012,38.15234]},"properties":{"price":31200,"use":"上山","zone":"","station":"住宅"}},{"type":"Feature","geometry":{"type":"Point","coordinates":[140.28265,38.14171]},"properties":{"price":29200,"use":"上山","zone":"","station":"住宅"}},{"type":"Feature","geometry":{"type":"Point","coordinates":[140.26304,38.14306]},"properties":{"price":13700,"use":"上山","zone":"","station":"住宅"}},{"type":"Feature","geometry":{"type":"Point","coordinates":[140.27522,38.13983]},"properties":{"price":7700,"use":"上山","zone":"","station":"畑"}},{"type":"Feature","geometry":{"type":"Point","coordinates":[140.27675,38.15267]},"properties":{"price":39100,"use":"上山","zone":"","station":"店舗"}},{"type":"Feature","geometry":{"type":"Point","coordinates":[140.27815,38.15745]},"properties":{"price":30900,"use":"上山","zone":"","station":"店舗"}},{"type":"Feature","geometry":{"type":"Point","coordinates":[140.28647,38.16669]},"properties":{"price":29400,"use":"上山","zone":"","station":"事務所兼倉庫"}},{"type":"Feature","geometry":{"type":"Point","coordinates":[140.39103,38.47126]},"properties":{"price":22100,"use":"村山","zone":"","station":"住宅"}},{"type":"Feature","geometry":{"type":"Point","coordinates":[140.38411,38.47355]},"properties":{"price":21200,"use":"村山","zone":"","station":"住宅"}},{"type":"Feature","geometry":{"type":"Point","coordinates":[140.38953,38.48144]},"properties":{"price":22000,"use":"村山","zone":"","station":"店舗、工場兼住宅"}},{"type":"Feature","geometry":{"type":"Point","coordinates":[140.04201,38.10505]},"properties":{"price":18800,"use":"長井","zone":"","station":"住宅"}},{"type":"Feature","geometry":{"type":"Point","coordinates":[140.02582,38.11152]},"properties":{"price":17700,"use":"長井","zone":"","station":"住宅"}},{"type":"Feature","geometry":{"type":"Point","coordinates":[140.04835,38.05835]},"properties":{"price":10500,"use":"長井","zone":"","station":"住宅"}},{"type":"Feature","geometry":{"type":"Point","coordinates":[140.03668,38.09169]},"properties":{"price":26100,"use":"長井","zone":"","station":"店舗"}},{"type":"Feature","geometry":{"type":"Point","coordinates":[140.37407,38.36769]},"properties":{"price":42500,"use":"天童","zone":"","station":"住宅"}},{"type":"Feature","geometry":{"type":"Point","coordinates":[140.3838,38.36214]},"properties":{"price":44000,"use":"天童","zone":"","station":"住宅"}},{"type":"Feature","geometry":{"type":"Point","coordinates":[140.36364,38.3312]},"properties":{"price":40600,"use":"天童","zone":"","station":"住宅"}},{"type":"Feature","geometry":{"type":"Point","coordinates":[140.37907,38.38617]},"properties":{"price":35400,"use":"天童","zone":"","station":"住宅"}},{"type":"Feature","geometry":{"type":"Point","coordinates":[140.36363,38.36468]},"properties":{"price":38000,"use":"天童","zone":"","station":"住宅"}},{"type":"Feature","geometry":{"type":"Point","coordinates":[140.36379,38.35689]},"properties":{"price":44900,"use":"天童","zone":"","station":"住宅"}},{"type":"Feature","geometry":{"type":"Point","coordinates":[140.36537,38.33525]},"properties":{"price":46200,"use":"天童","zone":"","station":"住宅"}},{"type":"Feature","geometry":{"type":"Point","coordinates":[140.39833,38.31359]},"properties":{"price":24800,"use":"天童","zone":"","station":"住宅"}},{"type":"Feature","geometry":{"type":"Point","coordinates":[140.3947,38.36569]},"properties":{"price":16900,"use":"天童","zone":"","station":"住宅"}},{"type":"Feature","geometry":{"type":"Point","coordinates":[140.36188,38.34792]},"properties":{"price":51400,"use":"天童","zone":"","station":"住宅"}},{"type":"Feature","geometry":{"type":"Point","coordinates":[140.38583,38.35307]},"properties":{"price":50700,"use":"天童","zone":"","station":"店舗"}},{"type":"Feature","geometry":{"type":"Point","coordinates":[140.37656,38.36006]},"properties":{"price":54500,"use":"天童","zone":"","station":"店舗兼住宅"}},{"type":"Feature","geometry":{"type":"Point","coordinates":[140.36669,38.35997]},"properties":{"price":43000,"use":"天童","zone":"","station":"事務所兼倉庫"}},{"type":"Feature","geometry":{"type":"Point","coordinates":[140.38353,38.37002]},"properties":{"price":26900,"use":"天童","zone":"","station":"事務所"}},{"type":"Feature","geometry":{"type":"Point","coordinates":[140.38092,38.40645]},"properties":{"price":24000,"use":"東根","zone":"","station":"住宅"}},{"type":"Feature","geometry":{"type":"Point","coordinates":[140.38738,38.44944]},"properties":{"price":24600,"use":"東根","zone":"","station":"住宅"}},{"type":"Feature","geometry":{"type":"Point","coordinates":[140.38632,38.41829]},"properties":{"price":31100,"use":"東根","zone":"","station":"住宅"}},{"type":"Feature","geometry":{"type":"Point","coordinates":[140.38718,38.4293]},"properties":{"price":45300,"use":"東根","zone":"","station":"住宅"}},{"type":"Feature","geometry":{"type":"Point","coordinates":[140.39421,38.43149]},"properties":{"price":50800,"use":"東根","zone":"","station":"店舗"}},{"type":"Feature","geometry":{"type":"Point","coordinates":[140.38559,38.42854]},"properties":{"price":67000,"use":"東根","zone":"","station":"店舗"}},{"type":"Feature","geometry":{"type":"Point","coordinates":[140.40075,38.60504]},"properties":{"price":11700,"use":"尾花沢","zone":"","station":"住宅"}},{"type":"Feature","geometry":{"type":"Point","coordinates":[140.40498,38.59941]},"properties":{"price":12200,"use":"尾花沢","zone":"","station":"住宅"}},{"type":"Feature","geometry":{"type":"Point","coordinates":[140.4096,38.60697]},"properties":{"price":11000,"use":"尾花沢","zone":"","station":"住宅"}},{"type":"Feature","geometry":{"type":"Point","coordinates":[140.40353,38.60226]},"properties":{"price":18900,"use":"尾花沢","zone":"","station":"店舗兼住宅"}},{"type":"Feature","geometry":{"type":"Point","coordinates":[140.16996,38.03972]},"properties":{"price":16200,"use":"南陽","zone":"","station":"住宅"}},{"type":"Feature","geometry":{"type":"Point","coordinates":[140.13783,38.07537]},"properties":{"price":16800,"use":"南陽","zone":"","station":"住宅"}},{"type":"Feature","geometry":{"type":"Point","coordinates":[140.15671,38.04608]},"properties":{"price":29600,"use":"南陽","zone":"","station":"住宅"}},{"type":"Feature","geometry":{"type":"Point","coordinates":[140.15517,38.04426]},"properties":{"price":39600,"use":"南陽","zone":"","station":"店舗兼住宅"}},{"type":"Feature","geometry":{"type":"Point","coordinates":[140.16683,38.04709]},"properties":{"price":29900,"use":"南陽","zone":"","station":"店舗兼住宅"}},{"type":"Feature","geometry":{"type":"Point","coordinates":[140.2659,38.29496]},"properties":{"price":26500,"use":"山辺","zone":"","station":"住宅"}},{"type":"Feature","geometry":{"type":"Point","coordinates":[140.2686,38.28956]},"properties":{"price":23400,"use":"山辺","zone":"","station":"住宅"}},{"type":"Feature","geometry":{"type":"Point","coordinates":[140.25555,38.28672]},"properties":{"price":11500,"use":"山辺","zone":"","station":"住宅"}},{"type":"Feature","geometry":{"type":"Point","coordinates":[140.28159,38.33222]},"properties":{"price":23200,"use":"中山","zone":"","station":"住宅"}},{"type":"Feature","geometry":{"type":"Point","coordinates":[140.27672,38.33948]},"properties":{"price":27200,"use":"中山","zone":"","station":"住宅"}},{"type":"Feature","geometry":{"type":"Point","coordinates":[140.25865,38.33349]},"properties":{"price":9200,"use":"中山","zone":"","station":"住宅"}},{"type":"Feature","geometry":{"type":"Point","coordinates":[140.30892,38.41817]},"properties":{"price":21800,"use":"山形河北","zone":"","station":"住宅"}},{"type":"Feature","geometry":{"type":"Point","coordinates":[140.31367,38.43217]},"properties":{"price":17700,"use":"山形河北","zone":"","station":"住宅"}},{"type":"Feature","geometry":{"type":"Point","coordinates":[140.3129,38.42472]},"properties":{"price":22100,"use":"山形河北","zone":"","station":"店舗兼住宅"}},{"type":"Feature","geometry":{"type":"Point","coordinates":[140.1497,38.42395]},"properties":{"price":8010,"use":"山形西川","zone":"","station":"住宅"}},{"type":"Feature","geometry":{"type":"Point","coordinates":[140.09802,38.43451]},"properties":{"price":2660,"use":"山形西川","zone":"","station":"住宅"}},{"type":"Feature","geometry":{"type":"Point","coordinates":[140.13135,38.4329]},"properties":{"price":7840,"use":"山形西川","zone":"","station":"店舗兼住宅"}},{"type":"Feature","geometry":{"type":"Point","coordinates":[140.1423,38.30128]},"properties":{"price":9250,"use":"山形朝日","zone":"","station":"住宅"}},{"type":"Feature","geometry":{"type":"Point","coordinates":[140.16704,38.32471]},"properties":{"price":7620,"use":"山形朝日","zone":"","station":"住宅"}},{"type":"Feature","geometry":{"type":"Point","coordinates":[140.1473,38.30211]},"properties":{"price":10500,"use":"山形朝日","zone":"","station":"店舗"}},{"type":"Feature","geometry":{"type":"Point","coordinates":[140.21201,38.38074]},"properties":{"price":13500,"use":"山形大江","zone":"","station":"住宅"}},{"type":"Feature","geometry":{"type":"Point","coordinates":[140.20708,38.38426]},"properties":{"price":10600,"use":"山形大江","zone":"","station":"住宅"}},{"type":"Feature","geometry":{"type":"Point","coordinates":[140.20797,38.37868]},"properties":{"price":18600,"use":"山形大江","zone":"","station":"店舗兼住宅"}},{"type":"Feature","geometry":{"type":"Point","coordinates":[140.37838,38.58853]},"properties":{"price":11100,"use":"大石田","zone":"","station":"住宅"}},{"type":"Feature","geometry":{"type":"Point","coordinates":[140.3717,38.59673]},"properties":{"price":11200,"use":"大石田","zone":"","station":"住宅"}},{"type":"Feature","geometry":{"type":"Point","coordinates":[140.37406,38.58765]},"properties":{"price":14600,"use":"大石田","zone":"","station":"店舗兼住宅"}},{"type":"Feature","geometry":{"type":"Point","coordinates":[140.33366,38.87082]},"properties":{"price":5390,"use":"金山","zone":"","station":"住宅"}},{"type":"Feature","geometry":{"type":"Point","coordinates":[140.33656,38.88793]},"properties":{"price":5940,"use":"金山","zone":"","station":"住宅"}},{"type":"Feature","geometry":{"type":"Point","coordinates":[140.33864,38.88376]},"properties":{"price":13200,"use":"金山","zone":"","station":"店舗兼住宅"}},{"type":"Feature","geometry":{"type":"Point","coordinates":[140.52026,38.75711]},"properties":{"price":8540,"use":"最上","zone":"","station":"住宅"}},{"type":"Feature","geometry":{"type":"Point","coordinates":[140.52388,38.76131]},"properties":{"price":7300,"use":"最上","zone":"","station":"住宅"}},{"type":"Feature","geometry":{"type":"Point","coordinates":[140.51699,38.75769]},"properties":{"price":15000,"use":"最上","zone":"","station":"店舗兼住宅"}},{"type":"Feature","geometry":{"type":"Point","coordinates":[140.26165,38.85987]},"properties":{"price":7050,"use":"真室川","zone":"","station":"住宅"}},{"type":"Feature","geometry":{"type":"Point","coordinates":[140.25567,38.85679]},"properties":{"price":6030,"use":"真室川","zone":"","station":"住宅"}},{"type":"Feature","geometry":{"type":"Point","coordinates":[140.25473,38.85974]},"properties":{"price":12500,"use":"真室川","zone":"","station":"医院兼住宅"}},{"type":"Feature","geometry":{"type":"Point","coordinates":[140.20517,38.00366]},"properties":{"price":9450,"use":"高畠","zone":"","station":"住宅"}},{"type":"Feature","geometry":{"type":"Point","coordinates":[140.14584,37.99023]},"properties":{"price":21600,"use":"高畠","zone":"","station":"住宅"}},{"type":"Feature","geometry":{"type":"Point","coordinates":[140.19607,38.00353]},"properties":{"price":24000,"use":"高畠","zone":"","station":"店舗兼住宅"}},{"type":"Feature","geometry":{"type":"Point","coordinates":[140.04895,38.00993]},"properties":{"price":11400,"use":"山形川西","zone":"","station":"住宅"}},{"type":"Feature","geometry":{"type":"Point","coordinates":[140.03429,38.00522]},"properties":{"price":9420,"use":"山形川西","zone":"","station":"住宅"}},{"type":"Feature","geometry":{"type":"Point","coordinates":[140.04444,38.00477]},"properties":{"price":16700,"use":"山形川西","zone":"","station":"店舗兼住宅"}},{"type":"Feature","geometry":{"type":"Point","coordinates":[139.74388,38.06227]},"properties":{"price":12300,"use":"小国","zone":"","station":"住宅"}},{"type":"Feature","geometry":{"type":"Point","coordinates":[139.73963,38.06864]},"properties":{"price":6800,"use":"小国","zone":"","station":"住宅"}},{"type":"Feature","geometry":{"type":"Point","coordinates":[139.74942,38.05987]},"properties":{"price":17100,"use":"小国","zone":"","station":"店舗"}},{"type":"Feature","geometry":{"type":"Point","coordinates":[140.1031,38.18735]},"properties":{"price":13500,"use":"白鷹","zone":"","station":"住宅"}},{"type":"Feature","geometry":{"type":"Point","coordinates":[140.07844,38.19006]},"properties":{"price":8100,"use":"白鷹","zone":"","station":"住宅"}},{"type":"Feature","geometry":{"type":"Point","coordinates":[140.10184,38.18483]},"properties":{"price":18300,"use":"白鷹","zone":"","station":"店舗兼住宅"}},{"type":"Feature","geometry":{"type":"Point","coordinates":[139.85164,38.79901]},"properties":{"price":15000,"use":"三川","zone":"","station":"住宅"}},{"type":"Feature","geometry":{"type":"Point","coordinates":[139.84021,38.7896]},"properties":{"price":7010,"use":"三川","zone":"","station":"住宅"}},{"type":"Feature","geometry":{"type":"Point","coordinates":[139.84756,38.79468]},"properties":{"price":18200,"use":"三川","zone":"","station":"店舗兼住宅"}},{"type":"Feature","geometry":{"type":"Point","coordinates":[139.90546,38.84487]},"properties":{"price":17300,"use":"山形庄内","zone":"","station":"住宅"}},{"type":"Feature","geometry":{"type":"Point","coordinates":[139.8986,38.84981]},"properties":{"price":11500,"use":"山形庄内","zone":"","station":"住宅"}},{"type":"Feature","geometry":{"type":"Point","coordinates":[139.90627,38.84765]},"properties":{"price":20400,"use":"山形庄内","zone":"","station":"空地"}},{"type":"Feature","geometry":{"type":"Point","coordinates":[139.91038,39.01858]},"properties":{"price":11600,"use":"遊佐","zone":"","station":"住宅"}},{"type":"Feature","geometry":{"type":"Point","coordinates":[139.87606,39.06176]},"properties":{"price":8510,"use":"遊佐","zone":"","station":"住宅"}}]}