{"type":"FeatureCollection","features":[{"type":"Feature","geometry":{"type":"Point","coordinates":[134.12071,34.33956]},"properties":{"price":33500,"use":"高松","zone":"","station":"住宅"}},{"type":"Feature","geometry":{"type":"Point","coordinates":[134.03552,34.33432]},"properties":{"price":109000,"use":"高松","zone":"","station":"住宅"}},{"type":"Feature","geometry":{"type":"Point","coordinates":[134.04191,34.34215]},"properties":{"price":282000,"use":"高松","zone":"","station":"住宅"}},{"type":"Feature","geometry":{"type":"Point","coordinates":[134.01331,34.34239]},"properties":{"price":47900,"use":"高松","zone":"","station":"住宅"}},{"type":"Feature","geometry":{"type":"Point","coordinates":[134.04557,34.32114]},"properties":{"price":123000,"use":"高松","zone":"","station":"住宅"}},{"type":"Feature","geometry":{"type":"Point","coordinates":[133.96643,34.35628]},"properties":{"price":23600,"use":"高松","zone":"","station":"住宅"}},{"type":"Feature","geometry":{"type":"Point","coordinates":[133.96966,34.31194]},"properties":{"price":18600,"use":"高松","zone":"","station":"住宅"}},{"type":"Feature","geometry":{"type":"Point","coordinates":[134.05478,34.33342]},"properties":{"price":87000,"use":"高松","zone":"","station":"住宅"}},{"type":"Feature","geometry":{"type":"Point","coordinates":[134.05369,34.3217]},"properties":{"price":82000,"use":"高松","zone":"","station":"住宅"}},{"type":"Feature","geometry":{"type":"Point","coordinates":[134.03401,34.34284]},"properties":{"price":167000,"use":"高松","zone":"","station":"住宅"}},{"type":"Feature","geometry":{"type":"Point","coordinates":[134.04069,34.29427]},"properties":{"price":53200,"use":"高松","zone":"","station":"住宅"}},{"type":"Feature","geometry":{"type":"Point","coordinates":[134.08985,34.28507]},"properties":{"price":21300,"use":"高松","zone":"","station":"住宅"}},{"type":"Feature","geometry":{"type":"Point","coordinates":[134.04295,34.30841]},"properties":{"price":64500,"use":"高松","zone":"","station":"住宅"}},{"type":"Feature","geometry":{"type":"Point","coordinates":[134.04444,34.34838]},"properties":{"price":162000,"use":"高松","zone":"","station":"共同住宅"}},{"type":"Feature","geometry":{"type":"Point","coordinates":[134.12433,34.33717]},"properties":{"price":23600,"use":"高松","zone":"","station":"住宅"}},{"type":"Feature","geometry":{"type":"Point","coordinates":[134.03093,34.31498]},"properties":{"price":31100,"use":"高松","zone":"","station":"住宅"}},{"type":"Feature","geometry":{"type":"Point","coordinates":[133.99983,34.28253]},"properties":{"price":34200,"use":"高松","zone":"","station":"住宅"}},{"type":"Feature","geometry":{"type":"Point","coordinates":[134.09331,34.27354]},"properties":{"price":26500,"use":"高松","zone":"","station":"住宅"}},{"type":"Feature","geometry":{"type":"Point","coordinates":[134.04519,34.27887]},"properties":{"price":40900,"use":"高松","zone":"","station":"住宅"}},{"type":"Feature","geometry":{"type":"Point","coordinates":[134.02643,34.28348]},"properties":{"price":35200,"use":"高松","zone":"","station":"住宅"}},{"type":"Feature","geometry":{"type":"Point","coordinates":[134.01677,34.24623]},"properties":{"price":17700,"use":"高松","zone":"","station":"住宅"}},{"type":"Feature","geometry":{"type":"Point","coordinates":[133.99092,34.35059]},"properties":{"price":33300,"use":"高松","zone":"","station":"住宅"}},{"type":"Feature","geometry":{"type":"Point","coordinates":[134.05858,34.32772]},"properties":{"price":85000,"use":"高松","zone":"","station":"住宅"}},{"type":"Feature","geometry":{"type":"Point","coordinates":[134.14784,34.32824]},"properties":{"price":17300,"use":"高松","zone":"","station":"住宅"}},{"type":"Feature","geometry":{"type":"Point","coordinates":[134.09107,34.34889]},"properties":{"price":49200,"use":"高松","zone":"","station":"住宅"}},{"type":"Feature","geometry":{"type":"Point","coordinates":[134.01668,34.30355]},"properties":{"price":32200,"use":"高松","zone":"","station":"住宅"}},{"type":"Feature","geometry":{"type":"Point","coordinates":[134.15682,34.37005]},"properties":{"price":10400,"use":"高松","zone":"","station":"住宅"}},{"type":"Feature","geometry":{"type":"Point","coordinates":[134.0408,34.35052]},"properties":{"price":124000,"use":"高松","zone":"","station":"住宅"}},{"type":"Feature","geometry":{"type":"Point","coordinates":[134.05346,34.33055]},"properties":{"price":166000,"use":"高松","zone":"","station":"住宅"}},{"type":"Feature","geometry":{"type":"Point","coordinates":[134.11857,34.35463]},"properties":{"price":28100,"use":"高松","zone":"","station":"住宅"}},{"type":"Feature","geometry":{"type":"Point","coordinates":[134.11176,34.3422]},"properties":{"price":34400,"use":"高松","zone":"","station":"住宅"}},{"type":"Feature","geometry":{"type":"Point","coordinates":[134.04461,34.30455]},"properties":{"price":67100,"use":"高松","zone":"","station":"住宅"}},{"type":"Feature","geometry":{"type":"Point","coordinates":[133.96178,34.28525]},"properties":{"price":30900,"use":"高松","zone":"","station":"住宅"}},{"type":"Feature","geometry":{"type":"Point","coordinates":[134.11301,34.33346]},"properties":{"price":34500,"use":"高松","zone":"","station":"住宅"}},{"type":"Feature","geometry":{"type":"Point","coordinates":[134.07579,34.32638]},"properties":{"price":47600,"use":"高松","zone":"","station":"住宅"}},{"type":"Feature","geometry":{"type":"Point","coordinates":[134.03521,34.25792]},"properties":{"price":21800,"use":"高松","zone":"","station":"住宅"}},{"type":"Feature","geometry":{"type":"Point","coordinates":[134.04107,34.28625]},"properties":{"price":37100,"use":"高松","zone":"","station":"住宅"}},{"type":"Feature","geometry":{"type":"Point","coordinates":[134.01057,34.29058]},"properties":{"price":35900,"use":"高松","zone":"","station":"住宅"}},{"type":"Feature","geometry":{"type":"Point","coordinates":[134.01016,34.33525]},"properties":{"price":36800,"use":"高松","zone":"","station":"住宅"}},{"type":"Feature","geometry":{"type":"Point","coordinates":[134.06451,34.33835]},"properties":{"price":82400,"use":"高松","zone":"","station":"住宅"}},{"type":"Feature","geometry":{"type":"Point","coordinates":[134.0381,34.228]},"properties":{"price":14800,"use":"高松","zone":"","station":"住宅"}},{"type":"Feature","geometry":{"type":"Point","coordinates":[134.03458,34.33916]},"properties":{"price":151000,"use":"高松","zone":"","station":"住宅"}},{"type":"Feature","geometry":{"type":"Point","coordinates":[134.0589,34.29355]},"properties":{"price":61400,"use":"高松","zone":"","station":"住宅"}},{"type":"Feature","geometry":{"type":"Point","coordinates":[134.06048,34.31838]},"properties":{"price":93900,"use":"高松","zone":"","station":"住宅"}},{"type":"Feature","geometry":{"type":"Point","coordinates":[134.02628,34.34669]},"properties":{"price":61400,"use":"高松","zone":"","station":"住宅"}},{"type":"Feature","geometry":{"type":"Point","coordinates":[134.09864,34.32559]},"properties":{"price":37500,"use":"高松","zone":"","station":"住宅"}},{"type":"Feature","geometry":{"type":"Point","coordinates":[134.02984,34.29777]},"properties":{"price":26400,"use":"高松","zone":"","station":"住宅"}},{"type":"Feature","geometry":{"type":"Point","coordinates":[133.9975,34.31377]},"properties":{"price":30200,"use":"高松","zone":"","station":"住宅"}},{"type":"Feature","geometry":{"type":"Point","coordinates":[134.14459,34.3425]},"properties":{"price":25000,"use":"高松","zone":"","station":"住宅"}},{"type":"Feature","geometry":{"type":"Point","coordinates":[134.07759,34.33567]},"properties":{"price":41000,"use":"高松","zone":"","station":"住宅"}},{"type":"Feature","geometry":{"type":"Point","coordinates":[134.1383,34.33746]},"properties":{"price":33100,"use":"高松","zone":"","station":"住宅"}},{"type":"Feature","geometry":{"type":"Point","coordinates":[134.09401,34.33725]},"properties":{"price":34900,"use":"高松","zone":"","station":"住宅"}},{"type":"Feature","geometry":{"type":"Point","coordinates":[134.07489,34.31727]},"properties":{"price":53700,"use":"高松","zone":"","station":"住宅"}},{"type":"Feature","geometry":{"type":"Point","coordinates":[134.05437,34.33144]},"properties":{"price":153000,"use":"高松","zone":"","station":"共同住宅"}},{"type":"Feature","geometry":{"type":"Point","coordinates":[134.04364,34.35187]},"properties":{"price":128000,"use":"高松","zone":"","station":"共同住宅"}},{"type":"Feature","geometry":{"type":"Point","coordinates":[134.04863,34.34525]},"properties":{"price":454000,"use":"高松","zone":"","station":"店舗兼事務所"}},{"type":"Feature","geometry":{"type":"Point","coordinates":[134.05618,34.34092]},"properties":{"price":123000,"use":"高松","zone":"","station":"事務所兼共同住宅"}},{"type":"Feature","geometry":{"type":"Point","coordinates":[134.04648,34.32299]},"properties":{"price":105000,"use":"高松","zone":"","station":"店舗、事務所兼共同住宅"}},{"type":"Feature","geometry":{"type":"Point","coordinates":[134.04773,34.34908]},"properties":{"price":254000,"use":"高松","zone":"","station":"事務所"}},{"type":"Feature","geometry":{"type":"Point","coordinates":[134.04092,34.33836]},"properties":{"price":163000,"use":"高松","zone":"","station":"店舗、事務所兼共同住宅"}},{"type":"Feature","geometry":{"type":"Point","coordinates":[134.05141,34.34329]},"properties":{"price":129000,"use":"高松","zone":"","station":"店舗兼住宅"}},{"type":"Feature","geometry":{"type":"Point","coordinates":[134.04914,34.34043]},"properties":{"price":256000,"use":"高松","zone":"","station":"店舗"}},{"type":"Feature","geometry":{"type":"Point","coordinates":[134.0457,34.34761]},"properties":{"price":196000,"use":"高松","zone":"","station":"店舗兼共同住宅"}},{"type":"Feature","geometry":{"type":"Point","coordinates":[134.04316,34.33529]},"properties":{"price":152000,"use":"高松","zone":"","station":"店舗兼共同住宅"}},{"type":"Feature","geometry":{"type":"Point","coordinates":[134.10235,34.3398]},"properties":{"price":71300,"use":"高松","zone":"","station":"店舗"}},{"type":"Feature","geometry":{"type":"Point","coordinates":[134.00657,34.34287]},"properties":{"price":49200,"use":"高松","zone":"","station":"店舗兼住宅"}},{"type":"Feature","geometry":{"type":"Point","coordinates":[134.0512,34.32638]},"properties":{"price":150000,"use":"高松","zone":"","station":"店舗"}},{"type":"Feature","geometry":{"type":"Point","coordinates":[134.05368,34.31322]},"properties":{"price":106000,"use":"高松","zone":"","station":"事務所"}},{"type":"Feature","geometry":{"type":"Point","coordinates":[134.05495,34.32437]},"properties":{"price":133000,"use":"高松","zone":"","station":"店舗兼住宅"}},{"type":"Feature","geometry":{"type":"Point","coordinates":[134.04537,34.33905]},"properties":{"price":159000,"use":"高松","zone":"","station":"事務所"}},{"type":"Feature","geometry":{"type":"Point","coordinates":[134.05073,34.33434]},"properties":{"price":126000,"use":"高松","zone":"","station":"診療所兼住宅"}},{"type":"Feature","geometry":{"type":"Point","coordinates":[134.04502,34.30009]},"properties":{"price":72400,"use":"高松","zone":"","station":"店舗兼住宅"}},{"type":"Feature","geometry":{"type":"Point","coordinates":[134.05167,34.34767]},"properties":{"price":161000,"use":"高松","zone":"","station":"事務所"}},{"type":"Feature","geometry":{"type":"Point","coordinates":[134.05058,34.33946]},"properties":{"price":208000,"use":"高松","zone":"","station":"店舗"}},{"type":"Feature","geometry":{"type":"Point","coordinates":[134.03392,34.23813]},"properties":{"price":27600,"use":"高松","zone":"","station":"銀行"}},{"type":"Feature","geometry":{"type":"Point","coordinates":[133.96411,34.30006]},"properties":{"price":48400,"use":"高松","zone":"","station":"店舗"}},{"type":"Feature","geometry":{"type":"Point","coordinates":[134.08043,34.33923]},"properties":{"price":63000,"use":"高松","zone":"","station":"店舗兼事務所"}},{"type":"Feature","geometry":{"type":"Point","coordinates":[134.11585,34.34145]},"properties":{"price":45500,"use":"高松","zone":"","station":"事務所兼店舗"}},{"type":"Feature","geometry":{"type":"Point","coordinates":[133.99562,34.33083]},"properties":{"price":39000,"use":"高松","zone":"","station":"店舗"}},{"type":"Feature","geometry":{"type":"Point","coordinates":[134.03017,34.31523]},"properties":{"price":42600,"use":"高松","zone":"","station":"診療所兼住宅"}},{"type":"Feature","geometry":{"type":"Point","coordinates":[134.05054,34.34508]},"properties":{"price":447000,"use":"高松","zone":"","station":"店舗"}},{"type":"Feature","geometry":{"type":"Point","coordinates":[134.0492,34.30974]},"properties":{"price":99000,"use":"高松","zone":"","station":"店舗兼工場"}},{"type":"Feature","geometry":{"type":"Point","coordinates":[134.06568,34.35556]},"properties":{"price":18100,"use":"高松","zone":"","station":"工場"}},{"type":"Feature","geometry":{"type":"Point","coordinates":[134.01277,34.35234]},"properties":{"price":15700,"use":"高松","zone":"","station":"事務所兼倉庫"}},{"type":"Feature","geometry":{"type":"Point","coordinates":[134.07426,34.35061]},"properties":{"price":24300,"use":"高松","zone":"","station":"倉庫兼事務所"}},{"type":"Feature","geometry":{"type":"Point","coordinates":[134.03102,34.3521]},"properties":{"price":34700,"use":"高松","zone":"","station":"倉庫兼事務所"}},{"type":"Feature","geometry":{"type":"Point","coordinates":[134.06989,34.34619]},"properties":{"price":50100,"use":"高松","zone":"","station":"空地"}},{"type":"Feature","geometry":{"type":"Point","coordinates":[134.00498,34.34908]},"properties":{"price":25000,"use":"高松","zone":"","station":"事務所、住宅兼倉庫"}},{"type":"Feature","geometry":{"type":"Point","coordinates":[133.79883,34.28216]},"properties":{"price":71000,"use":"丸亀","zone":"","station":"住宅"}},{"type":"Feature","geometry":{"type":"Point","coordinates":[133.79056,34.28717]},"properties":{"price":57700,"use":"丸亀","zone":"","station":"住宅"}},{"type":"Feature","geometry":{"type":"Point","coordinates":[133.79037,34.27129]},"properties":{"price":37900,"use":"丸亀","zone":"","station":"住宅"}},{"type":"Feature","geometry":{"type":"Point","coordinates":[133.8663,34.27533]},"properties":{"price":20200,"use":"丸亀","zone":"","station":"住宅"}},{"type":"Feature","geometry":{"type":"Point","coordinates":[133.79871,34.29364]},"properties":{"price":41800,"use":"丸亀","zone":"","station":"住宅"}},{"type":"Feature","geometry":{"type":"Point","coordinates":[133.81965,34.26799]},"properties":{"price":28500,"use":"丸亀","zone":"","station":"住宅"}},{"type":"Feature","geometry":{"type":"Point","coordinates":[133.81804,34.29117]},"properties":{"price":37700,"use":"丸亀","zone":"","station":"住宅"}},{"type":"Feature","geometry":{"type":"Point","coordinates":[133.8021,34.27741]},"properties":{"price":46200,"use":"丸亀","zone":"","station":"住宅"}},{"type":"Feature","geometry":{"type":"Point","coordinates":[133.78401,34.2821]},"properties":{"price":40000,"use":"丸亀","zone":"","station":"住宅"}},{"type":"Feature","geometry":{"type":"Point","coordinates":[133.77642,34.27751]},"properties":{"price":30700,"use":"丸亀","zone":"","station":"住宅"}},{"type":"Feature","geometry":{"type":"Point","coordinates":[133.82989,34.28358]},"properties":{"price":23500,"use":"丸亀","zone":"","station":"住宅"}},{"type":"Feature","geometry":{"type":"Point","coordinates":[133.88689,34.25634]},"properties":{"price":21800,"use":"丸亀","zone":"","station":"住宅"}},{"type":"Feature","geometry":{"type":"Point","coordinates":[133.79262,34.30827]},"properties":{"price":19500,"use":"丸亀","zone":"","station":"住宅"}},{"type":"Feature","geometry":{"type":"Point","coordinates":[133.8157,34.29053]},"properties":{"price":47800,"use":"丸亀","zone":"","station":"銀行"}},{"type":"Feature","geometry":{"type":"Point","coordinates":[133.79493,34.28949]},"properties":{"price":93500,"use":"丸亀","zone":"","station":"店舗兼ホテル"}},{"type":"Feature","geometry":{"type":"Point","coordinates":[133.8091,34.29653]},"properties":{"price":49700,"use":"丸亀","zone":"","station":"店舗"}},{"type":"Feature","geometry":{"type":"Point","coordinates":[133.79258,34.26993]},"properties":{"price":57600,"use":"丸亀","zone":"","station":"店舗、倉庫兼事務所"}},{"type":"Feature","geometry":{"type":"Point","coordinates":[133.87608,34.24547]},"properties":{"price":24500,"use":"丸亀","zone":"","station":"診療所兼住宅"}},{"type":"Feature","geometry":{"type":"Point","coordinates":[133.80477,34.30534]},"properties":{"price":19900,"use":"丸亀","zone":"","station":"倉庫兼工場"}},{"type":"Feature","geometry":{"type":"Point","coordinates":[133.79593,34.29904]},"properties":{"price":19700,"use":"丸亀","zone":"","station":"工場"}},{"type":"Feature","geometry":{"type":"Point","coordinates":[133.85151,34.31218]},"properties":{"price":52800,"use":"坂出","zone":"","station":"住宅"}},{"type":"Feature","geometry":{"type":"Point","coordinates":[133.86971,34.32346]},"properties":{"price":37600,"use":"坂出","zone":"","station":"住宅"}},{"type":"Feature","geometry":{"type":"Point","coordinates":[133.88914,34.32756]},"properties":{"price":22400,"use":"坂出","zone":"","station":"住宅"}},{"type":"Feature","geometry":{"type":"Point","coordinates":[133.91057,34.30901]},"properties":{"price":22400,"use":"坂出","zone":"","station":"住宅"}},{"type":"Feature","geometry":{"type":"Point","coordinates":[133.85128,34.30797]},"properties":{"price":48800,"use":"坂出","zone":"","station":"住宅"}},{"type":"Feature","geometry":{"type":"Point","coordinates":[133.84635,34.31962]},"properties":{"price":41600,"use":"坂出","zone":"","station":"住宅"}},{"type":"Feature","geometry":{"type":"Point","coordinates":[133.85672,34.31507]},"properties":{"price":66100,"use":"坂出","zone":"","station":"店舗"}},{"type":"Feature","geometry":{"type":"Point","coordinates":[133.85539,34.32066]},"properties":{"price":47100,"use":"坂出","zone":"","station":"店舗兼住宅"}},{"type":"Feature","geometry":{"type":"Point","coordinates":[133.84528,34.31728]},"properties":{"price":46700,"use":"坂出","zone":"","station":"店舗兼住宅"}},{"type":"Feature","geometry":{"type":"Point","coordinates":[133.85483,34.31173]},"properties":{"price":59700,"use":"坂出","zone":"","station":"店舗兼住宅"}},{"type":"Feature","geometry":{"type":"Point","coordinates":[133.88222,34.31367]},"properties":{"price":29800,"use":"坂出","zone":"","station":"店舗兼自動車修理工場"}},{"type":"Feature","geometry":{"type":"Point","coordinates":[133.84654,34.32653]},"properties":{"price":14600,"use":"坂出","zone":"","station":"事務所兼工場"}},{"type":"Feature","geometry":{"type":"Point","coordinates":[133.86669,34.33199]},"properties":{"price":13000,"use":"坂出","zone":"","station":"工場"}},{"type":"Feature","geometry":{"type":"Point","coordinates":[133.85424,34.3269]},"properties":{"price":20900,"use":"坂出","zone":"","station":"倉庫"}},{"type":"Feature","geometry":{"type":"Point","coordinates":[133.78106,34.22982]},"properties":{"price":36500,"use":"善通寺","zone":"","station":"住宅"}},{"type":"Feature","geometry":{"type":"Point","coordinates":[133.76964,34.22934]},"properties":{"price":30500,"use":"善通寺","zone":"","station":"住宅"}},{"type":"Feature","geometry":{"type":"Point","coordinates":[133.77786,34.21754]},"properties":{"price":25000,"use":"善通寺","zone":"","station":"住宅"}},{"type":"Feature","geometry":{"type":"Point","coordinates":[133.78022,34.22683]},"properties":{"price":44500,"use":"善通寺","zone":"","station":"店舗"}},{"type":"Feature","geometry":{"type":"Point","coordinates":[133.77935,34.2307]},"properties":{"price":48300,"use":"善通寺","zone":"","station":"店舗"}},{"type":"Feature","geometry":{"type":"Point","coordinates":[133.66025,34.13224]},"properties":{"price":34800,"use":"観音寺","zone":"","station":"住宅"}},{"type":"Feature","geometry":{"type":"Point","coordinates":[133.65126,34.12171]},"properties":{"price":33000,"use":"観音寺","zone":"","station":"住宅"}},{"type":"Feature","geometry":{"type":"Point","coordinates":[133.65777,34.11729]},"properties":{"price":24600,"use":"観音寺","zone":"","station":"住宅"}},{"type":"Feature","geometry":{"type":"Point","coordinates":[133.63862,34.07319]},"properties":{"price":22200,"use":"観音寺","zone":"","station":"住宅"}},{"type":"Feature","geometry":{"type":"Point","coordinates":[133.64577,34.08297]},"properties":{"price":19900,"use":"観音寺","zone":"","station":"住宅"}},{"type":"Feature","geometry":{"type":"Point","coordinates":[133.654,34.12724]},"properties":{"price":55500,"use":"観音寺","zone":"","station":"店舗"}},{"type":"Feature","geometry":{"type":"Point","coordinates":[133.66101,34.12365]},"properties":{"price":59400,"use":"観音寺","zone":"","station":"店舗"}},{"type":"Feature","geometry":{"type":"Point","coordinates":[134.18767,34.30887]},"properties":{"price":23100,"use":"さぬき","zone":"","station":"住宅"}},{"type":"Feature","geometry":{"type":"Point","coordinates":[134.20676,34.32376]},"properties":{"price":16400,"use":"さぬき","zone":"","station":"住宅"}},{"type":"Feature","geometry":{"type":"Point","coordinates":[134.21464,34.26012]},"properties":{"price":11400,"use":"さぬき","zone":"","station":"住宅"}},{"type":"Feature","geometry":{"type":"Point","coordinates":[134.18005,34.26244]},"properties":{"price":23700,"use":"さぬき","zone":"","station":"住宅"}},{"type":"Feature","geometry":{"type":"Point","coordinates":[134.24756,34.29188]},"properties":{"price":23500,"use":"さぬき","zone":"","station":"店舗兼住宅"}},{"type":"Feature","geometry":{"type":"Point","coordinates":[134.18043,34.32024]},"properties":{"price":47800,"use":"さぬき","zone":"","station":"店舗、事務所兼倉庫"}},{"type":"Feature","geometry":{"type":"Point","coordinates":[134.20734,34.28649]},"properties":{"price":16600,"use":"さぬき","zone":"","station":"店舗、住宅兼工場"}},{"type":"Feature","geometry":{"type":"Point","coordinates":[134.33804,34.24344]},"properties":{"price":22400,"use":"東かがわ","zone":"","station":"住宅"}},{"type":"Feature","geometry":{"type":"Point","coordinates":[134.41333,34.214]},"properties":{"price":12700,"use":"東かがわ","zone":"","station":"住宅"}},{"type":"Feature","geometry":{"type":"Point","coordinates":[134.3228,34.25459]},"properties":{"price":12700,"use":"東かがわ","zone":"","station":"住宅"}},{"type":"Feature","geometry":{"type":"Point","coordinates":[134.35892,34.24193]},"properties":{"price":19800,"use":"東かがわ","zone":"","station":"住宅"}},{"type":"Feature","geometry":{"type":"Point","coordinates":[134.40059,34.22482]},"properties":{"price":27100,"use":"東かがわ","zone":"","station":"店舗兼住宅"}},{"type":"Feature","geometry":{"type":"Point","coordinates":[134.33469,34.25014]},"properties":{"price":36000,"use":"東かがわ","zone":"","station":"店舗兼宿舎"}},{"type":"Feature","geometry":{"type":"Point","coordinates":[133.67997,34.16235]},"properties":{"price":11800,"use":"三豊","zone":"","station":"住宅"}},{"type":"Feature","geometry":{"type":"Point","coordinates":[133.64901,34.1996]},"properties":{"price":16100,"use":"三豊","zone":"","station":"住宅"}},{"type":"Feature","geometry":{"type":"Point","coordinates":[133.70183,34.21779]},"properties":{"price":20800,"use":"三豊","zone":"","station":"住宅"}},{"type":"Feature","geometry":{"type":"Point","coordinates":[133.66009,34.22565]},"properties":{"price":12600,"use":"三豊","zone":"","station":"住宅"}},{"type":"Feature","geometry":{"type":"Point","coordinates":[133.71652,34.17545]},"properties":{"price":31300,"use":"三豊","zone":"","station":"店舗"}},{"type":"Feature","geometry":{"type":"Point","coordinates":[133.69697,34.14473]},"properties":{"price":24200,"use":"三豊","zone":"","station":"店舗"}},{"type":"Feature","geometry":{"type":"Point","coordinates":[133.6747,34.22061]},"properties":{"price":38600,"use":"三豊","zone":"","station":"事務所"}},{"type":"Feature","geometry":{"type":"Point","coordinates":[134.17809,34.48565]},"properties":{"price":26300,"use":"土庄","zone":"","station":"住宅"}},{"type":"Feature","geometry":{"type":"Point","coordinates":[134.18064,34.49009]},"properties":{"price":25300,"use":"土庄","zone":"","station":"住宅"}},{"type":"Feature","geometry":{"type":"Point","coordinates":[134.1763,34.48705]},"properties":{"price":31800,"use":"土庄","zone":"","station":"店舗兼住宅"}},{"type":"Feature","geometry":{"type":"Point","coordinates":[134.3208,34.48415]},"properties":{"price":17200,"use":"小豆島","zone":"","station":"住宅"}},{"type":"Feature","geometry":{"type":"Point","coordinates":[134.32336,34.45769]},"properties":{"price":15300,"use":"小豆島","zone":"","station":"住宅"}},{"type":"Feature","geometry":{"type":"Point","coordinates":[134.31022,34.47894]},"properties":{"price":37600,"use":"小豆島","zone":"","station":"店舗"}},{"type":"Feature","geometry":{"type":"Point","coordinates":[134.1299,34.25626]},"properties":{"price":21800,"use":"香川三木","zone":"","station":"住宅"}},{"type":"Feature","geometry":{"type":"Point","coordinates":[134.12867,34.29333]},"properties":{"price":19900,"use":"香川三木","zone":"","station":"住宅"}},{"type":"Feature","geometry":{"type":"Point","coordinates":[134.12041,34.2757]},"properties":{"price":32400,"use":"香川三木","zone":"","station":"店舗"}},{"type":"Feature","geometry":{"type":"Point","coordinates":[133.82606,34.30927]},"properties":{"price":34100,"use":"宇多津","zone":"","station":"住宅"}},{"type":"Feature","geometry":{"type":"Point","coordinates":[133.82429,34.31788]},"properties":{"price":31700,"use":"宇多津","zone":"","station":"住宅"}},{"type":"Feature","geometry":{"type":"Point","coordinates":[133.81634,34.30763]},"properties":{"price":52800,"use":"宇多津","zone":"","station":"店舗兼営業所"}},{"type":"Feature","geometry":{"type":"Point","coordinates":[133.81313,34.30957]},"properties":{"price":58700,"use":"宇多津","zone":"","station":"店舗"}},{"type":"Feature","geometry":{"type":"Point","coordinates":[133.9805,34.25906]},"properties":{"price":28100,"use":"綾川","zone":"","station":"住宅"}},{"type":"Feature","geometry":{"type":"Point","coordinates":[133.91439,34.24673]},"properties":{"price":24400,"use":"綾川","zone":"","station":"住宅"}},{"type":"Feature","geometry":{"type":"Point","coordinates":[133.94875,34.25311]},"properties":{"price":28400,"use":"綾川","zone":"","station":"店舗"}},{"type":"Feature","geometry":{"type":"Point","coordinates":[133.82738,34.19329]},"properties":{"price":26100,"use":"琴平","zone":"","station":"住宅"}},{"type":"Feature","geometry":{"type":"Point","coordinates":[133.81702,34.18827]},"properties":{"price":33000,"use":"琴平","zone":"","station":"住宅"}},{"type":"Feature","geometry":{"type":"Point","coordinates":[133.82945,34.18813]},"properties":{"price":35500,"use":"琴平","zone":"","station":"店舗兼住宅"}},{"type":"Feature","geometry":{"type":"Point","coordinates":[133.76481,34.27319]},"properties":{"price":28500,"use":"多度津","zone":"","station":"住宅"}},{"type":"Feature","geometry":{"type":"Point","coordinates":[133.73934,34.26768]},"properties":{"price":23800,"use":"多度津","zone":"","station":"住宅"}},{"type":"Feature","geometry":{"type":"Point","coordinates":[133.74738,34.27238]},"properties":{"price":36800,"use":"多度津","zone":"","station":"店舗兼住宅"}},{"type":"Feature","geometry":{"type":"Point","coordinates":[133.84896,34.18543]},"properties":{"price":19600,"use":"まんのう","zone":"","station":"住宅"}},{"type":"Feature","geometry":{"type":"Point","coordinates":[133.84694,34.17889]},"properties":{"price":14500,"use":"まんのう","zone":"","station":"住宅"}},{"type":"Feature","geometry":{"type":"Point","coordinates":[133.83928,34.19326]},"properties":{"price":26900,"use":"まんのう","zone":"","station":"店舗"}}]}