{"type":"FeatureCollection","features":[{"type":"Feature","geometry":{"type":"Point","coordinates":[135.75071,35.04369]},"properties":{"price":325000,"use":"京都北","zone":"","station":"住宅"}},{"type":"Feature","geometry":{"type":"Point","coordinates":[135.7557,35.04176]},"properties":{"price":392000,"use":"京都北","zone":"","station":"住宅"}},{"type":"Feature","geometry":{"type":"Point","coordinates":[135.74091,35.07245]},"properties":{"price":116000,"use":"京都北","zone":"","station":"住宅"}},{"type":"Feature","geometry":{"type":"Point","coordinates":[135.73336,35.04163]},"properties":{"price":243000,"use":"京都北","zone":"","station":"建築中"}},{"type":"Feature","geometry":{"type":"Point","coordinates":[135.76006,35.04106]},"properties":{"price":420000,"use":"京都北","zone":"","station":"住宅"}},{"type":"Feature","geometry":{"type":"Point","coordinates":[135.75774,35.05453]},"properties":{"price":290000,"use":"京都北","zone":"","station":"住宅"}},{"type":"Feature","geometry":{"type":"Point","coordinates":[135.74493,35.0469]},"properties":{"price":261000,"use":"京都北","zone":"","station":"住宅"}},{"type":"Feature","geometry":{"type":"Point","coordinates":[135.73099,35.03585]},"properties":{"price":276000,"use":"京都北","zone":"","station":"住宅"}},{"type":"Feature","geometry":{"type":"Point","coordinates":[135.74984,35.04719]},"properties":{"price":331000,"use":"京都北","zone":"","station":"住宅"}},{"type":"Feature","geometry":{"type":"Point","coordinates":[135.73005,35.02913]},"properties":{"price":316000,"use":"京都北","zone":"","station":"住宅"}},{"type":"Feature","geometry":{"type":"Point","coordinates":[135.73768,35.04892]},"properties":{"price":170000,"use":"京都北","zone":"","station":"住宅"}},{"type":"Feature","geometry":{"type":"Point","coordinates":[135.74316,35.05666]},"properties":{"price":231000,"use":"京都北","zone":"","station":"共同住宅"}},{"type":"Feature","geometry":{"type":"Point","coordinates":[135.75228,35.05128]},"properties":{"price":313000,"use":"京都北","zone":"","station":"住宅"}},{"type":"Feature","geometry":{"type":"Point","coordinates":[135.75865,35.0383]},"properties":{"price":416000,"use":"京都北","zone":"","station":"共同住宅"}},{"type":"Feature","geometry":{"type":"Point","coordinates":[135.74471,35.0403]},"properties":{"price":253000,"use":"京都北","zone":"","station":"住宅"}},{"type":"Feature","geometry":{"type":"Point","coordinates":[135.74352,35.06134]},"properties":{"price":192000,"use":"京都北","zone":"","station":"住宅"}},{"type":"Feature","geometry":{"type":"Point","coordinates":[135.76237,35.05446]},"properties":{"price":382000,"use":"京都北","zone":"","station":"住宅"}},{"type":"Feature","geometry":{"type":"Point","coordinates":[135.7302,35.02505]},"properties":{"price":319000,"use":"京都北","zone":"","station":"住宅"}},{"type":"Feature","geometry":{"type":"Point","coordinates":[135.7568,35.04549]},"properties":{"price":453000,"use":"京都北","zone":"","station":"住宅"}},{"type":"Feature","geometry":{"type":"Point","coordinates":[135.73479,35.05451]},"properties":{"price":190000,"use":"京都北","zone":"","station":"住宅"}},{"type":"Feature","geometry":{"type":"Point","coordinates":[135.74051,35.04184]},"properties":{"price":250000,"use":"京都北","zone":"","station":"住宅"}},{"type":"Feature","geometry":{"type":"Point","coordinates":[135.73481,35.03583]},"properties":{"price":273000,"use":"京都北","zone":"","station":"住宅"}},{"type":"Feature","geometry":{"type":"Point","coordinates":[135.76224,35.04]},"properties":{"price":299000,"use":"京都北","zone":"","station":"住宅"}},{"type":"Feature","geometry":{"type":"Point","coordinates":[135.74019,35.05332]},"properties":{"price":222000,"use":"京都北","zone":"","station":"住宅"}},{"type":"Feature","geometry":{"type":"Point","coordinates":[135.72687,35.03137]},"properties":{"price":255000,"use":"京都北","zone":"","station":"住宅"}},{"type":"Feature","geometry":{"type":"Point","coordinates":[135.74873,35.04555]},"properties":{"price":295000,"use":"京都北","zone":"","station":"店舗兼住宅"}},{"type":"Feature","geometry":{"type":"Point","coordinates":[135.75981,35.04389]},"properties":{"price":730000,"use":"京都北","zone":"","station":"店舗兼住宅"}},{"type":"Feature","geometry":{"type":"Point","coordinates":[135.73224,35.02747]},"properties":{"price":464000,"use":"京都北","zone":"","station":"店舗、住宅兼共同住宅"}},{"type":"Feature","geometry":{"type":"Point","coordinates":[135.75485,35.04288]},"properties":{"price":418000,"use":"京都北","zone":"","station":"店舗兼住宅"}},{"type":"Feature","geometry":{"type":"Point","coordinates":[135.74871,35.05716]},"properties":{"price":315000,"use":"京都北","zone":"","station":"診療所兼住宅"}},{"type":"Feature","geometry":{"type":"Point","coordinates":[135.74226,35.0364]},"properties":{"price":265000,"use":"京都北","zone":"","station":"店舗兼住宅"}},{"type":"Feature","geometry":{"type":"Point","coordinates":[135.7649,35.03316]},"properties":{"price":377000,"use":"京都上京","zone":"","station":"住宅"}},{"type":"Feature","geometry":{"type":"Point","coordinates":[135.74443,35.01713]},"properties":{"price":407000,"use":"京都上京","zone":"","station":"住宅"}},{"type":"Feature","geometry":{"type":"Point","coordinates":[135.75789,35.02081]},"properties":{"price":700000,"use":"京都上京","zone":"","station":"住宅"}},{"type":"Feature","geometry":{"type":"Point","coordinates":[135.75396,35.02372]},"properties":{"price":490000,"use":"京都上京","zone":"","station":"住宅"}},{"type":"Feature","geometry":{"type":"Point","coordinates":[135.76835,35.01886]},"properties":{"price":585000,"use":"京都上京","zone":"","station":"住宅"}},{"type":"Feature","geometry":{"type":"Point","coordinates":[135.75418,35.03619]},"properties":{"price":345000,"use":"京都上京","zone":"","station":"住宅"}},{"type":"Feature","geometry":{"type":"Point","coordinates":[135.77013,35.01888]},"properties":{"price":477000,"use":"京都上京","zone":"","station":"住宅"}},{"type":"Feature","geometry":{"type":"Point","coordinates":[135.74415,35.03325]},"properties":{"price":245000,"use":"京都上京","zone":"","station":"住宅"}},{"type":"Feature","geometry":{"type":"Point","coordinates":[135.74896,35.02175]},"properties":{"price":263000,"use":"京都上京","zone":"","station":"住宅"}},{"type":"Feature","geometry":{"type":"Point","coordinates":[135.74643,35.02881]},"properties":{"price":250000,"use":"京都上京","zone":"","station":"住宅"}},{"type":"Feature","geometry":{"type":"Point","coordinates":[135.7546,35.03292]},"properties":{"price":287000,"use":"京都上京","zone":"","station":"住宅"}},{"type":"Feature","geometry":{"type":"Point","coordinates":[135.73798,35.02326]},"properties":{"price":243000,"use":"京都上京","zone":"","station":"住宅"}},{"type":"Feature","geometry":{"type":"Point","coordinates":[135.7541,35.02568]},"properties":{"price":673000,"use":"京都上京","zone":"","station":"共同住宅"}},{"type":"Feature","geometry":{"type":"Point","coordinates":[135.74263,35.02516]},"properties":{"price":441000,"use":"京都上京","zone":"","station":"店舗兼事務所"}},{"type":"Feature","geometry":{"type":"Point","coordinates":[135.7689,35.02934]},"properties":{"price":668000,"use":"京都上京","zone":"","station":"店舗兼共同住宅"}},{"type":"Feature","geometry":{"type":"Point","coordinates":[135.75914,35.03692]},"properties":{"price":518000,"use":"京都上京","zone":"","station":"店舗"}},{"type":"Feature","geometry":{"type":"Point","coordinates":[135.75239,35.03267]},"properties":{"price":444000,"use":"京都上京","zone":"","station":"事務所兼共同住宅"}},{"type":"Feature","geometry":{"type":"Point","coordinates":[135.74989,35.01992]},"properties":{"price":332000,"use":"京都上京","zone":"","station":"店舗兼住宅"}},{"type":"Feature","geometry":{"type":"Point","coordinates":[135.77109,35.05374]},"properties":{"price":411000,"use":"京都左京","zone":"","station":"住宅"}},{"type":"Feature","geometry":{"type":"Point","coordinates":[135.79026,35.03571]},"properties":{"price":310000,"use":"京都左京","zone":"","station":"住宅"}},{"type":"Feature","geometry":{"type":"Point","coordinates":[135.78397,35.01081]},"properties":{"price":509000,"use":"京都左京","zone":"","station":"住宅"}},{"type":"Feature","geometry":{"type":"Point","coordinates":[135.79397,35.03206]},"properties":{"price":265000,"use":"京都左京","zone":"","station":"住宅"}},{"type":"Feature","geometry":{"type":"Point","coordinates":[135.77576,35.02258]},"properties":{"price":311000,"use":"京都左京","zone":"","station":"住宅"}},{"type":"Feature","geometry":{"type":"Point","coordinates":[135.79327,35.04647]},"properties":{"price":228000,"use":"京都左京","zone":"","station":"住宅"}},{"type":"Feature","geometry":{"type":"Point","coordinates":[135.7829,35.02283]},"properties":{"price":275000,"use":"京都左京","zone":"","station":"更地"}},{"type":"Feature","geometry":{"type":"Point","coordinates":[135.77455,35.04579]},"properties":{"price":428000,"use":"京都左京","zone":"","station":"住宅"}},{"type":"Feature","geometry":{"type":"Point","coordinates":[135.78376,35.04892]},"properties":{"price":320000,"use":"京都左京","zone":"","station":"住宅"}},{"type":"Feature","geometry":{"type":"Point","coordinates":[135.7864,35.06244]},"properties":{"price":292000,"use":"京都左京","zone":"","station":"住宅"}},{"type":"Feature","geometry":{"type":"Point","coordinates":[135.7854,35.07958]},"properties":{"price":120000,"use":"京都左京","zone":"","station":"住宅"}},{"type":"Feature","geometry":{"type":"Point","coordinates":[135.79295,35.02562]},"properties":{"price":305000,"use":"京都左京","zone":"","station":"住宅"}},{"type":"Feature","geometry":{"type":"Point","coordinates":[135.77251,35.06634]},"properties":{"price":169000,"use":"京都左京","zone":"","station":"住宅"}},{"type":"Feature","geometry":{"type":"Point","coordinates":[135.82131,35.08839]},"properties":{"price":50400,"use":"京都左京","zone":"","station":"住宅"}},{"type":"Feature","geometry":{"type":"Point","coordinates":[135.78663,35.08647]},"properties":{"price":105000,"use":"京都左京","zone":"","station":"住宅"}},{"type":"Feature","geometry":{"type":"Point","coordinates":[135.77361,35.03351]},"properties":{"price":406000,"use":"京都左京","zone":"","station":"住宅"}},{"type":"Feature","geometry":{"type":"Point","coordinates":[135.82175,35.11329]},"properties":{"price":32500,"use":"京都左京","zone":"","station":"住宅"}},{"type":"Feature","geometry":{"type":"Point","coordinates":[135.7893,35.07252]},"properties":{"price":147000,"use":"京都左京","zone":"","station":"住宅"}},{"type":"Feature","geometry":{"type":"Point","coordinates":[135.78323,35.06443]},"properties":{"price":280000,"use":"京都左京","zone":"","station":"住宅"}},{"type":"Feature","geometry":{"type":"Point","coordinates":[135.78771,35.11011]},"properties":{"price":30600,"use":"京都左京","zone":"","station":"住宅"}},{"type":"Feature","geometry":{"type":"Point","coordinates":[135.76185,35.08878]},"properties":{"price":76000,"use":"京都左京","zone":"","station":"住宅"}},{"type":"Feature","geometry":{"type":"Point","coordinates":[135.7756,35.06415]},"properties":{"price":230000,"use":"京都左京","zone":"","station":"住宅"}},{"type":"Feature","geometry":{"type":"Point","coordinates":[135.78355,35.03908]},"properties":{"price":232000,"use":"京都左京","zone":"","station":"住宅"}},{"type":"Feature","geometry":{"type":"Point","coordinates":[135.79721,35.05871]},"properties":{"price":135000,"use":"京都左京","zone":"","station":"住宅"}},{"type":"Feature","geometry":{"type":"Point","coordinates":[135.77534,35.03993]},"properties":{"price":352000,"use":"京都左京","zone":"","station":"住宅"}},{"type":"Feature","geometry":{"type":"Point","coordinates":[135.7913,35.04248]},"properties":{"price":246000,"use":"京都左京","zone":"","station":"住宅"}},{"type":"Feature","geometry":{"type":"Point","coordinates":[135.76705,35.03953]},"properties":{"price":356000,"use":"京都左京","zone":"","station":"共同住宅"}},{"type":"Feature","geometry":{"type":"Point","coordinates":[135.79152,35.01515]},"properties":{"price":334000,"use":"京都左京","zone":"","station":"住宅"}},{"type":"Feature","geometry":{"type":"Point","coordinates":[135.76888,35.05005]},"properties":{"price":497000,"use":"京都左京","zone":"","station":"住宅"}},{"type":"Feature","geometry":{"type":"Point","coordinates":[135.77906,35.04463]},"properties":{"price":384000,"use":"京都左京","zone":"","station":"住宅"}},{"type":"Feature","geometry":{"type":"Point","coordinates":[135.784,35.04597]},"properties":{"price":240000,"use":"京都左京","zone":"","station":"住宅"}},{"type":"Feature","geometry":{"type":"Point","coordinates":[135.79766,35.05588]},"properties":{"price":158000,"use":"京都左京","zone":"","station":"住宅"}},{"type":"Feature","geometry":{"type":"Point","coordinates":[135.77301,35.01414]},"properties":{"price":314000,"use":"京都左京","zone":"","station":"住宅"}},{"type":"Feature","geometry":{"type":"Point","coordinates":[135.78414,35.03565]},"properties":{"price":260000,"use":"京都左京","zone":"","station":"住宅"}},{"type":"Feature","geometry":{"type":"Point","coordinates":[135.77964,35.01993]},"properties":{"price":310000,"use":"京都左京","zone":"","station":"住宅"}},{"type":"Feature","geometry":{"type":"Point","coordinates":[135.77405,35.04341]},"properties":{"price":376000,"use":"京都左京","zone":"","station":"住宅"}},{"type":"Feature","geometry":{"type":"Point","coordinates":[135.79084,35.02637]},"properties":{"price":265000,"use":"京都左京","zone":"","station":"住宅"}},{"type":"Feature","geometry":{"type":"Point","coordinates":[135.7693,35.03591]},"properties":{"price":373000,"use":"京都左京","zone":"","station":"住宅"}},{"type":"Feature","geometry":{"type":"Point","coordinates":[135.77555,35.02717]},"properties":{"price":293000,"use":"京都左京","zone":"","station":"住宅"}},{"type":"Feature","geometry":{"type":"Point","coordinates":[135.77449,35.04436]},"properties":{"price":482000,"use":"京都左京","zone":"","station":"店舗兼住宅"}},{"type":"Feature","geometry":{"type":"Point","coordinates":[135.77487,35.01768]},"properties":{"price":549000,"use":"京都左京","zone":"","station":"店舗兼共同住宅"}},{"type":"Feature","geometry":{"type":"Point","coordinates":[135.79146,35.03607]},"properties":{"price":382000,"use":"京都左京","zone":"","station":"店舗兼共同住宅"}},{"type":"Feature","geometry":{"type":"Point","coordinates":[135.77821,35.0145]},"properties":{"price":505000,"use":"京都左京","zone":"","station":"事務所兼店舗"}},{"type":"Feature","geometry":{"type":"Point","coordinates":[135.77761,35.05145]},"properties":{"price":481000,"use":"京都左京","zone":"","station":"店舗兼共同住宅"}},{"type":"Feature","geometry":{"type":"Point","coordinates":[135.7707,35.04193]},"properties":{"price":405000,"use":"京都左京","zone":"","station":"店舗兼住宅"}},{"type":"Feature","geometry":{"type":"Point","coordinates":[135.78845,35.02876]},"properties":{"price":427000,"use":"京都左京","zone":"","station":"店舗"}},{"type":"Feature","geometry":{"type":"Point","coordinates":[135.73902,35.00652]},"properties":{"price":366000,"use":"京都中京","zone":"","station":"住宅"}},{"type":"Feature","geometry":{"type":"Point","coordinates":[135.74492,35.01306]},"properties":{"price":417000,"use":"京都中京","zone":"","station":"住宅"}},{"type":"Feature","geometry":{"type":"Point","coordinates":[135.7285,35.01514]},"properties":{"price":320000,"use":"京都中京","zone":"","station":"住宅"}},{"type":"Feature","geometry":{"type":"Point","coordinates":[135.7343,35.01172]},"properties":{"price":345000,"use":"京都中京","zone":"","station":"共同住宅兼事務所"}},{"type":"Feature","geometry":{"type":"Point","coordinates":[135.74083,34.99928]},"properties":{"price":313000,"use":"京都中京","zone":"","station":"住宅"}},{"type":"Feature","geometry":{"type":"Point","coordinates":[135.76436,35.00852]},"properties":{"price":1930000,"use":"京都中京","zone":"","station":"店舗兼共同住宅"}},{"type":"Feature","geometry":{"type":"Point","coordinates":[135.7522,35.00893]},"properties":{"price":1450000,"use":"京都中京","zone":"","station":"店舗兼共同住宅"}},{"type":"Feature","geometry":{"type":"Point","coordinates":[135.75616,35.01479]},"properties":{"price":735000,"use":"京都中京","zone":"","station":"店舗兼住宅"}},{"type":"Feature","geometry":{"type":"Point","coordinates":[135.75939,35.01431]},"properties":{"price":2330000,"use":"京都中京","zone":"","station":"事務所"}},{"type":"Feature","geometry":{"type":"Point","coordinates":[135.75992,35.00654]},"properties":{"price":4580000,"use":"京都中京","zone":"","station":"事務所"}},{"type":"Feature","geometry":{"type":"Point","coordinates":[135.76182,35.01694]},"properties":{"price":920000,"use":"京都中京","zone":"","station":"事務所兼作業所"}},{"type":"Feature","geometry":{"type":"Point","coordinates":[135.74608,35.01088]},"properties":{"price":502000,"use":"京都中京","zone":"","station":"店舗、住宅兼共同住宅"}},{"type":"Feature","geometry":{"type":"Point","coordinates":[135.75742,35.00752]},"properties":{"price":1230000,"use":"京都中京","zone":"","station":"事務所"}},{"type":"Feature","geometry":{"type":"Point","coordinates":[135.75885,35.01754]},"properties":{"price":1190000,"use":"京都中京","zone":"","station":"店舗、事務所兼共同住宅"}},{"type":"Feature","geometry":{"type":"Point","coordinates":[135.75834,35.01118]},"properties":{"price":2450000,"use":"京都中京","zone":"","station":"店舗兼事務所"}},{"type":"Feature","geometry":{"type":"Point","coordinates":[135.76473,35.01233]},"properties":{"price":986000,"use":"京都中京","zone":"","station":"事務所"}},{"type":"Feature","geometry":{"type":"Point","coordinates":[135.76929,35.00739]},"properties":{"price":4800000,"use":"京都中京","zone":"","station":"店舗"}},{"type":"Feature","geometry":{"type":"Point","coordinates":[135.77031,35.01055]},"properties":{"price":2780000,"use":"京都中京","zone":"","station":"店舗兼共同住宅"}},{"type":"Feature","geometry":{"type":"Point","coordinates":[135.73208,35.01938]},"properties":{"price":495000,"use":"京都中京","zone":"","station":"店舗兼共同住宅"}},{"type":"Feature","geometry":{"type":"Point","coordinates":[135.74715,35.00835]},"properties":{"price":505000,"use":"京都中京","zone":"","station":"店舗"}},{"type":"Feature","geometry":{"type":"Point","coordinates":[135.74392,35.00785]},"properties":{"price":529000,"use":"京都中京","zone":"","station":"店舗兼事務所"}},{"type":"Feature","geometry":{"type":"Point","coordinates":[135.76678,35.0079]},"properties":{"price":2170000,"use":"京都中京","zone":"","station":"店舗、診療所兼住宅"}},{"type":"Feature","geometry":{"type":"Point","coordinates":[135.76629,35.01727]},"properties":{"price":975000,"use":"京都中京","zone":"","station":"事務所"}},{"type":"Feature","geometry":{"type":"Point","coordinates":[135.77073,35.00759]},"properties":{"price":1440000,"use":"京都中京","zone":"","station":"店舗、事務所兼共同住宅"}},{"type":"Feature","geometry":{"type":"Point","coordinates":[135.76919,35.01512]},"properties":{"price":1050000,"use":"京都中京","zone":"","station":"店舗兼共同住宅"}},{"type":"Feature","geometry":{"type":"Point","coordinates":[135.76134,35.01054]},"properties":{"price":2700000,"use":"京都中京","zone":"","station":"店舗兼事務所"}},{"type":"Feature","geometry":{"type":"Point","coordinates":[135.74599,35.00218]},"properties":{"price":420000,"use":"京都中京","zone":"","station":"事務所兼住宅"}},{"type":"Feature","geometry":{"type":"Point","coordinates":[135.78363,35.00845]},"properties":{"price":448000,"use":"京都東山","zone":"","station":"共同住宅"}},{"type":"Feature","geometry":{"type":"Point","coordinates":[135.77622,34.98239]},"properties":{"price":182000,"use":"京都東山","zone":"","station":"住宅"}},{"type":"Feature","geometry":{"type":"Point","coordinates":[135.77292,34.99235]},"properties":{"price":335000,"use":"京都東山","zone":"","station":"住宅"}},{"type":"Feature","geometry":{"type":"Point","coordinates":[135.7813,34.99842]},"properties":{"price":470000,"use":"京都東山","zone":"","station":"住宅"}},{"type":"Feature","geometry":{"type":"Point","coordinates":[135.77163,34.979]},"properties":{"price":198000,"use":"京都東山","zone":"","station":"住宅"}},{"type":"Feature","geometry":{"type":"Point","coordinates":[135.78127,34.9912]},"properties":{"price":160000,"use":"京都東山","zone":"","station":"住宅"}},{"type":"Feature","geometry":{"type":"Point","coordinates":[135.77145,34.98675]},"properties":{"price":250000,"use":"京都東山","zone":"","station":"住宅"}},{"type":"Feature","geometry":{"type":"Point","coordinates":[135.7753,35.00501]},"properties":{"price":1510000,"use":"京都東山","zone":"","station":"店舗兼住宅"}},{"type":"Feature","geometry":{"type":"Point","coordinates":[135.77007,34.98914]},"properties":{"price":666000,"use":"京都東山","zone":"","station":"店舗、共同住宅兼事務所"}},{"type":"Feature","geometry":{"type":"Point","coordinates":[135.77177,34.99872]},"properties":{"price":584000,"use":"京都東山","zone":"","station":"店舗"}},{"type":"Feature","geometry":{"type":"Point","coordinates":[135.7726,34.99532]},"properties":{"price":953000,"use":"京都東山","zone":"","station":"店舗、倉庫兼住宅"}},{"type":"Feature","geometry":{"type":"Point","coordinates":[135.77676,34.99733]},"properties":{"price":915000,"use":"京都東山","zone":"","station":"店舗兼事務所"}},{"type":"Feature","geometry":{"type":"Point","coordinates":[135.77208,35.00312]},"properties":{"price":1420000,"use":"京都東山","zone":"","station":"店舗"}},{"type":"Feature","geometry":{"type":"Point","coordinates":[135.77594,35.00401]},"properties":{"price":3890000,"use":"京都東山","zone":"","station":"店舗、事務所兼住宅等"}},{"type":"Feature","geometry":{"type":"Point","coordinates":[135.77719,35.00095]},"properties":{"price":818000,"use":"京都東山","zone":"","station":"店舗"}},{"type":"Feature","geometry":{"type":"Point","coordinates":[135.77557,35.00955]},"properties":{"price":1390000,"use":"京都東山","zone":"","station":"店舗兼ホテル"}},{"type":"Feature","geometry":{"type":"Point","coordinates":[135.77299,35.00626]},"properties":{"price":975000,"use":"京都東山","zone":"","station":"店舗"}},{"type":"Feature","geometry":{"type":"Point","coordinates":[135.77954,35.00927]},"properties":{"price":696000,"use":"京都東山","zone":"","station":"店舗兼共同住宅"}},{"type":"Feature","geometry":{"type":"Point","coordinates":[135.77974,34.99527]},"properties":{"price":767000,"use":"京都東山","zone":"","station":"店舗"}},{"type":"Feature","geometry":{"type":"Point","coordinates":[135.7465,34.9939]},"properties":{"price":270000,"use":"京都下京","zone":"","station":"住宅"}},{"type":"Feature","geometry":{"type":"Point","coordinates":[135.74435,34.99029]},"properties":{"price":315000,"use":"京都下京","zone":"","station":"住宅"}},{"type":"Feature","geometry":{"type":"Point","coordinates":[135.73731,34.98732]},"properties":{"price":270000,"use":"京都下京","zone":"","station":"住宅"}},{"type":"Feature","geometry":{"type":"Point","coordinates":[135.73396,34.99076]},"properties":{"price":280000,"use":"京都下京","zone":"","station":"住宅"}},{"type":"Feature","geometry":{"type":"Point","coordinates":[135.73412,34.99426]},"properties":{"price":256000,"use":"京都下京","zone":"","station":"事務所兼共同住宅"}},{"type":"Feature","geometry":{"type":"Point","coordinates":[135.7375,34.99766]},"properties":{"price":288000,"use":"京都下京","zone":"","station":"共同住宅"}},{"type":"Feature","geometry":{"type":"Point","coordinates":[135.76891,35.00401]},"properties":{"price":9500000,"use":"京都下京","zone":"","station":"銀行"}},{"type":"Feature","geometry":{"type":"Point","coordinates":[135.76373,35.00022]},"properties":{"price":903000,"use":"京都下京","zone":"","station":"店舗兼住宅"}},{"type":"Feature","geometry":{"type":"Point","coordinates":[135.74869,35.00297]},"properties":{"price":1560000,"use":"京都下京","zone":"","station":"店舗"}},{"type":"Feature","geometry":{"type":"Point","coordinates":[135.75535,34.9908]},"properties":{"price":625000,"use":"京都下京","zone":"","station":"店舗兼住宅"}},{"type":"Feature","geometry":{"type":"Point","coordinates":[135.75033,35.00164]},"properties":{"price":480000,"use":"京都下京","zone":"","station":"店舗兼住宅"}},{"type":"Feature","geometry":{"type":"Point","coordinates":[135.76728,34.9987]},"properties":{"price":1650000,"use":"京都下京","zone":"","station":"店舗兼旅館"}},{"type":"Feature","geometry":{"type":"Point","coordinates":[135.75485,34.996]},"properties":{"price":1180000,"use":"京都下京","zone":"","station":"事務所"}},{"type":"Feature","geometry":{"type":"Point","coordinates":[135.75718,34.99868]},"properties":{"price":650000,"use":"京都下京","zone":"","station":"事務所"}},{"type":"Feature","geometry":{"type":"Point","coordinates":[135.74897,34.98862]},"properties":{"price":501000,"use":"京都下京","zone":"","station":"店舗、事務所兼共同住宅"}},{"type":"Feature","geometry":{"type":"Point","coordinates":[135.75336,34.99193]},"properties":{"price":818000,"use":"京都下京","zone":"","station":"事務所、作業場兼倉庫等"}},{"type":"Feature","geometry":{"type":"Point","coordinates":[135.73211,34.99165]},"properties":{"price":603000,"use":"京都下京","zone":"","station":"店舗兼共同住宅"}},{"type":"Feature","geometry":{"type":"Point","coordinates":[135.75688,35.00398]},"properties":{"price":3090000,"use":"京都下京","zone":"","station":"店舗兼事務所"}},{"type":"Feature","geometry":{"type":"Point","coordinates":[135.75647,35.00196]},"properties":{"price":969000,"use":"京都下京","zone":"","station":"診療所兼事務所"}},{"type":"Feature","geometry":{"type":"Point","coordinates":[135.76176,34.99292]},"properties":{"price":444000,"use":"京都下京","zone":"","station":"店舗、作業場兼住宅"}},{"type":"Feature","geometry":{"type":"Point","coordinates":[135.76004,34.9882]},"properties":{"price":6500000,"use":"京都下京","zone":"","station":"銀行兼事務所"}},{"type":"Feature","geometry":{"type":"Point","coordinates":[135.73991,34.98932]},"properties":{"price":488000,"use":"京都下京","zone":"","station":"店舗兼事務所"}},{"type":"Feature","geometry":{"type":"Point","coordinates":[135.76307,34.98902]},"properties":{"price":1350000,"use":"京都下京","zone":"","station":"店舗兼共同住宅"}},{"type":"Feature","geometry":{"type":"Point","coordinates":[135.76666,35.0022]},"properties":{"price":1120000,"use":"京都下京","zone":"","station":"旅館"}},{"type":"Feature","geometry":{"type":"Point","coordinates":[135.74715,34.99598]},"properties":{"price":742000,"use":"京都下京","zone":"","station":"事務所"}},{"type":"Feature","geometry":{"type":"Point","coordinates":[135.7517,35.00177]},"properties":{"price":1290000,"use":"京都下京","zone":"","station":"事務所兼共同住宅"}},{"type":"Feature","geometry":{"type":"Point","coordinates":[135.75641,34.9876]},"properties":{"price":5730000,"use":"京都下京","zone":"","station":"店舗兼事務所"}},{"type":"Feature","geometry":{"type":"Point","coordinates":[135.72951,34.9868]},"properties":{"price":197000,"use":"京都下京","zone":"","station":"工場"}},{"type":"Feature","geometry":{"type":"Point","coordinates":[135.7422,34.98331]},"properties":{"price":222000,"use":"京都南","zone":"","station":"住宅"}},{"type":"Feature","geometry":{"type":"Point","coordinates":[135.73111,34.97289]},"properties":{"price":186000,"use":"京都南","zone":"","station":"住宅"}},{"type":"Feature","geometry":{"type":"Point","coordinates":[135.74999,34.9782]},"properties":{"price":265000,"use":"京都南","zone":"","station":"住宅"}},{"type":"Feature","geometry":{"type":"Point","coordinates":[135.7188,34.96069]},"properties":{"price":147000,"use":"京都南","zone":"","station":"住宅"}},{"type":"Feature","geometry":{"type":"Point","coordinates":[135.76263,34.97463]},"properties":{"price":170000,"use":"京都南","zone":"","station":"住宅"}},{"type":"Feature","geometry":{"type":"Point","coordinates":[135.74036,34.96902]},"properties":{"price":138000,"use":"京都南","zone":"","station":"住宅"}},{"type":"Feature","geometry":{"type":"Point","coordinates":[135.742,34.95841]},"properties":{"price":130000,"use":"京都南","zone":"","station":"住宅"}},{"type":"Feature","geometry":{"type":"Point","coordinates":[135.757,34.9765]},"properties":{"price":258000,"use":"京都南","zone":"","station":"住宅"}},{"type":"Feature","geometry":{"type":"Point","coordinates":[135.7295,34.96145]},"properties":{"price":140000,"use":"京都南","zone":"","station":"住宅"}},{"type":"Feature","geometry":{"type":"Point","coordinates":[135.71142,34.96057]},"properties":{"price":204000,"use":"京都南","zone":"","station":"住宅"}},{"type":"Feature","geometry":{"type":"Point","coordinates":[135.71231,34.96411]},"properties":{"price":340000,"use":"京都南","zone":"","station":"共同住宅"}},{"type":"Feature","geometry":{"type":"Point","coordinates":[135.75023,34.97955]},"properties":{"price":410000,"use":"京都南","zone":"","station":"店舗"}},{"type":"Feature","geometry":{"type":"Point","coordinates":[135.76096,34.98082]},"properties":{"price":401000,"use":"京都南","zone":"","station":"診療所兼住宅"}},{"type":"Feature","geometry":{"type":"Point","coordinates":[135.74211,34.97912]},"properties":{"price":342000,"use":"京都南","zone":"","station":"店舗兼共同住宅"}},{"type":"Feature","geometry":{"type":"Point","coordinates":[135.75955,34.98282]},"properties":{"price":1480000,"use":"京都南","zone":"","station":"店舗兼共同住宅"}},{"type":"Feature","geometry":{"type":"Point","coordinates":[135.75924,34.98383]},"properties":{"price":3650000,"use":"京都南","zone":"","station":"事務所兼店舗"}},{"type":"Feature","geometry":{"type":"Point","coordinates":[135.75394,34.97763]},"properties":{"price":327000,"use":"京都南","zone":"","station":"店舗"}},{"type":"Feature","geometry":{"type":"Point","coordinates":[135.7497,34.96968]},"properties":{"price":178000,"use":"京都南","zone":"","station":"倉庫兼事務所"}},{"type":"Feature","geometry":{"type":"Point","coordinates":[135.72962,34.9699]},"properties":{"price":138000,"use":"京都南","zone":"","station":"倉庫兼事務所"}},{"type":"Feature","geometry":{"type":"Point","coordinates":[135.7271,34.95341]},"properties":{"price":94800,"use":"京都南","zone":"","station":"工場兼事務所"}},{"type":"Feature","geometry":{"type":"Point","coordinates":[135.75759,34.97085]},"properties":{"price":186000,"use":"京都南","zone":"","station":"工場兼事務所"}},{"type":"Feature","geometry":{"type":"Point","coordinates":[135.72202,34.94659]},"properties":{"price":102000,"use":"京都南","zone":"","station":"建築中"}},{"type":"Feature","geometry":{"type":"Point","coordinates":[135.72523,34.98279]},"properties":{"price":151000,"use":"京都南","zone":"","station":"工場"}},{"type":"Feature","geometry":{"type":"Point","coordinates":[135.71895,35.02847]},"properties":{"price":196000,"use":"京都右京","zone":"","station":"住宅"}},{"type":"Feature","geometry":{"type":"Point","coordinates":[135.68913,35.01947]},"properties":{"price":190000,"use":"京都右京","zone":"","station":"住宅"}},{"type":"Feature","geometry":{"type":"Point","coordinates":[135.71535,35.01526]},"properties":{"price":207000,"use":"京都右京","zone":"","station":"住宅"}},{"type":"Feature","geometry":{"type":"Point","coordinates":[135.687,35.01574]},"properties":{"price":209000,"use":"京都右京","zone":"","station":"住宅"}},{"type":"Feature","geometry":{"type":"Point","coordinates":[135.70704,35.01957]},"properties":{"price":196000,"use":"京都右京","zone":"","station":"住宅"}},{"type":"Feature","geometry":{"type":"Point","coordinates":[135.69461,35.00695]},"properties":{"price":178000,"use":"京都右京","zone":"","station":"住宅"}},{"type":"Feature","geometry":{"type":"Point","coordinates":[135.71484,34.99687]},"properties":{"price":265000,"use":"京都右京","zone":"","station":"住宅"}},{"type":"Feature","geometry":{"type":"Point","coordinates":[135.68224,35.02217]},"properties":{"price":212000,"use":"京都右京","zone":"","station":"住宅"}},{"type":"Feature","geometry":{"type":"Point","coordinates":[135.68262,35.03123]},"properties":{"price":53000,"use":"京都右京","zone":"","station":"住宅"}},{"type":"Feature","geometry":{"type":"Point","coordinates":[135.71889,34.99969]},"properties":{"price":259000,"use":"京都右京","zone":"","station":"共同住宅"}},{"type":"Feature","geometry":{"type":"Point","coordinates":[135.71613,35.02138]},"properties":{"price":197000,"use":"京都右京","zone":"","station":"住宅"}},{"type":"Feature","geometry":{"type":"Point","coordinates":[135.72226,34.98968]},"properties":{"price":212000,"use":"京都右京","zone":"","station":"住宅"}},{"type":"Feature","geometry":{"type":"Point","coordinates":[135.67948,35.0309]},"properties":{"price":105000,"use":"京都右京","zone":"","station":"住宅"}},{"type":"Feature","geometry":{"type":"Point","coordinates":[135.70463,35.02431]},"properties":{"price":175000,"use":"京都右京","zone":"","station":"住宅"}},{"type":"Feature","geometry":{"type":"Point","coordinates":[135.6998,35.0009]},"properties":{"price":176000,"use":"京都右京","zone":"","station":"住宅"}},{"type":"Feature","geometry":{"type":"Point","coordinates":[135.71813,35.00665]},"properties":{"price":194000,"use":"京都右京","zone":"","station":"住宅"}},{"type":"Feature","geometry":{"type":"Point","coordinates":[135.70332,35.03145]},"properties":{"price":145000,"use":"京都右京","zone":"","station":"住宅"}},{"type":"Feature","geometry":{"type":"Point","coordinates":[135.7285,35.00755]},"properties":{"price":261000,"use":"京都右京","zone":"","station":"住宅"}},{"type":"Feature","geometry":{"type":"Point","coordinates":[135.67555,35.05448]},"properties":{"price":46000,"use":"京都右京","zone":"","station":"住宅"}},{"type":"Feature","geometry":{"type":"Point","coordinates":[135.70477,35.00716]},"properties":{"price":200000,"use":"京都右京","zone":"","station":"住宅"}},{"type":"Feature","geometry":{"type":"Point","coordinates":[135.7234,35.01807]},"properties":{"price":217000,"use":"京都右京","zone":"","station":"住宅"}},{"type":"Feature","geometry":{"type":"Point","coordinates":[135.67745,35.02597]},"properties":{"price":171000,"use":"京都右京","zone":"","station":"住宅"}},{"type":"Feature","geometry":{"type":"Point","coordinates":[135.71037,35.02265]},"properties":{"price":197000,"use":"京都右京","zone":"","station":"住宅"}},{"type":"Feature","geometry":{"type":"Point","coordinates":[135.7086,34.99964]},"properties":{"price":185000,"use":"京都右京","zone":"","station":"住宅"}},{"type":"Feature","geometry":{"type":"Point","coordinates":[135.71695,34.98953]},"properties":{"price":197000,"use":"京都右京","zone":"","station":"住宅"}},{"type":"Feature","geometry":{"type":"Point","coordinates":[135.69955,35.0147]},"properties":{"price":269000,"use":"京都右京","zone":"","station":"店舗兼住宅"}},{"type":"Feature","geometry":{"type":"Point","coordinates":[135.68134,35.01771]},"properties":{"price":370000,"use":"京都右京","zone":"","station":"銀行"}},{"type":"Feature","geometry":{"type":"Point","coordinates":[135.71957,34.9918]},"properties":{"price":322000,"use":"京都右京","zone":"","station":"店舗兼共同住宅"}},{"type":"Feature","geometry":{"type":"Point","coordinates":[135.71899,35.00546]},"properties":{"price":272000,"use":"京都右京","zone":"","station":"店舗"}},{"type":"Feature","geometry":{"type":"Point","coordinates":[135.71713,34.98376]},"properties":{"price":134000,"use":"京都右京","zone":"","station":"倉庫"}},{"type":"Feature","geometry":{"type":"Point","coordinates":[135.72319,34.99728]},"properties":{"price":216000,"use":"京都右京","zone":"","station":"工場、事務所兼倉庫"}},{"type":"Feature","geometry":{"type":"Point","coordinates":[135.7147,35.00716]},"properties":{"price":155000,"use":"京都右京","zone":"","station":"工場"}},{"type":"Feature","geometry":{"type":"Point","coordinates":[135.72677,34.99161]},"properties":{"price":206000,"use":"京都右京","zone":"","station":"工場兼住宅"}},{"type":"Feature","geometry":{"type":"Point","coordinates":[135.76916,34.93525]},"properties":{"price":276000,"use":"京都伏見","zone":"","station":"住宅"}},{"type":"Feature","geometry":{"type":"Point","coordinates":[135.80989,34.94343]},"properties":{"price":151000,"use":"京都伏見","zone":"","station":"住宅"}},{"type":"Feature","geometry":{"type":"Point","coordinates":[135.72348,34.90877]},"properties":{"price":117000,"use":"京都伏見","zone":"","station":"住宅"}},{"type":"Feature","geometry":{"type":"Point","coordinates":[135.81774,34.94862]},"properties":{"price":118000,"use":"京都伏見","zone":"","station":"住宅"}},{"type":"Feature","geometry":{"type":"Point","coordinates":[135.77645,34.95211]},"properties":{"price":162000,"use":"京都伏見","zone":"","station":"住宅"}},{"type":"Feature","geometry":{"type":"Point","coordinates":[135.77352,34.93123]},"properties":{"price":201000,"use":"京都伏見","zone":"","station":"住宅"}},{"type":"Feature","geometry":{"type":"Point","coordinates":[135.78548,34.94472]},"properties":{"price":96300,"use":"京都伏見","zone":"","station":"住宅"}},{"type":"Feature","geometry":{"type":"Point","coordinates":[135.76724,34.94183]},"properties":{"price":301000,"use":"京都伏見","zone":"","station":"住宅"}},{"type":"Feature","geometry":{"type":"Point","coordinates":[135.76215,34.94692]},"properties":{"price":235000,"use":"京都伏見","zone":"","station":"住宅"}},{"type":"Feature","geometry":{"type":"Point","coordinates":[135.76891,34.92333]},"properties":{"price":118000,"use":"京都伏見","zone":"","station":"住宅"}},{"type":"Feature","geometry":{"type":"Point","coordinates":[135.72799,34.93653]},"properties":{"price":110000,"use":"京都伏見","zone":"","station":"住宅"}},{"type":"Feature","geometry":{"type":"Point","coordinates":[135.78777,34.93843]},"properties":{"price":113000,"use":"京都伏見","zone":"","station":"住宅"}},{"type":"Feature","geometry":{"type":"Point","coordinates":[135.80011,34.94455]},"properties":{"price":136000,"use":"京都伏見","zone":"","station":"住宅"}},{"type":"Feature","geometry":{"type":"Point","coordinates":[135.76324,34.9199]},"properties":{"price":106000,"use":"京都伏見","zone":"","station":"住宅"}},{"type":"Feature","geometry":{"type":"Point","coordinates":[135.7659,34.96094]},"properties":{"price":184000,"use":"京都伏見","zone":"","station":"住宅"}},{"type":"Feature","geometry":{"type":"Point","coordinates":[135.82165,34.95893]},"properties":{"price":129000,"use":"京都伏見","zone":"","station":"住宅"}},{"type":"Feature","geometry":{"type":"Point","coordinates":[135.73497,34.92809]},"properties":{"price":102000,"use":"京都伏見","zone":"","station":"住宅"}},{"type":"Feature","geometry":{"type":"Point","coordinates":[135.78843,34.92876]},"properties":{"price":186000,"use":"京都伏見","zone":"","station":"住宅"}},{"type":"Feature","geometry":{"type":"Point","coordinates":[135.74321,34.93785]},"properties":{"price":136000,"use":"京都伏見","zone":"","station":"住宅"}},{"type":"Feature","geometry":{"type":"Point","coordinates":[135.81401,34.932]},"properties":{"price":99500,"use":"京都伏見","zone":"","station":"住宅"}},{"type":"Feature","geometry":{"type":"Point","coordinates":[135.7808,34.94651]},"properties":{"price":122000,"use":"京都伏見","zone":"","station":"住宅"}},{"type":"Feature","geometry":{"type":"Point","coordinates":[135.75567,34.93557]},"properties":{"price":156000,"use":"京都伏見","zone":"","station":"工場、事務所兼住宅"}},{"type":"Feature","geometry":{"type":"Point","coordinates":[135.71784,34.90248]},"properties":{"price":125000,"use":"京都伏見","zone":"","station":"住宅"}},{"type":"Feature","geometry":{"type":"Point","coordinates":[135.76451,34.96587]},"properties":{"price":185000,"use":"京都伏見","zone":"","station":"住宅"}},{"type":"Feature","geometry":{"type":"Point","coordinates":[135.76606,34.95237]},"properties":{"price":198000,"use":"京都伏見","zone":"","station":"住宅"}},{"type":"Feature","geometry":{"type":"Point","coordinates":[135.72984,34.94606]},"properties":{"price":99100,"use":"京都伏見","zone":"","station":"住宅"}},{"type":"Feature","geometry":{"type":"Point","coordinates":[135.7727,34.93916]},"properties":{"price":272000,"use":"京都伏見","zone":"","station":"住宅"}},{"type":"Feature","geometry":{"type":"Point","coordinates":[135.7642,34.93668]},"properties":{"price":285000,"use":"京都伏見","zone":"","station":"住宅"}},{"type":"Feature","geometry":{"type":"Point","coordinates":[135.78792,34.93317]},"properties":{"price":146000,"use":"京都伏見","zone":"","station":"住宅"}},{"type":"Feature","geometry":{"type":"Point","coordinates":[135.81862,34.94485]},"properties":{"price":111000,"use":"京都伏見","zone":"","station":"住宅"}},{"type":"Feature","geometry":{"type":"Point","coordinates":[135.72436,34.90129]},"properties":{"price":110000,"use":"京都伏見","zone":"","station":"住宅"}},{"type":"Feature","geometry":{"type":"Point","coordinates":[135.75336,34.95079]},"properties":{"price":169000,"use":"京都伏見","zone":"","station":"住宅"}},{"type":"Feature","geometry":{"type":"Point","coordinates":[135.78172,34.95198]},"properties":{"price":92500,"use":"京都伏見","zone":"","station":"住宅"}},{"type":"Feature","geometry":{"type":"Point","coordinates":[135.78001,34.92865]},"properties":{"price":169000,"use":"京都伏見","zone":"","station":"住宅"}},{"type":"Feature","geometry":{"type":"Point","coordinates":[135.77371,34.96417]},"properties":{"price":167000,"use":"京都伏見","zone":"","station":"住宅"}},{"type":"Feature","geometry":{"type":"Point","coordinates":[135.74842,34.94718]},"properties":{"price":140000,"use":"京都伏見","zone":"","station":"住宅"}},{"type":"Feature","geometry":{"type":"Point","coordinates":[135.72443,34.9292]},"properties":{"price":107000,"use":"京都伏見","zone":"","station":"住宅"}},{"type":"Feature","geometry":{"type":"Point","coordinates":[135.7627,34.93312]},"properties":{"price":570000,"use":"京都伏見","zone":"","station":"店舗兼住宅"}},{"type":"Feature","geometry":{"type":"Point","coordinates":[135.75896,34.92897]},"properties":{"price":218000,"use":"京都伏見","zone":"","station":"事務所兼車庫"}},{"type":"Feature","geometry":{"type":"Point","coordinates":[135.76411,34.94028]},"properties":{"price":290000,"use":"京都伏見","zone":"","station":"店舗兼住宅"}},{"type":"Feature","geometry":{"type":"Point","coordinates":[135.7933,34.93529]},"properties":{"price":281000,"use":"京都伏見","zone":"","station":"店舗"}},{"type":"Feature","geometry":{"type":"Point","coordinates":[135.78654,34.93225]},"properties":{"price":172000,"use":"京都伏見","zone":"","station":"店舗兼共同住宅"}},{"type":"Feature","geometry":{"type":"Point","coordinates":[135.77101,34.95553]},"properties":{"price":199000,"use":"京都伏見","zone":"","station":"店舗兼住宅"}},{"type":"Feature","geometry":{"type":"Point","coordinates":[135.77083,34.9673]},"properties":{"price":520000,"use":"京都伏見","zone":"","station":"店舗"}},{"type":"Feature","geometry":{"type":"Point","coordinates":[135.71494,34.93071]},"properties":{"price":133000,"use":"京都伏見","zone":"","station":"店舗兼作業場"}},{"type":"Feature","geometry":{"type":"Point","coordinates":[135.76802,34.96004]},"properties":{"price":236000,"use":"京都伏見","zone":"","station":"事務所"}},{"type":"Feature","geometry":{"type":"Point","coordinates":[135.72372,34.9127]},"properties":{"price":102000,"use":"京都伏見","zone":"","station":"店舗"}},{"type":"Feature","geometry":{"type":"Point","coordinates":[135.75224,34.94269]},"properties":{"price":275000,"use":"京都伏見","zone":"","station":"会館"}},{"type":"Feature","geometry":{"type":"Point","coordinates":[135.7687,34.92852]},"properties":{"price":171000,"use":"京都伏見","zone":"","station":"店舗兼共同住宅"}},{"type":"Feature","geometry":{"type":"Point","coordinates":[135.74745,34.92552]},"properties":{"price":123000,"use":"京都伏見","zone":"","station":"倉庫"}},{"type":"Feature","geometry":{"type":"Point","coordinates":[135.74209,34.92246]},"properties":{"price":106000,"use":"京都伏見","zone":"","station":"作業場"}},{"type":"Feature","geometry":{"type":"Point","coordinates":[135.72806,34.94813]},"properties":{"price":103000,"use":"京都伏見","zone":"","station":"工場"}},{"type":"Feature","geometry":{"type":"Point","coordinates":[135.74967,34.93637]},"properties":{"price":190000,"use":"京都伏見","zone":"","station":"倉庫兼事務所"}},{"type":"Feature","geometry":{"type":"Point","coordinates":[135.81373,34.96229]},"properties":{"price":157000,"use":"京都山科","zone":"","station":"住宅"}},{"type":"Feature","geometry":{"type":"Point","coordinates":[135.82123,34.98616]},"properties":{"price":186000,"use":"京都山科","zone":"","station":"住宅"}},{"type":"Feature","geometry":{"type":"Point","coordinates":[135.80785,34.96578]},"properties":{"price":141000,"use":"京都山科","zone":"","station":"住宅"}},{"type":"Feature","geometry":{"type":"Point","coordinates":[135.80082,34.96869]},"properties":{"price":134000,"use":"京都山科","zone":"","station":"住宅"}},{"type":"Feature","geometry":{"type":"Point","coordinates":[135.82723,34.98902]},"properties":{"price":156000,"use":"京都山科","zone":"","station":"住宅"}},{"type":"Feature","geometry":{"type":"Point","coordinates":[135.80202,34.98689]},"properties":{"price":139000,"use":"京都山科","zone":"","station":"住宅"}},{"type":"Feature","geometry":{"type":"Point","coordinates":[135.82125,34.97378]},"properties":{"price":152000,"use":"京都山科","zone":"","station":"住宅"}},{"type":"Feature","geometry":{"type":"Point","coordinates":[135.80611,34.97784]},"properties":{"price":146000,"use":"京都山科","zone":"","station":"住宅"}},{"type":"Feature","geometry":{"type":"Point","coordinates":[135.81557,34.9943]},"properties":{"price":175000,"use":"京都山科","zone":"","station":"住宅"}},{"type":"Feature","geometry":{"type":"Point","coordinates":[135.80723,34.98431]},"properties":{"price":152000,"use":"京都山科","zone":"","station":"住宅"}},{"type":"Feature","geometry":{"type":"Point","coordinates":[135.83415,34.99942]},"properties":{"price":53500,"use":"京都山科","zone":"","station":"住宅"}},{"type":"Feature","geometry":{"type":"Point","coordinates":[135.81696,34.96911]},"properties":{"price":167000,"use":"京都山科","zone":"","station":"住宅"}},{"type":"Feature","geometry":{"type":"Point","coordinates":[135.81815,34.96201]},"properties":{"price":128000,"use":"京都山科","zone":"","station":"住宅"}},{"type":"Feature","geometry":{"type":"Point","coordinates":[135.81152,34.97504]},"properties":{"price":168000,"use":"京都山科","zone":"","station":"住宅"}},{"type":"Feature","geometry":{"type":"Point","coordinates":[135.80189,34.99897]},"properties":{"price":133000,"use":"京都山科","zone":"","station":"住宅"}},{"type":"Feature","geometry":{"type":"Point","coordinates":[135.80753,34.98953]},"properties":{"price":152000,"use":"京都山科","zone":"","station":"住宅"}},{"type":"Feature","geometry":{"type":"Point","coordinates":[135.79639,34.97309]},"properties":{"price":118000,"use":"京都山科","zone":"","station":"住宅"}},{"type":"Feature","geometry":{"type":"Point","coordinates":[135.82839,34.9696]},"properties":{"price":48800,"use":"京都山科","zone":"","station":"住宅"}},{"type":"Feature","geometry":{"type":"Point","coordinates":[135.82502,34.96978]},"properties":{"price":92600,"use":"京都山科","zone":"","station":"住宅"}},{"type":"Feature","geometry":{"type":"Point","coordinates":[135.8367,34.98591]},"properties":{"price":79700,"use":"京都山科","zone":"","station":"住宅"}},{"type":"Feature","geometry":{"type":"Point","coordinates":[135.81269,34.98837]},"properties":{"price":183000,"use":"京都山科","zone":"","station":"住宅"}},{"type":"Feature","geometry":{"type":"Point","coordinates":[135.8034,34.98026]},"properties":{"price":124000,"use":"京都山科","zone":"","station":"住宅"}},{"type":"Feature","geometry":{"type":"Point","coordinates":[135.83272,34.98023]},"properties":{"price":61300,"use":"京都山科","zone":"","station":"住宅"}},{"type":"Feature","geometry":{"type":"Point","coordinates":[135.82432,34.97645]},"properties":{"price":137000,"use":"京都山科","zone":"","station":"住宅"}},{"type":"Feature","geometry":{"type":"Point","coordinates":[135.81657,34.97236]},"properties":{"price":171000,"use":"京都山科","zone":"","station":"住宅"}},{"type":"Feature","geometry":{"type":"Point","coordinates":[135.80961,34.97072]},"properties":{"price":143000,"use":"京都山科","zone":"","station":"住宅"}},{"type":"Feature","geometry":{"type":"Point","coordinates":[135.81821,34.98718]},"properties":{"price":265000,"use":"京都山科","zone":"","station":"共同住宅"}},{"type":"Feature","geometry":{"type":"Point","coordinates":[135.81733,34.98531]},"properties":{"price":343000,"use":"京都山科","zone":"","station":"店舗兼共同住宅"}},{"type":"Feature","geometry":{"type":"Point","coordinates":[135.81186,34.99006]},"properties":{"price":225000,"use":"京都山科","zone":"","station":"店舗"}},{"type":"Feature","geometry":{"type":"Point","coordinates":[135.81329,34.96713]},"properties":{"price":205000,"use":"京都山科","zone":"","station":"店舗"}},{"type":"Feature","geometry":{"type":"Point","coordinates":[135.82238,34.98953]},"properties":{"price":221000,"use":"京都山科","zone":"","station":"店舗兼共同住宅"}},{"type":"Feature","geometry":{"type":"Point","coordinates":[135.80747,34.97193]},"properties":{"price":190000,"use":"京都山科","zone":"","station":"店舗"}},{"type":"Feature","geometry":{"type":"Point","coordinates":[135.79467,34.97885]},"properties":{"price":98200,"use":"京都山科","zone":"","station":"作業場兼住宅"}},{"type":"Feature","geometry":{"type":"Point","coordinates":[135.80131,34.97261]},"properties":{"price":121000,"use":"京都山科","zone":"","station":"工場兼住宅"}},{"type":"Feature","geometry":{"type":"Point","coordinates":[135.70687,34.97259]},"properties":{"price":234000,"use":"京都西京","zone":"","station":"住宅"}},{"type":"Feature","geometry":{"type":"Point","coordinates":[135.71595,34.97512]},"properties":{"price":194000,"use":"京都西京","zone":"","station":"住宅"}},{"type":"Feature","geometry":{"type":"Point","coordinates":[135.70579,34.98056]},"properties":{"price":377000,"use":"京都西京","zone":"","station":"住宅"}},{"type":"Feature","geometry":{"type":"Point","coordinates":[135.68769,34.99835]},"properties":{"price":188000,"use":"京都西京","zone":"","station":"住宅"}},{"type":"Feature","geometry":{"type":"Point","coordinates":[135.66911,34.9581]},"properties":{"price":142000,"use":"京都西京","zone":"","station":"住宅"}},{"type":"Feature","geometry":{"type":"Point","coordinates":[135.69508,34.97742]},"properties":{"price":268000,"use":"京都西京","zone":"","station":"住宅"}},{"type":"Feature","geometry":{"type":"Point","coordinates":[135.69235,34.99163]},"properties":{"price":246000,"use":"京都西京","zone":"","station":"住宅"}},{"type":"Feature","geometry":{"type":"Point","coordinates":[135.68921,34.94873]},"properties":{"price":153000,"use":"京都西京","zone":"","station":"住宅"}},{"type":"Feature","geometry":{"type":"Point","coordinates":[135.66887,34.96732]},"properties":{"price":148000,"use":"京都西京","zone":"","station":"住宅"}},{"type":"Feature","geometry":{"type":"Point","coordinates":[135.70945,34.98236]},"properties":{"price":233000,"use":"京都西京","zone":"","station":"住宅"}},{"type":"Feature","geometry":{"type":"Point","coordinates":[135.69648,34.98815]},"properties":{"price":253000,"use":"京都西京","zone":"","station":"住宅"}},{"type":"Feature","geometry":{"type":"Point","coordinates":[135.7013,34.98026]},"properties":{"price":408000,"use":"京都西京","zone":"","station":"住宅"}},{"type":"Feature","geometry":{"type":"Point","coordinates":[135.69703,34.97087]},"properties":{"price":246000,"use":"京都西京","zone":"","station":"建築中"}},{"type":"Feature","geometry":{"type":"Point","coordinates":[135.70801,34.97508]},"properties":{"price":260000,"use":"京都西京","zone":"","station":"住宅"}},{"type":"Feature","geometry":{"type":"Point","coordinates":[135.66105,34.98188]},"properties":{"price":123000,"use":"京都西京","zone":"","station":"住宅"}},{"type":"Feature","geometry":{"type":"Point","coordinates":[135.69837,34.98079]},"properties":{"price":338000,"use":"京都西京","zone":"","station":"住宅"}},{"type":"Feature","geometry":{"type":"Point","coordinates":[135.71469,34.97022]},"properties":{"price":196000,"use":"京都西京","zone":"","station":"住宅"}},{"type":"Feature","geometry":{"type":"Point","coordinates":[135.68419,35.01056]},"properties":{"price":181000,"use":"京都西京","zone":"","station":"住宅"}},{"type":"Feature","geometry":{"type":"Point","coordinates":[135.70055,34.99586]},"properties":{"price":198000,"use":"京都西京","zone":"","station":"住宅"}},{"type":"Feature","geometry":{"type":"Point","coordinates":[135.67577,34.95287]},"properties":{"price":84100,"use":"京都西京","zone":"","station":"住宅"}},{"type":"Feature","geometry":{"type":"Point","coordinates":[135.68821,34.98067]},"properties":{"price":170000,"use":"京都西京","zone":"","station":"住宅"}},{"type":"Feature","geometry":{"type":"Point","coordinates":[135.68267,34.96309]},"properties":{"price":144000,"use":"京都西京","zone":"","station":"住宅"}},{"type":"Feature","geometry":{"type":"Point","coordinates":[135.6896,34.97579]},"properties":{"price":179000,"use":"京都西京","zone":"","station":"住宅"}},{"type":"Feature","geometry":{"type":"Point","coordinates":[135.70465,34.98972]},"properties":{"price":183000,"use":"京都西京","zone":"","station":"住宅"}},{"type":"Feature","geometry":{"type":"Point","coordinates":[135.71297,34.9737]},"properties":{"price":253000,"use":"京都西京","zone":"","station":"店舗"}},{"type":"Feature","geometry":{"type":"Point","coordinates":[135.70215,34.979]},"properties":{"price":562000,"use":"京都西京","zone":"","station":"店舗兼事務所"}},{"type":"Feature","geometry":{"type":"Point","coordinates":[135.70314,34.9929]},"properties":{"price":250000,"use":"京都西京","zone":"","station":"店舗"}},{"type":"Feature","geometry":{"type":"Point","coordinates":[135.6705,34.97254]},"properties":{"price":146000,"use":"京都西京","zone":"","station":"店舗"}},{"type":"Feature","geometry":{"type":"Point","coordinates":[135.12444,35.28465]},"properties":{"price":46300,"use":"福知山","zone":"","station":"住宅"}},{"type":"Feature","geometry":{"type":"Point","coordinates":[135.12661,35.29156]},"properties":{"price":57100,"use":"福知山","zone":"","station":"住宅"}},{"type":"Feature","geometry":{"type":"Point","coordinates":[135.11225,35.29912]},"properties":{"price":67200,"use":"福知山","zone":"","station":"住宅"}},{"type":"Feature","geometry":{"type":"Point","coordinates":[135.10705,35.29209]},"properties":{"price":42900,"use":"福知山","zone":"","station":"住宅"}},{"type":"Feature","geometry":{"type":"Point","coordinates":[135.16474,35.27294]},"properties":{"price":27100,"use":"福知山","zone":"","station":"住宅"}},{"type":"Feature","geometry":{"type":"Point","coordinates":[135.15582,35.39263]},"properties":{"price":14000,"use":"福知山","zone":"","station":"住宅"}},{"type":"Feature","geometry":{"type":"Point","coordinates":[135.14616,35.28696]},"properties":{"price":35800,"use":"福知山","zone":"","station":"住宅"}},{"type":"Feature","geometry":{"type":"Point","coordinates":[135.1519,35.29479]},"properties":{"price":48400,"use":"福知山","zone":"","station":"住宅"}},{"type":"Feature","geometry":{"type":"Point","coordinates":[135.11423,35.30278]},"properties":{"price":62300,"use":"福知山","zone":"","station":"住宅"}},{"type":"Feature","geometry":{"type":"Point","coordinates":[135.1759,35.2934]},"properties":{"price":47100,"use":"福知山","zone":"","station":"住宅"}},{"type":"Feature","geometry":{"type":"Point","coordinates":[135.11011,35.31033]},"properties":{"price":52300,"use":"福知山","zone":"","station":"住宅"}},{"type":"Feature","geometry":{"type":"Point","coordinates":[135.14412,35.38833]},"properties":{"price":16800,"use":"福知山","zone":"","station":"住宅"}},{"type":"Feature","geometry":{"type":"Point","coordinates":[135.18415,35.31808]},"properties":{"price":7970,"use":"福知山","zone":"","station":"住宅"}},{"type":"Feature","geometry":{"type":"Point","coordinates":[135.15269,35.27215]},"properties":{"price":10000,"use":"福知山","zone":"","station":"住宅"}},{"type":"Feature","geometry":{"type":"Point","coordinates":[135.12968,35.31321]},"properties":{"price":14200,"use":"福知山","zone":"","station":"住宅"}},{"type":"Feature","geometry":{"type":"Point","coordinates":[135.10449,35.3074]},"properties":{"price":29700,"use":"福知山","zone":"","station":"住宅"}},{"type":"Feature","geometry":{"type":"Point","coordinates":[135.11834,35.29831]},"properties":{"price":99000,"use":"福知山","zone":"","station":"店舗兼事務所"}},{"type":"Feature","geometry":{"type":"Point","coordinates":[135.12537,35.30183]},"properties":{"price":62400,"use":"福知山","zone":"","station":"店舗兼住宅"}},{"type":"Feature","geometry":{"type":"Point","coordinates":[135.11624,35.29313]},"properties":{"price":116000,"use":"福知山","zone":"","station":"事務所、作業場兼店舗"}},{"type":"Feature","geometry":{"type":"Point","coordinates":[135.15058,35.29656]},"properties":{"price":53500,"use":"福知山","zone":"","station":"店舗"}},{"type":"Feature","geometry":{"type":"Point","coordinates":[135.12192,35.29866]},"properties":{"price":65000,"use":"福知山","zone":"","station":"店舗兼事務所"}},{"type":"Feature","geometry":{"type":"Point","coordinates":[135.1758,35.28571]},"properties":{"price":25500,"use":"福知山","zone":"","station":"事務所兼作業場"}},{"type":"Feature","geometry":{"type":"Point","coordinates":[135.16082,35.2851]},"properties":{"price":18000,"use":"福知山","zone":"","station":"工場"}},{"type":"Feature","geometry":{"type":"Point","coordinates":[135.39888,35.46466]},"properties":{"price":68200,"use":"舞鶴","zone":"","station":"住宅"}},{"type":"Feature","geometry":{"type":"Point","coordinates":[135.33141,35.44781]},"properties":{"price":63000,"use":"舞鶴","zone":"","station":"住宅"}},{"type":"Feature","geometry":{"type":"Point","coordinates":[135.40285,35.47018]},"properties":{"price":57300,"use":"舞鶴","zone":"","station":"住宅"}},{"type":"Feature","geometry":{"type":"Point","coordinates":[135.37958,35.46781]},"properties":{"price":37300,"use":"舞鶴","zone":"","station":"住宅"}},{"type":"Feature","geometry":{"type":"Point","coordinates":[135.36519,35.47412]},"properties":{"price":36500,"use":"舞鶴","zone":"","station":"住宅"}},{"type":"Feature","geometry":{"type":"Point","coordinates":[135.34397,35.4461]},"properties":{"price":61700,"use":"舞鶴","zone":"","station":"住宅"}},{"type":"Feature","geometry":{"type":"Point","coordinates":[135.33264,35.42632]},"properties":{"price":49400,"use":"舞鶴","zone":"","station":"住宅"}},{"type":"Feature","geometry":{"type":"Point","coordinates":[135.40764,35.47967]},"properties":{"price":44600,"use":"舞鶴","zone":"","station":"住宅"}},{"type":"Feature","geometry":{"type":"Point","coordinates":[135.33267,35.45342]},"properties":{"price":35000,"use":"舞鶴","zone":"","station":"住宅"}},{"type":"Feature","geometry":{"type":"Point","coordinates":[135.39888,35.44974]},"properties":{"price":49400,"use":"舞鶴","zone":"","station":"住宅"}},{"type":"Feature","geometry":{"type":"Point","coordinates":[135.41986,35.48269]},"properties":{"price":47900,"use":"舞鶴","zone":"","station":"住宅"}},{"type":"Feature","geometry":{"type":"Point","coordinates":[135.32621,35.4554]},"properties":{"price":34200,"use":"舞鶴","zone":"","station":"住宅"}},{"type":"Feature","geometry":{"type":"Point","coordinates":[135.39198,35.47102]},"properties":{"price":64400,"use":"舞鶴","zone":"","station":"住宅"}},{"type":"Feature","geometry":{"type":"Point","coordinates":[135.41231,35.44806]},"properties":{"price":16100,"use":"舞鶴","zone":"","station":"住宅"}},{"type":"Feature","geometry":{"type":"Point","coordinates":[135.43542,35.49517]},"properties":{"price":11700,"use":"舞鶴","zone":"","station":"住宅"}},{"type":"Feature","geometry":{"type":"Point","coordinates":[135.29403,35.44441]},"properties":{"price":21900,"use":"舞鶴","zone":"","station":"住宅"}},{"type":"Feature","geometry":{"type":"Point","coordinates":[135.25982,35.46075]},"properties":{"price":5500,"use":"舞鶴","zone":"","station":"住宅"}},{"type":"Feature","geometry":{"type":"Point","coordinates":[135.39406,35.47125]},"properties":{"price":90300,"use":"舞鶴","zone":"","station":"診療所兼住宅"}},{"type":"Feature","geometry":{"type":"Point","coordinates":[135.33311,35.43891]},"properties":{"price":75700,"use":"舞鶴","zone":"","station":"事務所"}},{"type":"Feature","geometry":{"type":"Point","coordinates":[135.32826,35.44222]},"properties":{"price":76500,"use":"舞鶴","zone":"","station":"事務所"}},{"type":"Feature","geometry":{"type":"Point","coordinates":[135.39391,35.46654]},"properties":{"price":85000,"use":"舞鶴","zone":"","station":"店舗、事務所兼共同住宅"}},{"type":"Feature","geometry":{"type":"Point","coordinates":[135.35091,35.44831]},"properties":{"price":58700,"use":"舞鶴","zone":"","station":"事務所兼倉庫"}},{"type":"Feature","geometry":{"type":"Point","coordinates":[135.30714,35.44932]},"properties":{"price":30200,"use":"舞鶴","zone":"","station":"倉庫"}},{"type":"Feature","geometry":{"type":"Point","coordinates":[135.41009,35.50081]},"properties":{"price":15800,"use":"舞鶴","zone":"","station":"工場"}},{"type":"Feature","geometry":{"type":"Point","coordinates":[135.33917,35.44218]},"properties":{"price":19600,"use":"舞鶴","zone":"","station":"工場"}},{"type":"Feature","geometry":{"type":"Point","coordinates":[135.24116,35.30291]},"properties":{"price":43600,"use":"綾部","zone":"","station":"住宅"}},{"type":"Feature","geometry":{"type":"Point","coordinates":[135.24913,35.2892]},"properties":{"price":19500,"use":"綾部","zone":"","station":"住宅"}},{"type":"Feature","geometry":{"type":"Point","coordinates":[135.25987,35.2981]},"properties":{"price":48000,"use":"綾部","zone":"","station":"住宅"}},{"type":"Feature","geometry":{"type":"Point","coordinates":[135.27607,35.31854]},"properties":{"price":34300,"use":"綾部","zone":"","station":"住宅"}},{"type":"Feature","geometry":{"type":"Point","coordinates":[135.23987,35.29833]},"properties":{"price":19500,"use":"綾部","zone":"","station":"住宅"}},{"type":"Feature","geometry":{"type":"Point","coordinates":[135.25214,35.29793]},"properties":{"price":42400,"use":"綾部","zone":"","station":"住宅"}},{"type":"Feature","geometry":{"type":"Point","coordinates":[135.23265,35.30258]},"properties":{"price":38600,"use":"綾部","zone":"","station":"住宅"}},{"type":"Feature","geometry":{"type":"Point","coordinates":[135.25943,35.28857]},"properties":{"price":27900,"use":"綾部","zone":"","station":"住宅"}},{"type":"Feature","geometry":{"type":"Point","coordinates":[135.25125,35.30487]},"properties":{"price":39900,"use":"綾部","zone":"","station":"住宅"}},{"type":"Feature","geometry":{"type":"Point","coordinates":[135.21972,35.35579]},"properties":{"price":5630,"use":"綾部","zone":"","station":"住宅"}},{"type":"Feature","geometry":{"type":"Point","coordinates":[135.26039,35.31529]},"properties":{"price":26800,"use":"綾部","zone":"","station":"事務所兼住宅"}},{"type":"Feature","geometry":{"type":"Point","coordinates":[135.3162,35.29795]},"properties":{"price":6030,"use":"綾部","zone":"","station":"住宅"}},{"type":"Feature","geometry":{"type":"Point","coordinates":[135.20784,35.30125]},"properties":{"price":12200,"use":"綾部","zone":"","station":"住宅"}},{"type":"Feature","geometry":{"type":"Point","coordinates":[135.30708,35.3396]},"properties":{"price":7090,"use":"綾部","zone":"","station":"住宅"}},{"type":"Feature","geometry":{"type":"Point","coordinates":[135.25205,35.30082]},"properties":{"price":57900,"use":"綾部","zone":"","station":"店舗、事務所兼住宅"}},{"type":"Feature","geometry":{"type":"Point","coordinates":[135.25698,35.3008]},"properties":{"price":55000,"use":"綾部","zone":"","station":"店舗、事務所兼倉庫"}},{"type":"Feature","geometry":{"type":"Point","coordinates":[135.2744,35.32591]},"properties":{"price":14700,"use":"綾部","zone":"","station":"工場"}},{"type":"Feature","geometry":{"type":"Point","coordinates":[135.8066,34.93041]},"properties":{"price":116000,"use":"宇治","zone":"","station":"住宅"}},{"type":"Feature","geometry":{"type":"Point","coordinates":[135.78932,34.89505]},"properties":{"price":134000,"use":"宇治","zone":"","station":"住宅"}},{"type":"Feature","geometry":{"type":"Point","coordinates":[135.77929,34.87691]},"properties":{"price":130000,"use":"宇治","zone":"","station":"住宅"}},{"type":"Feature","geometry":{"type":"Point","coordinates":[135.78291,34.87712]},"properties":{"price":122000,"use":"宇治","zone":"","station":"住宅"}},{"type":"Feature","geometry":{"type":"Point","coordinates":[135.79578,34.88278]},"properties":{"price":127000,"use":"宇治","zone":"","station":"住宅"}},{"type":"Feature","geometry":{"type":"Point","coordinates":[135.76997,34.86981]},"properties":{"price":132000,"use":"宇治","zone":"","station":"住宅"}},{"type":"Feature","geometry":{"type":"Point","coordinates":[135.80534,34.90552]},"properties":{"price":120000,"use":"宇治","zone":"","station":"住宅"}},{"type":"Feature","geometry":{"type":"Point","coordinates":[135.80184,34.9218]},"properties":{"price":97000,"use":"宇治","zone":"","station":"住宅"}},{"type":"Feature","geometry":{"type":"Point","coordinates":[135.8109,34.89527]},"properties":{"price":125000,"use":"宇治","zone":"","station":"住宅"}},{"type":"Feature","geometry":{"type":"Point","coordinates":[135.80072,34.88762]},"properties":{"price":141000,"use":"宇治","zone":"","station":"住宅"}},{"type":"Feature","geometry":{"type":"Point","coordinates":[135.78354,34.88606]},"properties":{"price":155000,"use":"宇治","zone":"","station":"住宅"}},{"type":"Feature","geometry":{"type":"Point","coordinates":[135.7705,34.88964]},"properties":{"price":128000,"use":"宇治","zone":"","station":"住宅"}},{"type":"Feature","geometry":{"type":"Point","coordinates":[135.78051,34.90321]},"properties":{"price":98000,"use":"宇治","zone":"","station":"住宅"}},{"type":"Feature","geometry":{"type":"Point","coordinates":[135.77662,34.88203]},"properties":{"price":124000,"use":"宇治","zone":"","station":"住宅"}},{"type":"Feature","geometry":{"type":"Point","coordinates":[135.79394,34.90316]},"properties":{"price":46800,"use":"宇治","zone":"","station":"住宅"}},{"type":"Feature","geometry":{"type":"Point","coordinates":[135.77807,34.89288]},"properties":{"price":125000,"use":"宇治","zone":"","station":"住宅"}},{"type":"Feature","geometry":{"type":"Point","coordinates":[135.77675,34.87127]},"properties":{"price":148000,"use":"宇治","zone":"","station":"住宅"}},{"type":"Feature","geometry":{"type":"Point","coordinates":[135.78827,34.91366]},"properties":{"price":84800,"use":"宇治","zone":"","station":"住宅"}},{"type":"Feature","geometry":{"type":"Point","coordinates":[135.8194,34.89358]},"properties":{"price":82000,"use":"宇治","zone":"","station":"住宅"}},{"type":"Feature","geometry":{"type":"Point","coordinates":[135.76814,34.88489]},"properties":{"price":129000,"use":"宇治","zone":"","station":"住宅"}},{"type":"Feature","geometry":{"type":"Point","coordinates":[135.78133,34.88271]},"properties":{"price":135000,"use":"宇治","zone":"","station":"住宅"}},{"type":"Feature","geometry":{"type":"Point","coordinates":[135.79791,34.92789]},"properties":{"price":126000,"use":"宇治","zone":"","station":"住宅"}},{"type":"Feature","geometry":{"type":"Point","coordinates":[135.79307,34.92177]},"properties":{"price":131000,"use":"宇治","zone":"","station":"住宅"}},{"type":"Feature","geometry":{"type":"Point","coordinates":[135.8136,34.90941]},"properties":{"price":97500,"use":"宇治","zone":"","station":"住宅"}},{"type":"Feature","geometry":{"type":"Point","coordinates":[135.78907,34.86718]},"properties":{"price":114000,"use":"宇治","zone":"","station":"住宅"}},{"type":"Feature","geometry":{"type":"Point","coordinates":[135.78537,34.89107]},"properties":{"price":119000,"use":"宇治","zone":"","station":"住宅"}},{"type":"Feature","geometry":{"type":"Point","coordinates":[135.79578,34.87866]},"properties":{"price":107000,"use":"宇治","zone":"","station":"住宅"}},{"type":"Feature","geometry":{"type":"Point","coordinates":[135.8135,34.92675]},"properties":{"price":99200,"use":"宇治","zone":"","station":"住宅"}},{"type":"Feature","geometry":{"type":"Point","coordinates":[135.80266,34.90061]},"properties":{"price":122000,"use":"宇治","zone":"","station":"住宅"}},{"type":"Feature","geometry":{"type":"Point","coordinates":[135.79198,34.87838]},"properties":{"price":126000,"use":"宇治","zone":"","station":"住宅"}},{"type":"Feature","geometry":{"type":"Point","coordinates":[135.79796,34.92218]},"properties":{"price":125000,"use":"宇治","zone":"","station":"住宅"}},{"type":"Feature","geometry":{"type":"Point","coordinates":[135.80509,34.88169]},"properties":{"price":112000,"use":"宇治","zone":"","station":"住宅"}},{"type":"Feature","geometry":{"type":"Point","coordinates":[135.79609,34.87329]},"properties":{"price":104000,"use":"宇治","zone":"","station":"住宅"}},{"type":"Feature","geometry":{"type":"Point","coordinates":[135.80159,34.89001]},"properties":{"price":298000,"use":"宇治","zone":"","station":"店舗"}},{"type":"Feature","geometry":{"type":"Point","coordinates":[135.77953,34.8814]},"properties":{"price":149000,"use":"宇治","zone":"","station":"店舗兼事務所"}},{"type":"Feature","geometry":{"type":"Point","coordinates":[135.79776,34.93313]},"properties":{"price":324000,"use":"宇治","zone":"","station":"銀行"}},{"type":"Feature","geometry":{"type":"Point","coordinates":[135.77818,34.87399]},"properties":{"price":207000,"use":"宇治","zone":"","station":"店舗兼事務所"}},{"type":"Feature","geometry":{"type":"Point","coordinates":[135.80014,34.93323]},"properties":{"price":134000,"use":"宇治","zone":"","station":"店舗"}},{"type":"Feature","geometry":{"type":"Point","coordinates":[135.8045,34.91192]},"properties":{"price":129000,"use":"宇治","zone":"","station":"店舗兼事務所"}},{"type":"Feature","geometry":{"type":"Point","coordinates":[135.76897,34.88653]},"properties":{"price":137000,"use":"宇治","zone":"","station":"店舗兼住宅"}},{"type":"Feature","geometry":{"type":"Point","coordinates":[135.78405,34.9066]},"properties":{"price":140000,"use":"宇治","zone":"","station":"店舗兼工場"}},{"type":"Feature","geometry":{"type":"Point","coordinates":[135.76147,34.87106]},"properties":{"price":114000,"use":"宇治","zone":"","station":"店舗"}},{"type":"Feature","geometry":{"type":"Point","coordinates":[135.78164,34.87519]},"properties":{"price":140000,"use":"宇治","zone":"","station":"診療所兼住宅"}},{"type":"Feature","geometry":{"type":"Point","coordinates":[135.78196,34.90819]},"properties":{"price":94900,"use":"宇治","zone":"","station":"事務所兼作業所"}},{"type":"Feature","geometry":{"type":"Point","coordinates":[135.82441,34.89148]},"properties":{"price":3630,"use":"宇治","zone":"","station":"山林（雑木林）"}},{"type":"Feature","geometry":{"type":"Point","coordinates":[135.19372,35.53298]},"properties":{"price":40000,"use":"宮津","zone":"","station":"住宅"}},{"type":"Feature","geometry":{"type":"Point","coordinates":[135.15316,35.55164]},"properties":{"price":25800,"use":"宮津","zone":"","station":"住宅"}},{"type":"Feature","geometry":{"type":"Point","coordinates":[135.20258,35.58272]},"properties":{"price":17700,"use":"宮津","zone":"","station":"住宅"}},{"type":"Feature","geometry":{"type":"Point","coordinates":[135.19358,35.53591]},"properties":{"price":49900,"use":"宮津","zone":"","station":"店舗兼住宅"}},{"type":"Feature","geometry":{"type":"Point","coordinates":[135.18276,35.55808]},"properties":{"price":80000,"use":"宮津","zone":"","station":"店舗兼住宅"}},{"type":"Feature","geometry":{"type":"Point","coordinates":[135.57682,35.01279]},"properties":{"price":91600,"use":"亀岡","zone":"","station":"住宅"}},{"type":"Feature","geometry":{"type":"Point","coordinates":[135.57153,35.04531]},"properties":{"price":17300,"use":"亀岡","zone":"","station":"住宅"}},{"type":"Feature","geometry":{"type":"Point","coordinates":[135.61047,35.0057]},"properties":{"price":59200,"use":"亀岡","zone":"","station":"住宅"}},{"type":"Feature","geometry":{"type":"Point","coordinates":[135.54847,35.04947]},"properties":{"price":97500,"use":"亀岡","zone":"","station":"住宅"}},{"type":"Feature","geometry":{"type":"Point","coordinates":[135.5541,35.03358]},"properties":{"price":106000,"use":"亀岡","zone":"","station":"住宅"}},{"type":"Feature","geometry":{"type":"Point","coordinates":[135.60943,35.00975]},"properties":{"price":111000,"use":"亀岡","zone":"","station":"住宅"}},{"type":"Feature","geometry":{"type":"Point","coordinates":[135.56749,35.01682]},"properties":{"price":87100,"use":"亀岡","zone":"","station":"住宅"}},{"type":"Feature","geometry":{"type":"Point","coordinates":[135.59575,35.00634]},"properties":{"price":88200,"use":"亀岡","zone":"","station":"住宅"}},{"type":"Feature","geometry":{"type":"Point","coordinates":[135.59659,35.00091]},"properties":{"price":73500,"use":"亀岡","zone":"","station":"住宅"}},{"type":"Feature","geometry":{"type":"Point","coordinates":[135.61143,34.99779]},"properties":{"price":68000,"use":"亀岡","zone":"","station":"住宅"}},{"type":"Feature","geometry":{"type":"Point","coordinates":[135.56596,35.02295]},"properties":{"price":89900,"use":"亀岡","zone":"","station":"住宅"}},{"type":"Feature","geometry":{"type":"Point","coordinates":[135.58688,34.9873]},"properties":{"price":66300,"use":"亀岡","zone":"","station":"住宅"}},{"type":"Feature","geometry":{"type":"Point","coordinates":[135.54314,35.03907]},"properties":{"price":84100,"use":"亀岡","zone":"","station":"住宅"}},{"type":"Feature","geometry":{"type":"Point","coordinates":[135.57631,35.00095]},"properties":{"price":40300,"use":"亀岡","zone":"","station":"住宅"}},{"type":"Feature","geometry":{"type":"Point","coordinates":[135.57866,35.0064]},"properties":{"price":86800,"use":"亀岡","zone":"","station":"住宅"}},{"type":"Feature","geometry":{"type":"Point","coordinates":[135.58543,35.00601]},"properties":{"price":106000,"use":"亀岡","zone":"","station":"住宅"}},{"type":"Feature","geometry":{"type":"Point","coordinates":[135.58918,35.00091]},"properties":{"price":73800,"use":"亀岡","zone":"","station":"住宅"}},{"type":"Feature","geometry":{"type":"Point","coordinates":[135.54473,35.00812]},"properties":{"price":18000,"use":"亀岡","zone":"","station":"住宅"}},{"type":"Feature","geometry":{"type":"Point","coordinates":[135.57966,35.01621]},"properties":{"price":140000,"use":"亀岡","zone":"","station":"店舗"}},{"type":"Feature","geometry":{"type":"Point","coordinates":[135.57483,35.01146]},"properties":{"price":99000,"use":"亀岡","zone":"","station":"事務所"}},{"type":"Feature","geometry":{"type":"Point","coordinates":[135.52267,34.99887]},"properties":{"price":779,"use":"亀岡","zone":"","station":"山林（雑木林）"}},{"type":"Feature","geometry":{"type":"Point","coordinates":[135.78151,34.86857]},"properties":{"price":106000,"use":"城陽","zone":"","station":"住宅"}},{"type":"Feature","geometry":{"type":"Point","coordinates":[135.76981,34.86018]},"properties":{"price":121000,"use":"城陽","zone":"","station":"住宅"}},{"type":"Feature","geometry":{"type":"Point","coordinates":[135.77661,34.85254]},"properties":{"price":90900,"use":"城陽","zone":"","station":"住宅"}},{"type":"Feature","geometry":{"type":"Point","coordinates":[135.80357,34.82527]},"properties":{"price":67400,"use":"城陽","zone":"","station":"住宅"}},{"type":"Feature","geometry":{"type":"Point","coordinates":[135.78102,34.84067]},"properties":{"price":109000,"use":"城陽","zone":"","station":"住宅"}},{"type":"Feature","geometry":{"type":"Point","coordinates":[135.76914,34.85449]},"properties":{"price":142000,"use":"城陽","zone":"","station":"住宅"}},{"type":"Feature","geometry":{"type":"Point","coordinates":[135.79024,34.86142]},"properties":{"price":92000,"use":"城陽","zone":"","station":"住宅"}},{"type":"Feature","geometry":{"type":"Point","coordinates":[135.77288,34.86716]},"properties":{"price":117000,"use":"城陽","zone":"","station":"住宅"}},{"type":"Feature","geometry":{"type":"Point","coordinates":[135.78061,34.86161]},"properties":{"price":103000,"use":"城陽","zone":"","station":"住宅"}},{"type":"Feature","geometry":{"type":"Point","coordinates":[135.79034,34.84313]},"properties":{"price":82800,"use":"城陽","zone":"","station":"住宅"}},{"type":"Feature","geometry":{"type":"Point","coordinates":[135.76395,34.83924]},"properties":{"price":53300,"use":"城陽","zone":"","station":"住宅"}},{"type":"Feature","geometry":{"type":"Point","coordinates":[135.7738,34.85635]},"properties":{"price":141000,"use":"城陽","zone":"","station":"住宅"}},{"type":"Feature","geometry":{"type":"Point","coordinates":[135.75736,34.86516]},"properties":{"price":29600,"use":"城陽","zone":"","station":"住宅"}},{"type":"Feature","geometry":{"type":"Point","coordinates":[135.77579,34.86536]},"properties":{"price":134000,"use":"城陽","zone":"","station":"住宅"}},{"type":"Feature","geometry":{"type":"Point","coordinates":[135.78837,34.84076]},"properties":{"price":123000,"use":"城陽","zone":"","station":"店舗"}},{"type":"Feature","geometry":{"type":"Point","coordinates":[135.79234,34.83209]},"properties":{"price":81500,"use":"城陽","zone":"","station":"工場、倉庫兼事務所等"}},{"type":"Feature","geometry":{"type":"Point","coordinates":[135.82022,34.82944]},"properties":{"price":1600,"use":"城陽","zone":"","station":"山林（雑木林）"}},{"type":"Feature","geometry":{"type":"Point","coordinates":[135.70293,34.93432]},"properties":{"price":190000,"use":"向日","zone":"","station":"住宅"}},{"type":"Feature","geometry":{"type":"Point","coordinates":[135.70206,34.94443]},"properties":{"price":223000,"use":"向日","zone":"","station":"住宅"}},{"type":"Feature","geometry":{"type":"Point","coordinates":[135.70743,34.95582]},"properties":{"price":239000,"use":"向日","zone":"","station":"住宅"}},{"type":"Feature","geometry":{"type":"Point","coordinates":[135.69027,34.96652]},"properties":{"price":123000,"use":"向日","zone":"","station":"住宅"}},{"type":"Feature","geometry":{"type":"Point","coordinates":[135.69441,34.95244]},"properties":{"price":176000,"use":"向日","zone":"","station":"住宅"}},{"type":"Feature","geometry":{"type":"Point","coordinates":[135.69442,34.95882]},"properties":{"price":174000,"use":"向日","zone":"","station":"住宅"}},{"type":"Feature","geometry":{"type":"Point","coordinates":[135.71182,34.94677]},"properties":{"price":177000,"use":"向日","zone":"","station":"住宅"}},{"type":"Feature","geometry":{"type":"Point","coordinates":[135.70398,34.93925]},"properties":{"price":258000,"use":"向日","zone":"","station":"空地"}},{"type":"Feature","geometry":{"type":"Point","coordinates":[135.70898,34.95509]},"properties":{"price":275000,"use":"向日","zone":"","station":"店舗兼住宅"}},{"type":"Feature","geometry":{"type":"Point","coordinates":[135.70442,34.95256]},"properties":{"price":348000,"use":"向日","zone":"","station":"店舗"}},{"type":"Feature","geometry":{"type":"Point","coordinates":[135.71101,34.93136]},"properties":{"price":190000,"use":"向日","zone":"","station":"店舗"}},{"type":"Feature","geometry":{"type":"Point","coordinates":[135.70567,34.96142]},"properties":{"price":414000,"use":"向日","zone":"","station":"店舗"}},{"type":"Feature","geometry":{"type":"Point","coordinates":[135.68698,34.9201]},"properties":{"price":196000,"use":"長岡京","zone":"","station":"住宅"}},{"type":"Feature","geometry":{"type":"Point","coordinates":[135.68632,34.92708]},"properties":{"price":238000,"use":"長岡京","zone":"","station":"住宅"}},{"type":"Feature","geometry":{"type":"Point","coordinates":[135.68211,34.93627]},"properties":{"price":172000,"use":"長岡京","zone":"","station":"住宅"}},{"type":"Feature","geometry":{"type":"Point","coordinates":[135.69486,34.94548]},"properties":{"price":168000,"use":"長岡京","zone":"","station":"住宅"}},{"type":"Feature","geometry":{"type":"Point","coordinates":[135.69621,34.93364]},"properties":{"price":198000,"use":"長岡京","zone":"","station":"住宅"}},{"type":"Feature","geometry":{"type":"Point","coordinates":[135.69508,34.92303]},"properties":{"price":293000,"use":"長岡京","zone":"","station":"住宅"}},{"type":"Feature","geometry":{"type":"Point","coordinates":[135.69115,34.93069]},"properties":{"price":242000,"use":"長岡京","zone":"","station":"住宅"}},{"type":"Feature","geometry":{"type":"Point","coordinates":[135.67619,34.91793]},"properties":{"price":140000,"use":"長岡京","zone":"","station":"住宅"}},{"type":"Feature","geometry":{"type":"Point","coordinates":[135.69141,34.9127]},"properties":{"price":205000,"use":"長岡京","zone":"","station":"住宅"}},{"type":"Feature","geometry":{"type":"Point","coordinates":[135.69632,34.93552]},"properties":{"price":182000,"use":"長岡京","zone":"","station":"住宅"}},{"type":"Feature","geometry":{"type":"Point","coordinates":[135.70535,34.91584]},"properties":{"price":183000,"use":"長岡京","zone":"","station":"住宅"}},{"type":"Feature","geometry":{"type":"Point","coordinates":[135.68039,34.92236]},"properties":{"price":179000,"use":"長岡京","zone":"","station":"住宅"}},{"type":"Feature","geometry":{"type":"Point","coordinates":[135.69997,34.92004]},"properties":{"price":201000,"use":"長岡京","zone":"","station":"住宅"}},{"type":"Feature","geometry":{"type":"Point","coordinates":[135.68304,34.91492]},"properties":{"price":150000,"use":"長岡京","zone":"","station":"住宅"}},{"type":"Feature","geometry":{"type":"Point","coordinates":[135.68987,34.92298]},"properties":{"price":260000,"use":"長岡京","zone":"","station":"住宅"}},{"type":"Feature","geometry":{"type":"Point","coordinates":[135.69685,34.92629]},"properties":{"price":345000,"use":"長岡京","zone":"","station":"店舗"}},{"type":"Feature","geometry":{"type":"Point","coordinates":[135.69252,34.92823]},"properties":{"price":247000,"use":"長岡京","zone":"","station":"診療所"}},{"type":"Feature","geometry":{"type":"Point","coordinates":[135.70551,34.87567]},"properties":{"price":96400,"use":"八幡","zone":"","station":"住宅"}},{"type":"Feature","geometry":{"type":"Point","coordinates":[135.69973,34.88584]},"properties":{"price":66000,"use":"八幡","zone":"","station":"住宅"}},{"type":"Feature","geometry":{"type":"Point","coordinates":[135.68684,34.8825]},"properties":{"price":46000,"use":"八幡","zone":"","station":"住宅"}},{"type":"Feature","geometry":{"type":"Point","coordinates":[135.69666,34.87057]},"properties":{"price":87300,"use":"八幡","zone":"","station":"住宅"}},{"type":"Feature","geometry":{"type":"Point","coordinates":[135.69334,34.858]},"properties":{"price":95300,"use":"八幡","zone":"","station":"住宅"}},{"type":"Feature","geometry":{"type":"Point","coordinates":[135.69614,34.84913]},"properties":{"price":87900,"use":"八幡","zone":"","station":"住宅"}},{"type":"Feature","geometry":{"type":"Point","coordinates":[135.70978,34.85515]},"properties":{"price":80000,"use":"八幡","zone":"","station":"住宅"}},{"type":"Feature","geometry":{"type":"Point","coordinates":[135.68928,34.87021]},"properties":{"price":109000,"use":"八幡","zone":"","station":"住宅"}},{"type":"Feature","geometry":{"type":"Point","coordinates":[135.7171,34.87569]},"properties":{"price":79600,"use":"八幡","zone":"","station":"住宅"}},{"type":"Feature","geometry":{"type":"Point","coordinates":[135.70911,34.86661]},"properties":{"price":63300,"use":"八幡","zone":"","station":"住宅"}},{"type":"Feature","geometry":{"type":"Point","coordinates":[135.70702,34.86017]},"properties":{"price":80700,"use":"八幡","zone":"","station":"住宅"}},{"type":"Feature","geometry":{"type":"Point","coordinates":[135.68796,34.87575]},"properties":{"price":88300,"use":"八幡","zone":"","station":"住宅"}},{"type":"Feature","geometry":{"type":"Point","coordinates":[135.73061,34.8608]},"properties":{"price":29100,"use":"八幡","zone":"","station":"住宅"}},{"type":"Feature","geometry":{"type":"Point","coordinates":[135.70448,34.87033]},"properties":{"price":68300,"use":"八幡","zone":"","station":"住宅"}},{"type":"Feature","geometry":{"type":"Point","coordinates":[135.68406,34.87467]},"properties":{"price":80400,"use":"八幡","zone":"","station":"住宅"}},{"type":"Feature","geometry":{"type":"Point","coordinates":[135.71416,34.84133]},"properties":{"price":188000,"use":"八幡","zone":"","station":"店舗"}},{"type":"Feature","geometry":{"type":"Point","coordinates":[135.77057,34.82402]},"properties":{"price":181000,"use":"京田辺","zone":"","station":"住宅"}},{"type":"Feature","geometry":{"type":"Point","coordinates":[135.75946,34.81458]},"properties":{"price":98500,"use":"京田辺","zone":"","station":"住宅"}},{"type":"Feature","geometry":{"type":"Point","coordinates":[135.7807,34.81096]},"properties":{"price":120000,"use":"京田辺","zone":"","station":"住宅"}},{"type":"Feature","geometry":{"type":"Point","coordinates":[135.74198,34.82722]},"properties":{"price":138000,"use":"京田辺","zone":"","station":"住宅"}},{"type":"Feature","geometry":{"type":"Point","coordinates":[135.7628,34.82429]},"properties":{"price":107000,"use":"京田辺","zone":"","station":"住宅"}},{"type":"Feature","geometry":{"type":"Point","coordinates":[135.7384,34.78117]},"properties":{"price":11400,"use":"京田辺","zone":"","station":"住宅"}},{"type":"Feature","geometry":{"type":"Point","coordinates":[135.77591,34.80149]},"properties":{"price":91000,"use":"京田辺","zone":"","station":"住宅"}},{"type":"Feature","geometry":{"type":"Point","coordinates":[135.78897,34.79824]},"properties":{"price":85300,"use":"京田辺","zone":"","station":"住宅"}},{"type":"Feature","geometry":{"type":"Point","coordinates":[135.74799,34.82593]},"properties":{"price":89200,"use":"京田辺","zone":"","station":"住宅"}},{"type":"Feature","geometry":{"type":"Point","coordinates":[135.73627,34.8336]},"properties":{"price":158000,"use":"京田辺","zone":"","station":"住宅"}},{"type":"Feature","geometry":{"type":"Point","coordinates":[135.77036,34.80783]},"properties":{"price":98500,"use":"京田辺","zone":"","station":"住宅"}},{"type":"Feature","geometry":{"type":"Point","coordinates":[135.77968,34.81721]},"properties":{"price":127000,"use":"京田辺","zone":"","station":"住宅"}},{"type":"Feature","geometry":{"type":"Point","coordinates":[135.74552,34.83999]},"properties":{"price":37500,"use":"京田辺","zone":"","station":"住宅"}},{"type":"Feature","geometry":{"type":"Point","coordinates":[135.75288,34.82785]},"properties":{"price":107000,"use":"京田辺","zone":"","station":"住宅"}},{"type":"Feature","geometry":{"type":"Point","coordinates":[135.755,34.83088]},"properties":{"price":88000,"use":"京田辺","zone":"","station":"住宅"}},{"type":"Feature","geometry":{"type":"Point","coordinates":[135.76993,34.78946]},"properties":{"price":81900,"use":"京田辺","zone":"","station":"住宅"}},{"type":"Feature","geometry":{"type":"Point","coordinates":[135.77218,34.82027]},"properties":{"price":267000,"use":"京田辺","zone":"","station":"店舗兼事務所"}},{"type":"Feature","geometry":{"type":"Point","coordinates":[135.77195,34.81283]},"properties":{"price":125000,"use":"京田辺","zone":"","station":"店舗兼共同住宅"}},{"type":"Feature","geometry":{"type":"Point","coordinates":[135.05817,35.62204]},"properties":{"price":20600,"use":"京丹後","zone":"","station":"住宅"}},{"type":"Feature","geometry":{"type":"Point","coordinates":[135.0294,35.68382]},"properties":{"price":17100,"use":"京丹後","zone":"","station":"住宅"}},{"type":"Feature","geometry":{"type":"Point","coordinates":[135.0197,35.68756]},"properties":{"price":13300,"use":"京丹後","zone":"","station":"住宅"}},{"type":"Feature","geometry":{"type":"Point","coordinates":[135.09546,35.58696]},"properties":{"price":20600,"use":"京丹後","zone":"","station":"住宅"}},{"type":"Feature","geometry":{"type":"Point","coordinates":[135.06807,35.62716]},"properties":{"price":27600,"use":"京丹後","zone":"","station":"事務所"}},{"type":"Feature","geometry":{"type":"Point","coordinates":[135.02752,35.67224]},"properties":{"price":20600,"use":"京丹後","zone":"","station":"店舗兼住宅"}},{"type":"Feature","geometry":{"type":"Point","coordinates":[135.47283,35.10787]},"properties":{"price":47200,"use":"南丹","zone":"","station":"住宅"}},{"type":"Feature","geometry":{"type":"Point","coordinates":[135.47558,35.09526]},"properties":{"price":38500,"use":"南丹","zone":"","station":"住宅"}},{"type":"Feature","geometry":{"type":"Point","coordinates":[135.47096,35.11455]},"properties":{"price":38400,"use":"南丹","zone":"","station":"住宅"}},{"type":"Feature","geometry":{"type":"Point","coordinates":[135.53416,35.0693]},"properties":{"price":45300,"use":"南丹","zone":"","station":"住宅"}},{"type":"Feature","geometry":{"type":"Point","coordinates":[135.46352,35.10891]},"properties":{"price":37500,"use":"南丹","zone":"","station":"住宅"}},{"type":"Feature","geometry":{"type":"Point","coordinates":[135.46985,35.10354]},"properties":{"price":43200,"use":"南丹","zone":"","station":"住宅"}},{"type":"Feature","geometry":{"type":"Point","coordinates":[135.48284,35.10517]},"properties":{"price":37100,"use":"南丹","zone":"","station":"住宅"}},{"type":"Feature","geometry":{"type":"Point","coordinates":[135.53171,35.07363]},"properties":{"price":37400,"use":"南丹","zone":"","station":"住宅"}},{"type":"Feature","geometry":{"type":"Point","coordinates":[135.49513,35.13355]},"properties":{"price":14200,"use":"南丹","zone":"","station":"住宅"}},{"type":"Feature","geometry":{"type":"Point","coordinates":[135.53585,35.08226]},"properties":{"price":15400,"use":"南丹","zone":"","station":"住宅"}},{"type":"Feature","geometry":{"type":"Point","coordinates":[135.51483,35.0751]},"properties":{"price":17300,"use":"南丹","zone":"","station":"住宅"}},{"type":"Feature","geometry":{"type":"Point","coordinates":[135.47819,35.1189]},"properties":{"price":52000,"use":"南丹","zone":"","station":"店舗"}},{"type":"Feature","geometry":{"type":"Point","coordinates":[135.81921,34.75224]},"properties":{"price":37600,"use":"木津川","zone":"","station":"住宅"}},{"type":"Feature","geometry":{"type":"Point","coordinates":[135.81555,34.7799]},"properties":{"price":39400,"use":"木津川","zone":"","station":"住宅"}},{"type":"Feature","geometry":{"type":"Point","coordinates":[135.81621,34.75937]},"properties":{"price":23800,"use":"木津川","zone":"","station":"住宅"}},{"type":"Feature","geometry":{"type":"Point","coordinates":[135.79833,34.73774]},"properties":{"price":70300,"use":"木津川","zone":"","station":"住宅"}},{"type":"Feature","geometry":{"type":"Point","coordinates":[135.82996,34.74296]},"properties":{"price":62000,"use":"木津川","zone":"","station":"住宅"}},{"type":"Feature","geometry":{"type":"Point","coordinates":[135.81942,34.73293]},"properties":{"price":56500,"use":"木津川","zone":"","station":"住宅"}},{"type":"Feature","geometry":{"type":"Point","coordinates":[135.79359,34.73015]},"properties":{"price":117000,"use":"木津川","zone":"","station":"住宅"}},{"type":"Feature","geometry":{"type":"Point","coordinates":[135.82318,34.73507]},"properties":{"price":63000,"use":"木津川","zone":"","station":"住宅"}},{"type":"Feature","geometry":{"type":"Point","coordinates":[135.78014,34.72655]},"properties":{"price":121000,"use":"木津川","zone":"","station":"住宅"}},{"type":"Feature","geometry":{"type":"Point","coordinates":[135.80423,34.738]},"properties":{"price":70800,"use":"木津川","zone":"","station":"住宅"}},{"type":"Feature","geometry":{"type":"Point","coordinates":[135.85945,34.76454]},"properties":{"price":16700,"use":"木津川","zone":"","station":"住宅"}},{"type":"Feature","geometry":{"type":"Point","coordinates":[135.83323,34.72981]},"properties":{"price":73300,"use":"木津川","zone":"","station":"住宅"}},{"type":"Feature","geometry":{"type":"Point","coordinates":[135.78761,34.7265]},"properties":{"price":140000,"use":"木津川","zone":"","station":"住宅"}},{"type":"Feature","geometry":{"type":"Point","coordinates":[135.86988,34.75493]},"properties":{"price":35600,"use":"木津川","zone":"","station":"住宅"}},{"type":"Feature","geometry":{"type":"Point","coordinates":[135.7976,34.73304]},"properties":{"price":46800,"use":"木津川","zone":"","station":"住宅"}},{"type":"Feature","geometry":{"type":"Point","coordinates":[135.79146,34.74568]},"properties":{"price":99900,"use":"木津川","zone":"","station":"住宅"}},{"type":"Feature","geometry":{"type":"Point","coordinates":[135.83887,34.74261]},"properties":{"price":25100,"use":"木津川","zone":"","station":"住宅"}},{"type":"Feature","geometry":{"type":"Point","coordinates":[135.87114,34.73313]},"properties":{"price":36700,"use":"木津川","zone":"","station":"住宅"}},{"type":"Feature","geometry":{"type":"Point","coordinates":[135.86801,34.7494]},"properties":{"price":36900,"use":"木津川","zone":"","station":"住宅"}},{"type":"Feature","geometry":{"type":"Point","coordinates":[135.82021,34.7396]},"properties":{"price":57500,"use":"木津川","zone":"","station":"住宅"}},{"type":"Feature","geometry":{"type":"Point","coordinates":[135.83088,34.71702]},"properties":{"price":67400,"use":"木津川","zone":"","station":"住宅"}},{"type":"Feature","geometry":{"type":"Point","coordinates":[135.80235,34.7392]},"properties":{"price":25500,"use":"木津川","zone":"","station":"田"}},{"type":"Feature","geometry":{"type":"Point","coordinates":[135.82293,34.73557]},"properties":{"price":115000,"use":"木津川","zone":"","station":"銀行"}},{"type":"Feature","geometry":{"type":"Point","coordinates":[135.68571,34.91044]},"properties":{"price":156000,"use":"大山崎","zone":"","station":"住宅"}},{"type":"Feature","geometry":{"type":"Point","coordinates":[135.69608,34.90666]},"properties":{"price":155000,"use":"大山崎","zone":"","station":"住宅"}},{"type":"Feature","geometry":{"type":"Point","coordinates":[135.6795,34.89306]},"properties":{"price":153000,"use":"大山崎","zone":"","station":"住宅"}},{"type":"Feature","geometry":{"type":"Point","coordinates":[135.68762,34.90584]},"properties":{"price":126000,"use":"大山崎","zone":"","station":"住宅"}},{"type":"Feature","geometry":{"type":"Point","coordinates":[135.68779,34.89826]},"properties":{"price":172000,"use":"大山崎","zone":"","station":"住宅"}},{"type":"Feature","geometry":{"type":"Point","coordinates":[135.76038,34.87904]},"properties":{"price":118000,"use":"久御山","zone":"","station":"住宅"}},{"type":"Feature","geometry":{"type":"Point","coordinates":[135.73431,34.8829]},"properties":{"price":79000,"use":"久御山","zone":"","station":"住宅"}},{"type":"Feature","geometry":{"type":"Point","coordinates":[135.75675,34.8762]},"properties":{"price":103000,"use":"久御山","zone":"","station":"住宅"}},{"type":"Feature","geometry":{"type":"Point","coordinates":[135.73249,34.89464]},"properties":{"price":36500,"use":"久御山","zone":"","station":"住宅"}},{"type":"Feature","geometry":{"type":"Point","coordinates":[135.74701,34.88]},"properties":{"price":116000,"use":"久御山","zone":"","station":"工場"}},{"type":"Feature","geometry":{"type":"Point","coordinates":[135.74368,34.88339]},"properties":{"price":91000,"use":"久御山","zone":"","station":"工場"}},{"type":"Feature","geometry":{"type":"Point","coordinates":[135.75421,34.88868]},"properties":{"price":108000,"use":"久御山","zone":"","station":"倉庫"}},{"type":"Feature","geometry":{"type":"Point","coordinates":[135.81234,34.79961]},"properties":{"price":40000,"use":"井手","zone":"","station":"住宅"}},{"type":"Feature","geometry":{"type":"Point","coordinates":[135.80786,34.8201]},"properties":{"price":24000,"use":"井手","zone":"","station":"住宅"}},{"type":"Feature","geometry":{"type":"Point","coordinates":[135.80763,34.80222]},"properties":{"price":37200,"use":"井手","zone":"","station":"住宅"}},{"type":"Feature","geometry":{"type":"Point","coordinates":[135.84959,34.85243]},"properties":{"price":33400,"use":"宇治田原","zone":"","station":"住宅"}},{"type":"Feature","geometry":{"type":"Point","coordinates":[135.86514,34.8529]},"properties":{"price":33600,"use":"宇治田原","zone":"","station":"住宅"}},{"type":"Feature","geometry":{"type":"Point","coordinates":[135.8617,34.85267]},"properties":{"price":45700,"use":"宇治田原","zone":"","station":"店舗"}},{"type":"Feature","geometry":{"type":"Point","coordinates":[135.79377,34.76096]},"properties":{"price":109000,"use":"精華","zone":"","station":"住宅"}},{"type":"Feature","geometry":{"type":"Point","coordinates":[135.78439,34.77742]},"properties":{"price":52600,"use":"精華","zone":"","station":"住宅"}},{"type":"Feature","geometry":{"type":"Point","coordinates":[135.79312,34.78009]},"properties":{"price":74400,"use":"精華","zone":"","station":"住宅"}},{"type":"Feature","geometry":{"type":"Point","coordinates":[135.77953,34.74863]},"properties":{"price":92300,"use":"精華","zone":"","station":"住宅"}},{"type":"Feature","geometry":{"type":"Point","coordinates":[135.79225,34.77416]},"properties":{"price":27000,"use":"精華","zone":"","station":"住宅"}},{"type":"Feature","geometry":{"type":"Point","coordinates":[135.79867,34.78057]},"properties":{"price":57400,"use":"精華","zone":"","station":"住宅"}},{"type":"Feature","geometry":{"type":"Point","coordinates":[135.79057,34.75429]},"properties":{"price":39500,"use":"精華","zone":"","station":"住宅"}},{"type":"Feature","geometry":{"type":"Point","coordinates":[135.79055,34.76143]},"properties":{"price":122000,"use":"精華","zone":"","station":"住宅"}},{"type":"Feature","geometry":{"type":"Point","coordinates":[135.78084,34.7554]},"properties":{"price":41600,"use":"精華","zone":"","station":"住宅"}},{"type":"Feature","geometry":{"type":"Point","coordinates":[135.78376,34.73296]},"properties":{"price":84300,"use":"精華","zone":"","station":"住宅"}},{"type":"Feature","geometry":{"type":"Point","coordinates":[135.44319,35.17857]},"properties":{"price":9100,"use":"京丹波","zone":"","station":"住宅"}},{"type":"Feature","geometry":{"type":"Point","coordinates":[135.39945,35.16439]},"properties":{"price":11200,"use":"京丹波","zone":"","station":"住宅"}},{"type":"Feature","geometry":{"type":"Point","coordinates":[135.42579,35.1586]},"properties":{"price":24300,"use":"京丹波","zone":"","station":"店舗兼住宅"}},{"type":"Feature","geometry":{"type":"Point","coordinates":[135.42845,35.21247]},"properties":{"price":6480,"use":"京丹波","zone":"","station":"工場"}},{"type":"Feature","geometry":{"type":"Point","coordinates":[135.15035,35.56366]},"properties":{"price":26000,"use":"与謝野","zone":"","station":"住宅"}},{"type":"Feature","geometry":{"type":"Point","coordinates":[135.15465,35.56826]},"properties":{"price":20400,"use":"与謝野","zone":"","station":"住宅"}},{"type":"Feature","geometry":{"type":"Point","coordinates":[135.16168,35.57185]},"properties":{"price":28800,"use":"与謝野","zone":"","station":"店舗"}}]}