{"type":"FeatureCollection","features":[{"type":"Feature","geometry":{"type":"Point","coordinates":[136.66608,36.55697]},"properties":{"price":150000,"use":"金沢","zone":"","station":"住宅"}},{"type":"Feature","geometry":{"type":"Point","coordinates":[136.6595,36.57431]},"properties":{"price":187000,"use":"金沢","zone":"","station":"住宅"}},{"type":"Feature","geometry":{"type":"Point","coordinates":[136.64852,36.52508]},"properties":{"price":22500,"use":"金沢","zone":"","station":"住宅"}},{"type":"Feature","geometry":{"type":"Point","coordinates":[136.64371,36.58394]},"properties":{"price":150000,"use":"金沢","zone":"","station":"住宅"}},{"type":"Feature","geometry":{"type":"Point","coordinates":[136.65199,36.5491]},"properties":{"price":104000,"use":"金沢","zone":"","station":"建築中"}},{"type":"Feature","geometry":{"type":"Point","coordinates":[136.68462,36.54597]},"properties":{"price":101000,"use":"金沢","zone":"","station":"住宅"}},{"type":"Feature","geometry":{"type":"Point","coordinates":[136.65564,36.54189]},"properties":{"price":123000,"use":"金沢","zone":"","station":"住宅"}},{"type":"Feature","geometry":{"type":"Point","coordinates":[136.63296,36.57462]},"properties":{"price":106000,"use":"金沢","zone":"","station":"住宅"}},{"type":"Feature","geometry":{"type":"Point","coordinates":[136.63303,36.5253]},"properties":{"price":87500,"use":"金沢","zone":"","station":"住宅"}},{"type":"Feature","geometry":{"type":"Point","coordinates":[136.63986,36.61161]},"properties":{"price":87000,"use":"金沢","zone":"","station":"住宅"}},{"type":"Feature","geometry":{"type":"Point","coordinates":[136.623,36.57662]},"properties":{"price":108000,"use":"金沢","zone":"","station":"住宅"}},{"type":"Feature","geometry":{"type":"Point","coordinates":[136.62354,36.62021]},"properties":{"price":55000,"use":"金沢","zone":"","station":"住宅"}},{"type":"Feature","geometry":{"type":"Point","coordinates":[136.66821,36.58071]},"properties":{"price":98500,"use":"金沢","zone":"","station":"住宅"}},{"type":"Feature","geometry":{"type":"Point","coordinates":[136.60367,36.60422]},"properties":{"price":80000,"use":"金沢","zone":"","station":"住宅"}},{"type":"Feature","geometry":{"type":"Point","coordinates":[136.62186,36.50874]},"properties":{"price":69500,"use":"金沢","zone":"","station":"住宅"}},{"type":"Feature","geometry":{"type":"Point","coordinates":[136.68111,36.60749]},"properties":{"price":70500,"use":"金沢","zone":"","station":"住宅"}},{"type":"Feature","geometry":{"type":"Point","coordinates":[136.67114,36.59001]},"properties":{"price":108000,"use":"金沢","zone":"","station":"住宅"}},{"type":"Feature","geometry":{"type":"Point","coordinates":[136.60462,36.61305]},"properties":{"price":43900,"use":"金沢","zone":"","station":"住宅"}},{"type":"Feature","geometry":{"type":"Point","coordinates":[136.61587,36.59016]},"properties":{"price":107000,"use":"金沢","zone":"","station":"住宅"}},{"type":"Feature","geometry":{"type":"Point","coordinates":[136.62833,36.55401]},"properties":{"price":84000,"use":"金沢","zone":"","station":"住宅"}},{"type":"Feature","geometry":{"type":"Point","coordinates":[136.6762,36.54445]},"properties":{"price":90000,"use":"金沢","zone":"","station":"住宅"}},{"type":"Feature","geometry":{"type":"Point","coordinates":[136.64332,36.56227]},"properties":{"price":83000,"use":"金沢","zone":"","station":"住宅"}},{"type":"Feature","geometry":{"type":"Point","coordinates":[136.69571,36.54602]},"properties":{"price":56000,"use":"金沢","zone":"","station":"住宅"}},{"type":"Feature","geometry":{"type":"Point","coordinates":[136.59055,36.55505]},"properties":{"price":82000,"use":"金沢","zone":"","station":"住宅"}},{"type":"Feature","geometry":{"type":"Point","coordinates":[136.65274,36.53674]},"properties":{"price":133000,"use":"金沢","zone":"","station":"住宅"}},{"type":"Feature","geometry":{"type":"Point","coordinates":[136.62031,36.56986]},"properties":{"price":83500,"use":"金沢","zone":"","station":"住宅"}},{"type":"Feature","geometry":{"type":"Point","coordinates":[136.62267,36.56431]},"properties":{"price":90000,"use":"金沢","zone":"","station":"住宅"}},{"type":"Feature","geometry":{"type":"Point","coordinates":[136.61025,36.55873]},"properties":{"price":84000,"use":"金沢","zone":"","station":"住宅"}},{"type":"Feature","geometry":{"type":"Point","coordinates":[136.69886,36.53067]},"properties":{"price":28500,"use":"金沢","zone":"","station":"住宅"}},{"type":"Feature","geometry":{"type":"Point","coordinates":[136.63612,36.53959]},"properties":{"price":115000,"use":"金沢","zone":"","station":"住宅"}},{"type":"Feature","geometry":{"type":"Point","coordinates":[136.64611,36.53156]},"properties":{"price":70500,"use":"金沢","zone":"","station":"住宅"}},{"type":"Feature","geometry":{"type":"Point","coordinates":[136.64823,36.55311]},"properties":{"price":62000,"use":"金沢","zone":"","station":"住宅"}},{"type":"Feature","geometry":{"type":"Point","coordinates":[136.68552,36.56205]},"properties":{"price":36000,"use":"金沢","zone":"","station":"住宅"}},{"type":"Feature","geometry":{"type":"Point","coordinates":[136.60147,36.56402]},"properties":{"price":71500,"use":"金沢","zone":"","station":"住宅"}},{"type":"Feature","geometry":{"type":"Point","coordinates":[136.64529,36.57627]},"properties":{"price":180000,"use":"金沢","zone":"","station":"住宅"}},{"type":"Feature","geometry":{"type":"Point","coordinates":[136.62675,36.51733]},"properties":{"price":81500,"use":"金沢","zone":"","station":"住宅"}},{"type":"Feature","geometry":{"type":"Point","coordinates":[136.64769,36.5689]},"properties":{"price":156000,"use":"金沢","zone":"","station":"住宅"}},{"type":"Feature","geometry":{"type":"Point","coordinates":[136.69886,36.61766]},"properties":{"price":48800,"use":"金沢","zone":"","station":"住宅"}},{"type":"Feature","geometry":{"type":"Point","coordinates":[136.62669,36.6087]},"properties":{"price":85500,"use":"金沢","zone":"","station":"住宅"}},{"type":"Feature","geometry":{"type":"Point","coordinates":[136.67031,36.62048]},"properties":{"price":62000,"use":"金沢","zone":"","station":"住宅"}},{"type":"Feature","geometry":{"type":"Point","coordinates":[136.69224,36.58209]},"properties":{"price":30700,"use":"金沢","zone":"","station":"住宅"}},{"type":"Feature","geometry":{"type":"Point","coordinates":[136.69061,36.52604]},"properties":{"price":42300,"use":"金沢","zone":"","station":"住宅"}},{"type":"Feature","geometry":{"type":"Point","coordinates":[136.6273,36.54076]},"properties":{"price":91000,"use":"金沢","zone":"","station":"住宅"}},{"type":"Feature","geometry":{"type":"Point","coordinates":[136.60452,36.54826]},"properties":{"price":97000,"use":"金沢","zone":"","station":"住宅"}},{"type":"Feature","geometry":{"type":"Point","coordinates":[136.68503,36.59899]},"properties":{"price":74000,"use":"金沢","zone":"","station":"住宅"}},{"type":"Feature","geometry":{"type":"Point","coordinates":[136.63963,36.59059]},"properties":{"price":106000,"use":"金沢","zone":"","station":"住宅"}},{"type":"Feature","geometry":{"type":"Point","coordinates":[136.59398,36.56336]},"properties":{"price":66500,"use":"金沢","zone":"","station":"住宅"}},{"type":"Feature","geometry":{"type":"Point","coordinates":[136.67571,36.56357]},"properties":{"price":82000,"use":"金沢","zone":"","station":"住宅"}},{"type":"Feature","geometry":{"type":"Point","coordinates":[136.65275,36.5568]},"properties":{"price":112000,"use":"金沢","zone":"","station":"住宅"}},{"type":"Feature","geometry":{"type":"Point","coordinates":[136.66712,36.54983]},"properties":{"price":85000,"use":"金沢","zone":"","station":"住宅"}},{"type":"Feature","geometry":{"type":"Point","coordinates":[136.64773,36.60268]},"properties":{"price":90000,"use":"金沢","zone":"","station":"住宅"}},{"type":"Feature","geometry":{"type":"Point","coordinates":[136.68784,36.53248]},"properties":{"price":67000,"use":"金沢","zone":"","station":"住宅"}},{"type":"Feature","geometry":{"type":"Point","coordinates":[136.59544,36.57747]},"properties":{"price":33900,"use":"金沢","zone":"","station":"住宅"}},{"type":"Feature","geometry":{"type":"Point","coordinates":[136.64622,36.61491]},"properties":{"price":46500,"use":"金沢","zone":"","station":"住宅"}},{"type":"Feature","geometry":{"type":"Point","coordinates":[136.66742,36.57468]},"properties":{"price":119000,"use":"金沢","zone":"","station":"住宅"}},{"type":"Feature","geometry":{"type":"Point","coordinates":[136.68381,36.62126]},"properties":{"price":43000,"use":"金沢","zone":"","station":"住宅"}},{"type":"Feature","geometry":{"type":"Point","coordinates":[136.64026,36.55212]},"properties":{"price":84500,"use":"金沢","zone":"","station":"住宅"}},{"type":"Feature","geometry":{"type":"Point","coordinates":[136.66542,36.55397]},"properties":{"price":91500,"use":"金沢","zone":"","station":"住宅"}},{"type":"Feature","geometry":{"type":"Point","coordinates":[136.68096,36.58151]},"properties":{"price":63500,"use":"金沢","zone":"","station":"住宅"}},{"type":"Feature","geometry":{"type":"Point","coordinates":[136.66647,36.56952]},"properties":{"price":85000,"use":"金沢","zone":"","station":"住宅"}},{"type":"Feature","geometry":{"type":"Point","coordinates":[136.64682,36.54009]},"properties":{"price":109000,"use":"金沢","zone":"","station":"住宅"}},{"type":"Feature","geometry":{"type":"Point","coordinates":[136.63803,36.58376]},"properties":{"price":186000,"use":"金沢","zone":"","station":"共同住宅"}},{"type":"Feature","geometry":{"type":"Point","coordinates":[136.6256,36.59883]},"properties":{"price":122000,"use":"金沢","zone":"","station":"住宅"}},{"type":"Feature","geometry":{"type":"Point","coordinates":[136.69429,36.53445]},"properties":{"price":77000,"use":"金沢","zone":"","station":"住宅"}},{"type":"Feature","geometry":{"type":"Point","coordinates":[136.63793,36.61899]},"properties":{"price":92000,"use":"金沢","zone":"","station":"住宅"}},{"type":"Feature","geometry":{"type":"Point","coordinates":[136.62538,36.57889]},"properties":{"price":117000,"use":"金沢","zone":"","station":"住宅"}},{"type":"Feature","geometry":{"type":"Point","coordinates":[136.6834,36.60699]},"properties":{"price":27100,"use":"金沢","zone":"","station":"田"}},{"type":"Feature","geometry":{"type":"Point","coordinates":[136.65306,36.56136]},"properties":{"price":655000,"use":"金沢","zone":"","station":"店舗兼事務所"}},{"type":"Feature","geometry":{"type":"Point","coordinates":[136.65458,36.55912]},"properties":{"price":298000,"use":"金沢","zone":"","station":"店舗兼住宅"}},{"type":"Feature","geometry":{"type":"Point","coordinates":[136.65544,36.57445]},"properties":{"price":201000,"use":"金沢","zone":"","station":"店舗"}},{"type":"Feature","geometry":{"type":"Point","coordinates":[136.64998,36.57713]},"properties":{"price":1040000,"use":"金沢","zone":"","station":"ホテル"}},{"type":"Feature","geometry":{"type":"Point","coordinates":[136.65548,36.55016]},"properties":{"price":84500,"use":"金沢","zone":"","station":"店舗兼事務所"}},{"type":"Feature","geometry":{"type":"Point","coordinates":[136.68273,36.55994]},"properties":{"price":89500,"use":"金沢","zone":"","station":"店舗"}},{"type":"Feature","geometry":{"type":"Point","coordinates":[136.65691,36.55666]},"properties":{"price":129000,"use":"金沢","zone":"","station":"店舗兼事務所"}},{"type":"Feature","geometry":{"type":"Point","coordinates":[136.67167,36.58416]},"properties":{"price":101000,"use":"金沢","zone":"","station":"店舗"}},{"type":"Feature","geometry":{"type":"Point","coordinates":[136.66696,36.56408]},"properties":{"price":88000,"use":"金沢","zone":"","station":"店舗兼住宅"}},{"type":"Feature","geometry":{"type":"Point","coordinates":[136.661,36.56966]},"properties":{"price":265000,"use":"金沢","zone":"","station":"空地"}},{"type":"Feature","geometry":{"type":"Point","coordinates":[136.6546,36.57039]},"properties":{"price":750000,"use":"金沢","zone":"","station":"ホテル"}},{"type":"Feature","geometry":{"type":"Point","coordinates":[136.65193,36.57507]},"properties":{"price":332000,"use":"金沢","zone":"","station":"店舗"}},{"type":"Feature","geometry":{"type":"Point","coordinates":[136.64556,36.57858]},"properties":{"price":710000,"use":"金沢","zone":"","station":"事務所"}},{"type":"Feature","geometry":{"type":"Point","coordinates":[136.65111,36.56035]},"properties":{"price":413000,"use":"金沢","zone":"","station":"店舗"}},{"type":"Feature","geometry":{"type":"Point","coordinates":[136.64189,36.55839]},"properties":{"price":106000,"use":"金沢","zone":"","station":"診療所兼住宅"}},{"type":"Feature","geometry":{"type":"Point","coordinates":[136.63529,36.55463]},"properties":{"price":102000,"use":"金沢","zone":"","station":"店舗"}},{"type":"Feature","geometry":{"type":"Point","coordinates":[136.62617,36.56484]},"properties":{"price":90000,"use":"金沢","zone":"","station":"空地"}},{"type":"Feature","geometry":{"type":"Point","coordinates":[136.64937,36.55718]},"properties":{"price":127000,"use":"金沢","zone":"","station":"店舗、事務所兼住宅"}},{"type":"Feature","geometry":{"type":"Point","coordinates":[136.62792,36.52305]},"properties":{"price":79000,"use":"金沢","zone":"","station":"店舗兼住宅"}},{"type":"Feature","geometry":{"type":"Point","coordinates":[136.64445,36.5752]},"properties":{"price":218000,"use":"金沢","zone":"","station":"店舗兼住宅"}},{"type":"Feature","geometry":{"type":"Point","coordinates":[136.65086,36.57279]},"properties":{"price":204000,"use":"金沢","zone":"","station":"診療所"}},{"type":"Feature","geometry":{"type":"Point","coordinates":[136.6454,36.56847]},"properties":{"price":163000,"use":"金沢","zone":"","station":"事務所"}},{"type":"Feature","geometry":{"type":"Point","coordinates":[136.6437,36.54838]},"properties":{"price":78500,"use":"金沢","zone":"","station":"店舗兼住宅"}},{"type":"Feature","geometry":{"type":"Point","coordinates":[136.6473,36.53285]},"properties":{"price":74500,"use":"金沢","zone":"","station":"店舗兼住宅"}},{"type":"Feature","geometry":{"type":"Point","coordinates":[136.6645,36.57945]},"properties":{"price":98500,"use":"金沢","zone":"","station":"店舗"}},{"type":"Feature","geometry":{"type":"Point","coordinates":[136.64776,36.58334]},"properties":{"price":410000,"use":"金沢","zone":"","station":"事務所兼住宅"}},{"type":"Feature","geometry":{"type":"Point","coordinates":[136.62596,36.5849]},"properties":{"price":104000,"use":"金沢","zone":"","station":"店舗"}},{"type":"Feature","geometry":{"type":"Point","coordinates":[136.61401,36.56112]},"properties":{"price":74500,"use":"金沢","zone":"","station":"事務所"}},{"type":"Feature","geometry":{"type":"Point","coordinates":[136.65332,36.56383]},"properties":{"price":865000,"use":"金沢","zone":"","station":"店舗、事務所兼共同住宅"}},{"type":"Feature","geometry":{"type":"Point","coordinates":[136.75656,36.48712]},"properties":{"price":27000,"use":"金沢","zone":"","station":"店舗兼住宅"}},{"type":"Feature","geometry":{"type":"Point","coordinates":[136.5757,36.56729]},"properties":{"price":44000,"use":"金沢","zone":"","station":"事務所、倉庫兼作業場"}},{"type":"Feature","geometry":{"type":"Point","coordinates":[136.60856,36.62698]},"properties":{"price":19900,"use":"金沢","zone":"","station":"工場、倉庫兼事務所"}},{"type":"Feature","geometry":{"type":"Point","coordinates":[136.58668,36.58753]},"properties":{"price":22600,"use":"金沢","zone":"","station":"工場兼事務所"}},{"type":"Feature","geometry":{"type":"Point","coordinates":[136.65619,36.58897]},"properties":{"price":57500,"use":"金沢","zone":"","station":"工場"}},{"type":"Feature","geometry":{"type":"Point","coordinates":[136.63338,36.62285]},"properties":{"price":28700,"use":"金沢","zone":"","station":"工場"}},{"type":"Feature","geometry":{"type":"Point","coordinates":[136.6129,36.56736]},"properties":{"price":46500,"use":"金沢","zone":"","station":"工場兼事務所"}},{"type":"Feature","geometry":{"type":"Point","coordinates":[136.61273,36.60492]},"properties":{"price":37300,"use":"金沢","zone":"","station":"工場"}},{"type":"Feature","geometry":{"type":"Point","coordinates":[136.65769,36.63685]},"properties":{"price":27400,"use":"金沢","zone":"","station":"倉庫"}},{"type":"Feature","geometry":{"type":"Point","coordinates":[136.97335,37.04379]},"properties":{"price":23900,"use":"七尾","zone":"","station":"住宅"}},{"type":"Feature","geometry":{"type":"Point","coordinates":[136.96028,37.04121]},"properties":{"price":26100,"use":"七尾","zone":"","station":"住宅"}},{"type":"Feature","geometry":{"type":"Point","coordinates":[136.95752,37.05434]},"properties":{"price":24100,"use":"七尾","zone":"","station":"住宅"}},{"type":"Feature","geometry":{"type":"Point","coordinates":[136.96647,37.04609]},"properties":{"price":40300,"use":"七尾","zone":"","station":"店舗兼住宅"}},{"type":"Feature","geometry":{"type":"Point","coordinates":[136.91566,37.0892]},"properties":{"price":48000,"use":"七尾","zone":"","station":"店舗兼住宅"}},{"type":"Feature","geometry":{"type":"Point","coordinates":[136.44185,36.40253]},"properties":{"price":48000,"use":"小松","zone":"","station":"住宅"}},{"type":"Feature","geometry":{"type":"Point","coordinates":[136.45701,36.41973]},"properties":{"price":28300,"use":"小松","zone":"","station":"住宅"}},{"type":"Feature","geometry":{"type":"Point","coordinates":[136.44986,36.40991]},"properties":{"price":45800,"use":"小松","zone":"","station":"住宅"}},{"type":"Feature","geometry":{"type":"Point","coordinates":[136.47713,36.41276]},"properties":{"price":30600,"use":"小松","zone":"","station":"住宅"}},{"type":"Feature","geometry":{"type":"Point","coordinates":[136.42622,36.34191]},"properties":{"price":26000,"use":"小松","zone":"","station":"住宅"}},{"type":"Feature","geometry":{"type":"Point","coordinates":[136.4792,36.39547]},"properties":{"price":41600,"use":"小松","zone":"","station":"住宅"}},{"type":"Feature","geometry":{"type":"Point","coordinates":[136.44917,36.33311]},"properties":{"price":16600,"use":"小松","zone":"","station":"住宅"}},{"type":"Feature","geometry":{"type":"Point","coordinates":[136.42723,36.4244]},"properties":{"price":20000,"use":"小松","zone":"","station":"住宅"}},{"type":"Feature","geometry":{"type":"Point","coordinates":[136.44362,36.4076]},"properties":{"price":42000,"use":"小松","zone":"","station":"住宅"}},{"type":"Feature","geometry":{"type":"Point","coordinates":[136.46323,36.38638]},"properties":{"price":33900,"use":"小松","zone":"","station":"住宅"}},{"type":"Feature","geometry":{"type":"Point","coordinates":[136.43644,36.37719]},"properties":{"price":30000,"use":"小松","zone":"","station":"住宅"}},{"type":"Feature","geometry":{"type":"Point","coordinates":[136.41535,36.3418]},"properties":{"price":15200,"use":"小松","zone":"","station":"住宅"}},{"type":"Feature","geometry":{"type":"Point","coordinates":[136.43242,36.36487]},"properties":{"price":25700,"use":"小松","zone":"","station":"住宅"}},{"type":"Feature","geometry":{"type":"Point","coordinates":[136.42399,36.3532]},"properties":{"price":31900,"use":"小松","zone":"","station":"住宅"}},{"type":"Feature","geometry":{"type":"Point","coordinates":[136.4537,36.39778]},"properties":{"price":46500,"use":"小松","zone":"","station":"店舗兼住宅"}},{"type":"Feature","geometry":{"type":"Point","coordinates":[136.402,36.38054]},"properties":{"price":12800,"use":"小松","zone":"","station":"住宅"}},{"type":"Feature","geometry":{"type":"Point","coordinates":[136.4555,36.43031]},"properties":{"price":22600,"use":"小松","zone":"","station":"住宅"}},{"type":"Feature","geometry":{"type":"Point","coordinates":[136.48588,36.39467]},"properties":{"price":10800,"use":"小松","zone":"","station":"田"}},{"type":"Feature","geometry":{"type":"Point","coordinates":[136.45999,36.40101]},"properties":{"price":45400,"use":"小松","zone":"","station":"倉庫"}},{"type":"Feature","geometry":{"type":"Point","coordinates":[136.44853,36.4025]},"properties":{"price":53500,"use":"小松","zone":"","station":"空地"}},{"type":"Feature","geometry":{"type":"Point","coordinates":[136.44627,36.33015]},"properties":{"price":29900,"use":"小松","zone":"","station":"店舗兼住宅"}},{"type":"Feature","geometry":{"type":"Point","coordinates":[136.4702,36.41022]},"properties":{"price":30700,"use":"小松","zone":"","station":"事務所"}},{"type":"Feature","geometry":{"type":"Point","coordinates":[136.45159,36.40125]},"properties":{"price":144000,"use":"小松","zone":"","station":"店舗"}},{"type":"Feature","geometry":{"type":"Point","coordinates":[136.39335,36.39242]},"properties":{"price":14700,"use":"小松","zone":"","station":"工場"}},{"type":"Feature","geometry":{"type":"Point","coordinates":[136.90217,37.3896]},"properties":{"price":27900,"use":"輪島","zone":"","station":"住宅"}},{"type":"Feature","geometry":{"type":"Point","coordinates":[136.89625,37.39543]},"properties":{"price":25600,"use":"輪島","zone":"","station":"住宅"}},{"type":"Feature","geometry":{"type":"Point","coordinates":[136.90258,37.39245]},"properties":{"price":27900,"use":"輪島","zone":"","station":"住宅"}},{"type":"Feature","geometry":{"type":"Point","coordinates":[136.90123,37.39669]},"properties":{"price":57000,"use":"輪島","zone":"","station":"店舗"}},{"type":"Feature","geometry":{"type":"Point","coordinates":[136.90415,37.39384]},"properties":{"price":42800,"use":"輪島","zone":"","station":"店舗兼住宅"}},{"type":"Feature","geometry":{"type":"Point","coordinates":[137.26,37.43541]},"properties":{"price":11100,"use":"珠洲","zone":"","station":"住宅"}},{"type":"Feature","geometry":{"type":"Point","coordinates":[137.2679,37.43879]},"properties":{"price":9550,"use":"珠洲","zone":"","station":"住宅"}},{"type":"Feature","geometry":{"type":"Point","coordinates":[137.26374,37.43592]},"properties":{"price":14300,"use":"珠洲","zone":"","station":"店舗兼住宅"}},{"type":"Feature","geometry":{"type":"Point","coordinates":[137.27038,37.43949]},"properties":{"price":12100,"use":"珠洲","zone":"","station":"事務所"}},{"type":"Feature","geometry":{"type":"Point","coordinates":[136.30915,36.30711]},"properties":{"price":20600,"use":"加賀","zone":"","station":"住宅"}},{"type":"Feature","geometry":{"type":"Point","coordinates":[136.35684,36.29157]},"properties":{"price":26700,"use":"加賀","zone":"","station":"住宅"}},{"type":"Feature","geometry":{"type":"Point","coordinates":[136.34052,36.32561]},"properties":{"price":19000,"use":"加賀","zone":"","station":"住宅"}},{"type":"Feature","geometry":{"type":"Point","coordinates":[136.36884,36.3401]},"properties":{"price":12800,"use":"加賀","zone":"","station":"住宅"}},{"type":"Feature","geometry":{"type":"Point","coordinates":[136.31718,36.30468]},"properties":{"price":23600,"use":"加賀","zone":"","station":"住宅"}},{"type":"Feature","geometry":{"type":"Point","coordinates":[136.37405,36.25388]},"properties":{"price":18300,"use":"加賀","zone":"","station":"住宅"}},{"type":"Feature","geometry":{"type":"Point","coordinates":[136.37059,36.23854]},"properties":{"price":9800,"use":"加賀","zone":"","station":"住宅"}},{"type":"Feature","geometry":{"type":"Point","coordinates":[136.36162,36.28941]},"properties":{"price":55500,"use":"加賀","zone":"","station":"店舗兼住宅"}},{"type":"Feature","geometry":{"type":"Point","coordinates":[136.3669,36.34461]},"properties":{"price":37700,"use":"加賀","zone":"","station":"店舗兼住宅"}},{"type":"Feature","geometry":{"type":"Point","coordinates":[136.37332,36.24659]},"properties":{"price":53500,"use":"加賀","zone":"","station":"店舗兼住宅"}},{"type":"Feature","geometry":{"type":"Point","coordinates":[136.78253,36.89019]},"properties":{"price":16700,"use":"羽咋","zone":"","station":"住宅"}},{"type":"Feature","geometry":{"type":"Point","coordinates":[136.77359,36.90301]},"properties":{"price":11800,"use":"羽咋","zone":"","station":"住宅"}},{"type":"Feature","geometry":{"type":"Point","coordinates":[136.77409,36.8986]},"properties":{"price":15700,"use":"羽咋","zone":"","station":"住宅"}},{"type":"Feature","geometry":{"type":"Point","coordinates":[136.77616,36.89632]},"properties":{"price":27000,"use":"羽咋","zone":"","station":"店舗兼住宅"}},{"type":"Feature","geometry":{"type":"Point","coordinates":[136.71986,36.77349]},"properties":{"price":11000,"use":"かほく","zone":"","station":"住宅"}},{"type":"Feature","geometry":{"type":"Point","coordinates":[136.733,36.77836]},"properties":{"price":21400,"use":"かほく","zone":"","station":"住宅"}},{"type":"Feature","geometry":{"type":"Point","coordinates":[136.70037,36.73514]},"properties":{"price":28600,"use":"かほく","zone":"","station":"住宅"}},{"type":"Feature","geometry":{"type":"Point","coordinates":[136.70222,36.71134]},"properties":{"price":42300,"use":"かほく","zone":"","station":"住宅"}},{"type":"Feature","geometry":{"type":"Point","coordinates":[136.71058,36.73074]},"properties":{"price":28400,"use":"かほく","zone":"","station":"住宅"}},{"type":"Feature","geometry":{"type":"Point","coordinates":[136.6979,36.72004]},"properties":{"price":34400,"use":"かほく","zone":"","station":"店舗"}},{"type":"Feature","geometry":{"type":"Point","coordinates":[136.70677,36.72094]},"properties":{"price":37200,"use":"かほく","zone":"","station":"店舗"}},{"type":"Feature","geometry":{"type":"Point","coordinates":[136.56373,36.52031]},"properties":{"price":70500,"use":"白山","zone":"","station":"住宅"}},{"type":"Feature","geometry":{"type":"Point","coordinates":[136.5718,36.52186]},"properties":{"price":52500,"use":"白山","zone":"","station":"住宅"}},{"type":"Feature","geometry":{"type":"Point","coordinates":[136.52798,36.48623]},"properties":{"price":35500,"use":"白山","zone":"","station":"住宅"}},{"type":"Feature","geometry":{"type":"Point","coordinates":[136.56261,36.51672]},"properties":{"price":70000,"use":"白山","zone":"","station":"住宅"}},{"type":"Feature","geometry":{"type":"Point","coordinates":[136.5619,36.53539]},"properties":{"price":74500,"use":"白山","zone":"","station":"住宅"}},{"type":"Feature","geometry":{"type":"Point","coordinates":[136.6158,36.46656]},"properties":{"price":35000,"use":"白山","zone":"","station":"住宅"}},{"type":"Feature","geometry":{"type":"Point","coordinates":[136.51507,36.51098]},"properties":{"price":27500,"use":"白山","zone":"","station":"住宅"}},{"type":"Feature","geometry":{"type":"Point","coordinates":[136.57726,36.5133]},"properties":{"price":67000,"use":"白山","zone":"","station":"住宅"}},{"type":"Feature","geometry":{"type":"Point","coordinates":[136.63403,36.43325]},"properties":{"price":16700,"use":"白山","zone":"","station":"住宅"}},{"type":"Feature","geometry":{"type":"Point","coordinates":[136.50023,36.49022]},"properties":{"price":32300,"use":"白山","zone":"","station":"住宅"}},{"type":"Feature","geometry":{"type":"Point","coordinates":[136.54577,36.52115]},"properties":{"price":73000,"use":"白山","zone":"","station":"住宅"}},{"type":"Feature","geometry":{"type":"Point","coordinates":[136.5673,36.52298]},"properties":{"price":62500,"use":"白山","zone":"","station":"店舗兼住宅"}},{"type":"Feature","geometry":{"type":"Point","coordinates":[136.48489,36.48635]},"properties":{"price":37800,"use":"白山","zone":"","station":"店舗兼住宅"}},{"type":"Feature","geometry":{"type":"Point","coordinates":[136.62496,36.45221]},"properties":{"price":35300,"use":"白山","zone":"","station":"診療所兼住宅"}},{"type":"Feature","geometry":{"type":"Point","coordinates":[136.58914,36.54631]},"properties":{"price":92500,"use":"白山","zone":"","station":"店舗"}},{"type":"Feature","geometry":{"type":"Point","coordinates":[136.55486,36.55406]},"properties":{"price":26800,"use":"白山","zone":"","station":"倉庫"}},{"type":"Feature","geometry":{"type":"Point","coordinates":[136.46685,36.44828]},"properties":{"price":34400,"use":"能美","zone":"","station":"住宅"}},{"type":"Feature","geometry":{"type":"Point","coordinates":[136.50204,36.44365]},"properties":{"price":30900,"use":"能美","zone":"","station":"住宅"}},{"type":"Feature","geometry":{"type":"Point","coordinates":[136.45587,36.44458]},"properties":{"price":25900,"use":"能美","zone":"","station":"住宅"}},{"type":"Feature","geometry":{"type":"Point","coordinates":[136.54583,36.44588]},"properties":{"price":30000,"use":"能美","zone":"","station":"住宅"}},{"type":"Feature","geometry":{"type":"Point","coordinates":[136.5072,36.45343]},"properties":{"price":23200,"use":"能美","zone":"","station":"住宅"}},{"type":"Feature","geometry":{"type":"Point","coordinates":[136.56765,36.4542]},"properties":{"price":13600,"use":"能美","zone":"","station":"住宅"}},{"type":"Feature","geometry":{"type":"Point","coordinates":[136.5094,36.43079]},"properties":{"price":16700,"use":"能美","zone":"","station":"住宅"}},{"type":"Feature","geometry":{"type":"Point","coordinates":[136.48818,36.43105]},"properties":{"price":28700,"use":"能美","zone":"","station":"住宅"}},{"type":"Feature","geometry":{"type":"Point","coordinates":[136.45805,36.4357]},"properties":{"price":21500,"use":"能美","zone":"","station":"住宅"}},{"type":"Feature","geometry":{"type":"Point","coordinates":[136.46536,36.44892]},"properties":{"price":34500,"use":"能美","zone":"","station":"店舗兼住宅"}},{"type":"Feature","geometry":{"type":"Point","coordinates":[136.49311,36.4407]},"properties":{"price":31400,"use":"能美","zone":"","station":"店舗兼住宅"}},{"type":"Feature","geometry":{"type":"Point","coordinates":[136.54585,36.45263]},"properties":{"price":29000,"use":"能美","zone":"","station":"店舗"}},{"type":"Feature","geometry":{"type":"Point","coordinates":[136.61358,36.54069]},"properties":{"price":94000,"use":"野々市","zone":"","station":"住宅"}},{"type":"Feature","geometry":{"type":"Point","coordinates":[136.61245,36.50044]},"properties":{"price":69000,"use":"野々市","zone":"","station":"住宅"}},{"type":"Feature","geometry":{"type":"Point","coordinates":[136.60725,36.52718]},"properties":{"price":93000,"use":"野々市","zone":"","station":"住宅"}},{"type":"Feature","geometry":{"type":"Point","coordinates":[136.62548,36.53176]},"properties":{"price":90000,"use":"野々市","zone":"","station":"住宅"}},{"type":"Feature","geometry":{"type":"Point","coordinates":[136.60251,36.53435]},"properties":{"price":89000,"use":"野々市","zone":"","station":"住宅"}},{"type":"Feature","geometry":{"type":"Point","coordinates":[136.614,36.52567]},"properties":{"price":90000,"use":"野々市","zone":"","station":"住宅"}},{"type":"Feature","geometry":{"type":"Point","coordinates":[136.60218,36.50814]},"properties":{"price":63000,"use":"野々市","zone":"","station":"住宅"}},{"type":"Feature","geometry":{"type":"Point","coordinates":[136.60686,36.51811]},"properties":{"price":102000,"use":"野々市","zone":"","station":"住宅"}},{"type":"Feature","geometry":{"type":"Point","coordinates":[136.61111,36.5329]},"properties":{"price":91000,"use":"野々市","zone":"","station":"事務所"}},{"type":"Feature","geometry":{"type":"Point","coordinates":[136.62518,36.52969]},"properties":{"price":81500,"use":"野々市","zone":"","station":"店舗"}},{"type":"Feature","geometry":{"type":"Point","coordinates":[136.5926,36.53177]},"properties":{"price":65500,"use":"野々市","zone":"","station":"倉庫兼事務所"}},{"type":"Feature","geometry":{"type":"Point","coordinates":[136.54759,36.47228]},"properties":{"price":39800,"use":"川北","zone":"","station":"住宅"}},{"type":"Feature","geometry":{"type":"Point","coordinates":[136.50583,36.47346]},"properties":{"price":16300,"use":"川北","zone":"","station":"住宅"}},{"type":"Feature","geometry":{"type":"Point","coordinates":[136.54401,36.47122]},"properties":{"price":20500,"use":"川北","zone":"","station":"店舗兼住宅"}},{"type":"Feature","geometry":{"type":"Point","coordinates":[136.71415,36.65382]},"properties":{"price":43000,"use":"津幡","zone":"","station":"住宅"}},{"type":"Feature","geometry":{"type":"Point","coordinates":[136.72802,36.66682]},"properties":{"price":58000,"use":"津幡","zone":"","station":"住宅"}},{"type":"Feature","geometry":{"type":"Point","coordinates":[136.72668,36.66201]},"properties":{"price":63500,"use":"津幡","zone":"","station":"住宅"}},{"type":"Feature","geometry":{"type":"Point","coordinates":[136.73337,36.6702]},"properties":{"price":41500,"use":"津幡","zone":"","station":"店舗兼住宅"}},{"type":"Feature","geometry":{"type":"Point","coordinates":[136.72779,36.66228]},"properties":{"price":64500,"use":"津幡","zone":"","station":"事務所"}},{"type":"Feature","geometry":{"type":"Point","coordinates":[136.63613,36.63998]},"properties":{"price":56500,"use":"内灘","zone":"","station":"住宅"}},{"type":"Feature","geometry":{"type":"Point","coordinates":[136.64177,36.64243]},"properties":{"price":50000,"use":"内灘","zone":"","station":"住宅"}},{"type":"Feature","geometry":{"type":"Point","coordinates":[136.64184,36.65328]},"properties":{"price":46800,"use":"内灘","zone":"","station":"住宅"}},{"type":"Feature","geometry":{"type":"Point","coordinates":[136.63813,36.6322]},"properties":{"price":26900,"use":"内灘","zone":"","station":"住宅"}},{"type":"Feature","geometry":{"type":"Point","coordinates":[136.77704,37.00348]},"properties":{"price":15000,"use":"石川志賀","zone":"","station":"住宅"}},{"type":"Feature","geometry":{"type":"Point","coordinates":[136.78091,37.01022]},"properties":{"price":10200,"use":"石川志賀","zone":"","station":"住宅"}},{"type":"Feature","geometry":{"type":"Point","coordinates":[136.75017,37.15272]},"properties":{"price":2810,"use":"石川志賀","zone":"","station":"住宅"}},{"type":"Feature","geometry":{"type":"Point","coordinates":[136.77922,37.00345]},"properties":{"price":17500,"use":"石川志賀","zone":"","station":"店舗"}},{"type":"Feature","geometry":{"type":"Point","coordinates":[136.72594,37.13945]},"properties":{"price":14300,"use":"石川志賀","zone":"","station":"店舗兼旅館"}},{"type":"Feature","geometry":{"type":"Point","coordinates":[136.90149,37.23405]},"properties":{"price":13400,"use":"穴水","zone":"","station":"住宅"}},{"type":"Feature","geometry":{"type":"Point","coordinates":[136.91074,37.2302]},"properties":{"price":14900,"use":"穴水","zone":"","station":"住宅"}},{"type":"Feature","geometry":{"type":"Point","coordinates":[136.90657,37.22954]},"properties":{"price":16900,"use":"穴水","zone":"","station":"店舗兼住宅"}},{"type":"Feature","geometry":{"type":"Point","coordinates":[137.14754,37.31083]},"properties":{"price":14500,"use":"能登","zone":"","station":"住宅"}},{"type":"Feature","geometry":{"type":"Point","coordinates":[137.20988,37.30087]},"properties":{"price":5980,"use":"能登","zone":"","station":"住宅"}},{"type":"Feature","geometry":{"type":"Point","coordinates":[137.24232,37.35353]},"properties":{"price":9200,"use":"能登","zone":"","station":"住宅"}},{"type":"Feature","geometry":{"type":"Point","coordinates":[137.22865,37.30254]},"properties":{"price":5000,"use":"能登","zone":"","station":"住宅"}},{"type":"Feature","geometry":{"type":"Point","coordinates":[137.14858,37.30727]},"properties":{"price":27100,"use":"能登","zone":"","station":"店舗兼住宅"}}]}