{"type":"FeatureCollection","features":[{"type":"Feature","geometry":{"type":"Point","coordinates":[138.39351,34.98054]},"properties":{"price":241000,"use":"静岡葵","zone":"","station":"住宅"}},{"type":"Feature","geometry":{"type":"Point","coordinates":[138.37851,34.98115]},"properties":{"price":310000,"use":"静岡葵","zone":"","station":"住宅"}},{"type":"Feature","geometry":{"type":"Point","coordinates":[138.38389,34.98887]},"properties":{"price":220000,"use":"静岡葵","zone":"","station":"住宅"}},{"type":"Feature","geometry":{"type":"Point","coordinates":[138.36234,34.99619]},"properties":{"price":114000,"use":"静岡葵","zone":"","station":"住宅"}},{"type":"Feature","geometry":{"type":"Point","coordinates":[138.33523,34.98427]},"properties":{"price":93000,"use":"静岡葵","zone":"","station":"住宅"}},{"type":"Feature","geometry":{"type":"Point","coordinates":[138.39299,34.98732]},"properties":{"price":211000,"use":"静岡葵","zone":"","station":"住宅"}},{"type":"Feature","geometry":{"type":"Point","coordinates":[138.41914,35.01021]},"properties":{"price":123000,"use":"静岡葵","zone":"","station":"住宅"}},{"type":"Feature","geometry":{"type":"Point","coordinates":[138.35301,34.97998]},"properties":{"price":102000,"use":"静岡葵","zone":"","station":"住宅"}},{"type":"Feature","geometry":{"type":"Point","coordinates":[138.37176,35.00794]},"properties":{"price":123000,"use":"静岡葵","zone":"","station":"住宅"}},{"type":"Feature","geometry":{"type":"Point","coordinates":[138.36767,35.04576]},"properties":{"price":53400,"use":"静岡葵","zone":"","station":"住宅"}},{"type":"Feature","geometry":{"type":"Point","coordinates":[138.42568,35.03381]},"properties":{"price":96900,"use":"静岡葵","zone":"","station":"住宅"}},{"type":"Feature","geometry":{"type":"Point","coordinates":[138.41282,35.00155]},"properties":{"price":134000,"use":"静岡葵","zone":"","station":"住宅"}},{"type":"Feature","geometry":{"type":"Point","coordinates":[138.39207,35.00367]},"properties":{"price":136000,"use":"静岡葵","zone":"","station":"住宅"}},{"type":"Feature","geometry":{"type":"Point","coordinates":[138.39897,34.99818]},"properties":{"price":165000,"use":"静岡葵","zone":"","station":"住宅"}},{"type":"Feature","geometry":{"type":"Point","coordinates":[138.41496,35.01178]},"properties":{"price":102000,"use":"静岡葵","zone":"","station":"住宅"}},{"type":"Feature","geometry":{"type":"Point","coordinates":[138.42719,35.00392]},"properties":{"price":115000,"use":"静岡葵","zone":"","station":"住宅"}},{"type":"Feature","geometry":{"type":"Point","coordinates":[138.39044,35.00878]},"properties":{"price":103000,"use":"静岡葵","zone":"","station":"住宅"}},{"type":"Feature","geometry":{"type":"Point","coordinates":[138.36561,34.99051]},"properties":{"price":132000,"use":"静岡葵","zone":"","station":"住宅"}},{"type":"Feature","geometry":{"type":"Point","coordinates":[138.39829,35.03537]},"properties":{"price":65200,"use":"静岡葵","zone":"","station":"住宅"}},{"type":"Feature","geometry":{"type":"Point","coordinates":[138.37529,35.02352]},"properties":{"price":64300,"use":"静岡葵","zone":"","station":"住宅"}},{"type":"Feature","geometry":{"type":"Point","coordinates":[138.37922,34.99376]},"properties":{"price":194000,"use":"静岡葵","zone":"","station":"住宅"}},{"type":"Feature","geometry":{"type":"Point","coordinates":[138.41457,34.99776]},"properties":{"price":146000,"use":"静岡葵","zone":"","station":"住宅"}},{"type":"Feature","geometry":{"type":"Point","coordinates":[138.36469,34.97352]},"properties":{"price":130000,"use":"静岡葵","zone":"","station":"住宅"}},{"type":"Feature","geometry":{"type":"Point","coordinates":[138.3318,34.97915]},"properties":{"price":41800,"use":"静岡葵","zone":"","station":"住宅"}},{"type":"Feature","geometry":{"type":"Point","coordinates":[138.27682,35.00868]},"properties":{"price":34100,"use":"静岡葵","zone":"","station":"住宅"}},{"type":"Feature","geometry":{"type":"Point","coordinates":[138.38416,34.97404]},"properties":{"price":1440000,"use":"静岡葵","zone":"","station":"店舗"}},{"type":"Feature","geometry":{"type":"Point","coordinates":[138.37694,34.96339]},"properties":{"price":162000,"use":"静岡葵","zone":"","station":"事務所"}},{"type":"Feature","geometry":{"type":"Point","coordinates":[138.38378,34.97179]},"properties":{"price":717000,"use":"静岡葵","zone":"","station":"店舗兼住宅"}},{"type":"Feature","geometry":{"type":"Point","coordinates":[138.37372,34.96781]},"properties":{"price":168000,"use":"静岡葵","zone":"","station":"事務所"}},{"type":"Feature","geometry":{"type":"Point","coordinates":[138.3826,34.97371]},"properties":{"price":931000,"use":"静岡葵","zone":"","station":"事務所兼住宅"}},{"type":"Feature","geometry":{"type":"Point","coordinates":[138.38842,34.97788]},"properties":{"price":395000,"use":"静岡葵","zone":"","station":"事務所兼住宅"}},{"type":"Feature","geometry":{"type":"Point","coordinates":[138.37416,34.96367]},"properties":{"price":163000,"use":"静岡葵","zone":"","station":"事務所兼住宅"}},{"type":"Feature","geometry":{"type":"Point","coordinates":[138.39514,34.98626]},"properties":{"price":197000,"use":"静岡葵","zone":"","station":"店舗兼事務所"}},{"type":"Feature","geometry":{"type":"Point","coordinates":[138.37241,34.97069]},"properties":{"price":157000,"use":"静岡葵","zone":"","station":"店舗兼住宅"}},{"type":"Feature","geometry":{"type":"Point","coordinates":[138.41732,34.9898]},"properties":{"price":234000,"use":"静岡葵","zone":"","station":"店舗、工場兼事務所"}},{"type":"Feature","geometry":{"type":"Point","coordinates":[138.37793,34.97723]},"properties":{"price":192000,"use":"静岡葵","zone":"","station":"事務所兼住宅"}},{"type":"Feature","geometry":{"type":"Point","coordinates":[138.37957,34.97599]},"properties":{"price":567000,"use":"静岡葵","zone":"","station":"事務所、店舗兼車庫"}},{"type":"Feature","geometry":{"type":"Point","coordinates":[138.38918,34.97534]},"properties":{"price":615000,"use":"静岡葵","zone":"","station":"事務所兼住宅"}},{"type":"Feature","geometry":{"type":"Point","coordinates":[138.38076,34.96914]},"properties":{"price":236000,"use":"静岡葵","zone":"","station":"事務所兼共同住宅"}},{"type":"Feature","geometry":{"type":"Point","coordinates":[138.37443,34.97678]},"properties":{"price":179000,"use":"静岡葵","zone":"","station":"店舗、住宅兼作業所"}},{"type":"Feature","geometry":{"type":"Point","coordinates":[138.37747,34.97997]},"properties":{"price":208000,"use":"静岡葵","zone":"","station":"店舗兼住宅"}},{"type":"Feature","geometry":{"type":"Point","coordinates":[138.37973,34.97401]},"properties":{"price":262000,"use":"静岡葵","zone":"","station":"店舗兼共同住宅"}},{"type":"Feature","geometry":{"type":"Point","coordinates":[138.36803,34.98625]},"properties":{"price":150000,"use":"静岡葵","zone":"","station":"店舗"}},{"type":"Feature","geometry":{"type":"Point","coordinates":[138.40652,35.00173]},"properties":{"price":193000,"use":"静岡葵","zone":"","station":"店舗"}},{"type":"Feature","geometry":{"type":"Point","coordinates":[138.3736,35.00957]},"properties":{"price":145000,"use":"静岡葵","zone":"","station":"店舗兼住宅"}},{"type":"Feature","geometry":{"type":"Point","coordinates":[138.34566,34.97121]},"properties":{"price":69000,"use":"静岡葵","zone":"","station":"事務所兼倉庫"}},{"type":"Feature","geometry":{"type":"Point","coordinates":[138.39707,34.96574]},"properties":{"price":213000,"use":"静岡駿河","zone":"","station":"住宅"}},{"type":"Feature","geometry":{"type":"Point","coordinates":[138.3524,34.94308]},"properties":{"price":97000,"use":"静岡駿河","zone":"","station":"住宅"}},{"type":"Feature","geometry":{"type":"Point","coordinates":[138.40338,34.96519]},"properties":{"price":180000,"use":"静岡駿河","zone":"","station":"住宅"}},{"type":"Feature","geometry":{"type":"Point","coordinates":[138.35978,34.95838]},"properties":{"price":87000,"use":"静岡駿河","zone":"","station":"取壊中"}},{"type":"Feature","geometry":{"type":"Point","coordinates":[138.39083,34.96353]},"properties":{"price":197000,"use":"静岡駿河","zone":"","station":"住宅"}},{"type":"Feature","geometry":{"type":"Point","coordinates":[138.39653,34.95937]},"properties":{"price":198000,"use":"静岡駿河","zone":"","station":"住宅"}},{"type":"Feature","geometry":{"type":"Point","coordinates":[138.41252,34.94832]},"properties":{"price":111000,"use":"静岡駿河","zone":"","station":"住宅"}},{"type":"Feature","geometry":{"type":"Point","coordinates":[138.41372,34.9782]},"properties":{"price":164000,"use":"静岡駿河","zone":"","station":"住宅"}},{"type":"Feature","geometry":{"type":"Point","coordinates":[138.3887,34.96803]},"properties":{"price":238000,"use":"静岡駿河","zone":"","station":"共同住宅"}},{"type":"Feature","geometry":{"type":"Point","coordinates":[138.43354,34.99072]},"properties":{"price":144000,"use":"静岡駿河","zone":"","station":"住宅"}},{"type":"Feature","geometry":{"type":"Point","coordinates":[138.42844,34.97296]},"properties":{"price":112000,"use":"静岡駿河","zone":"","station":"住宅"}},{"type":"Feature","geometry":{"type":"Point","coordinates":[138.40077,34.95221]},"properties":{"price":125000,"use":"静岡駿河","zone":"","station":"住宅"}},{"type":"Feature","geometry":{"type":"Point","coordinates":[138.40344,34.9385]},"properties":{"price":37200,"use":"静岡駿河","zone":"","station":"住宅"}},{"type":"Feature","geometry":{"type":"Point","coordinates":[138.33162,34.9485]},"properties":{"price":61000,"use":"静岡駿河","zone":"","station":"住宅"}},{"type":"Feature","geometry":{"type":"Point","coordinates":[138.41174,34.95932]},"properties":{"price":130000,"use":"静岡駿河","zone":"","station":"住宅"}},{"type":"Feature","geometry":{"type":"Point","coordinates":[138.41728,34.94598]},"properties":{"price":43400,"use":"静岡駿河","zone":"","station":"住宅"}},{"type":"Feature","geometry":{"type":"Point","coordinates":[138.36331,34.92216]},"properties":{"price":41400,"use":"静岡駿河","zone":"","station":"住宅"}},{"type":"Feature","geometry":{"type":"Point","coordinates":[138.36749,34.94949]},"properties":{"price":93600,"use":"静岡駿河","zone":"","station":"住宅"}},{"type":"Feature","geometry":{"type":"Point","coordinates":[138.44027,34.99305]},"properties":{"price":106000,"use":"静岡駿河","zone":"","station":"住宅"}},{"type":"Feature","geometry":{"type":"Point","coordinates":[138.37939,34.936]},"properties":{"price":75000,"use":"静岡駿河","zone":"","station":"住宅"}},{"type":"Feature","geometry":{"type":"Point","coordinates":[138.37276,34.92519]},"properties":{"price":41400,"use":"静岡駿河","zone":"","station":"住宅"}},{"type":"Feature","geometry":{"type":"Point","coordinates":[138.36736,34.93258]},"properties":{"price":79900,"use":"静岡駿河","zone":"","station":"住宅"}},{"type":"Feature","geometry":{"type":"Point","coordinates":[138.40981,34.97351]},"properties":{"price":167000,"use":"静岡駿河","zone":"","station":"住宅"}},{"type":"Feature","geometry":{"type":"Point","coordinates":[138.37329,34.94439]},"properties":{"price":114000,"use":"静岡駿河","zone":"","station":"住宅"}},{"type":"Feature","geometry":{"type":"Point","coordinates":[138.38874,34.95442]},"properties":{"price":145000,"use":"静岡駿河","zone":"","station":"住宅"}},{"type":"Feature","geometry":{"type":"Point","coordinates":[138.39923,34.97336]},"properties":{"price":187000,"use":"静岡駿河","zone":"","station":"住宅"}},{"type":"Feature","geometry":{"type":"Point","coordinates":[138.38528,34.94997]},"properties":{"price":93700,"use":"静岡駿河","zone":"","station":"住宅"}},{"type":"Feature","geometry":{"type":"Point","coordinates":[138.41513,34.98318]},"properties":{"price":342000,"use":"静岡駿河","zone":"","station":"共同住宅"}},{"type":"Feature","geometry":{"type":"Point","coordinates":[138.38567,34.96376]},"properties":{"price":180000,"use":"静岡駿河","zone":"","station":"店舗兼住宅"}},{"type":"Feature","geometry":{"type":"Point","coordinates":[138.38784,34.96744]},"properties":{"price":243000,"use":"静岡駿河","zone":"","station":"店舗"}},{"type":"Feature","geometry":{"type":"Point","coordinates":[138.39069,34.96959]},"properties":{"price":736000,"use":"静岡駿河","zone":"","station":"事務所兼車庫"}},{"type":"Feature","geometry":{"type":"Point","coordinates":[138.43085,34.99255]},"properties":{"price":171000,"use":"静岡駿河","zone":"","station":"店舗兼共同住宅"}},{"type":"Feature","geometry":{"type":"Point","coordinates":[138.39382,34.97258]},"properties":{"price":355000,"use":"静岡駿河","zone":"","station":"事務所"}},{"type":"Feature","geometry":{"type":"Point","coordinates":[138.39009,34.96873]},"properties":{"price":336000,"use":"静岡駿河","zone":"","station":"店舗兼住宅"}},{"type":"Feature","geometry":{"type":"Point","coordinates":[138.41415,34.9509]},"properties":{"price":129000,"use":"静岡駿河","zone":"","station":"店舗"}},{"type":"Feature","geometry":{"type":"Point","coordinates":[138.372,34.94784]},"properties":{"price":123000,"use":"静岡駿河","zone":"","station":"店舗兼住宅"}},{"type":"Feature","geometry":{"type":"Point","coordinates":[138.41239,34.96885]},"properties":{"price":93000,"use":"静岡駿河","zone":"","station":"事務所兼倉庫"}},{"type":"Feature","geometry":{"type":"Point","coordinates":[138.35157,34.94957]},"properties":{"price":43000,"use":"静岡駿河","zone":"","station":"工場"}},{"type":"Feature","geometry":{"type":"Point","coordinates":[138.37819,34.96055]},"properties":{"price":149000,"use":"静岡駿河","zone":"","station":"工場兼住宅"}},{"type":"Feature","geometry":{"type":"Point","coordinates":[138.36518,34.92747]},"properties":{"price":43700,"use":"静岡駿河","zone":"","station":"工場"}},{"type":"Feature","geometry":{"type":"Point","coordinates":[138.39134,34.95033]},"properties":{"price":120000,"use":"静岡駿河","zone":"","station":"工場兼住宅"}},{"type":"Feature","geometry":{"type":"Point","coordinates":[138.50897,34.98491]},"properties":{"price":38100,"use":"静岡清水","zone":"","station":"住宅"}},{"type":"Feature","geometry":{"type":"Point","coordinates":[138.46769,35.01889]},"properties":{"price":102000,"use":"静岡清水","zone":"","station":"住宅"}},{"type":"Feature","geometry":{"type":"Point","coordinates":[138.48707,34.99198]},"properties":{"price":93000,"use":"静岡清水","zone":"","station":"住宅"}},{"type":"Feature","geometry":{"type":"Point","coordinates":[138.44119,35.00929]},"properties":{"price":96600,"use":"静岡清水","zone":"","station":"住宅"}},{"type":"Feature","geometry":{"type":"Point","coordinates":[138.49579,34.97849]},"properties":{"price":58200,"use":"静岡清水","zone":"","station":"住宅"}},{"type":"Feature","geometry":{"type":"Point","coordinates":[138.558,35.10447]},"properties":{"price":55000,"use":"静岡清水","zone":"","station":"住宅"}},{"type":"Feature","geometry":{"type":"Point","coordinates":[138.48783,34.98511]},"properties":{"price":74700,"use":"静岡清水","zone":"","station":"住宅"}},{"type":"Feature","geometry":{"type":"Point","coordinates":[138.4793,35.04733]},"properties":{"price":70300,"use":"静岡清水","zone":"","station":"住宅"}},{"type":"Feature","geometry":{"type":"Point","coordinates":[138.4821,35.01031]},"properties":{"price":115000,"use":"静岡清水","zone":"","station":"住宅"}},{"type":"Feature","geometry":{"type":"Point","coordinates":[138.47194,35.00261]},"properties":{"price":113000,"use":"静岡清水","zone":"","station":"住宅"}},{"type":"Feature","geometry":{"type":"Point","coordinates":[138.47358,35.00931]},"properties":{"price":128000,"use":"静岡清水","zone":"","station":"住宅"}},{"type":"Feature","geometry":{"type":"Point","coordinates":[138.46574,35.01302]},"properties":{"price":100000,"use":"静岡清水","zone":"","station":"住宅"}},{"type":"Feature","geometry":{"type":"Point","coordinates":[138.44664,35.00764]},"properties":{"price":128000,"use":"静岡清水","zone":"","station":"住宅"}},{"type":"Feature","geometry":{"type":"Point","coordinates":[138.45315,34.9917]},"properties":{"price":66300,"use":"静岡清水","zone":"","station":"住宅"}},{"type":"Feature","geometry":{"type":"Point","coordinates":[138.56365,35.11216]},"properties":{"price":52100,"use":"静岡清水","zone":"","station":"住宅"}},{"type":"Feature","geometry":{"type":"Point","coordinates":[138.45182,35.03865]},"properties":{"price":89100,"use":"静岡清水","zone":"","station":"住宅"}},{"type":"Feature","geometry":{"type":"Point","coordinates":[138.44773,35.03782]},"properties":{"price":69900,"use":"静岡清水","zone":"","station":"住宅"}},{"type":"Feature","geometry":{"type":"Point","coordinates":[138.61352,35.12681]},"properties":{"price":38100,"use":"静岡清水","zone":"","station":"住宅"}},{"type":"Feature","geometry":{"type":"Point","coordinates":[138.45016,35.005]},"properties":{"price":160000,"use":"静岡清水","zone":"","station":"住宅"}},{"type":"Feature","geometry":{"type":"Point","coordinates":[138.48297,35.02785]},"properties":{"price":128000,"use":"静岡清水","zone":"","station":"住宅"}},{"type":"Feature","geometry":{"type":"Point","coordinates":[138.44107,34.99705]},"properties":{"price":188000,"use":"静岡清水","zone":"","station":"住宅"}},{"type":"Feature","geometry":{"type":"Point","coordinates":[138.52465,35.06062]},"properties":{"price":76400,"use":"静岡清水","zone":"","station":"住宅"}},{"type":"Feature","geometry":{"type":"Point","coordinates":[138.50246,35.04233]},"properties":{"price":47700,"use":"静岡清水","zone":"","station":"住宅"}},{"type":"Feature","geometry":{"type":"Point","coordinates":[138.46776,35.03238]},"properties":{"price":85000,"use":"静岡清水","zone":"","station":"住宅"}},{"type":"Feature","geometry":{"type":"Point","coordinates":[138.48464,35.03789]},"properties":{"price":93000,"use":"静岡清水","zone":"","station":"住宅"}},{"type":"Feature","geometry":{"type":"Point","coordinates":[138.43004,35.01246]},"properties":{"price":79600,"use":"静岡清水","zone":"","station":"住宅"}},{"type":"Feature","geometry":{"type":"Point","coordinates":[138.45841,35.03199]},"properties":{"price":81900,"use":"静岡清水","zone":"","station":"住宅"}},{"type":"Feature","geometry":{"type":"Point","coordinates":[138.62555,35.12694]},"properties":{"price":40000,"use":"静岡清水","zone":"","station":"住宅"}},{"type":"Feature","geometry":{"type":"Point","coordinates":[138.45973,35.01392]},"properties":{"price":102000,"use":"静岡清水","zone":"","station":"住宅"}},{"type":"Feature","geometry":{"type":"Point","coordinates":[138.48066,34.99716]},"properties":{"price":98500,"use":"静岡清水","zone":"","station":"住宅"}},{"type":"Feature","geometry":{"type":"Point","coordinates":[138.46695,35.04027]},"properties":{"price":81600,"use":"静岡清水","zone":"","station":"住宅"}},{"type":"Feature","geometry":{"type":"Point","coordinates":[138.48765,35.02262]},"properties":{"price":142000,"use":"静岡清水","zone":"","station":"店舗"}},{"type":"Feature","geometry":{"type":"Point","coordinates":[138.44976,35.01005]},"properties":{"price":134000,"use":"静岡清水","zone":"","station":"医院"}},{"type":"Feature","geometry":{"type":"Point","coordinates":[138.45392,35.01334]},"properties":{"price":108000,"use":"静岡清水","zone":"","station":"店舗"}},{"type":"Feature","geometry":{"type":"Point","coordinates":[138.48152,35.00485]},"properties":{"price":132000,"use":"静岡清水","zone":"","station":"建築中"}},{"type":"Feature","geometry":{"type":"Point","coordinates":[138.48829,35.01442]},"properties":{"price":126000,"use":"静岡清水","zone":"","station":"店舗"}},{"type":"Feature","geometry":{"type":"Point","coordinates":[138.56182,35.10733]},"properties":{"price":61800,"use":"静岡清水","zone":"","station":"医院兼住宅"}},{"type":"Feature","geometry":{"type":"Point","coordinates":[138.4839,35.02318]},"properties":{"price":110000,"use":"静岡清水","zone":"","station":"店舗兼住宅"}},{"type":"Feature","geometry":{"type":"Point","coordinates":[138.52237,35.05188]},"properties":{"price":70300,"use":"静岡清水","zone":"","station":"店舗兼住宅"}},{"type":"Feature","geometry":{"type":"Point","coordinates":[138.60404,35.1185]},"properties":{"price":57000,"use":"静岡清水","zone":"","station":"店舗兼住宅"}},{"type":"Feature","geometry":{"type":"Point","coordinates":[138.45066,35.01376]},"properties":{"price":57700,"use":"静岡清水","zone":"","station":"工場"}},{"type":"Feature","geometry":{"type":"Point","coordinates":[138.49514,35.00498]},"properties":{"price":81000,"use":"静岡清水","zone":"","station":"倉庫"}},{"type":"Feature","geometry":{"type":"Point","coordinates":[138.4794,35.04236]},"properties":{"price":92000,"use":"静岡清水","zone":"","station":"倉庫"}},{"type":"Feature","geometry":{"type":"Point","coordinates":[138.49345,35.00704]},"properties":{"price":57000,"use":"静岡清水","zone":"","station":"事務所"}},{"type":"Feature","geometry":{"type":"Point","coordinates":[138.52822,35.0577]},"properties":{"price":47200,"use":"静岡清水","zone":"","station":"工場"}},{"type":"Feature","geometry":{"type":"Point","coordinates":[137.72678,34.69046]},"properties":{"price":74800,"use":"浜松中央","zone":"","station":"住宅"}},{"type":"Feature","geometry":{"type":"Point","coordinates":[137.71587,34.70331]},"properties":{"price":96200,"use":"浜松中央","zone":"","station":"住宅"}},{"type":"Feature","geometry":{"type":"Point","coordinates":[137.70808,34.73563]},"properties":{"price":60200,"use":"浜松中央","zone":"","station":"住宅"}},{"type":"Feature","geometry":{"type":"Point","coordinates":[137.71419,34.74454]},"properties":{"price":75300,"use":"浜松中央","zone":"","station":"住宅"}},{"type":"Feature","geometry":{"type":"Point","coordinates":[137.74862,34.7413]},"properties":{"price":109000,"use":"浜松中央","zone":"","station":"住宅"}},{"type":"Feature","geometry":{"type":"Point","coordinates":[137.70339,34.70771]},"properties":{"price":166000,"use":"浜松中央","zone":"","station":"住宅"}},{"type":"Feature","geometry":{"type":"Point","coordinates":[137.74168,34.72404]},"properties":{"price":86700,"use":"浜松中央","zone":"","station":"共同住宅"}},{"type":"Feature","geometry":{"type":"Point","coordinates":[137.71164,34.71789]},"properties":{"price":147000,"use":"浜松中央","zone":"","station":"住宅"}},{"type":"Feature","geometry":{"type":"Point","coordinates":[137.70808,34.71218]},"properties":{"price":136000,"use":"浜松中央","zone":"","station":"住宅"}},{"type":"Feature","geometry":{"type":"Point","coordinates":[137.69353,34.72723]},"properties":{"price":91800,"use":"浜松中央","zone":"","station":"住宅"}},{"type":"Feature","geometry":{"type":"Point","coordinates":[137.70227,34.77378]},"properties":{"price":77000,"use":"浜松中央","zone":"","station":"住宅"}},{"type":"Feature","geometry":{"type":"Point","coordinates":[137.72556,34.7287]},"properties":{"price":110000,"use":"浜松中央","zone":"","station":"住宅"}},{"type":"Feature","geometry":{"type":"Point","coordinates":[137.73092,34.7493]},"properties":{"price":80500,"use":"浜松中央","zone":"","station":"住宅"}},{"type":"Feature","geometry":{"type":"Point","coordinates":[137.69891,34.71337]},"properties":{"price":103000,"use":"浜松中央","zone":"","station":"住宅"}},{"type":"Feature","geometry":{"type":"Point","coordinates":[137.72416,34.72081]},"properties":{"price":87400,"use":"浜松中央","zone":"","station":"住宅"}},{"type":"Feature","geometry":{"type":"Point","coordinates":[137.73161,34.73742]},"properties":{"price":83100,"use":"浜松中央","zone":"","station":"住宅"}},{"type":"Feature","geometry":{"type":"Point","coordinates":[137.73602,34.7239]},"properties":{"price":113000,"use":"浜松中央","zone":"","station":"住宅"}},{"type":"Feature","geometry":{"type":"Point","coordinates":[137.71843,34.70799]},"properties":{"price":88300,"use":"浜松中央","zone":"","station":"住宅"}},{"type":"Feature","geometry":{"type":"Point","coordinates":[137.74005,34.69338]},"properties":{"price":78700,"use":"浜松中央","zone":"","station":"住宅"}},{"type":"Feature","geometry":{"type":"Point","coordinates":[137.69621,34.70362]},"properties":{"price":130000,"use":"浜松中央","zone":"","station":"住宅"}},{"type":"Feature","geometry":{"type":"Point","coordinates":[137.74728,34.69841]},"properties":{"price":79400,"use":"浜松中央","zone":"","station":"住宅"}},{"type":"Feature","geometry":{"type":"Point","coordinates":[137.75174,34.73036]},"properties":{"price":91600,"use":"浜松中央","zone":"","station":"住宅"}},{"type":"Feature","geometry":{"type":"Point","coordinates":[137.73694,34.71189]},"properties":{"price":313000,"use":"浜松中央","zone":"","station":"共同住宅"}},{"type":"Feature","geometry":{"type":"Point","coordinates":[137.71533,34.7196]},"properties":{"price":90000,"use":"浜松中央","zone":"","station":"住宅"}},{"type":"Feature","geometry":{"type":"Point","coordinates":[137.72268,34.74527]},"properties":{"price":76800,"use":"浜松中央","zone":"","station":"住宅"}},{"type":"Feature","geometry":{"type":"Point","coordinates":[137.73222,34.69601]},"properties":{"price":91800,"use":"浜松中央","zone":"","station":"住宅"}},{"type":"Feature","geometry":{"type":"Point","coordinates":[137.74652,34.7265]},"properties":{"price":89900,"use":"浜松中央","zone":"","station":"住宅"}},{"type":"Feature","geometry":{"type":"Point","coordinates":[137.73054,34.74513]},"properties":{"price":81900,"use":"浜松中央","zone":"","station":"住宅"}},{"type":"Feature","geometry":{"type":"Point","coordinates":[137.73703,34.76299]},"properties":{"price":85600,"use":"浜松中央","zone":"","station":"住宅"}},{"type":"Feature","geometry":{"type":"Point","coordinates":[137.75297,34.72182]},"properties":{"price":97200,"use":"浜松中央","zone":"","station":"住宅"}},{"type":"Feature","geometry":{"type":"Point","coordinates":[137.79782,34.74344]},"properties":{"price":45300,"use":"浜松中央","zone":"","station":"住宅"}},{"type":"Feature","geometry":{"type":"Point","coordinates":[137.78176,34.72139]},"properties":{"price":82100,"use":"浜松中央","zone":"","station":"住宅"}},{"type":"Feature","geometry":{"type":"Point","coordinates":[137.77603,34.74389]},"properties":{"price":74100,"use":"浜松中央","zone":"","station":"住宅"}},{"type":"Feature","geometry":{"type":"Point","coordinates":[137.77491,34.73232]},"properties":{"price":86500,"use":"浜松中央","zone":"","station":"住宅"}},{"type":"Feature","geometry":{"type":"Point","coordinates":[137.78443,34.73136]},"properties":{"price":71800,"use":"浜松中央","zone":"","station":"住宅"}},{"type":"Feature","geometry":{"type":"Point","coordinates":[137.7565,34.71537]},"properties":{"price":101000,"use":"浜松中央","zone":"","station":"住宅"}},{"type":"Feature","geometry":{"type":"Point","coordinates":[137.76605,34.71533]},"properties":{"price":90000,"use":"浜松中央","zone":"","station":"住宅"}},{"type":"Feature","geometry":{"type":"Point","coordinates":[137.78726,34.7386]},"properties":{"price":66900,"use":"浜松中央","zone":"","station":"住宅"}},{"type":"Feature","geometry":{"type":"Point","coordinates":[137.78263,34.76967]},"properties":{"price":57600,"use":"浜松中央","zone":"","station":"住宅"}},{"type":"Feature","geometry":{"type":"Point","coordinates":[137.75124,34.74633]},"properties":{"price":78800,"use":"浜松中央","zone":"","station":"住宅"}},{"type":"Feature","geometry":{"type":"Point","coordinates":[137.77045,34.7473]},"properties":{"price":65200,"use":"浜松中央","zone":"","station":"住宅"}},{"type":"Feature","geometry":{"type":"Point","coordinates":[137.75418,34.73381]},"properties":{"price":83600,"use":"浜松中央","zone":"","station":"住宅"}},{"type":"Feature","geometry":{"type":"Point","coordinates":[137.63207,34.68266]},"properties":{"price":39600,"use":"浜松中央","zone":"","station":"住宅"}},{"type":"Feature","geometry":{"type":"Point","coordinates":[137.66106,34.68993]},"properties":{"price":41700,"use":"浜松中央","zone":"","station":"住宅"}},{"type":"Feature","geometry":{"type":"Point","coordinates":[137.59541,34.72585]},"properties":{"price":23400,"use":"浜松中央","zone":"","station":"住宅"}},{"type":"Feature","geometry":{"type":"Point","coordinates":[137.67539,34.7036]},"properties":{"price":90300,"use":"浜松中央","zone":"","station":"住宅"}},{"type":"Feature","geometry":{"type":"Point","coordinates":[137.67937,34.71012]},"properties":{"price":119000,"use":"浜松中央","zone":"","station":"住宅"}},{"type":"Feature","geometry":{"type":"Point","coordinates":[137.61762,34.68328]},"properties":{"price":33700,"use":"浜松中央","zone":"","station":"住宅"}},{"type":"Feature","geometry":{"type":"Point","coordinates":[137.6094,34.68621]},"properties":{"price":28800,"use":"浜松中央","zone":"","station":"住宅"}},{"type":"Feature","geometry":{"type":"Point","coordinates":[137.64352,34.69508]},"properties":{"price":71000,"use":"浜松中央","zone":"","station":"住宅"}},{"type":"Feature","geometry":{"type":"Point","coordinates":[137.63288,34.69769]},"properties":{"price":54200,"use":"浜松中央","zone":"","station":"住宅"}},{"type":"Feature","geometry":{"type":"Point","coordinates":[137.64989,34.76201]},"properties":{"price":28200,"use":"浜松中央","zone":"","station":"住宅"}},{"type":"Feature","geometry":{"type":"Point","coordinates":[137.67431,34.72158]},"properties":{"price":35100,"use":"浜松中央","zone":"","station":"住宅"}},{"type":"Feature","geometry":{"type":"Point","coordinates":[137.67009,34.7617]},"properties":{"price":44800,"use":"浜松中央","zone":"","station":"住宅"}},{"type":"Feature","geometry":{"type":"Point","coordinates":[137.64225,34.70684]},"properties":{"price":55400,"use":"浜松中央","zone":"","station":"住宅"}},{"type":"Feature","geometry":{"type":"Point","coordinates":[137.75789,34.69797]},"properties":{"price":78500,"use":"浜松中央","zone":"","station":"住宅"}},{"type":"Feature","geometry":{"type":"Point","coordinates":[137.76244,34.7038]},"properties":{"price":73800,"use":"浜松中央","zone":"","station":"住宅"}},{"type":"Feature","geometry":{"type":"Point","coordinates":[137.78808,34.70733]},"properties":{"price":51700,"use":"浜松中央","zone":"","station":"住宅"}},{"type":"Feature","geometry":{"type":"Point","coordinates":[137.73441,34.69244]},"properties":{"price":64100,"use":"浜松中央","zone":"","station":"住宅"}},{"type":"Feature","geometry":{"type":"Point","coordinates":[137.76273,34.69592]},"properties":{"price":76300,"use":"浜松中央","zone":"","station":"住宅"}},{"type":"Feature","geometry":{"type":"Point","coordinates":[137.71006,34.6902]},"properties":{"price":66900,"use":"浜松中央","zone":"","station":"住宅"}},{"type":"Feature","geometry":{"type":"Point","coordinates":[137.6854,34.69006]},"properties":{"price":70700,"use":"浜松中央","zone":"","station":"空地"}},{"type":"Feature","geometry":{"type":"Point","coordinates":[137.75928,34.69268]},"properties":{"price":70700,"use":"浜松中央","zone":"","station":"住宅"}},{"type":"Feature","geometry":{"type":"Point","coordinates":[137.71497,34.76846]},"properties":{"price":83800,"use":"浜松中央","zone":"","station":"住宅"}},{"type":"Feature","geometry":{"type":"Point","coordinates":[137.70307,34.78173]},"properties":{"price":58800,"use":"浜松中央","zone":"","station":"住宅"}},{"type":"Feature","geometry":{"type":"Point","coordinates":[137.73055,34.70591]},"properties":{"price":612000,"use":"浜松中央","zone":"","station":"店舗"}},{"type":"Feature","geometry":{"type":"Point","coordinates":[137.73133,34.70001]},"properties":{"price":109000,"use":"浜松中央","zone":"","station":"店舗兼住宅"}},{"type":"Feature","geometry":{"type":"Point","coordinates":[137.73932,34.70352]},"properties":{"price":125000,"use":"浜松中央","zone":"","station":"空地"}},{"type":"Feature","geometry":{"type":"Point","coordinates":[137.73329,34.70721]},"properties":{"price":251000,"use":"浜松中央","zone":"","station":"店舗、事務所兼住宅"}},{"type":"Feature","geometry":{"type":"Point","coordinates":[137.72718,34.70912]},"properties":{"price":209000,"use":"浜松中央","zone":"","station":"事務所"}},{"type":"Feature","geometry":{"type":"Point","coordinates":[137.72309,34.70248]},"properties":{"price":115000,"use":"浜松中央","zone":"","station":"店舗兼住宅"}},{"type":"Feature","geometry":{"type":"Point","coordinates":[137.71889,34.69923]},"properties":{"price":107000,"use":"浜松中央","zone":"","station":"店舗兼事務所"}},{"type":"Feature","geometry":{"type":"Point","coordinates":[137.71149,34.76134]},"properties":{"price":69900,"use":"浜松中央","zone":"","station":"店舗"}},{"type":"Feature","geometry":{"type":"Point","coordinates":[137.72932,34.70966]},"properties":{"price":161000,"use":"浜松中央","zone":"","station":"店舗兼住宅"}},{"type":"Feature","geometry":{"type":"Point","coordinates":[137.73119,34.71387]},"properties":{"price":136000,"use":"浜松中央","zone":"","station":"店舗、事務所兼共同住宅"}},{"type":"Feature","geometry":{"type":"Point","coordinates":[137.7455,34.71189]},"properties":{"price":97800,"use":"浜松中央","zone":"","station":"店舗兼住宅"}},{"type":"Feature","geometry":{"type":"Point","coordinates":[137.73582,34.7161]},"properties":{"price":111000,"use":"浜松中央","zone":"","station":"店舗兼住宅"}},{"type":"Feature","geometry":{"type":"Point","coordinates":[137.73571,34.70241]},"properties":{"price":246000,"use":"浜松中央","zone":"","station":"事務所"}},{"type":"Feature","geometry":{"type":"Point","coordinates":[137.73779,34.69873]},"properties":{"price":93900,"use":"浜松中央","zone":"","station":"店舗兼住宅"}},{"type":"Feature","geometry":{"type":"Point","coordinates":[137.74598,34.70818]},"properties":{"price":94100,"use":"浜松中央","zone":"","station":"店舗兼住宅"}},{"type":"Feature","geometry":{"type":"Point","coordinates":[137.72564,34.73455]},"properties":{"price":107000,"use":"浜松中央","zone":"","station":"店舗兼事務所"}},{"type":"Feature","geometry":{"type":"Point","coordinates":[137.71981,34.72733]},"properties":{"price":98000,"use":"浜松中央","zone":"","station":"店舗兼住宅"}},{"type":"Feature","geometry":{"type":"Point","coordinates":[137.73534,34.70294]},"properties":{"price":432000,"use":"浜松中央","zone":"","station":"店舗兼事務所"}},{"type":"Feature","geometry":{"type":"Point","coordinates":[137.73224,34.70912]},"properties":{"price":159000,"use":"浜松中央","zone":"","station":"店舗、事務所兼共同住宅"}},{"type":"Feature","geometry":{"type":"Point","coordinates":[137.72537,34.70511]},"properties":{"price":132000,"use":"浜松中央","zone":"","station":"事務所"}},{"type":"Feature","geometry":{"type":"Point","coordinates":[137.72701,34.70716]},"properties":{"price":132000,"use":"浜松中央","zone":"","station":"事務所"}},{"type":"Feature","geometry":{"type":"Point","coordinates":[137.72386,34.73988]},"properties":{"price":102000,"use":"浜松中央","zone":"","station":"店舗兼住宅"}},{"type":"Feature","geometry":{"type":"Point","coordinates":[137.69816,34.76252]},"properties":{"price":91000,"use":"浜松中央","zone":"","station":"店舗"}},{"type":"Feature","geometry":{"type":"Point","coordinates":[137.75015,34.71219]},"properties":{"price":109000,"use":"浜松中央","zone":"","station":"店舗兼共同住宅"}},{"type":"Feature","geometry":{"type":"Point","coordinates":[137.72601,34.71606]},"properties":{"price":111000,"use":"浜松中央","zone":"","station":"店舗兼住宅"}},{"type":"Feature","geometry":{"type":"Point","coordinates":[137.73083,34.71572]},"properties":{"price":108000,"use":"浜松中央","zone":"","station":"事務所兼住宅"}},{"type":"Feature","geometry":{"type":"Point","coordinates":[137.7522,34.70449]},"properties":{"price":83200,"use":"浜松中央","zone":"","station":"店舗兼住宅"}},{"type":"Feature","geometry":{"type":"Point","coordinates":[137.78941,34.73799]},"properties":{"price":79300,"use":"浜松中央","zone":"","station":"店舗"}},{"type":"Feature","geometry":{"type":"Point","coordinates":[137.75506,34.76314]},"properties":{"price":85800,"use":"浜松中央","zone":"","station":"店舗兼工場"}},{"type":"Feature","geometry":{"type":"Point","coordinates":[137.69896,34.69998]},"properties":{"price":114000,"use":"浜松中央","zone":"","station":"店舗兼事務所"}},{"type":"Feature","geometry":{"type":"Point","coordinates":[137.6145,34.76429]},"properties":{"price":46400,"use":"浜松中央","zone":"","station":"店舗兼住宅"}},{"type":"Feature","geometry":{"type":"Point","coordinates":[137.65145,34.69808]},"properties":{"price":109000,"use":"浜松中央","zone":"","station":"店舗兼作業所"}},{"type":"Feature","geometry":{"type":"Point","coordinates":[137.73793,34.68939]},"properties":{"price":70600,"use":"浜松中央","zone":"","station":"事務所"}},{"type":"Feature","geometry":{"type":"Point","coordinates":[137.71629,34.69207]},"properties":{"price":89300,"use":"浜松中央","zone":"","station":"店舗"}},{"type":"Feature","geometry":{"type":"Point","coordinates":[137.75693,34.69704]},"properties":{"price":73600,"use":"浜松中央","zone":"","station":"店舗"}},{"type":"Feature","geometry":{"type":"Point","coordinates":[137.70484,34.75592]},"properties":{"price":63900,"use":"浜松中央","zone":"","station":"工場"}},{"type":"Feature","geometry":{"type":"Point","coordinates":[137.72103,34.69332]},"properties":{"price":48100,"use":"浜松中央","zone":"","station":"倉庫"}},{"type":"Feature","geometry":{"type":"Point","coordinates":[137.69196,34.76168]},"properties":{"price":57900,"use":"浜松中央","zone":"","station":"事務所兼倉庫"}},{"type":"Feature","geometry":{"type":"Point","coordinates":[137.79225,34.74413]},"properties":{"price":50200,"use":"浜松中央","zone":"","station":"倉庫"}},{"type":"Feature","geometry":{"type":"Point","coordinates":[137.77201,34.71483]},"properties":{"price":59200,"use":"浜松中央","zone":"","station":"工場"}},{"type":"Feature","geometry":{"type":"Point","coordinates":[137.65181,34.71145]},"properties":{"price":32700,"use":"浜松中央","zone":"","station":"工場兼事務所"}},{"type":"Feature","geometry":{"type":"Point","coordinates":[137.6742,34.69143]},"properties":{"price":36700,"use":"浜松中央","zone":"","station":"工場兼事務所"}},{"type":"Feature","geometry":{"type":"Point","coordinates":[137.66059,34.81402]},"properties":{"price":35500,"use":"浜松浜名","zone":"","station":"住宅"}},{"type":"Feature","geometry":{"type":"Point","coordinates":[137.68119,34.81824]},"properties":{"price":43700,"use":"浜松浜名","zone":"","station":"住宅"}},{"type":"Feature","geometry":{"type":"Point","coordinates":[137.65462,34.81155]},"properties":{"price":32400,"use":"浜松浜名","zone":"","station":"住宅"}},{"type":"Feature","geometry":{"type":"Point","coordinates":[137.67323,34.83062]},"properties":{"price":40300,"use":"浜松浜名","zone":"","station":"住宅"}},{"type":"Feature","geometry":{"type":"Point","coordinates":[137.55534,34.80384]},"properties":{"price":37100,"use":"浜松浜名","zone":"","station":"住宅"}},{"type":"Feature","geometry":{"type":"Point","coordinates":[137.73379,34.81548]},"properties":{"price":66900,"use":"浜松浜名","zone":"","station":"住宅"}},{"type":"Feature","geometry":{"type":"Point","coordinates":[137.5766,34.79333]},"properties":{"price":25800,"use":"浜松浜名","zone":"","station":"住宅"}},{"type":"Feature","geometry":{"type":"Point","coordinates":[137.66278,34.80816]},"properties":{"price":34200,"use":"浜松浜名","zone":"","station":"住宅"}},{"type":"Feature","geometry":{"type":"Point","coordinates":[137.72444,34.80632]},"properties":{"price":47100,"use":"浜松浜名","zone":"","station":"住宅"}},{"type":"Feature","geometry":{"type":"Point","coordinates":[137.68112,34.79385]},"properties":{"price":40600,"use":"浜松浜名","zone":"","station":"住宅"}},{"type":"Feature","geometry":{"type":"Point","coordinates":[137.65743,34.83612]},"properties":{"price":20900,"use":"浜松浜名","zone":"","station":"住宅"}},{"type":"Feature","geometry":{"type":"Point","coordinates":[137.7847,34.78519]},"properties":{"price":69500,"use":"浜松浜名","zone":"","station":"住宅"}},{"type":"Feature","geometry":{"type":"Point","coordinates":[137.77884,34.78945]},"properties":{"price":80400,"use":"浜松浜名","zone":"","station":"住宅"}},{"type":"Feature","geometry":{"type":"Point","coordinates":[137.81172,34.84442]},"properties":{"price":58700,"use":"浜松浜名","zone":"","station":"住宅"}},{"type":"Feature","geometry":{"type":"Point","coordinates":[137.7864,34.78975]},"properties":{"price":75500,"use":"浜松浜名","zone":"","station":"住宅"}},{"type":"Feature","geometry":{"type":"Point","coordinates":[137.7462,34.78905]},"properties":{"price":72400,"use":"浜松浜名","zone":"","station":"住宅"}},{"type":"Feature","geometry":{"type":"Point","coordinates":[137.79646,34.83453]},"properties":{"price":46500,"use":"浜松浜名","zone":"","station":"住宅"}},{"type":"Feature","geometry":{"type":"Point","coordinates":[137.80645,34.80167]},"properties":{"price":46600,"use":"浜松浜名","zone":"","station":"住宅"}},{"type":"Feature","geometry":{"type":"Point","coordinates":[137.76973,34.80555]},"properties":{"price":41700,"use":"浜松浜名","zone":"","station":"住宅"}},{"type":"Feature","geometry":{"type":"Point","coordinates":[137.80535,34.82048]},"properties":{"price":68900,"use":"浜松浜名","zone":"","station":"住宅"}},{"type":"Feature","geometry":{"type":"Point","coordinates":[137.7998,34.80971]},"properties":{"price":84000,"use":"浜松浜名","zone":"","station":"店舗"}},{"type":"Feature","geometry":{"type":"Point","coordinates":[137.78398,34.7929]},"properties":{"price":91100,"use":"浜松浜名","zone":"","station":"店舗兼住宅"}},{"type":"Feature","geometry":{"type":"Point","coordinates":[137.81436,34.84299]},"properties":{"price":57000,"use":"浜松浜名","zone":"","station":"店舗"}},{"type":"Feature","geometry":{"type":"Point","coordinates":[137.74331,34.81166]},"properties":{"price":34500,"use":"浜松浜名","zone":"","station":"工場"}},{"type":"Feature","geometry":{"type":"Point","coordinates":[137.81684,34.83941]},"properties":{"price":29100,"use":"浜松浜名","zone":"","station":"工場"}},{"type":"Feature","geometry":{"type":"Point","coordinates":[137.81023,34.85945]},"properties":{"price":39600,"use":"浜松天竜","zone":"","station":"住宅"}},{"type":"Feature","geometry":{"type":"Point","coordinates":[137.81951,34.87079]},"properties":{"price":35500,"use":"浜松天竜","zone":"","station":"住宅"}},{"type":"Feature","geometry":{"type":"Point","coordinates":[137.82062,34.8825]},"properties":{"price":20900,"use":"浜松天竜","zone":"","station":"住宅"}},{"type":"Feature","geometry":{"type":"Point","coordinates":[137.81099,34.86047]},"properties":{"price":41000,"use":"浜松天竜","zone":"","station":"店舗兼住宅"}},{"type":"Feature","geometry":{"type":"Point","coordinates":[138.85582,35.12239]},"properties":{"price":97600,"use":"沼津","zone":"","station":"住宅兼事務所"}},{"type":"Feature","geometry":{"type":"Point","coordinates":[138.86888,35.11035]},"properties":{"price":137000,"use":"沼津","zone":"","station":"住宅"}},{"type":"Feature","geometry":{"type":"Point","coordinates":[138.85559,35.11363]},"properties":{"price":121000,"use":"沼津","zone":"","station":"住宅"}},{"type":"Feature","geometry":{"type":"Point","coordinates":[138.88455,35.12725]},"properties":{"price":94800,"use":"沼津","zone":"","station":"住宅"}},{"type":"Feature","geometry":{"type":"Point","coordinates":[138.86826,35.09491]},"properties":{"price":107000,"use":"沼津","zone":"","station":"住宅"}},{"type":"Feature","geometry":{"type":"Point","coordinates":[138.79764,35.1277]},"properties":{"price":74200,"use":"沼津","zone":"","station":"住宅"}},{"type":"Feature","geometry":{"type":"Point","coordinates":[138.87589,35.10669]},"properties":{"price":115000,"use":"沼津","zone":"","station":"住宅"}},{"type":"Feature","geometry":{"type":"Point","coordinates":[138.85316,35.08974]},"properties":{"price":65600,"use":"沼津","zone":"","station":"住宅"}},{"type":"Feature","geometry":{"type":"Point","coordinates":[138.8698,35.07939]},"properties":{"price":65200,"use":"沼津","zone":"","station":"住宅"}},{"type":"Feature","geometry":{"type":"Point","coordinates":[138.88352,35.10794]},"properties":{"price":95500,"use":"沼津","zone":"","station":"建築中"}},{"type":"Feature","geometry":{"type":"Point","coordinates":[138.7835,35.12756]},"properties":{"price":52700,"use":"沼津","zone":"","station":"住宅"}},{"type":"Feature","geometry":{"type":"Point","coordinates":[138.87868,35.07394]},"properties":{"price":57200,"use":"沼津","zone":"","station":"住宅"}},{"type":"Feature","geometry":{"type":"Point","coordinates":[138.81986,35.12285]},"properties":{"price":71800,"use":"沼津","zone":"","station":"住宅"}},{"type":"Feature","geometry":{"type":"Point","coordinates":[138.86834,35.13732]},"properties":{"price":94800,"use":"沼津","zone":"","station":"住宅"}},{"type":"Feature","geometry":{"type":"Point","coordinates":[138.82828,35.11197]},"properties":{"price":73600,"use":"沼津","zone":"","station":"住宅"}},{"type":"Feature","geometry":{"type":"Point","coordinates":[138.83158,35.12651]},"properties":{"price":77100,"use":"沼津","zone":"","station":"住宅"}},{"type":"Feature","geometry":{"type":"Point","coordinates":[138.86027,35.11168]},"properties":{"price":132000,"use":"沼津","zone":"","station":"住宅"}},{"type":"Feature","geometry":{"type":"Point","coordinates":[138.84016,35.12194]},"properties":{"price":82000,"use":"沼津","zone":"","station":"住宅"}},{"type":"Feature","geometry":{"type":"Point","coordinates":[138.82142,35.13101]},"properties":{"price":65300,"use":"沼津","zone":"","station":"住宅"}},{"type":"Feature","geometry":{"type":"Point","coordinates":[138.86974,35.13089]},"properties":{"price":107000,"use":"沼津","zone":"","station":"住宅"}},{"type":"Feature","geometry":{"type":"Point","coordinates":[138.87351,35.08487]},"properties":{"price":72900,"use":"沼津","zone":"","station":"住宅"}},{"type":"Feature","geometry":{"type":"Point","coordinates":[138.81839,35.1454]},"properties":{"price":33800,"use":"沼津","zone":"","station":"住宅"}},{"type":"Feature","geometry":{"type":"Point","coordinates":[138.87299,35.11944]},"properties":{"price":104000,"use":"沼津","zone":"","station":"住宅"}},{"type":"Feature","geometry":{"type":"Point","coordinates":[138.85116,35.11895]},"properties":{"price":105000,"use":"沼津","zone":"","station":"住宅"}},{"type":"Feature","geometry":{"type":"Point","coordinates":[138.87632,35.11392]},"properties":{"price":107000,"use":"沼津","zone":"","station":"住宅"}},{"type":"Feature","geometry":{"type":"Point","coordinates":[138.90099,35.04387]},"properties":{"price":25600,"use":"沼津","zone":"","station":"住宅"}},{"type":"Feature","geometry":{"type":"Point","coordinates":[138.80554,35.13706]},"properties":{"price":55500,"use":"沼津","zone":"","station":"住宅"}},{"type":"Feature","geometry":{"type":"Point","coordinates":[138.83996,35.10764]},"properties":{"price":76900,"use":"沼津","zone":"","station":"住宅"}},{"type":"Feature","geometry":{"type":"Point","coordinates":[138.84268,35.12717]},"properties":{"price":70000,"use":"沼津","zone":"","station":"住宅"}},{"type":"Feature","geometry":{"type":"Point","coordinates":[138.86351,35.08926]},"properties":{"price":79900,"use":"沼津","zone":"","station":"住宅"}},{"type":"Feature","geometry":{"type":"Point","coordinates":[138.85898,35.10141]},"properties":{"price":276000,"use":"沼津","zone":"","station":"店舗兼住宅"}},{"type":"Feature","geometry":{"type":"Point","coordinates":[138.85864,35.09765]},"properties":{"price":193000,"use":"沼津","zone":"","station":"店舗兼事務所"}},{"type":"Feature","geometry":{"type":"Point","coordinates":[138.864,35.12108]},"properties":{"price":109000,"use":"沼津","zone":"","station":"店舗兼事務所"}},{"type":"Feature","geometry":{"type":"Point","coordinates":[138.85725,35.09349]},"properties":{"price":119000,"use":"沼津","zone":"","station":"店舗兼住宅"}},{"type":"Feature","geometry":{"type":"Point","coordinates":[138.85852,35.10519]},"properties":{"price":210000,"use":"沼津","zone":"","station":"店舗兼事務所"}},{"type":"Feature","geometry":{"type":"Point","coordinates":[138.8555,35.09998]},"properties":{"price":141000,"use":"沼津","zone":"","station":"店舗兼住宅"}},{"type":"Feature","geometry":{"type":"Point","coordinates":[138.86103,35.10653]},"properties":{"price":154000,"use":"沼津","zone":"","station":"店舗兼住宅"}},{"type":"Feature","geometry":{"type":"Point","coordinates":[138.86104,35.09484]},"properties":{"price":114000,"use":"沼津","zone":"","station":"店舗兼住宅"}},{"type":"Feature","geometry":{"type":"Point","coordinates":[138.80157,35.13084]},"properties":{"price":77000,"use":"沼津","zone":"","station":"店舗"}},{"type":"Feature","geometry":{"type":"Point","coordinates":[138.85635,35.09564]},"properties":{"price":135000,"use":"沼津","zone":"","station":"店舗兼住宅"}},{"type":"Feature","geometry":{"type":"Point","coordinates":[138.86124,35.10012]},"properties":{"price":163000,"use":"沼津","zone":"","station":"事務所"}},{"type":"Feature","geometry":{"type":"Point","coordinates":[138.86878,35.10817]},"properties":{"price":129000,"use":"沼津","zone":"","station":"店舗兼住宅"}},{"type":"Feature","geometry":{"type":"Point","coordinates":[138.86086,35.15633]},"properties":{"price":42700,"use":"沼津","zone":"","station":"工場"}},{"type":"Feature","geometry":{"type":"Point","coordinates":[138.8305,35.11734]},"properties":{"price":51300,"use":"沼津","zone":"","station":"工場"}},{"type":"Feature","geometry":{"type":"Point","coordinates":[139.08028,35.10401]},"properties":{"price":104000,"use":"熱海","zone":"","station":"住宅"}},{"type":"Feature","geometry":{"type":"Point","coordinates":[139.06656,35.08844]},"properties":{"price":60100,"use":"熱海","zone":"","station":"住宅"}},{"type":"Feature","geometry":{"type":"Point","coordinates":[139.05742,35.10515]},"properties":{"price":26600,"use":"熱海","zone":"","station":"別荘"}},{"type":"Feature","geometry":{"type":"Point","coordinates":[139.07437,35.09612]},"properties":{"price":206000,"use":"熱海","zone":"","station":"店舗兼住宅"}},{"type":"Feature","geometry":{"type":"Point","coordinates":[139.07174,35.09098]},"properties":{"price":105000,"use":"熱海","zone":"","station":"店舗兼共同住宅"}},{"type":"Feature","geometry":{"type":"Point","coordinates":[138.92842,35.09334]},"properties":{"price":91300,"use":"三島","zone":"","station":"住宅"}},{"type":"Feature","geometry":{"type":"Point","coordinates":[138.93179,35.13718]},"properties":{"price":103000,"use":"三島","zone":"","station":"住宅"}},{"type":"Feature","geometry":{"type":"Point","coordinates":[138.91418,35.15371]},"properties":{"price":73800,"use":"三島","zone":"","station":"住宅"}},{"type":"Feature","geometry":{"type":"Point","coordinates":[138.93356,35.10878]},"properties":{"price":92600,"use":"三島","zone":"","station":"住宅"}},{"type":"Feature","geometry":{"type":"Point","coordinates":[138.91997,35.12476]},"properties":{"price":169000,"use":"三島","zone":"","station":"住宅"}},{"type":"Feature","geometry":{"type":"Point","coordinates":[138.93033,35.11515]},"properties":{"price":99800,"use":"三島","zone":"","station":"住宅"}},{"type":"Feature","geometry":{"type":"Point","coordinates":[138.90793,35.11551]},"properties":{"price":150000,"use":"三島","zone":"","station":"住宅"}},{"type":"Feature","geometry":{"type":"Point","coordinates":[138.9381,35.09435]},"properties":{"price":97000,"use":"三島","zone":"","station":"住宅"}},{"type":"Feature","geometry":{"type":"Point","coordinates":[138.91584,35.13953]},"properties":{"price":115000,"use":"三島","zone":"","station":"住宅"}},{"type":"Feature","geometry":{"type":"Point","coordinates":[138.92264,35.09716]},"properties":{"price":77500,"use":"三島","zone":"","station":"住宅"}},{"type":"Feature","geometry":{"type":"Point","coordinates":[138.95981,35.12149]},"properties":{"price":27200,"use":"三島","zone":"","station":"住宅"}},{"type":"Feature","geometry":{"type":"Point","coordinates":[138.92215,35.14099]},"properties":{"price":85600,"use":"三島","zone":"","station":"住宅"}},{"type":"Feature","geometry":{"type":"Point","coordinates":[138.93427,35.12536]},"properties":{"price":82800,"use":"三島","zone":"","station":"住宅"}},{"type":"Feature","geometry":{"type":"Point","coordinates":[138.92015,35.13277]},"properties":{"price":117000,"use":"三島","zone":"","station":"住宅"}},{"type":"Feature","geometry":{"type":"Point","coordinates":[138.91217,35.12533]},"properties":{"price":332000,"use":"三島","zone":"","station":"店舗兼事務所"}},{"type":"Feature","geometry":{"type":"Point","coordinates":[138.91049,35.12833]},"properties":{"price":265000,"use":"三島","zone":"","station":"店舗、事務所兼共同住宅"}},{"type":"Feature","geometry":{"type":"Point","coordinates":[138.9205,35.10804]},"properties":{"price":107000,"use":"三島","zone":"","station":"店舗"}},{"type":"Feature","geometry":{"type":"Point","coordinates":[138.91462,35.12131]},"properties":{"price":181000,"use":"三島","zone":"","station":"店舗兼住宅"}},{"type":"Feature","geometry":{"type":"Point","coordinates":[138.90904,35.119]},"properties":{"price":163000,"use":"三島","zone":"","station":"店舗兼住宅"}},{"type":"Feature","geometry":{"type":"Point","coordinates":[138.90958,35.14642]},"properties":{"price":124000,"use":"三島","zone":"","station":"店舗"}},{"type":"Feature","geometry":{"type":"Point","coordinates":[138.91824,35.08296]},"properties":{"price":46700,"use":"三島","zone":"","station":"工場"}},{"type":"Feature","geometry":{"type":"Point","coordinates":[138.614,35.25146]},"properties":{"price":38800,"use":"富士宮","zone":"","station":"住宅"}},{"type":"Feature","geometry":{"type":"Point","coordinates":[138.62428,35.19216]},"properties":{"price":23700,"use":"富士宮","zone":"","station":"住宅"}},{"type":"Feature","geometry":{"type":"Point","coordinates":[138.63677,35.25287]},"properties":{"price":37200,"use":"富士宮","zone":"","station":"住宅"}},{"type":"Feature","geometry":{"type":"Point","coordinates":[138.61478,35.23387]},"properties":{"price":56300,"use":"富士宮","zone":"","station":"住宅"}},{"type":"Feature","geometry":{"type":"Point","coordinates":[138.61697,35.22816]},"properties":{"price":61100,"use":"富士宮","zone":"","station":"住宅"}},{"type":"Feature","geometry":{"type":"Point","coordinates":[138.6094,35.23213]},"properties":{"price":57500,"use":"富士宮","zone":"","station":"住宅"}},{"type":"Feature","geometry":{"type":"Point","coordinates":[138.60879,35.21981]},"properties":{"price":59000,"use":"富士宮","zone":"","station":"住宅"}},{"type":"Feature","geometry":{"type":"Point","coordinates":[138.62962,35.21958]},"properties":{"price":59900,"use":"富士宮","zone":"","station":"住宅"}},{"type":"Feature","geometry":{"type":"Point","coordinates":[138.56391,35.21956]},"properties":{"price":11400,"use":"富士宮","zone":"","station":"住宅"}},{"type":"Feature","geometry":{"type":"Point","coordinates":[138.6098,35.21035]},"properties":{"price":40100,"use":"富士宮","zone":"","station":"住宅"}},{"type":"Feature","geometry":{"type":"Point","coordinates":[138.63682,35.22133]},"properties":{"price":48200,"use":"富士宮","zone":"","station":"住宅"}},{"type":"Feature","geometry":{"type":"Point","coordinates":[138.63313,35.19975]},"properties":{"price":35700,"use":"富士宮","zone":"","station":"住宅"}},{"type":"Feature","geometry":{"type":"Point","coordinates":[138.60399,35.2302]},"properties":{"price":55800,"use":"富士宮","zone":"","station":"住宅"}},{"type":"Feature","geometry":{"type":"Point","coordinates":[138.627,35.2347]},"properties":{"price":40600,"use":"富士宮","zone":"","station":"住宅"}},{"type":"Feature","geometry":{"type":"Point","coordinates":[138.56631,35.24541]},"properties":{"price":16700,"use":"富士宮","zone":"","station":"住宅"}},{"type":"Feature","geometry":{"type":"Point","coordinates":[138.62532,35.24543]},"properties":{"price":46500,"use":"富士宮","zone":"","station":"住宅"}},{"type":"Feature","geometry":{"type":"Point","coordinates":[138.60004,35.23816]},"properties":{"price":46000,"use":"富士宮","zone":"","station":"住宅"}},{"type":"Feature","geometry":{"type":"Point","coordinates":[138.63128,35.22625]},"properties":{"price":42400,"use":"富士宮","zone":"","station":"住宅"}},{"type":"Feature","geometry":{"type":"Point","coordinates":[138.59144,35.21341]},"properties":{"price":32100,"use":"富士宮","zone":"","station":"住宅"}},{"type":"Feature","geometry":{"type":"Point","coordinates":[138.62072,35.20834]},"properties":{"price":42300,"use":"富士宮","zone":"","station":"住宅"}},{"type":"Feature","geometry":{"type":"Point","coordinates":[138.57496,35.3642]},"properties":{"price":4800,"use":"富士宮","zone":"","station":"住宅"}},{"type":"Feature","geometry":{"type":"Point","coordinates":[138.58746,35.31766]},"properties":{"price":11900,"use":"富士宮","zone":"","station":"住宅"}},{"type":"Feature","geometry":{"type":"Point","coordinates":[138.66107,35.21659]},"properties":{"price":22800,"use":"富士宮","zone":"","station":"住宅"}},{"type":"Feature","geometry":{"type":"Point","coordinates":[138.60498,35.27305]},"properties":{"price":19500,"use":"富士宮","zone":"","station":"住宅"}},{"type":"Feature","geometry":{"type":"Point","coordinates":[138.64698,35.25547]},"properties":{"price":19200,"use":"富士宮","zone":"","station":"住宅"}},{"type":"Feature","geometry":{"type":"Point","coordinates":[138.62071,35.2182]},"properties":{"price":56900,"use":"富士宮","zone":"","station":"住宅"}},{"type":"Feature","geometry":{"type":"Point","coordinates":[138.59676,35.21906]},"properties":{"price":36000,"use":"富士宮","zone":"","station":"住宅"}},{"type":"Feature","geometry":{"type":"Point","coordinates":[138.63339,35.24721]},"properties":{"price":35000,"use":"富士宮","zone":"","station":"住宅"}},{"type":"Feature","geometry":{"type":"Point","coordinates":[138.61641,35.22246]},"properties":{"price":65500,"use":"富士宮","zone":"","station":"店舗兼事務所"}},{"type":"Feature","geometry":{"type":"Point","coordinates":[138.61454,35.22282]},"properties":{"price":86800,"use":"富士宮","zone":"","station":"店舗兼住宅"}},{"type":"Feature","geometry":{"type":"Point","coordinates":[138.62052,35.22364]},"properties":{"price":70400,"use":"富士宮","zone":"","station":"事務所"}},{"type":"Feature","geometry":{"type":"Point","coordinates":[138.60359,35.22569]},"properties":{"price":58400,"use":"富士宮","zone":"","station":"店舗兼住宅"}},{"type":"Feature","geometry":{"type":"Point","coordinates":[138.60975,35.22458]},"properties":{"price":70200,"use":"富士宮","zone":"","station":"事務所兼住宅"}},{"type":"Feature","geometry":{"type":"Point","coordinates":[138.61574,35.24588]},"properties":{"price":29900,"use":"富士宮","zone":"","station":"工場"}},{"type":"Feature","geometry":{"type":"Point","coordinates":[138.61446,35.26431]},"properties":{"price":21200,"use":"富士宮","zone":"","station":"工場"}},{"type":"Feature","geometry":{"type":"Point","coordinates":[139.07791,35.00436]},"properties":{"price":59500,"use":"伊東","zone":"","station":"住宅"}},{"type":"Feature","geometry":{"type":"Point","coordinates":[139.09027,34.97274]},"properties":{"price":65200,"use":"伊東","zone":"","station":"住宅"}},{"type":"Feature","geometry":{"type":"Point","coordinates":[139.08208,34.95631]},"properties":{"price":29600,"use":"伊東","zone":"","station":"住宅"}},{"type":"Feature","geometry":{"type":"Point","coordinates":[139.11854,34.93591]},"properties":{"price":47700,"use":"伊東","zone":"","station":"住宅"}},{"type":"Feature","geometry":{"type":"Point","coordinates":[139.10522,34.9648]},"properties":{"price":59500,"use":"伊東","zone":"","station":"住宅"}},{"type":"Feature","geometry":{"type":"Point","coordinates":[139.09606,34.97136]},"properties":{"price":89100,"use":"伊東","zone":"","station":"店舗兼住宅"}},{"type":"Feature","geometry":{"type":"Point","coordinates":[139.09158,34.9674]},"properties":{"price":69300,"use":"伊東","zone":"","station":"店舗兼共同住宅"}},{"type":"Feature","geometry":{"type":"Point","coordinates":[139.10342,34.97016]},"properties":{"price":77600,"use":"伊東","zone":"","station":"店舗兼住宅"}},{"type":"Feature","geometry":{"type":"Point","coordinates":[138.17441,34.83723]},"properties":{"price":76000,"use":"島田","zone":"","station":"住宅"}},{"type":"Feature","geometry":{"type":"Point","coordinates":[138.19571,34.8323]},"properties":{"price":61500,"use":"島田","zone":"","station":"住宅"}},{"type":"Feature","geometry":{"type":"Point","coordinates":[138.1218,34.83122]},"properties":{"price":33400,"use":"島田","zone":"","station":"住宅"}},{"type":"Feature","geometry":{"type":"Point","coordinates":[138.1718,34.84338]},"properties":{"price":54500,"use":"島田","zone":"","station":"住宅"}},{"type":"Feature","geometry":{"type":"Point","coordinates":[138.15182,34.84018]},"properties":{"price":51800,"use":"島田","zone":"","station":"住宅"}},{"type":"Feature","geometry":{"type":"Point","coordinates":[138.13544,34.82556]},"properties":{"price":40600,"use":"島田","zone":"","station":"住宅"}},{"type":"Feature","geometry":{"type":"Point","coordinates":[138.12389,34.8427]},"properties":{"price":33200,"use":"島田","zone":"","station":"住宅"}},{"type":"Feature","geometry":{"type":"Point","coordinates":[138.1747,34.83196]},"properties":{"price":104000,"use":"島田","zone":"","station":"店舗"}},{"type":"Feature","geometry":{"type":"Point","coordinates":[138.17392,34.83414]},"properties":{"price":75500,"use":"島田","zone":"","station":"店舗兼住宅"}},{"type":"Feature","geometry":{"type":"Point","coordinates":[138.17374,34.8385]},"properties":{"price":65600,"use":"島田","zone":"","station":"事務所"}},{"type":"Feature","geometry":{"type":"Point","coordinates":[138.13034,34.82408]},"properties":{"price":45200,"use":"島田","zone":"","station":"店舗兼住宅"}},{"type":"Feature","geometry":{"type":"Point","coordinates":[138.68055,35.15815]},"properties":{"price":92000,"use":"富士","zone":"","station":"住宅"}},{"type":"Feature","geometry":{"type":"Point","coordinates":[138.66386,35.1716]},"properties":{"price":62100,"use":"富士","zone":"","station":"住宅"}},{"type":"Feature","geometry":{"type":"Point","coordinates":[138.69419,35.18597]},"properties":{"price":53000,"use":"富士","zone":"","station":"住宅"}},{"type":"Feature","geometry":{"type":"Point","coordinates":[138.64513,35.20704]},"properties":{"price":51400,"use":"富士","zone":"","station":"住宅"}},{"type":"Feature","geometry":{"type":"Point","coordinates":[138.68429,35.17099]},"properties":{"price":71400,"use":"富士","zone":"","station":"住宅"}},{"type":"Feature","geometry":{"type":"Point","coordinates":[138.70762,35.18867]},"properties":{"price":36800,"use":"富士","zone":"","station":"住宅"}},{"type":"Feature","geometry":{"type":"Point","coordinates":[138.68813,35.1849]},"properties":{"price":59100,"use":"富士","zone":"","station":"住宅"}},{"type":"Feature","geometry":{"type":"Point","coordinates":[138.6874,35.18151]},"properties":{"price":62000,"use":"富士","zone":"","station":"住宅"}},{"type":"Feature","geometry":{"type":"Point","coordinates":[138.68228,35.22634]},"properties":{"price":25100,"use":"富士","zone":"","station":"住宅"}},{"type":"Feature","geometry":{"type":"Point","coordinates":[138.71993,35.16543]},"properties":{"price":54700,"use":"富士","zone":"","station":"住宅"}},{"type":"Feature","geometry":{"type":"Point","coordinates":[138.73167,35.16353]},"properties":{"price":58400,"use":"富士","zone":"","station":"住宅"}},{"type":"Feature","geometry":{"type":"Point","coordinates":[138.75799,35.1542]},"properties":{"price":31900,"use":"富士","zone":"","station":"住宅"}},{"type":"Feature","geometry":{"type":"Point","coordinates":[138.74564,35.13744]},"properties":{"price":35000,"use":"富士","zone":"","station":"住宅"}},{"type":"Feature","geometry":{"type":"Point","coordinates":[138.65003,35.1377]},"properties":{"price":61800,"use":"富士","zone":"","station":"住宅"}},{"type":"Feature","geometry":{"type":"Point","coordinates":[138.66792,35.13726]},"properties":{"price":71000,"use":"富士","zone":"","station":"住宅"}},{"type":"Feature","geometry":{"type":"Point","coordinates":[138.68812,35.17417]},"properties":{"price":64700,"use":"富士","zone":"","station":"住宅"}},{"type":"Feature","geometry":{"type":"Point","coordinates":[138.63153,35.15499]},"properties":{"price":67900,"use":"富士","zone":"","station":"住宅"}},{"type":"Feature","geometry":{"type":"Point","coordinates":[138.6692,35.19175]},"properties":{"price":57800,"use":"富士","zone":"","station":"住宅"}},{"type":"Feature","geometry":{"type":"Point","coordinates":[138.63412,35.17291]},"properties":{"price":64800,"use":"富士","zone":"","station":"住宅"}},{"type":"Feature","geometry":{"type":"Point","coordinates":[138.69699,35.16872]},"properties":{"price":68200,"use":"富士","zone":"","station":"住宅"}},{"type":"Feature","geometry":{"type":"Point","coordinates":[138.65464,35.14662]},"properties":{"price":96400,"use":"富士","zone":"","station":"住宅"}},{"type":"Feature","geometry":{"type":"Point","coordinates":[138.67166,35.17729]},"properties":{"price":69500,"use":"富士","zone":"","station":"住宅"}},{"type":"Feature","geometry":{"type":"Point","coordinates":[138.70355,35.14049]},"properties":{"price":34900,"use":"富士","zone":"","station":"住宅"}},{"type":"Feature","geometry":{"type":"Point","coordinates":[138.64456,35.15115]},"properties":{"price":83400,"use":"富士","zone":"","station":"住宅"}},{"type":"Feature","geometry":{"type":"Point","coordinates":[138.64166,35.16478]},"properties":{"price":71800,"use":"富士","zone":"","station":"住宅"}},{"type":"Feature","geometry":{"type":"Point","coordinates":[138.63739,35.14175]},"properties":{"price":58300,"use":"富士","zone":"","station":"住宅"}},{"type":"Feature","geometry":{"type":"Point","coordinates":[138.64487,35.19635]},"properties":{"price":55500,"use":"富士","zone":"","station":"住宅"}},{"type":"Feature","geometry":{"type":"Point","coordinates":[138.6615,35.19055]},"properties":{"price":64800,"use":"富士","zone":"","station":"住宅"}},{"type":"Feature","geometry":{"type":"Point","coordinates":[138.67804,35.16901]},"properties":{"price":88000,"use":"富士","zone":"","station":"住宅"}},{"type":"Feature","geometry":{"type":"Point","coordinates":[138.65155,35.20331]},"properties":{"price":41000,"use":"富士","zone":"","station":"住宅"}},{"type":"Feature","geometry":{"type":"Point","coordinates":[138.7116,35.18233]},"properties":{"price":52900,"use":"富士","zone":"","station":"住宅"}},{"type":"Feature","geometry":{"type":"Point","coordinates":[138.6126,35.13379]},"properties":{"price":41200,"use":"富士","zone":"","station":"住宅"}},{"type":"Feature","geometry":{"type":"Point","coordinates":[138.66028,35.13148]},"properties":{"price":50900,"use":"富士","zone":"","station":"住宅"}},{"type":"Feature","geometry":{"type":"Point","coordinates":[138.59716,35.1884]},"properties":{"price":41400,"use":"富士","zone":"","station":"住宅"}},{"type":"Feature","geometry":{"type":"Point","coordinates":[138.65634,35.15989]},"properties":{"price":96600,"use":"富士","zone":"","station":"住宅"}},{"type":"Feature","geometry":{"type":"Point","coordinates":[138.65843,35.14261]},"properties":{"price":79000,"use":"富士","zone":"","station":"住宅"}},{"type":"Feature","geometry":{"type":"Point","coordinates":[138.68086,35.17874]},"properties":{"price":60500,"use":"富士","zone":"","station":"住宅"}},{"type":"Feature","geometry":{"type":"Point","coordinates":[138.71033,35.17333]},"properties":{"price":46800,"use":"富士","zone":"","station":"住宅"}},{"type":"Feature","geometry":{"type":"Point","coordinates":[138.6588,35.18534]},"properties":{"price":67500,"use":"富士","zone":"","station":"住宅"}},{"type":"Feature","geometry":{"type":"Point","coordinates":[138.68365,35.16278]},"properties":{"price":86900,"use":"富士","zone":"","station":"店舗兼事務所"}},{"type":"Feature","geometry":{"type":"Point","coordinates":[138.68884,35.16094]},"properties":{"price":84500,"use":"富士","zone":"","station":"店舗兼事務所"}},{"type":"Feature","geometry":{"type":"Point","coordinates":[138.65006,35.15026]},"properties":{"price":95100,"use":"富士","zone":"","station":"店舗兼住宅"}},{"type":"Feature","geometry":{"type":"Point","coordinates":[138.65965,35.16012]},"properties":{"price":136000,"use":"富士","zone":"","station":"店舗、事務所兼工場"}},{"type":"Feature","geometry":{"type":"Point","coordinates":[138.66075,35.13705]},"properties":{"price":60800,"use":"富士","zone":"","station":"店舗兼共同住宅"}},{"type":"Feature","geometry":{"type":"Point","coordinates":[138.68308,35.16011]},"properties":{"price":100000,"use":"富士","zone":"","station":"店舗兼作業所"}},{"type":"Feature","geometry":{"type":"Point","coordinates":[138.65096,35.15504]},"properties":{"price":93400,"use":"富士","zone":"","station":"店舗兼住宅"}},{"type":"Feature","geometry":{"type":"Point","coordinates":[138.68536,35.16497]},"properties":{"price":74900,"use":"富士","zone":"","station":"店舗兼共同住宅"}},{"type":"Feature","geometry":{"type":"Point","coordinates":[138.65754,35.18351]},"properties":{"price":63900,"use":"富士","zone":"","station":"店舗"}},{"type":"Feature","geometry":{"type":"Point","coordinates":[138.68512,35.15836]},"properties":{"price":85900,"use":"富士","zone":"","station":"事務所"}},{"type":"Feature","geometry":{"type":"Point","coordinates":[138.61748,35.1401]},"properties":{"price":51500,"use":"富士","zone":"","station":"店舗"}},{"type":"Feature","geometry":{"type":"Point","coordinates":[138.65414,35.14924]},"properties":{"price":99200,"use":"富士","zone":"","station":"店舗"}},{"type":"Feature","geometry":{"type":"Point","coordinates":[138.64655,35.18734]},"properties":{"price":60600,"use":"富士","zone":"","station":"店舗兼住宅"}},{"type":"Feature","geometry":{"type":"Point","coordinates":[138.65496,35.18406]},"properties":{"price":36900,"use":"富士","zone":"","station":"工場"}},{"type":"Feature","geometry":{"type":"Point","coordinates":[138.64888,35.13158]},"properties":{"price":33700,"use":"富士","zone":"","station":"工場"}},{"type":"Feature","geometry":{"type":"Point","coordinates":[138.68599,35.14916]},"properties":{"price":43600,"use":"富士","zone":"","station":"工場"}},{"type":"Feature","geometry":{"type":"Point","coordinates":[138.64116,35.17348]},"properties":{"price":36700,"use":"富士","zone":"","station":"工場"}},{"type":"Feature","geometry":{"type":"Point","coordinates":[138.68971,35.15569]},"properties":{"price":53600,"use":"富士","zone":"","station":"倉庫"}},{"type":"Feature","geometry":{"type":"Point","coordinates":[138.70925,35.16755]},"properties":{"price":38700,"use":"富士","zone":"","station":"倉庫"}},{"type":"Feature","geometry":{"type":"Point","coordinates":[138.6738,35.1991]},"properties":{"price":49500,"use":"富士","zone":"","station":"工場"}},{"type":"Feature","geometry":{"type":"Point","coordinates":[137.84733,34.71967]},"properties":{"price":87000,"use":"磐田","zone":"","station":"住宅"}},{"type":"Feature","geometry":{"type":"Point","coordinates":[137.85612,34.70841]},"properties":{"price":57000,"use":"磐田","zone":"","station":"住宅"}},{"type":"Feature","geometry":{"type":"Point","coordinates":[137.86201,34.73643]},"properties":{"price":63800,"use":"磐田","zone":"","station":"住宅"}},{"type":"Feature","geometry":{"type":"Point","coordinates":[137.84254,34.69554]},"properties":{"price":50900,"use":"磐田","zone":"","station":"住宅"}},{"type":"Feature","geometry":{"type":"Point","coordinates":[137.846,34.73497]},"properties":{"price":53400,"use":"磐田","zone":"","station":"住宅"}},{"type":"Feature","geometry":{"type":"Point","coordinates":[137.86474,34.71986]},"properties":{"price":74300,"use":"磐田","zone":"","station":"住宅"}},{"type":"Feature","geometry":{"type":"Point","coordinates":[137.84812,34.715]},"properties":{"price":65300,"use":"磐田","zone":"","station":"住宅"}},{"type":"Feature","geometry":{"type":"Point","coordinates":[137.86192,34.71533]},"properties":{"price":59700,"use":"磐田","zone":"","station":"住宅"}},{"type":"Feature","geometry":{"type":"Point","coordinates":[137.87301,34.73734]},"properties":{"price":62800,"use":"磐田","zone":"","station":"住宅"}},{"type":"Feature","geometry":{"type":"Point","coordinates":[137.87118,34.7271]},"properties":{"price":71200,"use":"磐田","zone":"","station":"住宅"}},{"type":"Feature","geometry":{"type":"Point","coordinates":[137.88711,34.67684]},"properties":{"price":17600,"use":"磐田","zone":"","station":"住宅"}},{"type":"Feature","geometry":{"type":"Point","coordinates":[137.90115,34.68284]},"properties":{"price":15400,"use":"磐田","zone":"","station":"住宅"}},{"type":"Feature","geometry":{"type":"Point","coordinates":[137.8459,34.81988]},"properties":{"price":31500,"use":"磐田","zone":"","station":"住宅"}},{"type":"Feature","geometry":{"type":"Point","coordinates":[137.81481,34.68363]},"properties":{"price":33700,"use":"磐田","zone":"","station":"住宅"}},{"type":"Feature","geometry":{"type":"Point","coordinates":[137.81283,34.67049]},"properties":{"price":23200,"use":"磐田","zone":"","station":"住宅"}},{"type":"Feature","geometry":{"type":"Point","coordinates":[137.82238,34.70839]},"properties":{"price":70500,"use":"磐田","zone":"","station":"住宅"}},{"type":"Feature","geometry":{"type":"Point","coordinates":[137.8167,34.73184]},"properties":{"price":54200,"use":"磐田","zone":"","station":"住宅"}},{"type":"Feature","geometry":{"type":"Point","coordinates":[137.84534,34.70594]},"properties":{"price":56700,"use":"磐田","zone":"","station":"住宅"}},{"type":"Feature","geometry":{"type":"Point","coordinates":[137.8495,34.7701]},"properties":{"price":31600,"use":"磐田","zone":"","station":"住宅"}},{"type":"Feature","geometry":{"type":"Point","coordinates":[137.8829,34.7017]},"properties":{"price":26200,"use":"磐田","zone":"","station":"住宅"}},{"type":"Feature","geometry":{"type":"Point","coordinates":[137.86816,34.68113]},"properties":{"price":19200,"use":"磐田","zone":"","station":"住宅"}},{"type":"Feature","geometry":{"type":"Point","coordinates":[137.80908,34.7195]},"properties":{"price":38700,"use":"磐田","zone":"","station":"住宅"}},{"type":"Feature","geometry":{"type":"Point","coordinates":[137.88683,34.72404]},"properties":{"price":79300,"use":"磐田","zone":"","station":"住宅"}},{"type":"Feature","geometry":{"type":"Point","coordinates":[137.85788,34.72054]},"properties":{"price":94200,"use":"磐田","zone":"","station":"店舗"}},{"type":"Feature","geometry":{"type":"Point","coordinates":[137.85256,34.69809]},"properties":{"price":58200,"use":"磐田","zone":"","station":"店舗"}},{"type":"Feature","geometry":{"type":"Point","coordinates":[137.84816,34.71067]},"properties":{"price":62900,"use":"磐田","zone":"","station":"店舗兼住宅"}},{"type":"Feature","geometry":{"type":"Point","coordinates":[137.86354,34.71359]},"properties":{"price":74000,"use":"磐田","zone":"","station":"店舗"}},{"type":"Feature","geometry":{"type":"Point","coordinates":[137.87706,34.72643]},"properties":{"price":28200,"use":"磐田","zone":"","station":"工場"}},{"type":"Feature","geometry":{"type":"Point","coordinates":[137.85587,34.69389]},"properties":{"price":23300,"use":"磐田","zone":"","station":"倉庫"}},{"type":"Feature","geometry":{"type":"Point","coordinates":[137.84136,34.7525]},"properties":{"price":29500,"use":"磐田","zone":"","station":"工場"}},{"type":"Feature","geometry":{"type":"Point","coordinates":[138.3093,34.86701]},"properties":{"price":58600,"use":"焼津","zone":"","station":"住宅"}},{"type":"Feature","geometry":{"type":"Point","coordinates":[138.31459,34.86295]},"properties":{"price":57400,"use":"焼津","zone":"","station":"住宅"}},{"type":"Feature","geometry":{"type":"Point","coordinates":[138.32981,34.87799]},"properties":{"price":16800,"use":"焼津","zone":"","station":"住宅"}},{"type":"Feature","geometry":{"type":"Point","coordinates":[138.30241,34.84832]},"properties":{"price":53900,"use":"焼津","zone":"","station":"住宅"}},{"type":"Feature","geometry":{"type":"Point","coordinates":[138.26139,34.80178]},"properties":{"price":30000,"use":"焼津","zone":"","station":"住宅"}},{"type":"Feature","geometry":{"type":"Point","coordinates":[138.3159,34.85555]},"properties":{"price":41200,"use":"焼津","zone":"","station":"住宅"}},{"type":"Feature","geometry":{"type":"Point","coordinates":[138.3101,34.8595]},"properties":{"price":63500,"use":"焼津","zone":"","station":"住宅"}},{"type":"Feature","geometry":{"type":"Point","coordinates":[138.32822,34.84349]},"properties":{"price":23900,"use":"焼津","zone":"","station":"住宅"}},{"type":"Feature","geometry":{"type":"Point","coordinates":[138.30023,34.78772]},"properties":{"price":15200,"use":"焼津","zone":"","station":"住宅"}},{"type":"Feature","geometry":{"type":"Point","coordinates":[138.29835,34.85471]},"properties":{"price":71400,"use":"焼津","zone":"","station":"住宅"}},{"type":"Feature","geometry":{"type":"Point","coordinates":[138.28908,34.86146]},"properties":{"price":79900,"use":"焼津","zone":"","station":"住宅"}},{"type":"Feature","geometry":{"type":"Point","coordinates":[138.31244,34.87171]},"properties":{"price":61200,"use":"焼津","zone":"","station":"住宅"}},{"type":"Feature","geometry":{"type":"Point","coordinates":[138.31399,34.8477]},"properties":{"price":47700,"use":"焼津","zone":"","station":"住宅"}},{"type":"Feature","geometry":{"type":"Point","coordinates":[138.24931,34.81553]},"properties":{"price":41200,"use":"焼津","zone":"","station":"住宅"}},{"type":"Feature","geometry":{"type":"Point","coordinates":[138.31145,34.89159]},"properties":{"price":40900,"use":"焼津","zone":"","station":"住宅"}},{"type":"Feature","geometry":{"type":"Point","coordinates":[138.29319,34.84433]},"properties":{"price":51900,"use":"焼津","zone":"","station":"住宅"}},{"type":"Feature","geometry":{"type":"Point","coordinates":[138.27755,34.8054]},"properties":{"price":30300,"use":"焼津","zone":"","station":"住宅"}},{"type":"Feature","geometry":{"type":"Point","coordinates":[138.31108,34.84256]},"properties":{"price":56500,"use":"焼津","zone":"","station":"店舗"}},{"type":"Feature","geometry":{"type":"Point","coordinates":[138.31519,34.87278]},"properties":{"price":52900,"use":"焼津","zone":"","station":"店舗兼住宅"}},{"type":"Feature","geometry":{"type":"Point","coordinates":[138.31106,34.85803]},"properties":{"price":71600,"use":"焼津","zone":"","station":"店舗兼住宅"}},{"type":"Feature","geometry":{"type":"Point","coordinates":[138.2883,34.85676]},"properties":{"price":79700,"use":"焼津","zone":"","station":"店舗兼住宅"}},{"type":"Feature","geometry":{"type":"Point","coordinates":[138.30555,34.87981]},"properties":{"price":68300,"use":"焼津","zone":"","station":"倉庫兼店舗"}},{"type":"Feature","geometry":{"type":"Point","coordinates":[138.29933,34.78144]},"properties":{"price":15600,"use":"焼津","zone":"","station":"工場"}},{"type":"Feature","geometry":{"type":"Point","coordinates":[138.0035,34.77066]},"properties":{"price":72000,"use":"掛川","zone":"","station":"住宅"}},{"type":"Feature","geometry":{"type":"Point","coordinates":[138.04603,34.67637]},"properties":{"price":20500,"use":"掛川","zone":"","station":"住宅"}},{"type":"Feature","geometry":{"type":"Point","coordinates":[138.01752,34.76655]},"properties":{"price":82100,"use":"掛川","zone":"","station":"住宅"}},{"type":"Feature","geometry":{"type":"Point","coordinates":[138.0248,34.78358]},"properties":{"price":68100,"use":"掛川","zone":"","station":"住宅"}},{"type":"Feature","geometry":{"type":"Point","coordinates":[137.97953,34.78131]},"properties":{"price":42100,"use":"掛川","zone":"","station":"住宅"}},{"type":"Feature","geometry":{"type":"Point","coordinates":[138.05583,34.71589]},"properties":{"price":20600,"use":"掛川","zone":"","station":"住宅"}},{"type":"Feature","geometry":{"type":"Point","coordinates":[137.99146,34.6788]},"properties":{"price":17000,"use":"掛川","zone":"","station":"住宅"}},{"type":"Feature","geometry":{"type":"Point","coordinates":[138.00379,34.78258]},"properties":{"price":49700,"use":"掛川","zone":"","station":"住宅"}},{"type":"Feature","geometry":{"type":"Point","coordinates":[138.01486,34.77206]},"properties":{"price":73100,"use":"掛川","zone":"","station":"店舗兼住宅"}},{"type":"Feature","geometry":{"type":"Point","coordinates":[138.0082,34.77094]},"properties":{"price":110000,"use":"掛川","zone":"","station":"事務所"}},{"type":"Feature","geometry":{"type":"Point","coordinates":[138.01098,34.77693]},"properties":{"price":60500,"use":"掛川","zone":"","station":"店舗兼工場"}},{"type":"Feature","geometry":{"type":"Point","coordinates":[137.98015,34.68111]},"properties":{"price":20000,"use":"掛川","zone":"","station":"店舗兼住宅"}},{"type":"Feature","geometry":{"type":"Point","coordinates":[138.04348,34.79208]},"properties":{"price":23000,"use":"掛川","zone":"","station":"工場"}},{"type":"Feature","geometry":{"type":"Point","coordinates":[138.24783,34.91845]},"properties":{"price":20700,"use":"藤枝","zone":"","station":"住宅"}},{"type":"Feature","geometry":{"type":"Point","coordinates":[138.24386,34.87525]},"properties":{"price":54500,"use":"藤枝","zone":"","station":"住宅"}},{"type":"Feature","geometry":{"type":"Point","coordinates":[138.25138,34.84333]},"properties":{"price":104000,"use":"藤枝","zone":"","station":"住宅"}},{"type":"Feature","geometry":{"type":"Point","coordinates":[138.24027,34.845]},"properties":{"price":70900,"use":"藤枝","zone":"","station":"住宅"}},{"type":"Feature","geometry":{"type":"Point","coordinates":[138.24365,34.856]},"properties":{"price":75000,"use":"藤枝","zone":"","station":"住宅"}},{"type":"Feature","geometry":{"type":"Point","coordinates":[138.23907,34.8677]},"properties":{"price":66500,"use":"藤枝","zone":"","station":"住宅"}},{"type":"Feature","geometry":{"type":"Point","coordinates":[138.2728,34.87335]},"properties":{"price":52900,"use":"藤枝","zone":"","station":"住宅"}},{"type":"Feature","geometry":{"type":"Point","coordinates":[138.26098,34.84594]},"properties":{"price":83200,"use":"藤枝","zone":"","station":"住宅"}},{"type":"Feature","geometry":{"type":"Point","coordinates":[138.25969,34.8309]},"properties":{"price":54800,"use":"藤枝","zone":"","station":"住宅"}},{"type":"Feature","geometry":{"type":"Point","coordinates":[138.25616,34.85552]},"properties":{"price":83200,"use":"藤枝","zone":"","station":"住宅"}},{"type":"Feature","geometry":{"type":"Point","coordinates":[138.29461,34.8997]},"properties":{"price":41900,"use":"藤枝","zone":"","station":"住宅"}},{"type":"Feature","geometry":{"type":"Point","coordinates":[138.27722,34.8812]},"properties":{"price":62000,"use":"藤枝","zone":"","station":"住宅"}},{"type":"Feature","geometry":{"type":"Point","coordinates":[138.23536,34.86359]},"properties":{"price":78700,"use":"藤枝","zone":"","station":"住宅"}},{"type":"Feature","geometry":{"type":"Point","coordinates":[138.23674,34.87203]},"properties":{"price":52200,"use":"藤枝","zone":"","station":"住宅"}},{"type":"Feature","geometry":{"type":"Point","coordinates":[138.26062,34.87775]},"properties":{"price":53200,"use":"藤枝","zone":"","station":"住宅"}},{"type":"Feature","geometry":{"type":"Point","coordinates":[138.28437,34.9086]},"properties":{"price":48600,"use":"藤枝","zone":"","station":"住宅"}},{"type":"Feature","geometry":{"type":"Point","coordinates":[138.22734,34.87568]},"properties":{"price":37600,"use":"藤枝","zone":"","station":"住宅"}},{"type":"Feature","geometry":{"type":"Point","coordinates":[138.26803,34.87507]},"properties":{"price":53200,"use":"藤枝","zone":"","station":"住宅"}},{"type":"Feature","geometry":{"type":"Point","coordinates":[138.29108,34.92672]},"properties":{"price":31900,"use":"藤枝","zone":"","station":"住宅"}},{"type":"Feature","geometry":{"type":"Point","coordinates":[138.2495,34.83886]},"properties":{"price":77500,"use":"藤枝","zone":"","station":"住宅"}},{"type":"Feature","geometry":{"type":"Point","coordinates":[138.2514,34.85127]},"properties":{"price":150000,"use":"藤枝","zone":"","station":"店舗兼事務所"}},{"type":"Feature","geometry":{"type":"Point","coordinates":[138.2735,34.88191]},"properties":{"price":74600,"use":"藤枝","zone":"","station":"店舗"}},{"type":"Feature","geometry":{"type":"Point","coordinates":[138.25778,34.85371]},"properties":{"price":96900,"use":"藤枝","zone":"","station":"店舗兼住宅"}},{"type":"Feature","geometry":{"type":"Point","coordinates":[138.25373,34.84691]},"properties":{"price":157000,"use":"藤枝","zone":"","station":"店舗"}},{"type":"Feature","geometry":{"type":"Point","coordinates":[138.26841,34.85374]},"properties":{"price":47700,"use":"藤枝","zone":"","station":"住宅兼作業所"}},{"type":"Feature","geometry":{"type":"Point","coordinates":[138.93949,35.29869]},"properties":{"price":95500,"use":"御殿場","zone":"","station":"住宅"}},{"type":"Feature","geometry":{"type":"Point","coordinates":[138.938,35.31757]},"properties":{"price":67400,"use":"御殿場","zone":"","station":"住宅"}},{"type":"Feature","geometry":{"type":"Point","coordinates":[138.93058,35.30947]},"properties":{"price":76400,"use":"御殿場","zone":"","station":"住宅"}},{"type":"Feature","geometry":{"type":"Point","coordinates":[138.92301,35.29519]},"properties":{"price":67700,"use":"御殿場","zone":"","station":"住宅"}},{"type":"Feature","geometry":{"type":"Point","coordinates":[138.94118,35.30128]},"properties":{"price":91400,"use":"御殿場","zone":"","station":"住宅"}},{"type":"Feature","geometry":{"type":"Point","coordinates":[138.94126,35.29331]},"properties":{"price":72600,"use":"御殿場","zone":"","station":"住宅"}},{"type":"Feature","geometry":{"type":"Point","coordinates":[138.94225,35.31366]},"properties":{"price":67700,"use":"御殿場","zone":"","station":"住宅"}},{"type":"Feature","geometry":{"type":"Point","coordinates":[138.91879,35.25175]},"properties":{"price":57700,"use":"御殿場","zone":"","station":"住宅"}},{"type":"Feature","geometry":{"type":"Point","coordinates":[138.93519,35.32715]},"properties":{"price":44400,"use":"御殿場","zone":"","station":"住宅"}},{"type":"Feature","geometry":{"type":"Point","coordinates":[138.92169,35.27505]},"properties":{"price":50500,"use":"御殿場","zone":"","station":"住宅"}},{"type":"Feature","geometry":{"type":"Point","coordinates":[138.9064,35.27824]},"properties":{"price":41100,"use":"御殿場","zone":"","station":"住宅"}},{"type":"Feature","geometry":{"type":"Point","coordinates":[138.91394,35.30751]},"properties":{"price":52100,"use":"御殿場","zone":"","station":"住宅"}},{"type":"Feature","geometry":{"type":"Point","coordinates":[138.93271,35.30147]},"properties":{"price":113000,"use":"御殿場","zone":"","station":"店舗兼共同住宅"}},{"type":"Feature","geometry":{"type":"Point","coordinates":[138.92538,35.30756]},"properties":{"price":105000,"use":"御殿場","zone":"","station":"店舗"}},{"type":"Feature","geometry":{"type":"Point","coordinates":[138.94108,35.30313]},"properties":{"price":149000,"use":"御殿場","zone":"","station":"店舗"}},{"type":"Feature","geometry":{"type":"Point","coordinates":[137.9229,34.75512]},"properties":{"price":61100,"use":"袋井","zone":"","station":"住宅"}},{"type":"Feature","geometry":{"type":"Point","coordinates":[137.93241,34.73662]},"properties":{"price":45700,"use":"袋井","zone":"","station":"住宅"}},{"type":"Feature","geometry":{"type":"Point","coordinates":[137.91281,34.74718]},"properties":{"price":55300,"use":"袋井","zone":"","station":"住宅"}},{"type":"Feature","geometry":{"type":"Point","coordinates":[137.92985,34.68743]},"properties":{"price":16000,"use":"袋井","zone":"","station":"住宅"}},{"type":"Feature","geometry":{"type":"Point","coordinates":[137.9296,34.70894]},"properties":{"price":31000,"use":"袋井","zone":"","station":"住宅"}},{"type":"Feature","geometry":{"type":"Point","coordinates":[137.96404,34.74995]},"properties":{"price":70500,"use":"袋井","zone":"","station":"住宅"}},{"type":"Feature","geometry":{"type":"Point","coordinates":[137.9245,34.74317]},"properties":{"price":85000,"use":"袋井","zone":"","station":"店舗兼住宅"}},{"type":"Feature","geometry":{"type":"Point","coordinates":[137.92044,34.75293]},"properties":{"price":71300,"use":"袋井","zone":"","station":"店舗兼住宅"}},{"type":"Feature","geometry":{"type":"Point","coordinates":[138.94334,34.67108]},"properties":{"price":45400,"use":"下田","zone":"","station":"住宅"}},{"type":"Feature","geometry":{"type":"Point","coordinates":[138.94606,34.68877]},"properties":{"price":57800,"use":"下田","zone":"","station":"住宅"}},{"type":"Feature","geometry":{"type":"Point","coordinates":[138.92911,34.69715]},"properties":{"price":39900,"use":"下田","zone":"","station":"住宅"}},{"type":"Feature","geometry":{"type":"Point","coordinates":[138.94348,34.67306]},"properties":{"price":63200,"use":"下田","zone":"","station":"店舗兼住宅"}},{"type":"Feature","geometry":{"type":"Point","coordinates":[138.94423,34.68301]},"properties":{"price":59400,"use":"下田","zone":"","station":"店舗兼住宅"}},{"type":"Feature","geometry":{"type":"Point","coordinates":[138.91369,35.168]},"properties":{"price":100000,"use":"裾野","zone":"","station":"住宅"}},{"type":"Feature","geometry":{"type":"Point","coordinates":[138.91138,35.19254]},"properties":{"price":86100,"use":"裾野","zone":"","station":"住宅"}},{"type":"Feature","geometry":{"type":"Point","coordinates":[138.90724,35.17946]},"properties":{"price":97000,"use":"裾野","zone":"","station":"住宅"}},{"type":"Feature","geometry":{"type":"Point","coordinates":[138.91282,35.17198]},"properties":{"price":114000,"use":"裾野","zone":"","station":"住宅"}},{"type":"Feature","geometry":{"type":"Point","coordinates":[138.87936,35.198]},"properties":{"price":38000,"use":"裾野","zone":"","station":"住宅"}},{"type":"Feature","geometry":{"type":"Point","coordinates":[138.91983,35.21553]},"properties":{"price":77500,"use":"裾野","zone":"","station":"住宅"}},{"type":"Feature","geometry":{"type":"Point","coordinates":[138.84383,35.25284]},"properties":{"price":22800,"use":"裾野","zone":"","station":"住宅"}},{"type":"Feature","geometry":{"type":"Point","coordinates":[138.89189,35.21795]},"properties":{"price":36600,"use":"裾野","zone":"","station":"住宅"}},{"type":"Feature","geometry":{"type":"Point","coordinates":[138.92591,35.18259]},"properties":{"price":59800,"use":"裾野","zone":"","station":"住宅"}},{"type":"Feature","geometry":{"type":"Point","coordinates":[138.90841,35.1747]},"properties":{"price":129000,"use":"裾野","zone":"","station":"店舗兼住宅"}},{"type":"Feature","geometry":{"type":"Point","coordinates":[138.91009,35.21825]},"properties":{"price":55500,"use":"裾野","zone":"","station":"店舗"}},{"type":"Feature","geometry":{"type":"Point","coordinates":[138.90302,35.18664]},"properties":{"price":50300,"use":"裾野","zone":"","station":"工場兼事務所"}},{"type":"Feature","geometry":{"type":"Point","coordinates":[138.88769,35.23034]},"properties":{"price":35700,"use":"裾野","zone":"","station":"倉庫"}},{"type":"Feature","geometry":{"type":"Point","coordinates":[137.55459,34.7119]},"properties":{"price":49200,"use":"湖西","zone":"","station":"住宅"}},{"type":"Feature","geometry":{"type":"Point","coordinates":[137.54431,34.71074]},"properties":{"price":71600,"use":"湖西","zone":"","station":"住宅"}},{"type":"Feature","geometry":{"type":"Point","coordinates":[137.48692,34.72067]},"properties":{"price":85500,"use":"湖西","zone":"","station":"住宅"}},{"type":"Feature","geometry":{"type":"Point","coordinates":[137.487,34.71792]},"properties":{"price":62700,"use":"湖西","zone":"","station":"住宅"}},{"type":"Feature","geometry":{"type":"Point","coordinates":[137.53572,34.72003]},"properties":{"price":65200,"use":"湖西","zone":"","station":"住宅"}},{"type":"Feature","geometry":{"type":"Point","coordinates":[137.5558,34.69904]},"properties":{"price":54200,"use":"湖西","zone":"","station":"住宅"}},{"type":"Feature","geometry":{"type":"Point","coordinates":[137.55955,34.69023]},"properties":{"price":35300,"use":"湖西","zone":"","station":"住宅"}},{"type":"Feature","geometry":{"type":"Point","coordinates":[137.55179,34.68898]},"properties":{"price":45900,"use":"湖西","zone":"","station":"住宅"}},{"type":"Feature","geometry":{"type":"Point","coordinates":[137.53363,34.71604]},"properties":{"price":46800,"use":"湖西","zone":"","station":"住宅"}},{"type":"Feature","geometry":{"type":"Point","coordinates":[137.50517,34.72543]},"properties":{"price":39200,"use":"湖西","zone":"","station":"住宅"}},{"type":"Feature","geometry":{"type":"Point","coordinates":[137.54419,34.71716]},"properties":{"price":87300,"use":"湖西","zone":"","station":"店舗兼住宅"}},{"type":"Feature","geometry":{"type":"Point","coordinates":[137.56173,34.69414]},"properties":{"price":42700,"use":"湖西","zone":"","station":"店舗兼住宅"}},{"type":"Feature","geometry":{"type":"Point","coordinates":[137.54975,34.70449]},"properties":{"price":64300,"use":"湖西","zone":"","station":"診療所"}},{"type":"Feature","geometry":{"type":"Point","coordinates":[137.49606,34.7138]},"properties":{"price":21900,"use":"湖西","zone":"","station":"工場"}},{"type":"Feature","geometry":{"type":"Point","coordinates":[138.9507,34.97598]},"properties":{"price":54300,"use":"伊豆","zone":"","station":"住宅"}},{"type":"Feature","geometry":{"type":"Point","coordinates":[138.94572,34.97772]},"properties":{"price":49900,"use":"伊豆","zone":"","station":"住宅"}},{"type":"Feature","geometry":{"type":"Point","coordinates":[138.92289,34.96884]},"properties":{"price":41700,"use":"伊豆","zone":"","station":"住宅"}},{"type":"Feature","geometry":{"type":"Point","coordinates":[138.93122,34.9912]},"properties":{"price":48400,"use":"伊豆","zone":"","station":"住宅"}},{"type":"Feature","geometry":{"type":"Point","coordinates":[138.94072,34.96968]},"properties":{"price":33000,"use":"伊豆","zone":"","station":"住宅"}},{"type":"Feature","geometry":{"type":"Point","coordinates":[138.92848,34.97125]},"properties":{"price":60500,"use":"伊豆","zone":"","station":"店舗兼住宅"}},{"type":"Feature","geometry":{"type":"Point","coordinates":[138.12965,34.63721]},"properties":{"price":26200,"use":"御前崎","zone":"","station":"住宅"}},{"type":"Feature","geometry":{"type":"Point","coordinates":[138.12423,34.65165]},"properties":{"price":25600,"use":"御前崎","zone":"","station":"住宅"}},{"type":"Feature","geometry":{"type":"Point","coordinates":[138.21079,34.60937]},"properties":{"price":19100,"use":"御前崎","zone":"","station":"住宅"}},{"type":"Feature","geometry":{"type":"Point","coordinates":[138.12817,34.64375]},"properties":{"price":29300,"use":"御前崎","zone":"","station":"店舗兼住宅"}},{"type":"Feature","geometry":{"type":"Point","coordinates":[138.08704,34.75758]},"properties":{"price":58500,"use":"菊川","zone":"","station":"住宅"}},{"type":"Feature","geometry":{"type":"Point","coordinates":[138.09115,34.74767]},"properties":{"price":46600,"use":"菊川","zone":"","station":"住宅"}},{"type":"Feature","geometry":{"type":"Point","coordinates":[138.0891,34.70195]},"properties":{"price":25400,"use":"菊川","zone":"","station":"住宅"}},{"type":"Feature","geometry":{"type":"Point","coordinates":[138.09733,34.68455]},"properties":{"price":22700,"use":"菊川","zone":"","station":"住宅"}},{"type":"Feature","geometry":{"type":"Point","coordinates":[138.0883,34.76097]},"properties":{"price":58300,"use":"菊川","zone":"","station":"店舗兼住宅"}},{"type":"Feature","geometry":{"type":"Point","coordinates":[138.08526,34.74072]},"properties":{"price":61000,"use":"菊川","zone":"","station":"店舗"}},{"type":"Feature","geometry":{"type":"Point","coordinates":[138.93933,35.03785]},"properties":{"price":78300,"use":"伊豆の国","zone":"","station":"住宅"}},{"type":"Feature","geometry":{"type":"Point","coordinates":[138.95904,35.06494]},"properties":{"price":44000,"use":"伊豆の国","zone":"","station":"住宅"}},{"type":"Feature","geometry":{"type":"Point","coordinates":[138.93971,35.03239]},"properties":{"price":81400,"use":"伊豆の国","zone":"","station":"住宅"}},{"type":"Feature","geometry":{"type":"Point","coordinates":[138.94299,35.04052]},"properties":{"price":82000,"use":"伊豆の国","zone":"","station":"住宅"}},{"type":"Feature","geometry":{"type":"Point","coordinates":[138.94314,35.05006]},"properties":{"price":81700,"use":"伊豆の国","zone":"","station":"住宅"}},{"type":"Feature","geometry":{"type":"Point","coordinates":[138.94852,35.03968]},"properties":{"price":81700,"use":"伊豆の国","zone":"","station":"住宅"}},{"type":"Feature","geometry":{"type":"Point","coordinates":[138.94391,34.99624]},"properties":{"price":53100,"use":"伊豆の国","zone":"","station":"住宅"}},{"type":"Feature","geometry":{"type":"Point","coordinates":[138.94449,35.01857]},"properties":{"price":76600,"use":"伊豆の国","zone":"","station":"住宅"}},{"type":"Feature","geometry":{"type":"Point","coordinates":[138.95419,35.01874]},"properties":{"price":46500,"use":"伊豆の国","zone":"","station":"住宅"}},{"type":"Feature","geometry":{"type":"Point","coordinates":[138.93338,35.04244]},"properties":{"price":53600,"use":"伊豆の国","zone":"","station":"住宅"}},{"type":"Feature","geometry":{"type":"Point","coordinates":[138.92723,35.03807]},"properties":{"price":67900,"use":"伊豆の国","zone":"","station":"住宅"}},{"type":"Feature","geometry":{"type":"Point","coordinates":[138.95186,35.00585]},"properties":{"price":62500,"use":"伊豆の国","zone":"","station":"住宅"}},{"type":"Feature","geometry":{"type":"Point","coordinates":[138.93226,35.0299]},"properties":{"price":83600,"use":"伊豆の国","zone":"","station":"店舗兼住宅"}},{"type":"Feature","geometry":{"type":"Point","coordinates":[138.939,34.99516]},"properties":{"price":77600,"use":"伊豆の国","zone":"","station":"店舗兼住宅"}},{"type":"Feature","geometry":{"type":"Point","coordinates":[138.19457,34.68988]},"properties":{"price":23800,"use":"牧之原","zone":"","station":"住宅"}},{"type":"Feature","geometry":{"type":"Point","coordinates":[138.19041,34.63466]},"properties":{"price":19100,"use":"牧之原","zone":"","station":"住宅"}},{"type":"Feature","geometry":{"type":"Point","coordinates":[138.22649,34.74002]},"properties":{"price":23200,"use":"牧之原","zone":"","station":"住宅"}},{"type":"Feature","geometry":{"type":"Point","coordinates":[138.24061,34.75726]},"properties":{"price":28400,"use":"牧之原","zone":"","station":"住宅"}},{"type":"Feature","geometry":{"type":"Point","coordinates":[138.19755,34.68398]},"properties":{"price":29400,"use":"牧之原","zone":"","station":"店舗、住宅兼倉庫"}},{"type":"Feature","geometry":{"type":"Point","coordinates":[138.23977,34.75439]},"properties":{"price":36500,"use":"牧之原","zone":"","station":"店舗兼倉庫"}},{"type":"Feature","geometry":{"type":"Point","coordinates":[139.04461,34.77044]},"properties":{"price":35100,"use":"東伊豆","zone":"","station":"住宅"}},{"type":"Feature","geometry":{"type":"Point","coordinates":[139.05248,34.80554]},"properties":{"price":27300,"use":"東伊豆","zone":"","station":"住宅"}},{"type":"Feature","geometry":{"type":"Point","coordinates":[139.03765,34.77406]},"properties":{"price":64000,"use":"東伊豆","zone":"","station":"店舗兼住宅"}},{"type":"Feature","geometry":{"type":"Point","coordinates":[138.99747,34.74484]},"properties":{"price":36900,"use":"河津","zone":"","station":"住宅"}},{"type":"Feature","geometry":{"type":"Point","coordinates":[138.98594,34.75291]},"properties":{"price":27100,"use":"河津","zone":"","station":"住宅"}},{"type":"Feature","geometry":{"type":"Point","coordinates":[138.99682,34.74677]},"properties":{"price":54300,"use":"河津","zone":"","station":"銀行"}},{"type":"Feature","geometry":{"type":"Point","coordinates":[138.86014,34.6626]},"properties":{"price":24000,"use":"南伊豆","zone":"","station":"住宅"}},{"type":"Feature","geometry":{"type":"Point","coordinates":[138.88635,34.65589]},"properties":{"price":19700,"use":"南伊豆","zone":"","station":"住宅"}},{"type":"Feature","geometry":{"type":"Point","coordinates":[138.85988,34.65059]},"properties":{"price":29600,"use":"南伊豆","zone":"","station":"店舗兼住宅"}},{"type":"Feature","geometry":{"type":"Point","coordinates":[138.95894,35.10191]},"properties":{"price":61500,"use":"函南","zone":"","station":"住宅"}},{"type":"Feature","geometry":{"type":"Point","coordinates":[138.96869,35.09092]},"properties":{"price":64700,"use":"函南","zone":"","station":"住宅"}},{"type":"Feature","geometry":{"type":"Point","coordinates":[138.94603,35.08329]},"properties":{"price":97600,"use":"函南","zone":"","station":"住宅"}},{"type":"Feature","geometry":{"type":"Point","coordinates":[138.96197,35.09622]},"properties":{"price":50100,"use":"函南","zone":"","station":"住宅"}},{"type":"Feature","geometry":{"type":"Point","coordinates":[138.97181,35.08404]},"properties":{"price":44300,"use":"函南","zone":"","station":"住宅"}},{"type":"Feature","geometry":{"type":"Point","coordinates":[139.01633,35.09666]},"properties":{"price":15800,"use":"函南","zone":"","station":"住宅"}},{"type":"Feature","geometry":{"type":"Point","coordinates":[138.8905,35.09392]},"properties":{"price":91800,"use":"駿東清水","zone":"","station":"住宅"}},{"type":"Feature","geometry":{"type":"Point","coordinates":[138.89515,35.11233]},"properties":{"price":120000,"use":"駿東清水","zone":"","station":"住宅"}},{"type":"Feature","geometry":{"type":"Point","coordinates":[138.90318,35.09211]},"properties":{"price":93500,"use":"駿東清水","zone":"","station":"住宅"}},{"type":"Feature","geometry":{"type":"Point","coordinates":[138.90338,35.11894]},"properties":{"price":136000,"use":"駿東清水","zone":"","station":"住宅"}},{"type":"Feature","geometry":{"type":"Point","coordinates":[138.89248,35.09995]},"properties":{"price":115000,"use":"駿東清水","zone":"","station":"住宅"}},{"type":"Feature","geometry":{"type":"Point","coordinates":[138.90208,35.14343]},"properties":{"price":130000,"use":"長泉","zone":"","station":"住宅"}},{"type":"Feature","geometry":{"type":"Point","coordinates":[138.89265,35.14145]},"properties":{"price":112000,"use":"長泉","zone":"","station":"住宅"}},{"type":"Feature","geometry":{"type":"Point","coordinates":[138.88924,35.12158]},"properties":{"price":133000,"use":"長泉","zone":"","station":"住宅"}},{"type":"Feature","geometry":{"type":"Point","coordinates":[138.89403,35.12717]},"properties":{"price":138000,"use":"長泉","zone":"","station":"住宅"}},{"type":"Feature","geometry":{"type":"Point","coordinates":[138.89787,35.1353]},"properties":{"price":143000,"use":"長泉","zone":"","station":"住宅"}},{"type":"Feature","geometry":{"type":"Point","coordinates":[138.88796,35.15246]},"properties":{"price":84000,"use":"長泉","zone":"","station":"住宅"}},{"type":"Feature","geometry":{"type":"Point","coordinates":[138.90204,35.13849]},"properties":{"price":148000,"use":"長泉","zone":"","station":"店舗"}},{"type":"Feature","geometry":{"type":"Point","coordinates":[138.9844,35.36483]},"properties":{"price":43400,"use":"静岡小山","zone":"","station":"住宅"}},{"type":"Feature","geometry":{"type":"Point","coordinates":[138.94951,35.37329]},"properties":{"price":18100,"use":"静岡小山","zone":"","station":"住宅"}},{"type":"Feature","geometry":{"type":"Point","coordinates":[138.97826,35.33507]},"properties":{"price":35800,"use":"静岡小山","zone":"","station":"住宅"}},{"type":"Feature","geometry":{"type":"Point","coordinates":[138.99041,35.36097]},"properties":{"price":47200,"use":"静岡小山","zone":"","station":"住宅"}},{"type":"Feature","geometry":{"type":"Point","coordinates":[138.95372,35.33761]},"properties":{"price":33700,"use":"静岡小山","zone":"","station":"住宅"}},{"type":"Feature","geometry":{"type":"Point","coordinates":[138.98069,35.34885]},"properties":{"price":23000,"use":"静岡小山","zone":"","station":"住宅"}},{"type":"Feature","geometry":{"type":"Point","coordinates":[138.24959,34.77083]},"properties":{"price":43300,"use":"静岡吉田","zone":"","station":"住宅"}},{"type":"Feature","geometry":{"type":"Point","coordinates":[138.27643,34.76284]},"properties":{"price":14000,"use":"静岡吉田","zone":"","station":"住宅"}},{"type":"Feature","geometry":{"type":"Point","coordinates":[138.24794,34.7645]},"properties":{"price":41300,"use":"静岡吉田","zone":"","station":"店舗"}},{"type":"Feature","geometry":{"type":"Point","coordinates":[137.92151,34.83155]},"properties":{"price":36700,"use":"静岡森","zone":"","station":"住宅"}},{"type":"Feature","geometry":{"type":"Point","coordinates":[137.92974,34.8295]},"properties":{"price":23600,"use":"静岡森","zone":"","station":"住宅"}},{"type":"Feature","geometry":{"type":"Point","coordinates":[137.93138,34.83805]},"properties":{"price":27200,"use":"静岡森","zone":"","station":"店舗兼住宅"}}]}