{"type":"FeatureCollection","features":[{"type":"Feature","geometry":{"type":"Point","coordinates":[131.45018,31.98342]},"properties":{"price":44100,"use":"宮崎","zone":"","station":"住宅"}},{"type":"Feature","geometry":{"type":"Point","coordinates":[131.43816,31.95834]},"properties":{"price":47900,"use":"宮崎","zone":"","station":"住宅"}},{"type":"Feature","geometry":{"type":"Point","coordinates":[131.43524,31.94691]},"properties":{"price":53700,"use":"宮崎","zone":"","station":"建築中"}},{"type":"Feature","geometry":{"type":"Point","coordinates":[131.30132,31.83988]},"properties":{"price":20900,"use":"宮崎","zone":"","station":"住宅"}},{"type":"Feature","geometry":{"type":"Point","coordinates":[131.41355,31.94207]},"properties":{"price":58300,"use":"宮崎","zone":"","station":"住宅"}},{"type":"Feature","geometry":{"type":"Point","coordinates":[131.36415,31.9571]},"properties":{"price":14400,"use":"宮崎","zone":"","station":"住宅"}},{"type":"Feature","geometry":{"type":"Point","coordinates":[131.412,31.91264]},"properties":{"price":75600,"use":"宮崎","zone":"","station":"住宅"}},{"type":"Feature","geometry":{"type":"Point","coordinates":[131.41648,31.91299]},"properties":{"price":80000,"use":"宮崎","zone":"","station":"住宅"}},{"type":"Feature","geometry":{"type":"Point","coordinates":[131.41368,31.91968]},"properties":{"price":93200,"use":"宮崎","zone":"","station":"住宅"}},{"type":"Feature","geometry":{"type":"Point","coordinates":[131.41907,31.93132]},"properties":{"price":112000,"use":"宮崎","zone":"","station":"住宅"}},{"type":"Feature","geometry":{"type":"Point","coordinates":[131.42005,31.85755]},"properties":{"price":43400,"use":"宮崎","zone":"","station":"住宅"}},{"type":"Feature","geometry":{"type":"Point","coordinates":[131.44703,31.93218]},"properties":{"price":51300,"use":"宮崎","zone":"","station":"住宅"}},{"type":"Feature","geometry":{"type":"Point","coordinates":[131.44469,31.9166]},"properties":{"price":65400,"use":"宮崎","zone":"","station":"住宅"}},{"type":"Feature","geometry":{"type":"Point","coordinates":[131.43517,31.91822]},"properties":{"price":94800,"use":"宮崎","zone":"","station":"住宅"}},{"type":"Feature","geometry":{"type":"Point","coordinates":[131.44492,31.90644]},"properties":{"price":62600,"use":"宮崎","zone":"","station":"住宅"}},{"type":"Feature","geometry":{"type":"Point","coordinates":[131.43266,31.90935]},"properties":{"price":84600,"use":"宮崎","zone":"","station":"住宅"}},{"type":"Feature","geometry":{"type":"Point","coordinates":[131.42501,31.82918]},"properties":{"price":46400,"use":"宮崎","zone":"","station":"住宅"}},{"type":"Feature","geometry":{"type":"Point","coordinates":[131.43389,32.05054]},"properties":{"price":22800,"use":"宮崎","zone":"","station":"住宅"}},{"type":"Feature","geometry":{"type":"Point","coordinates":[131.38314,31.91985]},"properties":{"price":61900,"use":"宮崎","zone":"","station":"住宅"}},{"type":"Feature","geometry":{"type":"Point","coordinates":[131.48242,32.02788]},"properties":{"price":28700,"use":"宮崎","zone":"","station":"住宅"}},{"type":"Feature","geometry":{"type":"Point","coordinates":[131.48816,32.02616]},"properties":{"price":13100,"use":"宮崎","zone":"","station":"住宅"}},{"type":"Feature","geometry":{"type":"Point","coordinates":[131.44726,32.02155]},"properties":{"price":11300,"use":"宮崎","zone":"","station":"住宅"}},{"type":"Feature","geometry":{"type":"Point","coordinates":[131.42542,31.87842]},"properties":{"price":51000,"use":"宮崎","zone":"","station":"住宅"}},{"type":"Feature","geometry":{"type":"Point","coordinates":[131.4178,31.88159]},"properties":{"price":52100,"use":"宮崎","zone":"","station":"住宅"}},{"type":"Feature","geometry":{"type":"Point","coordinates":[131.47173,32.02533]},"properties":{"price":42800,"use":"宮崎","zone":"","station":"住宅"}},{"type":"Feature","geometry":{"type":"Point","coordinates":[131.43423,31.8295]},"properties":{"price":31800,"use":"宮崎","zone":"","station":"住宅"}},{"type":"Feature","geometry":{"type":"Point","coordinates":[131.47032,31.79482]},"properties":{"price":22100,"use":"宮崎","zone":"","station":"住宅"}},{"type":"Feature","geometry":{"type":"Point","coordinates":[131.42881,31.92794]},"properties":{"price":74200,"use":"宮崎","zone":"","station":"空地"}},{"type":"Feature","geometry":{"type":"Point","coordinates":[131.44948,31.91088]},"properties":{"price":62800,"use":"宮崎","zone":"","station":"住宅"}},{"type":"Feature","geometry":{"type":"Point","coordinates":[131.41579,31.89003]},"properties":{"price":51500,"use":"宮崎","zone":"","station":"住宅"}},{"type":"Feature","geometry":{"type":"Point","coordinates":[131.40344,31.89684]},"properties":{"price":57500,"use":"宮崎","zone":"","station":"住宅"}},{"type":"Feature","geometry":{"type":"Point","coordinates":[131.41329,31.95951]},"properties":{"price":51400,"use":"宮崎","zone":"","station":"住宅"}},{"type":"Feature","geometry":{"type":"Point","coordinates":[131.44324,31.887]},"properties":{"price":37000,"use":"宮崎","zone":"","station":"住宅"}},{"type":"Feature","geometry":{"type":"Point","coordinates":[131.30478,31.94911]},"properties":{"price":9500,"use":"宮崎","zone":"","station":"住宅"}},{"type":"Feature","geometry":{"type":"Point","coordinates":[131.39577,31.93159]},"properties":{"price":63900,"use":"宮崎","zone":"","station":"住宅"}},{"type":"Feature","geometry":{"type":"Point","coordinates":[131.39806,31.90921]},"properties":{"price":58500,"use":"宮崎","zone":"","station":"住宅"}},{"type":"Feature","geometry":{"type":"Point","coordinates":[131.40007,31.84465]},"properties":{"price":21300,"use":"宮崎","zone":"","station":"住宅"}},{"type":"Feature","geometry":{"type":"Point","coordinates":[131.41544,31.89849]},"properties":{"price":71600,"use":"宮崎","zone":"","station":"住宅"}},{"type":"Feature","geometry":{"type":"Point","coordinates":[131.40012,32.02089]},"properties":{"price":14000,"use":"宮崎","zone":"","station":"住宅"}},{"type":"Feature","geometry":{"type":"Point","coordinates":[131.29965,31.83061]},"properties":{"price":15400,"use":"宮崎","zone":"","station":"住宅"}},{"type":"Feature","geometry":{"type":"Point","coordinates":[131.43267,31.90596]},"properties":{"price":66200,"use":"宮崎","zone":"","station":"住宅"}},{"type":"Feature","geometry":{"type":"Point","coordinates":[131.42826,31.94166]},"properties":{"price":63000,"use":"宮崎","zone":"","station":"住宅"}},{"type":"Feature","geometry":{"type":"Point","coordinates":[131.40739,31.94862]},"properties":{"price":36300,"use":"宮崎","zone":"","station":"住宅"}},{"type":"Feature","geometry":{"type":"Point","coordinates":[131.47149,32.03596]},"properties":{"price":28300,"use":"宮崎","zone":"","station":"住宅"}},{"type":"Feature","geometry":{"type":"Point","coordinates":[131.44045,31.91197]},"properties":{"price":66100,"use":"宮崎","zone":"","station":"住宅"}},{"type":"Feature","geometry":{"type":"Point","coordinates":[131.39072,31.91342]},"properties":{"price":57100,"use":"宮崎","zone":"","station":"住宅"}},{"type":"Feature","geometry":{"type":"Point","coordinates":[131.44854,31.93892]},"properties":{"price":43200,"use":"宮崎","zone":"","station":"住宅"}},{"type":"Feature","geometry":{"type":"Point","coordinates":[131.30481,31.96288]},"properties":{"price":21700,"use":"宮崎","zone":"","station":"住宅"}},{"type":"Feature","geometry":{"type":"Point","coordinates":[131.30044,31.95946]},"properties":{"price":17600,"use":"宮崎","zone":"","station":"住宅"}},{"type":"Feature","geometry":{"type":"Point","coordinates":[131.41994,31.91846]},"properties":{"price":93700,"use":"宮崎","zone":"","station":"住宅"}},{"type":"Feature","geometry":{"type":"Point","coordinates":[131.43476,31.92311]},"properties":{"price":60400,"use":"宮崎","zone":"","station":"住宅"}},{"type":"Feature","geometry":{"type":"Point","coordinates":[131.38699,31.85984]},"properties":{"price":43600,"use":"宮崎","zone":"","station":"住宅"}},{"type":"Feature","geometry":{"type":"Point","coordinates":[131.39714,31.87632]},"properties":{"price":55000,"use":"宮崎","zone":"","station":"住宅"}},{"type":"Feature","geometry":{"type":"Point","coordinates":[131.39374,31.85773]},"properties":{"price":36800,"use":"宮崎","zone":"","station":"住宅"}},{"type":"Feature","geometry":{"type":"Point","coordinates":[131.44386,31.82425]},"properties":{"price":20400,"use":"宮崎","zone":"","station":"住宅"}},{"type":"Feature","geometry":{"type":"Point","coordinates":[131.38997,31.96973]},"properties":{"price":17600,"use":"宮崎","zone":"","station":"住宅"}},{"type":"Feature","geometry":{"type":"Point","coordinates":[131.46396,31.94214]},"properties":{"price":32700,"use":"宮崎","zone":"","station":"住宅"}},{"type":"Feature","geometry":{"type":"Point","coordinates":[131.4605,31.97623]},"properties":{"price":16900,"use":"宮崎","zone":"","station":"住宅"}},{"type":"Feature","geometry":{"type":"Point","coordinates":[131.41918,31.94164]},"properties":{"price":75300,"use":"宮崎","zone":"","station":"住宅"}},{"type":"Feature","geometry":{"type":"Point","coordinates":[131.44055,31.89165]},"properties":{"price":55600,"use":"宮崎","zone":"","station":"住宅"}},{"type":"Feature","geometry":{"type":"Point","coordinates":[131.42283,31.92985]},"properties":{"price":95500,"use":"宮崎","zone":"","station":"住宅"}},{"type":"Feature","geometry":{"type":"Point","coordinates":[131.42883,31.85327]},"properties":{"price":42000,"use":"宮崎","zone":"","station":"住宅"}},{"type":"Feature","geometry":{"type":"Point","coordinates":[131.37791,31.90076]},"properties":{"price":56600,"use":"宮崎","zone":"","station":"住宅"}},{"type":"Feature","geometry":{"type":"Point","coordinates":[131.29461,31.83607]},"properties":{"price":20000,"use":"宮崎","zone":"","station":"住宅"}},{"type":"Feature","geometry":{"type":"Point","coordinates":[131.42275,31.91544]},"properties":{"price":290000,"use":"宮崎","zone":"","station":"店舗兼事務所"}},{"type":"Feature","geometry":{"type":"Point","coordinates":[131.42673,31.91656]},"properties":{"price":200000,"use":"宮崎","zone":"","station":"事務所"}},{"type":"Feature","geometry":{"type":"Point","coordinates":[131.42949,31.93743]},"properties":{"price":92800,"use":"宮崎","zone":"","station":"店舗"}},{"type":"Feature","geometry":{"type":"Point","coordinates":[131.42138,31.91389]},"properties":{"price":213000,"use":"宮崎","zone":"","station":"店舗"}},{"type":"Feature","geometry":{"type":"Point","coordinates":[131.4203,31.89628]},"properties":{"price":82000,"use":"宮崎","zone":"","station":"店舗兼共同住宅"}},{"type":"Feature","geometry":{"type":"Point","coordinates":[131.42246,31.91094]},"properties":{"price":141000,"use":"宮崎","zone":"","station":"店舗兼事務所"}},{"type":"Feature","geometry":{"type":"Point","coordinates":[131.42995,31.91238]},"properties":{"price":121000,"use":"宮崎","zone":"","station":"専門学校"}},{"type":"Feature","geometry":{"type":"Point","coordinates":[131.43565,31.91974]},"properties":{"price":107000,"use":"宮崎","zone":"","station":"店舗兼事務所"}},{"type":"Feature","geometry":{"type":"Point","coordinates":[131.45568,31.99054]},"properties":{"price":50600,"use":"宮崎","zone":"","station":"店舗兼事務所"}},{"type":"Feature","geometry":{"type":"Point","coordinates":[131.29991,31.95587]},"properties":{"price":30000,"use":"宮崎","zone":"","station":"店舗兼住宅"}},{"type":"Feature","geometry":{"type":"Point","coordinates":[131.41938,31.91509]},"properties":{"price":111000,"use":"宮崎","zone":"","station":"店舗兼住宅"}},{"type":"Feature","geometry":{"type":"Point","coordinates":[131.4192,31.89934]},"properties":{"price":70500,"use":"宮崎","zone":"","station":"店舗兼住宅"}},{"type":"Feature","geometry":{"type":"Point","coordinates":[131.41404,31.91827]},"properties":{"price":101000,"use":"宮崎","zone":"","station":"事務所兼住宅"}},{"type":"Feature","geometry":{"type":"Point","coordinates":[131.42577,31.92715]},"properties":{"price":100000,"use":"宮崎","zone":"","station":"店舗"}},{"type":"Feature","geometry":{"type":"Point","coordinates":[131.30146,31.83828]},"properties":{"price":22900,"use":"宮崎","zone":"","station":"店舗兼住宅"}},{"type":"Feature","geometry":{"type":"Point","coordinates":[131.47281,32.00778]},"properties":{"price":43100,"use":"宮崎","zone":"","station":"店舗兼事務所"}},{"type":"Feature","geometry":{"type":"Point","coordinates":[131.38998,31.85691]},"properties":{"price":49400,"use":"宮崎","zone":"","station":"店舗兼住宅"}},{"type":"Feature","geometry":{"type":"Point","coordinates":[131.38557,31.86057]},"properties":{"price":55000,"use":"宮崎","zone":"","station":"店舗兼住宅"}},{"type":"Feature","geometry":{"type":"Point","coordinates":[131.35513,31.85105]},"properties":{"price":20700,"use":"宮崎","zone":"","station":"事務所兼倉庫"}},{"type":"Feature","geometry":{"type":"Point","coordinates":[131.4342,31.95364]},"properties":{"price":70300,"use":"宮崎","zone":"","station":"店舗"}},{"type":"Feature","geometry":{"type":"Point","coordinates":[131.42221,31.88995]},"properties":{"price":62100,"use":"宮崎","zone":"","station":"事務所兼倉庫"}},{"type":"Feature","geometry":{"type":"Point","coordinates":[131.43924,31.93601]},"properties":{"price":65000,"use":"宮崎","zone":"","station":"店舗"}},{"type":"Feature","geometry":{"type":"Point","coordinates":[131.4116,31.92915]},"properties":{"price":99100,"use":"宮崎","zone":"","station":"店舗兼事務所"}},{"type":"Feature","geometry":{"type":"Point","coordinates":[131.45294,31.90661]},"properties":{"price":65300,"use":"宮崎","zone":"","station":"事務所"}},{"type":"Feature","geometry":{"type":"Point","coordinates":[131.40854,31.91983]},"properties":{"price":93800,"use":"宮崎","zone":"","station":"店舗兼共同住宅"}},{"type":"Feature","geometry":{"type":"Point","coordinates":[131.41593,31.89231]},"properties":{"price":78500,"use":"宮崎","zone":"","station":"店舗兼事務所"}},{"type":"Feature","geometry":{"type":"Point","coordinates":[131.43451,31.91602]},"properties":{"price":124000,"use":"宮崎","zone":"","station":"事務所兼共同住宅"}},{"type":"Feature","geometry":{"type":"Point","coordinates":[131.42801,31.92067]},"properties":{"price":106000,"use":"宮崎","zone":"","station":"事業所兼住宅"}},{"type":"Feature","geometry":{"type":"Point","coordinates":[131.44742,31.88068]},"properties":{"price":21200,"use":"宮崎","zone":"","station":"工場"}},{"type":"Feature","geometry":{"type":"Point","coordinates":[131.45638,31.90883]},"properties":{"price":44800,"use":"宮崎","zone":"","station":"給油所"}},{"type":"Feature","geometry":{"type":"Point","coordinates":[131.45259,31.90069]},"properties":{"price":33400,"use":"宮崎","zone":"","station":"事務所"}},{"type":"Feature","geometry":{"type":"Point","coordinates":[131.07308,31.72762]},"properties":{"price":35000,"use":"都城","zone":"","station":"住宅"}},{"type":"Feature","geometry":{"type":"Point","coordinates":[131.03773,31.71915]},"properties":{"price":22400,"use":"都城","zone":"","station":"住宅"}},{"type":"Feature","geometry":{"type":"Point","coordinates":[131.08248,31.73066]},"properties":{"price":25700,"use":"都城","zone":"","station":"住宅"}},{"type":"Feature","geometry":{"type":"Point","coordinates":[131.08456,31.74596]},"properties":{"price":25900,"use":"都城","zone":"","station":"住宅"}},{"type":"Feature","geometry":{"type":"Point","coordinates":[131.09777,31.72565]},"properties":{"price":22000,"use":"都城","zone":"","station":"住宅"}},{"type":"Feature","geometry":{"type":"Point","coordinates":[131.08435,31.72147]},"properties":{"price":26900,"use":"都城","zone":"","station":"住宅"}},{"type":"Feature","geometry":{"type":"Point","coordinates":[131.06955,31.74622]},"properties":{"price":20800,"use":"都城","zone":"","station":"住宅"}},{"type":"Feature","geometry":{"type":"Point","coordinates":[131.03007,31.72774]},"properties":{"price":18500,"use":"都城","zone":"","station":"住宅"}},{"type":"Feature","geometry":{"type":"Point","coordinates":[131.15651,31.78469]},"properties":{"price":9700,"use":"都城","zone":"","station":"住宅"}},{"type":"Feature","geometry":{"type":"Point","coordinates":[131.14585,31.78026]},"properties":{"price":7000,"use":"都城","zone":"","station":"住宅"}},{"type":"Feature","geometry":{"type":"Point","coordinates":[131.12843,31.80007]},"properties":{"price":11800,"use":"都城","zone":"","station":"住宅"}},{"type":"Feature","geometry":{"type":"Point","coordinates":[131.14913,31.79021]},"properties":{"price":7600,"use":"都城","zone":"","station":"住宅"}},{"type":"Feature","geometry":{"type":"Point","coordinates":[131.04031,31.81515]},"properties":{"price":7500,"use":"都城","zone":"","station":"住宅"}},{"type":"Feature","geometry":{"type":"Point","coordinates":[131.05523,31.79043]},"properties":{"price":6200,"use":"都城","zone":"","station":"住宅"}},{"type":"Feature","geometry":{"type":"Point","coordinates":[131.0681,31.87233]},"properties":{"price":9900,"use":"都城","zone":"","station":"住宅"}},{"type":"Feature","geometry":{"type":"Point","coordinates":[131.06341,31.72496]},"properties":{"price":62000,"use":"都城","zone":"","station":"店舗"}},{"type":"Feature","geometry":{"type":"Point","coordinates":[131.08403,31.73924]},"properties":{"price":39600,"use":"都城","zone":"","station":"店舗"}},{"type":"Feature","geometry":{"type":"Point","coordinates":[131.0675,31.87418]},"properties":{"price":12600,"use":"都城","zone":"","station":"店舗"}},{"type":"Feature","geometry":{"type":"Point","coordinates":[131.07427,31.7144]},"properties":{"price":46300,"use":"都城","zone":"","station":"店舗"}},{"type":"Feature","geometry":{"type":"Point","coordinates":[131.15401,31.78301]},"properties":{"price":11600,"use":"都城","zone":"","station":"店舗"}},{"type":"Feature","geometry":{"type":"Point","coordinates":[131.13258,31.80184]},"properties":{"price":15400,"use":"都城","zone":"","station":"店舗兼住宅"}},{"type":"Feature","geometry":{"type":"Point","coordinates":[131.05375,31.78784]},"properties":{"price":11800,"use":"都城","zone":"","station":"店舗"}},{"type":"Feature","geometry":{"type":"Point","coordinates":[131.08827,31.76298]},"properties":{"price":67500,"use":"都城","zone":"","station":"店舗"}},{"type":"Feature","geometry":{"type":"Point","coordinates":[131.67203,32.61183]},"properties":{"price":25800,"use":"延岡","zone":"","station":"住宅"}},{"type":"Feature","geometry":{"type":"Point","coordinates":[131.65544,32.52489]},"properties":{"price":6700,"use":"延岡","zone":"","station":"住宅"}},{"type":"Feature","geometry":{"type":"Point","coordinates":[131.68781,32.59957]},"properties":{"price":24800,"use":"延岡","zone":"","station":"住宅"}},{"type":"Feature","geometry":{"type":"Point","coordinates":[131.68078,32.6046]},"properties":{"price":24500,"use":"延岡","zone":"","station":"住宅"}},{"type":"Feature","geometry":{"type":"Point","coordinates":[131.66507,32.58663]},"properties":{"price":41400,"use":"延岡","zone":"","station":"住宅"}},{"type":"Feature","geometry":{"type":"Point","coordinates":[131.69106,32.57043]},"properties":{"price":23000,"use":"延岡","zone":"","station":"住宅"}},{"type":"Feature","geometry":{"type":"Point","coordinates":[131.6806,32.54768]},"properties":{"price":34500,"use":"延岡","zone":"","station":"住宅"}},{"type":"Feature","geometry":{"type":"Point","coordinates":[131.67874,32.52164]},"properties":{"price":34300,"use":"延岡","zone":"","station":"住宅"}},{"type":"Feature","geometry":{"type":"Point","coordinates":[131.67896,32.50877]},"properties":{"price":20800,"use":"延岡","zone":"","station":"住宅"}},{"type":"Feature","geometry":{"type":"Point","coordinates":[131.63899,32.58518]},"properties":{"price":20000,"use":"延岡","zone":"","station":"住宅"}},{"type":"Feature","geometry":{"type":"Point","coordinates":[131.64735,32.5694]},"properties":{"price":33300,"use":"延岡","zone":"","station":"住宅"}},{"type":"Feature","geometry":{"type":"Point","coordinates":[131.6596,32.56852]},"properties":{"price":54900,"use":"延岡","zone":"","station":"住宅"}},{"type":"Feature","geometry":{"type":"Point","coordinates":[131.67432,32.556]},"properties":{"price":38800,"use":"延岡","zone":"","station":"住宅"}},{"type":"Feature","geometry":{"type":"Point","coordinates":[131.63952,32.57925]},"properties":{"price":40200,"use":"延岡","zone":"","station":"住宅"}},{"type":"Feature","geometry":{"type":"Point","coordinates":[131.67382,32.53033]},"properties":{"price":33300,"use":"延岡","zone":"","station":"住宅"}},{"type":"Feature","geometry":{"type":"Point","coordinates":[131.66126,32.59605]},"properties":{"price":33300,"use":"延岡","zone":"","station":"住宅"}},{"type":"Feature","geometry":{"type":"Point","coordinates":[131.69112,32.6186]},"properties":{"price":19300,"use":"延岡","zone":"","station":"住宅"}},{"type":"Feature","geometry":{"type":"Point","coordinates":[131.64682,32.56127]},"properties":{"price":15100,"use":"延岡","zone":"","station":"住宅"}},{"type":"Feature","geometry":{"type":"Point","coordinates":[131.63088,32.57323]},"properties":{"price":17600,"use":"延岡","zone":"","station":"住宅"}},{"type":"Feature","geometry":{"type":"Point","coordinates":[131.68371,32.61246]},"properties":{"price":20500,"use":"延岡","zone":"","station":"住宅"}},{"type":"Feature","geometry":{"type":"Point","coordinates":[131.65987,32.57921]},"properties":{"price":52000,"use":"延岡","zone":"","station":"住宅"}},{"type":"Feature","geometry":{"type":"Point","coordinates":[131.68058,32.57347]},"properties":{"price":50000,"use":"延岡","zone":"","station":"住宅"}},{"type":"Feature","geometry":{"type":"Point","coordinates":[131.68276,32.5898]},"properties":{"price":14200,"use":"延岡","zone":"","station":"田"}},{"type":"Feature","geometry":{"type":"Point","coordinates":[131.67129,32.58848]},"properties":{"price":61900,"use":"延岡","zone":"","station":"店舗"}},{"type":"Feature","geometry":{"type":"Point","coordinates":[131.67311,32.59529]},"properties":{"price":42100,"use":"延岡","zone":"","station":"店舗兼住宅"}},{"type":"Feature","geometry":{"type":"Point","coordinates":[131.67412,32.58614]},"properties":{"price":44000,"use":"延岡","zone":"","station":"店舗兼住宅"}},{"type":"Feature","geometry":{"type":"Point","coordinates":[131.66643,32.58085]},"properties":{"price":63100,"use":"延岡","zone":"","station":"店舗兼住宅"}},{"type":"Feature","geometry":{"type":"Point","coordinates":[131.67034,32.57518]},"properties":{"price":47600,"use":"延岡","zone":"","station":"店舗兼住宅"}},{"type":"Feature","geometry":{"type":"Point","coordinates":[131.67556,32.55764]},"properties":{"price":47500,"use":"延岡","zone":"","station":"店舗"}},{"type":"Feature","geometry":{"type":"Point","coordinates":[131.68456,32.57695]},"properties":{"price":41900,"use":"延岡","zone":"","station":"事務所兼倉庫"}},{"type":"Feature","geometry":{"type":"Point","coordinates":[131.67345,32.53128]},"properties":{"price":40000,"use":"延岡","zone":"","station":"診療所兼住宅"}},{"type":"Feature","geometry":{"type":"Point","coordinates":[131.67018,32.58581]},"properties":{"price":45200,"use":"延岡","zone":"","station":"店舗"}},{"type":"Feature","geometry":{"type":"Point","coordinates":[131.68224,32.6022]},"properties":{"price":38800,"use":"延岡","zone":"","station":"事務所兼住宅"}},{"type":"Feature","geometry":{"type":"Point","coordinates":[131.67766,32.56429]},"properties":{"price":25000,"use":"延岡","zone":"","station":"作業場兼事務所"}},{"type":"Feature","geometry":{"type":"Point","coordinates":[131.6948,32.59508]},"properties":{"price":13500,"use":"延岡","zone":"","station":"工場"}},{"type":"Feature","geometry":{"type":"Point","coordinates":[131.38339,31.59735]},"properties":{"price":25100,"use":"日南","zone":"","station":"住宅"}},{"type":"Feature","geometry":{"type":"Point","coordinates":[131.35268,31.6257]},"properties":{"price":19200,"use":"日南","zone":"","station":"住宅"}},{"type":"Feature","geometry":{"type":"Point","coordinates":[131.38142,31.60613]},"properties":{"price":21800,"use":"日南","zone":"","station":"住宅"}},{"type":"Feature","geometry":{"type":"Point","coordinates":[131.38043,31.54191]},"properties":{"price":15200,"use":"日南","zone":"","station":"住宅"}},{"type":"Feature","geometry":{"type":"Point","coordinates":[131.37189,31.53912]},"properties":{"price":16400,"use":"日南","zone":"","station":"住宅"}},{"type":"Feature","geometry":{"type":"Point","coordinates":[131.39881,31.58842]},"properties":{"price":39800,"use":"日南","zone":"","station":"店舗兼住宅"}},{"type":"Feature","geometry":{"type":"Point","coordinates":[131.35649,31.62529]},"properties":{"price":23700,"use":"日南","zone":"","station":"店舗兼住宅"}},{"type":"Feature","geometry":{"type":"Point","coordinates":[131.37343,31.53624]},"properties":{"price":17300,"use":"日南","zone":"","station":"店舗兼住宅"}},{"type":"Feature","geometry":{"type":"Point","coordinates":[130.96782,31.99343]},"properties":{"price":14800,"use":"小林","zone":"","station":"住宅"}},{"type":"Feature","geometry":{"type":"Point","coordinates":[130.98745,31.98861]},"properties":{"price":16700,"use":"小林","zone":"","station":"住宅"}},{"type":"Feature","geometry":{"type":"Point","coordinates":[130.98924,31.99803]},"properties":{"price":14800,"use":"小林","zone":"","station":"住宅"}},{"type":"Feature","geometry":{"type":"Point","coordinates":[130.97794,31.99248]},"properties":{"price":33900,"use":"小林","zone":"","station":"店舗兼住宅"}},{"type":"Feature","geometry":{"type":"Point","coordinates":[130.96711,31.99689]},"properties":{"price":21700,"use":"小林","zone":"","station":"店舗"}},{"type":"Feature","geometry":{"type":"Point","coordinates":[131.63154,32.42082]},"properties":{"price":33700,"use":"日向","zone":"","station":"住宅"}},{"type":"Feature","geometry":{"type":"Point","coordinates":[131.64703,32.42226]},"properties":{"price":27900,"use":"日向","zone":"","station":"住宅"}},{"type":"Feature","geometry":{"type":"Point","coordinates":[131.62528,32.39658]},"properties":{"price":30200,"use":"日向","zone":"","station":"住宅"}},{"type":"Feature","geometry":{"type":"Point","coordinates":[131.65433,32.41707]},"properties":{"price":20300,"use":"日向","zone":"","station":"住宅"}},{"type":"Feature","geometry":{"type":"Point","coordinates":[131.6195,32.41426]},"properties":{"price":33800,"use":"日向","zone":"","station":"住宅"}},{"type":"Feature","geometry":{"type":"Point","coordinates":[131.62524,32.4288]},"properties":{"price":36600,"use":"日向","zone":"","station":"住宅"}},{"type":"Feature","geometry":{"type":"Point","coordinates":[131.62079,32.43202]},"properties":{"price":27200,"use":"日向","zone":"","station":"住宅"}},{"type":"Feature","geometry":{"type":"Point","coordinates":[131.63099,32.43856]},"properties":{"price":34900,"use":"日向","zone":"","station":"住宅"}},{"type":"Feature","geometry":{"type":"Point","coordinates":[131.6308,32.43154]},"properties":{"price":33600,"use":"日向","zone":"","station":"住宅"}},{"type":"Feature","geometry":{"type":"Point","coordinates":[131.63381,32.41494]},"properties":{"price":25600,"use":"日向","zone":"","station":"住宅"}},{"type":"Feature","geometry":{"type":"Point","coordinates":[131.61616,32.39867]},"properties":{"price":12400,"use":"日向","zone":"","station":"住宅"}},{"type":"Feature","geometry":{"type":"Point","coordinates":[131.62983,32.40748]},"properties":{"price":22900,"use":"日向","zone":"","station":"住宅"}},{"type":"Feature","geometry":{"type":"Point","coordinates":[131.62665,32.42539]},"properties":{"price":62300,"use":"日向","zone":"","station":"店舗"}},{"type":"Feature","geometry":{"type":"Point","coordinates":[131.64014,32.42055]},"properties":{"price":36000,"use":"日向","zone":"","station":"店舗兼住宅"}},{"type":"Feature","geometry":{"type":"Point","coordinates":[131.62708,32.42936]},"properties":{"price":48500,"use":"日向","zone":"","station":"店舗兼住宅"}},{"type":"Feature","geometry":{"type":"Point","coordinates":[131.62301,32.42352]},"properties":{"price":38500,"use":"日向","zone":"","station":"店舗兼住宅"}},{"type":"Feature","geometry":{"type":"Point","coordinates":[131.63916,32.42676]},"properties":{"price":33800,"use":"日向","zone":"","station":"事務所兼倉庫"}},{"type":"Feature","geometry":{"type":"Point","coordinates":[131.62942,32.4425]},"properties":{"price":30700,"use":"日向","zone":"","station":"店舗兼住宅"}},{"type":"Feature","geometry":{"type":"Point","coordinates":[131.63536,32.4132]},"properties":{"price":19000,"use":"日向","zone":"","station":"倉庫"}},{"type":"Feature","geometry":{"type":"Point","coordinates":[131.6375,32.42931]},"properties":{"price":15700,"use":"日向","zone":"","station":"工場"}},{"type":"Feature","geometry":{"type":"Point","coordinates":[131.63724,32.43385]},"properties":{"price":29300,"use":"日向","zone":"","station":"工場兼事務所"}},{"type":"Feature","geometry":{"type":"Point","coordinates":[131.22412,31.46626]},"properties":{"price":10600,"use":"串間","zone":"","station":"住宅"}},{"type":"Feature","geometry":{"type":"Point","coordinates":[131.23167,31.4731]},"properties":{"price":11000,"use":"串間","zone":"","station":"住宅"}},{"type":"Feature","geometry":{"type":"Point","coordinates":[131.22006,31.45584]},"properties":{"price":10800,"use":"串間","zone":"","station":"住宅"}},{"type":"Feature","geometry":{"type":"Point","coordinates":[131.23015,31.46332]},"properties":{"price":23100,"use":"串間","zone":"","station":"事務所"}},{"type":"Feature","geometry":{"type":"Point","coordinates":[131.21924,31.45707]},"properties":{"price":18600,"use":"串間","zone":"","station":"店舗兼住宅"}},{"type":"Feature","geometry":{"type":"Point","coordinates":[131.40194,32.11151]},"properties":{"price":25500,"use":"西都","zone":"","station":"住宅"}},{"type":"Feature","geometry":{"type":"Point","coordinates":[131.39839,32.09636]},"properties":{"price":19300,"use":"西都","zone":"","station":"住宅"}},{"type":"Feature","geometry":{"type":"Point","coordinates":[131.40854,32.11802]},"properties":{"price":15600,"use":"西都","zone":"","station":"住宅"}},{"type":"Feature","geometry":{"type":"Point","coordinates":[131.40419,32.10683]},"properties":{"price":29900,"use":"西都","zone":"","station":"店舗兼住宅"}},{"type":"Feature","geometry":{"type":"Point","coordinates":[130.81354,32.04392]},"properties":{"price":11200,"use":"えびの","zone":"","station":"住宅"}},{"type":"Feature","geometry":{"type":"Point","coordinates":[130.8769,32.03223]},"properties":{"price":9300,"use":"えびの","zone":"","station":"住宅"}},{"type":"Feature","geometry":{"type":"Point","coordinates":[130.76586,32.05309]},"properties":{"price":8800,"use":"えびの","zone":"","station":"住宅"}},{"type":"Feature","geometry":{"type":"Point","coordinates":[130.76654,32.04759]},"properties":{"price":17700,"use":"えびの","zone":"","station":"店舗兼住宅"}},{"type":"Feature","geometry":{"type":"Point","coordinates":[131.10465,31.72437]},"properties":{"price":16600,"use":"三股","zone":"","station":"住宅"}},{"type":"Feature","geometry":{"type":"Point","coordinates":[131.11993,31.73237]},"properties":{"price":21200,"use":"三股","zone":"","station":"店舗"}},{"type":"Feature","geometry":{"type":"Point","coordinates":[131.00832,31.9279]},"properties":{"price":11300,"use":"高原","zone":"","station":"住宅"}},{"type":"Feature","geometry":{"type":"Point","coordinates":[131.01795,31.932]},"properties":{"price":4730,"use":"高原","zone":"","station":"住宅"}},{"type":"Feature","geometry":{"type":"Point","coordinates":[131.00855,31.92998]},"properties":{"price":13100,"use":"高原","zone":"","station":"店舗兼住宅"}},{"type":"Feature","geometry":{"type":"Point","coordinates":[131.32038,31.98905]},"properties":{"price":23000,"use":"国富","zone":"","station":"住宅"}},{"type":"Feature","geometry":{"type":"Point","coordinates":[131.36026,31.99094]},"properties":{"price":19000,"use":"国富","zone":"","station":"住宅"}},{"type":"Feature","geometry":{"type":"Point","coordinates":[131.32047,31.9776]},"properties":{"price":7500,"use":"国富","zone":"","station":"住宅"}},{"type":"Feature","geometry":{"type":"Point","coordinates":[131.32992,31.98882]},"properties":{"price":31900,"use":"国富","zone":"","station":"店舗兼住宅"}},{"type":"Feature","geometry":{"type":"Point","coordinates":[131.25104,31.99775]},"properties":{"price":14400,"use":"綾","zone":"","station":"住宅"}},{"type":"Feature","geometry":{"type":"Point","coordinates":[131.26597,31.99801]},"properties":{"price":11200,"use":"綾","zone":"","station":"住宅"}},{"type":"Feature","geometry":{"type":"Point","coordinates":[131.25505,31.99884]},"properties":{"price":27000,"use":"綾","zone":"","station":"店舗兼住宅"}},{"type":"Feature","geometry":{"type":"Point","coordinates":[131.50988,32.12572]},"properties":{"price":23700,"use":"高鍋","zone":"","station":"住宅"}},{"type":"Feature","geometry":{"type":"Point","coordinates":[131.53316,32.12456]},"properties":{"price":12800,"use":"高鍋","zone":"","station":"住宅"}},{"type":"Feature","geometry":{"type":"Point","coordinates":[131.50974,32.128]},"properties":{"price":34100,"use":"高鍋","zone":"","station":"店舗兼事務所"}},{"type":"Feature","geometry":{"type":"Point","coordinates":[131.48948,32.06736]},"properties":{"price":19000,"use":"新富","zone":"","station":"住宅"}},{"type":"Feature","geometry":{"type":"Point","coordinates":[131.49921,32.06998]},"properties":{"price":12700,"use":"新富","zone":"","station":"住宅"}},{"type":"Feature","geometry":{"type":"Point","coordinates":[131.49028,32.06864]},"properties":{"price":23000,"use":"新富","zone":"","station":"店舗"}},{"type":"Feature","geometry":{"type":"Point","coordinates":[131.52506,32.19904]},"properties":{"price":10400,"use":"川南","zone":"","station":"住宅"}},{"type":"Feature","geometry":{"type":"Point","coordinates":[131.53092,32.20475]},"properties":{"price":9000,"use":"川南","zone":"","station":"住宅"}},{"type":"Feature","geometry":{"type":"Point","coordinates":[131.5276,32.1949]},"properties":{"price":20700,"use":"川南","zone":"","station":"店舗兼住宅"}},{"type":"Feature","geometry":{"type":"Point","coordinates":[131.55329,32.24822]},"properties":{"price":10800,"use":"都農","zone":"","station":"住宅"}},{"type":"Feature","geometry":{"type":"Point","coordinates":[131.56161,32.25451]},"properties":{"price":12500,"use":"都農","zone":"","station":"住宅"}},{"type":"Feature","geometry":{"type":"Point","coordinates":[131.65218,32.48113]},"properties":{"price":24000,"use":"門川","zone":"","station":"住宅"}},{"type":"Feature","geometry":{"type":"Point","coordinates":[131.64614,32.4654]},"properties":{"price":22200,"use":"門川","zone":"","station":"住宅"}},{"type":"Feature","geometry":{"type":"Point","coordinates":[131.65512,32.47276]},"properties":{"price":14900,"use":"門川","zone":"","station":"住宅"}},{"type":"Feature","geometry":{"type":"Point","coordinates":[131.63386,32.46751]},"properties":{"price":6800,"use":"門川","zone":"","station":"住宅"}},{"type":"Feature","geometry":{"type":"Point","coordinates":[131.6527,32.47668]},"properties":{"price":24200,"use":"門川","zone":"","station":"店舗兼住宅"}},{"type":"Feature","geometry":{"type":"Point","coordinates":[131.3067,32.71624]},"properties":{"price":13400,"use":"高千穂","zone":"","station":"住宅"}},{"type":"Feature","geometry":{"type":"Point","coordinates":[131.31701,32.70555]},"properties":{"price":10600,"use":"高千穂","zone":"","station":"住宅"}}]}