{"type":"FeatureCollection","features":[{"type":"Feature","geometry":{"type":"Point","coordinates":[133.91092,34.67558]},"properties":{"price":190000,"use":"岡山北","zone":"","station":"住宅"}},{"type":"Feature","geometry":{"type":"Point","coordinates":[133.92838,34.673]},"properties":{"price":150000,"use":"岡山北","zone":"","station":"住宅"}},{"type":"Feature","geometry":{"type":"Point","coordinates":[133.91817,34.68347]},"properties":{"price":185000,"use":"岡山北","zone":"","station":"住宅"}},{"type":"Feature","geometry":{"type":"Point","coordinates":[133.89769,34.66353]},"properties":{"price":102000,"use":"岡山北","zone":"","station":"住宅"}},{"type":"Feature","geometry":{"type":"Point","coordinates":[133.9031,34.64466]},"properties":{"price":180000,"use":"岡山北","zone":"","station":"共同住宅"}},{"type":"Feature","geometry":{"type":"Point","coordinates":[133.91819,34.6357]},"properties":{"price":99000,"use":"岡山北","zone":"","station":"共同住宅"}},{"type":"Feature","geometry":{"type":"Point","coordinates":[133.90734,34.71423]},"properties":{"price":45200,"use":"岡山北","zone":"","station":"住宅"}},{"type":"Feature","geometry":{"type":"Point","coordinates":[133.90312,34.69574]},"properties":{"price":67100,"use":"岡山北","zone":"","station":"住宅"}},{"type":"Feature","geometry":{"type":"Point","coordinates":[133.87098,34.64219]},"properties":{"price":69000,"use":"岡山北","zone":"","station":"住宅"}},{"type":"Feature","geometry":{"type":"Point","coordinates":[133.86623,34.66232]},"properties":{"price":52900,"use":"岡山北","zone":"","station":"住宅"}},{"type":"Feature","geometry":{"type":"Point","coordinates":[133.84121,34.67159]},"properties":{"price":46900,"use":"岡山北","zone":"","station":"住宅"}},{"type":"Feature","geometry":{"type":"Point","coordinates":[133.81251,34.69167]},"properties":{"price":36400,"use":"岡山北","zone":"","station":"住宅"}},{"type":"Feature","geometry":{"type":"Point","coordinates":[133.85099,34.64249]},"properties":{"price":66900,"use":"岡山北","zone":"","station":"住宅"}},{"type":"Feature","geometry":{"type":"Point","coordinates":[133.95257,34.71614]},"properties":{"price":25800,"use":"岡山北","zone":"","station":"住宅"}},{"type":"Feature","geometry":{"type":"Point","coordinates":[133.88432,34.6427]},"properties":{"price":123000,"use":"岡山北","zone":"","station":"住宅"}},{"type":"Feature","geometry":{"type":"Point","coordinates":[133.8874,34.63193]},"properties":{"price":115000,"use":"岡山北","zone":"","station":"住宅"}},{"type":"Feature","geometry":{"type":"Point","coordinates":[133.89581,34.6376]},"properties":{"price":147000,"use":"岡山北","zone":"","station":"住宅"}},{"type":"Feature","geometry":{"type":"Point","coordinates":[133.91259,34.6409]},"properties":{"price":88800,"use":"岡山北","zone":"","station":"住宅"}},{"type":"Feature","geometry":{"type":"Point","coordinates":[133.90502,34.66448]},"properties":{"price":101000,"use":"岡山北","zone":"","station":"住宅"}},{"type":"Feature","geometry":{"type":"Point","coordinates":[133.87022,34.67713]},"properties":{"price":66400,"use":"岡山北","zone":"","station":"住宅"}},{"type":"Feature","geometry":{"type":"Point","coordinates":[133.92103,34.63134]},"properties":{"price":71600,"use":"岡山北","zone":"","station":"住宅"}},{"type":"Feature","geometry":{"type":"Point","coordinates":[133.90935,34.68502]},"properties":{"price":159000,"use":"岡山北","zone":"","station":"住宅"}},{"type":"Feature","geometry":{"type":"Point","coordinates":[133.9416,34.70287]},"properties":{"price":35500,"use":"岡山北","zone":"","station":"住宅"}},{"type":"Feature","geometry":{"type":"Point","coordinates":[133.98074,34.7234]},"properties":{"price":27800,"use":"岡山北","zone":"","station":"住宅"}},{"type":"Feature","geometry":{"type":"Point","coordinates":[133.93703,34.691]},"properties":{"price":85700,"use":"岡山北","zone":"","station":"住宅"}},{"type":"Feature","geometry":{"type":"Point","coordinates":[133.92638,34.68023]},"properties":{"price":114000,"use":"岡山北","zone":"","station":"住宅"}},{"type":"Feature","geometry":{"type":"Point","coordinates":[133.92385,34.64495]},"properties":{"price":96500,"use":"岡山北","zone":"","station":"共同住宅"}},{"type":"Feature","geometry":{"type":"Point","coordinates":[133.90981,34.66269]},"properties":{"price":95500,"use":"岡山北","zone":"","station":"住宅"}},{"type":"Feature","geometry":{"type":"Point","coordinates":[133.86025,34.64928]},"properties":{"price":77900,"use":"岡山北","zone":"","station":"住宅"}},{"type":"Feature","geometry":{"type":"Point","coordinates":[133.88654,34.65497]},"properties":{"price":73900,"use":"岡山北","zone":"","station":"住宅"}},{"type":"Feature","geometry":{"type":"Point","coordinates":[133.90431,34.73348]},"properties":{"price":18900,"use":"岡山北","zone":"","station":"住宅"}},{"type":"Feature","geometry":{"type":"Point","coordinates":[133.87263,34.68762]},"properties":{"price":35200,"use":"岡山北","zone":"","station":"住宅"}},{"type":"Feature","geometry":{"type":"Point","coordinates":[133.83138,34.67741]},"properties":{"price":33800,"use":"岡山北","zone":"","station":"住宅"}},{"type":"Feature","geometry":{"type":"Point","coordinates":[133.84085,34.65952]},"properties":{"price":27800,"use":"岡山北","zone":"","station":"住宅"}},{"type":"Feature","geometry":{"type":"Point","coordinates":[133.92901,34.66019]},"properties":{"price":144000,"use":"岡山北","zone":"","station":"店舗兼旅館"}},{"type":"Feature","geometry":{"type":"Point","coordinates":[133.92795,34.66394]},"properties":{"price":286000,"use":"岡山北","zone":"","station":"店舗兼住宅"}},{"type":"Feature","geometry":{"type":"Point","coordinates":[133.8736,34.67771]},"properties":{"price":80300,"use":"岡山北","zone":"","station":"店舗"}},{"type":"Feature","geometry":{"type":"Point","coordinates":[133.92041,34.65268]},"properties":{"price":192000,"use":"岡山北","zone":"","station":"店舗兼共同住宅"}},{"type":"Feature","geometry":{"type":"Point","coordinates":[133.85709,34.64634]},"properties":{"price":89500,"use":"岡山北","zone":"","station":"事務所兼作業所"}},{"type":"Feature","geometry":{"type":"Point","coordinates":[133.90279,34.65527]},"properties":{"price":205000,"use":"岡山北","zone":"","station":"店舗"}},{"type":"Feature","geometry":{"type":"Point","coordinates":[133.9203,34.66522]},"properties":{"price":1780000,"use":"岡山北","zone":"","station":"店舗兼事務所"}},{"type":"Feature","geometry":{"type":"Point","coordinates":[133.9277,34.66533]},"properties":{"price":551000,"use":"岡山北","zone":"","station":"店舗兼事務所"}},{"type":"Feature","geometry":{"type":"Point","coordinates":[133.91824,34.65929]},"properties":{"price":285000,"use":"岡山北","zone":"","station":"事務所兼住宅"}},{"type":"Feature","geometry":{"type":"Point","coordinates":[133.92113,34.65663]},"properties":{"price":369000,"use":"岡山北","zone":"","station":"事務所"}},{"type":"Feature","geometry":{"type":"Point","coordinates":[133.90492,34.64362]},"properties":{"price":151000,"use":"岡山北","zone":"","station":"店舗兼事務所"}},{"type":"Feature","geometry":{"type":"Point","coordinates":[133.93015,34.66087]},"properties":{"price":305000,"use":"岡山北","zone":"","station":"店舗"}},{"type":"Feature","geometry":{"type":"Point","coordinates":[133.92096,34.63547]},"properties":{"price":174000,"use":"岡山北","zone":"","station":"店舗"}},{"type":"Feature","geometry":{"type":"Point","coordinates":[133.87364,34.65774]},"properties":{"price":85600,"use":"岡山北","zone":"","station":"店舗"}},{"type":"Feature","geometry":{"type":"Point","coordinates":[133.92938,34.65351]},"properties":{"price":106000,"use":"岡山北","zone":"","station":"事務所兼住宅"}},{"type":"Feature","geometry":{"type":"Point","coordinates":[133.9333,34.66211]},"properties":{"price":244000,"use":"岡山北","zone":"","station":"店舗、事務所兼共同住宅"}},{"type":"Feature","geometry":{"type":"Point","coordinates":[133.92859,34.6695]},"properties":{"price":199000,"use":"岡山北","zone":"","station":"事務所"}},{"type":"Feature","geometry":{"type":"Point","coordinates":[133.92663,34.66786]},"properties":{"price":339000,"use":"岡山北","zone":"","station":"事務所"}},{"type":"Feature","geometry":{"type":"Point","coordinates":[133.92547,34.67104]},"properties":{"price":236000,"use":"岡山北","zone":"","station":"事務所"}},{"type":"Feature","geometry":{"type":"Point","coordinates":[133.91441,34.67113]},"properties":{"price":196000,"use":"岡山北","zone":"","station":"店舗、事務所兼共同住宅"}},{"type":"Feature","geometry":{"type":"Point","coordinates":[133.91719,34.66895]},"properties":{"price":169000,"use":"岡山北","zone":"","station":"店舗"}},{"type":"Feature","geometry":{"type":"Point","coordinates":[133.91605,34.66479]},"properties":{"price":353000,"use":"岡山北","zone":"","station":"事務所"}},{"type":"Feature","geometry":{"type":"Point","coordinates":[133.91972,34.65748]},"properties":{"price":748000,"use":"岡山北","zone":"","station":"事務所"}},{"type":"Feature","geometry":{"type":"Point","coordinates":[133.92876,34.68537]},"properties":{"price":143000,"use":"岡山北","zone":"","station":"事務所兼共同住宅"}},{"type":"Feature","geometry":{"type":"Point","coordinates":[133.92178,34.66271]},"properties":{"price":454000,"use":"岡山北","zone":"","station":"店舗兼事務所"}},{"type":"Feature","geometry":{"type":"Point","coordinates":[133.92348,34.66372]},"properties":{"price":260000,"use":"岡山北","zone":"","station":"店舗兼共同住宅"}},{"type":"Feature","geometry":{"type":"Point","coordinates":[133.89139,34.64771]},"properties":{"price":160000,"use":"岡山北","zone":"","station":"事務所"}},{"type":"Feature","geometry":{"type":"Point","coordinates":[133.9056,34.65038]},"properties":{"price":176000,"use":"岡山北","zone":"","station":"店舗兼共同住宅"}},{"type":"Feature","geometry":{"type":"Point","coordinates":[133.91564,34.63802]},"properties":{"price":145000,"use":"岡山北","zone":"","station":"店舗兼診療所"}},{"type":"Feature","geometry":{"type":"Point","coordinates":[133.87071,34.64698]},"properties":{"price":92500,"use":"岡山北","zone":"","station":"店舗、事務所兼作業場"}},{"type":"Feature","geometry":{"type":"Point","coordinates":[133.88221,34.64291]},"properties":{"price":131000,"use":"岡山北","zone":"","station":"事務所"}},{"type":"Feature","geometry":{"type":"Point","coordinates":[133.92468,34.64426]},"properties":{"price":121000,"use":"岡山北","zone":"","station":"店舗兼住宅"}},{"type":"Feature","geometry":{"type":"Point","coordinates":[133.86872,34.64282]},"properties":{"price":37500,"use":"岡山北","zone":"","station":"工場"}},{"type":"Feature","geometry":{"type":"Point","coordinates":[133.83348,34.62684]},"properties":{"price":60100,"use":"岡山北","zone":"","station":"空地"}},{"type":"Feature","geometry":{"type":"Point","coordinates":[133.93999,34.65346]},"properties":{"price":111000,"use":"岡山中","zone":"","station":"住宅"}},{"type":"Feature","geometry":{"type":"Point","coordinates":[133.94116,34.6512]},"properties":{"price":89400,"use":"岡山中","zone":"","station":"住宅"}},{"type":"Feature","geometry":{"type":"Point","coordinates":[133.9404,34.66618]},"properties":{"price":180000,"use":"岡山中","zone":"","station":"住宅"}},{"type":"Feature","geometry":{"type":"Point","coordinates":[133.94845,34.67464]},"properties":{"price":105000,"use":"岡山中","zone":"","station":"住宅"}},{"type":"Feature","geometry":{"type":"Point","coordinates":[133.96747,34.67874]},"properties":{"price":74500,"use":"岡山中","zone":"","station":"住宅"}},{"type":"Feature","geometry":{"type":"Point","coordinates":[133.93836,34.67641]},"properties":{"price":92800,"use":"岡山中","zone":"","station":"共同住宅"}},{"type":"Feature","geometry":{"type":"Point","coordinates":[133.95056,34.69253]},"properties":{"price":65000,"use":"岡山中","zone":"","station":"住宅"}},{"type":"Feature","geometry":{"type":"Point","coordinates":[133.95957,34.67593]},"properties":{"price":83000,"use":"岡山中","zone":"","station":"住宅"}},{"type":"Feature","geometry":{"type":"Point","coordinates":[133.95114,34.63813]},"properties":{"price":63100,"use":"岡山中","zone":"","station":"住宅"}},{"type":"Feature","geometry":{"type":"Point","coordinates":[133.96935,34.65073]},"properties":{"price":58600,"use":"岡山中","zone":"","station":"建築中"}},{"type":"Feature","geometry":{"type":"Point","coordinates":[133.98531,34.67763]},"properties":{"price":40000,"use":"岡山中","zone":"","station":"住宅"}},{"type":"Feature","geometry":{"type":"Point","coordinates":[133.9832,34.65503]},"properties":{"price":52500,"use":"岡山中","zone":"","station":"住宅"}},{"type":"Feature","geometry":{"type":"Point","coordinates":[133.96396,34.65421]},"properties":{"price":49000,"use":"岡山中","zone":"","station":"住宅"}},{"type":"Feature","geometry":{"type":"Point","coordinates":[133.94953,34.68201]},"properties":{"price":74600,"use":"岡山中","zone":"","station":"住宅"}},{"type":"Feature","geometry":{"type":"Point","coordinates":[133.95521,34.68544]},"properties":{"price":76100,"use":"岡山中","zone":"","station":"住宅"}},{"type":"Feature","geometry":{"type":"Point","coordinates":[133.97894,34.68663]},"properties":{"price":60500,"use":"岡山中","zone":"","station":"住宅"}},{"type":"Feature","geometry":{"type":"Point","coordinates":[133.97286,34.61635]},"properties":{"price":43800,"use":"岡山中","zone":"","station":"住宅"}},{"type":"Feature","geometry":{"type":"Point","coordinates":[133.97411,34.62917]},"properties":{"price":21200,"use":"岡山中","zone":"","station":"住宅"}},{"type":"Feature","geometry":{"type":"Point","coordinates":[133.99117,34.67684]},"properties":{"price":15100,"use":"岡山中","zone":"","station":"田"}},{"type":"Feature","geometry":{"type":"Point","coordinates":[133.94865,34.66776]},"properties":{"price":121000,"use":"岡山中","zone":"","station":"店舗兼事務所"}},{"type":"Feature","geometry":{"type":"Point","coordinates":[133.93998,34.67131]},"properties":{"price":171000,"use":"岡山中","zone":"","station":"店舗兼医院"}},{"type":"Feature","geometry":{"type":"Point","coordinates":[133.94111,34.65603]},"properties":{"price":156000,"use":"岡山中","zone":"","station":"店舗兼共同住宅"}},{"type":"Feature","geometry":{"type":"Point","coordinates":[133.97183,34.67402]},"properties":{"price":90700,"use":"岡山中","zone":"","station":"店舗"}},{"type":"Feature","geometry":{"type":"Point","coordinates":[133.97414,34.6127]},"properties":{"price":50700,"use":"岡山中","zone":"","station":"診療所兼住宅"}},{"type":"Feature","geometry":{"type":"Point","coordinates":[134.07962,34.76237]},"properties":{"price":28000,"use":"岡山東","zone":"","station":"住宅"}},{"type":"Feature","geometry":{"type":"Point","coordinates":[134.02635,34.64976]},"properties":{"price":43900,"use":"岡山東","zone":"","station":"住宅"}},{"type":"Feature","geometry":{"type":"Point","coordinates":[134.05112,34.70263]},"properties":{"price":34600,"use":"岡山東","zone":"","station":"住宅"}},{"type":"Feature","geometry":{"type":"Point","coordinates":[134.04201,34.73117]},"properties":{"price":43500,"use":"岡山東","zone":"","station":"住宅"}},{"type":"Feature","geometry":{"type":"Point","coordinates":[134.04642,34.66139]},"properties":{"price":30200,"use":"岡山東","zone":"","station":"住宅"}},{"type":"Feature","geometry":{"type":"Point","coordinates":[134.03437,34.66034]},"properties":{"price":50900,"use":"岡山東","zone":"","station":"住宅"}},{"type":"Feature","geometry":{"type":"Point","coordinates":[134.04186,34.64802]},"properties":{"price":30600,"use":"岡山東","zone":"","station":"住宅"}},{"type":"Feature","geometry":{"type":"Point","coordinates":[134.00405,34.6607]},"properties":{"price":50300,"use":"岡山東","zone":"","station":"住宅"}},{"type":"Feature","geometry":{"type":"Point","coordinates":[134.05612,34.62641]},"properties":{"price":22700,"use":"岡山東","zone":"","station":"住宅"}},{"type":"Feature","geometry":{"type":"Point","coordinates":[134.03796,34.73803]},"properties":{"price":42500,"use":"岡山東","zone":"","station":"住宅"}},{"type":"Feature","geometry":{"type":"Point","coordinates":[134.02325,34.69349]},"properties":{"price":36600,"use":"岡山東","zone":"","station":"住宅"}},{"type":"Feature","geometry":{"type":"Point","coordinates":[134.02805,34.68846]},"properties":{"price":19000,"use":"岡山東","zone":"","station":"住宅"}},{"type":"Feature","geometry":{"type":"Point","coordinates":[134.00836,34.62899]},"properties":{"price":16900,"use":"岡山東","zone":"","station":"住宅"}},{"type":"Feature","geometry":{"type":"Point","coordinates":[134.06532,34.61509]},"properties":{"price":11200,"use":"岡山東","zone":"","station":"住宅"}},{"type":"Feature","geometry":{"type":"Point","coordinates":[134.02824,34.66464]},"properties":{"price":23800,"use":"岡山東","zone":"","station":"住宅"}},{"type":"Feature","geometry":{"type":"Point","coordinates":[134.06215,34.70325]},"properties":{"price":17000,"use":"岡山東","zone":"","station":"住宅"}},{"type":"Feature","geometry":{"type":"Point","coordinates":[134.09924,34.73978]},"properties":{"price":7850,"use":"岡山東","zone":"","station":"住宅"}},{"type":"Feature","geometry":{"type":"Point","coordinates":[134.02454,34.73202]},"properties":{"price":11700,"use":"岡山東","zone":"","station":"住宅"}},{"type":"Feature","geometry":{"type":"Point","coordinates":[134.01193,34.65526]},"properties":{"price":47300,"use":"岡山東","zone":"","station":"住宅"}},{"type":"Feature","geometry":{"type":"Point","coordinates":[134.03132,34.65299]},"properties":{"price":71700,"use":"岡山東","zone":"","station":"店舗"}},{"type":"Feature","geometry":{"type":"Point","coordinates":[134.03869,34.73667]},"properties":{"price":54100,"use":"岡山東","zone":"","station":"店舗"}},{"type":"Feature","geometry":{"type":"Point","coordinates":[134.02137,34.69891]},"properties":{"price":55900,"use":"岡山東","zone":"","station":"事務所"}},{"type":"Feature","geometry":{"type":"Point","coordinates":[134.04571,34.72119]},"properties":{"price":46600,"use":"岡山東","zone":"","station":"店舗兼住宅"}},{"type":"Feature","geometry":{"type":"Point","coordinates":[134.02545,34.60902]},"properties":{"price":19400,"use":"岡山東","zone":"","station":"工場"}},{"type":"Feature","geometry":{"type":"Point","coordinates":[133.9413,34.60632]},"properties":{"price":74000,"use":"岡山南","zone":"","station":"住宅"}},{"type":"Feature","geometry":{"type":"Point","coordinates":[133.87709,34.53402]},"properties":{"price":24800,"use":"岡山南","zone":"","station":"住宅"}},{"type":"Feature","geometry":{"type":"Point","coordinates":[133.8837,34.62075]},"properties":{"price":60000,"use":"岡山南","zone":"","station":"住宅"}},{"type":"Feature","geometry":{"type":"Point","coordinates":[133.86875,34.61862]},"properties":{"price":59500,"use":"岡山南","zone":"","station":"住宅"}},{"type":"Feature","geometry":{"type":"Point","coordinates":[133.87606,34.60628]},"properties":{"price":56100,"use":"岡山南","zone":"","station":"住宅"}},{"type":"Feature","geometry":{"type":"Point","coordinates":[133.93242,34.62111]},"properties":{"price":62000,"use":"岡山南","zone":"","station":"住宅"}},{"type":"Feature","geometry":{"type":"Point","coordinates":[133.93698,34.61065]},"properties":{"price":63100,"use":"岡山南","zone":"","station":"住宅"}},{"type":"Feature","geometry":{"type":"Point","coordinates":[133.93339,34.62945]},"properties":{"price":70500,"use":"岡山南","zone":"","station":"住宅"}},{"type":"Feature","geometry":{"type":"Point","coordinates":[133.95699,34.58049]},"properties":{"price":34000,"use":"岡山南","zone":"","station":"住宅"}},{"type":"Feature","geometry":{"type":"Point","coordinates":[133.96155,34.58226]},"properties":{"price":25200,"use":"岡山南","zone":"","station":"住宅"}},{"type":"Feature","geometry":{"type":"Point","coordinates":[133.91556,34.62347]},"properties":{"price":89000,"use":"岡山南","zone":"","station":"住宅"}},{"type":"Feature","geometry":{"type":"Point","coordinates":[133.91382,34.636]},"properties":{"price":83000,"use":"岡山南","zone":"","station":"住宅"}},{"type":"Feature","geometry":{"type":"Point","coordinates":[133.90937,34.61908]},"properties":{"price":62800,"use":"岡山南","zone":"","station":"住宅"}},{"type":"Feature","geometry":{"type":"Point","coordinates":[133.85811,34.60689]},"properties":{"price":51100,"use":"岡山南","zone":"","station":"住宅"}},{"type":"Feature","geometry":{"type":"Point","coordinates":[133.83545,34.55096]},"properties":{"price":36500,"use":"岡山南","zone":"","station":"住宅"}},{"type":"Feature","geometry":{"type":"Point","coordinates":[133.87334,34.58807]},"properties":{"price":35100,"use":"岡山南","zone":"","station":"住宅"}},{"type":"Feature","geometry":{"type":"Point","coordinates":[133.86728,34.61122]},"properties":{"price":53800,"use":"岡山南","zone":"","station":"住宅"}},{"type":"Feature","geometry":{"type":"Point","coordinates":[133.90289,34.61133]},"properties":{"price":53700,"use":"岡山南","zone":"","station":"住宅"}},{"type":"Feature","geometry":{"type":"Point","coordinates":[133.87228,34.62585]},"properties":{"price":39400,"use":"岡山南","zone":"","station":"住宅"}},{"type":"Feature","geometry":{"type":"Point","coordinates":[133.84626,34.60772]},"properties":{"price":31800,"use":"岡山南","zone":"","station":"住宅"}},{"type":"Feature","geometry":{"type":"Point","coordinates":[133.89954,34.55741]},"properties":{"price":15700,"use":"岡山南","zone":"","station":"住宅"}},{"type":"Feature","geometry":{"type":"Point","coordinates":[133.92349,34.60517]},"properties":{"price":55000,"use":"岡山南","zone":"","station":"住宅"}},{"type":"Feature","geometry":{"type":"Point","coordinates":[133.97238,34.59002]},"properties":{"price":20900,"use":"岡山南","zone":"","station":"住宅"}},{"type":"Feature","geometry":{"type":"Point","coordinates":[133.81895,34.54765]},"properties":{"price":35500,"use":"岡山南","zone":"","station":"住宅"}},{"type":"Feature","geometry":{"type":"Point","coordinates":[133.86953,34.61795]},"properties":{"price":72900,"use":"岡山南","zone":"","station":"店舗"}},{"type":"Feature","geometry":{"type":"Point","coordinates":[133.94217,34.60624]},"properties":{"price":85000,"use":"岡山南","zone":"","station":"店舗兼事務所"}},{"type":"Feature","geometry":{"type":"Point","coordinates":[133.9201,34.62795]},"properties":{"price":73900,"use":"岡山南","zone":"","station":"事務所兼倉庫"}},{"type":"Feature","geometry":{"type":"Point","coordinates":[133.89842,34.63375]},"properties":{"price":118000,"use":"岡山南","zone":"","station":"店舗"}},{"type":"Feature","geometry":{"type":"Point","coordinates":[133.93744,34.62784]},"properties":{"price":81900,"use":"岡山南","zone":"","station":"店舗"}},{"type":"Feature","geometry":{"type":"Point","coordinates":[133.92882,34.62031]},"properties":{"price":70300,"use":"岡山南","zone":"","station":"診療所"}},{"type":"Feature","geometry":{"type":"Point","coordinates":[133.8272,34.55063]},"properties":{"price":41000,"use":"岡山南","zone":"","station":"店舗兼住宅"}},{"type":"Feature","geometry":{"type":"Point","coordinates":[133.95727,34.60307]},"properties":{"price":19000,"use":"岡山南","zone":"","station":"工場"}},{"type":"Feature","geometry":{"type":"Point","coordinates":[133.8212,34.64549]},"properties":{"price":62500,"use":"倉敷","zone":"","station":"住宅"}},{"type":"Feature","geometry":{"type":"Point","coordinates":[133.80967,34.62479]},"properties":{"price":46300,"use":"倉敷","zone":"","station":"住宅"}},{"type":"Feature","geometry":{"type":"Point","coordinates":[133.79205,34.61632]},"properties":{"price":48500,"use":"倉敷","zone":"","station":"住宅"}},{"type":"Feature","geometry":{"type":"Point","coordinates":[133.77536,34.61347]},"properties":{"price":74000,"use":"倉敷","zone":"","station":"建築中"}},{"type":"Feature","geometry":{"type":"Point","coordinates":[133.75934,34.60388]},"properties":{"price":102000,"use":"倉敷","zone":"","station":"住宅"}},{"type":"Feature","geometry":{"type":"Point","coordinates":[133.75536,34.61227]},"properties":{"price":62200,"use":"倉敷","zone":"","station":"住宅"}},{"type":"Feature","geometry":{"type":"Point","coordinates":[133.75128,34.56183]},"properties":{"price":41700,"use":"倉敷","zone":"","station":"住宅"}},{"type":"Feature","geometry":{"type":"Point","coordinates":[133.705,34.57559]},"properties":{"price":32300,"use":"倉敷","zone":"","station":"住宅"}},{"type":"Feature","geometry":{"type":"Point","coordinates":[133.71715,34.57958]},"properties":{"price":46200,"use":"倉敷","zone":"","station":"住宅"}},{"type":"Feature","geometry":{"type":"Point","coordinates":[133.7315,34.58356]},"properties":{"price":63200,"use":"倉敷","zone":"","station":"住宅"}},{"type":"Feature","geometry":{"type":"Point","coordinates":[133.73477,34.57344]},"properties":{"price":60100,"use":"倉敷","zone":"","station":"住宅"}},{"type":"Feature","geometry":{"type":"Point","coordinates":[133.67622,34.65067]},"properties":{"price":10300,"use":"倉敷","zone":"","station":"住宅"}},{"type":"Feature","geometry":{"type":"Point","coordinates":[133.74499,34.57859]},"properties":{"price":62300,"use":"倉敷","zone":"","station":"住宅"}},{"type":"Feature","geometry":{"type":"Point","coordinates":[133.76231,34.59075]},"properties":{"price":98300,"use":"倉敷","zone":"","station":"住宅"}},{"type":"Feature","geometry":{"type":"Point","coordinates":[133.79009,34.45677]},"properties":{"price":34000,"use":"倉敷","zone":"","station":"住宅"}},{"type":"Feature","geometry":{"type":"Point","coordinates":[133.7715,34.57626]},"properties":{"price":81700,"use":"倉敷","zone":"","station":"住宅"}},{"type":"Feature","geometry":{"type":"Point","coordinates":[133.76884,34.59345]},"properties":{"price":111000,"use":"倉敷","zone":"","station":"住宅"}},{"type":"Feature","geometry":{"type":"Point","coordinates":[133.779,34.59514]},"properties":{"price":80400,"use":"倉敷","zone":"","station":"住宅"}},{"type":"Feature","geometry":{"type":"Point","coordinates":[133.80884,34.56461]},"properties":{"price":40800,"use":"倉敷","zone":"","station":"住宅"}},{"type":"Feature","geometry":{"type":"Point","coordinates":[133.83152,34.57943]},"properties":{"price":67500,"use":"倉敷","zone":"","station":"住宅"}},{"type":"Feature","geometry":{"type":"Point","coordinates":[133.74126,34.56089]},"properties":{"price":38700,"use":"倉敷","zone":"","station":"住宅"}},{"type":"Feature","geometry":{"type":"Point","coordinates":[133.71711,34.54476]},"properties":{"price":36500,"use":"倉敷","zone":"","station":"住宅"}},{"type":"Feature","geometry":{"type":"Point","coordinates":[133.7392,34.55149]},"properties":{"price":49600,"use":"倉敷","zone":"","station":"住宅"}},{"type":"Feature","geometry":{"type":"Point","coordinates":[133.67753,34.57028]},"properties":{"price":57000,"use":"倉敷","zone":"","station":"住宅"}},{"type":"Feature","geometry":{"type":"Point","coordinates":[133.73306,34.54321]},"properties":{"price":52100,"use":"倉敷","zone":"","station":"住宅"}},{"type":"Feature","geometry":{"type":"Point","coordinates":[133.75389,34.57997]},"properties":{"price":73800,"use":"倉敷","zone":"","station":"住宅"}},{"type":"Feature","geometry":{"type":"Point","coordinates":[133.71081,34.58766]},"properties":{"price":38400,"use":"倉敷","zone":"","station":"住宅"}},{"type":"Feature","geometry":{"type":"Point","coordinates":[133.76917,34.53926]},"properties":{"price":42500,"use":"倉敷","zone":"","station":"住宅"}},{"type":"Feature","geometry":{"type":"Point","coordinates":[133.74882,34.53154]},"properties":{"price":43000,"use":"倉敷","zone":"","station":"住宅"}},{"type":"Feature","geometry":{"type":"Point","coordinates":[133.76977,34.50856]},"properties":{"price":22600,"use":"倉敷","zone":"","station":"住宅"}},{"type":"Feature","geometry":{"type":"Point","coordinates":[133.77434,34.47081]},"properties":{"price":22000,"use":"倉敷","zone":"","station":"住宅"}},{"type":"Feature","geometry":{"type":"Point","coordinates":[133.79671,34.4379]},"properties":{"price":31800,"use":"倉敷","zone":"","station":"住宅"}},{"type":"Feature","geometry":{"type":"Point","coordinates":[133.77594,34.46172]},"properties":{"price":19700,"use":"倉敷","zone":"","station":"住宅"}},{"type":"Feature","geometry":{"type":"Point","coordinates":[133.7993,34.47096]},"properties":{"price":41800,"use":"倉敷","zone":"","station":"住宅"}},{"type":"Feature","geometry":{"type":"Point","coordinates":[133.79738,34.48119]},"properties":{"price":31100,"use":"倉敷","zone":"","station":"住宅"}},{"type":"Feature","geometry":{"type":"Point","coordinates":[133.81508,34.49914]},"properties":{"price":27800,"use":"倉敷","zone":"","station":"住宅"}},{"type":"Feature","geometry":{"type":"Point","coordinates":[133.64695,34.53738]},"properties":{"price":29600,"use":"倉敷","zone":"","station":"住宅"}},{"type":"Feature","geometry":{"type":"Point","coordinates":[133.79583,34.52717]},"properties":{"price":24300,"use":"倉敷","zone":"","station":"住宅"}},{"type":"Feature","geometry":{"type":"Point","coordinates":[133.80462,34.4772]},"properties":{"price":36700,"use":"倉敷","zone":"","station":"空地"}},{"type":"Feature","geometry":{"type":"Point","coordinates":[133.8167,34.53553]},"properties":{"price":30500,"use":"倉敷","zone":"","station":"住宅"}},{"type":"Feature","geometry":{"type":"Point","coordinates":[133.69153,34.55302]},"properties":{"price":36800,"use":"倉敷","zone":"","station":"住宅"}},{"type":"Feature","geometry":{"type":"Point","coordinates":[133.67509,34.53639]},"properties":{"price":27900,"use":"倉敷","zone":"","station":"住宅"}},{"type":"Feature","geometry":{"type":"Point","coordinates":[133.67081,34.53875]},"properties":{"price":39600,"use":"倉敷","zone":"","station":"住宅"}},{"type":"Feature","geometry":{"type":"Point","coordinates":[133.69371,34.5627]},"properties":{"price":53100,"use":"倉敷","zone":"","station":"住宅"}},{"type":"Feature","geometry":{"type":"Point","coordinates":[133.65968,34.52547]},"properties":{"price":24700,"use":"倉敷","zone":"","station":"住宅"}},{"type":"Feature","geometry":{"type":"Point","coordinates":[133.65989,34.54378]},"properties":{"price":31400,"use":"倉敷","zone":"","station":"住宅"}},{"type":"Feature","geometry":{"type":"Point","coordinates":[133.67118,34.55006]},"properties":{"price":52200,"use":"倉敷","zone":"","station":"住宅"}},{"type":"Feature","geometry":{"type":"Point","coordinates":[133.68392,34.5505]},"properties":{"price":54800,"use":"倉敷","zone":"","station":"住宅"}},{"type":"Feature","geometry":{"type":"Point","coordinates":[133.70872,34.63751]},"properties":{"price":34200,"use":"倉敷","zone":"","station":"空地"}},{"type":"Feature","geometry":{"type":"Point","coordinates":[133.68537,34.62558]},"properties":{"price":27300,"use":"倉敷","zone":"","station":"住宅"}},{"type":"Feature","geometry":{"type":"Point","coordinates":[133.78718,34.61329]},"properties":{"price":74300,"use":"倉敷","zone":"","station":"住宅"}},{"type":"Feature","geometry":{"type":"Point","coordinates":[133.74699,34.59757]},"properties":{"price":71300,"use":"倉敷","zone":"","station":"住宅"}},{"type":"Feature","geometry":{"type":"Point","coordinates":[133.6898,34.56785]},"properties":{"price":56900,"use":"倉敷","zone":"","station":"住宅"}},{"type":"Feature","geometry":{"type":"Point","coordinates":[133.75374,34.58521]},"properties":{"price":83400,"use":"倉敷","zone":"","station":"住宅"}},{"type":"Feature","geometry":{"type":"Point","coordinates":[133.77969,34.60231]},"properties":{"price":108000,"use":"倉敷","zone":"","station":"住宅"}},{"type":"Feature","geometry":{"type":"Point","coordinates":[133.7891,34.60592]},"properties":{"price":60500,"use":"倉敷","zone":"","station":"住宅"}},{"type":"Feature","geometry":{"type":"Point","coordinates":[133.73228,34.59499]},"properties":{"price":63100,"use":"倉敷","zone":"","station":"住宅"}},{"type":"Feature","geometry":{"type":"Point","coordinates":[133.70932,34.64788]},"properties":{"price":25300,"use":"倉敷","zone":"","station":"住宅"}},{"type":"Feature","geometry":{"type":"Point","coordinates":[133.76998,34.56917]},"properties":{"price":72300,"use":"倉敷","zone":"","station":"住宅"}},{"type":"Feature","geometry":{"type":"Point","coordinates":[133.77948,34.59754]},"properties":{"price":84300,"use":"倉敷","zone":"","station":"住宅"}},{"type":"Feature","geometry":{"type":"Point","coordinates":[133.74795,34.57296]},"properties":{"price":61000,"use":"倉敷","zone":"","station":"住宅"}},{"type":"Feature","geometry":{"type":"Point","coordinates":[133.82022,34.56985]},"properties":{"price":61000,"use":"倉敷","zone":"","station":"住宅"}},{"type":"Feature","geometry":{"type":"Point","coordinates":[133.75289,34.54712]},"properties":{"price":48000,"use":"倉敷","zone":"","station":"住宅"}},{"type":"Feature","geometry":{"type":"Point","coordinates":[133.74707,34.52314]},"properties":{"price":33600,"use":"倉敷","zone":"","station":"住宅"}},{"type":"Feature","geometry":{"type":"Point","coordinates":[133.82314,34.47713]},"properties":{"price":41200,"use":"倉敷","zone":"","station":"住宅"}},{"type":"Feature","geometry":{"type":"Point","coordinates":[133.71988,34.53258]},"properties":{"price":34700,"use":"倉敷","zone":"","station":"住宅"}},{"type":"Feature","geometry":{"type":"Point","coordinates":[133.76832,34.52631]},"properties":{"price":41800,"use":"倉敷","zone":"","station":"住宅"}},{"type":"Feature","geometry":{"type":"Point","coordinates":[133.8656,34.46909]},"properties":{"price":24400,"use":"倉敷","zone":"","station":"住宅"}},{"type":"Feature","geometry":{"type":"Point","coordinates":[133.82653,34.47221]},"properties":{"price":48100,"use":"倉敷","zone":"","station":"住宅"}},{"type":"Feature","geometry":{"type":"Point","coordinates":[133.65348,34.51967]},"properties":{"price":28100,"use":"倉敷","zone":"","station":"住宅"}},{"type":"Feature","geometry":{"type":"Point","coordinates":[133.77616,34.5856]},"properties":{"price":83700,"use":"倉敷","zone":"","station":"住宅"}},{"type":"Feature","geometry":{"type":"Point","coordinates":[133.77668,34.63228]},"properties":{"price":34600,"use":"倉敷","zone":"","station":"住宅"}},{"type":"Feature","geometry":{"type":"Point","coordinates":[133.82117,34.65518]},"properties":{"price":22800,"use":"倉敷","zone":"","station":"住宅"}},{"type":"Feature","geometry":{"type":"Point","coordinates":[133.83838,34.58675]},"properties":{"price":23500,"use":"倉敷","zone":"","station":"住宅"}},{"type":"Feature","geometry":{"type":"Point","coordinates":[133.63094,34.50427]},"properties":{"price":15300,"use":"倉敷","zone":"","station":"住宅"}},{"type":"Feature","geometry":{"type":"Point","coordinates":[133.78843,34.56357]},"properties":{"price":21900,"use":"倉敷","zone":"","station":"住宅"}},{"type":"Feature","geometry":{"type":"Point","coordinates":[133.79172,34.49182]},"properties":{"price":19400,"use":"倉敷","zone":"","station":"住宅"}},{"type":"Feature","geometry":{"type":"Point","coordinates":[133.71178,34.56463]},"properties":{"price":20300,"use":"倉敷","zone":"","station":"住宅"}},{"type":"Feature","geometry":{"type":"Point","coordinates":[133.67791,34.59725]},"properties":{"price":12000,"use":"倉敷","zone":"","station":"住宅"}},{"type":"Feature","geometry":{"type":"Point","coordinates":[133.70129,34.58934]},"properties":{"price":20400,"use":"倉敷","zone":"","station":"住宅"}},{"type":"Feature","geometry":{"type":"Point","coordinates":[133.76563,34.5935]},"properties":{"price":146000,"use":"倉敷","zone":"","station":"共同住宅"}},{"type":"Feature","geometry":{"type":"Point","coordinates":[133.70816,34.54804]},"properties":{"price":42500,"use":"倉敷","zone":"","station":"住宅"}},{"type":"Feature","geometry":{"type":"Point","coordinates":[133.77641,34.59867]},"properties":{"price":122000,"use":"倉敷","zone":"","station":"住宅"}},{"type":"Feature","geometry":{"type":"Point","coordinates":[133.65372,34.54424]},"properties":{"price":10600,"use":"倉敷","zone":"","station":"田"}},{"type":"Feature","geometry":{"type":"Point","coordinates":[133.76857,34.60087]},"properties":{"price":203000,"use":"倉敷","zone":"","station":"店舗兼住宅"}},{"type":"Feature","geometry":{"type":"Point","coordinates":[133.77306,34.60078]},"properties":{"price":185000,"use":"倉敷","zone":"","station":"事務所兼住宅"}},{"type":"Feature","geometry":{"type":"Point","coordinates":[133.76187,34.61001]},"properties":{"price":115000,"use":"倉敷","zone":"","station":"店舗"}},{"type":"Feature","geometry":{"type":"Point","coordinates":[133.76929,34.58938]},"properties":{"price":132000,"use":"倉敷","zone":"","station":"店舗"}},{"type":"Feature","geometry":{"type":"Point","coordinates":[133.74161,34.58583]},"properties":{"price":67500,"use":"倉敷","zone":"","station":"店舗兼住宅"}},{"type":"Feature","geometry":{"type":"Point","coordinates":[133.76537,34.59732]},"properties":{"price":104000,"use":"倉敷","zone":"","station":"店舗兼住宅"}},{"type":"Feature","geometry":{"type":"Point","coordinates":[133.73829,34.54041]},"properties":{"price":56300,"use":"倉敷","zone":"","station":"事務所"}},{"type":"Feature","geometry":{"type":"Point","coordinates":[133.70648,34.58552]},"properties":{"price":39600,"use":"倉敷","zone":"","station":"空地"}},{"type":"Feature","geometry":{"type":"Point","coordinates":[133.80266,34.46375]},"properties":{"price":65800,"use":"倉敷","zone":"","station":"店舗"}},{"type":"Feature","geometry":{"type":"Point","coordinates":[133.82593,34.47526]},"properties":{"price":41800,"use":"倉敷","zone":"","station":"店舗兼住宅"}},{"type":"Feature","geometry":{"type":"Point","coordinates":[133.6706,34.54388]},"properties":{"price":55100,"use":"倉敷","zone":"","station":"店舗"}},{"type":"Feature","geometry":{"type":"Point","coordinates":[133.68027,34.55548]},"properties":{"price":82600,"use":"倉敷","zone":"","station":"店舗"}},{"type":"Feature","geometry":{"type":"Point","coordinates":[133.68114,34.56198]},"properties":{"price":130000,"use":"倉敷","zone":"","station":"店舗兼共同住宅"}},{"type":"Feature","geometry":{"type":"Point","coordinates":[133.79758,34.62551]},"properties":{"price":77700,"use":"倉敷","zone":"","station":"店舗"}},{"type":"Feature","geometry":{"type":"Point","coordinates":[133.80438,34.46522]},"properties":{"price":77000,"use":"倉敷","zone":"","station":"医院"}},{"type":"Feature","geometry":{"type":"Point","coordinates":[133.76518,34.6004]},"properties":{"price":148000,"use":"倉敷","zone":"","station":"店舗"}},{"type":"Feature","geometry":{"type":"Point","coordinates":[133.75514,34.59309]},"properties":{"price":110000,"use":"倉敷","zone":"","station":"事務所"}},{"type":"Feature","geometry":{"type":"Point","coordinates":[133.82445,34.57684]},"properties":{"price":71400,"use":"倉敷","zone":"","station":"店舗兼事務所"}},{"type":"Feature","geometry":{"type":"Point","coordinates":[133.748,34.55622]},"properties":{"price":52300,"use":"倉敷","zone":"","station":"店舗"}},{"type":"Feature","geometry":{"type":"Point","coordinates":[133.80096,34.49091]},"properties":{"price":40500,"use":"倉敷","zone":"","station":"工場、住宅兼事務所"}},{"type":"Feature","geometry":{"type":"Point","coordinates":[133.80592,34.45777]},"properties":{"price":44100,"use":"倉敷","zone":"","station":"店舗兼住宅"}},{"type":"Feature","geometry":{"type":"Point","coordinates":[133.68245,34.53153]},"properties":{"price":53200,"use":"倉敷","zone":"","station":"店舗兼住宅"}},{"type":"Feature","geometry":{"type":"Point","coordinates":[133.74423,34.5396]},"properties":{"price":44200,"use":"倉敷","zone":"","station":"店舗兼住宅"}},{"type":"Feature","geometry":{"type":"Point","coordinates":[133.73469,34.59451]},"properties":{"price":78100,"use":"倉敷","zone":"","station":"店舗"}},{"type":"Feature","geometry":{"type":"Point","coordinates":[133.74683,34.51884]},"properties":{"price":30300,"use":"倉敷","zone":"","station":"倉庫"}},{"type":"Feature","geometry":{"type":"Point","coordinates":[133.73116,34.51235]},"properties":{"price":20000,"use":"倉敷","zone":"","station":"工場"}},{"type":"Feature","geometry":{"type":"Point","coordinates":[133.67416,34.51086]},"properties":{"price":20000,"use":"倉敷","zone":"","station":"工場"}},{"type":"Feature","geometry":{"type":"Point","coordinates":[133.73377,34.53268]},"properties":{"price":35600,"use":"倉敷","zone":"","station":"事務所兼倉庫"}},{"type":"Feature","geometry":{"type":"Point","coordinates":[133.69937,34.57815]},"properties":{"price":25000,"use":"倉敷","zone":"","station":"工場兼事務所"}},{"type":"Feature","geometry":{"type":"Point","coordinates":[134.00548,35.08739]},"properties":{"price":30600,"use":"津山","zone":"","station":"住宅"}},{"type":"Feature","geometry":{"type":"Point","coordinates":[134.00023,35.08027]},"properties":{"price":43600,"use":"津山","zone":"","station":"住宅"}},{"type":"Feature","geometry":{"type":"Point","coordinates":[134.0209,35.08078]},"properties":{"price":30800,"use":"津山","zone":"","station":"住宅"}},{"type":"Feature","geometry":{"type":"Point","coordinates":[133.96261,35.06303]},"properties":{"price":18300,"use":"津山","zone":"","station":"住宅"}},{"type":"Feature","geometry":{"type":"Point","coordinates":[134.03689,35.0686]},"properties":{"price":20800,"use":"津山","zone":"","station":"住宅"}},{"type":"Feature","geometry":{"type":"Point","coordinates":[134.13108,35.11151]},"properties":{"price":9700,"use":"津山","zone":"","station":"住宅"}},{"type":"Feature","geometry":{"type":"Point","coordinates":[134.11266,35.10131]},"properties":{"price":5670,"use":"津山","zone":"","station":"住宅"}},{"type":"Feature","geometry":{"type":"Point","coordinates":[133.89593,35.06123]},"properties":{"price":7650,"use":"津山","zone":"","station":"住宅"}},{"type":"Feature","geometry":{"type":"Point","coordinates":[133.9049,35.0331]},"properties":{"price":3060,"use":"津山","zone":"","station":"住宅"}},{"type":"Feature","geometry":{"type":"Point","coordinates":[134.00181,35.05867]},"properties":{"price":58900,"use":"津山","zone":"","station":"店舗兼住宅"}},{"type":"Feature","geometry":{"type":"Point","coordinates":[133.99874,35.06229]},"properties":{"price":48500,"use":"津山","zone":"","station":"店舗兼住宅"}},{"type":"Feature","geometry":{"type":"Point","coordinates":[134.13152,35.112]},"properties":{"price":15400,"use":"津山","zone":"","station":"店舗、倉庫兼住宅"}},{"type":"Feature","geometry":{"type":"Point","coordinates":[134.04011,35.05915]},"properties":{"price":65100,"use":"津山","zone":"","station":"店舗"}},{"type":"Feature","geometry":{"type":"Point","coordinates":[133.94571,34.52245]},"properties":{"price":32100,"use":"玉野","zone":"","station":"住宅"}},{"type":"Feature","geometry":{"type":"Point","coordinates":[133.94324,34.51702]},"properties":{"price":47500,"use":"玉野","zone":"","station":"住宅"}},{"type":"Feature","geometry":{"type":"Point","coordinates":[133.95752,34.50277]},"properties":{"price":36100,"use":"玉野","zone":"","station":"住宅"}},{"type":"Feature","geometry":{"type":"Point","coordinates":[133.92056,34.46615]},"properties":{"price":31000,"use":"玉野","zone":"","station":"住宅"}},{"type":"Feature","geometry":{"type":"Point","coordinates":[133.92503,34.45886]},"properties":{"price":32000,"use":"玉野","zone":"","station":"住宅"}},{"type":"Feature","geometry":{"type":"Point","coordinates":[133.98875,34.54588]},"properties":{"price":21600,"use":"玉野","zone":"","station":"住宅"}},{"type":"Feature","geometry":{"type":"Point","coordinates":[133.89473,34.54029]},"properties":{"price":41000,"use":"玉野","zone":"","station":"住宅"}},{"type":"Feature","geometry":{"type":"Point","coordinates":[133.89229,34.50093]},"properties":{"price":36600,"use":"玉野","zone":"","station":"住宅"}},{"type":"Feature","geometry":{"type":"Point","coordinates":[133.91137,34.48315]},"properties":{"price":31000,"use":"玉野","zone":"","station":"住宅"}},{"type":"Feature","geometry":{"type":"Point","coordinates":[133.94581,34.55252]},"properties":{"price":32100,"use":"玉野","zone":"","station":"住宅"}},{"type":"Feature","geometry":{"type":"Point","coordinates":[133.95749,34.5194]},"properties":{"price":39900,"use":"玉野","zone":"","station":"住宅"}},{"type":"Feature","geometry":{"type":"Point","coordinates":[133.88369,34.49449]},"properties":{"price":16400,"use":"玉野","zone":"","station":"住宅"}},{"type":"Feature","geometry":{"type":"Point","coordinates":[133.96592,34.53235]},"properties":{"price":10600,"use":"玉野","zone":"","station":"住宅"}},{"type":"Feature","geometry":{"type":"Point","coordinates":[133.95174,34.49529]},"properties":{"price":55300,"use":"玉野","zone":"","station":"店舗兼住宅"}},{"type":"Feature","geometry":{"type":"Point","coordinates":[133.94708,34.49315]},"properties":{"price":62700,"use":"玉野","zone":"","station":"店舗兼事務所"}},{"type":"Feature","geometry":{"type":"Point","coordinates":[133.94034,34.48921]},"properties":{"price":37900,"use":"玉野","zone":"","station":"店舗兼住宅"}},{"type":"Feature","geometry":{"type":"Point","coordinates":[133.93274,34.47958]},"properties":{"price":38600,"use":"玉野","zone":"","station":"店舗兼事務所"}},{"type":"Feature","geometry":{"type":"Point","coordinates":[133.94572,34.48935]},"properties":{"price":61400,"use":"玉野","zone":"","station":"店舗兼住宅"}},{"type":"Feature","geometry":{"type":"Point","coordinates":[133.90624,34.48187]},"properties":{"price":17300,"use":"玉野","zone":"","station":"倉庫兼事務所"}},{"type":"Feature","geometry":{"type":"Point","coordinates":[133.49715,34.50519]},"properties":{"price":42000,"use":"笠岡","zone":"","station":"住宅"}},{"type":"Feature","geometry":{"type":"Point","coordinates":[133.52407,34.50018]},"properties":{"price":31900,"use":"笠岡","zone":"","station":"住宅"}},{"type":"Feature","geometry":{"type":"Point","coordinates":[133.52263,34.49697]},"properties":{"price":50300,"use":"笠岡","zone":"","station":"住宅"}},{"type":"Feature","geometry":{"type":"Point","coordinates":[133.52073,34.48698]},"properties":{"price":36400,"use":"笠岡","zone":"","station":"住宅"}},{"type":"Feature","geometry":{"type":"Point","coordinates":[133.49127,34.51084]},"properties":{"price":25700,"use":"笠岡","zone":"","station":"住宅"}},{"type":"Feature","geometry":{"type":"Point","coordinates":[133.48182,34.51172]},"properties":{"price":29700,"use":"笠岡","zone":"","station":"住宅"}},{"type":"Feature","geometry":{"type":"Point","coordinates":[133.51209,34.51855]},"properties":{"price":31800,"use":"笠岡","zone":"","station":"住宅"}},{"type":"Feature","geometry":{"type":"Point","coordinates":[133.45774,34.49967]},"properties":{"price":27500,"use":"笠岡","zone":"","station":"住宅"}},{"type":"Feature","geometry":{"type":"Point","coordinates":[133.4964,34.53275]},"properties":{"price":14700,"use":"笠岡","zone":"","station":"住宅"}},{"type":"Feature","geometry":{"type":"Point","coordinates":[133.53149,34.57315]},"properties":{"price":10200,"use":"笠岡","zone":"","station":"住宅"}},{"type":"Feature","geometry":{"type":"Point","coordinates":[133.5313,34.52169]},"properties":{"price":17200,"use":"笠岡","zone":"","station":"住宅"}},{"type":"Feature","geometry":{"type":"Point","coordinates":[133.51199,34.47337]},"properties":{"price":14000,"use":"笠岡","zone":"","station":"住宅"}},{"type":"Feature","geometry":{"type":"Point","coordinates":[133.51439,34.49839]},"properties":{"price":68900,"use":"笠岡","zone":"","station":"店舗兼事務所"}},{"type":"Feature","geometry":{"type":"Point","coordinates":[133.50726,34.50421]},"properties":{"price":43000,"use":"笠岡","zone":"","station":"店舗兼住宅"}},{"type":"Feature","geometry":{"type":"Point","coordinates":[133.50622,34.50578]},"properties":{"price":72500,"use":"笠岡","zone":"","station":"店舗兼住宅"}},{"type":"Feature","geometry":{"type":"Point","coordinates":[133.4626,34.59971]},"properties":{"price":33100,"use":"井原","zone":"","station":"住宅"}},{"type":"Feature","geometry":{"type":"Point","coordinates":[133.49837,34.59066]},"properties":{"price":19400,"use":"井原","zone":"","station":"住宅"}},{"type":"Feature","geometry":{"type":"Point","coordinates":[133.43546,34.58154]},"properties":{"price":32700,"use":"井原","zone":"","station":"住宅"}},{"type":"Feature","geometry":{"type":"Point","coordinates":[133.46651,34.59734]},"properties":{"price":50300,"use":"井原","zone":"","station":"事務所"}},{"type":"Feature","geometry":{"type":"Point","coordinates":[133.46529,34.59339]},"properties":{"price":41800,"use":"井原","zone":"","station":"事務所兼住宅"}},{"type":"Feature","geometry":{"type":"Point","coordinates":[133.49539,34.57791]},"properties":{"price":11500,"use":"井原","zone":"","station":"倉庫"}},{"type":"Feature","geometry":{"type":"Point","coordinates":[133.74233,34.66856]},"properties":{"price":60900,"use":"総社","zone":"","station":"住宅"}},{"type":"Feature","geometry":{"type":"Point","coordinates":[133.74822,34.66877]},"properties":{"price":62800,"use":"総社","zone":"","station":"住宅"}},{"type":"Feature","geometry":{"type":"Point","coordinates":[133.76649,34.68003]},"properties":{"price":49000,"use":"総社","zone":"","station":"住宅"}},{"type":"Feature","geometry":{"type":"Point","coordinates":[133.7294,34.66883]},"properties":{"price":32100,"use":"総社","zone":"","station":"住宅"}},{"type":"Feature","geometry":{"type":"Point","coordinates":[133.7656,34.66073]},"properties":{"price":41700,"use":"総社","zone":"","station":"住宅"}},{"type":"Feature","geometry":{"type":"Point","coordinates":[133.76023,34.65806]},"properties":{"price":24800,"use":"総社","zone":"","station":"住宅"}},{"type":"Feature","geometry":{"type":"Point","coordinates":[133.73318,34.64551]},"properties":{"price":45400,"use":"総社","zone":"","station":"住宅"}},{"type":"Feature","geometry":{"type":"Point","coordinates":[133.71881,34.70571]},"properties":{"price":17000,"use":"総社","zone":"","station":"住宅"}},{"type":"Feature","geometry":{"type":"Point","coordinates":[133.76048,34.68541]},"properties":{"price":28300,"use":"総社","zone":"","station":"住宅"}},{"type":"Feature","geometry":{"type":"Point","coordinates":[133.72056,34.65703]},"properties":{"price":16100,"use":"総社","zone":"","station":"住宅"}},{"type":"Feature","geometry":{"type":"Point","coordinates":[133.6544,34.66516]},"properties":{"price":9780,"use":"総社","zone":"","station":"住宅"}},{"type":"Feature","geometry":{"type":"Point","coordinates":[133.77317,34.65343]},"properties":{"price":15700,"use":"総社","zone":"","station":"住宅"}},{"type":"Feature","geometry":{"type":"Point","coordinates":[133.7405,34.64595]},"properties":{"price":23300,"use":"総社","zone":"","station":"住宅"}},{"type":"Feature","geometry":{"type":"Point","coordinates":[133.76625,34.67681]},"properties":{"price":39100,"use":"総社","zone":"","station":"住宅"}},{"type":"Feature","geometry":{"type":"Point","coordinates":[133.75335,34.66935]},"properties":{"price":65100,"use":"総社","zone":"","station":"店舗"}},{"type":"Feature","geometry":{"type":"Point","coordinates":[133.73923,34.67311]},"properties":{"price":73600,"use":"総社","zone":"","station":"店舗兼住宅"}},{"type":"Feature","geometry":{"type":"Point","coordinates":[133.72968,34.67228]},"properties":{"price":45700,"use":"総社","zone":"","station":"店舗兼作業所"}},{"type":"Feature","geometry":{"type":"Point","coordinates":[133.73409,34.66084]},"properties":{"price":18900,"use":"総社","zone":"","station":"工場"}},{"type":"Feature","geometry":{"type":"Point","coordinates":[133.61971,34.78525]},"properties":{"price":34900,"use":"高梁","zone":"","station":"住宅"}},{"type":"Feature","geometry":{"type":"Point","coordinates":[133.61746,34.79757]},"properties":{"price":42600,"use":"高梁","zone":"","station":"住宅"}},{"type":"Feature","geometry":{"type":"Point","coordinates":[133.59494,34.78058]},"properties":{"price":24000,"use":"高梁","zone":"","station":"住宅"}},{"type":"Feature","geometry":{"type":"Point","coordinates":[133.5481,34.78419]},"properties":{"price":21700,"use":"高梁","zone":"","station":"住宅"}},{"type":"Feature","geometry":{"type":"Point","coordinates":[133.53046,34.782]},"properties":{"price":15200,"use":"高梁","zone":"","station":"住宅"}},{"type":"Feature","geometry":{"type":"Point","coordinates":[133.61539,34.78896]},"properties":{"price":70800,"use":"高梁","zone":"","station":"店舗"}},{"type":"Feature","geometry":{"type":"Point","coordinates":[133.61581,34.79267]},"properties":{"price":46700,"use":"高梁","zone":"","station":"店舗"}},{"type":"Feature","geometry":{"type":"Point","coordinates":[133.5466,34.78219]},"properties":{"price":28900,"use":"高梁","zone":"","station":"事務所兼住宅"}},{"type":"Feature","geometry":{"type":"Point","coordinates":[133.45417,34.9902]},"properties":{"price":37700,"use":"新見","zone":"","station":"住宅"}},{"type":"Feature","geometry":{"type":"Point","coordinates":[133.47333,34.97958]},"properties":{"price":30300,"use":"新見","zone":"","station":"住宅"}},{"type":"Feature","geometry":{"type":"Point","coordinates":[133.43993,34.99569]},"properties":{"price":24200,"use":"新見","zone":"","station":"住宅"}},{"type":"Feature","geometry":{"type":"Point","coordinates":[133.46027,34.98909]},"properties":{"price":43800,"use":"新見","zone":"","station":"店舗兼事務所"}},{"type":"Feature","geometry":{"type":"Point","coordinates":[134.16766,34.74287]},"properties":{"price":26000,"use":"備前","zone":"","station":"住宅"}},{"type":"Feature","geometry":{"type":"Point","coordinates":[134.27581,34.79918]},"properties":{"price":11100,"use":"備前","zone":"","station":"住宅"}},{"type":"Feature","geometry":{"type":"Point","coordinates":[134.23596,34.73028]},"properties":{"price":15300,"use":"備前","zone":"","station":"住宅"}},{"type":"Feature","geometry":{"type":"Point","coordinates":[134.29325,34.74167]},"properties":{"price":25000,"use":"備前","zone":"","station":"住宅"}},{"type":"Feature","geometry":{"type":"Point","coordinates":[134.27094,34.73357]},"properties":{"price":35500,"use":"備前","zone":"","station":"住宅"}},{"type":"Feature","geometry":{"type":"Point","coordinates":[134.18695,34.74427]},"properties":{"price":43600,"use":"備前","zone":"","station":"事務所"}},{"type":"Feature","geometry":{"type":"Point","coordinates":[134.16139,34.74102]},"properties":{"price":39100,"use":"備前","zone":"","station":"店舗兼住宅"}},{"type":"Feature","geometry":{"type":"Point","coordinates":[134.27353,34.7341]},"properties":{"price":47500,"use":"備前","zone":"","station":"店舗"}},{"type":"Feature","geometry":{"type":"Point","coordinates":[134.02726,34.75675]},"properties":{"price":25300,"use":"赤磐","zone":"","station":"住宅"}},{"type":"Feature","geometry":{"type":"Point","coordinates":[134.01358,34.7489]},"properties":{"price":26500,"use":"赤磐","zone":"","station":"住宅"}},{"type":"Feature","geometry":{"type":"Point","coordinates":[134.0359,34.7774]},"properties":{"price":19200,"use":"赤磐","zone":"","station":"住宅"}},{"type":"Feature","geometry":{"type":"Point","coordinates":[134.04014,34.78741]},"properties":{"price":15400,"use":"赤磐","zone":"","station":"住宅"}},{"type":"Feature","geometry":{"type":"Point","coordinates":[134.00741,34.76152]},"properties":{"price":10700,"use":"赤磐","zone":"","station":"住宅"}},{"type":"Feature","geometry":{"type":"Point","coordinates":[133.69186,35.0831]},"properties":{"price":22900,"use":"真庭","zone":"","station":"住宅"}},{"type":"Feature","geometry":{"type":"Point","coordinates":[133.68449,35.08435]},"properties":{"price":16000,"use":"真庭","zone":"","station":"住宅"}},{"type":"Feature","geometry":{"type":"Point","coordinates":[133.74883,35.01479]},"properties":{"price":20300,"use":"真庭","zone":"","station":"住宅"}},{"type":"Feature","geometry":{"type":"Point","coordinates":[133.74941,35.05145]},"properties":{"price":11900,"use":"真庭","zone":"","station":"住宅"}},{"type":"Feature","geometry":{"type":"Point","coordinates":[133.73216,35.19678]},"properties":{"price":18400,"use":"真庭","zone":"","station":"住宅"}},{"type":"Feature","geometry":{"type":"Point","coordinates":[133.73244,35.19212]},"properties":{"price":10300,"use":"真庭","zone":"","station":"住宅"}},{"type":"Feature","geometry":{"type":"Point","coordinates":[133.74524,35.08215]},"properties":{"price":29800,"use":"真庭","zone":"","station":"住宅"}},{"type":"Feature","geometry":{"type":"Point","coordinates":[133.75932,35.07758]},"properties":{"price":16700,"use":"真庭","zone":"","station":"住宅"}},{"type":"Feature","geometry":{"type":"Point","coordinates":[133.69238,35.08075]},"properties":{"price":28400,"use":"真庭","zone":"","station":"店舗兼住宅"}},{"type":"Feature","geometry":{"type":"Point","coordinates":[133.75047,35.01867]},"properties":{"price":27600,"use":"真庭","zone":"","station":"店舗兼住宅"}},{"type":"Feature","geometry":{"type":"Point","coordinates":[133.73194,35.20043]},"properties":{"price":26200,"use":"真庭","zone":"","station":"店舗"}},{"type":"Feature","geometry":{"type":"Point","coordinates":[133.74708,35.07432]},"properties":{"price":41800,"use":"真庭","zone":"","station":"店舗"}},{"type":"Feature","geometry":{"type":"Point","coordinates":[134.1378,34.99685]},"properties":{"price":23000,"use":"美作","zone":"","station":"住宅"}},{"type":"Feature","geometry":{"type":"Point","coordinates":[134.15602,35.00268]},"properties":{"price":14200,"use":"美作","zone":"","station":"住宅"}},{"type":"Feature","geometry":{"type":"Point","coordinates":[134.1577,35.01918]},"properties":{"price":44000,"use":"美作","zone":"","station":"店舗"}},{"type":"Feature","geometry":{"type":"Point","coordinates":[133.62616,34.54323]},"properties":{"price":43500,"use":"浅口","zone":"","station":"住宅"}},{"type":"Feature","geometry":{"type":"Point","coordinates":[133.57766,34.51614]},"properties":{"price":34800,"use":"浅口","zone":"","station":"住宅"}},{"type":"Feature","geometry":{"type":"Point","coordinates":[133.62599,34.53459]},"properties":{"price":29600,"use":"浅口","zone":"","station":"住宅"}},{"type":"Feature","geometry":{"type":"Point","coordinates":[133.586,34.54152]},"properties":{"price":31900,"use":"浅口","zone":"","station":"住宅"}},{"type":"Feature","geometry":{"type":"Point","coordinates":[133.6012,34.54317]},"properties":{"price":15600,"use":"浅口","zone":"","station":"住宅"}},{"type":"Feature","geometry":{"type":"Point","coordinates":[133.62414,34.53984]},"properties":{"price":42900,"use":"浅口","zone":"","station":"店舗兼住宅"}},{"type":"Feature","geometry":{"type":"Point","coordinates":[133.58702,34.53849]},"properties":{"price":50300,"use":"浅口","zone":"","station":"店舗兼医院"}},{"type":"Feature","geometry":{"type":"Point","coordinates":[134.14459,34.8037]},"properties":{"price":18200,"use":"和気","zone":"","station":"住宅"}},{"type":"Feature","geometry":{"type":"Point","coordinates":[134.11873,34.79847]},"properties":{"price":10300,"use":"和気","zone":"","station":"住宅"}},{"type":"Feature","geometry":{"type":"Point","coordinates":[134.15201,34.79754]},"properties":{"price":33400,"use":"和気","zone":"","station":"店舗"}},{"type":"Feature","geometry":{"type":"Point","coordinates":[133.82511,34.60177]},"properties":{"price":66000,"use":"早島","zone":"","station":"住宅"}},{"type":"Feature","geometry":{"type":"Point","coordinates":[133.83223,34.61457]},"properties":{"price":48600,"use":"早島","zone":"","station":"住宅"}},{"type":"Feature","geometry":{"type":"Point","coordinates":[133.81603,34.59976]},"properties":{"price":52600,"use":"早島","zone":"","station":"住宅"}},{"type":"Feature","geometry":{"type":"Point","coordinates":[133.82701,34.60357]},"properties":{"price":67100,"use":"早島","zone":"","station":"店舗兼住宅"}},{"type":"Feature","geometry":{"type":"Point","coordinates":[133.54826,34.51085]},"properties":{"price":44100,"use":"里庄","zone":"","station":"住宅"}},{"type":"Feature","geometry":{"type":"Point","coordinates":[133.56734,34.51951]},"properties":{"price":27800,"use":"里庄","zone":"","station":"住宅"}},{"type":"Feature","geometry":{"type":"Point","coordinates":[133.55094,34.50734]},"properties":{"price":43900,"use":"里庄","zone":"","station":"店舗"}},{"type":"Feature","geometry":{"type":"Point","coordinates":[133.59289,34.62737]},"properties":{"price":22600,"use":"矢掛","zone":"","station":"住宅"}},{"type":"Feature","geometry":{"type":"Point","coordinates":[133.5412,34.60569]},"properties":{"price":14200,"use":"矢掛","zone":"","station":"住宅"}},{"type":"Feature","geometry":{"type":"Point","coordinates":[133.59065,34.62396]},"properties":{"price":31400,"use":"矢掛","zone":"","station":"店舗兼住宅"}},{"type":"Feature","geometry":{"type":"Point","coordinates":[133.93327,35.08672]},"properties":{"price":19200,"use":"鏡野","zone":"","station":"住宅"}},{"type":"Feature","geometry":{"type":"Point","coordinates":[133.91874,35.08684]},"properties":{"price":5140,"use":"鏡野","zone":"","station":"住宅"}},{"type":"Feature","geometry":{"type":"Point","coordinates":[133.93881,35.09395]},"properties":{"price":24500,"use":"鏡野","zone":"","station":"店舗"}},{"type":"Feature","geometry":{"type":"Point","coordinates":[134.11909,35.03994]},"properties":{"price":33800,"use":"勝央","zone":"","station":"住宅"}},{"type":"Feature","geometry":{"type":"Point","coordinates":[134.11735,35.05072]},"properties":{"price":21100,"use":"勝央","zone":"","station":"住宅"}},{"type":"Feature","geometry":{"type":"Point","coordinates":[134.1071,35.04859]},"properties":{"price":12300,"use":"勝央","zone":"","station":"工場"}},{"type":"Feature","geometry":{"type":"Point","coordinates":[133.76478,34.83807]},"properties":{"price":9230,"use":"吉備中央","zone":"","station":"住宅"}},{"type":"Feature","geometry":{"type":"Point","coordinates":[133.75831,34.86644]},"properties":{"price":3500,"use":"吉備中央","zone":"","station":"住宅"}},{"type":"Feature","geometry":{"type":"Point","coordinates":[133.73815,34.85857]},"properties":{"price":6910,"use":"吉備中央","zone":"","station":"店舗兼住宅"}}]}