{"type":"FeatureCollection","features":[{"type":"Feature","geometry":{"type":"Point","coordinates":[133.52487,33.5552]},"properties":{"price":129000,"use":"高知","zone":"","station":"住宅"}},{"type":"Feature","geometry":{"type":"Point","coordinates":[133.54113,33.54861]},"properties":{"price":84400,"use":"高知","zone":"","station":"住宅"}},{"type":"Feature","geometry":{"type":"Point","coordinates":[133.54677,33.49816]},"properties":{"price":24000,"use":"高知","zone":"","station":"住宅"}},{"type":"Feature","geometry":{"type":"Point","coordinates":[133.61081,33.57226]},"properties":{"price":43700,"use":"高知","zone":"","station":"住宅"}},{"type":"Feature","geometry":{"type":"Point","coordinates":[133.51963,33.56445]},"properties":{"price":92100,"use":"高知","zone":"","station":"住宅"}},{"type":"Feature","geometry":{"type":"Point","coordinates":[133.47984,33.54073]},"properties":{"price":57100,"use":"高知","zone":"","station":"住宅"}},{"type":"Feature","geometry":{"type":"Point","coordinates":[133.50626,33.56077]},"properties":{"price":83000,"use":"高知","zone":"","station":"住宅"}},{"type":"Feature","geometry":{"type":"Point","coordinates":[133.48914,33.56491]},"properties":{"price":68000,"use":"高知","zone":"","station":"住宅"}},{"type":"Feature","geometry":{"type":"Point","coordinates":[133.52068,33.55225]},"properties":{"price":81400,"use":"高知","zone":"","station":"住宅"}},{"type":"Feature","geometry":{"type":"Point","coordinates":[133.54801,33.55128]},"properties":{"price":91800,"use":"高知","zone":"","station":"住宅"}},{"type":"Feature","geometry":{"type":"Point","coordinates":[133.47451,33.55407]},"properties":{"price":39000,"use":"高知","zone":"","station":"住宅"}},{"type":"Feature","geometry":{"type":"Point","coordinates":[133.48656,33.54375]},"properties":{"price":68800,"use":"高知","zone":"","station":"住宅"}},{"type":"Feature","geometry":{"type":"Point","coordinates":[133.56933,33.50894]},"properties":{"price":23100,"use":"高知","zone":"","station":"住宅"}},{"type":"Feature","geometry":{"type":"Point","coordinates":[133.58676,33.54444]},"properties":{"price":37300,"use":"高知","zone":"","station":"住宅"}},{"type":"Feature","geometry":{"type":"Point","coordinates":[133.5073,33.56628]},"properties":{"price":81800,"use":"高知","zone":"","station":"住宅"}},{"type":"Feature","geometry":{"type":"Point","coordinates":[133.54917,33.56761]},"properties":{"price":126000,"use":"高知","zone":"","station":"住宅"}},{"type":"Feature","geometry":{"type":"Point","coordinates":[133.5513,33.5775]},"properties":{"price":99600,"use":"高知","zone":"","station":"住宅"}},{"type":"Feature","geometry":{"type":"Point","coordinates":[133.52578,33.5793]},"properties":{"price":69200,"use":"高知","zone":"","station":"住宅"}},{"type":"Feature","geometry":{"type":"Point","coordinates":[133.52163,33.57223]},"properties":{"price":124000,"use":"高知","zone":"","station":"住宅"}},{"type":"Feature","geometry":{"type":"Point","coordinates":[133.53265,33.56966]},"properties":{"price":115000,"use":"高知","zone":"","station":"住宅"}},{"type":"Feature","geometry":{"type":"Point","coordinates":[133.53941,33.57369]},"properties":{"price":97900,"use":"高知","zone":"","station":"住宅"}},{"type":"Feature","geometry":{"type":"Point","coordinates":[133.5008,33.53698]},"properties":{"price":50000,"use":"高知","zone":"","station":"住宅"}},{"type":"Feature","geometry":{"type":"Point","coordinates":[133.49969,33.55051]},"properties":{"price":86300,"use":"高知","zone":"","station":"住宅"}},{"type":"Feature","geometry":{"type":"Point","coordinates":[133.5077,33.54403]},"properties":{"price":81500,"use":"高知","zone":"","station":"住宅"}},{"type":"Feature","geometry":{"type":"Point","coordinates":[133.48421,33.53342]},"properties":{"price":51900,"use":"高知","zone":"","station":"住宅"}},{"type":"Feature","geometry":{"type":"Point","coordinates":[133.54205,33.50977]},"properties":{"price":47600,"use":"高知","zone":"","station":"住宅"}},{"type":"Feature","geometry":{"type":"Point","coordinates":[133.60065,33.57383]},"properties":{"price":58000,"use":"高知","zone":"","station":"住宅"}},{"type":"Feature","geometry":{"type":"Point","coordinates":[133.52305,33.56732]},"properties":{"price":94600,"use":"高知","zone":"","station":"住宅"}},{"type":"Feature","geometry":{"type":"Point","coordinates":[133.60109,33.56737]},"properties":{"price":62600,"use":"高知","zone":"","station":"住宅"}},{"type":"Feature","geometry":{"type":"Point","coordinates":[133.57821,33.55854]},"properties":{"price":89200,"use":"高知","zone":"","station":"住宅"}},{"type":"Feature","geometry":{"type":"Point","coordinates":[133.51137,33.55746]},"properties":{"price":87400,"use":"高知","zone":"","station":"住宅"}},{"type":"Feature","geometry":{"type":"Point","coordinates":[133.49317,33.55079]},"properties":{"price":70700,"use":"高知","zone":"","station":"住宅"}},{"type":"Feature","geometry":{"type":"Point","coordinates":[133.55131,33.5602]},"properties":{"price":96300,"use":"高知","zone":"","station":"住宅"}},{"type":"Feature","geometry":{"type":"Point","coordinates":[133.52609,33.56164]},"properties":{"price":141000,"use":"高知","zone":"","station":"住宅"}},{"type":"Feature","geometry":{"type":"Point","coordinates":[133.6079,33.55883]},"properties":{"price":47600,"use":"高知","zone":"","station":"住宅"}},{"type":"Feature","geometry":{"type":"Point","coordinates":[133.53942,33.54348]},"properties":{"price":70500,"use":"高知","zone":"","station":"住宅"}},{"type":"Feature","geometry":{"type":"Point","coordinates":[133.55102,33.5472]},"properties":{"price":81100,"use":"高知","zone":"","station":"住宅"}},{"type":"Feature","geometry":{"type":"Point","coordinates":[133.58334,33.55277]},"properties":{"price":41400,"use":"高知","zone":"","station":"住宅"}},{"type":"Feature","geometry":{"type":"Point","coordinates":[133.60316,33.58529]},"properties":{"price":30000,"use":"高知","zone":"","station":"住宅"}},{"type":"Feature","geometry":{"type":"Point","coordinates":[133.50633,33.59183]},"properties":{"price":25600,"use":"高知","zone":"","station":"住宅"}},{"type":"Feature","geometry":{"type":"Point","coordinates":[133.55116,33.49381]},"properties":{"price":15000,"use":"高知","zone":"","station":"住宅"}},{"type":"Feature","geometry":{"type":"Point","coordinates":[133.49158,33.49766]},"properties":{"price":27000,"use":"高知","zone":"","station":"住宅"}},{"type":"Feature","geometry":{"type":"Point","coordinates":[133.50955,33.49095]},"properties":{"price":18400,"use":"高知","zone":"","station":"住宅"}},{"type":"Feature","geometry":{"type":"Point","coordinates":[133.61216,33.56182]},"properties":{"price":66200,"use":"高知","zone":"","station":"住宅"}},{"type":"Feature","geometry":{"type":"Point","coordinates":[133.5631,33.58214]},"properties":{"price":83800,"use":"高知","zone":"","station":"住宅"}},{"type":"Feature","geometry":{"type":"Point","coordinates":[133.53655,33.55615]},"properties":{"price":157000,"use":"高知","zone":"","station":"共同住宅"}},{"type":"Feature","geometry":{"type":"Point","coordinates":[133.55812,33.56681]},"properties":{"price":110000,"use":"高知","zone":"","station":"住宅"}},{"type":"Feature","geometry":{"type":"Point","coordinates":[133.53552,33.56366]},"properties":{"price":162000,"use":"高知","zone":"","station":"住宅"}},{"type":"Feature","geometry":{"type":"Point","coordinates":[133.48653,33.55308]},"properties":{"price":29200,"use":"高知","zone":"","station":"田"}},{"type":"Feature","geometry":{"type":"Point","coordinates":[133.53869,33.55969]},"properties":{"price":254000,"use":"高知","zone":"","station":"取壊中"}},{"type":"Feature","geometry":{"type":"Point","coordinates":[133.53781,33.56314]},"properties":{"price":133000,"use":"高知","zone":"","station":"店舗兼住宅"}},{"type":"Feature","geometry":{"type":"Point","coordinates":[133.52739,33.55781]},"properties":{"price":140000,"use":"高知","zone":"","station":"店舗兼住宅"}},{"type":"Feature","geometry":{"type":"Point","coordinates":[133.53744,33.55826]},"properties":{"price":160000,"use":"高知","zone":"","station":"空地"}},{"type":"Feature","geometry":{"type":"Point","coordinates":[133.55291,33.55897]},"properties":{"price":130000,"use":"高知","zone":"","station":"診療所"}},{"type":"Feature","geometry":{"type":"Point","coordinates":[133.54272,33.56067]},"properties":{"price":217000,"use":"高知","zone":"","station":"店舗"}},{"type":"Feature","geometry":{"type":"Point","coordinates":[133.5451,33.5576]},"properties":{"price":130000,"use":"高知","zone":"","station":"店舗兼住宅"}},{"type":"Feature","geometry":{"type":"Point","coordinates":[133.53664,33.56644]},"properties":{"price":116000,"use":"高知","zone":"","station":"店舗"}},{"type":"Feature","geometry":{"type":"Point","coordinates":[133.54874,33.57853]},"properties":{"price":148000,"use":"高知","zone":"","station":"店舗兼事務所"}},{"type":"Feature","geometry":{"type":"Point","coordinates":[133.5438,33.55323]},"properties":{"price":127000,"use":"高知","zone":"","station":"店舗兼事務所"}},{"type":"Feature","geometry":{"type":"Point","coordinates":[133.55851,33.55796]},"properties":{"price":131000,"use":"高知","zone":"","station":"事務所"}},{"type":"Feature","geometry":{"type":"Point","coordinates":[133.53958,33.5608]},"properties":{"price":265000,"use":"高知","zone":"","station":"店舗兼住宅"}},{"type":"Feature","geometry":{"type":"Point","coordinates":[133.54532,33.56051]},"properties":{"price":181000,"use":"高知","zone":"","station":"店舗兼共同住宅"}},{"type":"Feature","geometry":{"type":"Point","coordinates":[133.52961,33.55877]},"properties":{"price":168000,"use":"高知","zone":"","station":"事務所兼店舗"}},{"type":"Feature","geometry":{"type":"Point","coordinates":[133.55593,33.57111]},"properties":{"price":154000,"use":"高知","zone":"","station":"店舗"}},{"type":"Feature","geometry":{"type":"Point","coordinates":[133.50842,33.55033]},"properties":{"price":97900,"use":"高知","zone":"","station":"店舗兼共同住宅"}},{"type":"Feature","geometry":{"type":"Point","coordinates":[133.58628,33.55778]},"properties":{"price":102000,"use":"高知","zone":"","station":"事務所"}},{"type":"Feature","geometry":{"type":"Point","coordinates":[133.56566,33.56723]},"properties":{"price":128000,"use":"高知","zone":"","station":"店舗"}},{"type":"Feature","geometry":{"type":"Point","coordinates":[133.56776,33.52543]},"properties":{"price":10800,"use":"高知","zone":"","station":"工場"}},{"type":"Feature","geometry":{"type":"Point","coordinates":[133.57083,33.57321]},"properties":{"price":18200,"use":"高知","zone":"","station":"工場"}},{"type":"Feature","geometry":{"type":"Point","coordinates":[134.15284,33.28935]},"properties":{"price":21200,"use":"室戸","zone":"","station":"住宅"}},{"type":"Feature","geometry":{"type":"Point","coordinates":[134.16669,33.26358]},"properties":{"price":13300,"use":"室戸","zone":"","station":"住宅"}},{"type":"Feature","geometry":{"type":"Point","coordinates":[134.14884,33.28997]},"properties":{"price":25100,"use":"室戸","zone":"","station":"店舗兼住宅"}},{"type":"Feature","geometry":{"type":"Point","coordinates":[134.15255,33.29129]},"properties":{"price":35200,"use":"室戸","zone":"","station":"事務所"}},{"type":"Feature","geometry":{"type":"Point","coordinates":[133.9115,33.49925]},"properties":{"price":27600,"use":"安芸","zone":"","station":"住宅"}},{"type":"Feature","geometry":{"type":"Point","coordinates":[133.89956,33.50165]},"properties":{"price":31500,"use":"安芸","zone":"","station":"住宅"}},{"type":"Feature","geometry":{"type":"Point","coordinates":[133.9086,33.49959]},"properties":{"price":41800,"use":"安芸","zone":"","station":"店舗兼住宅"}},{"type":"Feature","geometry":{"type":"Point","coordinates":[133.90111,33.50089]},"properties":{"price":34400,"use":"安芸","zone":"","station":"店舗兼住宅"}},{"type":"Feature","geometry":{"type":"Point","coordinates":[133.63939,33.57289]},"properties":{"price":70000,"use":"南国","zone":"","station":"住宅"}},{"type":"Feature","geometry":{"type":"Point","coordinates":[133.6325,33.57471]},"properties":{"price":63500,"use":"南国","zone":"","station":"住宅"}},{"type":"Feature","geometry":{"type":"Point","coordinates":[133.6493,33.57583]},"properties":{"price":68600,"use":"南国","zone":"","station":"住宅"}},{"type":"Feature","geometry":{"type":"Point","coordinates":[133.64054,33.54786]},"properties":{"price":25500,"use":"南国","zone":"","station":"住宅"}},{"type":"Feature","geometry":{"type":"Point","coordinates":[133.64511,33.60371]},"properties":{"price":26600,"use":"南国","zone":"","station":"住宅"}},{"type":"Feature","geometry":{"type":"Point","coordinates":[133.65066,33.56667]},"properties":{"price":84900,"use":"南国","zone":"","station":"店舗"}},{"type":"Feature","geometry":{"type":"Point","coordinates":[133.64908,33.57427]},"properties":{"price":73600,"use":"南国","zone":"","station":"店舗"}},{"type":"Feature","geometry":{"type":"Point","coordinates":[133.6243,33.58235]},"properties":{"price":25600,"use":"南国","zone":"","station":"事務所兼荷捌所"}},{"type":"Feature","geometry":{"type":"Point","coordinates":[133.42028,33.4942]},"properties":{"price":41100,"use":"土佐","zone":"","station":"住宅"}},{"type":"Feature","geometry":{"type":"Point","coordinates":[133.35942,33.47388]},"properties":{"price":17800,"use":"土佐","zone":"","station":"住宅"}},{"type":"Feature","geometry":{"type":"Point","coordinates":[133.4263,33.50748]},"properties":{"price":27900,"use":"土佐","zone":"","station":"住宅"}},{"type":"Feature","geometry":{"type":"Point","coordinates":[133.42376,33.49694]},"properties":{"price":41600,"use":"土佐","zone":"","station":"店舗兼住宅"}},{"type":"Feature","geometry":{"type":"Point","coordinates":[133.43202,33.49638]},"properties":{"price":56400,"use":"土佐","zone":"","station":"店舗"}},{"type":"Feature","geometry":{"type":"Point","coordinates":[133.28169,33.41745]},"properties":{"price":33000,"use":"須崎","zone":"","station":"住宅"}},{"type":"Feature","geometry":{"type":"Point","coordinates":[133.28605,33.39139]},"properties":{"price":30900,"use":"須崎","zone":"","station":"住宅"}},{"type":"Feature","geometry":{"type":"Point","coordinates":[133.2723,33.39245]},"properties":{"price":23400,"use":"須崎","zone":"","station":"住宅"}},{"type":"Feature","geometry":{"type":"Point","coordinates":[133.29116,33.39076]},"properties":{"price":43100,"use":"須崎","zone":"","station":"店舗兼住宅"}},{"type":"Feature","geometry":{"type":"Point","coordinates":[133.28768,33.40786]},"properties":{"price":40300,"use":"須崎","zone":"","station":"店舗"}},{"type":"Feature","geometry":{"type":"Point","coordinates":[132.70492,32.92699]},"properties":{"price":23800,"use":"宿毛","zone":"","station":"住宅"}},{"type":"Feature","geometry":{"type":"Point","coordinates":[132.72477,32.93657]},"properties":{"price":25400,"use":"宿毛","zone":"","station":"住宅"}},{"type":"Feature","geometry":{"type":"Point","coordinates":[132.7095,32.9351]},"properties":{"price":26500,"use":"宿毛","zone":"","station":"住宅"}},{"type":"Feature","geometry":{"type":"Point","coordinates":[132.72466,32.93687]},"properties":{"price":28000,"use":"宿毛","zone":"","station":"店舗兼住宅"}},{"type":"Feature","geometry":{"type":"Point","coordinates":[132.71351,32.92908]},"properties":{"price":25100,"use":"宿毛","zone":"","station":"店舗兼住宅"}},{"type":"Feature","geometry":{"type":"Point","coordinates":[132.96067,32.78067]},"properties":{"price":23600,"use":"土佐清水","zone":"","station":"住宅"}},{"type":"Feature","geometry":{"type":"Point","coordinates":[132.87638,32.79136]},"properties":{"price":14200,"use":"土佐清水","zone":"","station":"住宅"}},{"type":"Feature","geometry":{"type":"Point","coordinates":[132.95399,32.77984]},"properties":{"price":32800,"use":"土佐清水","zone":"","station":"店舗兼住宅"}},{"type":"Feature","geometry":{"type":"Point","coordinates":[132.95238,32.77898]},"properties":{"price":25000,"use":"土佐清水","zone":"","station":"店舗兼住宅"}},{"type":"Feature","geometry":{"type":"Point","coordinates":[132.93309,32.99564]},"properties":{"price":42000,"use":"四万十","zone":"","station":"住宅"}},{"type":"Feature","geometry":{"type":"Point","coordinates":[132.96744,32.98781]},"properties":{"price":21900,"use":"四万十","zone":"","station":"住宅"}},{"type":"Feature","geometry":{"type":"Point","coordinates":[132.91319,32.98685]},"properties":{"price":35000,"use":"四万十","zone":"","station":"住宅"}},{"type":"Feature","geometry":{"type":"Point","coordinates":[132.93374,32.99281]},"properties":{"price":47500,"use":"四万十","zone":"","station":"店舗兼住宅"}},{"type":"Feature","geometry":{"type":"Point","coordinates":[132.95373,32.9837]},"properties":{"price":58400,"use":"四万十","zone":"","station":"店舗"}},{"type":"Feature","geometry":{"type":"Point","coordinates":[133.75678,33.53486]},"properties":{"price":20700,"use":"高知香南","zone":"","station":"住宅"}},{"type":"Feature","geometry":{"type":"Point","coordinates":[133.74021,33.58231]},"properties":{"price":13200,"use":"高知香南","zone":"","station":"住宅"}},{"type":"Feature","geometry":{"type":"Point","coordinates":[133.69187,33.56695]},"properties":{"price":45000,"use":"高知香南","zone":"","station":"住宅"}},{"type":"Feature","geometry":{"type":"Point","coordinates":[133.69764,33.56096]},"properties":{"price":79700,"use":"高知香南","zone":"","station":"店舗兼駐車場"}},{"type":"Feature","geometry":{"type":"Point","coordinates":[133.75345,33.53538]},"properties":{"price":34300,"use":"高知香南","zone":"","station":"店舗兼住宅"}},{"type":"Feature","geometry":{"type":"Point","coordinates":[133.68825,33.60416]},"properties":{"price":61800,"use":"高知香美","zone":"","station":"住宅"}},{"type":"Feature","geometry":{"type":"Point","coordinates":[133.69449,33.60969]},"properties":{"price":57500,"use":"高知香美","zone":"","station":"住宅"}},{"type":"Feature","geometry":{"type":"Point","coordinates":[133.679,33.60478]},"properties":{"price":53800,"use":"高知香美","zone":"","station":"住宅"}},{"type":"Feature","geometry":{"type":"Point","coordinates":[133.69465,33.60051]},"properties":{"price":23400,"use":"高知香美","zone":"","station":"住宅"}},{"type":"Feature","geometry":{"type":"Point","coordinates":[133.6848,33.60548]},"properties":{"price":59500,"use":"高知香美","zone":"","station":"店舗兼住宅"}},{"type":"Feature","geometry":{"type":"Point","coordinates":[134.29336,33.54719]},"properties":{"price":13400,"use":"東洋","zone":"","station":"住宅"}},{"type":"Feature","geometry":{"type":"Point","coordinates":[134.28011,33.52504]},"properties":{"price":8750,"use":"東洋","zone":"","station":"住宅"}},{"type":"Feature","geometry":{"type":"Point","coordinates":[134.29438,33.54571]},"properties":{"price":16000,"use":"東洋","zone":"","station":"店舗兼住宅"}},{"type":"Feature","geometry":{"type":"Point","coordinates":[133.59161,33.758]},"properties":{"price":20300,"use":"本山","zone":"","station":"住宅"}},{"type":"Feature","geometry":{"type":"Point","coordinates":[133.58585,33.75628]},"properties":{"price":13200,"use":"本山","zone":"","station":"住宅"}},{"type":"Feature","geometry":{"type":"Point","coordinates":[133.59229,33.75744]},"properties":{"price":24600,"use":"本山","zone":"","station":"事務所"}},{"type":"Feature","geometry":{"type":"Point","coordinates":[133.55427,33.74754]},"properties":{"price":16000,"use":"とさ","zone":"","station":"住宅"}},{"type":"Feature","geometry":{"type":"Point","coordinates":[133.5586,33.75019]},"properties":{"price":15000,"use":"とさ","zone":"","station":"住宅"}},{"type":"Feature","geometry":{"type":"Point","coordinates":[133.55392,33.74847]},"properties":{"price":25700,"use":"とさ","zone":"","station":"店舗兼住宅"}},{"type":"Feature","geometry":{"type":"Point","coordinates":[133.43381,33.54929]},"properties":{"price":62900,"use":"いの","zone":"","station":"住宅"}},{"type":"Feature","geometry":{"type":"Point","coordinates":[133.45197,33.5533]},"properties":{"price":60500,"use":"いの","zone":"","station":"住宅"}},{"type":"Feature","geometry":{"type":"Point","coordinates":[133.43448,33.5205]},"properties":{"price":24300,"use":"いの","zone":"","station":"住宅"}},{"type":"Feature","geometry":{"type":"Point","coordinates":[133.42741,33.5482]},"properties":{"price":69000,"use":"いの","zone":"","station":"店舗兼住宅"}},{"type":"Feature","geometry":{"type":"Point","coordinates":[133.22969,33.32616]},"properties":{"price":25700,"use":"中土佐","zone":"","station":"住宅"}},{"type":"Feature","geometry":{"type":"Point","coordinates":[133.22439,33.33524]},"properties":{"price":17900,"use":"中土佐","zone":"","station":"住宅"}},{"type":"Feature","geometry":{"type":"Point","coordinates":[133.22829,33.33027]},"properties":{"price":29000,"use":"中土佐","zone":"","station":"店舗兼住宅"}},{"type":"Feature","geometry":{"type":"Point","coordinates":[133.29056,33.49998]},"properties":{"price":29900,"use":"佐川","zone":"","station":"住宅"}},{"type":"Feature","geometry":{"type":"Point","coordinates":[133.28946,33.51094]},"properties":{"price":24600,"use":"佐川","zone":"","station":"住宅"}},{"type":"Feature","geometry":{"type":"Point","coordinates":[133.29205,33.49932]},"properties":{"price":31800,"use":"佐川","zone":"","station":"店舗兼住宅"}},{"type":"Feature","geometry":{"type":"Point","coordinates":[133.25444,33.53177]},"properties":{"price":28700,"use":"越知","zone":"","station":"住宅"}},{"type":"Feature","geometry":{"type":"Point","coordinates":[133.25072,33.52932]},"properties":{"price":25300,"use":"越知","zone":"","station":"住宅"}},{"type":"Feature","geometry":{"type":"Point","coordinates":[133.25349,33.53167]},"properties":{"price":34600,"use":"越知","zone":"","station":"店舗兼住宅"}},{"type":"Feature","geometry":{"type":"Point","coordinates":[133.13065,33.2163]},"properties":{"price":23300,"use":"高知四万十","zone":"","station":"住宅"}},{"type":"Feature","geometry":{"type":"Point","coordinates":[133.1438,33.20233]},"properties":{"price":20700,"use":"高知四万十","zone":"","station":"住宅"}},{"type":"Feature","geometry":{"type":"Point","coordinates":[133.13337,33.21059]},"properties":{"price":30700,"use":"高知四万十","zone":"","station":"店舗兼住宅"}},{"type":"Feature","geometry":{"type":"Point","coordinates":[133.10461,33.07962]},"properties":{"price":21700,"use":"黒潮","zone":"","station":"住宅"}},{"type":"Feature","geometry":{"type":"Point","coordinates":[132.99629,33.01808]},"properties":{"price":21100,"use":"黒潮","zone":"","station":"住宅"}},{"type":"Feature","geometry":{"type":"Point","coordinates":[133.10491,33.07912]},"properties":{"price":23100,"use":"黒潮","zone":"","station":"店舗兼住宅"}}]}