{"type":"FeatureCollection","features":[{"type":"Feature","geometry":{"type":"Point","coordinates":[132.46285,34.40706]},"properties":{"price":500000,"use":"広島中","zone":"","station":"住宅"}},{"type":"Feature","geometry":{"type":"Point","coordinates":[132.46758,34.40727]},"properties":{"price":479000,"use":"広島中","zone":"","station":"住宅"}},{"type":"Feature","geometry":{"type":"Point","coordinates":[132.45529,34.37908]},"properties":{"price":316000,"use":"広島中","zone":"","station":"住宅"}},{"type":"Feature","geometry":{"type":"Point","coordinates":[132.44492,34.3693]},"properties":{"price":198000,"use":"広島中","zone":"","station":"住宅"}},{"type":"Feature","geometry":{"type":"Point","coordinates":[132.44988,34.37991]},"properties":{"price":270000,"use":"広島中","zone":"","station":"住宅"}},{"type":"Feature","geometry":{"type":"Point","coordinates":[132.43701,34.37957]},"properties":{"price":274000,"use":"広島中","zone":"","station":"住宅"}},{"type":"Feature","geometry":{"type":"Point","coordinates":[132.44674,34.39977]},"properties":{"price":350000,"use":"広島中","zone":"","station":"事務所兼共同住宅"}},{"type":"Feature","geometry":{"type":"Point","coordinates":[132.44685,34.3752]},"properties":{"price":220000,"use":"広島中","zone":"","station":"住宅"}},{"type":"Feature","geometry":{"type":"Point","coordinates":[132.42947,34.3642]},"properties":{"price":153000,"use":"広島中","zone":"","station":"住宅"}},{"type":"Feature","geometry":{"type":"Point","coordinates":[132.47005,34.39742]},"properties":{"price":984000,"use":"広島中","zone":"","station":"共同住宅"}},{"type":"Feature","geometry":{"type":"Point","coordinates":[132.45733,34.37335]},"properties":{"price":244000,"use":"広島中","zone":"","station":"住宅"}},{"type":"Feature","geometry":{"type":"Point","coordinates":[132.45241,34.36775]},"properties":{"price":179000,"use":"広島中","zone":"","station":"住宅"}},{"type":"Feature","geometry":{"type":"Point","coordinates":[132.46123,34.37753]},"properties":{"price":416000,"use":"広島中","zone":"","station":"共同住宅"}},{"type":"Feature","geometry":{"type":"Point","coordinates":[132.44393,34.38161]},"properties":{"price":276000,"use":"広島中","zone":"","station":"工場兼共同住宅"}},{"type":"Feature","geometry":{"type":"Point","coordinates":[132.45982,34.38934]},"properties":{"price":1590000,"use":"広島中","zone":"","station":"共同住宅"}},{"type":"Feature","geometry":{"type":"Point","coordinates":[132.46303,34.39429]},"properties":{"price":3890000,"use":"広島中","zone":"","station":"店舗兼事務所"}},{"type":"Feature","geometry":{"type":"Point","coordinates":[132.46221,34.3929]},"properties":{"price":3450000,"use":"広島中","zone":"","station":"店舗"}},{"type":"Feature","geometry":{"type":"Point","coordinates":[132.45619,34.39403]},"properties":{"price":2110000,"use":"広島中","zone":"","station":"店舗"}},{"type":"Feature","geometry":{"type":"Point","coordinates":[132.46368,34.40458]},"properties":{"price":700000,"use":"広島中","zone":"","station":"事務所兼共同住宅"}},{"type":"Feature","geometry":{"type":"Point","coordinates":[132.46514,34.39545]},"properties":{"price":835000,"use":"広島中","zone":"","station":"事務所、店舗兼車庫"}},{"type":"Feature","geometry":{"type":"Point","coordinates":[132.46269,34.39214]},"properties":{"price":2900000,"use":"広島中","zone":"","station":"店舗"}},{"type":"Feature","geometry":{"type":"Point","coordinates":[132.46232,34.3907]},"properties":{"price":2150000,"use":"広島中","zone":"","station":"店舗兼事務所"}},{"type":"Feature","geometry":{"type":"Point","coordinates":[132.46102,34.38254]},"properties":{"price":441000,"use":"広島中","zone":"","station":"事務所兼住宅"}},{"type":"Feature","geometry":{"type":"Point","coordinates":[132.45922,34.38559]},"properties":{"price":745000,"use":"広島中","zone":"","station":"事務所"}},{"type":"Feature","geometry":{"type":"Point","coordinates":[132.45377,34.38795]},"properties":{"price":574000,"use":"広島中","zone":"","station":"医院"}},{"type":"Feature","geometry":{"type":"Point","coordinates":[132.45899,34.39083]},"properties":{"price":1010000,"use":"広島中","zone":"","station":"事務所兼住宅"}},{"type":"Feature","geometry":{"type":"Point","coordinates":[132.44836,34.38322]},"properties":{"price":433000,"use":"広島中","zone":"","station":"店舗兼共同住宅"}},{"type":"Feature","geometry":{"type":"Point","coordinates":[132.44374,34.38668]},"properties":{"price":433000,"use":"広島中","zone":"","station":"店舗兼共同住宅"}},{"type":"Feature","geometry":{"type":"Point","coordinates":[132.46499,34.39259]},"properties":{"price":1190000,"use":"広島中","zone":"","station":"店舗"}},{"type":"Feature","geometry":{"type":"Point","coordinates":[132.44734,34.39937]},"properties":{"price":656000,"use":"広島中","zone":"","station":"事務所兼共同住宅"}},{"type":"Feature","geometry":{"type":"Point","coordinates":[132.44532,34.3952]},"properties":{"price":433000,"use":"広島中","zone":"","station":"事務所兼共同住宅"}},{"type":"Feature","geometry":{"type":"Point","coordinates":[132.46383,34.39582]},"properties":{"price":2170000,"use":"広島中","zone":"","station":"店舗兼事務所"}},{"type":"Feature","geometry":{"type":"Point","coordinates":[132.45953,34.38822]},"properties":{"price":1280000,"use":"広島中","zone":"","station":"事務所兼駐車場"}},{"type":"Feature","geometry":{"type":"Point","coordinates":[132.46548,34.39926]},"properties":{"price":983000,"use":"広島中","zone":"","station":"事務所"}},{"type":"Feature","geometry":{"type":"Point","coordinates":[132.46857,34.38902]},"properties":{"price":595000,"use":"広島中","zone":"","station":"事務所兼共同住宅"}},{"type":"Feature","geometry":{"type":"Point","coordinates":[132.44729,34.3913]},"properties":{"price":618000,"use":"広島中","zone":"","station":"事務所兼店舗"}},{"type":"Feature","geometry":{"type":"Point","coordinates":[132.45496,34.38877]},"properties":{"price":1360000,"use":"広島中","zone":"","station":"事務所兼車庫"}},{"type":"Feature","geometry":{"type":"Point","coordinates":[132.46084,34.39365]},"properties":{"price":1330000,"use":"広島中","zone":"","station":"店舗兼住宅"}},{"type":"Feature","geometry":{"type":"Point","coordinates":[132.46665,34.39048]},"properties":{"price":423000,"use":"広島中","zone":"","station":"店舗兼共同住宅"}},{"type":"Feature","geometry":{"type":"Point","coordinates":[132.46279,34.3846]},"properties":{"price":403000,"use":"広島中","zone":"","station":"事務所兼共同住宅"}},{"type":"Feature","geometry":{"type":"Point","coordinates":[132.45346,34.382]},"properties":{"price":519000,"use":"広島中","zone":"","station":"事務所兼共同住宅"}},{"type":"Feature","geometry":{"type":"Point","coordinates":[132.45655,34.39092]},"properties":{"price":2200000,"use":"広島中","zone":"","station":"店舗兼事務所"}},{"type":"Feature","geometry":{"type":"Point","coordinates":[132.44881,34.36778]},"properties":{"price":245000,"use":"広島中","zone":"","station":"店舗兼共同住宅"}},{"type":"Feature","geometry":{"type":"Point","coordinates":[132.44936,34.39923]},"properties":{"price":431000,"use":"広島中","zone":"","station":"事務所兼共同住宅"}},{"type":"Feature","geometry":{"type":"Point","coordinates":[132.46245,34.39497]},"properties":{"price":1460000,"use":"広島中","zone":"","station":"店舗兼事務所"}},{"type":"Feature","geometry":{"type":"Point","coordinates":[132.44091,34.36128]},"properties":{"price":146000,"use":"広島中","zone":"","station":"事務所"}},{"type":"Feature","geometry":{"type":"Point","coordinates":[132.43524,34.3633]},"properties":{"price":119000,"use":"広島中","zone":"","station":"工場"}},{"type":"Feature","geometry":{"type":"Point","coordinates":[132.47298,34.40933]},"properties":{"price":335000,"use":"広島東","zone":"","station":"住宅"}},{"type":"Feature","geometry":{"type":"Point","coordinates":[132.47373,34.42941]},"properties":{"price":155000,"use":"広島東","zone":"","station":"住宅"}},{"type":"Feature","geometry":{"type":"Point","coordinates":[132.50159,34.41973]},"properties":{"price":79000,"use":"広島東","zone":"","station":"住宅"}},{"type":"Feature","geometry":{"type":"Point","coordinates":[132.4974,34.42584]},"properties":{"price":79700,"use":"広島東","zone":"","station":"住宅"}},{"type":"Feature","geometry":{"type":"Point","coordinates":[132.48172,34.43552]},"properties":{"price":134000,"use":"広島東","zone":"","station":"住宅"}},{"type":"Feature","geometry":{"type":"Point","coordinates":[132.47021,34.42578]},"properties":{"price":115000,"use":"広島東","zone":"","station":"住宅"}},{"type":"Feature","geometry":{"type":"Point","coordinates":[132.47639,34.4023]},"properties":{"price":308000,"use":"広島東","zone":"","station":"住宅兼事務所"}},{"type":"Feature","geometry":{"type":"Point","coordinates":[132.47111,34.41358]},"properties":{"price":260000,"use":"広島東","zone":"","station":"住宅"}},{"type":"Feature","geometry":{"type":"Point","coordinates":[132.49631,34.39994]},"properties":{"price":148000,"use":"広島東","zone":"","station":"住宅"}},{"type":"Feature","geometry":{"type":"Point","coordinates":[132.5094,34.40974]},"properties":{"price":145000,"use":"広島東","zone":"","station":"住宅"}},{"type":"Feature","geometry":{"type":"Point","coordinates":[132.482,34.40797]},"properties":{"price":123000,"use":"広島東","zone":"","station":"住宅"}},{"type":"Feature","geometry":{"type":"Point","coordinates":[132.52964,34.43589]},"properties":{"price":49700,"use":"広島東","zone":"","station":"住宅"}},{"type":"Feature","geometry":{"type":"Point","coordinates":[132.53576,34.4493]},"properties":{"price":51900,"use":"広島東","zone":"","station":"住宅"}},{"type":"Feature","geometry":{"type":"Point","coordinates":[132.48064,34.41446]},"properties":{"price":143000,"use":"広島東","zone":"","station":"住宅"}},{"type":"Feature","geometry":{"type":"Point","coordinates":[132.48769,34.39715]},"properties":{"price":163000,"use":"広島東","zone":"","station":"住宅"}},{"type":"Feature","geometry":{"type":"Point","coordinates":[132.46859,34.41906]},"properties":{"price":146000,"use":"広島東","zone":"","station":"住宅"}},{"type":"Feature","geometry":{"type":"Point","coordinates":[132.47896,34.40363]},"properties":{"price":196000,"use":"広島東","zone":"","station":"住宅"}},{"type":"Feature","geometry":{"type":"Point","coordinates":[132.5089,34.40571]},"properties":{"price":130000,"use":"広島東","zone":"","station":"住宅"}},{"type":"Feature","geometry":{"type":"Point","coordinates":[132.48363,34.43199]},"properties":{"price":107000,"use":"広島東","zone":"","station":"住宅"}},{"type":"Feature","geometry":{"type":"Point","coordinates":[132.54913,34.4516]},"properties":{"price":38400,"use":"広島東","zone":"","station":"住宅"}},{"type":"Feature","geometry":{"type":"Point","coordinates":[132.49572,34.41468]},"properties":{"price":64900,"use":"広島東","zone":"","station":"住宅"}},{"type":"Feature","geometry":{"type":"Point","coordinates":[132.49315,34.40156]},"properties":{"price":62500,"use":"広島東","zone":"","station":"住宅"}},{"type":"Feature","geometry":{"type":"Point","coordinates":[132.51083,34.42543]},"properties":{"price":54500,"use":"広島東","zone":"","station":"住宅"}},{"type":"Feature","geometry":{"type":"Point","coordinates":[132.53755,34.44462]},"properties":{"price":43000,"use":"広島東","zone":"","station":"住宅"}},{"type":"Feature","geometry":{"type":"Point","coordinates":[132.47992,34.40099]},"properties":{"price":599000,"use":"広島東","zone":"","station":"事務所兼共同住宅"}},{"type":"Feature","geometry":{"type":"Point","coordinates":[132.48741,34.43458]},"properties":{"price":159000,"use":"広島東","zone":"","station":"店舗、事務所兼共同住宅"}},{"type":"Feature","geometry":{"type":"Point","coordinates":[132.46878,34.41423]},"properties":{"price":366000,"use":"広島東","zone":"","station":"店舗兼住宅"}},{"type":"Feature","geometry":{"type":"Point","coordinates":[132.48192,34.39606]},"properties":{"price":316000,"use":"広島東","zone":"","station":"事務所兼共同住宅"}},{"type":"Feature","geometry":{"type":"Point","coordinates":[132.50888,34.41335]},"properties":{"price":170000,"use":"広島東","zone":"","station":"保育所"}},{"type":"Feature","geometry":{"type":"Point","coordinates":[132.47393,34.40131]},"properties":{"price":848000,"use":"広島東","zone":"","station":"事務所兼店舗"}},{"type":"Feature","geometry":{"type":"Point","coordinates":[132.467,34.36987]},"properties":{"price":289000,"use":"広島南","zone":"","station":"住宅"}},{"type":"Feature","geometry":{"type":"Point","coordinates":[132.47976,34.36469]},"properties":{"price":153000,"use":"広島南","zone":"","station":"住宅"}},{"type":"Feature","geometry":{"type":"Point","coordinates":[132.46384,34.36797]},"properties":{"price":277000,"use":"広島南","zone":"","station":"住宅"}},{"type":"Feature","geometry":{"type":"Point","coordinates":[132.50546,34.36731]},"properties":{"price":144000,"use":"広島南","zone":"","station":"住宅"}},{"type":"Feature","geometry":{"type":"Point","coordinates":[132.48479,34.37388]},"properties":{"price":99300,"use":"広島南","zone":"","station":"住宅"}},{"type":"Feature","geometry":{"type":"Point","coordinates":[132.51449,34.37347]},"properties":{"price":132000,"use":"広島南","zone":"","station":"住宅"}},{"type":"Feature","geometry":{"type":"Point","coordinates":[132.485,34.38078]},"properties":{"price":257000,"use":"広島南","zone":"","station":"住宅"}},{"type":"Feature","geometry":{"type":"Point","coordinates":[132.48221,34.3758]},"properties":{"price":228000,"use":"広島南","zone":"","station":"住宅"}},{"type":"Feature","geometry":{"type":"Point","coordinates":[132.47812,34.37082]},"properties":{"price":146000,"use":"広島南","zone":"","station":"住宅"}},{"type":"Feature","geometry":{"type":"Point","coordinates":[132.51146,34.36504]},"properties":{"price":132000,"use":"広島南","zone":"","station":"住宅"}},{"type":"Feature","geometry":{"type":"Point","coordinates":[132.49414,34.36843]},"properties":{"price":113000,"use":"広島南","zone":"","station":"住宅"}},{"type":"Feature","geometry":{"type":"Point","coordinates":[132.46759,34.35969]},"properties":{"price":240000,"use":"広島南","zone":"","station":"住宅"}},{"type":"Feature","geometry":{"type":"Point","coordinates":[132.47885,34.37584]},"properties":{"price":240000,"use":"広島南","zone":"","station":"住宅"}},{"type":"Feature","geometry":{"type":"Point","coordinates":[132.47597,34.37906]},"properties":{"price":303000,"use":"広島南","zone":"","station":"住宅"}},{"type":"Feature","geometry":{"type":"Point","coordinates":[132.47291,34.38834]},"properties":{"price":236000,"use":"広島南","zone":"","station":"住宅"}},{"type":"Feature","geometry":{"type":"Point","coordinates":[132.49394,34.37554]},"properties":{"price":188000,"use":"広島南","zone":"","station":"住宅兼事業所"}},{"type":"Feature","geometry":{"type":"Point","coordinates":[132.46913,34.37615]},"properties":{"price":253000,"use":"広島南","zone":"","station":"住宅兼事務所"}},{"type":"Feature","geometry":{"type":"Point","coordinates":[132.48148,34.36754]},"properties":{"price":111000,"use":"広島南","zone":"","station":"住宅"}},{"type":"Feature","geometry":{"type":"Point","coordinates":[132.49327,34.38007]},"properties":{"price":223000,"use":"広島南","zone":"","station":"住宅"}},{"type":"Feature","geometry":{"type":"Point","coordinates":[132.47246,34.39792]},"properties":{"price":985000,"use":"広島南","zone":"","station":"塾兼事務所"}},{"type":"Feature","geometry":{"type":"Point","coordinates":[132.47098,34.39211]},"properties":{"price":830000,"use":"広島南","zone":"","station":"店舗兼事務所"}},{"type":"Feature","geometry":{"type":"Point","coordinates":[132.48828,34.38917]},"properties":{"price":316000,"use":"広島南","zone":"","station":"診療所兼住宅"}},{"type":"Feature","geometry":{"type":"Point","coordinates":[132.46689,34.37913]},"properties":{"price":331000,"use":"広島南","zone":"","station":"事務所兼共同住宅"}},{"type":"Feature","geometry":{"type":"Point","coordinates":[132.48913,34.38036]},"properties":{"price":250000,"use":"広島南","zone":"","station":"店舗兼共同住宅"}},{"type":"Feature","geometry":{"type":"Point","coordinates":[132.47793,34.37402]},"properties":{"price":279000,"use":"広島南","zone":"","station":"店舗兼共同住宅"}},{"type":"Feature","geometry":{"type":"Point","coordinates":[132.47522,34.39228]},"properties":{"price":548000,"use":"広島南","zone":"","station":"事務所"}},{"type":"Feature","geometry":{"type":"Point","coordinates":[132.47703,34.38204]},"properties":{"price":512000,"use":"広島南","zone":"","station":"店舗兼共同住宅"}},{"type":"Feature","geometry":{"type":"Point","coordinates":[132.47369,34.39648]},"properties":{"price":2550000,"use":"広島南","zone":"","station":"店舗"}},{"type":"Feature","geometry":{"type":"Point","coordinates":[132.48322,34.38504]},"properties":{"price":486000,"use":"広島南","zone":"","station":"事務所兼共同住宅"}},{"type":"Feature","geometry":{"type":"Point","coordinates":[132.44897,34.35381]},"properties":{"price":141000,"use":"広島南","zone":"","station":"事務所"}},{"type":"Feature","geometry":{"type":"Point","coordinates":[132.49569,34.38809]},"properties":{"price":172000,"use":"広島南","zone":"","station":"作業所"}},{"type":"Feature","geometry":{"type":"Point","coordinates":[132.41734,34.38369]},"properties":{"price":235000,"use":"広島西","zone":"","station":"住宅"}},{"type":"Feature","geometry":{"type":"Point","coordinates":[132.45634,34.42214]},"properties":{"price":216000,"use":"広島西","zone":"","station":"住宅"}},{"type":"Feature","geometry":{"type":"Point","coordinates":[132.4455,34.41511]},"properties":{"price":120000,"use":"広島西","zone":"","station":"住宅"}},{"type":"Feature","geometry":{"type":"Point","coordinates":[132.38353,34.3754]},"properties":{"price":95100,"use":"広島西","zone":"","station":"住宅"}},{"type":"Feature","geometry":{"type":"Point","coordinates":[132.41673,34.39516]},"properties":{"price":85600,"use":"広島西","zone":"","station":"住宅"}},{"type":"Feature","geometry":{"type":"Point","coordinates":[132.3729,34.37408]},"properties":{"price":94700,"use":"広島西","zone":"","station":"住宅"}},{"type":"Feature","geometry":{"type":"Point","coordinates":[132.38154,34.37027]},"properties":{"price":169000,"use":"広島西","zone":"","station":"住宅"}},{"type":"Feature","geometry":{"type":"Point","coordinates":[132.42312,34.39285]},"properties":{"price":253000,"use":"広島西","zone":"","station":"住宅"}},{"type":"Feature","geometry":{"type":"Point","coordinates":[132.41447,34.39916]},"properties":{"price":119000,"use":"広島西","zone":"","station":"住宅"}},{"type":"Feature","geometry":{"type":"Point","coordinates":[132.42324,34.4205]},"properties":{"price":30800,"use":"広島西","zone":"","station":"住宅"}},{"type":"Feature","geometry":{"type":"Point","coordinates":[132.42423,34.41022]},"properties":{"price":68200,"use":"広島西","zone":"","station":"住宅"}},{"type":"Feature","geometry":{"type":"Point","coordinates":[132.42358,34.40359]},"properties":{"price":88500,"use":"広島西","zone":"","station":"住宅"}},{"type":"Feature","geometry":{"type":"Point","coordinates":[132.45797,34.41624]},"properties":{"price":229000,"use":"広島西","zone":"","station":"住宅"}},{"type":"Feature","geometry":{"type":"Point","coordinates":[132.45181,34.41336]},"properties":{"price":245000,"use":"広島西","zone":"","station":"住宅"}},{"type":"Feature","geometry":{"type":"Point","coordinates":[132.42261,34.39473]},"properties":{"price":168000,"use":"広島西","zone":"","station":"住宅"}},{"type":"Feature","geometry":{"type":"Point","coordinates":[132.40761,34.38559]},"properties":{"price":233000,"use":"広島西","zone":"","station":"住宅"}},{"type":"Feature","geometry":{"type":"Point","coordinates":[132.37685,34.37911]},"properties":{"price":154000,"use":"広島西","zone":"","station":"住宅"}},{"type":"Feature","geometry":{"type":"Point","coordinates":[132.41695,34.39151]},"properties":{"price":257000,"use":"広島西","zone":"","station":"住宅"}},{"type":"Feature","geometry":{"type":"Point","coordinates":[132.39138,34.40116]},"properties":{"price":66700,"use":"広島西","zone":"","station":"住宅"}},{"type":"Feature","geometry":{"type":"Point","coordinates":[132.4208,34.4023]},"properties":{"price":128000,"use":"広島西","zone":"","station":"住宅"}},{"type":"Feature","geometry":{"type":"Point","coordinates":[132.44584,34.42008]},"properties":{"price":111000,"use":"広島西","zone":"","station":"住宅"}},{"type":"Feature","geometry":{"type":"Point","coordinates":[132.39653,34.37528]},"properties":{"price":251000,"use":"広島西","zone":"","station":"住宅"}},{"type":"Feature","geometry":{"type":"Point","coordinates":[132.42773,34.37602]},"properties":{"price":167000,"use":"広島西","zone":"","station":"住宅"}},{"type":"Feature","geometry":{"type":"Point","coordinates":[132.4267,34.38658]},"properties":{"price":175000,"use":"広島西","zone":"","station":"共同住宅"}},{"type":"Feature","geometry":{"type":"Point","coordinates":[132.4336,34.404]},"properties":{"price":103000,"use":"広島西","zone":"","station":"住宅"}},{"type":"Feature","geometry":{"type":"Point","coordinates":[132.39734,34.38315]},"properties":{"price":141000,"use":"広島西","zone":"","station":"住宅"}},{"type":"Feature","geometry":{"type":"Point","coordinates":[132.43255,34.38982]},"properties":{"price":203000,"use":"広島西","zone":"","station":"住宅"}},{"type":"Feature","geometry":{"type":"Point","coordinates":[132.41274,34.40315]},"properties":{"price":83800,"use":"広島西","zone":"","station":"住宅"}},{"type":"Feature","geometry":{"type":"Point","coordinates":[132.39586,34.37728]},"properties":{"price":260000,"use":"広島西","zone":"","station":"店舗兼車庫"}},{"type":"Feature","geometry":{"type":"Point","coordinates":[132.44077,34.39454]},"properties":{"price":354000,"use":"広島西","zone":"","station":"店舗、共同住宅兼倉庫"}},{"type":"Feature","geometry":{"type":"Point","coordinates":[132.42869,34.39686]},"properties":{"price":455000,"use":"広島西","zone":"","station":"店舗、事務所兼住宅"}},{"type":"Feature","geometry":{"type":"Point","coordinates":[132.44987,34.40886]},"properties":{"price":637000,"use":"広島西","zone":"","station":"店舗兼住宅"}},{"type":"Feature","geometry":{"type":"Point","coordinates":[132.43681,34.38806]},"properties":{"price":258000,"use":"広島西","zone":"","station":"店舗兼共同住宅"}},{"type":"Feature","geometry":{"type":"Point","coordinates":[132.45216,34.4122]},"properties":{"price":299000,"use":"広島西","zone":"","station":"店舗兼共同住宅"}},{"type":"Feature","geometry":{"type":"Point","coordinates":[132.44499,34.40593]},"properties":{"price":359000,"use":"広島西","zone":"","station":"店舗兼共同住宅"}},{"type":"Feature","geometry":{"type":"Point","coordinates":[132.45413,34.40807]},"properties":{"price":299000,"use":"広島西","zone":"","station":"事務所兼共同住宅"}},{"type":"Feature","geometry":{"type":"Point","coordinates":[132.38256,34.36405]},"properties":{"price":146000,"use":"広島西","zone":"","station":"店舗、事務所兼作業所等"}},{"type":"Feature","geometry":{"type":"Point","coordinates":[132.39554,34.36516]},"properties":{"price":118000,"use":"広島西","zone":"","station":"倉庫"}},{"type":"Feature","geometry":{"type":"Point","coordinates":[132.49085,34.47491]},"properties":{"price":150000,"use":"広島安佐南","zone":"","station":"住宅"}},{"type":"Feature","geometry":{"type":"Point","coordinates":[132.45438,34.42612]},"properties":{"price":174000,"use":"広島安佐南","zone":"","station":"住宅"}},{"type":"Feature","geometry":{"type":"Point","coordinates":[132.45552,34.44064]},"properties":{"price":151000,"use":"広島安佐南","zone":"","station":"住宅"}},{"type":"Feature","geometry":{"type":"Point","coordinates":[132.47186,34.44354]},"properties":{"price":191000,"use":"広島安佐南","zone":"","station":"住宅"}},{"type":"Feature","geometry":{"type":"Point","coordinates":[132.46255,34.42762]},"properties":{"price":185000,"use":"広島安佐南","zone":"","station":"住宅"}},{"type":"Feature","geometry":{"type":"Point","coordinates":[132.46672,34.46162]},"properties":{"price":181000,"use":"広島安佐南","zone":"","station":"住宅"}},{"type":"Feature","geometry":{"type":"Point","coordinates":[132.46251,34.45866]},"properties":{"price":87100,"use":"広島安佐南","zone":"","station":"住宅"}},{"type":"Feature","geometry":{"type":"Point","coordinates":[132.48473,34.44326]},"properties":{"price":165000,"use":"広島安佐南","zone":"","station":"住宅"}},{"type":"Feature","geometry":{"type":"Point","coordinates":[132.43588,34.47027]},"properties":{"price":64000,"use":"広島安佐南","zone":"","station":"住宅"}},{"type":"Feature","geometry":{"type":"Point","coordinates":[132.46397,34.48295]},"properties":{"price":78900,"use":"広島安佐南","zone":"","station":"空地"}},{"type":"Feature","geometry":{"type":"Point","coordinates":[132.50148,34.48294]},"properties":{"price":63300,"use":"広島安佐南","zone":"","station":"住宅"}},{"type":"Feature","geometry":{"type":"Point","coordinates":[132.48446,34.47727]},"properties":{"price":67800,"use":"広島安佐南","zone":"","station":"住宅"}},{"type":"Feature","geometry":{"type":"Point","coordinates":[132.44909,34.43249]},"properties":{"price":102000,"use":"広島安佐南","zone":"","station":"住宅"}},{"type":"Feature","geometry":{"type":"Point","coordinates":[132.40896,34.47166]},"properties":{"price":25800,"use":"広島安佐南","zone":"","station":"住宅"}},{"type":"Feature","geometry":{"type":"Point","coordinates":[132.44215,34.48153]},"properties":{"price":54000,"use":"広島安佐南","zone":"","station":"住宅"}},{"type":"Feature","geometry":{"type":"Point","coordinates":[132.47442,34.46864]},"properties":{"price":161000,"use":"広島安佐南","zone":"","station":"住宅"}},{"type":"Feature","geometry":{"type":"Point","coordinates":[132.42048,34.47433]},"properties":{"price":54000,"use":"広島安佐南","zone":"","station":"住宅"}},{"type":"Feature","geometry":{"type":"Point","coordinates":[132.41219,34.46338]},"properties":{"price":95900,"use":"広島安佐南","zone":"","station":"住宅"}},{"type":"Feature","geometry":{"type":"Point","coordinates":[132.40702,34.45739]},"properties":{"price":59100,"use":"広島安佐南","zone":"","station":"住宅"}},{"type":"Feature","geometry":{"type":"Point","coordinates":[132.46712,34.44253]},"properties":{"price":194000,"use":"広島安佐南","zone":"","station":"住宅"}},{"type":"Feature","geometry":{"type":"Point","coordinates":[132.48762,34.47068]},"properties":{"price":136000,"use":"広島安佐南","zone":"","station":"住宅"}},{"type":"Feature","geometry":{"type":"Point","coordinates":[132.43124,34.47926]},"properties":{"price":65200,"use":"広島安佐南","zone":"","station":"住宅"}},{"type":"Feature","geometry":{"type":"Point","coordinates":[132.4499,34.475]},"properties":{"price":126000,"use":"広島安佐南","zone":"","station":"住宅"}},{"type":"Feature","geometry":{"type":"Point","coordinates":[132.43832,34.47322]},"properties":{"price":89800,"use":"広島安佐南","zone":"","station":"住宅"}},{"type":"Feature","geometry":{"type":"Point","coordinates":[132.44206,34.46515]},"properties":{"price":40300,"use":"広島安佐南","zone":"","station":"住宅"}},{"type":"Feature","geometry":{"type":"Point","coordinates":[132.42185,34.4689]},"properties":{"price":82100,"use":"広島安佐南","zone":"","station":"住宅"}},{"type":"Feature","geometry":{"type":"Point","coordinates":[132.44598,34.44116]},"properties":{"price":57500,"use":"広島安佐南","zone":"","station":"住宅"}},{"type":"Feature","geometry":{"type":"Point","coordinates":[132.45709,34.43633]},"properties":{"price":193000,"use":"広島安佐南","zone":"","station":"住宅"}},{"type":"Feature","geometry":{"type":"Point","coordinates":[132.45785,34.44599]},"properties":{"price":134000,"use":"広島安佐南","zone":"","station":"共同住宅"}},{"type":"Feature","geometry":{"type":"Point","coordinates":[132.47475,34.4508]},"properties":{"price":174000,"use":"広島安佐南","zone":"","station":"住宅"}},{"type":"Feature","geometry":{"type":"Point","coordinates":[132.48117,34.46264]},"properties":{"price":157000,"use":"広島安佐南","zone":"","station":"住宅"}},{"type":"Feature","geometry":{"type":"Point","coordinates":[132.50582,34.48598]},"properties":{"price":82100,"use":"広島安佐南","zone":"","station":"住宅"}},{"type":"Feature","geometry":{"type":"Point","coordinates":[132.45725,34.47387]},"properties":{"price":84500,"use":"広島安佐南","zone":"","station":"住宅"}},{"type":"Feature","geometry":{"type":"Point","coordinates":[132.46848,34.44172]},"properties":{"price":265000,"use":"広島安佐南","zone":"","station":"店舗"}},{"type":"Feature","geometry":{"type":"Point","coordinates":[132.47091,34.46708]},"properties":{"price":219000,"use":"広島安佐南","zone":"","station":"店舗兼共同住宅"}},{"type":"Feature","geometry":{"type":"Point","coordinates":[132.48102,34.47148]},"properties":{"price":150000,"use":"広島安佐南","zone":"","station":"店舗兼住宅"}},{"type":"Feature","geometry":{"type":"Point","coordinates":[132.49633,34.48146]},"properties":{"price":183000,"use":"広島安佐南","zone":"","station":"事務所"}},{"type":"Feature","geometry":{"type":"Point","coordinates":[132.38009,34.44562]},"properties":{"price":135000,"use":"広島安佐南","zone":"","station":"店舗"}},{"type":"Feature","geometry":{"type":"Point","coordinates":[132.39612,34.45326]},"properties":{"price":41900,"use":"広島安佐南","zone":"","station":"工場"}},{"type":"Feature","geometry":{"type":"Point","coordinates":[132.45404,34.4342]},"properties":{"price":155000,"use":"広島安佐南","zone":"","station":"工場"}},{"type":"Feature","geometry":{"type":"Point","coordinates":[132.38685,34.45556]},"properties":{"price":75600,"use":"広島安佐南","zone":"","station":"倉庫"}},{"type":"Feature","geometry":{"type":"Point","coordinates":[132.52425,34.48048]},"properties":{"price":81500,"use":"広島安佐北","zone":"","station":"住宅"}},{"type":"Feature","geometry":{"type":"Point","coordinates":[132.49956,34.46168]},"properties":{"price":79600,"use":"広島安佐北","zone":"","station":"住宅"}},{"type":"Feature","geometry":{"type":"Point","coordinates":[132.50845,34.481]},"properties":{"price":91600,"use":"広島安佐北","zone":"","station":"住宅"}},{"type":"Feature","geometry":{"type":"Point","coordinates":[132.50766,34.45989]},"properties":{"price":80500,"use":"広島安佐北","zone":"","station":"住宅"}},{"type":"Feature","geometry":{"type":"Point","coordinates":[132.52852,34.48085]},"properties":{"price":68500,"use":"広島安佐北","zone":"","station":"住宅"}},{"type":"Feature","geometry":{"type":"Point","coordinates":[132.48578,34.53187]},"properties":{"price":28000,"use":"広島安佐北","zone":"","station":"住宅"}},{"type":"Feature","geometry":{"type":"Point","coordinates":[132.51531,34.49968]},"properties":{"price":87400,"use":"広島安佐北","zone":"","station":"住宅"}},{"type":"Feature","geometry":{"type":"Point","coordinates":[132.52361,34.51149]},"properties":{"price":37500,"use":"広島安佐北","zone":"","station":"住宅"}},{"type":"Feature","geometry":{"type":"Point","coordinates":[132.50222,34.52336]},"properties":{"price":85000,"use":"広島安佐北","zone":"","station":"住宅"}},{"type":"Feature","geometry":{"type":"Point","coordinates":[132.49224,34.52337]},"properties":{"price":43400,"use":"広島安佐北","zone":"","station":"住宅"}},{"type":"Feature","geometry":{"type":"Point","coordinates":[132.49524,34.45429]},"properties":{"price":86200,"use":"広島安佐北","zone":"","station":"住宅"}},{"type":"Feature","geometry":{"type":"Point","coordinates":[132.52532,34.547]},"properties":{"price":21400,"use":"広島安佐北","zone":"","station":"住宅"}},{"type":"Feature","geometry":{"type":"Point","coordinates":[132.54023,34.54758]},"properties":{"price":19700,"use":"広島安佐北","zone":"","station":"住宅"}},{"type":"Feature","geometry":{"type":"Point","coordinates":[132.504,34.52552]},"properties":{"price":53000,"use":"広島安佐北","zone":"","station":"住宅"}},{"type":"Feature","geometry":{"type":"Point","coordinates":[132.50765,34.51889]},"properties":{"price":110000,"use":"広島安佐北","zone":"","station":"住宅"}},{"type":"Feature","geometry":{"type":"Point","coordinates":[132.49962,34.46713]},"properties":{"price":104000,"use":"広島安佐北","zone":"","station":"住宅"}},{"type":"Feature","geometry":{"type":"Point","coordinates":[132.51071,34.47505]},"properties":{"price":76000,"use":"広島安佐北","zone":"","station":"住宅"}},{"type":"Feature","geometry":{"type":"Point","coordinates":[132.52313,34.49073]},"properties":{"price":68500,"use":"広島安佐北","zone":"","station":"住宅"}},{"type":"Feature","geometry":{"type":"Point","coordinates":[132.51821,34.50736]},"properties":{"price":68800,"use":"広島安佐北","zone":"","station":"住宅"}},{"type":"Feature","geometry":{"type":"Point","coordinates":[132.51858,34.4635]},"properties":{"price":29300,"use":"広島安佐北","zone":"","station":"住宅"}},{"type":"Feature","geometry":{"type":"Point","coordinates":[132.56408,34.46135]},"properties":{"price":26500,"use":"広島安佐北","zone":"","station":"住宅"}},{"type":"Feature","geometry":{"type":"Point","coordinates":[132.52892,34.54104]},"properties":{"price":40800,"use":"広島安佐北","zone":"","station":"住宅"}},{"type":"Feature","geometry":{"type":"Point","coordinates":[132.51444,34.517]},"properties":{"price":79500,"use":"広島安佐北","zone":"","station":"住宅"}},{"type":"Feature","geometry":{"type":"Point","coordinates":[132.53392,34.48662]},"properties":{"price":35500,"use":"広島安佐北","zone":"","station":"住宅"}},{"type":"Feature","geometry":{"type":"Point","coordinates":[132.51047,34.50855]},"properties":{"price":82700,"use":"広島安佐北","zone":"","station":"住宅"}},{"type":"Feature","geometry":{"type":"Point","coordinates":[132.54218,34.55311]},"properties":{"price":23500,"use":"広島安佐北","zone":"","station":"住宅"}},{"type":"Feature","geometry":{"type":"Point","coordinates":[132.49917,34.516]},"properties":{"price":82300,"use":"広島安佐北","zone":"","station":"住宅"}},{"type":"Feature","geometry":{"type":"Point","coordinates":[132.51213,34.52044]},"properties":{"price":159000,"use":"広島安佐北","zone":"","station":"店舗兼事務所"}},{"type":"Feature","geometry":{"type":"Point","coordinates":[132.50346,34.52381]},"properties":{"price":96400,"use":"広島安佐北","zone":"","station":"店舗兼住宅"}},{"type":"Feature","geometry":{"type":"Point","coordinates":[132.50821,34.51966]},"properties":{"price":131000,"use":"広島安佐北","zone":"","station":"店舗兼共同住宅"}},{"type":"Feature","geometry":{"type":"Point","coordinates":[132.55055,34.39318]},"properties":{"price":55300,"use":"広島安芸","zone":"","station":"住宅"}},{"type":"Feature","geometry":{"type":"Point","coordinates":[132.56128,34.39111]},"properties":{"price":91700,"use":"広島安芸","zone":"","station":"住宅"}},{"type":"Feature","geometry":{"type":"Point","coordinates":[132.53088,34.35354]},"properties":{"price":119000,"use":"広島安芸","zone":"","station":"住宅"}},{"type":"Feature","geometry":{"type":"Point","coordinates":[132.57109,34.39951]},"properties":{"price":49800,"use":"広島安芸","zone":"","station":"住宅"}},{"type":"Feature","geometry":{"type":"Point","coordinates":[132.5233,34.37176]},"properties":{"price":156000,"use":"広島安芸","zone":"","station":"住宅"}},{"type":"Feature","geometry":{"type":"Point","coordinates":[132.52985,34.37473]},"properties":{"price":116000,"use":"広島安芸","zone":"","station":"住宅"}},{"type":"Feature","geometry":{"type":"Point","coordinates":[132.53709,34.35612]},"properties":{"price":148000,"use":"広島安芸","zone":"","station":"住宅"}},{"type":"Feature","geometry":{"type":"Point","coordinates":[132.54083,34.35593]},"properties":{"price":71700,"use":"広島安芸","zone":"","station":"住宅"}},{"type":"Feature","geometry":{"type":"Point","coordinates":[132.51668,34.3765]},"properties":{"price":140000,"use":"広島安芸","zone":"","station":"住宅"}},{"type":"Feature","geometry":{"type":"Point","coordinates":[132.53969,34.34521]},"properties":{"price":59600,"use":"広島安芸","zone":"","station":"住宅"}},{"type":"Feature","geometry":{"type":"Point","coordinates":[132.57884,34.4005]},"properties":{"price":97800,"use":"広島安芸","zone":"","station":"住宅"}},{"type":"Feature","geometry":{"type":"Point","coordinates":[132.58743,34.41717]},"properties":{"price":47600,"use":"広島安芸","zone":"","station":"住宅"}},{"type":"Feature","geometry":{"type":"Point","coordinates":[132.56211,34.38416]},"properties":{"price":69600,"use":"広島安芸","zone":"","station":"住宅"}},{"type":"Feature","geometry":{"type":"Point","coordinates":[132.52948,34.34787]},"properties":{"price":116000,"use":"広島安芸","zone":"","station":"住宅"}},{"type":"Feature","geometry":{"type":"Point","coordinates":[132.60996,34.42123]},"properties":{"price":36300,"use":"広島安芸","zone":"","station":"住宅"}},{"type":"Feature","geometry":{"type":"Point","coordinates":[132.54276,34.33833]},"properties":{"price":34300,"use":"広島安芸","zone":"","station":"住宅"}},{"type":"Feature","geometry":{"type":"Point","coordinates":[132.62076,34.42045]},"properties":{"price":20900,"use":"広島安芸","zone":"","station":"住宅"}},{"type":"Feature","geometry":{"type":"Point","coordinates":[132.53323,34.35313]},"properties":{"price":168000,"use":"広島安芸","zone":"","station":"病院兼住宅"}},{"type":"Feature","geometry":{"type":"Point","coordinates":[132.56327,34.39161]},"properties":{"price":126000,"use":"広島安芸","zone":"","station":"事務所兼住宅"}},{"type":"Feature","geometry":{"type":"Point","coordinates":[132.56126,34.38567]},"properties":{"price":94700,"use":"広島安芸","zone":"","station":"病院"}},{"type":"Feature","geometry":{"type":"Point","coordinates":[132.52513,34.35131]},"properties":{"price":73000,"use":"広島安芸","zone":"","station":"工場"}},{"type":"Feature","geometry":{"type":"Point","coordinates":[132.55968,34.38553]},"properties":{"price":57400,"use":"広島安芸","zone":"","station":"工場"}},{"type":"Feature","geometry":{"type":"Point","coordinates":[132.52271,34.3676]},"properties":{"price":82600,"use":"広島安芸","zone":"","station":"工場"}},{"type":"Feature","geometry":{"type":"Point","coordinates":[132.37435,34.3642]},"properties":{"price":187000,"use":"広島佐伯","zone":"","station":"住宅"}},{"type":"Feature","geometry":{"type":"Point","coordinates":[132.34,34.37791]},"properties":{"price":57900,"use":"広島佐伯","zone":"","station":"住宅"}},{"type":"Feature","geometry":{"type":"Point","coordinates":[132.3852,34.3895]},"properties":{"price":84300,"use":"広島佐伯","zone":"","station":"住宅"}},{"type":"Feature","geometry":{"type":"Point","coordinates":[132.35542,34.37932]},"properties":{"price":141000,"use":"広島佐伯","zone":"","station":"住宅"}},{"type":"Feature","geometry":{"type":"Point","coordinates":[132.35839,34.36851]},"properties":{"price":149000,"use":"広島佐伯","zone":"","station":"住宅"}},{"type":"Feature","geometry":{"type":"Point","coordinates":[132.36421,34.37513]},"properties":{"price":138000,"use":"広島佐伯","zone":"","station":"住宅"}},{"type":"Feature","geometry":{"type":"Point","coordinates":[132.36167,34.39168]},"properties":{"price":97100,"use":"広島佐伯","zone":"","station":"住宅"}},{"type":"Feature","geometry":{"type":"Point","coordinates":[132.34393,34.38533]},"properties":{"price":66900,"use":"広島佐伯","zone":"","station":"住宅"}},{"type":"Feature","geometry":{"type":"Point","coordinates":[132.36941,34.40329]},"properties":{"price":43700,"use":"広島佐伯","zone":"","station":"住宅"}},{"type":"Feature","geometry":{"type":"Point","coordinates":[132.34525,34.36222]},"properties":{"price":138000,"use":"広島佐伯","zone":"","station":"住宅"}},{"type":"Feature","geometry":{"type":"Point","coordinates":[132.36174,34.3879]},"properties":{"price":97600,"use":"広島佐伯","zone":"","station":"住宅"}},{"type":"Feature","geometry":{"type":"Point","coordinates":[132.34736,34.3953]},"properties":{"price":51000,"use":"広島佐伯","zone":"","station":"住宅"}},{"type":"Feature","geometry":{"type":"Point","coordinates":[132.36634,34.38465]},"properties":{"price":72900,"use":"広島佐伯","zone":"","station":"住宅"}},{"type":"Feature","geometry":{"type":"Point","coordinates":[132.35401,34.36637]},"properties":{"price":150000,"use":"広島佐伯","zone":"","station":"住宅"}},{"type":"Feature","geometry":{"type":"Point","coordinates":[132.36148,34.40046]},"properties":{"price":66100,"use":"広島佐伯","zone":"","station":"住宅"}},{"type":"Feature","geometry":{"type":"Point","coordinates":[132.36798,34.37003]},"properties":{"price":189000,"use":"広島佐伯","zone":"","station":"住宅"}},{"type":"Feature","geometry":{"type":"Point","coordinates":[132.36294,34.36941]},"properties":{"price":160000,"use":"広島佐伯","zone":"","station":"住宅"}},{"type":"Feature","geometry":{"type":"Point","coordinates":[132.35493,34.39596]},"properties":{"price":58600,"use":"広島佐伯","zone":"","station":"住宅"}},{"type":"Feature","geometry":{"type":"Point","coordinates":[132.34793,34.36673]},"properties":{"price":137000,"use":"広島佐伯","zone":"","station":"住宅"}},{"type":"Feature","geometry":{"type":"Point","coordinates":[132.36792,34.36263]},"properties":{"price":170000,"use":"広島佐伯","zone":"","station":"住宅"}},{"type":"Feature","geometry":{"type":"Point","coordinates":[132.34012,34.3716]},"properties":{"price":63800,"use":"広島佐伯","zone":"","station":"住宅"}},{"type":"Feature","geometry":{"type":"Point","coordinates":[132.36235,34.41967]},"properties":{"price":40900,"use":"広島佐伯","zone":"","station":"住宅"}},{"type":"Feature","geometry":{"type":"Point","coordinates":[132.34712,34.35946]},"properties":{"price":121000,"use":"広島佐伯","zone":"","station":"住宅"}},{"type":"Feature","geometry":{"type":"Point","coordinates":[132.35561,34.3632]},"properties":{"price":200000,"use":"広島佐伯","zone":"","station":"住宅"}},{"type":"Feature","geometry":{"type":"Point","coordinates":[132.35373,34.39255]},"properties":{"price":57200,"use":"広島佐伯","zone":"","station":"共同住宅"}},{"type":"Feature","geometry":{"type":"Point","coordinates":[132.35675,34.38346]},"properties":{"price":125000,"use":"広島佐伯","zone":"","station":"住宅"}},{"type":"Feature","geometry":{"type":"Point","coordinates":[132.35288,34.36411]},"properties":{"price":253000,"use":"広島佐伯","zone":"","station":"店舗兼共同住宅"}},{"type":"Feature","geometry":{"type":"Point","coordinates":[132.35822,34.37383]},"properties":{"price":242000,"use":"広島佐伯","zone":"","station":"店舗兼共同住宅"}},{"type":"Feature","geometry":{"type":"Point","coordinates":[132.35676,34.38161]},"properties":{"price":142000,"use":"広島佐伯","zone":"","station":"事務所"}},{"type":"Feature","geometry":{"type":"Point","coordinates":[132.38504,34.41478]},"properties":{"price":73300,"use":"広島佐伯","zone":"","station":"店舗"}},{"type":"Feature","geometry":{"type":"Point","coordinates":[132.36037,34.38791]},"properties":{"price":87500,"use":"広島佐伯","zone":"","station":"工場"}},{"type":"Feature","geometry":{"type":"Point","coordinates":[132.59362,34.24971]},"properties":{"price":46400,"use":"呉","zone":"","station":"住宅"}},{"type":"Feature","geometry":{"type":"Point","coordinates":[132.53342,34.18535]},"properties":{"price":25200,"use":"呉","zone":"","station":"住宅"}},{"type":"Feature","geometry":{"type":"Point","coordinates":[132.55677,34.2266]},"properties":{"price":39400,"use":"呉","zone":"","station":"住宅"}},{"type":"Feature","geometry":{"type":"Point","coordinates":[132.55322,34.25077]},"properties":{"price":61000,"use":"呉","zone":"","station":"住宅"}},{"type":"Feature","geometry":{"type":"Point","coordinates":[132.58208,34.25663]},"properties":{"price":39800,"use":"呉","zone":"","station":"住宅"}},{"type":"Feature","geometry":{"type":"Point","coordinates":[132.76001,34.28281]},"properties":{"price":23500,"use":"呉","zone":"","station":"住宅"}},{"type":"Feature","geometry":{"type":"Point","coordinates":[132.52908,34.26328]},"properties":{"price":29500,"use":"呉","zone":"","station":"住宅"}},{"type":"Feature","geometry":{"type":"Point","coordinates":[132.54738,34.21903]},"properties":{"price":54200,"use":"呉","zone":"","station":"住宅"}},{"type":"Feature","geometry":{"type":"Point","coordinates":[132.52085,34.28879]},"properties":{"price":45400,"use":"呉","zone":"","station":"住宅"}},{"type":"Feature","geometry":{"type":"Point","coordinates":[132.63542,34.20921]},"properties":{"price":31600,"use":"呉","zone":"","station":"住宅"}},{"type":"Feature","geometry":{"type":"Point","coordinates":[132.61981,34.23823]},"properties":{"price":130000,"use":"呉","zone":"","station":"住宅"}},{"type":"Feature","geometry":{"type":"Point","coordinates":[132.63457,34.22134]},"properties":{"price":49100,"use":"呉","zone":"","station":"住宅"}},{"type":"Feature","geometry":{"type":"Point","coordinates":[132.66065,34.22279]},"properties":{"price":23800,"use":"呉","zone":"","station":"住宅"}},{"type":"Feature","geometry":{"type":"Point","coordinates":[132.61215,34.235]},"properties":{"price":134000,"use":"呉","zone":"","station":"住宅"}},{"type":"Feature","geometry":{"type":"Point","coordinates":[132.56518,34.25166]},"properties":{"price":146000,"use":"呉","zone":"","station":"共同住宅"}},{"type":"Feature","geometry":{"type":"Point","coordinates":[132.55133,34.29971]},"properties":{"price":34700,"use":"呉","zone":"","station":"住宅"}},{"type":"Feature","geometry":{"type":"Point","coordinates":[132.56351,34.25303]},"properties":{"price":124000,"use":"呉","zone":"","station":"住宅"}},{"type":"Feature","geometry":{"type":"Point","coordinates":[132.63112,34.25029]},"properties":{"price":58200,"use":"呉","zone":"","station":"住宅"}},{"type":"Feature","geometry":{"type":"Point","coordinates":[132.65477,34.22554]},"properties":{"price":39500,"use":"呉","zone":"","station":"住宅"}},{"type":"Feature","geometry":{"type":"Point","coordinates":[132.56802,34.25638]},"properties":{"price":75500,"use":"呉","zone":"","station":"住宅"}},{"type":"Feature","geometry":{"type":"Point","coordinates":[132.61105,34.24175]},"properties":{"price":66000,"use":"呉","zone":"","station":"住宅"}},{"type":"Feature","geometry":{"type":"Point","coordinates":[132.62975,34.23266]},"properties":{"price":123000,"use":"呉","zone":"","station":"住宅"}},{"type":"Feature","geometry":{"type":"Point","coordinates":[132.55051,34.18267]},"properties":{"price":41500,"use":"呉","zone":"","station":"住宅"}},{"type":"Feature","geometry":{"type":"Point","coordinates":[132.57331,34.24738]},"properties":{"price":92400,"use":"呉","zone":"","station":"住宅"}},{"type":"Feature","geometry":{"type":"Point","coordinates":[132.53743,34.24864]},"properties":{"price":60200,"use":"呉","zone":"","station":"住宅"}},{"type":"Feature","geometry":{"type":"Point","coordinates":[132.57782,34.24829]},"properties":{"price":79000,"use":"呉","zone":"","station":"住宅"}},{"type":"Feature","geometry":{"type":"Point","coordinates":[132.63313,34.26854]},"properties":{"price":25400,"use":"呉","zone":"","station":"住宅"}},{"type":"Feature","geometry":{"type":"Point","coordinates":[132.73702,34.28139]},"properties":{"price":28400,"use":"呉","zone":"","station":"住宅"}},{"type":"Feature","geometry":{"type":"Point","coordinates":[132.69443,34.22995]},"properties":{"price":43000,"use":"呉","zone":"","station":"住宅"}},{"type":"Feature","geometry":{"type":"Point","coordinates":[132.6838,34.21774]},"properties":{"price":30400,"use":"呉","zone":"","station":"住宅"}},{"type":"Feature","geometry":{"type":"Point","coordinates":[132.59856,34.23586]},"properties":{"price":74300,"use":"呉","zone":"","station":"事務所兼住宅"}},{"type":"Feature","geometry":{"type":"Point","coordinates":[132.55052,34.1992]},"properties":{"price":17500,"use":"呉","zone":"","station":"住宅"}},{"type":"Feature","geometry":{"type":"Point","coordinates":[132.58924,34.29646]},"properties":{"price":16800,"use":"呉","zone":"","station":"住宅"}},{"type":"Feature","geometry":{"type":"Point","coordinates":[132.56648,34.29313]},"properties":{"price":34500,"use":"呉","zone":"","station":"住宅"}},{"type":"Feature","geometry":{"type":"Point","coordinates":[132.56151,34.25099]},"properties":{"price":156000,"use":"呉","zone":"","station":"住宅"}},{"type":"Feature","geometry":{"type":"Point","coordinates":[132.55831,34.24281]},"properties":{"price":225000,"use":"呉","zone":"","station":"店舗"}},{"type":"Feature","geometry":{"type":"Point","coordinates":[132.55595,34.29477]},"properties":{"price":69500,"use":"呉","zone":"","station":"診療所"}},{"type":"Feature","geometry":{"type":"Point","coordinates":[132.53335,34.19239]},"properties":{"price":52700,"use":"呉","zone":"","station":"銀行兼共同住宅"}},{"type":"Feature","geometry":{"type":"Point","coordinates":[132.56565,34.24633]},"properties":{"price":231000,"use":"呉","zone":"","station":"店舗"}},{"type":"Feature","geometry":{"type":"Point","coordinates":[132.55314,34.24821]},"properties":{"price":139000,"use":"呉","zone":"","station":"店舗兼住宅"}},{"type":"Feature","geometry":{"type":"Point","coordinates":[132.57642,34.25361]},"properties":{"price":128000,"use":"呉","zone":"","station":"店舗兼住宅"}},{"type":"Feature","geometry":{"type":"Point","coordinates":[132.65476,34.22368]},"properties":{"price":53400,"use":"呉","zone":"","station":"店舗"}},{"type":"Feature","geometry":{"type":"Point","coordinates":[132.69508,34.23488]},"properties":{"price":53000,"use":"呉","zone":"","station":"診療所"}},{"type":"Feature","geometry":{"type":"Point","coordinates":[132.59543,34.23453]},"properties":{"price":76400,"use":"呉","zone":"","station":"店舗、事務所兼住宅"}},{"type":"Feature","geometry":{"type":"Point","coordinates":[132.62352,34.23501]},"properties":{"price":154000,"use":"呉","zone":"","station":"店舗、共同住宅兼住宅"}},{"type":"Feature","geometry":{"type":"Point","coordinates":[132.56179,34.24671]},"properties":{"price":260000,"use":"呉","zone":"","station":"店舗、事務所兼住宅"}},{"type":"Feature","geometry":{"type":"Point","coordinates":[132.56433,34.23467]},"properties":{"price":79400,"use":"呉","zone":"","station":"事務所"}},{"type":"Feature","geometry":{"type":"Point","coordinates":[132.74509,34.28308]},"properties":{"price":39000,"use":"呉","zone":"","station":"店舗兼住宅"}},{"type":"Feature","geometry":{"type":"Point","coordinates":[132.56961,34.25166]},"properties":{"price":149000,"use":"呉","zone":"","station":"店舗兼住宅"}},{"type":"Feature","geometry":{"type":"Point","coordinates":[132.56331,34.24291]},"properties":{"price":227000,"use":"呉","zone":"","station":"銀行"}},{"type":"Feature","geometry":{"type":"Point","coordinates":[132.54549,34.21034]},"properties":{"price":65700,"use":"呉","zone":"","station":"店舗"}},{"type":"Feature","geometry":{"type":"Point","coordinates":[132.62104,34.24187]},"properties":{"price":165000,"use":"呉","zone":"","station":"店舗"}},{"type":"Feature","geometry":{"type":"Point","coordinates":[132.61075,34.23179]},"properties":{"price":53700,"use":"呉","zone":"","station":"工場"}},{"type":"Feature","geometry":{"type":"Point","coordinates":[132.54881,34.24263]},"properties":{"price":55400,"use":"呉","zone":"","station":"工場"}},{"type":"Feature","geometry":{"type":"Point","coordinates":[132.65665,34.21579]},"properties":{"price":38500,"use":"呉","zone":"","station":"工場"}},{"type":"Feature","geometry":{"type":"Point","coordinates":[132.90423,34.33739]},"properties":{"price":32000,"use":"竹原","zone":"","station":"住宅"}},{"type":"Feature","geometry":{"type":"Point","coordinates":[132.90681,34.35183]},"properties":{"price":34500,"use":"竹原","zone":"","station":"住宅"}},{"type":"Feature","geometry":{"type":"Point","coordinates":[132.90263,34.34412]},"properties":{"price":40200,"use":"竹原","zone":"","station":"住宅"}},{"type":"Feature","geometry":{"type":"Point","coordinates":[132.91027,34.3402]},"properties":{"price":49200,"use":"竹原","zone":"","station":"店舗兼住宅"}},{"type":"Feature","geometry":{"type":"Point","coordinates":[132.90612,34.34286]},"properties":{"price":48400,"use":"竹原","zone":"","station":"診療所兼住宅"}},{"type":"Feature","geometry":{"type":"Point","coordinates":[133.11315,34.39079]},"properties":{"price":33200,"use":"三原","zone":"","station":"住宅"}},{"type":"Feature","geometry":{"type":"Point","coordinates":[133.06513,34.39024]},"properties":{"price":47700,"use":"三原","zone":"","station":"住宅"}},{"type":"Feature","geometry":{"type":"Point","coordinates":[133.10421,34.41739]},"properties":{"price":39900,"use":"三原","zone":"","station":"住宅"}},{"type":"Feature","geometry":{"type":"Point","coordinates":[132.9889,34.40599]},"properties":{"price":36500,"use":"三原","zone":"","station":"住宅"}},{"type":"Feature","geometry":{"type":"Point","coordinates":[133.04,34.38105]},"properties":{"price":31700,"use":"三原","zone":"","station":"住宅"}},{"type":"Feature","geometry":{"type":"Point","coordinates":[133.07411,34.39853]},"properties":{"price":66400,"use":"三原","zone":"","station":"住宅"}},{"type":"Feature","geometry":{"type":"Point","coordinates":[133.06457,34.38539]},"properties":{"price":43000,"use":"三原","zone":"","station":"住宅"}},{"type":"Feature","geometry":{"type":"Point","coordinates":[133.05905,34.39491]},"properties":{"price":64300,"use":"三原","zone":"","station":"住宅"}},{"type":"Feature","geometry":{"type":"Point","coordinates":[132.98403,34.41387]},"properties":{"price":19500,"use":"三原","zone":"","station":"住宅"}},{"type":"Feature","geometry":{"type":"Point","coordinates":[133.09085,34.40778]},"properties":{"price":61200,"use":"三原","zone":"","station":"住宅"}},{"type":"Feature","geometry":{"type":"Point","coordinates":[133.06431,34.39356]},"properties":{"price":59000,"use":"三原","zone":"","station":"住宅"}},{"type":"Feature","geometry":{"type":"Point","coordinates":[133.02404,34.38764]},"properties":{"price":17800,"use":"三原","zone":"","station":"住宅"}},{"type":"Feature","geometry":{"type":"Point","coordinates":[133.0927,34.41841]},"properties":{"price":15400,"use":"三原","zone":"","station":"住宅"}},{"type":"Feature","geometry":{"type":"Point","coordinates":[133.08784,34.40154]},"properties":{"price":75400,"use":"三原","zone":"","station":"店舗兼住宅"}},{"type":"Feature","geometry":{"type":"Point","coordinates":[133.08322,34.39975]},"properties":{"price":161000,"use":"三原","zone":"","station":"店舗"}},{"type":"Feature","geometry":{"type":"Point","coordinates":[133.0801,34.39849]},"properties":{"price":75000,"use":"三原","zone":"","station":"店舗兼住宅"}},{"type":"Feature","geometry":{"type":"Point","coordinates":[133.06632,34.398]},"properties":{"price":82000,"use":"三原","zone":"","station":"店舗兼共同住宅"}},{"type":"Feature","geometry":{"type":"Point","coordinates":[132.98513,34.4078]},"properties":{"price":39600,"use":"三原","zone":"","station":"店舗兼住宅"}},{"type":"Feature","geometry":{"type":"Point","coordinates":[133.10636,34.38973]},"properties":{"price":21100,"use":"三原","zone":"","station":"倉庫"}},{"type":"Feature","geometry":{"type":"Point","coordinates":[132.99341,34.39492]},"properties":{"price":15700,"use":"三原","zone":"","station":"倉庫"}},{"type":"Feature","geometry":{"type":"Point","coordinates":[133.08349,34.38121]},"properties":{"price":16700,"use":"三原","zone":"","station":"工場"}},{"type":"Feature","geometry":{"type":"Point","coordinates":[133.22589,34.42668]},"properties":{"price":56000,"use":"尾道","zone":"","station":"住宅"}},{"type":"Feature","geometry":{"type":"Point","coordinates":[133.22647,34.41387]},"properties":{"price":39000,"use":"尾道","zone":"","station":"住宅"}},{"type":"Feature","geometry":{"type":"Point","coordinates":[133.18368,34.32634]},"properties":{"price":16000,"use":"尾道","zone":"","station":"住宅"}},{"type":"Feature","geometry":{"type":"Point","coordinates":[133.21589,34.41826]},"properties":{"price":43300,"use":"尾道","zone":"","station":"住宅"}},{"type":"Feature","geometry":{"type":"Point","coordinates":[133.1979,34.43651]},"properties":{"price":36500,"use":"尾道","zone":"","station":"住宅"}},{"type":"Feature","geometry":{"type":"Point","coordinates":[133.1994,34.4532]},"properties":{"price":45800,"use":"尾道","zone":"","station":"住宅"}},{"type":"Feature","geometry":{"type":"Point","coordinates":[133.1963,34.42196]},"properties":{"price":56200,"use":"尾道","zone":"","station":"住宅"}},{"type":"Feature","geometry":{"type":"Point","coordinates":[133.19,34.41702]},"properties":{"price":60300,"use":"尾道","zone":"","station":"住宅"}},{"type":"Feature","geometry":{"type":"Point","coordinates":[133.12751,34.31298]},"properties":{"price":12300,"use":"尾道","zone":"","station":"住宅"}},{"type":"Feature","geometry":{"type":"Point","coordinates":[133.2023,34.36108]},"properties":{"price":20100,"use":"尾道","zone":"","station":"住宅"}},{"type":"Feature","geometry":{"type":"Point","coordinates":[133.18463,34.42114]},"properties":{"price":59100,"use":"尾道","zone":"","station":"住宅"}},{"type":"Feature","geometry":{"type":"Point","coordinates":[133.20319,34.42697]},"properties":{"price":34800,"use":"尾道","zone":"","station":"住宅"}},{"type":"Feature","geometry":{"type":"Point","coordinates":[133.19232,34.39196]},"properties":{"price":41300,"use":"尾道","zone":"","station":"住宅"}},{"type":"Feature","geometry":{"type":"Point","coordinates":[133.17171,34.40209]},"properties":{"price":53300,"use":"尾道","zone":"","station":"住宅"}},{"type":"Feature","geometry":{"type":"Point","coordinates":[133.18108,34.40249]},"properties":{"price":59900,"use":"尾道","zone":"","station":"住宅"}},{"type":"Feature","geometry":{"type":"Point","coordinates":[133.21938,34.3981]},"properties":{"price":37000,"use":"尾道","zone":"","station":"住宅"}},{"type":"Feature","geometry":{"type":"Point","coordinates":[133.14484,34.51385]},"properties":{"price":20600,"use":"尾道","zone":"","station":"住宅"}},{"type":"Feature","geometry":{"type":"Point","coordinates":[133.11355,34.49668]},"properties":{"price":7500,"use":"尾道","zone":"","station":"住宅"}},{"type":"Feature","geometry":{"type":"Point","coordinates":[133.09132,34.30793]},"properties":{"price":22500,"use":"尾道","zone":"","station":"住宅"}},{"type":"Feature","geometry":{"type":"Point","coordinates":[133.18362,34.3909]},"properties":{"price":36000,"use":"尾道","zone":"","station":"住宅"}},{"type":"Feature","geometry":{"type":"Point","coordinates":[133.1929,34.29409]},"properties":{"price":21400,"use":"尾道","zone":"","station":"住宅"}},{"type":"Feature","geometry":{"type":"Point","coordinates":[133.2338,34.42767]},"properties":{"price":60800,"use":"尾道","zone":"","station":"住宅"}},{"type":"Feature","geometry":{"type":"Point","coordinates":[133.18808,34.41121]},"properties":{"price":72300,"use":"尾道","zone":"","station":"住宅"}},{"type":"Feature","geometry":{"type":"Point","coordinates":[133.21493,34.45675]},"properties":{"price":22700,"use":"尾道","zone":"","station":"住宅"}},{"type":"Feature","geometry":{"type":"Point","coordinates":[133.1673,34.40646]},"properties":{"price":32800,"use":"尾道","zone":"","station":"住宅"}},{"type":"Feature","geometry":{"type":"Point","coordinates":[133.16707,34.45123]},"properties":{"price":27500,"use":"尾道","zone":"","station":"住宅"}},{"type":"Feature","geometry":{"type":"Point","coordinates":[133.19114,34.40286]},"properties":{"price":120000,"use":"尾道","zone":"","station":"旅館"}},{"type":"Feature","geometry":{"type":"Point","coordinates":[133.18995,34.40805]},"properties":{"price":96300,"use":"尾道","zone":"","station":"店舗兼住宅"}},{"type":"Feature","geometry":{"type":"Point","coordinates":[133.19853,34.4064]},"properties":{"price":185000,"use":"尾道","zone":"","station":"事務所"}},{"type":"Feature","geometry":{"type":"Point","coordinates":[133.20717,34.41074]},"properties":{"price":91600,"use":"尾道","zone":"","station":"店舗兼共同住宅"}},{"type":"Feature","geometry":{"type":"Point","coordinates":[133.14523,34.51181]},"properties":{"price":35000,"use":"尾道","zone":"","station":"銀行"}},{"type":"Feature","geometry":{"type":"Point","coordinates":[133.19702,34.39551]},"properties":{"price":64300,"use":"尾道","zone":"","station":"店舗兼住宅"}},{"type":"Feature","geometry":{"type":"Point","coordinates":[133.17878,34.28404]},"properties":{"price":40400,"use":"尾道","zone":"","station":"店舗"}},{"type":"Feature","geometry":{"type":"Point","coordinates":[133.09873,34.30534]},"properties":{"price":35400,"use":"尾道","zone":"","station":"診療所"}},{"type":"Feature","geometry":{"type":"Point","coordinates":[133.214,34.42492]},"properties":{"price":24400,"use":"尾道","zone":"","station":"工場"}},{"type":"Feature","geometry":{"type":"Point","coordinates":[133.22083,34.40649]},"properties":{"price":16900,"use":"尾道","zone":"","station":"油槽所"}},{"type":"Feature","geometry":{"type":"Point","coordinates":[133.35655,34.46625]},"properties":{"price":28200,"use":"福山","zone":"","station":"住宅"}},{"type":"Feature","geometry":{"type":"Point","coordinates":[133.29744,34.54821]},"properties":{"price":34900,"use":"福山","zone":"","station":"住宅"}},{"type":"Feature","geometry":{"type":"Point","coordinates":[133.39936,34.45878]},"properties":{"price":70600,"use":"福山","zone":"","station":"住宅"}},{"type":"Feature","geometry":{"type":"Point","coordinates":[133.37509,34.37732]},"properties":{"price":24300,"use":"福山","zone":"","station":"住宅"}},{"type":"Feature","geometry":{"type":"Point","coordinates":[133.38882,34.42337]},"properties":{"price":37000,"use":"福山","zone":"","station":"住宅"}},{"type":"Feature","geometry":{"type":"Point","coordinates":[133.31694,34.47297]},"properties":{"price":48000,"use":"福山","zone":"","station":"住宅"}},{"type":"Feature","geometry":{"type":"Point","coordinates":[133.27817,34.5679]},"properties":{"price":30600,"use":"福山","zone":"","station":"住宅"}},{"type":"Feature","geometry":{"type":"Point","coordinates":[133.31482,34.4815]},"properties":{"price":40000,"use":"福山","zone":"","station":"住宅"}},{"type":"Feature","geometry":{"type":"Point","coordinates":[133.33458,34.49754]},"properties":{"price":40800,"use":"福山","zone":"","station":"住宅"}},{"type":"Feature","geometry":{"type":"Point","coordinates":[133.34411,34.55001]},"properties":{"price":49300,"use":"福山","zone":"","station":"住宅"}},{"type":"Feature","geometry":{"type":"Point","coordinates":[133.37115,34.55343]},"properties":{"price":32500,"use":"福山","zone":"","station":"住宅"}},{"type":"Feature","geometry":{"type":"Point","coordinates":[133.36605,34.50763]},"properties":{"price":47200,"use":"福山","zone":"","station":"住宅"}},{"type":"Feature","geometry":{"type":"Point","coordinates":[133.39379,34.50272]},"properties":{"price":84200,"use":"福山","zone":"","station":"住宅"}},{"type":"Feature","geometry":{"type":"Point","coordinates":[133.35691,34.49201]},"properties":{"price":127000,"use":"福山","zone":"","station":"住宅"}},{"type":"Feature","geometry":{"type":"Point","coordinates":[133.42233,34.51627]},"properties":{"price":43900,"use":"福山","zone":"","station":"住宅"}},{"type":"Feature","geometry":{"type":"Point","coordinates":[133.40388,34.51844]},"properties":{"price":35400,"use":"福山","zone":"","station":"住宅"}},{"type":"Feature","geometry":{"type":"Point","coordinates":[133.38386,34.439]},"properties":{"price":32600,"use":"福山","zone":"","station":"住宅"}},{"type":"Feature","geometry":{"type":"Point","coordinates":[133.44881,34.49244]},"properties":{"price":36300,"use":"福山","zone":"","station":"住宅"}},{"type":"Feature","geometry":{"type":"Point","coordinates":[133.3215,34.38796]},"properties":{"price":32300,"use":"福山","zone":"","station":"住宅"}},{"type":"Feature","geometry":{"type":"Point","coordinates":[133.24433,34.46853]},"properties":{"price":17100,"use":"福山","zone":"","station":"住宅"}},{"type":"Feature","geometry":{"type":"Point","coordinates":[133.38369,34.48564]},"properties":{"price":87000,"use":"福山","zone":"","station":"住宅"}},{"type":"Feature","geometry":{"type":"Point","coordinates":[133.36756,34.47891]},"properties":{"price":127000,"use":"福山","zone":"","station":"共同住宅"}},{"type":"Feature","geometry":{"type":"Point","coordinates":[133.3754,34.54127]},"properties":{"price":35900,"use":"福山","zone":"","station":"住宅"}},{"type":"Feature","geometry":{"type":"Point","coordinates":[133.38239,34.49369]},"properties":{"price":72300,"use":"福山","zone":"","station":"住宅"}},{"type":"Feature","geometry":{"type":"Point","coordinates":[133.39082,34.5467]},"properties":{"price":36100,"use":"福山","zone":"","station":"住宅"}},{"type":"Feature","geometry":{"type":"Point","coordinates":[133.37391,34.50417]},"properties":{"price":46700,"use":"福山","zone":"","station":"住宅"}},{"type":"Feature","geometry":{"type":"Point","coordinates":[133.39131,34.46559]},"properties":{"price":81100,"use":"福山","zone":"","station":"住宅"}},{"type":"Feature","geometry":{"type":"Point","coordinates":[133.40709,34.48408]},"properties":{"price":67700,"use":"福山","zone":"","station":"住宅"}},{"type":"Feature","geometry":{"type":"Point","coordinates":[133.43779,34.49559]},"properties":{"price":50500,"use":"福山","zone":"","station":"住宅"}},{"type":"Feature","geometry":{"type":"Point","coordinates":[133.3592,34.50345]},"properties":{"price":72300,"use":"福山","zone":"","station":"住宅"}},{"type":"Feature","geometry":{"type":"Point","coordinates":[133.3493,34.48924]},"properties":{"price":80500,"use":"福山","zone":"","station":"住宅"}},{"type":"Feature","geometry":{"type":"Point","coordinates":[133.36566,34.50054]},"properties":{"price":50900,"use":"福山","zone":"","station":"住宅"}},{"type":"Feature","geometry":{"type":"Point","coordinates":[133.37851,34.49158]},"properties":{"price":88300,"use":"福山","zone":"","station":"住宅"}},{"type":"Feature","geometry":{"type":"Point","coordinates":[133.27102,34.43717]},"properties":{"price":36000,"use":"福山","zone":"","station":"住宅"}},{"type":"Feature","geometry":{"type":"Point","coordinates":[133.2639,34.44966]},"properties":{"price":51600,"use":"福山","zone":"","station":"住宅"}},{"type":"Feature","geometry":{"type":"Point","coordinates":[133.26881,34.45593]},"properties":{"price":34600,"use":"福山","zone":"","station":"住宅"}},{"type":"Feature","geometry":{"type":"Point","coordinates":[133.24622,34.44945]},"properties":{"price":46500,"use":"福山","zone":"","station":"住宅"}},{"type":"Feature","geometry":{"type":"Point","coordinates":[133.25492,34.45329]},"properties":{"price":56000,"use":"福山","zone":"","station":"住宅"}},{"type":"Feature","geometry":{"type":"Point","coordinates":[133.32496,34.55231]},"properties":{"price":44600,"use":"福山","zone":"","station":"住宅"}},{"type":"Feature","geometry":{"type":"Point","coordinates":[133.41035,34.48925]},"properties":{"price":68300,"use":"福山","zone":"","station":"住宅"}},{"type":"Feature","geometry":{"type":"Point","coordinates":[133.34757,34.57225]},"properties":{"price":36500,"use":"福山","zone":"","station":"住宅"}},{"type":"Feature","geometry":{"type":"Point","coordinates":[133.32594,34.53408]},"properties":{"price":32600,"use":"福山","zone":"","station":"住宅"}},{"type":"Feature","geometry":{"type":"Point","coordinates":[133.40727,34.52594]},"properties":{"price":15500,"use":"福山","zone":"","station":"住宅"}},{"type":"Feature","geometry":{"type":"Point","coordinates":[133.31669,34.54592]},"properties":{"price":43000,"use":"福山","zone":"","station":"住宅"}},{"type":"Feature","geometry":{"type":"Point","coordinates":[133.29366,34.38785]},"properties":{"price":17100,"use":"福山","zone":"","station":"住宅"}},{"type":"Feature","geometry":{"type":"Point","coordinates":[133.29307,34.43859]},"properties":{"price":13800,"use":"福山","zone":"","station":"住宅"}},{"type":"Feature","geometry":{"type":"Point","coordinates":[133.39061,34.55921]},"properties":{"price":41900,"use":"福山","zone":"","station":"住宅"}},{"type":"Feature","geometry":{"type":"Point","coordinates":[133.40371,34.50002]},"properties":{"price":84200,"use":"福山","zone":"","station":"住宅"}},{"type":"Feature","geometry":{"type":"Point","coordinates":[133.35113,34.53435]},"properties":{"price":48200,"use":"福山","zone":"","station":"住宅"}},{"type":"Feature","geometry":{"type":"Point","coordinates":[133.35225,34.56828]},"properties":{"price":31500,"use":"福山","zone":"","station":"住宅"}},{"type":"Feature","geometry":{"type":"Point","coordinates":[133.36773,34.47006]},"properties":{"price":85000,"use":"福山","zone":"","station":"住宅"}},{"type":"Feature","geometry":{"type":"Point","coordinates":[133.27143,34.55947]},"properties":{"price":35400,"use":"福山","zone":"","station":"住宅"}},{"type":"Feature","geometry":{"type":"Point","coordinates":[133.36713,34.51438]},"properties":{"price":42400,"use":"福山","zone":"","station":"住宅"}},{"type":"Feature","geometry":{"type":"Point","coordinates":[133.36741,34.51681]},"properties":{"price":53100,"use":"福山","zone":"","station":"住宅"}},{"type":"Feature","geometry":{"type":"Point","coordinates":[133.33691,34.43594]},"properties":{"price":15700,"use":"福山","zone":"","station":"住宅"}},{"type":"Feature","geometry":{"type":"Point","coordinates":[133.24201,34.43251]},"properties":{"price":47400,"use":"福山","zone":"","station":"住宅"}},{"type":"Feature","geometry":{"type":"Point","coordinates":[133.3467,34.37833]},"properties":{"price":19600,"use":"福山","zone":"","station":"住宅"}},{"type":"Feature","geometry":{"type":"Point","coordinates":[133.26453,34.44072]},"properties":{"price":53400,"use":"福山","zone":"","station":"住宅"}},{"type":"Feature","geometry":{"type":"Point","coordinates":[133.41616,34.50236]},"properties":{"price":65500,"use":"福山","zone":"","station":"住宅"}},{"type":"Feature","geometry":{"type":"Point","coordinates":[133.43087,34.506]},"properties":{"price":45200,"use":"福山","zone":"","station":"住宅"}},{"type":"Feature","geometry":{"type":"Point","coordinates":[133.41016,34.5126]},"properties":{"price":59000,"use":"福山","zone":"","station":"住宅"}},{"type":"Feature","geometry":{"type":"Point","coordinates":[133.35119,34.58708]},"properties":{"price":18300,"use":"福山","zone":"","station":"住宅"}},{"type":"Feature","geometry":{"type":"Point","coordinates":[133.36429,34.54548]},"properties":{"price":51400,"use":"福山","zone":"","station":"住宅"}},{"type":"Feature","geometry":{"type":"Point","coordinates":[133.28173,34.54942]},"properties":{"price":46700,"use":"福山","zone":"","station":"住宅"}},{"type":"Feature","geometry":{"type":"Point","coordinates":[133.37121,34.57225]},"properties":{"price":18300,"use":"福山","zone":"","station":"住宅"}},{"type":"Feature","geometry":{"type":"Point","coordinates":[133.25045,34.44394]},"properties":{"price":59000,"use":"福山","zone":"","station":"事務所兼住宅"}},{"type":"Feature","geometry":{"type":"Point","coordinates":[133.41093,34.49355]},"properties":{"price":68800,"use":"福山","zone":"","station":"住宅"}},{"type":"Feature","geometry":{"type":"Point","coordinates":[133.38513,34.47605]},"properties":{"price":74500,"use":"福山","zone":"","station":"住宅"}},{"type":"Feature","geometry":{"type":"Point","coordinates":[133.3827,34.42738]},"properties":{"price":15100,"use":"福山","zone":"","station":"住宅"}},{"type":"Feature","geometry":{"type":"Point","coordinates":[133.28528,34.53442]},"properties":{"price":17900,"use":"福山","zone":"","station":"住宅"}},{"type":"Feature","geometry":{"type":"Point","coordinates":[133.44514,34.50228]},"properties":{"price":20400,"use":"福山","zone":"","station":"住宅"}},{"type":"Feature","geometry":{"type":"Point","coordinates":[133.41628,34.55553]},"properties":{"price":18600,"use":"福山","zone":"","station":"住宅"}},{"type":"Feature","geometry":{"type":"Point","coordinates":[133.39613,34.4838]},"properties":{"price":76500,"use":"福山","zone":"","station":"住宅"}},{"type":"Feature","geometry":{"type":"Point","coordinates":[133.34687,34.55742]},"properties":{"price":36200,"use":"福山","zone":"","station":"住宅"}},{"type":"Feature","geometry":{"type":"Point","coordinates":[133.38989,34.50984]},"properties":{"price":50700,"use":"福山","zone":"","station":"住宅"}},{"type":"Feature","geometry":{"type":"Point","coordinates":[133.36442,34.48064]},"properties":{"price":101000,"use":"福山","zone":"","station":"住宅"}},{"type":"Feature","geometry":{"type":"Point","coordinates":[133.36367,34.48827]},"properties":{"price":593000,"use":"福山","zone":"","station":"銀行"}},{"type":"Feature","geometry":{"type":"Point","coordinates":[133.36735,34.48746]},"properties":{"price":134000,"use":"福山","zone":"","station":"店舗兼住宅"}},{"type":"Feature","geometry":{"type":"Point","coordinates":[133.36029,34.48749]},"properties":{"price":215000,"use":"福山","zone":"","station":"店舗兼共同住宅"}},{"type":"Feature","geometry":{"type":"Point","coordinates":[133.36751,34.48878]},"properties":{"price":194000,"use":"福山","zone":"","station":"店舗兼住宅"}},{"type":"Feature","geometry":{"type":"Point","coordinates":[133.36911,34.48473]},"properties":{"price":109000,"use":"福山","zone":"","station":"店舗兼共同住宅"}},{"type":"Feature","geometry":{"type":"Point","coordinates":[133.36057,34.48313]},"properties":{"price":105000,"use":"福山","zone":"","station":"診療所兼住宅"}},{"type":"Feature","geometry":{"type":"Point","coordinates":[133.36437,34.48313]},"properties":{"price":197000,"use":"福山","zone":"","station":"銀行"}},{"type":"Feature","geometry":{"type":"Point","coordinates":[133.36683,34.49121]},"properties":{"price":127000,"use":"福山","zone":"","station":"診療所兼住宅"}},{"type":"Feature","geometry":{"type":"Point","coordinates":[133.37067,34.49249]},"properties":{"price":111000,"use":"福山","zone":"","station":"事務所"}},{"type":"Feature","geometry":{"type":"Point","coordinates":[133.25999,34.4441]},"properties":{"price":90600,"use":"福山","zone":"","station":"店舗兼倉庫"}},{"type":"Feature","geometry":{"type":"Point","coordinates":[133.40245,34.50535]},"properties":{"price":122000,"use":"福山","zone":"","station":"銀行"}},{"type":"Feature","geometry":{"type":"Point","coordinates":[133.40834,34.49232]},"properties":{"price":89500,"use":"福山","zone":"","station":"店舗兼住宅"}},{"type":"Feature","geometry":{"type":"Point","coordinates":[133.37166,34.47034]},"properties":{"price":125000,"use":"福山","zone":"","station":"店舗兼住宅"}},{"type":"Feature","geometry":{"type":"Point","coordinates":[133.384,34.38501]},"properties":{"price":55000,"use":"福山","zone":"","station":"旅館"}},{"type":"Feature","geometry":{"type":"Point","coordinates":[133.27131,34.55505]},"properties":{"price":47000,"use":"福山","zone":"","station":"店舗兼住宅"}},{"type":"Feature","geometry":{"type":"Point","coordinates":[133.25614,34.45149]},"properties":{"price":76200,"use":"福山","zone":"","station":"店舗兼住宅"}},{"type":"Feature","geometry":{"type":"Point","coordinates":[133.34316,34.5459]},"properties":{"price":75800,"use":"福山","zone":"","station":"店舗"}},{"type":"Feature","geometry":{"type":"Point","coordinates":[133.38396,34.48776]},"properties":{"price":113000,"use":"福山","zone":"","station":"事務所"}},{"type":"Feature","geometry":{"type":"Point","coordinates":[133.38396,34.45814]},"properties":{"price":92000,"use":"福山","zone":"","station":"店舗"}},{"type":"Feature","geometry":{"type":"Point","coordinates":[133.39519,34.47022]},"properties":{"price":102000,"use":"福山","zone":"","station":"店舗"}},{"type":"Feature","geometry":{"type":"Point","coordinates":[133.37078,34.47722]},"properties":{"price":128000,"use":"福山","zone":"","station":"診療所兼住宅"}},{"type":"Feature","geometry":{"type":"Point","coordinates":[133.25882,34.45003]},"properties":{"price":99400,"use":"福山","zone":"","station":"事務所兼住宅"}},{"type":"Feature","geometry":{"type":"Point","coordinates":[133.42836,34.51194]},"properties":{"price":59800,"use":"福山","zone":"","station":"店舗兼住宅"}},{"type":"Feature","geometry":{"type":"Point","coordinates":[133.24981,34.4326]},"properties":{"price":31700,"use":"福山","zone":"","station":"倉庫"}},{"type":"Feature","geometry":{"type":"Point","coordinates":[133.39228,34.47697]},"properties":{"price":48200,"use":"福山","zone":"","station":"工場"}},{"type":"Feature","geometry":{"type":"Point","coordinates":[133.4128,34.44119]},"properties":{"price":24800,"use":"福山","zone":"","station":"倉庫"}},{"type":"Feature","geometry":{"type":"Point","coordinates":[133.3283,34.57136]},"properties":{"price":23600,"use":"福山","zone":"","station":"工場"}},{"type":"Feature","geometry":{"type":"Point","coordinates":[133.4051,34.46134]},"properties":{"price":45500,"use":"福山","zone":"","station":"倉庫"}},{"type":"Feature","geometry":{"type":"Point","coordinates":[133.4137,34.45181]},"properties":{"price":32200,"use":"福山","zone":"","station":"倉庫"}},{"type":"Feature","geometry":{"type":"Point","coordinates":[133.33609,34.4889]},"properties":{"price":40000,"use":"福山","zone":"","station":"倉庫"}},{"type":"Feature","geometry":{"type":"Point","coordinates":[133.3601,34.53493]},"properties":{"price":38200,"use":"福山","zone":"","station":"作業所"}},{"type":"Feature","geometry":{"type":"Point","coordinates":[133.2403,34.56312]},"properties":{"price":39200,"use":"備後府中","zone":"","station":"住宅"}},{"type":"Feature","geometry":{"type":"Point","coordinates":[133.21007,34.5579]},"properties":{"price":19700,"use":"備後府中","zone":"","station":"住宅"}},{"type":"Feature","geometry":{"type":"Point","coordinates":[133.22594,34.56818]},"properties":{"price":20500,"use":"備後府中","zone":"","station":"住宅"}},{"type":"Feature","geometry":{"type":"Point","coordinates":[133.23642,34.5802]},"properties":{"price":24900,"use":"備後府中","zone":"","station":"住宅"}},{"type":"Feature","geometry":{"type":"Point","coordinates":[133.11951,34.69613]},"properties":{"price":15600,"use":"備後府中","zone":"","station":"住宅"}},{"type":"Feature","geometry":{"type":"Point","coordinates":[133.12361,34.69165]},"properties":{"price":8520,"use":"備後府中","zone":"","station":"住宅"}},{"type":"Feature","geometry":{"type":"Point","coordinates":[133.23025,34.55468]},"properties":{"price":18200,"use":"備後府中","zone":"","station":"住宅"}},{"type":"Feature","geometry":{"type":"Point","coordinates":[133.24237,34.57522]},"properties":{"price":37200,"use":"備後府中","zone":"","station":"住宅"}},{"type":"Feature","geometry":{"type":"Point","coordinates":[133.24578,34.5693]},"properties":{"price":41500,"use":"備後府中","zone":"","station":"住宅"}},{"type":"Feature","geometry":{"type":"Point","coordinates":[133.26055,34.55428]},"properties":{"price":38600,"use":"備後府中","zone":"","station":"住宅"}},{"type":"Feature","geometry":{"type":"Point","coordinates":[133.23649,34.54725]},"properties":{"price":15500,"use":"備後府中","zone":"","station":"住宅"}},{"type":"Feature","geometry":{"type":"Point","coordinates":[133.23511,34.57243]},"properties":{"price":50200,"use":"備後府中","zone":"","station":"旅館兼住宅"}},{"type":"Feature","geometry":{"type":"Point","coordinates":[133.11826,34.69469]},"properties":{"price":23100,"use":"備後府中","zone":"","station":"店舗"}},{"type":"Feature","geometry":{"type":"Point","coordinates":[133.25202,34.58521]},"properties":{"price":15800,"use":"備後府中","zone":"","station":"工場"}},{"type":"Feature","geometry":{"type":"Point","coordinates":[132.87555,34.80229]},"properties":{"price":29800,"use":"三次","zone":"","station":"住宅"}},{"type":"Feature","geometry":{"type":"Point","coordinates":[132.84256,34.81404]},"properties":{"price":26900,"use":"三次","zone":"","station":"住宅"}},{"type":"Feature","geometry":{"type":"Point","coordinates":[132.8617,34.80522]},"properties":{"price":50000,"use":"三次","zone":"","station":"住宅"}},{"type":"Feature","geometry":{"type":"Point","coordinates":[132.9936,34.71673]},"properties":{"price":8900,"use":"三次","zone":"","station":"住宅"}},{"type":"Feature","geometry":{"type":"Point","coordinates":[132.95172,34.76153]},"properties":{"price":10800,"use":"三次","zone":"","station":"住宅"}},{"type":"Feature","geometry":{"type":"Point","coordinates":[132.95838,34.7641]},"properties":{"price":13100,"use":"三次","zone":"","station":"住宅"}},{"type":"Feature","geometry":{"type":"Point","coordinates":[132.96628,34.7477]},"properties":{"price":3500,"use":"三次","zone":"","station":"住宅兼店舗"}},{"type":"Feature","geometry":{"type":"Point","coordinates":[132.85693,34.80327]},"properties":{"price":99500,"use":"三次","zone":"","station":"店舗兼事務所"}},{"type":"Feature","geometry":{"type":"Point","coordinates":[132.87783,34.80467]},"properties":{"price":95400,"use":"三次","zone":"","station":"店舗"}},{"type":"Feature","geometry":{"type":"Point","coordinates":[132.87636,34.78285]},"properties":{"price":41200,"use":"三次","zone":"","station":"店舗兼共同住宅"}},{"type":"Feature","geometry":{"type":"Point","coordinates":[132.98911,34.72487]},"properties":{"price":12800,"use":"三次","zone":"","station":"店舗"}},{"type":"Feature","geometry":{"type":"Point","coordinates":[133.02033,34.85934]},"properties":{"price":25300,"use":"庄原","zone":"","station":"住宅"}},{"type":"Feature","geometry":{"type":"Point","coordinates":[133.00455,34.85592]},"properties":{"price":21100,"use":"庄原","zone":"","station":"住宅"}},{"type":"Feature","geometry":{"type":"Point","coordinates":[133.01292,34.85797]},"properties":{"price":28700,"use":"庄原","zone":"","station":"住宅"}},{"type":"Feature","geometry":{"type":"Point","coordinates":[133.11383,34.93621]},"properties":{"price":6850,"use":"庄原","zone":"","station":"住宅"}},{"type":"Feature","geometry":{"type":"Point","coordinates":[133.12341,34.95443]},"properties":{"price":3920,"use":"庄原","zone":"","station":"住宅"}},{"type":"Feature","geometry":{"type":"Point","coordinates":[133.26973,34.90239]},"properties":{"price":17600,"use":"庄原","zone":"","station":"住宅"}},{"type":"Feature","geometry":{"type":"Point","coordinates":[133.25829,34.91142]},"properties":{"price":12600,"use":"庄原","zone":"","station":"住宅"}},{"type":"Feature","geometry":{"type":"Point","coordinates":[133.01685,34.85887]},"properties":{"price":38000,"use":"庄原","zone":"","station":"事務所"}},{"type":"Feature","geometry":{"type":"Point","coordinates":[133.00918,34.85684]},"properties":{"price":48500,"use":"庄原","zone":"","station":"診療所兼住宅"}},{"type":"Feature","geometry":{"type":"Point","coordinates":[132.23552,34.26339]},"properties":{"price":38100,"use":"大竹","zone":"","station":"住宅"}},{"type":"Feature","geometry":{"type":"Point","coordinates":[132.21977,34.21876]},"properties":{"price":69000,"use":"大竹","zone":"","station":"住宅"}},{"type":"Feature","geometry":{"type":"Point","coordinates":[132.22789,34.21285]},"properties":{"price":49800,"use":"大竹","zone":"","station":"住宅"}},{"type":"Feature","geometry":{"type":"Point","coordinates":[132.22491,34.25052]},"properties":{"price":54300,"use":"大竹","zone":"","station":"住宅"}},{"type":"Feature","geometry":{"type":"Point","coordinates":[132.2224,34.21635]},"properties":{"price":87900,"use":"大竹","zone":"","station":"店舗兼住宅"}},{"type":"Feature","geometry":{"type":"Point","coordinates":[132.22056,34.24287]},"properties":{"price":57600,"use":"大竹","zone":"","station":"店舗兼住宅"}},{"type":"Feature","geometry":{"type":"Point","coordinates":[132.23315,34.2168]},"properties":{"price":26700,"use":"大竹","zone":"","station":"工場"}},{"type":"Feature","geometry":{"type":"Point","coordinates":[132.74709,34.42279]},"properties":{"price":109000,"use":"東広島","zone":"","station":"住宅"}},{"type":"Feature","geometry":{"type":"Point","coordinates":[132.79758,34.3147]},"properties":{"price":21300,"use":"東広島","zone":"","station":"住宅"}},{"type":"Feature","geometry":{"type":"Point","coordinates":[132.88807,34.47098]},"properties":{"price":14900,"use":"東広島","zone":"","station":"住宅"}},{"type":"Feature","geometry":{"type":"Point","coordinates":[132.80354,34.32032]},"properties":{"price":18100,"use":"東広島","zone":"","station":"住宅"}},{"type":"Feature","geometry":{"type":"Point","coordinates":[132.70421,34.44576]},"properties":{"price":60000,"use":"東広島","zone":"","station":"住宅"}},{"type":"Feature","geometry":{"type":"Point","coordinates":[132.88655,34.46885]},"properties":{"price":9980,"use":"東広島","zone":"","station":"住宅"}},{"type":"Feature","geometry":{"type":"Point","coordinates":[132.74148,34.43128]},"properties":{"price":98600,"use":"東広島","zone":"","station":"住宅"}},{"type":"Feature","geometry":{"type":"Point","coordinates":[132.72773,34.43578]},"properties":{"price":87000,"use":"東広島","zone":"","station":"住宅"}},{"type":"Feature","geometry":{"type":"Point","coordinates":[132.74453,34.43853]},"properties":{"price":61400,"use":"東広島","zone":"","station":"住宅"}},{"type":"Feature","geometry":{"type":"Point","coordinates":[132.7358,34.4195]},"properties":{"price":110000,"use":"東広島","zone":"","station":"住宅"}},{"type":"Feature","geometry":{"type":"Point","coordinates":[132.7861,34.4407]},"properties":{"price":31400,"use":"東広島","zone":"","station":"住宅"}},{"type":"Feature","geometry":{"type":"Point","coordinates":[132.7504,34.41955]},"properties":{"price":70000,"use":"東広島","zone":"","station":"住宅"}},{"type":"Feature","geometry":{"type":"Point","coordinates":[132.73307,34.38111]},"properties":{"price":47000,"use":"東広島","zone":"","station":"住宅"}},{"type":"Feature","geometry":{"type":"Point","coordinates":[132.69965,34.45376]},"properties":{"price":50500,"use":"東広島","zone":"","station":"住宅"}},{"type":"Feature","geometry":{"type":"Point","coordinates":[132.68065,34.44612]},"properties":{"price":48200,"use":"東広島","zone":"","station":"住宅"}},{"type":"Feature","geometry":{"type":"Point","coordinates":[132.69879,34.43617]},"properties":{"price":60300,"use":"東広島","zone":"","station":"住宅"}},{"type":"Feature","geometry":{"type":"Point","coordinates":[132.81613,34.46028]},"properties":{"price":24600,"use":"東広島","zone":"","station":"住宅"}},{"type":"Feature","geometry":{"type":"Point","coordinates":[132.74906,34.40047]},"properties":{"price":48800,"use":"東広島","zone":"","station":"住宅"}},{"type":"Feature","geometry":{"type":"Point","coordinates":[132.6517,34.32461]},"properties":{"price":26600,"use":"東広島","zone":"","station":"住宅"}},{"type":"Feature","geometry":{"type":"Point","coordinates":[132.66568,34.3339]},"properties":{"price":25200,"use":"東広島","zone":"","station":"住宅"}},{"type":"Feature","geometry":{"type":"Point","coordinates":[132.69811,34.33931]},"properties":{"price":28400,"use":"東広島","zone":"","station":"住宅"}},{"type":"Feature","geometry":{"type":"Point","coordinates":[132.71592,34.45313]},"properties":{"price":36700,"use":"東広島","zone":"","station":"住宅"}},{"type":"Feature","geometry":{"type":"Point","coordinates":[132.63351,34.47203]},"properties":{"price":19800,"use":"東広島","zone":"","station":"住宅"}},{"type":"Feature","geometry":{"type":"Point","coordinates":[132.72816,34.42185]},"properties":{"price":75200,"use":"東広島","zone":"","station":"住宅"}},{"type":"Feature","geometry":{"type":"Point","coordinates":[132.72097,34.46238]},"properties":{"price":28700,"use":"東広島","zone":"","station":"住宅"}},{"type":"Feature","geometry":{"type":"Point","coordinates":[132.74207,34.4068]},"properties":{"price":33500,"use":"東広島","zone":"","station":"住宅"}},{"type":"Feature","geometry":{"type":"Point","coordinates":[132.72164,34.43978]},"properties":{"price":108000,"use":"東広島","zone":"","station":"住宅"}},{"type":"Feature","geometry":{"type":"Point","coordinates":[132.74882,34.42673]},"properties":{"price":129000,"use":"東広島","zone":"","station":"共同住宅"}},{"type":"Feature","geometry":{"type":"Point","coordinates":[132.74752,34.42516]},"properties":{"price":142000,"use":"東広島","zone":"","station":"店舗"}},{"type":"Feature","geometry":{"type":"Point","coordinates":[132.74421,34.4306]},"properties":{"price":365000,"use":"東広島","zone":"","station":"店舗"}},{"type":"Feature","geometry":{"type":"Point","coordinates":[132.75051,34.41106]},"properties":{"price":140000,"use":"東広島","zone":"","station":"店舗"}},{"type":"Feature","geometry":{"type":"Point","coordinates":[132.72706,34.4317]},"properties":{"price":123000,"use":"東広島","zone":"","station":"店舗"}},{"type":"Feature","geometry":{"type":"Point","coordinates":[132.66659,34.32433]},"properties":{"price":58100,"use":"東広島","zone":"","station":"店舗"}},{"type":"Feature","geometry":{"type":"Point","coordinates":[132.81749,34.31927]},"properties":{"price":31700,"use":"東広島","zone":"","station":"店舗兼住宅"}},{"type":"Feature","geometry":{"type":"Point","coordinates":[132.72325,34.43998]},"properties":{"price":143000,"use":"東広島","zone":"","station":"店舗兼共同住宅"}},{"type":"Feature","geometry":{"type":"Point","coordinates":[132.74831,34.41451]},"properties":{"price":36400,"use":"東広島","zone":"","station":"工場"}},{"type":"Feature","geometry":{"type":"Point","coordinates":[132.68604,34.38682]},"properties":{"price":27700,"use":"東広島","zone":"","station":"工場"}},{"type":"Feature","geometry":{"type":"Point","coordinates":[132.65392,34.46849]},"properties":{"price":38200,"use":"東広島","zone":"","station":"倉庫"}},{"type":"Feature","geometry":{"type":"Point","coordinates":[132.34075,34.35669]},"properties":{"price":151000,"use":"廿日市","zone":"","station":"住宅"}},{"type":"Feature","geometry":{"type":"Point","coordinates":[132.31856,34.35727]},"properties":{"price":72200,"use":"廿日市","zone":"","station":"住宅"}},{"type":"Feature","geometry":{"type":"Point","coordinates":[132.31165,34.33025]},"properties":{"price":81100,"use":"廿日市","zone":"","station":"住宅"}},{"type":"Feature","geometry":{"type":"Point","coordinates":[132.33817,34.36636]},"properties":{"price":77300,"use":"廿日市","zone":"","station":"住宅"}},{"type":"Feature","geometry":{"type":"Point","coordinates":[132.31799,34.34046]},"properties":{"price":96000,"use":"廿日市","zone":"","station":"住宅"}},{"type":"Feature","geometry":{"type":"Point","coordinates":[132.30374,34.34561]},"properties":{"price":80500,"use":"廿日市","zone":"","station":"住宅"}},{"type":"Feature","geometry":{"type":"Point","coordinates":[132.32221,34.34755]},"properties":{"price":162000,"use":"廿日市","zone":"","station":"住宅"}},{"type":"Feature","geometry":{"type":"Point","coordinates":[132.32775,34.35245]},"properties":{"price":115000,"use":"廿日市","zone":"","station":"住宅"}},{"type":"Feature","geometry":{"type":"Point","coordinates":[132.32435,34.34303]},"properties":{"price":142000,"use":"廿日市","zone":"","station":"住宅"}},{"type":"Feature","geometry":{"type":"Point","coordinates":[132.33854,34.34995]},"properties":{"price":119000,"use":"廿日市","zone":"","station":"住宅"}},{"type":"Feature","geometry":{"type":"Point","coordinates":[132.31366,34.3189]},"properties":{"price":95600,"use":"廿日市","zone":"","station":"住宅"}},{"type":"Feature","geometry":{"type":"Point","coordinates":[132.2962,34.34837]},"properties":{"price":61700,"use":"廿日市","zone":"","station":"住宅"}},{"type":"Feature","geometry":{"type":"Point","coordinates":[132.27216,34.35661]},"properties":{"price":15400,"use":"廿日市","zone":"","station":"住宅"}},{"type":"Feature","geometry":{"type":"Point","coordinates":[132.22526,34.36376]},"properties":{"price":12400,"use":"廿日市","zone":"","station":"住宅"}},{"type":"Feature","geometry":{"type":"Point","coordinates":[132.16712,34.36762]},"properties":{"price":8000,"use":"廿日市","zone":"","station":"住宅"}},{"type":"Feature","geometry":{"type":"Point","coordinates":[132.29657,34.30731]},"properties":{"price":64000,"use":"廿日市","zone":"","station":"住宅"}},{"type":"Feature","geometry":{"type":"Point","coordinates":[132.28217,34.3084]},"properties":{"price":48000,"use":"廿日市","zone":"","station":"住宅"}},{"type":"Feature","geometry":{"type":"Point","coordinates":[132.33354,34.30245]},"properties":{"price":30700,"use":"廿日市","zone":"","station":"住宅"}},{"type":"Feature","geometry":{"type":"Point","coordinates":[132.26849,34.28843]},"properties":{"price":63000,"use":"廿日市","zone":"","station":"住宅"}},{"type":"Feature","geometry":{"type":"Point","coordinates":[132.30423,34.36796]},"properties":{"price":26300,"use":"廿日市","zone":"","station":"住宅"}},{"type":"Feature","geometry":{"type":"Point","coordinates":[132.32271,34.2997]},"properties":{"price":93400,"use":"廿日市","zone":"","station":"住宅"}},{"type":"Feature","geometry":{"type":"Point","coordinates":[132.29054,34.30446]},"properties":{"price":53500,"use":"廿日市","zone":"","station":"住宅"}},{"type":"Feature","geometry":{"type":"Point","coordinates":[132.33043,34.34935]},"properties":{"price":226000,"use":"廿日市","zone":"","station":"店舗兼住宅"}},{"type":"Feature","geometry":{"type":"Point","coordinates":[132.32187,34.2987]},"properties":{"price":203000,"use":"廿日市","zone":"","station":"店舗"}},{"type":"Feature","geometry":{"type":"Point","coordinates":[132.31606,34.34952]},"properties":{"price":198000,"use":"廿日市","zone":"","station":"店舗"}},{"type":"Feature","geometry":{"type":"Point","coordinates":[132.30367,34.31152]},"properties":{"price":170000,"use":"廿日市","zone":"","station":"店舗兼住宅"}},{"type":"Feature","geometry":{"type":"Point","coordinates":[132.17857,34.3666]},"properties":{"price":23000,"use":"廿日市","zone":"","station":"店舗兼住宅"}},{"type":"Feature","geometry":{"type":"Point","coordinates":[132.26442,34.28138]},"properties":{"price":57800,"use":"廿日市","zone":"","station":"倉庫"}},{"type":"Feature","geometry":{"type":"Point","coordinates":[132.32823,34.34584]},"properties":{"price":88500,"use":"廿日市","zone":"","station":"工場"}},{"type":"Feature","geometry":{"type":"Point","coordinates":[132.70712,34.66617]},"properties":{"price":30000,"use":"安芸高田","zone":"","station":"住宅"}},{"type":"Feature","geometry":{"type":"Point","coordinates":[132.69732,34.66898]},"properties":{"price":19300,"use":"安芸高田","zone":"","station":"住宅"}},{"type":"Feature","geometry":{"type":"Point","coordinates":[132.70332,34.66662]},"properties":{"price":54000,"use":"安芸高田","zone":"","station":"銀行"}},{"type":"Feature","geometry":{"type":"Point","coordinates":[132.49071,34.25222]},"properties":{"price":20900,"use":"江田島","zone":"","station":"住宅"}},{"type":"Feature","geometry":{"type":"Point","coordinates":[132.47577,34.28295]},"properties":{"price":16700,"use":"江田島","zone":"","station":"住宅"}},{"type":"Feature","geometry":{"type":"Point","coordinates":[132.47218,34.17765]},"properties":{"price":18300,"use":"江田島","zone":"","station":"住宅"}},{"type":"Feature","geometry":{"type":"Point","coordinates":[132.44966,34.1689]},"properties":{"price":14500,"use":"江田島","zone":"","station":"住宅"}},{"type":"Feature","geometry":{"type":"Point","coordinates":[132.47724,34.2455]},"properties":{"price":37000,"use":"江田島","zone":"","station":"店舗"}},{"type":"Feature","geometry":{"type":"Point","coordinates":[132.4646,34.17266]},"properties":{"price":30000,"use":"江田島","zone":"","station":"店舗兼住宅"}},{"type":"Feature","geometry":{"type":"Point","coordinates":[132.50584,34.38089]},"properties":{"price":210000,"use":"広島府中","zone":"","station":"住宅"}},{"type":"Feature","geometry":{"type":"Point","coordinates":[132.50253,34.39372]},"properties":{"price":233000,"use":"広島府中","zone":"","station":"住宅"}},{"type":"Feature","geometry":{"type":"Point","coordinates":[132.50918,34.38571]},"properties":{"price":178000,"use":"広島府中","zone":"","station":"住宅"}},{"type":"Feature","geometry":{"type":"Point","coordinates":[132.50629,34.39845]},"properties":{"price":204000,"use":"広島府中","zone":"","station":"住宅"}},{"type":"Feature","geometry":{"type":"Point","coordinates":[132.51835,34.40299]},"properties":{"price":51600,"use":"広島府中","zone":"","station":"住宅"}},{"type":"Feature","geometry":{"type":"Point","coordinates":[132.51987,34.39019]},"properties":{"price":103000,"use":"広島府中","zone":"","station":"住宅"}},{"type":"Feature","geometry":{"type":"Point","coordinates":[132.50699,34.39087]},"properties":{"price":243000,"use":"広島府中","zone":"","station":"店舗"}},{"type":"Feature","geometry":{"type":"Point","coordinates":[132.54022,34.37054]},"properties":{"price":162000,"use":"海田","zone":"","station":"住宅"}},{"type":"Feature","geometry":{"type":"Point","coordinates":[132.55141,34.36617]},"properties":{"price":103000,"use":"海田","zone":"","station":"建築中"}},{"type":"Feature","geometry":{"type":"Point","coordinates":[132.53993,34.3736]},"properties":{"price":135000,"use":"海田","zone":"","station":"住宅"}},{"type":"Feature","geometry":{"type":"Point","coordinates":[132.52869,34.37084]},"properties":{"price":252000,"use":"海田","zone":"","station":"銀行"}},{"type":"Feature","geometry":{"type":"Point","coordinates":[132.53448,34.36125]},"properties":{"price":213000,"use":"海田","zone":"","station":"事務所"}},{"type":"Feature","geometry":{"type":"Point","coordinates":[132.59086,34.33587]},"properties":{"price":39800,"use":"広島熊野","zone":"","station":"住宅"}},{"type":"Feature","geometry":{"type":"Point","coordinates":[132.5912,34.3524]},"properties":{"price":32700,"use":"広島熊野","zone":"","station":"住宅"}},{"type":"Feature","geometry":{"type":"Point","coordinates":[132.5798,34.33742]},"properties":{"price":46200,"use":"広島熊野","zone":"","station":"住宅"}},{"type":"Feature","geometry":{"type":"Point","coordinates":[132.57731,34.32593]},"properties":{"price":37100,"use":"広島熊野","zone":"","station":"住宅"}},{"type":"Feature","geometry":{"type":"Point","coordinates":[132.55743,34.33395]},"properties":{"price":19100,"use":"広島熊野","zone":"","station":"住宅"}},{"type":"Feature","geometry":{"type":"Point","coordinates":[132.56932,34.33289]},"properties":{"price":71600,"use":"広島熊野","zone":"","station":"店舗"}},{"type":"Feature","geometry":{"type":"Point","coordinates":[132.51432,34.34001]},"properties":{"price":116000,"use":"坂","zone":"","station":"住宅"}},{"type":"Feature","geometry":{"type":"Point","coordinates":[132.51646,34.32847]},"properties":{"price":40600,"use":"坂","zone":"","station":"住宅"}},{"type":"Feature","geometry":{"type":"Point","coordinates":[132.5082,34.30006]},"properties":{"price":56200,"use":"坂","zone":"","station":"住宅"}},{"type":"Feature","geometry":{"type":"Point","coordinates":[132.55113,34.68233]},"properties":{"price":21800,"use":"北広島町","zone":"","station":"住宅"}},{"type":"Feature","geometry":{"type":"Point","coordinates":[132.53378,34.67337]},"properties":{"price":24500,"use":"北広島町","zone":"","station":"住宅"}},{"type":"Feature","geometry":{"type":"Point","coordinates":[132.53467,34.67487]},"properties":{"price":32500,"use":"北広島町","zone":"","station":"店舗"}},{"type":"Feature","geometry":{"type":"Point","coordinates":[133.0661,34.5897]},"properties":{"price":15200,"use":"世羅","zone":"","station":"住宅"}},{"type":"Feature","geometry":{"type":"Point","coordinates":[133.04965,34.58372]},"properties":{"price":11600,"use":"世羅","zone":"","station":"住宅"}},{"type":"Feature","geometry":{"type":"Point","coordinates":[133.06055,34.58644]},"properties":{"price":25100,"use":"世羅","zone":"","station":"店舗"}}]}