{"type":"FeatureCollection","features":[{"type":"Feature","geometry":{"type":"Point","coordinates":[132.77295,33.82783]},"properties":{"name":"いよ立花","line":"横河原線","riders":2272}},{"type":"Feature","geometry":{"type":"Point","coordinates":[132.80401,33.81623]},"properties":{"name":"久米","line":"横河原線","riders":2827}},{"type":"Feature","geometry":{"type":"Point","coordinates":[132.7889,33.82254]},"properties":{"name":"福音寺","line":"横河原線","riders":1710}},{"type":"Feature","geometry":{"type":"Point","coordinates":[132.88422,33.80342]},"properties":{"name":"横河原","line":"横河原線","riders":1338}},{"type":"Feature","geometry":{"type":"Point","coordinates":[132.85618,33.79521]},"properties":{"name":"牛渕","line":"横河原線","riders":262}},{"type":"Feature","geometry":{"type":"Point","coordinates":[132.87895,33.7981]},"properties":{"name":"愛大医学部南口","line":"横河原線","riders":1325}},{"type":"Feature","geometry":{"type":"Point","coordinates":[132.84626,33.79771]},"properties":{"name":"牛渕団地前","line":"横河原線","riders":945}},{"type":"Feature","geometry":{"type":"Point","coordinates":[132.82868,33.80871]},"properties":{"name":"平井","line":"横河原線","riders":1140}},{"type":"Feature","geometry":{"type":"Point","coordinates":[132.86574,33.79275]},"properties":{"name":"田窪","line":"横河原線","riders":797}},{"type":"Feature","geometry":{"type":"Point","coordinates":[132.81535,33.81253]},"properties":{"name":"鷹ノ子","line":"横河原線","riders":1086}},{"type":"Feature","geometry":{"type":"Point","coordinates":[132.76185,33.83563]},"properties":{"name":"松山市","line":"横河原線","riders":19707}},{"type":"Feature","geometry":{"type":"Point","coordinates":[132.76933,33.83132]},"properties":{"name":"石手川公園","line":"横河原線","riders":481}},{"type":"Feature","geometry":{"type":"Point","coordinates":[132.79869,33.81927]},"properties":{"name":"北久米","line":"横河原線","riders":1269}},{"type":"Feature","geometry":{"type":"Point","coordinates":[132.87368,33.79305]},"properties":{"name":"見奈良","line":"横河原線","riders":924}},{"type":"Feature","geometry":{"type":"Point","coordinates":[132.83903,33.80122]},"properties":{"name":"梅本","line":"横河原線","riders":1702}},{"type":"Feature","geometry":{"type":"Point","coordinates":[132.76126,33.83944]},"properties":{"name":"南堀端","line":"花園線","riders":717}},{"type":"Feature","geometry":{"type":"Point","coordinates":[132.76286,33.83611]},"properties":{"name":"松山市駅","line":"花園線","riders":8346}},{"type":"Feature","geometry":{"type":"Point","coordinates":[132.7339,33.81625]},"properties":{"name":"余戸","line":"郡中線","riders":2502}},{"type":"Feature","geometry":{"type":"Point","coordinates":[132.75597,33.83233]},"properties":{"name":"土橋","line":"郡中線","riders":989}},{"type":"Feature","geometry":{"type":"Point","coordinates":[132.72436,33.79917]},"properties":{"name":"岡田","line":"郡中線","riders":1126}},{"type":"Feature","geometry":{"type":"Point","coordinates":[132.7299,33.81012]},"properties":{"name":"鎌田","line":"郡中線","riders":1098}},{"type":"Feature","geometry":{"type":"Point","coordinates":[132.71711,33.79248]},"properties":{"name":"古泉","line":"郡中線","riders":2383}},{"type":"Feature","geometry":{"type":"Point","coordinates":[132.7441,33.8241]},"properties":{"name":"土居田","line":"郡中線","riders":2450}},{"type":"Feature","geometry":{"type":"Point","coordinates":[132.705,33.78591]},"properties":{"name":"松前","line":"郡中線","riders":1076}},{"type":"Feature","geometry":{"type":"Point","coordinates":[132.70433,33.78001]},"properties":{"name":"地蔵町","line":"郡中線","riders":559}},{"type":"Feature","geometry":{"type":"Point","coordinates":[132.70414,33.76071]},"properties":{"name":"郡中","line":"郡中線","riders":1086}},{"type":"Feature","geometry":{"type":"Point","coordinates":[132.70215,33.75632]},"properties":{"name":"郡中港","line":"郡中線","riders":1081}},{"type":"Feature","geometry":{"type":"Point","coordinates":[132.7044,33.77216]},"properties":{"name":"新川","line":"郡中線","riders":690}},{"type":"Feature","geometry":{"type":"Point","coordinates":[132.755,33.84697]},"properties":{"name":"古町","line":"高浜線","riders":4900}},{"type":"Feature","geometry":{"type":"Point","coordinates":[132.75523,33.83975]},"properties":{"name":"大手町","line":"高浜線","riders":2823}},{"type":"Feature","geometry":{"type":"Point","coordinates":[132.73401,33.85038]},"properties":{"name":"西衣山","line":"高浜線","riders":1272}},{"type":"Feature","geometry":{"type":"Point","coordinates":[132.74399,33.85245]},"properties":{"name":"衣山","line":"高浜線","riders":2251}},{"type":"Feature","geometry":{"type":"Point","coordinates":[132.71995,33.86378]},"properties":{"name":"三津","line":"高浜線","riders":2164}},{"type":"Feature","geometry":{"type":"Point","coordinates":[132.72416,33.85563]},"properties":{"name":"山西","line":"高浜線","riders":2544}},{"type":"Feature","geometry":{"type":"Point","coordinates":[132.70763,33.87462]},"properties":{"name":"梅津寺","line":"高浜線","riders":338}},{"type":"Feature","geometry":{"type":"Point","coordinates":[132.70219,33.88344]},"properties":{"name":"高浜","line":"高浜線","riders":1339}},{"type":"Feature","geometry":{"type":"Point","coordinates":[132.7134,33.86957]},"properties":{"name":"港山","line":"高浜線","riders":348}},{"type":"Feature","geometry":{"type":"Point","coordinates":[132.75865,33.84076]},"properties":{"name":"本町一丁目","line":"城南線","riders":21}},{"type":"Feature","geometry":{"type":"Point","coordinates":[132.76462,33.83995]},"properties":{"name":"市役所前","line":"城南線","riders":824}},{"type":"Feature","geometry":{"type":"Point","coordinates":[132.77952,33.84739]},"properties":{"name":"南町","line":"城南線","riders":1152}},{"type":"Feature","geometry":{"type":"Point","coordinates":[132.76966,33.84125]},"properties":{"name":"大街道","line":"城南線","riders":5406}},{"type":"Feature","geometry":{"type":"Point","coordinates":[132.78504,33.85036]},"properties":{"name":"道後温泉","line":"城南線","riders":3208}},{"type":"Feature","geometry":{"type":"Point","coordinates":[132.77482,33.84175]},"properties":{"name":"勝山町","line":"城南線","riders":1707}},{"type":"Feature","geometry":{"type":"Point","coordinates":[132.77544,33.84681]},"properties":{"name":"上一万","line":"城南線","riders":1580}},{"type":"Feature","geometry":{"type":"Point","coordinates":[132.78495,33.84834]},"properties":{"name":"道後公園","line":"城南線","riders":745}},{"type":"Feature","geometry":{"type":"Point","coordinates":[132.77445,33.84772]},"properties":{"name":"平和通一丁目","line":"連絡線","riders":352}},{"type":"Feature","geometry":{"type":"Point","coordinates":[132.77537,33.84462]},"properties":{"name":"警察署前","line":"城南線","riders":1069}},{"type":"Feature","geometry":{"type":"Point","coordinates":[132.76635,33.84117]},"properties":{"name":"県庁前","line":"城南線","riders":931}},{"type":"Feature","geometry":{"type":"Point","coordinates":[132.76098,33.85343]},"properties":{"name":"木屋町","line":"城北線","riders":673}},{"type":"Feature","geometry":{"type":"Point","coordinates":[132.76891,33.84829]},"properties":{"name":"鉄砲町","line":"城北線","riders":768}},{"type":"Feature","geometry":{"type":"Point","coordinates":[132.76239,33.85175]},"properties":{"name":"高砂町","line":"城北線","riders":329}},{"type":"Feature","geometry":{"type":"Point","coordinates":[132.75622,33.85178]},"properties":{"name":"萱町六丁目","line":"城北線","riders":384}},{"type":"Feature","geometry":{"type":"Point","coordinates":[132.77238,33.84811]},"properties":{"name":"赤十字病院前","line":"城北線","riders":1549}},{"type":"Feature","geometry":{"type":"Point","coordinates":[132.76426,33.84924]},"properties":{"name":"清水町","line":"城北線","riders":459}},{"type":"Feature","geometry":{"type":"Point","coordinates":[132.75823,33.85346]},"properties":{"name":"本町六丁目","line":"城北線","riders":1022}},{"type":"Feature","geometry":{"type":"Point","coordinates":[132.75547,33.84032]},"properties":{"name":"大手町駅前","line":"大手町線","riders":578}},{"type":"Feature","geometry":{"type":"Point","coordinates":[132.75234,33.84073]},"properties":{"name":"ＪＲ松山駅前","line":"大手町線","riders":4127}},{"type":"Feature","geometry":{"type":"Point","coordinates":[132.75261,33.84392]},"properties":{"name":"宮田町","line":"大手町線","riders":950}},{"type":"Feature","geometry":{"type":"Point","coordinates":[132.75808,33.8403]},"properties":{"name":"西堀端","line":"大手町線","riders":554}},{"type":"Feature","geometry":{"type":"Point","coordinates":[132.75875,33.8508]},"properties":{"name":"本町五丁目","line":"本町線","riders":79}},{"type":"Feature","geometry":{"type":"Point","coordinates":[132.75873,33.84806]},"properties":{"name":"本町四丁目","line":"本町線","riders":75}},{"type":"Feature","geometry":{"type":"Point","coordinates":[132.75884,33.85313]},"properties":{"name":"本町六丁目","line":"本町線","riders":1022}},{"type":"Feature","geometry":{"type":"Point","coordinates":[132.75869,33.84513]},"properties":{"name":"本町三丁目","line":"本町線","riders":79}},{"type":"Feature","geometry":{"type":"Point","coordinates":[133.49756,33.55836]},"properties":{"name":"高知商業前","line":"土讃線","riders":1126}},{"type":"Feature","geometry":{"type":"Point","coordinates":[133.48564,33.55159]},"properties":{"name":"朝倉","line":"土讃線","riders":1960}},{"type":"Feature","geometry":{"type":"Point","coordinates":[133.3211,33.52356]},"properties":{"name":"土佐加茂","line":"土讃線","riders":166}},{"type":"Feature","geometry":{"type":"Point","coordinates":[133.1694,33.26203]},"properties":{"name":"六反地","line":"土讃線","riders":12}},{"type":"Feature","geometry":{"type":"Point","coordinates":[133.35127,33.52992]},"properties":{"name":"岡花","line":"土讃線","riders":138}},{"type":"Feature","geometry":{"type":"Point","coordinates":[133.44862,33.55067]},"properties":{"name":"枝川","line":"土讃線","riders":756}},{"type":"Feature","geometry":{"type":"Point","coordinates":[133.28667,33.51264]},"properties":{"name":"西佐川","line":"土讃線","riders":680}},{"type":"Feature","geometry":{"type":"Point","coordinates":[133.13733,33.21268]},"properties":{"name":"窪川","line":"土讃線","riders":1328}},{"type":"Feature","geometry":{"type":"Point","coordinates":[133.29275,33.50019]},"properties":{"name":"佐川","line":"土讃線","riders":830}},{"type":"Feature","geometry":{"type":"Point","coordinates":[133.25904,33.36706]},"properties":{"name":"安和","line":"土讃線","riders":38}},{"type":"Feature","geometry":{"type":"Point","coordinates":[133.43041,33.54744]},"properties":{"name":"伊野","line":"土讃線","riders":1044}},{"type":"Feature","geometry":{"type":"Point","coordinates":[133.29318,33.39276]},"properties":{"name":"須崎","line":"土讃線","riders":1006}},{"type":"Feature","geometry":{"type":"Point","coordinates":[133.17357,33.27596]},"properties":{"name":"影野","line":"土讃線","riders":50}},{"type":"Feature","geometry":{"type":"Point","coordinates":[133.16124,33.24511]},"properties":{"name":"仁井田","line":"土讃線","riders":42}},{"type":"Feature","geometry":{"type":"Point","coordinates":[133.22645,33.32904]},"properties":{"name":"土佐久礼","line":"土讃線","riders":442}},{"type":"Feature","geometry":{"type":"Point","coordinates":[133.28775,33.407]},"properties":{"name":"大間","line":"土讃線","riders":562}},{"type":"Feature","geometry":{"type":"Point","coordinates":[133.29463,33.41068]},"properties":{"name":"多ノ郷","line":"土讃線","riders":502}},{"type":"Feature","geometry":{"type":"Point","coordinates":[133.29567,33.43027]},"properties":{"name":"吾桑","line":"土讃線","riders":146}},{"type":"Feature","geometry":{"type":"Point","coordinates":[133.30052,33.48873]},"properties":{"name":"襟野々","line":"土讃線","riders":170}},{"type":"Feature","geometry":{"type":"Point","coordinates":[133.37131,33.53342]},"properties":{"name":"日下","line":"土讃線","riders":318}},{"type":"Feature","geometry":{"type":"Point","coordinates":[133.28638,33.47547]},"properties":{"name":"斗賀野","line":"土讃線","riders":320}},{"type":"Feature","geometry":{"type":"Point","coordinates":[133.41398,33.54376]},"properties":{"name":"波川","line":"土讃線","riders":408}},{"type":"Feature","geometry":{"type":"Point","coordinates":[133.27805,33.38639]},"properties":{"name":"土佐新荘","line":"土讃線","riders":268}},{"type":"Feature","geometry":{"type":"Point","coordinates":[132.61144,33.53342]},"properties":{"name":"喜多山","line":"内子線","riders":20}},{"type":"Feature","geometry":{"type":"Point","coordinates":[132.63635,33.53808]},"properties":{"name":"五十崎","line":"内子線","riders":11}},{"type":"Feature","geometry":{"type":"Point","coordinates":[132.64626,33.54948]},"properties":{"name":"内子","line":"内子線","riders":1546}},{"type":"Feature","geometry":{"type":"Point","coordinates":[132.59853,33.53415]},"properties":{"name":"新谷","line":"内子線","riders":238}},{"type":"Feature","geometry":{"type":"Point","coordinates":[132.77533,33.9729]},"properties":{"name":"伊予北条","line":"予讃線","riders":2908}},{"type":"Feature","geometry":{"type":"Point","coordinates":[132.7271,33.77285]},"properties":{"name":"伊予横田","line":"予讃線","riders":282}},{"type":"Feature","geometry":{"type":"Point","coordinates":[133.25324,33.92624]},"properties":{"name":"中萩","line":"予讃線","riders":242}},{"type":"Feature","geometry":{"type":"Point","coordinates":[133.4276,33.95901]},"properties":{"name":"伊予土居","line":"予讃線","riders":776}},{"type":"Feature","geometry":{"type":"Point","coordinates":[133.11651,33.8976]},"properties":{"name":"伊予小松","line":"予讃線","riders":544}},{"type":"Feature","geometry":{"type":"Point","coordinates":[133.4565,33.96681]},"properties":{"name":"赤星","line":"予讃線","riders":270}},{"type":"Feature","geometry":{"type":"Point","coordinates":[132.74054,33.88961]},"properties":{"name":"伊予和気","line":"予讃線","riders":902}},{"type":"Feature","geometry":{"type":"Point","coordinates":[133.09898,33.91273]},"properties":{"name":"玉之江","line":"予讃線","riders":114}},{"type":"Feature","geometry":{"type":"Point","coordinates":[132.75098,33.83988]},"properties":{"name":"松山","line":"予讃線","riders":14746}},{"type":"Feature","geometry":{"type":"Point","coordinates":[132.76095,33.92685]},"properties":{"name":"光洋台","line":"予讃線","riders":268}},{"type":"Feature","geometry":{"type":"Point","coordinates":[132.77348,33.95352]},"properties":{"name":"柳原","line":"予讃線","riders":268}},{"type":"Feature","geometry":{"type":"Point","coordinates":[132.75355,33.90547]},"properties":{"name":"堀江","line":"予讃線","riders":482}},{"type":"Feature","geometry":{"type":"Point","coordinates":[132.74927,33.80915]},"properties":{"name":"市坪","line":"予讃線","riders":600}},{"type":"Feature","geometry":{"type":"Point","coordinates":[133.13108,33.89675]},"properties":{"name":"伊予氷見","line":"予讃線","riders":122}},{"type":"Feature","geometry":{"type":"Point","coordinates":[133.18825,33.91257]},"properties":{"name":"伊予西条","line":"予讃線","riders":3158}},{"type":"Feature","geometry":{"type":"Point","coordinates":[133.29476,33.94805]},"properties":{"name":"新居浜","line":"予讃線","riders":4142}},{"type":"Feature","geometry":{"type":"Point","coordinates":[133.39287,33.95577]},"properties":{"name":"関川","line":"予讃線","riders":128}},{"type":"Feature","geometry":{"type":"Point","coordinates":[133.32521,33.97053]},"properties":{"name":"多喜浜","line":"予讃線","riders":180}},{"type":"Feature","geometry":{"type":"Point","coordinates":[133.08558,33.92965]},"properties":{"name":"壬生川","line":"予讃線","riders":1712}},{"type":"Feature","geometry":{"type":"Point","coordinates":[132.7488,33.78733]},"properties":{"name":"北伊予","line":"予讃線","riders":554}},{"type":"Feature","geometry":{"type":"Point","coordinates":[132.77059,33.94293]},"properties":{"name":"粟井","line":"予讃線","riders":808}},{"type":"Feature","geometry":{"type":"Point","coordinates":[132.72879,33.86171]},"properties":{"name":"三津浜","line":"予讃線","riders":1174}},{"type":"Feature","geometry":{"type":"Point","coordinates":[133.06433,33.95434]},"properties":{"name":"伊予三芳","line":"予讃線","riders":486}},{"type":"Feature","geometry":{"type":"Point","coordinates":[133.15761,33.8959]},"properties":{"name":"石鎚山","line":"予讃線","riders":98}},{"type":"Feature","geometry":{"type":"Point","coordinates":[132.58914,33.65509]},"properties":{"name":"下灘","line":"予讃線","riders":108}},{"type":"Feature","geometry":{"type":"Point","coordinates":[132.53108,33.34978]},"properties":{"name":"下宇和","line":"予讃線","riders":44}},{"type":"Feature","geometry":{"type":"Point","coordinates":[132.63296,33.68361]},"properties":{"name":"伊予上灘","line":"予讃線","riders":256}},{"type":"Feature","geometry":{"type":"Point","coordinates":[132.54431,33.27341]},"properties":{"name":"伊予吉田","line":"予讃線","riders":320}},{"type":"Feature","geometry":{"type":"Point","coordinates":[132.53947,33.29673]},"properties":{"name":"立間","line":"予讃線","riders":198}},{"type":"Feature","geometry":{"type":"Point","coordinates":[132.69569,33.73589]},"properties":{"name":"向井原","line":"予讃線","riders":130}},{"type":"Feature","geometry":{"type":"Point","coordinates":[132.54484,33.51855]},"properties":{"name":"伊予大洲","line":"予讃線","riders":2052}},{"type":"Feature","geometry":{"type":"Point","coordinates":[132.51812,33.49561]},"properties":{"name":"伊予平野","line":"予讃線","riders":66}},{"type":"Feature","geometry":{"type":"Point","coordinates":[132.56771,33.22619]},"properties":{"name":"宇和島","line":"予讃線","riders":2886}},{"type":"Feature","geometry":{"type":"Point","coordinates":[132.49885,33.59636]},"properties":{"name":"伊予出石","line":"予讃線","riders":86}},{"type":"Feature","geometry":{"type":"Point","coordinates":[132.71191,33.6492]},"properties":{"name":"伊予中山","line":"予讃線","riders":364}},{"type":"Feature","geometry":{"type":"Point","coordinates":[132.45734,33.46543]},"properties":{"name":"千丈","line":"予讃線","riders":11}},{"type":"Feature","geometry":{"type":"Point","coordinates":[132.47305,33.39159]},"properties":{"name":"伊予石城","line":"予讃線","riders":54}},{"type":"Feature","geometry":{"type":"Point","coordinates":[132.57351,33.25598]},"properties":{"name":"高光","line":"予讃線","riders":12}},{"type":"Feature","geometry":{"type":"Point","coordinates":[132.50138,33.37996]},"properties":{"name":"上宇和","line":"予讃線","riders":182}},{"type":"Feature","geometry":{"type":"Point","coordinates":[132.56306,33.64706]},"properties":{"name":"串","line":"予讃線","riders":24}},{"type":"Feature","geometry":{"type":"Point","coordinates":[132.43618,33.45803]},"properties":{"name":"八幡浜","line":"予讃線","riders":2242}},{"type":"Feature","geometry":{"type":"Point","coordinates":[132.52653,33.57844]},"properties":{"name":"伊予白滝","line":"予讃線","riders":90}},{"type":"Feature","geometry":{"type":"Point","coordinates":[132.70261,33.75556]},"properties":{"name":"伊予市","line":"予讃線","riders":1296}},{"type":"Feature","geometry":{"type":"Point","coordinates":[132.57053,33.54133]},"properties":{"name":"五郎","line":"予讃線","riders":62}},{"type":"Feature","geometry":{"type":"Point","coordinates":[132.71139,33.76373]},"properties":{"name":"鳥ノ木","line":"予讃線","riders":400}},{"type":"Feature","geometry":{"type":"Point","coordinates":[132.70841,33.71602]},"properties":{"name":"伊予大平","line":"予讃線","riders":48}},{"type":"Feature","geometry":{"type":"Point","coordinates":[132.52713,33.50818]},"properties":{"name":"西大洲","line":"予讃線","riders":94}},{"type":"Feature","geometry":{"type":"Point","coordinates":[132.55531,33.55565]},"properties":{"name":"春賀","line":"予讃線","riders":38}},{"type":"Feature","geometry":{"type":"Point","coordinates":[132.53152,33.63717]},"properties":{"name":"喜多灘","line":"予讃線","riders":44}},{"type":"Feature","geometry":{"type":"Point","coordinates":[132.6773,33.60075]},"properties":{"name":"伊予立川","line":"予讃線","riders":74}},{"type":"Feature","geometry":{"type":"Point","coordinates":[132.54077,33.56245]},"properties":{"name":"八多喜","line":"予讃線","riders":102}},{"type":"Feature","geometry":{"type":"Point","coordinates":[132.45789,33.42428]},"properties":{"name":"双岩","line":"予讃線","riders":94}},{"type":"Feature","geometry":{"type":"Point","coordinates":[132.48707,33.61501]},"properties":{"name":"伊予長浜","line":"予讃線","riders":478}},{"type":"Feature","geometry":{"type":"Point","coordinates":[132.65877,33.70164]},"properties":{"name":"高野川","line":"予讃線","riders":78}},{"type":"Feature","geometry":{"type":"Point","coordinates":[132.50977,33.36317]},"properties":{"name":"卯之町","line":"予讃線","riders":794}},{"type":"Feature","geometry":{"type":"Point","coordinates":[132.56972,33.23924]},"properties":{"name":"北宇和島","line":"予讃線","riders":142}},{"type":"Feature","geometry":{"type":"Point","coordinates":[133.02974,33.1755]},"properties":{"name":"打井川","line":"予土線","riders":11}},{"type":"Feature","geometry":{"type":"Point","coordinates":[132.85594,33.2349]},"properties":{"name":"十川","line":"予土線","riders":46}},{"type":"Feature","geometry":{"type":"Point","coordinates":[132.78318,33.17822]},"properties":{"name":"江川崎","line":"予土線","riders":60}},{"type":"Feature","geometry":{"type":"Point","coordinates":[133.07475,33.16141]},"properties":{"name":"家地川","line":"予土線","riders":11}},{"type":"Feature","geometry":{"type":"Point","coordinates":[132.97564,33.19484]},"properties":{"name":"土佐大正","line":"予土線","riders":114}},{"type":"Feature","geometry":{"type":"Point","coordinates":[132.74515,33.22409]},"properties":{"name":"真土","line":"予土線","riders":22}},{"type":"Feature","geometry":{"type":"Point","coordinates":[133.10584,33.18805]},"properties":{"name":"若井","line":"予土線","riders":34}},{"type":"Feature","geometry":{"type":"Point","coordinates":[132.79196,33.20179]},"properties":{"name":"半家","line":"予土線","riders":11}},{"type":"Feature","geometry":{"type":"Point","coordinates":[132.76716,33.18745]},"properties":{"name":"西ヶ方","line":"予土線","riders":12}},{"type":"Feature","geometry":{"type":"Point","coordinates":[132.89756,33.22002]},"properties":{"name":"土佐昭和","line":"予土線","riders":26}},{"type":"Feature","geometry":{"type":"Point","coordinates":[132.72932,33.22451]},"properties":{"name":"吉野生","line":"予土線","riders":34}},{"type":"Feature","geometry":{"type":"Point","coordinates":[132.60586,33.28881]},"properties":{"name":"伊予宮野下","line":"予土線","riders":298}},{"type":"Feature","geometry":{"type":"Point","coordinates":[132.60061,33.28286]},"properties":{"name":"務田","line":"予土線","riders":106}},{"type":"Feature","geometry":{"type":"Point","coordinates":[132.69194,33.2518]},"properties":{"name":"出目","line":"予土線","riders":38}},{"type":"Feature","geometry":{"type":"Point","coordinates":[132.66039,33.26763]},"properties":{"name":"深田","line":"予土線","riders":18}},{"type":"Feature","geometry":{"type":"Point","coordinates":[132.64176,33.28731]},"properties":{"name":"大内","line":"予土線","riders":42}},{"type":"Feature","geometry":{"type":"Point","coordinates":[132.70889,33.22825]},"properties":{"name":"松丸","line":"予土線","riders":132}},{"type":"Feature","geometry":{"type":"Point","coordinates":[132.67639,33.25566]},"properties":{"name":"近永","line":"予土線","riders":412}},{"type":"Feature","geometry":{"type":"Point","coordinates":[132.62903,33.29151]},"properties":{"name":"二名","line":"予土線","riders":42}},{"type":"Feature","geometry":{"type":"Point","coordinates":[132.20925,33.99877]},"properties":{"name":"神代","line":"山陽線","riders":166}},{"type":"Feature","geometry":{"type":"Point","coordinates":[133.11607,33.13303]},"properties":{"name":"荷稲","line":"中村線","riders":31}},{"type":"Feature","geometry":{"type":"Point","coordinates":[133.10622,33.06423]},"properties":{"name":"佐賀公園","line":"中村線","riders":12}},{"type":"Feature","geometry":{"type":"Point","coordinates":[132.98681,33.00879]},"properties":{"name":"西大方","line":"中村線","riders":12}},{"type":"Feature","geometry":{"type":"Point","coordinates":[133.10142,33.08128]},"properties":{"name":"土佐佐賀","line":"中村線","riders":192}},{"type":"Feature","geometry":{"type":"Point","coordinates":[133.04705,33.04051]},"properties":{"name":"海の王迎","line":"中村線","riders":12}},{"type":"Feature","geometry":{"type":"Point","coordinates":[133.05604,33.04289]},"properties":{"name":"土佐上川口","line":"中村線","riders":25}},{"type":"Feature","geometry":{"type":"Point","coordinates":[133.09833,33.10508]},"properties":{"name":"伊与喜","line":"中村線","riders":42}},{"type":"Feature","geometry":{"type":"Point","coordinates":[133.07098,33.03942]},"properties":{"name":"有井川","line":"中村線","riders":17}},{"type":"Feature","geometry":{"type":"Point","coordinates":[133.01158,33.02394]},"properties":{"name":"土佐入野","line":"中村線","riders":262}},{"type":"Feature","geometry":{"type":"Point","coordinates":[133.02975,33.03939]},"properties":{"name":"浮鞭","line":"中村線","riders":40}},{"type":"Feature","geometry":{"type":"Point","coordinates":[133.09735,33.05695]},"properties":{"name":"土佐白浜","line":"中村線","riders":12}},{"type":"Feature","geometry":{"type":"Point","coordinates":[133.48834,33.5507]},"properties":{"name":"朝倉","line":"伊野線","riders":558}},{"type":"Feature","geometry":{"type":"Point","coordinates":[133.46116,33.55204]},"properties":{"name":"宇治団地前","line":"伊野線","riders":100}},{"type":"Feature","geometry":{"type":"Point","coordinates":[133.49354,33.55157]},"properties":{"name":"曙町東町","line":"伊野線","riders":140}},{"type":"Feature","geometry":{"type":"Point","coordinates":[133.49084,33.55112]},"properties":{"name":"曙町","line":"伊野線","riders":95}},{"type":"Feature","geometry":{"type":"Point","coordinates":[133.48582,33.5508]},"properties":{"name":"朝倉駅前","line":"伊野線","riders":174}},{"type":"Feature","geometry":{"type":"Point","coordinates":[133.47111,33.55253]},"properties":{"name":"咥内","line":"伊野線","riders":122}},{"type":"Feature","geometry":{"type":"Point","coordinates":[133.49658,33.55208]},"properties":{"name":"鴨部","line":"伊野線","riders":418}},{"type":"Feature","geometry":{"type":"Point","coordinates":[133.48083,33.55203]},"properties":{"name":"朝倉神社前","line":"伊野線","riders":47}},{"type":"Feature","geometry":{"type":"Point","coordinates":[133.49875,33.5557]},"properties":{"name":"鏡川橋","line":"伊野線","riders":880}},{"type":"Feature","geometry":{"type":"Point","coordinates":[133.47578,33.55248]},"properties":{"name":"宮の奥","line":"伊野線","riders":87}},{"type":"Feature","geometry":{"type":"Point","coordinates":[133.42852,33.54851]},"properties":{"name":"伊野","line":"伊野線","riders":405}},{"type":"Feature","geometry":{"type":"Point","coordinates":[133.44952,33.55146]},"properties":{"name":"枝川","line":"伊野線","riders":159}},{"type":"Feature","geometry":{"type":"Point","coordinates":[133.43848,33.54935]},"properties":{"name":"北山","line":"伊野線","riders":39}},{"type":"Feature","geometry":{"type":"Point","coordinates":[133.43286,33.54881]},"properties":{"name":"鳴谷","line":"伊野線","riders":50}},{"type":"Feature","geometry":{"type":"Point","coordinates":[133.45628,33.55226]},"properties":{"name":"八代通","line":"伊野線","riders":278}},{"type":"Feature","geometry":{"type":"Point","coordinates":[133.44424,33.55038]},"properties":{"name":"伊野商業前","line":"伊野線","riders":90}},{"type":"Feature","geometry":{"type":"Point","coordinates":[133.42986,33.54859]},"properties":{"name":"伊野駅前","line":"伊野線","riders":53}},{"type":"Feature","geometry":{"type":"Point","coordinates":[133.45245,33.55178]},"properties":{"name":"中山","line":"伊野線","riders":92}},{"type":"Feature","geometry":{"type":"Point","coordinates":[133.442,33.54998]},"properties":{"name":"北内","line":"伊野線","riders":190}},{"type":"Feature","geometry":{"type":"Point","coordinates":[133.39267,33.53983]},"properties":{"name":"小村神社前","line":"土讃線","riders":160}},{"type":"Feature","geometry":{"type":"Point","coordinates":[132.73843,33.77758]},"properties":{"name":"南伊予","line":"予讃線","riders":186}}]}