{"type":"FeatureCollection","features":[{"type":"Feature","geometry":{"type":"Point","coordinates":[139.03743,35.12768]},"properties":{"name":"十国登り口","line":"十国鋼索線","riders":1285}},{"type":"Feature","geometry":{"type":"Point","coordinates":[139.04083,35.12768]},"properties":{"name":"十国峠","line":"十国鋼索線","riders":5163}},{"type":"Feature","geometry":{"type":"Point","coordinates":[139.14878,35.27986]},"properties":{"name":"穴部","line":"大雄山線","riders":4927}},{"type":"Feature","geometry":{"type":"Point","coordinates":[139.11822,35.31595]},"properties":{"name":"和田河原","line":"大雄山線","riders":3324}},{"type":"Feature","geometry":{"type":"Point","coordinates":[139.1565,35.25641]},"properties":{"name":"小田原","line":"大雄山線","riders":17929}},{"type":"Feature","geometry":{"type":"Point","coordinates":[139.12881,35.29883]},"properties":{"name":"岩原","line":"大雄山線","riders":2952}},{"type":"Feature","geometry":{"type":"Point","coordinates":[139.1037,35.31904]},"properties":{"name":"大雄山","line":"大雄山線","riders":5542}},{"type":"Feature","geometry":{"type":"Point","coordinates":[139.1574,35.26897]},"properties":{"name":"井細田","line":"大雄山線","riders":3481}},{"type":"Feature","geometry":{"type":"Point","coordinates":[139.15861,35.25927]},"properties":{"name":"緑町","line":"大雄山線","riders":3871}},{"type":"Feature","geometry":{"type":"Point","coordinates":[139.1339,35.29234]},"properties":{"name":"相模沼田","line":"大雄山線","riders":3045}},{"type":"Feature","geometry":{"type":"Point","coordinates":[139.15556,35.27517]},"properties":{"name":"五百羅漢","line":"大雄山線","riders":3009}},{"type":"Feature","geometry":{"type":"Point","coordinates":[139.12672,35.30134]},"properties":{"name":"塚原","line":"大雄山線","riders":4857}},{"type":"Feature","geometry":{"type":"Point","coordinates":[139.13932,35.2879]},"properties":{"name":"飯田岡","line":"大雄山線","riders":3287}},{"type":"Feature","geometry":{"type":"Point","coordinates":[139.10951,35.3177]},"properties":{"name":"富士フイルム前","line":"大雄山線","riders":2546}},{"type":"Feature","geometry":{"type":"Point","coordinates":[139.63246,35.45767]},"properties":{"name":"みなとみらい","line":"みなとみらい21線","riders":90677}},{"type":"Feature","geometry":{"type":"Point","coordinates":[139.65074,35.44231]},"properties":{"name":"元町・中華街","line":"みなとみらい21線","riders":64569}},{"type":"Feature","geometry":{"type":"Point","coordinates":[139.62649,35.46196]},"properties":{"name":"新高島","line":"みなとみらい21線","riders":7039}},{"type":"Feature","geometry":{"type":"Point","coordinates":[139.6362,35.45007]},"properties":{"name":"馬車道","line":"みなとみらい21線","riders":41627}},{"type":"Feature","geometry":{"type":"Point","coordinates":[139.64272,35.4468]},"properties":{"name":"日本大通り","line":"みなとみらい21線","riders":27335}},{"type":"Feature","geometry":{"type":"Point","coordinates":[139.62235,35.46644]},"properties":{"name":"横浜","line":"みなとみらい21線","riders":367023}},{"type":"Feature","geometry":{"type":"Point","coordinates":[139.61857,35.43539]},"properties":{"name":"吉野町","line":"1号線","riders":21186}},{"type":"Feature","geometry":{"type":"Point","coordinates":[139.62497,35.43754]},"properties":{"name":"阪東橋","line":"1号線","riders":21442}},{"type":"Feature","geometry":{"type":"Point","coordinates":[139.59121,35.40123]},"properties":{"name":"港南中央","line":"1号線","riders":19627}},{"type":"Feature","geometry":{"type":"Point","coordinates":[139.63266,35.44094]},"properties":{"name":"伊勢佐木長者町","line":"1号線","riders":45780}},{"type":"Feature","geometry":{"type":"Point","coordinates":[139.59598,35.40921]},"properties":{"name":"上大岡","line":"1号線","riders":84981}},{"type":"Feature","geometry":{"type":"Point","coordinates":[139.602,35.42298]},"properties":{"name":"弘明寺","line":"1号線","riders":20393}},{"type":"Feature","geometry":{"type":"Point","coordinates":[139.61053,35.43031]},"properties":{"name":"蒔田","line":"1号線","riders":23187}},{"type":"Feature","geometry":{"type":"Point","coordinates":[139.63602,35.44577]},"properties":{"name":"関内","line":"1号線","riders":46816}},{"type":"Feature","geometry":{"type":"Point","coordinates":[139.46612,35.39624]},"properties":{"name":"湘南台","line":"1号線","riders":49388}},{"type":"Feature","geometry":{"type":"Point","coordinates":[139.51858,35.40555]},"properties":{"name":"踊場","line":"1号線","riders":19146}},{"type":"Feature","geometry":{"type":"Point","coordinates":[139.55127,35.40254]},"properties":{"name":"舞岡","line":"1号線","riders":17407}},{"type":"Feature","geometry":{"type":"Point","coordinates":[139.57279,35.40137]},"properties":{"name":"上永谷","line":"1号線","riders":38285}},{"type":"Feature","geometry":{"type":"Point","coordinates":[139.55904,35.40276]},"properties":{"name":"下永谷","line":"1号線","riders":37902}},{"type":"Feature","geometry":{"type":"Point","coordinates":[139.51122,35.41116]},"properties":{"name":"中田","line":"1号線","riders":22499}},{"type":"Feature","geometry":{"type":"Point","coordinates":[139.5007,35.41438]},"properties":{"name":"立場","line":"1号線","riders":23757}},{"type":"Feature","geometry":{"type":"Point","coordinates":[139.53489,35.40109]},"properties":{"name":"戸塚","line":"1号線","riders":90133}},{"type":"Feature","geometry":{"type":"Point","coordinates":[139.48289,35.40337]},"properties":{"name":"下飯田","line":"1号線","riders":17394}},{"type":"Feature","geometry":{"type":"Point","coordinates":[139.62365,35.4587]},"properties":{"name":"高島町","line":"3号線","riders":10680}},{"type":"Feature","geometry":{"type":"Point","coordinates":[139.60553,35.47642]},"properties":{"name":"三ツ沢上町","line":"3号線","riders":17264}},{"type":"Feature","geometry":{"type":"Point","coordinates":[139.61655,35.49551]},"properties":{"name":"岸根公園","line":"3号線","riders":11884}},{"type":"Feature","geometry":{"type":"Point","coordinates":[139.60643,35.49]},"properties":{"name":"片倉町","line":"3号線","riders":23165}},{"type":"Feature","geometry":{"type":"Point","coordinates":[139.61521,35.47648]},"properties":{"name":"三ツ沢下町","line":"3号線","riders":12614}},{"type":"Feature","geometry":{"type":"Point","coordinates":[139.62014,35.46541]},"properties":{"name":"横浜","line":"3号線","riders":144044}},{"type":"Feature","geometry":{"type":"Point","coordinates":[139.63074,35.44964]},"properties":{"name":"桜木町","line":"3号線","riders":39231}},{"type":"Feature","geometry":{"type":"Point","coordinates":[139.64083,35.3409]},"properties":{"name":"八景島","line":"金沢シーサイドライン","riders":4938}},{"type":"Feature","geometry":{"type":"Point","coordinates":[139.64632,35.35343]},"properties":{"name":"産業振興センター","line":"金沢シーサイドライン","riders":4660}},{"type":"Feature","geometry":{"type":"Point","coordinates":[139.63155,35.3306]},"properties":{"name":"野島公園","line":"金沢シーサイドライン","riders":2882}},{"type":"Feature","geometry":{"type":"Point","coordinates":[139.64369,35.3584]},"properties":{"name":"幸浦","line":"金沢シーサイドライン","riders":5748}},{"type":"Feature","geometry":{"type":"Point","coordinates":[139.63591,35.34212]},"properties":{"name":"海の公園柴口","line":"金沢シーサイドライン","riders":2112}},{"type":"Feature","geometry":{"type":"Point","coordinates":[139.64273,35.37202]},"properties":{"name":"並木北","line":"金沢シーサイドライン","riders":3598}},{"type":"Feature","geometry":{"type":"Point","coordinates":[139.6418,35.37718]},"properties":{"name":"鳥浜","line":"金沢シーサイドライン","riders":8886}},{"type":"Feature","geometry":{"type":"Point","coordinates":[139.62073,35.33161]},"properties":{"name":"金沢八景","line":"金沢シーサイドライン","riders":0}},{"type":"Feature","geometry":{"type":"Point","coordinates":[139.64299,35.36545]},"properties":{"name":"並木中央","line":"金沢シーサイドライン","riders":5265}},{"type":"Feature","geometry":{"type":"Point","coordinates":[139.62074,35.38571]},"properties":{"name":"新杉田","line":"金沢シーサイドライン","riders":34056}},{"type":"Feature","geometry":{"type":"Point","coordinates":[139.63214,35.3372]},"properties":{"name":"海の公園南口","line":"金沢シーサイドライン","riders":1622}},{"type":"Feature","geometry":{"type":"Point","coordinates":[139.63321,35.38018]},"properties":{"name":"南部市場","line":"金沢シーサイドライン","riders":3714}},{"type":"Feature","geometry":{"type":"Point","coordinates":[139.64853,35.34961]},"properties":{"name":"福浦","line":"金沢シーサイドライン","riders":4154}},{"type":"Feature","geometry":{"type":"Point","coordinates":[139.65013,35.3439]},"properties":{"name":"市大医学部","line":"金沢シーサイドライン","riders":11397}},{"type":"Feature","geometry":{"type":"Point","coordinates":[139.63336,35.17822]},"properties":{"name":"三崎口","line":"久里浜線","riders":18296}},{"type":"Feature","geometry":{"type":"Point","coordinates":[139.68639,35.24916]},"properties":{"name":"北久里浜","line":"久里浜線","riders":27581}},{"type":"Feature","geometry":{"type":"Point","coordinates":[139.68525,35.21257]},"properties":{"name":"YRP野比","line":"久里浜線","riders":20459}},{"type":"Feature","geometry":{"type":"Point","coordinates":[139.6902,35.25697]},"properties":{"name":"新大津","line":"久里浜線","riders":6900}},{"type":"Feature","geometry":{"type":"Point","coordinates":[139.66485,35.19812]},"properties":{"name":"津久井浜","line":"久里浜線","riders":6568}},{"type":"Feature","geometry":{"type":"Point","coordinates":[139.67413,35.20544]},"properties":{"name":"京急長沢","line":"久里浜線","riders":7482}},{"type":"Feature","geometry":{"type":"Point","coordinates":[139.65337,35.18829]},"properties":{"name":"三浦海岸","line":"久里浜線","riders":11842}},{"type":"Feature","geometry":{"type":"Point","coordinates":[139.68704,35.26315]},"properties":{"name":"堀ノ内","line":"久里浜線","riders":12734}},{"type":"Feature","geometry":{"type":"Point","coordinates":[139.58052,35.29422]},"properties":{"name":"逗子・葉山","line":"逗子線","riders":25315}},{"type":"Feature","geometry":{"type":"Point","coordinates":[139.59289,35.30628]},"properties":{"name":"神武寺","line":"逗子線","riders":7087}},{"type":"Feature","geometry":{"type":"Point","coordinates":[139.61149,35.32272]},"properties":{"name":"六浦","line":"逗子線","riders":16519}},{"type":"Feature","geometry":{"type":"Point","coordinates":[139.62013,35.33113]},"properties":{"name":"金沢八景","line":"逗子線","riders":59588}},{"type":"Feature","geometry":{"type":"Point","coordinates":[139.64282,35.28668]},"properties":{"name":"安針塚","line":"本線","riders":5006}},{"type":"Feature","geometry":{"type":"Point","coordinates":[139.61561,35.3839]},"properties":{"name":"杉田","line":"本線","riders":34868}},{"type":"Feature","geometry":{"type":"Point","coordinates":[139.61363,35.43689]},"properties":{"name":"南太田","line":"本線","riders":17699}},{"type":"Feature","geometry":{"type":"Point","coordinates":[139.66251,35.28032]},"properties":{"name":"汐入","line":"本線","riders":22239}},{"type":"Feature","geometry":{"type":"Point","coordinates":[139.65261,35.28062]},"properties":{"name":"逸見","line":"本線","riders":5299}},{"type":"Feature","geometry":{"type":"Point","coordinates":[139.65585,35.48722]},"properties":{"name":"京急新子安","line":"本線","riders":8596}},{"type":"Feature","geometry":{"type":"Point","coordinates":[139.62488,35.31569]},"properties":{"name":"追浜","line":"本線","riders":42727}},{"type":"Feature","geometry":{"type":"Point","coordinates":[139.66733,35.4956]},"properties":{"name":"生麦","line":"本線","riders":29910}},{"type":"Feature","geometry":{"type":"Point","coordinates":[139.59691,35.4241]},"properties":{"name":"弘明寺","line":"本線","riders":30386}},{"type":"Feature","geometry":{"type":"Point","coordinates":[139.66979,35.27884]},"properties":{"name":"横須賀中央","line":"本線","riders":68092}},{"type":"Feature","geometry":{"type":"Point","coordinates":[139.62923,35.36056]},"properties":{"name":"能見台","line":"本線","riders":31758}},{"type":"Feature","geometry":{"type":"Point","coordinates":[139.59661,35.40935]},"properties":{"name":"上大岡","line":"本線","riders":144624}},{"type":"Feature","geometry":{"type":"Point","coordinates":[139.62178,35.34326]},"properties":{"name":"金沢文庫","line":"本線","riders":71523}},{"type":"Feature","geometry":{"type":"Point","coordinates":[139.62742,35.47125]},"properties":{"name":"神奈川","line":"本線","riders":5082}},{"type":"Feature","geometry":{"type":"Point","coordinates":[139.62256,35.43971]},"properties":{"name":"黄金町","line":"本線","riders":22987}},{"type":"Feature","geometry":{"type":"Point","coordinates":[139.61956,35.45666]},"properties":{"name":"戸部","line":"本線","riders":16841}},{"type":"Feature","geometry":{"type":"Point","coordinates":[139.60053,35.43388]},"properties":{"name":"井土ヶ谷","line":"本線","riders":29347}},{"type":"Feature","geometry":{"type":"Point","coordinates":[139.63493,35.47755]},"properties":{"name":"京急東神奈川","line":"本線","riders":23821}},{"type":"Feature","geometry":{"type":"Point","coordinates":[139.61044,35.39413]},"properties":{"name":"屏風浦","line":"本線","riders":18335}},{"type":"Feature","geometry":{"type":"Point","coordinates":[139.62313,35.46625]},"properties":{"name":"横浜","line":"本線","riders":327025}},{"type":"Feature","geometry":{"type":"Point","coordinates":[139.62976,35.36671]},"properties":{"name":"京急富岡","line":"本線","riders":24700}},{"type":"Feature","geometry":{"type":"Point","coordinates":[139.64504,35.48457]},"properties":{"name":"子安","line":"本線","riders":7852}},{"type":"Feature","geometry":{"type":"Point","coordinates":[139.67697,35.26982]},"properties":{"name":"県立大学","line":"本線","riders":12509}},{"type":"Feature","geometry":{"type":"Point","coordinates":[139.62521,35.301]},"properties":{"name":"京急田浦","line":"本線","riders":13878}},{"type":"Feature","geometry":{"type":"Point","coordinates":[139.64017,35.48152]},"properties":{"name":"神奈川新町","line":"本線","riders":19682}},{"type":"Feature","geometry":{"type":"Point","coordinates":[139.69537,35.261]},"properties":{"name":"京急大津","line":"本線","riders":5358}},{"type":"Feature","geometry":{"type":"Point","coordinates":[139.62666,35.44563]},"properties":{"name":"日ノ出町","line":"本線","riders":28814}},{"type":"Feature","geometry":{"type":"Point","coordinates":[139.51004,35.30629]},"properties":{"name":"七里ヶ浜","line":"江ノ島電鉄線","riders":7385}},{"type":"Feature","geometry":{"type":"Point","coordinates":[139.55009,35.31829]},"properties":{"name":"鎌倉","line":"江ノ島電鉄線","riders":27597}},{"type":"Feature","geometry":{"type":"Point","coordinates":[139.48523,35.32729]},"properties":{"name":"柳小路","line":"江ノ島電鉄線","riders":2772}},{"type":"Feature","geometry":{"type":"Point","coordinates":[139.48267,35.3214]},"properties":{"name":"鵠沼","line":"江ノ島電鉄線","riders":4802}},{"type":"Feature","geometry":{"type":"Point","coordinates":[139.48332,35.3152]},"properties":{"name":"湘南海岸公園","line":"江ノ島電鉄線","riders":2478}},{"type":"Feature","geometry":{"type":"Point","coordinates":[139.54158,35.31288]},"properties":{"name":"由比ヶ浜","line":"江ノ島電鉄線","riders":2680}},{"type":"Feature","geometry":{"type":"Point","coordinates":[139.5005,35.30676]},"properties":{"name":"鎌倉高校前","line":"江ノ島電鉄線","riders":4395}},{"type":"Feature","geometry":{"type":"Point","coordinates":[139.54537,35.31374]},"properties":{"name":"和田塚","line":"江ノ島電鉄線","riders":1392}},{"type":"Feature","geometry":{"type":"Point","coordinates":[139.52853,35.30921]},"properties":{"name":"極楽寺","line":"江ノ島電鉄線","riders":2355}},{"type":"Feature","geometry":{"type":"Point","coordinates":[139.48558,35.33246]},"properties":{"name":"石上","line":"江ノ島電鉄線","riders":771}},{"type":"Feature","geometry":{"type":"Point","coordinates":[139.52227,35.30433]},"properties":{"name":"稲村ヶ崎","line":"江ノ島電鉄線","riders":5204}},{"type":"Feature","geometry":{"type":"Point","coordinates":[139.53626,35.31132]},"properties":{"name":"長谷","line":"江ノ島電鉄線","riders":11329}},{"type":"Feature","geometry":{"type":"Point","coordinates":[139.48723,35.33722]},"properties":{"name":"藤沢","line":"江ノ島電鉄線","riders":23722}},{"type":"Feature","geometry":{"type":"Point","coordinates":[139.49336,35.30834]},"properties":{"name":"腰越","line":"江ノ島電鉄線","riders":4451}},{"type":"Feature","geometry":{"type":"Point","coordinates":[139.48762,35.31103]},"properties":{"name":"江ノ島","line":"江ノ島電鉄線","riders":10614}},{"type":"Feature","geometry":{"type":"Point","coordinates":[139.45064,35.49057]},"properties":{"name":"鶴間","line":"江ノ島線","riders":30489}},{"type":"Feature","geometry":{"type":"Point","coordinates":[139.448,35.4956]},"properties":{"name":"南林間","line":"江ノ島線","riders":34386}},{"type":"Feature","geometry":{"type":"Point","coordinates":[139.46647,35.39655]},"properties":{"name":"湘南台","line":"江ノ島線","riders":92776}},{"type":"Feature","geometry":{"type":"Point","coordinates":[139.46533,35.41225]},"properties":{"name":"長後","line":"江ノ島線","riders":35272}},{"type":"Feature","geometry":{"type":"Point","coordinates":[139.48712,35.33859]},"properties":{"name":"藤沢","line":"江ノ島線","riders":166999}},{"type":"Feature","geometry":{"type":"Point","coordinates":[139.47122,35.32075]},"properties":{"name":"鵠沼海岸","line":"江ノ島線","riders":20079}},{"type":"Feature","geometry":{"type":"Point","coordinates":[139.47529,35.33103]},"properties":{"name":"本鵠沼","line":"江ノ島線","riders":13938}},{"type":"Feature","geometry":{"type":"Point","coordinates":[139.46574,35.45053]},"properties":{"name":"桜ヶ丘","line":"江ノ島線","riders":20749}},{"type":"Feature","geometry":{"type":"Point","coordinates":[139.46147,35.46984]},"properties":{"name":"大和","line":"江ノ島線","riders":223925}},{"type":"Feature","geometry":{"type":"Point","coordinates":[139.47072,35.38376]},"properties":{"name":"六会日大前","line":"江ノ島線","riders":30555}},{"type":"Feature","geometry":{"type":"Point","coordinates":[139.47584,35.34821]},"properties":{"name":"藤沢本町","line":"江ノ島線","riders":21970}},{"type":"Feature","geometry":{"type":"Point","coordinates":[139.47326,35.36259]},"properties":{"name":"善行","line":"江ノ島線","riders":27176}},{"type":"Feature","geometry":{"type":"Point","coordinates":[139.48292,35.30931]},"properties":{"name":"片瀬江ノ島","line":"江ノ島線","riders":21440}},{"type":"Feature","geometry":{"type":"Point","coordinates":[139.46471,35.43214]},"properties":{"name":"高座渋谷","line":"江ノ島線","riders":25580}},{"type":"Feature","geometry":{"type":"Point","coordinates":[139.40855,35.49936]},"properties":{"name":"相武台前","line":"小田原線","riders":40372}},{"type":"Feature","geometry":{"type":"Point","coordinates":[139.15543,35.25635]},"properties":{"name":"小田原","line":"小田原線","riders":83654}},{"type":"Feature","geometry":{"type":"Point","coordinates":[139.3911,35.45295]},"properties":{"name":"海老名","line":"小田原線","riders":153713}},{"type":"Feature","geometry":{"type":"Point","coordinates":[139.34416,35.41777]},"properties":{"name":"愛甲石田","line":"小田原線","riders":54602}},{"type":"Feature","geometry":{"type":"Point","coordinates":[139.13945,35.34461]},"properties":{"name":"新松田","line":"小田原線","riders":24723}},{"type":"Feature","geometry":{"type":"Point","coordinates":[139.15451,35.27177]},"properties":{"name":"足柄","line":"小田原線","riders":3984}},{"type":"Feature","geometry":{"type":"Point","coordinates":[139.39988,35.48099]},"properties":{"name":"座間","line":"小田原線","riders":22242}},{"type":"Feature","geometry":{"type":"Point","coordinates":[139.14257,35.31065]},"properties":{"name":"栢山","line":"小田原線","riders":9650}},{"type":"Feature","geometry":{"type":"Point","coordinates":[139.37796,35.44308]},"properties":{"name":"厚木","line":"小田原線","riders":34177}},{"type":"Feature","geometry":{"type":"Point","coordinates":[139.36437,35.43921]},"properties":{"name":"本厚木","line":"小田原線","riders":154698}},{"type":"Feature","geometry":{"type":"Point","coordinates":[139.22608,35.37007]},"properties":{"name":"秦野","line":"小田原線","riders":43709}},{"type":"Feature","geometry":{"type":"Point","coordinates":[139.27713,35.38055]},"properties":{"name":"鶴巻温泉","line":"小田原線","riders":15431}},{"type":"Feature","geometry":{"type":"Point","coordinates":[139.13581,35.3265]},"properties":{"name":"開成","line":"小田原線","riders":12350}},{"type":"Feature","geometry":{"type":"Point","coordinates":[139.31379,35.39609]},"properties":{"name":"伊勢原","line":"小田原線","riders":52773}},{"type":"Feature","geometry":{"type":"Point","coordinates":[139.14516,35.29677]},"properties":{"name":"富水","line":"小田原線","riders":6966}},{"type":"Feature","geometry":{"type":"Point","coordinates":[139.18455,35.37405]},"properties":{"name":"渋沢","line":"小田原線","riders":28547}},{"type":"Feature","geometry":{"type":"Point","coordinates":[139.27094,35.37292]},"properties":{"name":"東海大学前","line":"小田原線","riders":41306}},{"type":"Feature","geometry":{"type":"Point","coordinates":[139.15195,35.28507]},"properties":{"name":"螢田","line":"小田原線","riders":6428}},{"type":"Feature","geometry":{"type":"Point","coordinates":[139.50431,35.3194]},"properties":{"name":"西鎌倉","line":"江の島線","riders":5450}},{"type":"Feature","geometry":{"type":"Point","coordinates":[139.49151,35.31407]},"properties":{"name":"目白山下","line":"江の島線","riders":371}},{"type":"Feature","geometry":{"type":"Point","coordinates":[139.53139,35.35252]},"properties":{"name":"大船","line":"江の島線","riders":28438}},{"type":"Feature","geometry":{"type":"Point","coordinates":[139.51891,35.33298]},"properties":{"name":"湘南深沢","line":"江の島線","riders":5726}},{"type":"Feature","geometry":{"type":"Point","coordinates":[139.48782,35.31188]},"properties":{"name":"湘南江の島","line":"江の島線","riders":4576}},{"type":"Feature","geometry":{"type":"Point","coordinates":[139.52932,35.34535]},"properties":{"name":"富士見町","line":"江の島線","riders":4397}},{"type":"Feature","geometry":{"type":"Point","coordinates":[139.52272,35.33786]},"properties":{"name":"湘南町屋","line":"江の島線","riders":7117}},{"type":"Feature","geometry":{"type":"Point","coordinates":[139.49627,35.31732]},"properties":{"name":"片瀬山","line":"江の島線","riders":3931}},{"type":"Feature","geometry":{"type":"Point","coordinates":[139.52635,35.45255]},"properties":{"name":"南万騎が原","line":"いずみ野線","riders":11731}},{"type":"Feature","geometry":{"type":"Point","coordinates":[139.49512,35.4295]},"properties":{"name":"いずみ野","line":"いずみ野線","riders":14181}},{"type":"Feature","geometry":{"type":"Point","coordinates":[139.50664,35.42993]},"properties":{"name":"弥生台","line":"いずみ野線","riders":16032}},{"type":"Feature","geometry":{"type":"Point","coordinates":[139.52178,35.4393]},"properties":{"name":"緑園都市","line":"いずみ野線","riders":26591}},{"type":"Feature","geometry":{"type":"Point","coordinates":[139.48236,35.40564]},"properties":{"name":"ゆめが丘","line":"いずみ野線","riders":2322}},{"type":"Feature","geometry":{"type":"Point","coordinates":[139.53237,35.46339]},"properties":{"name":"二俣川","line":"いずみ野線","riders":82853}},{"type":"Feature","geometry":{"type":"Point","coordinates":[139.48719,35.4151]},"properties":{"name":"いずみ中央","line":"いずみ野線","riders":16257}},{"type":"Feature","geometry":{"type":"Point","coordinates":[139.60897,35.45359]},"properties":{"name":"西横浜","line":"本線","riders":14832}},{"type":"Feature","geometry":{"type":"Point","coordinates":[139.60253,35.45401]},"properties":{"name":"天王町","line":"本線","riders":27817}},{"type":"Feature","geometry":{"type":"Point","coordinates":[139.58638,35.46371]},"properties":{"name":"和田町","line":"本線","riders":18231}},{"type":"Feature","geometry":{"type":"Point","coordinates":[139.59519,35.45824]},"properties":{"name":"星川","line":"本線","riders":29634}},{"type":"Feature","geometry":{"type":"Point","coordinates":[139.61647,35.45985]},"properties":{"name":"平沼橋","line":"本線","riders":8926}},{"type":"Feature","geometry":{"type":"Point","coordinates":[139.62205,35.46576]},"properties":{"name":"横浜","line":"本線","riders":429114}},{"type":"Feature","geometry":{"type":"Point","coordinates":[139.58045,35.46737]},"properties":{"name":"上星川","line":"本線","riders":0}},{"type":"Feature","geometry":{"type":"Point","coordinates":[139.50257,35.46778]},"properties":{"name":"三ツ境","line":"本線","riders":59806}},{"type":"Feature","geometry":{"type":"Point","coordinates":[139.44115,35.47054]},"properties":{"name":"相模大塚","line":"本線","riders":14284}},{"type":"Feature","geometry":{"type":"Point","coordinates":[139.54998,35.47509]},"properties":{"name":"鶴ヶ峰","line":"本線","riders":57607}},{"type":"Feature","geometry":{"type":"Point","coordinates":[139.56552,35.47806]},"properties":{"name":"西谷","line":"本線","riders":0}},{"type":"Feature","geometry":{"type":"Point","coordinates":[139.48259,35.4704]},"properties":{"name":"瀬谷","line":"本線","riders":44738}},{"type":"Feature","geometry":{"type":"Point","coordinates":[139.41589,35.46684]},"properties":{"name":"かしわ台","line":"本線","riders":19147}},{"type":"Feature","geometry":{"type":"Point","coordinates":[139.461,35.46993]},"properties":{"name":"大和","line":"本線","riders":115878}},{"type":"Feature","geometry":{"type":"Point","coordinates":[139.51347,35.46054]},"properties":{"name":"希望ヶ丘","line":"本線","riders":35173}},{"type":"Feature","geometry":{"type":"Point","coordinates":[139.4287,35.47151]},"properties":{"name":"さがみ野","line":"本線","riders":37893}},{"type":"Feature","geometry":{"type":"Point","coordinates":[139.39223,35.45344]},"properties":{"name":"海老名","line":"本線","riders":123951}},{"type":"Feature","geometry":{"type":"Point","coordinates":[139.24099,35.4298]},"properties":{"name":"大山寺","line":"大山鋼索線","riders":532}},{"type":"Feature","geometry":{"type":"Point","coordinates":[139.24451,35.42789]},"properties":{"name":"大山ケーブル","line":"大山鋼索線","riders":900}},{"type":"Feature","geometry":{"type":"Point","coordinates":[139.23759,35.43179]},"properties":{"name":"阿夫利神社","line":"大山鋼索線","riders":905}},{"type":"Feature","geometry":{"type":"Point","coordinates":[139.21495,35.2814]},"properties":{"name":"国府津","line":"御殿場線","riders":12882}},{"type":"Feature","geometry":{"type":"Point","coordinates":[139.08077,35.36081]},"properties":{"name":"山北","line":"御殿場線","riders":1115}},{"type":"Feature","geometry":{"type":"Point","coordinates":[139.10773,35.35761]},"properties":{"name":"東山北","line":"御殿場線","riders":1681}},{"type":"Feature","geometry":{"type":"Point","coordinates":[139.13914,35.346]},"properties":{"name":"松田","line":"御殿場線","riders":6470}},{"type":"Feature","geometry":{"type":"Point","coordinates":[139.16363,35.32179]},"properties":{"name":"上大井","line":"御殿場線","riders":1049}},{"type":"Feature","geometry":{"type":"Point","coordinates":[139.15043,35.33388]},"properties":{"name":"相模金子","line":"御殿場線","riders":1017}},{"type":"Feature","geometry":{"type":"Point","coordinates":[139.18342,35.30355]},"properties":{"name":"下曽我","line":"御殿場線","riders":2627}},{"type":"Feature","geometry":{"type":"Point","coordinates":[139.03835,35.36647]},"properties":{"name":"谷峨","line":"御殿場線","riders":218}},{"type":"Feature","geometry":{"type":"Point","coordinates":[139.15476,35.25621]},"properties":{"name":"小田原","line":"東海道新幹線","riders":21634}},{"type":"Feature","geometry":{"type":"Point","coordinates":[139.07817,35.10441]},"properties":{"name":"熱海","line":"東海道新幹線","riders":9379}},{"type":"Feature","geometry":{"type":"Point","coordinates":[139.07781,35.10379]},"properties":{"name":"熱海","line":"東海道線","riders":21506}},{"type":"Feature","geometry":{"type":"Point","coordinates":[139.62536,35.47422]},"properties":{"name":"反町","line":"東横線","riders":13634}},{"type":"Feature","geometry":{"type":"Point","coordinates":[139.62953,35.4834]},"properties":{"name":"東白楽","line":"東横線","riders":15031}},{"type":"Feature","geometry":{"type":"Point","coordinates":[139.62792,35.4895]},"properties":{"name":"白楽","line":"東横線","riders":45224}},{"type":"Feature","geometry":{"type":"Point","coordinates":[139.63331,35.49878]},"properties":{"name":"妙蓮寺","line":"東横線","riders":26102}},{"type":"Feature","geometry":{"type":"Point","coordinates":[139.07808,35.10373]},"properties":{"name":"熱海","line":"伊東線","riders":11}},{"type":"Feature","geometry":{"type":"Point","coordinates":[139.66099,35.25711]},"properties":{"name":"衣笠","line":"横須賀線","riders":18310}},{"type":"Feature","geometry":{"type":"Point","coordinates":[139.65481,35.28424]},"properties":{"name":"横須賀","line":"横須賀線","riders":11704}},{"type":"Feature","geometry":{"type":"Point","coordinates":[139.63752,35.29284]},"properties":{"name":"田浦","line":"横須賀線","riders":5122}},{"type":"Feature","geometry":{"type":"Point","coordinates":[139.60182,35.29877]},"properties":{"name":"東逗子","line":"横須賀線","riders":10538}},{"type":"Feature","geometry":{"type":"Point","coordinates":[139.57835,35.29741]},"properties":{"name":"逗子","line":"横須賀線","riders":58848}},{"type":"Feature","geometry":{"type":"Point","coordinates":[139.54456,35.33794]},"properties":{"name":"北鎌倉","line":"横須賀線","riders":18030}},{"type":"Feature","geometry":{"type":"Point","coordinates":[139.55043,35.31927]},"properties":{"name":"鎌倉","line":"横須賀線","riders":89686}},{"type":"Feature","geometry":{"type":"Point","coordinates":[139.5313,35.3538]},"properties":{"name":"大船","line":"横須賀線","riders":0}},{"type":"Feature","geometry":{"type":"Point","coordinates":[139.63316,35.47787]},"properties":{"name":"東神奈川","line":"横浜線","riders":74756}},{"type":"Feature","geometry":{"type":"Point","coordinates":[139.64634,35.49229]},"properties":{"name":"大口","line":"横浜線","riders":37634}},{"type":"Feature","geometry":{"type":"Point","coordinates":[139.64647,35.4268]},"properties":{"name":"山手","line":"根岸線","riders":35184}},{"type":"Feature","geometry":{"type":"Point","coordinates":[139.62225,35.46541]},"properties":{"name":"横浜","line":"根岸線","riders":847302}},{"type":"Feature","geometry":{"type":"Point","coordinates":[139.64292,35.43891]},"properties":{"name":"石川町","line":"根岸線","riders":69142}},{"type":"Feature","geometry":{"type":"Point","coordinates":[139.59694,35.37881]},"properties":{"name":"洋光台","line":"根岸線","riders":42608}},{"type":"Feature","geometry":{"type":"Point","coordinates":[139.63599,35.44422]},"properties":{"name":"関内","line":"根岸線","riders":111450}},{"type":"Feature","geometry":{"type":"Point","coordinates":[139.61944,35.3868]},"properties":{"name":"新杉田","line":"根岸線","riders":76996}},{"type":"Feature","geometry":{"type":"Point","coordinates":[139.6361,35.41586]},"properties":{"name":"根岸","line":"根岸線","riders":43896}},{"type":"Feature","geometry":{"type":"Point","coordinates":[139.61847,35.40058]},"properties":{"name":"磯子","line":"根岸線","riders":40564}},{"type":"Feature","geometry":{"type":"Point","coordinates":[139.63088,35.4511]},"properties":{"name":"桜木町","line":"根岸線","riders":142320}},{"type":"Feature","geometry":{"type":"Point","coordinates":[139.55012,35.36786]},"properties":{"name":"本郷台","line":"根岸線","riders":38556}},{"type":"Feature","geometry":{"type":"Point","coordinates":[139.53145,35.35391]},"properties":{"name":"大船","line":"根岸線","riders":0}},{"type":"Feature","geometry":{"type":"Point","coordinates":[139.57618,35.37515]},"properties":{"name":"港南台","line":"根岸線","riders":66754}},{"type":"Feature","geometry":{"type":"Point","coordinates":[139.38632,35.49278]},"properties":{"name":"相武台下","line":"相模線","riders":2406}},{"type":"Feature","geometry":{"type":"Point","coordinates":[139.39983,35.3566]},"properties":{"name":"香川","line":"相模線","riders":10930}},{"type":"Feature","geometry":{"type":"Point","coordinates":[139.38005,35.4067]},"properties":{"name":"門沢橋","line":"相模線","riders":3710}},{"type":"Feature","geometry":{"type":"Point","coordinates":[139.37718,35.42041]},"properties":{"name":"社家","line":"相模線","riders":4058}},{"type":"Feature","geometry":{"type":"Point","coordinates":[139.37838,35.39505]},"properties":{"name":"倉見","line":"相模線","riders":3818}},{"type":"Feature","geometry":{"type":"Point","coordinates":[139.40699,35.33067]},"properties":{"name":"茅ヶ崎","line":"相模線","riders":11}},{"type":"Feature","geometry":{"type":"Point","coordinates":[139.40747,35.33968]},"properties":{"name":"北茅ヶ崎","line":"相模線","riders":5710}},{"type":"Feature","geometry":{"type":"Point","coordinates":[139.39187,35.47838]},"properties":{"name":"入谷","line":"相模線","riders":11}},{"type":"Feature","geometry":{"type":"Point","coordinates":[139.37966,35.38222]},"properties":{"name":"宮山","line":"相模線","riders":4456}},{"type":"Feature","geometry":{"type":"Point","coordinates":[139.3893,35.45423]},"properties":{"name":"海老名","line":"相模線","riders":28254}},{"type":"Feature","geometry":{"type":"Point","coordinates":[139.38732,35.36771]},"properties":{"name":"寒川","line":"相模線","riders":13876}},{"type":"Feature","geometry":{"type":"Point","coordinates":[139.3786,35.44382]},"properties":{"name":"厚木","line":"相模線","riders":34177}},{"type":"Feature","geometry":{"type":"Point","coordinates":[139.68127,35.49702]},"properties":{"name":"鶴見小野","line":"鶴見線","riders":11}},{"type":"Feature","geometry":{"type":"Point","coordinates":[139.68948,35.4958]},"properties":{"name":"弁天橋","line":"鶴見線","riders":11}},{"type":"Feature","geometry":{"type":"Point","coordinates":[139.69567,35.49761]},"properties":{"name":"浅野","line":"鶴見線","riders":11}},{"type":"Feature","geometry":{"type":"Point","coordinates":[139.69574,35.49728]},"properties":{"name":"浅野","line":"鶴見線","riders":11}},{"type":"Feature","geometry":{"type":"Point","coordinates":[139.65409,35.48683]},"properties":{"name":"新子安","line":"東海道線","riders":47684}},{"type":"Feature","geometry":{"type":"Point","coordinates":[139.62211,35.46567]},"properties":{"name":"横浜","line":"東海道線","riders":11}},{"type":"Feature","geometry":{"type":"Point","coordinates":[139.60037,35.44722]},"properties":{"name":"保土ヶ谷","line":"東海道線","riders":68730}},{"type":"Feature","geometry":{"type":"Point","coordinates":[139.53441,35.4001]},"properties":{"name":"戸塚","line":"東海道線","riders":225212}},{"type":"Feature","geometry":{"type":"Point","coordinates":[139.34946,35.32774]},"properties":{"name":"平塚","line":"東海道線","riders":11}},{"type":"Feature","geometry":{"type":"Point","coordinates":[139.31334,35.3115]},"properties":{"name":"大磯","line":"東海道線","riders":16472}},{"type":"Feature","geometry":{"type":"Point","coordinates":[139.14504,35.2388]},"properties":{"name":"早川","line":"東海道線","riders":2880}},{"type":"Feature","geometry":{"type":"Point","coordinates":[139.4459,35.33684]},"properties":{"name":"辻堂","line":"東海道線","riders":118850}},{"type":"Feature","geometry":{"type":"Point","coordinates":[139.40738,35.33042]},"properties":{"name":"茅ヶ崎","line":"東海道線","riders":113038}},{"type":"Feature","geometry":{"type":"Point","coordinates":[139.5565,35.43001]},"properties":{"name":"東戸塚","line":"東海道線","riders":118658}},{"type":"Feature","geometry":{"type":"Point","coordinates":[139.34948,35.32752]},"properties":{"name":"平塚","line":"東海道線","riders":123688}},{"type":"Feature","geometry":{"type":"Point","coordinates":[139.53116,35.35414]},"properties":{"name":"大船","line":"東海道線","riders":199888}},{"type":"Feature","geometry":{"type":"Point","coordinates":[139.25675,35.29867]},"properties":{"name":"二宮","line":"東海道線","riders":28204}},{"type":"Feature","geometry":{"type":"Point","coordinates":[139.15577,35.25611]},"properties":{"name":"小田原","line":"東海道線","riders":69204}},{"type":"Feature","geometry":{"type":"Point","coordinates":[139.13862,35.20255]},"properties":{"name":"根府川","line":"東海道線","riders":11}},{"type":"Feature","geometry":{"type":"Point","coordinates":[139.17991,35.27569]},"properties":{"name":"鴨宮","line":"東海道線","riders":25964}},{"type":"Feature","geometry":{"type":"Point","coordinates":[139.1022,35.14612]},"properties":{"name":"湯河原","line":"東海道線","riders":12202}},{"type":"Feature","geometry":{"type":"Point","coordinates":[139.48667,35.33884]},"properties":{"name":"藤沢","line":"東海道線","riders":219234}},{"type":"Feature","geometry":{"type":"Point","coordinates":[139.13213,35.15675]},"properties":{"name":"真鶴","line":"東海道線","riders":7562}},{"type":"Feature","geometry":{"type":"Point","coordinates":[139.0433,35.24912]},"properties":{"name":"公園上","line":"鋼索線","riders":223}},{"type":"Feature","geometry":{"type":"Point","coordinates":[139.04794,35.25073]},"properties":{"name":"強羅","line":"鋼索線","riders":11396}},{"type":"Feature","geometry":{"type":"Point","coordinates":[139.04604,35.25008]},"properties":{"name":"公園下","line":"鋼索線","riders":185}},{"type":"Feature","geometry":{"type":"Point","coordinates":[139.04032,35.24808]},"properties":{"name":"中強羅","line":"鋼索線","riders":232}},{"type":"Feature","geometry":{"type":"Point","coordinates":[139.03582,35.24646]},"properties":{"name":"早雲山","line":"鋼索線","riders":4363}},{"type":"Feature","geometry":{"type":"Point","coordinates":[139.03772,35.24714]},"properties":{"name":"上強羅","line":"鋼索線","riders":138}},{"type":"Feature","geometry":{"type":"Point","coordinates":[139.06302,35.24199]},"properties":{"name":"宮ノ下","line":"鉄道線","riders":889}},{"type":"Feature","geometry":{"type":"Point","coordinates":[139.10395,35.23354]},"properties":{"name":"箱根湯本","line":"鉄道線","riders":11507}},{"type":"Feature","geometry":{"type":"Point","coordinates":[139.07386,35.23906]},"properties":{"name":"大平台","line":"鉄道線","riders":387}},{"type":"Feature","geometry":{"type":"Point","coordinates":[139.05076,35.24665]},"properties":{"name":"彫刻の森","line":"鉄道線","riders":849}},{"type":"Feature","geometry":{"type":"Point","coordinates":[139.04826,35.25089]},"properties":{"name":"強羅","line":"鉄道線","riders":6915}},{"type":"Feature","geometry":{"type":"Point","coordinates":[139.09402,35.23446]},"properties":{"name":"塔ノ沢","line":"鉄道線","riders":126}},{"type":"Feature","geometry":{"type":"Point","coordinates":[139.12106,35.24078]},"properties":{"name":"入生田","line":"鉄道線","riders":1217}},{"type":"Feature","geometry":{"type":"Point","coordinates":[139.05318,35.24035]},"properties":{"name":"小涌谷","line":"鉄道線","riders":679}},{"type":"Feature","geometry":{"type":"Point","coordinates":[139.14518,35.24515]},"properties":{"name":"箱根板橋","line":"鉄道線","riders":2541}},{"type":"Feature","geometry":{"type":"Point","coordinates":[139.12916,35.24624]},"properties":{"name":"風祭","line":"鉄道線","riders":1786}},{"type":"Feature","geometry":{"type":"Point","coordinates":[139.58613,35.48123]},"properties":{"name":"羽沢横浜国大","line":"相鉄新横浜線","riders":25422}}]}