{"type":"FeatureCollection","features":[{"type":"Feature","geometry":{"type":"Point","coordinates":[134.19656,35.31239]},"properties":{"name":"因幡社","line":"因美線","riders":76}},{"type":"Feature","geometry":{"type":"Point","coordinates":[134.10712,35.20541]},"properties":{"name":"美作河井","line":"因美線","riders":44}},{"type":"Feature","geometry":{"type":"Point","coordinates":[134.0714,35.12358]},"properties":{"name":"美作滝尾","line":"因美線","riders":126}},{"type":"Feature","geometry":{"type":"Point","coordinates":[134.07808,35.14211]},"properties":{"name":"三浦","line":"因美線","riders":53}},{"type":"Feature","geometry":{"type":"Point","coordinates":[134.07705,35.19264]},"properties":{"name":"知和","line":"因美線","riders":18}},{"type":"Feature","geometry":{"type":"Point","coordinates":[134.0622,35.16947]},"properties":{"name":"美作加茂","line":"因美線","riders":196}},{"type":"Feature","geometry":{"type":"Point","coordinates":[133.33668,35.42334]},"properties":{"name":"米子","line":"境線","riders":7526}},{"type":"Feature","geometry":{"type":"Point","coordinates":[133.33148,35.43987]},"properties":{"name":"後藤","line":"境線","riders":916}},{"type":"Feature","geometry":{"type":"Point","coordinates":[133.3367,35.4346]},"properties":{"name":"富士見町","line":"境線","riders":311}},{"type":"Feature","geometry":{"type":"Point","coordinates":[133.22655,35.53852]},"properties":{"name":"馬場崎町","line":"境線","riders":500}},{"type":"Feature","geometry":{"type":"Point","coordinates":[133.2559,35.48889]},"properties":{"name":"大篠津町","line":"境線","riders":152}},{"type":"Feature","geometry":{"type":"Point","coordinates":[133.28856,35.46677]},"properties":{"name":"弓ヶ浜","line":"境線","riders":664}},{"type":"Feature","geometry":{"type":"Point","coordinates":[133.24518,35.50636]},"properties":{"name":"中浜","line":"境線","riders":183}},{"type":"Feature","geometry":{"type":"Point","coordinates":[133.30536,35.45676]},"properties":{"name":"河崎口","line":"境線","riders":437}},{"type":"Feature","geometry":{"type":"Point","coordinates":[133.22301,35.54469]},"properties":{"name":"境港","line":"境線","riders":891}},{"type":"Feature","geometry":{"type":"Point","coordinates":[133.23084,35.53118]},"properties":{"name":"上道","line":"境線","riders":392}},{"type":"Feature","geometry":{"type":"Point","coordinates":[133.23994,35.51544]},"properties":{"name":"高松町","line":"境線","riders":114}},{"type":"Feature","geometry":{"type":"Point","coordinates":[133.33972,35.43162]},"properties":{"name":"博労町","line":"境線","riders":497}},{"type":"Feature","geometry":{"type":"Point","coordinates":[133.26554,35.48057]},"properties":{"name":"和田浜","line":"境線","riders":239}},{"type":"Feature","geometry":{"type":"Point","coordinates":[133.23656,35.52128]},"properties":{"name":"余子","line":"境線","riders":732}},{"type":"Feature","geometry":{"type":"Point","coordinates":[133.32315,35.44615]},"properties":{"name":"三本松口","line":"境線","riders":394}},{"type":"Feature","geometry":{"type":"Point","coordinates":[134.17386,35.51816]},"properties":{"name":"鳥取大学前","line":"山陰線","riders":4393}},{"type":"Feature","geometry":{"type":"Point","coordinates":[133.93643,35.50896]},"properties":{"name":"泊","line":"山陰線","riders":254}},{"type":"Feature","geometry":{"type":"Point","coordinates":[133.90194,35.46863]},"properties":{"name":"松崎","line":"山陰線","riders":542}},{"type":"Feature","geometry":{"type":"Point","coordinates":[134.08245,35.51408]},"properties":{"name":"宝木","line":"山陰線","riders":488}},{"type":"Feature","geometry":{"type":"Point","coordinates":[134.13571,35.52398]},"properties":{"name":"末恒","line":"山陰線","riders":1069}},{"type":"Feature","geometry":{"type":"Point","coordinates":[134.18626,35.51351]},"properties":{"name":"湖山","line":"山陰線","riders":1270}},{"type":"Feature","geometry":{"type":"Point","coordinates":[133.99568,35.51611]},"properties":{"name":"青谷","line":"山陰線","riders":1344}},{"type":"Feature","geometry":{"type":"Point","coordinates":[133.7545,35.49024]},"properties":{"name":"由良","line":"山陰線","riders":1086}},{"type":"Feature","geometry":{"type":"Point","coordinates":[134.05073,35.50937]},"properties":{"name":"浜村","line":"山陰線","riders":1055}},{"type":"Feature","geometry":{"type":"Point","coordinates":[133.80901,35.48197]},"properties":{"name":"下北条","line":"山陰線","riders":178}},{"type":"Feature","geometry":{"type":"Point","coordinates":[133.84903,35.45499]},"properties":{"name":"倉吉","line":"山陰線","riders":4442}},{"type":"Feature","geometry":{"type":"Point","coordinates":[133.6345,35.51232]},"properties":{"name":"赤碕","line":"山陰線","riders":686}},{"type":"Feature","geometry":{"type":"Point","coordinates":[133.69324,35.49966]},"properties":{"name":"浦安","line":"山陰線","riders":799}},{"type":"Feature","geometry":{"type":"Point","coordinates":[133.49197,35.50729]},"properties":{"name":"名和","line":"山陰線","riders":138}},{"type":"Feature","geometry":{"type":"Point","coordinates":[133.56637,35.51881]},"properties":{"name":"下市","line":"山陰線","riders":229}},{"type":"Feature","geometry":{"type":"Point","coordinates":[133.45668,35.48501]},"properties":{"name":"大山口","line":"山陰線","riders":450}},{"type":"Feature","geometry":{"type":"Point","coordinates":[133.35182,35.43077]},"properties":{"name":"東山公園","line":"山陰線","riders":748}},{"type":"Feature","geometry":{"type":"Point","coordinates":[133.50305,35.51217]},"properties":{"name":"御来屋","line":"山陰線","riders":286}},{"type":"Feature","geometry":{"type":"Point","coordinates":[133.25923,35.42802]},"properties":{"name":"安来","line":"山陰線","riders":1934}},{"type":"Feature","geometry":{"type":"Point","coordinates":[133.20743,35.4318]},"properties":{"name":"荒島","line":"山陰線","riders":843}},{"type":"Feature","geometry":{"type":"Point","coordinates":[133.4298,35.45704]},"properties":{"name":"淀江","line":"山陰線","riders":489}},{"type":"Feature","geometry":{"type":"Point","coordinates":[133.67359,35.5031]},"properties":{"name":"八橋","line":"山陰線","riders":194}},{"type":"Feature","geometry":{"type":"Point","coordinates":[133.59025,35.52079]},"properties":{"name":"中山口","line":"山陰線","riders":169}},{"type":"Feature","geometry":{"type":"Point","coordinates":[133.38417,35.43012]},"properties":{"name":"伯耆大山","line":"山陰線","riders":1548}},{"type":"Feature","geometry":{"type":"Point","coordinates":[133.40948,35.38739]},"properties":{"name":"岸本","line":"伯備線","riders":236}},{"type":"Feature","geometry":{"type":"Point","coordinates":[133.34194,35.19355]},"properties":{"name":"上菅","line":"伯備線","riders":207}},{"type":"Feature","geometry":{"type":"Point","coordinates":[133.44179,35.24146]},"properties":{"name":"根雨","line":"伯備線","riders":548}},{"type":"Feature","geometry":{"type":"Point","coordinates":[133.32191,35.1707]},"properties":{"name":"生山","line":"伯備線","riders":245}},{"type":"Feature","geometry":{"type":"Point","coordinates":[133.43537,35.34822]},"properties":{"name":"伯耆溝口","line":"伯備線","riders":261}},{"type":"Feature","geometry":{"type":"Point","coordinates":[133.48485,35.28303]},"properties":{"name":"江尾","line":"伯備線","riders":186}},{"type":"Feature","geometry":{"type":"Point","coordinates":[133.35161,35.11248]},"properties":{"name":"上石見","line":"伯備線","riders":218}},{"type":"Feature","geometry":{"type":"Point","coordinates":[133.4768,35.26742]},"properties":{"name":"武庫","line":"伯備線","riders":61}},{"type":"Feature","geometry":{"type":"Point","coordinates":[133.38353,35.20649]},"properties":{"name":"黒坂","line":"伯備線","riders":60}},{"type":"Feature","geometry":{"type":"Point","coordinates":[133.24789,35.50199]},"properties":{"name":"米子空港","line":"境線","riders":388}}]}