{"type":"FeatureCollection","features":[{"type":"Feature","geometry":{"type":"Point","coordinates":[141.28598,40.25983]},"properties":{"name":"二戸","line":"いわて銀河鉄道線","riders":878}},{"type":"Feature","geometry":{"type":"Point","coordinates":[141.29091,40.28561]},"properties":{"name":"斗米","line":"いわて銀河鉄道線","riders":158}},{"type":"Feature","geometry":{"type":"Point","coordinates":[141.29739,40.21037]},"properties":{"name":"一戸","line":"いわて銀河鉄道線","riders":675}},{"type":"Feature","geometry":{"type":"Point","coordinates":[141.30383,40.3231]},"properties":{"name":"金田一温泉","line":"いわて銀河鉄道線","riders":211}},{"type":"Feature","geometry":{"type":"Point","coordinates":[141.28958,40.35205]},"properties":{"name":"目時","line":"いわて銀河鉄道線","riders":37}},{"type":"Feature","geometry":{"type":"Point","coordinates":[140.5761,40.61391]},"properties":{"name":"津軽尾上","line":"弘南線","riders":461}},{"type":"Feature","geometry":{"type":"Point","coordinates":[140.59103,40.64834]},"properties":{"name":"黒石","line":"弘南線","riders":1794}},{"type":"Feature","geometry":{"type":"Point","coordinates":[140.5387,40.58514]},"properties":{"name":"館田","line":"弘南線","riders":188}},{"type":"Feature","geometry":{"type":"Point","coordinates":[140.56108,40.58497]},"properties":{"name":"平賀","line":"弘南線","riders":1068}},{"type":"Feature","geometry":{"type":"Point","coordinates":[140.48584,40.59855]},"properties":{"name":"弘前","line":"弘南線","riders":2937}},{"type":"Feature","geometry":{"type":"Point","coordinates":[140.57703,40.62665]},"properties":{"name":"尾上高校前","line":"弘南線","riders":169}},{"type":"Feature","geometry":{"type":"Point","coordinates":[140.57126,40.63687]},"properties":{"name":"田舎館","line":"弘南線","riders":181}},{"type":"Feature","geometry":{"type":"Point","coordinates":[140.52005,40.58739]},"properties":{"name":"新里","line":"弘南線","riders":95}},{"type":"Feature","geometry":{"type":"Point","coordinates":[140.4891,40.59201]},"properties":{"name":"弘前東高前","line":"弘南線","riders":347}},{"type":"Feature","geometry":{"type":"Point","coordinates":[140.57576,40.64886]},"properties":{"name":"境松","line":"弘南線","riders":67}},{"type":"Feature","geometry":{"type":"Point","coordinates":[140.50302,40.5894]},"properties":{"name":"運動公園前","line":"弘南線","riders":247}},{"type":"Feature","geometry":{"type":"Point","coordinates":[140.56445,40.60186]},"properties":{"name":"柏農高校前","line":"弘南線","riders":247}},{"type":"Feature","geometry":{"type":"Point","coordinates":[140.46825,40.59298]},"properties":{"name":"弘高下","line":"大鰐線","riders":109}},{"type":"Feature","geometry":{"type":"Point","coordinates":[140.47066,40.58337]},"properties":{"name":"弘前学院大前","line":"大鰐線","riders":374}},{"type":"Feature","geometry":{"type":"Point","coordinates":[140.47229,40.59916]},"properties":{"name":"中央弘前","line":"大鰐線","riders":961}},{"type":"Feature","geometry":{"type":"Point","coordinates":[140.55275,40.53558]},"properties":{"name":"鯖石","line":"大鰐線","riders":111}},{"type":"Feature","geometry":{"type":"Point","coordinates":[140.54154,40.55087]},"properties":{"name":"石川","line":"大鰐線","riders":181}},{"type":"Feature","geometry":{"type":"Point","coordinates":[140.51653,40.55783]},"properties":{"name":"津軽大沢","line":"大鰐線","riders":138}},{"type":"Feature","geometry":{"type":"Point","coordinates":[140.55047,40.54317]},"properties":{"name":"石川プール前","line":"大鰐線","riders":44}},{"type":"Feature","geometry":{"type":"Point","coordinates":[140.5576,40.52529]},"properties":{"name":"宿川原","line":"大鰐線","riders":27}},{"type":"Feature","geometry":{"type":"Point","coordinates":[140.47271,40.57716]},"properties":{"name":"聖愛中高前","line":"大鰐線","riders":233}},{"type":"Feature","geometry":{"type":"Point","coordinates":[140.4803,40.56729]},"properties":{"name":"千年","line":"大鰐線","riders":222}},{"type":"Feature","geometry":{"type":"Point","coordinates":[140.52752,40.5558]},"properties":{"name":"義塾高校前","line":"大鰐線","riders":339}},{"type":"Feature","geometry":{"type":"Point","coordinates":[140.49714,40.56068]},"properties":{"name":"松木平","line":"大鰐線","riders":40}},{"type":"Feature","geometry":{"type":"Point","coordinates":[140.56693,40.52181]},"properties":{"name":"大鰐","line":"大鰐線","riders":505}},{"type":"Feature","geometry":{"type":"Point","coordinates":[140.48667,40.5643]},"properties":{"name":"小栗山","line":"大鰐線","riders":18}},{"type":"Feature","geometry":{"type":"Point","coordinates":[140.36967,40.2322]},"properties":{"name":"鷹巣","line":"秋田内陸線","riders":1356}},{"type":"Feature","geometry":{"type":"Point","coordinates":[140.34922,40.20507]},"properties":{"name":"縄文小ヶ田","line":"秋田内陸線","riders":17}},{"type":"Feature","geometry":{"type":"Point","coordinates":[140.35799,40.22478]},"properties":{"name":"西鷹巣","line":"秋田内陸線","riders":12}},{"type":"Feature","geometry":{"type":"Point","coordinates":[141.34673,40.44897]},"properties":{"name":"剣吉","line":"青い森鉄道線","riders":486}},{"type":"Feature","geometry":{"type":"Point","coordinates":[141.30471,40.41501]},"properties":{"name":"諏訪ノ平","line":"青い森鉄道線","riders":79}},{"type":"Feature","geometry":{"type":"Point","coordinates":[141.40577,40.47532]},"properties":{"name":"北高岩","line":"青い森鉄道線","riders":45}},{"type":"Feature","geometry":{"type":"Point","coordinates":[141.37499,40.46692]},"properties":{"name":"苫米地","line":"青い森鉄道線","riders":197}},{"type":"Feature","geometry":{"type":"Point","coordinates":[141.27316,40.39574]},"properties":{"name":"三戸","line":"青い森鉄道線","riders":643}},{"type":"Feature","geometry":{"type":"Point","coordinates":[141.43141,40.50919]},"properties":{"name":"八戸","line":"青い森鉄道線","riders":12296}},{"type":"Feature","geometry":{"type":"Point","coordinates":[140.4411,40.95129]},"properties":{"name":"深郷田","line":"津軽鉄道線","riders":28}},{"type":"Feature","geometry":{"type":"Point","coordinates":[140.45995,40.90295]},"properties":{"name":"金木","line":"津軽鉄道線","riders":355}},{"type":"Feature","geometry":{"type":"Point","coordinates":[140.45705,40.81754]},"properties":{"name":"十川","line":"津軽鉄道線","riders":12}},{"type":"Feature","geometry":{"type":"Point","coordinates":[140.46936,40.88097]},"properties":{"name":"嘉瀬","line":"津軽鉄道線","riders":108}},{"type":"Feature","geometry":{"type":"Point","coordinates":[140.47774,40.85806]},"properties":{"name":"毘沙門","line":"津軽鉄道線","riders":12}},{"type":"Feature","geometry":{"type":"Point","coordinates":[140.4487,40.81011]},"properties":{"name":"津軽五所川原","line":"津軽鉄道線","riders":596}},{"type":"Feature","geometry":{"type":"Point","coordinates":[140.45165,40.91224]},"properties":{"name":"芦野公園","line":"津軽鉄道線","riders":86}},{"type":"Feature","geometry":{"type":"Point","coordinates":[140.47941,40.82959]},"properties":{"name":"津軽飯詰","line":"津軽鉄道線","riders":34}},{"type":"Feature","geometry":{"type":"Point","coordinates":[140.43739,40.94018]},"properties":{"name":"大沢内","line":"津軽鉄道線","riders":53}},{"type":"Feature","geometry":{"type":"Point","coordinates":[140.44101,40.96489]},"properties":{"name":"津軽中里","line":"津軽鉄道線","riders":242}},{"type":"Feature","geometry":{"type":"Point","coordinates":[140.44371,40.92633]},"properties":{"name":"川倉","line":"津軽鉄道線","riders":12}},{"type":"Feature","geometry":{"type":"Point","coordinates":[140.47845,40.82103]},"properties":{"name":"五農校前","line":"津軽鉄道線","riders":198}},{"type":"Feature","geometry":{"type":"Point","coordinates":[140.52161,40.64707]},"properties":{"name":"川部","line":"奥羽線","riders":688}},{"type":"Feature","geometry":{"type":"Point","coordinates":[140.73465,40.83032]},"properties":{"name":"青森","line":"奥羽線","riders":15649}},{"type":"Feature","geometry":{"type":"Point","coordinates":[140.55578,40.28808]},"properties":{"name":"大館","line":"奥羽線","riders":2262}},{"type":"Feature","geometry":{"type":"Point","coordinates":[140.56702,40.52155]},"properties":{"name":"大鰐温泉","line":"奥羽線","riders":442}},{"type":"Feature","geometry":{"type":"Point","coordinates":[140.49664,40.27635]},"properties":{"name":"下川沿","line":"奥羽線","riders":11}},{"type":"Feature","geometry":{"type":"Point","coordinates":[140.53076,40.55613]},"properties":{"name":"石川","line":"奥羽線","riders":11}},{"type":"Feature","geometry":{"type":"Point","coordinates":[140.58783,40.75667]},"properties":{"name":"大釈迦","line":"奥羽線","riders":11}},{"type":"Feature","geometry":{"type":"Point","coordinates":[140.48481,40.60022]},"properties":{"name":"弘前","line":"奥羽線","riders":9282}},{"type":"Feature","geometry":{"type":"Point","coordinates":[140.62241,40.47902]},"properties":{"name":"碇ヶ関","line":"奥羽線","riders":282}},{"type":"Feature","geometry":{"type":"Point","coordinates":[140.17266,40.21798]},"properties":{"name":"富根","line":"奥羽線","riders":11}},{"type":"Feature","geometry":{"type":"Point","coordinates":[140.39749,40.25068]},"properties":{"name":"糠沢","line":"奥羽線","riders":11}},{"type":"Feature","geometry":{"type":"Point","coordinates":[140.63514,40.79117]},"properties":{"name":"鶴ヶ坂","line":"奥羽線","riders":11}},{"type":"Feature","geometry":{"type":"Point","coordinates":[140.36967,40.2322]},"properties":{"name":"鷹ノ巣","line":"奥羽線","riders":1356}},{"type":"Feature","geometry":{"type":"Point","coordinates":[140.60764,40.39901]},"properties":{"name":"陣場","line":"奥羽線","riders":11}},{"type":"Feature","geometry":{"type":"Point","coordinates":[140.58095,40.71044]},"properties":{"name":"浪岡","line":"奥羽線","riders":2180}},{"type":"Feature","geometry":{"type":"Point","coordinates":[140.23566,40.21249]},"properties":{"name":"二ツ井","line":"奥羽線","riders":950}},{"type":"Feature","geometry":{"type":"Point","coordinates":[140.59171,40.33812]},"properties":{"name":"白沢","line":"奥羽線","riders":11}},{"type":"Feature","geometry":{"type":"Point","coordinates":[140.60311,40.51608]},"properties":{"name":"長峰","line":"奥羽線","riders":11}},{"type":"Feature","geometry":{"type":"Point","coordinates":[140.11857,40.20392]},"properties":{"name":"鶴形","line":"奥羽線","riders":11}},{"type":"Feature","geometry":{"type":"Point","coordinates":[140.49782,40.62153]},"properties":{"name":"撫牛子","line":"奥羽線","riders":11}},{"type":"Feature","geometry":{"type":"Point","coordinates":[140.31245,40.21477]},"properties":{"name":"前山","line":"奥羽線","riders":11}},{"type":"Feature","geometry":{"type":"Point","coordinates":[140.44746,40.27133]},"properties":{"name":"早口","line":"奥羽線","riders":288}},{"type":"Feature","geometry":{"type":"Point","coordinates":[140.54373,40.67061]},"properties":{"name":"北常盤","line":"奥羽線","riders":994}},{"type":"Feature","geometry":{"type":"Point","coordinates":[140.67149,40.82781]},"properties":{"name":"津軽新城","line":"奥羽線","riders":958}},{"type":"Feature","geometry":{"type":"Point","coordinates":[140.63231,40.44212]},"properties":{"name":"津軽湯の沢","line":"奥羽線","riders":11}},{"type":"Feature","geometry":{"type":"Point","coordinates":[140.69337,40.82755]},"properties":{"name":"新青森","line":"奥羽線","riders":7866}},{"type":"Feature","geometry":{"type":"Point","coordinates":[140.73732,40.22989]},"properties":{"name":"末広","line":"花輪線","riders":11}},{"type":"Feature","geometry":{"type":"Point","coordinates":[140.66818,40.21434]},"properties":{"name":"十二所","line":"花輪線","riders":11}},{"type":"Feature","geometry":{"type":"Point","coordinates":[140.71305,40.22249]},"properties":{"name":"土深井","line":"花輪線","riders":11}},{"type":"Feature","geometry":{"type":"Point","coordinates":[140.78806,40.23077]},"properties":{"name":"柴平","line":"花輪線","riders":11}},{"type":"Feature","geometry":{"type":"Point","coordinates":[140.69327,40.23034]},"properties":{"name":"沢尻","line":"花輪線","riders":11}},{"type":"Feature","geometry":{"type":"Point","coordinates":[140.5725,40.2293]},"properties":{"name":"扇田","line":"花輪線","riders":11}},{"type":"Feature","geometry":{"type":"Point","coordinates":[140.55468,40.26616]},"properties":{"name":"東大館","line":"花輪線","riders":478}},{"type":"Feature","geometry":{"type":"Point","coordinates":[140.77067,40.25597]},"properties":{"name":"十和田南","line":"花輪線","riders":452}},{"type":"Feature","geometry":{"type":"Point","coordinates":[140.63962,40.20978]},"properties":{"name":"大滝温泉","line":"花輪線","riders":11}},{"type":"Feature","geometry":{"type":"Point","coordinates":[140.48055,40.67525]},"properties":{"name":"林崎","line":"五能線","riders":11}},{"type":"Feature","geometry":{"type":"Point","coordinates":[139.94664,40.53518]},"properties":{"name":"松神","line":"五能線","riders":11}},{"type":"Feature","geometry":{"type":"Point","coordinates":[140.03922,40.22568]},"properties":{"name":"向能代","line":"五能線","riders":122}},{"type":"Feature","geometry":{"type":"Point","coordinates":[139.895,40.58617]},"properties":{"name":"陸奥沢辺","line":"五能線","riders":11}},{"type":"Feature","geometry":{"type":"Point","coordinates":[139.98803,40.38649]},"properties":{"name":"あきた白神","line":"五能線","riders":76}},{"type":"Feature","geometry":{"type":"Point","coordinates":[140.03377,40.7595]},"properties":{"name":"大戸瀬","line":"五能線","riders":11}},{"type":"Feature","geometry":{"type":"Point","coordinates":[139.95571,40.67462]},"properties":{"name":"広戸","line":"五能線","riders":11}},{"type":"Feature","geometry":{"type":"Point","coordinates":[140.2207,40.77536]},"properties":{"name":"鰺ヶ沢","line":"五能線","riders":648}},{"type":"Feature","geometry":{"type":"Point","coordinates":[139.95036,40.51349]},"properties":{"name":"白神岳登山口","line":"五能線","riders":11}},{"type":"Feature","geometry":{"type":"Point","coordinates":[140.03779,40.29606]},"properties":{"name":"沢目","line":"五能線","riders":11}},{"type":"Feature","geometry":{"type":"Point","coordinates":[140.50009,40.65362]},"properties":{"name":"藤崎","line":"五能線","riders":11}},{"type":"Feature","geometry":{"type":"Point","coordinates":[140.16245,40.76183]},"properties":{"name":"陸奥赤石","line":"五能線","riders":11}},{"type":"Feature","geometry":{"type":"Point","coordinates":[140.29791,40.78732]},"properties":{"name":"越水","line":"五能線","riders":11}},{"type":"Feature","geometry":{"type":"Point","coordinates":[140.0179,40.3713]},"properties":{"name":"八森","line":"五能線","riders":11}},{"type":"Feature","geometry":{"type":"Point","coordinates":[140.0325,40.33212]},"properties":{"name":"東八森","line":"五能線","riders":11}},{"type":"Feature","geometry":{"type":"Point","coordinates":[140.03376,40.25411]},"properties":{"name":"北能代","line":"五能線","riders":11}},{"type":"Feature","geometry":{"type":"Point","coordinates":[140.03312,40.20647]},"properties":{"name":"能代","line":"五能線","riders":1400}},{"type":"Feature","geometry":{"type":"Point","coordinates":[140.26751,40.78218]},"properties":{"name":"鳴沢","line":"五能線","riders":11}},{"type":"Feature","geometry":{"type":"Point","coordinates":[139.9946,40.73218]},"properties":{"name":"風合瀬","line":"五能線","riders":11}},{"type":"Feature","geometry":{"type":"Point","coordinates":[139.87127,40.59305]},"properties":{"name":"ウェスパ椿山","line":"五能線","riders":11}},{"type":"Feature","geometry":{"type":"Point","coordinates":[139.96629,40.4062]},"properties":{"name":"岩館","line":"五能線","riders":92}},{"type":"Feature","geometry":{"type":"Point","coordinates":[139.97001,40.68653]},"properties":{"name":"追良瀬","line":"五能線","riders":11}},{"type":"Feature","geometry":{"type":"Point","coordinates":[140.46187,40.69724]},"properties":{"name":"板柳","line":"五能線","riders":824}},{"type":"Feature","geometry":{"type":"Point","coordinates":[139.95008,40.49242]},"properties":{"name":"大間越","line":"五能線","riders":11}},{"type":"Feature","geometry":{"type":"Point","coordinates":[140.33917,40.7817]},"properties":{"name":"陸奥森田","line":"五能線","riders":194}},{"type":"Feature","geometry":{"type":"Point","coordinates":[140.09508,40.74612]},"properties":{"name":"北金ヶ沢","line":"五能線","riders":11}},{"type":"Feature","geometry":{"type":"Point","coordinates":[139.89091,40.62997]},"properties":{"name":"横磯","line":"五能線","riders":11}},{"type":"Feature","geometry":{"type":"Point","coordinates":[140.1246,40.74103]},"properties":{"name":"陸奥柳田","line":"五能線","riders":11}},{"type":"Feature","geometry":{"type":"Point","coordinates":[139.98327,40.70738]},"properties":{"name":"驫木","line":"五能線","riders":11}},{"type":"Feature","geometry":{"type":"Point","coordinates":[139.8649,40.60854]},"properties":{"name":"艫作","line":"五能線","riders":11}},{"type":"Feature","geometry":{"type":"Point","coordinates":[140.05469,40.76773]},"properties":{"name":"千畳敷","line":"五能線","riders":11}},{"type":"Feature","geometry":{"type":"Point","coordinates":[140.38795,40.8024]},"properties":{"name":"木造","line":"五能線","riders":572}},{"type":"Feature","geometry":{"type":"Point","coordinates":[140.44798,40.80881]},"properties":{"name":"五所川原","line":"五能線","riders":1927}},{"type":"Feature","geometry":{"type":"Point","coordinates":[140.03688,40.27142]},"properties":{"name":"鳥形","line":"五能線","riders":11}},{"type":"Feature","geometry":{"type":"Point","coordinates":[140.43753,40.73606]},"properties":{"name":"鶴泊","line":"五能線","riders":104}},{"type":"Feature","geometry":{"type":"Point","coordinates":[140.00227,40.37998]},"properties":{"name":"滝ノ間","line":"五能線","riders":11}},{"type":"Feature","geometry":{"type":"Point","coordinates":[139.92419,40.58333]},"properties":{"name":"陸奥岩崎","line":"五能線","riders":11}},{"type":"Feature","geometry":{"type":"Point","coordinates":[140.36474,40.78758]},"properties":{"name":"中田","line":"五能線","riders":11}},{"type":"Feature","geometry":{"type":"Point","coordinates":[140.43538,40.75723]},"properties":{"name":"陸奥鶴田","line":"五能線","riders":424}},{"type":"Feature","geometry":{"type":"Point","coordinates":[139.92942,40.65029]},"properties":{"name":"深浦","line":"五能線","riders":394}},{"type":"Feature","geometry":{"type":"Point","coordinates":[139.94196,40.55159]},"properties":{"name":"十二湖","line":"五能線","riders":11}},{"type":"Feature","geometry":{"type":"Point","coordinates":[141.24837,41.22898]},"properties":{"name":"金谷沢","line":"大湊線","riders":11}},{"type":"Feature","geometry":{"type":"Point","coordinates":[141.18988,41.28284]},"properties":{"name":"下北","line":"大湊線","riders":396}},{"type":"Feature","geometry":{"type":"Point","coordinates":[141.27929,41.1913]},"properties":{"name":"近川","line":"大湊線","riders":11}},{"type":"Feature","geometry":{"type":"Point","coordinates":[141.20923,41.26794]},"properties":{"name":"赤川","line":"大湊線","riders":11}},{"type":"Feature","geometry":{"type":"Point","coordinates":[141.1618,41.28036]},"properties":{"name":"大湊","line":"大湊線","riders":480}},{"type":"Feature","geometry":{"type":"Point","coordinates":[141.1893,40.914]},"properties":{"name":"有戸","line":"大湊線","riders":11}},{"type":"Feature","geometry":{"type":"Point","coordinates":[141.24984,41.08664]},"properties":{"name":"陸奥横浜","line":"大湊線","riders":164}},{"type":"Feature","geometry":{"type":"Point","coordinates":[141.13421,40.87114]},"properties":{"name":"北野辺地","line":"大湊線","riders":11}},{"type":"Feature","geometry":{"type":"Point","coordinates":[141.24651,41.02195]},"properties":{"name":"吹越","line":"大湊線","riders":11}},{"type":"Feature","geometry":{"type":"Point","coordinates":[141.2765,41.132]},"properties":{"name":"有畑","line":"大湊線","riders":11}},{"type":"Feature","geometry":{"type":"Point","coordinates":[141.11964,40.85513]},"properties":{"name":"野辺地","line":"大湊線","riders":2074}},{"type":"Feature","geometry":{"type":"Point","coordinates":[140.47183,41.18055]},"properties":{"name":"津軽浜名","line":"津軽線","riders":11}},{"type":"Feature","geometry":{"type":"Point","coordinates":[140.44446,41.18541]},"properties":{"name":"三厩","line":"津軽線","riders":68}},{"type":"Feature","geometry":{"type":"Point","coordinates":[140.59686,41.05165]},"properties":{"name":"中小国","line":"津軽線","riders":11}},{"type":"Feature","geometry":{"type":"Point","coordinates":[140.64254,41.03831]},"properties":{"name":"蟹田","line":"津軽線","riders":458}},{"type":"Feature","geometry":{"type":"Point","coordinates":[140.49057,41.17967]},"properties":{"name":"今別","line":"津軽線","riders":11}},{"type":"Feature","geometry":{"type":"Point","coordinates":[140.67225,40.90311]},"properties":{"name":"奥内","line":"津軽線","riders":11}},{"type":"Feature","geometry":{"type":"Point","coordinates":[140.64826,41.00774]},"properties":{"name":"瀬辺地","line":"津軽線","riders":11}},{"type":"Feature","geometry":{"type":"Point","coordinates":[140.66582,40.91748]},"properties":{"name":"左堰","line":"津軽線","riders":11}},{"type":"Feature","geometry":{"type":"Point","coordinates":[140.6561,40.9493]},"properties":{"name":"中沢","line":"津軽線","riders":11}},{"type":"Feature","geometry":{"type":"Point","coordinates":[140.51425,41.1459]},"properties":{"name":"津軽二股","line":"津軽線","riders":11}},{"type":"Feature","geometry":{"type":"Point","coordinates":[140.55953,41.06588]},"properties":{"name":"大平","line":"津軽線","riders":11}},{"type":"Feature","geometry":{"type":"Point","coordinates":[140.6524,40.98777]},"properties":{"name":"郷沢","line":"津軽線","riders":11}},{"type":"Feature","geometry":{"type":"Point","coordinates":[140.65451,40.96916]},"properties":{"name":"蓬田","line":"津軽線","riders":11}},{"type":"Feature","geometry":{"type":"Point","coordinates":[140.67442,40.88703]},"properties":{"name":"津軽宮田","line":"津軽線","riders":11}},{"type":"Feature","geometry":{"type":"Point","coordinates":[140.69061,40.85664]},"properties":{"name":"油川","line":"津軽線","riders":916}},{"type":"Feature","geometry":{"type":"Point","coordinates":[140.50764,41.16316]},"properties":{"name":"大川平","line":"津軽線","riders":11}},{"type":"Feature","geometry":{"type":"Point","coordinates":[140.66253,40.93136]},"properties":{"name":"後潟","line":"津軽線","riders":104}},{"type":"Feature","geometry":{"type":"Point","coordinates":[141.28559,40.25977]},"properties":{"name":"二戸","line":"東北新幹線","riders":1638}},{"type":"Feature","geometry":{"type":"Point","coordinates":[141.43094,40.50932]},"properties":{"name":"八戸","line":"東北新幹線","riders":11886}},{"type":"Feature","geometry":{"type":"Point","coordinates":[140.91311,40.91815]},"properties":{"name":"西平内","line":"青い森鉄道線","riders":148}},{"type":"Feature","geometry":{"type":"Point","coordinates":[141.35359,40.66992]},"properties":{"name":"三沢","line":"青い森鉄道線","riders":2739}},{"type":"Feature","geometry":{"type":"Point","coordinates":[140.95405,40.92965]},"properties":{"name":"小湊","line":"青い森鉄道線","riders":915}},{"type":"Feature","geometry":{"type":"Point","coordinates":[141.0712,40.90046]},"properties":{"name":"狩場沢","line":"青い森鉄道線","riders":45}},{"type":"Feature","geometry":{"type":"Point","coordinates":[141.37025,40.63023]},"properties":{"name":"向山","line":"青い森鉄道線","riders":68}},{"type":"Feature","geometry":{"type":"Point","coordinates":[141.02436,40.92196]},"properties":{"name":"清水川","line":"青い森鉄道線","riders":173}},{"type":"Feature","geometry":{"type":"Point","coordinates":[141.40774,40.59197]},"properties":{"name":"下田","line":"青い森鉄道線","riders":611}},{"type":"Feature","geometry":{"type":"Point","coordinates":[141.29995,40.70979]},"properties":{"name":"小川原","line":"青い森鉄道線","riders":41}},{"type":"Feature","geometry":{"type":"Point","coordinates":[140.79766,40.81792]},"properties":{"name":"小柳","line":"青い森鉄道線","riders":1085}},{"type":"Feature","geometry":{"type":"Point","coordinates":[140.80711,40.83378]},"properties":{"name":"矢田前","line":"青い森鉄道線","riders":1360}},{"type":"Feature","geometry":{"type":"Point","coordinates":[141.15281,40.8047]},"properties":{"name":"千曳","line":"青い森鉄道線","riders":16}},{"type":"Feature","geometry":{"type":"Point","coordinates":[141.26449,40.73322]},"properties":{"name":"上北町","line":"青い森鉄道線","riders":594}},{"type":"Feature","geometry":{"type":"Point","coordinates":[140.8169,40.84608]},"properties":{"name":"野内","line":"青い森鉄道線","riders":1086}},{"type":"Feature","geometry":{"type":"Point","coordinates":[141.43906,40.56305]},"properties":{"name":"陸奥市川","line":"青い森鉄道線","riders":380}},{"type":"Feature","geometry":{"type":"Point","coordinates":[140.86248,40.89141]},"properties":{"name":"浅虫温泉","line":"青い森鉄道線","riders":726}},{"type":"Feature","geometry":{"type":"Point","coordinates":[141.21324,40.78004]},"properties":{"name":"乙供","line":"青い森鉄道線","riders":497}},{"type":"Feature","geometry":{"type":"Point","coordinates":[140.78337,40.81052]},"properties":{"name":"東青森","line":"青い森鉄道線","riders":1338}},{"type":"Feature","geometry":{"type":"Point","coordinates":[141.555,40.53025]},"properties":{"name":"鮫","line":"八戸線","riders":1020}},{"type":"Feature","geometry":{"type":"Point","coordinates":[141.46586,40.52134]},"properties":{"name":"長苗代","line":"八戸線","riders":11}},{"type":"Feature","geometry":{"type":"Point","coordinates":[141.62295,40.49513]},"properties":{"name":"大久喜","line":"八戸線","riders":11}},{"type":"Feature","geometry":{"type":"Point","coordinates":[141.66492,40.4569]},"properties":{"name":"階上","line":"八戸線","riders":11}},{"type":"Feature","geometry":{"type":"Point","coordinates":[141.54172,40.52202]},"properties":{"name":"白銀","line":"八戸線","riders":11}},{"type":"Feature","geometry":{"type":"Point","coordinates":[141.5101,40.51878]},"properties":{"name":"小中野","line":"八戸線","riders":11}},{"type":"Feature","geometry":{"type":"Point","coordinates":[141.69923,40.42558]},"properties":{"name":"平内","line":"八戸線","riders":11}},{"type":"Feature","geometry":{"type":"Point","coordinates":[141.60734,40.50692]},"properties":{"name":"種差海岸","line":"八戸線","riders":11}},{"type":"Feature","geometry":{"type":"Point","coordinates":[141.59229,40.51664]},"properties":{"name":"陸奥白浜","line":"八戸線","riders":11}},{"type":"Feature","geometry":{"type":"Point","coordinates":[141.68176,40.44446]},"properties":{"name":"角の浜","line":"八戸線","riders":11}},{"type":"Feature","geometry":{"type":"Point","coordinates":[141.65083,40.46719]},"properties":{"name":"大蛇","line":"八戸線","riders":11}},{"type":"Feature","geometry":{"type":"Point","coordinates":[141.5274,40.52317]},"properties":{"name":"陸奥湊","line":"八戸線","riders":352}},{"type":"Feature","geometry":{"type":"Point","coordinates":[141.63732,40.47601]},"properties":{"name":"金浜","line":"八戸線","riders":11}},{"type":"Feature","geometry":{"type":"Point","coordinates":[141.48899,40.51637]},"properties":{"name":"本八戸","line":"八戸線","riders":2714}},{"type":"Feature","geometry":{"type":"Point","coordinates":[141.15391,40.71993]},"properties":{"name":"七戸十和田","line":"東北新幹線","riders":1564}},{"type":"Feature","geometry":{"type":"Point","coordinates":[140.69348,40.8278]},"properties":{"name":"新青森","line":"東北新幹線","riders":11}},{"type":"Feature","geometry":{"type":"Point","coordinates":[140.34764,41.2565]},"properties":{"name":"体験坑道","line":"青函トンネル竜飛斜坑線","riders":174}},{"type":"Feature","geometry":{"type":"Point","coordinates":[140.34708,41.25432]},"properties":{"name":"青函トンネル記念館","line":"青函トンネル竜飛斜坑線","riders":174}},{"type":"Feature","geometry":{"type":"Point","coordinates":[140.57378,40.63266]},"properties":{"name":"田んぼアート","line":"弘南線","riders":34}},{"type":"Feature","geometry":{"type":"Point","coordinates":[140.76946,40.80572]},"properties":{"name":"筒井","line":"青い森鉄道線","riders":1602}},{"type":"Feature","geometry":{"type":"Point","coordinates":[140.51561,41.14494]},"properties":{"name":"奥津軽いまべつ","line":"北海道新幹線","riders":244}}]}