{"type":"FeatureCollection","features":[{"type":"Feature","geometry":{"type":"Point","coordinates":[130.93241,33.90435]},"properties":{"name":"門司","line":"山陽線","riders":12691}},{"type":"Feature","geometry":{"type":"Point","coordinates":[130.92161,33.94915]},"properties":{"name":"下関","line":"山陽線","riders":21190}},{"type":"Feature","geometry":{"type":"Point","coordinates":[130.81286,33.87918]},"properties":{"name":"枝光","line":"鹿児島線","riders":5908}},{"type":"Feature","geometry":{"type":"Point","coordinates":[130.96051,33.94405]},"properties":{"name":"門司港","line":"鹿児島線","riders":10475}},{"type":"Feature","geometry":{"type":"Point","coordinates":[130.84016,33.90046]},"properties":{"name":"九州工大前","line":"鹿児島線","riders":8996}},{"type":"Feature","geometry":{"type":"Point","coordinates":[130.88325,33.88692]},"properties":{"name":"小倉","line":"鹿児島線","riders":11}},{"type":"Feature","geometry":{"type":"Point","coordinates":[130.93277,33.90426]},"properties":{"name":"門司","line":"鹿児島線","riders":11}},{"type":"Feature","geometry":{"type":"Point","coordinates":[130.93887,33.91652]},"properties":{"name":"小森江","line":"鹿児島線","riders":2921}},{"type":"Feature","geometry":{"type":"Point","coordinates":[130.80619,33.87126]},"properties":{"name":"スペースワールド","line":"鹿児島線","riders":4824}},{"type":"Feature","geometry":{"type":"Point","coordinates":[130.87406,33.88872]},"properties":{"name":"西小倉","line":"鹿児島線","riders":11073}},{"type":"Feature","geometry":{"type":"Point","coordinates":[130.82092,33.89741]},"properties":{"name":"戸畑","line":"鹿児島線","riders":19330}},{"type":"Feature","geometry":{"type":"Point","coordinates":[130.80519,33.90032]},"properties":{"name":"若松","line":"筑豊線","riders":2397}},{"type":"Feature","geometry":{"type":"Point","coordinates":[130.88637,33.85804]},"properties":{"name":"城野","line":"日田彦山線","riders":8994}},{"type":"Feature","geometry":{"type":"Point","coordinates":[130.8748,33.80388]},"properties":{"name":"志井","line":"日田彦山線","riders":138}},{"type":"Feature","geometry":{"type":"Point","coordinates":[130.87973,33.81827]},"properties":{"name":"志井公園","line":"日田彦山線","riders":1728}},{"type":"Feature","geometry":{"type":"Point","coordinates":[130.88914,33.83219]},"properties":{"name":"石田","line":"日田彦山線","riders":820}},{"type":"Feature","geometry":{"type":"Point","coordinates":[130.85314,33.70735]},"properties":{"name":"採銅所","line":"日田彦山線","riders":191}},{"type":"Feature","geometry":{"type":"Point","coordinates":[130.86194,33.75505]},"properties":{"name":"呼野","line":"日田彦山線","riders":167}},{"type":"Feature","geometry":{"type":"Point","coordinates":[130.86601,33.78467]},"properties":{"name":"石原町","line":"日田彦山線","riders":373}},{"type":"Feature","geometry":{"type":"Point","coordinates":[130.93492,33.83214]},"properties":{"name":"下曽根","line":"日豊線","riders":13502}},{"type":"Feature","geometry":{"type":"Point","coordinates":[130.88273,33.88661]},"properties":{"name":"小倉","line":"日豊線","riders":11}},{"type":"Feature","geometry":{"type":"Point","coordinates":[130.87419,33.88849]},"properties":{"name":"西小倉","line":"日豊線","riders":11}},{"type":"Feature","geometry":{"type":"Point","coordinates":[130.8648,33.8701]},"properties":{"name":"南小倉","line":"日豊線","riders":10038}},{"type":"Feature","geometry":{"type":"Point","coordinates":[130.95479,33.80768]},"properties":{"name":"朽網","line":"日豊線","riders":4610}},{"type":"Feature","geometry":{"type":"Point","coordinates":[130.90444,33.84401]},"properties":{"name":"安部山公園","line":"日豊線","riders":4725}},{"type":"Feature","geometry":{"type":"Point","coordinates":[130.97872,33.78513]},"properties":{"name":"苅田","line":"日豊線","riders":4831}},{"type":"Feature","geometry":{"type":"Point","coordinates":[130.98121,33.71631]},"properties":{"name":"南行橋","line":"日豊線","riders":2694}},{"type":"Feature","geometry":{"type":"Point","coordinates":[130.97182,33.75287]},"properties":{"name":"小波瀬西工大前","line":"日豊線","riders":3786}},{"type":"Feature","geometry":{"type":"Point","coordinates":[130.97026,33.72875]},"properties":{"name":"行橋","line":"日豊線","riders":12483}},{"type":"Feature","geometry":{"type":"Point","coordinates":[131.22805,33.96664]},"properties":{"name":"居能","line":"宇部線","riders":400}},{"type":"Feature","geometry":{"type":"Point","coordinates":[131.26209,33.93495]},"properties":{"name":"宇部岬","line":"宇部線","riders":434}},{"type":"Feature","geometry":{"type":"Point","coordinates":[131.25239,33.95264]},"properties":{"name":"琴芝","line":"宇部線","riders":1418}},{"type":"Feature","geometry":{"type":"Point","coordinates":[131.37142,34.04695]},"properties":{"name":"深溝","line":"宇部線","riders":199}},{"type":"Feature","geometry":{"type":"Point","coordinates":[131.24233,33.9586]},"properties":{"name":"宇部新川","line":"宇部線","riders":2058}},{"type":"Feature","geometry":{"type":"Point","coordinates":[131.30543,33.95256]},"properties":{"name":"床波","line":"宇部線","riders":762}},{"type":"Feature","geometry":{"type":"Point","coordinates":[131.39621,34.09398]},"properties":{"name":"新山口","line":"宇部線","riders":16336}},{"type":"Feature","geometry":{"type":"Point","coordinates":[131.33677,33.96989]},"properties":{"name":"丸尾","line":"宇部線","riders":530}},{"type":"Feature","geometry":{"type":"Point","coordinates":[131.36364,34.03481]},"properties":{"name":"周防佐山","line":"宇部線","riders":141}},{"type":"Feature","geometry":{"type":"Point","coordinates":[131.34781,33.98974]},"properties":{"name":"岐波","line":"宇部線","riders":425}},{"type":"Feature","geometry":{"type":"Point","coordinates":[131.22497,33.97904]},"properties":{"name":"岩鼻","line":"宇部線","riders":658}},{"type":"Feature","geometry":{"type":"Point","coordinates":[131.36008,34.02335]},"properties":{"name":"岩倉","line":"宇部線","riders":88}},{"type":"Feature","geometry":{"type":"Point","coordinates":[131.25707,33.94842]},"properties":{"name":"東新川","line":"宇部線","riders":918}},{"type":"Feature","geometry":{"type":"Point","coordinates":[131.35677,34.0107]},"properties":{"name":"阿知須","line":"宇部線","riders":672}},{"type":"Feature","geometry":{"type":"Point","coordinates":[131.27421,33.93652]},"properties":{"name":"草江","line":"宇部線","riders":190}},{"type":"Feature","geometry":{"type":"Point","coordinates":[131.2926,33.94088]},"properties":{"name":"常盤","line":"宇部線","riders":275}},{"type":"Feature","geometry":{"type":"Point","coordinates":[131.37905,34.07384]},"properties":{"name":"上嘉川","line":"宇部線","riders":127}},{"type":"Feature","geometry":{"type":"Point","coordinates":[131.2222,34.00326]},"properties":{"name":"宇部","line":"宇部線","riders":3840}},{"type":"Feature","geometry":{"type":"Point","coordinates":[131.18559,34.37538]},"properties":{"name":"長門市","line":"山陰線","riders":1263}},{"type":"Feature","geometry":{"type":"Point","coordinates":[130.92737,33.98148]},"properties":{"name":"幡生","line":"山陰線","riders":5997}},{"type":"Feature","geometry":{"type":"Point","coordinates":[131.50346,34.5328]},"properties":{"name":"木与","line":"山陰線","riders":11}},{"type":"Feature","geometry":{"type":"Point","coordinates":[131.54879,34.57187]},"properties":{"name":"宇田郷","line":"山陰線","riders":38}},{"type":"Feature","geometry":{"type":"Point","coordinates":[130.94662,34.28395]},"properties":{"name":"滝部","line":"山陰線","riders":500}},{"type":"Feature","geometry":{"type":"Point","coordinates":[131.41059,34.41732]},"properties":{"name":"東萩","line":"山陰線","riders":517}},{"type":"Feature","geometry":{"type":"Point","coordinates":[130.92176,34.14588]},"properties":{"name":"川棚温泉","line":"山陰線","riders":892}},{"type":"Feature","geometry":{"type":"Point","coordinates":[131.05729,34.37421]},"properties":{"name":"人丸","line":"山陰線","riders":303}},{"type":"Feature","geometry":{"type":"Point","coordinates":[130.91575,34.04727]},"properties":{"name":"福江","line":"山陰線","riders":125}},{"type":"Feature","geometry":{"type":"Point","coordinates":[131.47297,34.50311]},"properties":{"name":"奈古","line":"山陰線","riders":260}},{"type":"Feature","geometry":{"type":"Point","coordinates":[130.92757,34.22733]},"properties":{"name":"宇賀本郷","line":"山陰線","riders":26}},{"type":"Feature","geometry":{"type":"Point","coordinates":[130.97008,34.35739]},"properties":{"name":"長門粟野","line":"山陰線","riders":55}},{"type":"Feature","geometry":{"type":"Point","coordinates":[130.93271,34.20907]},"properties":{"name":"湯玉","line":"山陰線","riders":143}},{"type":"Feature","geometry":{"type":"Point","coordinates":[130.90364,34.07006]},"properties":{"name":"吉見","line":"山陰線","riders":1165}},{"type":"Feature","geometry":{"type":"Point","coordinates":[131.42268,34.43918]},"properties":{"name":"越ヶ浜","line":"山陰線","riders":44}},{"type":"Feature","geometry":{"type":"Point","coordinates":[130.912,34.12804]},"properties":{"name":"黒井村","line":"山陰線","riders":679}},{"type":"Feature","geometry":{"type":"Point","coordinates":[131.23641,34.36617]},"properties":{"name":"長門三隅","line":"山陰線","riders":147}},{"type":"Feature","geometry":{"type":"Point","coordinates":[130.91893,34.30583]},"properties":{"name":"特牛","line":"山陰線","riders":59}},{"type":"Feature","geometry":{"type":"Point","coordinates":[131.19902,34.38778]},"properties":{"name":"仙崎","line":"山陰線","riders":152}},{"type":"Feature","geometry":{"type":"Point","coordinates":[131.37986,34.40525]},"properties":{"name":"玉江","line":"山陰線","riders":396}},{"type":"Feature","geometry":{"type":"Point","coordinates":[130.91673,34.02489]},"properties":{"name":"安岡","line":"山陰線","riders":1717}},{"type":"Feature","geometry":{"type":"Point","coordinates":[131.13972,34.38522]},"properties":{"name":"黄波戸","line":"山陰線","riders":58}},{"type":"Feature","geometry":{"type":"Point","coordinates":[131.44983,34.47091]},"properties":{"name":"長門大井","line":"山陰線","riders":57}},{"type":"Feature","geometry":{"type":"Point","coordinates":[130.90017,34.10144]},"properties":{"name":"梅ヶ峠","line":"山陰線","riders":282}},{"type":"Feature","geometry":{"type":"Point","coordinates":[130.92828,34.16998]},"properties":{"name":"小串","line":"山陰線","riders":907}},{"type":"Feature","geometry":{"type":"Point","coordinates":[131.40157,34.3937]},"properties":{"name":"萩","line":"山陰線","riders":177}},{"type":"Feature","geometry":{"type":"Point","coordinates":[131.10165,34.3885]},"properties":{"name":"長門古市","line":"山陰線","riders":367}},{"type":"Feature","geometry":{"type":"Point","coordinates":[131.33018,34.39722]},"properties":{"name":"三見","line":"山陰線","riders":90}},{"type":"Feature","geometry":{"type":"Point","coordinates":[131.29483,34.3791]},"properties":{"name":"飯井","line":"山陰線","riders":21}},{"type":"Feature","geometry":{"type":"Point","coordinates":[130.9261,34.33616]},"properties":{"name":"阿川","line":"山陰線","riders":182}},{"type":"Feature","geometry":{"type":"Point","coordinates":[131.01133,34.37034]},"properties":{"name":"伊上","line":"山陰線","riders":44}},{"type":"Feature","geometry":{"type":"Point","coordinates":[130.92678,34.00368]},"properties":{"name":"綾羅木","line":"山陰線","riders":1803}},{"type":"Feature","geometry":{"type":"Point","coordinates":[130.9148,34.25164]},"properties":{"name":"長門二見","line":"山陰線","riders":94}},{"type":"Feature","geometry":{"type":"Point","coordinates":[131.57874,34.30452]},"properties":{"name":"長門峡","line":"山口線","riders":34}},{"type":"Feature","geometry":{"type":"Point","coordinates":[131.40179,34.10114]},"properties":{"name":"周防下郷","line":"山口線","riders":531}},{"type":"Feature","geometry":{"type":"Point","coordinates":[131.48487,34.18258]},"properties":{"name":"上山口","line":"山口線","riders":272}},{"type":"Feature","geometry":{"type":"Point","coordinates":[131.41562,34.12899]},"properties":{"name":"仁保津","line":"山口線","riders":784}},{"type":"Feature","geometry":{"type":"Point","coordinates":[131.44626,34.15067]},"properties":{"name":"矢原","line":"山口線","riders":1331}},{"type":"Feature","geometry":{"type":"Point","coordinates":[131.46061,34.15987]},"properties":{"name":"湯田温泉","line":"山口線","riders":2600}},{"type":"Feature","geometry":{"type":"Point","coordinates":[131.48106,34.1728]},"properties":{"name":"山口","line":"山口線","riders":3426}},{"type":"Feature","geometry":{"type":"Point","coordinates":[131.43265,34.14697]},"properties":{"name":"大歳","line":"山口線","riders":418}},{"type":"Feature","geometry":{"type":"Point","coordinates":[131.4019,34.11602]},"properties":{"name":"上郷","line":"山口線","riders":1407}},{"type":"Feature","geometry":{"type":"Point","coordinates":[131.49875,34.19145]},"properties":{"name":"宮野","line":"山口線","riders":754}},{"type":"Feature","geometry":{"type":"Point","coordinates":[131.53625,34.21628]},"properties":{"name":"仁保","line":"山口線","riders":90}},{"type":"Feature","geometry":{"type":"Point","coordinates":[131.56223,34.27913]},"properties":{"name":"篠目","line":"山口線","riders":28}},{"type":"Feature","geometry":{"type":"Point","coordinates":[131.16041,34.05301]},"properties":{"name":"厚狭","line":"山陽新幹線","riders":11}},{"type":"Feature","geometry":{"type":"Point","coordinates":[130.88345,33.88712]},"properties":{"name":"小倉","line":"山陽新幹線","riders":24432}},{"type":"Feature","geometry":{"type":"Point","coordinates":[131.39723,34.0933]},"properties":{"name":"新山口","line":"山陽新幹線","riders":11}},{"type":"Feature","geometry":{"type":"Point","coordinates":[130.94917,34.0074]},"properties":{"name":"新下関","line":"山陽新幹線","riders":11}},{"type":"Feature","geometry":{"type":"Point","coordinates":[131.96085,33.99044]},"properties":{"name":"島田","line":"山陽線","riders":1083}},{"type":"Feature","geometry":{"type":"Point","coordinates":[132.18106,33.96301]},"properties":{"name":"大畠","line":"山陽線","riders":1981}},{"type":"Feature","geometry":{"type":"Point","coordinates":[131.99491,33.98193]},"properties":{"name":"岩田","line":"山陽線","riders":957}},{"type":"Feature","geometry":{"type":"Point","coordinates":[132.10616,33.96572]},"properties":{"name":"柳井","line":"山陽線","riders":4343}},{"type":"Feature","geometry":{"type":"Point","coordinates":[131.91461,33.97394]},"properties":{"name":"光","line":"山陽線","riders":4892}},{"type":"Feature","geometry":{"type":"Point","coordinates":[132.04391,33.95876]},"properties":{"name":"田布施","line":"山陽線","riders":2434}},{"type":"Feature","geometry":{"type":"Point","coordinates":[132.13446,33.95828]},"properties":{"name":"柳井港","line":"山陽線","riders":544}},{"type":"Feature","geometry":{"type":"Point","coordinates":[131.16025,34.05371]},"properties":{"name":"厚狭","line":"山陽線","riders":3317}},{"type":"Feature","geometry":{"type":"Point","coordinates":[131.03287,34.06782]},"properties":{"name":"小月","line":"山陽線","riders":4078}},{"type":"Feature","geometry":{"type":"Point","coordinates":[131.08647,34.04932]},"properties":{"name":"埴生","line":"山陽線","riders":906}},{"type":"Feature","geometry":{"type":"Point","coordinates":[131.48845,34.05324]},"properties":{"name":"大道","line":"山陽線","riders":2950}},{"type":"Feature","geometry":{"type":"Point","coordinates":[131.26775,34.03868]},"properties":{"name":"厚東","line":"山陽線","riders":249}},{"type":"Feature","geometry":{"type":"Point","coordinates":[131.34382,34.03181]},"properties":{"name":"本由良","line":"山陽線","riders":548}},{"type":"Feature","geometry":{"type":"Point","coordinates":[131.18567,34.00786]},"properties":{"name":"小野田","line":"山陽線","riders":2764}},{"type":"Feature","geometry":{"type":"Point","coordinates":[130.99933,34.01924]},"properties":{"name":"長府","line":"山陽線","riders":4184}},{"type":"Feature","geometry":{"type":"Point","coordinates":[131.44784,34.08004]},"properties":{"name":"四辻","line":"山陽線","riders":726}},{"type":"Feature","geometry":{"type":"Point","coordinates":[131.56901,34.05321]},"properties":{"name":"防府","line":"山陽線","riders":8740}},{"type":"Feature","geometry":{"type":"Point","coordinates":[130.94814,34.00561]},"properties":{"name":"新下関","line":"山陽線","riders":10079}},{"type":"Feature","geometry":{"type":"Point","coordinates":[131.37054,34.0665]},"properties":{"name":"嘉川","line":"山陽線","riders":456}},{"type":"Feature","geometry":{"type":"Point","coordinates":[131.20277,33.97042]},"properties":{"name":"妻崎","line":"小野田線","riders":69}},{"type":"Feature","geometry":{"type":"Point","coordinates":[131.17959,33.95053]},"properties":{"name":"浜河内","line":"小野田線","riders":20}},{"type":"Feature","geometry":{"type":"Point","coordinates":[131.17498,33.97738]},"properties":{"name":"南小野田","line":"小野田線","riders":240}},{"type":"Feature","geometry":{"type":"Point","coordinates":[131.18685,33.96067]},"properties":{"name":"雀田","line":"小野田線","riders":361}},{"type":"Feature","geometry":{"type":"Point","coordinates":[131.18697,33.96061]},"properties":{"name":"雀田","line":"小野田線","riders":11}},{"type":"Feature","geometry":{"type":"Point","coordinates":[131.19671,33.96653]},"properties":{"name":"長門長沢","line":"小野田線","riders":44}},{"type":"Feature","geometry":{"type":"Point","coordinates":[131.17329,33.94299]},"properties":{"name":"長門本山","line":"小野田線","riders":52}},{"type":"Feature","geometry":{"type":"Point","coordinates":[131.18333,33.99668]},"properties":{"name":"目出","line":"小野田線","riders":28}},{"type":"Feature","geometry":{"type":"Point","coordinates":[131.17881,33.98688]},"properties":{"name":"南中川","line":"小野田線","riders":183}},{"type":"Feature","geometry":{"type":"Point","coordinates":[131.17493,33.97159]},"properties":{"name":"小野田港","line":"小野田線","riders":200}},{"type":"Feature","geometry":{"type":"Point","coordinates":[131.16114,34.13768]},"properties":{"name":"四郎ヶ原","line":"美祢線","riders":28}},{"type":"Feature","geometry":{"type":"Point","coordinates":[131.1852,34.16148]},"properties":{"name":"南大嶺","line":"美祢線","riders":26}},{"type":"Feature","geometry":{"type":"Point","coordinates":[131.1967,34.31169]},"properties":{"name":"渋木","line":"美祢線","riders":29}},{"type":"Feature","geometry":{"type":"Point","coordinates":[131.17258,34.33447]},"properties":{"name":"長門湯本","line":"美祢線","riders":58}},{"type":"Feature","geometry":{"type":"Point","coordinates":[131.20866,34.1943]},"properties":{"name":"重安","line":"美祢線","riders":25}},{"type":"Feature","geometry":{"type":"Point","coordinates":[131.17255,34.08521]},"properties":{"name":"湯ノ峠","line":"美祢線","riders":11}},{"type":"Feature","geometry":{"type":"Point","coordinates":[131.17663,34.3533]},"properties":{"name":"板持","line":"美祢線","riders":30}},{"type":"Feature","geometry":{"type":"Point","coordinates":[131.20773,34.23633]},"properties":{"name":"於福","line":"美祢線","riders":160}},{"type":"Feature","geometry":{"type":"Point","coordinates":[131.15463,34.1142]},"properties":{"name":"厚保","line":"美祢線","riders":101}},{"type":"Feature","geometry":{"type":"Point","coordinates":[131.20403,34.16908]},"properties":{"name":"美祢","line":"美祢線","riders":902}},{"type":"Feature","geometry":{"type":"Point","coordinates":[130.96558,33.70305]},"properties":{"name":"今川河童","line":"田川線","riders":100}},{"type":"Feature","geometry":{"type":"Point","coordinates":[130.96909,33.70912]},"properties":{"name":"美夜古泉","line":"田川線","riders":179}},{"type":"Feature","geometry":{"type":"Point","coordinates":[130.87963,33.85845]},"properties":{"name":"城野","line":"小倉線","riders":2294}},{"type":"Feature","geometry":{"type":"Point","coordinates":[130.88009,33.86548]},"properties":{"name":"片野","line":"小倉線","riders":4490}},{"type":"Feature","geometry":{"type":"Point","coordinates":[130.88019,33.88062]},"properties":{"name":"旦過","line":"小倉線","riders":3719}},{"type":"Feature","geometry":{"type":"Point","coordinates":[130.87807,33.84909]},"properties":{"name":"北方","line":"小倉線","riders":4253}},{"type":"Feature","geometry":{"type":"Point","coordinates":[130.86759,33.83038]},"properties":{"name":"徳力公団前","line":"小倉線","riders":4502}},{"type":"Feature","geometry":{"type":"Point","coordinates":[130.86377,33.8247]},"properties":{"name":"徳力嵐山口","line":"小倉線","riders":3143}},{"type":"Feature","geometry":{"type":"Point","coordinates":[130.88059,33.87318]},"properties":{"name":"香春口三萩野","line":"小倉線","riders":5420}},{"type":"Feature","geometry":{"type":"Point","coordinates":[130.873,33.83659]},"properties":{"name":"守恒","line":"小倉線","riders":4865}},{"type":"Feature","geometry":{"type":"Point","coordinates":[130.87761,33.8197]},"properties":{"name":"企救丘","line":"小倉線","riders":4139}},{"type":"Feature","geometry":{"type":"Point","coordinates":[130.87661,33.84287]},"properties":{"name":"競馬場前","line":"小倉線","riders":4758}},{"type":"Feature","geometry":{"type":"Point","coordinates":[130.88207,33.88654]},"properties":{"name":"小倉","line":"小倉線","riders":18230}},{"type":"Feature","geometry":{"type":"Point","coordinates":[130.8714,33.82252]},"properties":{"name":"志井","line":"小倉線","riders":2356}},{"type":"Feature","geometry":{"type":"Point","coordinates":[130.88119,33.88294]},"properties":{"name":"平和通","line":"小倉線","riders":6831}},{"type":"Feature","geometry":{"type":"Point","coordinates":[130.96265,33.94446]},"properties":{"name":"九州鉄道記念館","line":"門司港レトロ観光線","riders":600}},{"type":"Feature","geometry":{"type":"Point","coordinates":[130.96527,33.94772]},"properties":{"name":"出光美術館","line":"門司港レトロ観光線","riders":100}},{"type":"Feature","geometry":{"type":"Point","coordinates":[130.96428,33.95588]},"properties":{"name":"ノーフォーク広場","line":"門司港レトロ観光線","riders":30}},{"type":"Feature","geometry":{"type":"Point","coordinates":[130.96813,33.96059]},"properties":{"name":"関門海峡めかり","line":"門司港レトロ観光線","riders":500}},{"type":"Feature","geometry":{"type":"Point","coordinates":[130.92366,34.01389]},"properties":{"name":"梶栗郷台地","line":"山陰線","riders":850}},{"type":"Feature","geometry":{"type":"Point","coordinates":[130.97379,33.7176]},"properties":{"name":"令和コスタ行橋","line":"田川線","riders":103}}]}