{"type":"FeatureCollection","features":[{"type":"Feature","geometry":{"type":"Point","coordinates":[137.23411,36.76127]},"properties":{"name":"岩瀬浜","line":"富山港線","riders":691}},{"type":"Feature","geometry":{"type":"Point","coordinates":[137.23395,36.75749]},"properties":{"name":"競輪場前","line":"富山港線","riders":367}},{"type":"Feature","geometry":{"type":"Point","coordinates":[137.2305,36.75194]},"properties":{"name":"東岩瀬","line":"富山港線","riders":363}},{"type":"Feature","geometry":{"type":"Point","coordinates":[137.21641,36.70363]},"properties":{"name":"インテック本社前","line":"富山港線","riders":393}},{"type":"Feature","geometry":{"type":"Point","coordinates":[137.22836,36.74804]},"properties":{"name":"萩浦小学校前","line":"富山港線","riders":384}},{"type":"Feature","geometry":{"type":"Point","coordinates":[137.22759,36.74222]},"properties":{"name":"蓮町（馬場記念公園前）","line":"富山港線","riders":1074}},{"type":"Feature","geometry":{"type":"Point","coordinates":[137.22663,36.7351]},"properties":{"name":"犬島新町","line":"富山港線","riders":341}},{"type":"Feature","geometry":{"type":"Point","coordinates":[137.2261,36.73113]},"properties":{"name":"城川原","line":"富山港線","riders":675}},{"type":"Feature","geometry":{"type":"Point","coordinates":[137.2249,36.72219]},"properties":{"name":"越中中島","line":"富山港線","riders":444}},{"type":"Feature","geometry":{"type":"Point","coordinates":[137.22482,36.71914]},"properties":{"name":"粟島（大阪屋ショップ前）","line":"富山港線","riders":633}},{"type":"Feature","geometry":{"type":"Point","coordinates":[137.22459,36.71192]},"properties":{"name":"下奥井","line":"富山港線","riders":434}},{"type":"Feature","geometry":{"type":"Point","coordinates":[137.22361,36.70357]},"properties":{"name":"奥田中学校前","line":"富山港線","riders":439}},{"type":"Feature","geometry":{"type":"Point","coordinates":[137.213,36.70175]},"properties":{"name":"富山駅","line":"富山港線","riders":5362}},{"type":"Feature","geometry":{"type":"Point","coordinates":[137.17515,36.58962]},"properties":{"name":"東八尾","line":"高山線","riders":97}},{"type":"Feature","geometry":{"type":"Point","coordinates":[137.21157,36.56141]},"properties":{"name":"笹津","line":"高山線","riders":284}},{"type":"Feature","geometry":{"type":"Point","coordinates":[137.16043,36.66405]},"properties":{"name":"速星","line":"高山線","riders":2406}},{"type":"Feature","geometry":{"type":"Point","coordinates":[137.17708,36.69938]},"properties":{"name":"西富山","line":"高山線","riders":778}},{"type":"Feature","geometry":{"type":"Point","coordinates":[137.22872,36.5294]},"properties":{"name":"楡原","line":"高山線","riders":109}},{"type":"Feature","geometry":{"type":"Point","coordinates":[137.23784,36.47181]},"properties":{"name":"猪谷","line":"高山線","riders":594}},{"type":"Feature","geometry":{"type":"Point","coordinates":[137.21321,36.70169]},"properties":{"name":"富山","line":"高山線","riders":31934}},{"type":"Feature","geometry":{"type":"Point","coordinates":[137.13829,36.5917]},"properties":{"name":"越中八尾","line":"高山線","riders":1982}},{"type":"Feature","geometry":{"type":"Point","coordinates":[137.13245,36.63459]},"properties":{"name":"千里","line":"高山線","riders":792}},{"type":"Feature","geometry":{"type":"Point","coordinates":[136.86938,36.96099]},"properties":{"name":"能登部","line":"七尾線","riders":1278}},{"type":"Feature","geometry":{"type":"Point","coordinates":[136.77349,36.84808]},"properties":{"name":"敷浪","line":"七尾線","riders":435}},{"type":"Feature","geometry":{"type":"Point","coordinates":[136.78339,36.89706]},"properties":{"name":"羽咋","line":"七尾線","riders":2719}},{"type":"Feature","geometry":{"type":"Point","coordinates":[136.80107,36.92814]},"properties":{"name":"千路","line":"七尾線","riders":225}},{"type":"Feature","geometry":{"type":"Point","coordinates":[136.70297,36.72264]},"properties":{"name":"宇野気","line":"七尾線","riders":2676}},{"type":"Feature","geometry":{"type":"Point","coordinates":[136.74036,36.67158]},"properties":{"name":"中津幡","line":"七尾線","riders":1400}},{"type":"Feature","geometry":{"type":"Point","coordinates":[136.89468,36.97667]},"properties":{"name":"良川","line":"七尾線","riders":676}},{"type":"Feature","geometry":{"type":"Point","coordinates":[136.76229,36.81966]},"properties":{"name":"宝達","line":"七尾線","riders":899}},{"type":"Feature","geometry":{"type":"Point","coordinates":[136.71981,36.6933]},"properties":{"name":"能瀬","line":"七尾線","riders":652}},{"type":"Feature","geometry":{"type":"Point","coordinates":[136.74747,36.79562]},"properties":{"name":"免田","line":"七尾線","riders":294}},{"type":"Feature","geometry":{"type":"Point","coordinates":[136.83589,36.94337]},"properties":{"name":"金丸","line":"七尾線","riders":373}},{"type":"Feature","geometry":{"type":"Point","coordinates":[136.73231,36.6766]},"properties":{"name":"本津幡","line":"七尾線","riders":974}},{"type":"Feature","geometry":{"type":"Point","coordinates":[136.71676,36.74757]},"properties":{"name":"横山","line":"七尾線","riders":912}},{"type":"Feature","geometry":{"type":"Point","coordinates":[136.77481,36.87079]},"properties":{"name":"南羽咋","line":"七尾線","riders":165}},{"type":"Feature","geometry":{"type":"Point","coordinates":[136.91739,36.98481]},"properties":{"name":"能登二宮","line":"七尾線","riders":364}},{"type":"Feature","geometry":{"type":"Point","coordinates":[136.72897,36.76849]},"properties":{"name":"高松","line":"七尾線","riders":1170}},{"type":"Feature","geometry":{"type":"Point","coordinates":[136.73073,36.65788]},"properties":{"name":"津幡","line":"七尾線","riders":14372}},{"type":"Feature","geometry":{"type":"Point","coordinates":[136.99941,36.70454]},"properties":{"name":"林","line":"城端線","riders":54}},{"type":"Feature","geometry":{"type":"Point","coordinates":[136.94351,36.61864]},"properties":{"name":"東野尻","line":"城端線","riders":288}},{"type":"Feature","geometry":{"type":"Point","coordinates":[137.00612,36.71432]},"properties":{"name":"二塚","line":"城端線","riders":121}},{"type":"Feature","geometry":{"type":"Point","coordinates":[136.9841,36.68435]},"properties":{"name":"戸出","line":"城端線","riders":1816}},{"type":"Feature","geometry":{"type":"Point","coordinates":[136.95357,36.63641]},"properties":{"name":"砺波","line":"城端線","riders":2402}},{"type":"Feature","geometry":{"type":"Point","coordinates":[136.9703,36.65506]},"properties":{"name":"油田","line":"城端線","riders":676}},{"type":"Feature","geometry":{"type":"Point","coordinates":[136.89854,36.57621]},"properties":{"name":"東石黒","line":"城端線","riders":66}},{"type":"Feature","geometry":{"type":"Point","coordinates":[136.92325,36.58842]},"properties":{"name":"福野","line":"城端線","riders":1568}},{"type":"Feature","geometry":{"type":"Point","coordinates":[136.88755,36.53855]},"properties":{"name":"越中山田","line":"城端線","riders":132}},{"type":"Feature","geometry":{"type":"Point","coordinates":[136.90163,36.52224]},"properties":{"name":"城端","line":"城端線","riders":586}},{"type":"Feature","geometry":{"type":"Point","coordinates":[136.9361,36.60659]},"properties":{"name":"高儀","line":"城端線","riders":136}},{"type":"Feature","geometry":{"type":"Point","coordinates":[136.87865,36.55835]},"properties":{"name":"福光","line":"城端線","riders":1144}},{"type":"Feature","geometry":{"type":"Point","coordinates":[137.01494,36.74078]},"properties":{"name":"高岡","line":"城端線","riders":19858}},{"type":"Feature","geometry":{"type":"Point","coordinates":[137.05075,36.80536]},"properties":{"name":"越中国分","line":"氷見線","riders":586}},{"type":"Feature","geometry":{"type":"Point","coordinates":[136.99076,36.84953]},"properties":{"name":"氷見","line":"氷見線","riders":1706}},{"type":"Feature","geometry":{"type":"Point","coordinates":[137.0279,36.74985]},"properties":{"name":"越中中川","line":"氷見線","riders":2692}},{"type":"Feature","geometry":{"type":"Point","coordinates":[137.05849,36.79226]},"properties":{"name":"伏木","line":"氷見線","riders":581}},{"type":"Feature","geometry":{"type":"Point","coordinates":[137.03982,36.76821]},"properties":{"name":"能町","line":"氷見線","riders":402}},{"type":"Feature","geometry":{"type":"Point","coordinates":[137.01281,36.82822]},"properties":{"name":"島尾","line":"氷見線","riders":430}},{"type":"Feature","geometry":{"type":"Point","coordinates":[137.03739,36.81657]},"properties":{"name":"雨晴","line":"氷見線","riders":160}},{"type":"Feature","geometry":{"type":"Point","coordinates":[137.4991,36.94128]},"properties":{"name":"入善","line":"あいの風とやま鉄道線","riders":2204}},{"type":"Feature","geometry":{"type":"Point","coordinates":[137.45929,36.93014]},"properties":{"name":"西入善","line":"あいの風とやま鉄道線","riders":474}},{"type":"Feature","geometry":{"type":"Point","coordinates":[137.16487,36.71888]},"properties":{"name":"呉羽","line":"あいの風とやま鉄道線","riders":3473}},{"type":"Feature","geometry":{"type":"Point","coordinates":[137.40571,36.82647]},"properties":{"name":"魚津","line":"あいの風とやま鉄道線","riders":5134}},{"type":"Feature","geometry":{"type":"Point","coordinates":[137.34889,36.76946]},"properties":{"name":"滑川","line":"あいの風とやま鉄道線","riders":2892}},{"type":"Feature","geometry":{"type":"Point","coordinates":[137.42658,36.90578]},"properties":{"name":"生地","line":"あいの風とやま鉄道線","riders":972}},{"type":"Feature","geometry":{"type":"Point","coordinates":[137.4344,36.86954]},"properties":{"name":"黒部","line":"あいの風とやま鉄道線","riders":3001}},{"type":"Feature","geometry":{"type":"Point","coordinates":[137.24892,36.74107]},"properties":{"name":"東富山","line":"あいの風とやま鉄道線","riders":2922}},{"type":"Feature","geometry":{"type":"Point","coordinates":[137.37786,36.78798]},"properties":{"name":"東滑川","line":"あいの風とやま鉄道線","riders":376}},{"type":"Feature","geometry":{"type":"Point","coordinates":[137.29843,36.74345]},"properties":{"name":"水橋","line":"あいの風とやま鉄道線","riders":2143}},{"type":"Feature","geometry":{"type":"Point","coordinates":[136.96528,36.72429]},"properties":{"name":"西高岡","line":"あいの風とやま鉄道線","riders":1267}},{"type":"Feature","geometry":{"type":"Point","coordinates":[137.01474,36.7412]},"properties":{"name":"高岡","line":"あいの風とやま鉄道線","riders":15036}},{"type":"Feature","geometry":{"type":"Point","coordinates":[136.79161,36.67248]},"properties":{"name":"倶利伽羅","line":"IRいしかわ鉄道線","riders":6702}},{"type":"Feature","geometry":{"type":"Point","coordinates":[136.86565,36.67244]},"properties":{"name":"石動","line":"あいの風とやま鉄道線","riders":3317}},{"type":"Feature","geometry":{"type":"Point","coordinates":[137.09258,36.72074]},"properties":{"name":"小杉","line":"あいの風とやま鉄道線","riders":6517}},{"type":"Feature","geometry":{"type":"Point","coordinates":[137.05576,36.73392]},"properties":{"name":"越中大門","line":"あいの風とやま鉄道線","riders":2062}},{"type":"Feature","geometry":{"type":"Point","coordinates":[136.93207,36.70828]},"properties":{"name":"福岡","line":"あいの風とやま鉄道線","riders":2211}},{"type":"Feature","geometry":{"type":"Point","coordinates":[137.16899,36.2499]},"properties":{"name":"杉崎","line":"高山線","riders":50}},{"type":"Feature","geometry":{"type":"Point","coordinates":[137.182,36.38394]},"properties":{"name":"打保","line":"高山線","riders":14}},{"type":"Feature","geometry":{"type":"Point","coordinates":[137.18998,36.23662]},"properties":{"name":"飛騨古川","line":"高山線","riders":714}},{"type":"Feature","geometry":{"type":"Point","coordinates":[137.19247,36.41586]},"properties":{"name":"杉原","line":"高山線","riders":11}},{"type":"Feature","geometry":{"type":"Point","coordinates":[137.21577,36.21112]},"properties":{"name":"飛騨国府","line":"高山線","riders":36}},{"type":"Feature","geometry":{"type":"Point","coordinates":[137.14563,36.26112]},"properties":{"name":"飛騨細江","line":"高山線","riders":36}},{"type":"Feature","geometry":{"type":"Point","coordinates":[137.14091,36.32753]},"properties":{"name":"坂上","line":"高山線","riders":18}},{"type":"Feature","geometry":{"type":"Point","coordinates":[137.11336,36.29991]},"properties":{"name":"角川","line":"高山線","riders":36}},{"type":"Feature","geometry":{"type":"Point","coordinates":[137.20894,36.6925]},"properties":{"name":"丸の内","line":"安野屋線","riders":693}},{"type":"Feature","geometry":{"type":"Point","coordinates":[137.20434,36.69249]},"properties":{"name":"安野屋","line":"安野屋線","riders":235}},{"type":"Feature","geometry":{"type":"Point","coordinates":[137.20655,36.69232]},"properties":{"name":"諏訪川原","line":"安野屋線","riders":115}},{"type":"Feature","geometry":{"type":"Point","coordinates":[137.19081,36.69897]},"properties":{"name":"富山大学前","line":"呉羽線","riders":2743}},{"type":"Feature","geometry":{"type":"Point","coordinates":[137.19443,36.69571]},"properties":{"name":"トヨタモビリティ富山Gスクエア五福前（五福末広町）","line":"呉羽線","riders":1160}},{"type":"Feature","geometry":{"type":"Point","coordinates":[137.21143,36.69886]},"properties":{"name":"新富町","line":"支線","riders":565}},{"type":"Feature","geometry":{"type":"Point","coordinates":[137.20974,36.69558]},"properties":{"name":"県庁前","line":"支線","riders":448}},{"type":"Feature","geometry":{"type":"Point","coordinates":[137.21407,36.69991]},"properties":{"name":"電鉄富山駅・エスタ前","line":"支線","riders":6040}},{"type":"Feature","geometry":{"type":"Point","coordinates":[137.22044,36.67031]},"properties":{"name":"南富山","line":"上滝線","riders":1346}},{"type":"Feature","geometry":{"type":"Point","coordinates":[137.23022,36.65338]},"properties":{"name":"上堀","line":"上滝線","riders":286}},{"type":"Feature","geometry":{"type":"Point","coordinates":[137.27538,36.61953]},"properties":{"name":"大庄","line":"上滝線","riders":213}},{"type":"Feature","geometry":{"type":"Point","coordinates":[137.2249,36.66052]},"properties":{"name":"朝菜町","line":"上滝線","riders":107}},{"type":"Feature","geometry":{"type":"Point","coordinates":[137.26349,36.62646]},"properties":{"name":"月岡","line":"上滝線","riders":125}},{"type":"Feature","geometry":{"type":"Point","coordinates":[137.24287,36.63619]},"properties":{"name":"開発","line":"上滝線","riders":316}},{"type":"Feature","geometry":{"type":"Point","coordinates":[137.30854,36.60822]},"properties":{"name":"大川寺","line":"上滝線","riders":130}},{"type":"Feature","geometry":{"type":"Point","coordinates":[137.29569,36.60955]},"properties":{"name":"上滝","line":"上滝線","riders":363}},{"type":"Feature","geometry":{"type":"Point","coordinates":[137.31948,36.60829]},"properties":{"name":"岩峅寺","line":"上滝線","riders":12}},{"type":"Feature","geometry":{"type":"Point","coordinates":[137.23309,36.64952]},"properties":{"name":"小杉","line":"上滝線","riders":417}},{"type":"Feature","geometry":{"type":"Point","coordinates":[137.23553,36.64513]},"properties":{"name":"布市","line":"上滝線","riders":264}},{"type":"Feature","geometry":{"type":"Point","coordinates":[137.23246,36.68787]},"properties":{"name":"不二越","line":"不二越線","riders":407}},{"type":"Feature","geometry":{"type":"Point","coordinates":[137.23149,36.69653]},"properties":{"name":"稲荷町","line":"不二越線","riders":12}},{"type":"Feature","geometry":{"type":"Point","coordinates":[137.22913,36.67782]},"properties":{"name":"大泉","line":"不二越線","riders":240}},{"type":"Feature","geometry":{"type":"Point","coordinates":[137.35097,36.73534]},"properties":{"name":"中加積","line":"本線","riders":262}},{"type":"Feature","geometry":{"type":"Point","coordinates":[137.21938,36.67546]},"properties":{"name":"堀川小泉","line":"本線","riders":925}},{"type":"Feature","geometry":{"type":"Point","coordinates":[137.21612,36.6986]},"properties":{"name":"地鉄ビル前","line":"本線","riders":499}},{"type":"Feature","geometry":{"type":"Point","coordinates":[137.40035,36.81531]},"properties":{"name":"電鉄魚津","line":"本線","riders":885}},{"type":"Feature","geometry":{"type":"Point","coordinates":[137.21781,36.67852]},"properties":{"name":"小泉町","line":"本線","riders":352}},{"type":"Feature","geometry":{"type":"Point","coordinates":[137.32729,36.69989]},"properties":{"name":"越中泉","line":"本線","riders":72}},{"type":"Feature","geometry":{"type":"Point","coordinates":[137.31909,36.69884]},"properties":{"name":"寺田","line":"本線","riders":382}},{"type":"Feature","geometry":{"type":"Point","coordinates":[137.45091,36.87468]},"properties":{"name":"東三日市","line":"本線","riders":421}},{"type":"Feature","geometry":{"type":"Point","coordinates":[137.36194,36.77766]},"properties":{"name":"浜加積","line":"本線","riders":89}},{"type":"Feature","geometry":{"type":"Point","coordinates":[137.35109,36.71731]},"properties":{"name":"新宮川","line":"本線","riders":106}},{"type":"Feature","geometry":{"type":"Point","coordinates":[137.2317,36.69696]},"properties":{"name":"稲荷町","line":"本線","riders":1217}},{"type":"Feature","geometry":{"type":"Point","coordinates":[137.34882,36.76909]},"properties":{"name":"滑川","line":"本線","riders":351}},{"type":"Feature","geometry":{"type":"Point","coordinates":[137.21606,36.69747]},"properties":{"name":"電気ビル前","line":"本線","riders":666}},{"type":"Feature","geometry":{"type":"Point","coordinates":[137.21594,36.69458]},"properties":{"name":"桜橋","line":"本線","riders":700}},{"type":"Feature","geometry":{"type":"Point","coordinates":[137.30655,36.70553]},"properties":{"name":"越中舟橋","line":"本線","riders":616}},{"type":"Feature","geometry":{"type":"Point","coordinates":[137.39462,36.80377]},"properties":{"name":"西魚津","line":"本線","riders":167}},{"type":"Feature","geometry":{"type":"Point","coordinates":[137.21474,36.70052]},"properties":{"name":"電鉄富山","line":"本線","riders":8370}},{"type":"Feature","geometry":{"type":"Point","coordinates":[137.22041,36.67062]},"properties":{"name":"南富山駅前","line":"本線","riders":2396}},{"type":"Feature","geometry":{"type":"Point","coordinates":[137.49322,36.87114]},"properties":{"name":"若栗","line":"本線","riders":67}},{"type":"Feature","geometry":{"type":"Point","coordinates":[137.42319,36.86586]},"properties":{"name":"電鉄石田","line":"本線","riders":282}},{"type":"Feature","geometry":{"type":"Point","coordinates":[137.21587,36.68364]},"properties":{"name":"広貫堂前","line":"本線","riders":330}},{"type":"Feature","geometry":{"type":"Point","coordinates":[137.21665,36.68086]},"properties":{"name":"西中野","line":"本線","riders":443}},{"type":"Feature","geometry":{"type":"Point","coordinates":[137.38259,36.79069]},"properties":{"name":"越中中村","line":"本線","riders":12}},{"type":"Feature","geometry":{"type":"Point","coordinates":[137.25298,36.6987]},"properties":{"name":"東新庄","line":"本線","riders":978}},{"type":"Feature","geometry":{"type":"Point","coordinates":[137.21576,36.68639]},"properties":{"name":"上本町","line":"本線","riders":443}},{"type":"Feature","geometry":{"type":"Point","coordinates":[137.22067,36.67306]},"properties":{"name":"大町","line":"本線","riders":775}},{"type":"Feature","geometry":{"type":"Point","coordinates":[137.26621,36.69897]},"properties":{"name":"越中荏原","line":"本線","riders":2028}},{"type":"Feature","geometry":{"type":"Point","coordinates":[137.33461,36.75552]},"properties":{"name":"西滑川","line":"本線","riders":323}},{"type":"Feature","geometry":{"type":"Point","coordinates":[137.33992,36.76191]},"properties":{"name":"中滑川","line":"本線","riders":808}},{"type":"Feature","geometry":{"type":"Point","coordinates":[137.3716,36.78372]},"properties":{"name":"早月加積","line":"本線","riders":112}},{"type":"Feature","geometry":{"type":"Point","coordinates":[137.35708,36.70448]},"properties":{"name":"上市","line":"本線","riders":1995}},{"type":"Feature","geometry":{"type":"Point","coordinates":[137.44416,36.87405]},"properties":{"name":"電鉄黒部","line":"本線","riders":793}},{"type":"Feature","geometry":{"type":"Point","coordinates":[137.45926,36.87503]},"properties":{"name":"荻生","line":"本線","riders":85}},{"type":"Feature","geometry":{"type":"Point","coordinates":[137.21567,36.68919]},"properties":{"name":"西町","line":"本線","riders":1756}},{"type":"Feature","geometry":{"type":"Point","coordinates":[137.21578,36.69149]},"properties":{"name":"荒町","line":"本線","riders":569}},{"type":"Feature","geometry":{"type":"Point","coordinates":[137.41619,36.84883]},"properties":{"name":"経田","line":"本線","riders":978}},{"type":"Feature","geometry":{"type":"Point","coordinates":[137.33548,36.70198]},"properties":{"name":"相ノ木","line":"本線","riders":245}},{"type":"Feature","geometry":{"type":"Point","coordinates":[137.48584,36.87202]},"properties":{"name":"舌山","line":"本線","riders":75}},{"type":"Feature","geometry":{"type":"Point","coordinates":[137.47075,36.87353]},"properties":{"name":"長屋","line":"本線","riders":31}},{"type":"Feature","geometry":{"type":"Point","coordinates":[137.29078,36.70335]},"properties":{"name":"越中三郷","line":"本線","riders":548}},{"type":"Feature","geometry":{"type":"Point","coordinates":[137.34022,36.74634]},"properties":{"name":"西加積","line":"本線","riders":54}},{"type":"Feature","geometry":{"type":"Point","coordinates":[137.40527,36.82666]},"properties":{"name":"新魚津","line":"本線","riders":1521}},{"type":"Feature","geometry":{"type":"Point","coordinates":[137.31781,36.64788]},"properties":{"name":"下段","line":"立山線","riders":92}},{"type":"Feature","geometry":{"type":"Point","coordinates":[137.31987,36.60831]},"properties":{"name":"岩峅寺","line":"立山線","riders":419}},{"type":"Feature","geometry":{"type":"Point","coordinates":[137.39588,36.57495]},"properties":{"name":"本宮","line":"立山線","riders":31}},{"type":"Feature","geometry":{"type":"Point","coordinates":[137.3166,36.65764]},"properties":{"name":"榎町","line":"立山線","riders":417}},{"type":"Feature","geometry":{"type":"Point","coordinates":[137.31777,36.67978]},"properties":{"name":"田添","line":"立山線","riders":47}},{"type":"Feature","geometry":{"type":"Point","coordinates":[137.31754,36.68657]},"properties":{"name":"稚子塚","line":"立山線","riders":66}},{"type":"Feature","geometry":{"type":"Point","coordinates":[137.31847,36.69858]},"properties":{"name":"寺田","line":"立山線","riders":12}},{"type":"Feature","geometry":{"type":"Point","coordinates":[137.33566,36.58207]},"properties":{"name":"横江","line":"立山線","riders":54}},{"type":"Feature","geometry":{"type":"Point","coordinates":[137.31417,36.66541]},"properties":{"name":"五百石","line":"立山線","riders":902}},{"type":"Feature","geometry":{"type":"Point","coordinates":[137.44499,36.58327]},"properties":{"name":"立山","line":"立山線","riders":623}},{"type":"Feature","geometry":{"type":"Point","coordinates":[137.38024,36.57297]},"properties":{"name":"有峰口","line":"立山線","riders":86}},{"type":"Feature","geometry":{"type":"Point","coordinates":[137.3739,36.57375]},"properties":{"name":"千垣","line":"立山線","riders":120}},{"type":"Feature","geometry":{"type":"Point","coordinates":[137.31931,36.63332]},"properties":{"name":"釜ヶ淵","line":"立山線","riders":249}},{"type":"Feature","geometry":{"type":"Point","coordinates":[137.32101,36.62238]},"properties":{"name":"沢中山","line":"立山線","riders":74}},{"type":"Feature","geometry":{"type":"Point","coordinates":[137.06597,36.78883]},"properties":{"name":"六渡寺","line":"高岡軌道線","riders":144}},{"type":"Feature","geometry":{"type":"Point","coordinates":[137.01508,36.74155]},"properties":{"name":"高岡駅","line":"高岡軌道線","riders":1239}},{"type":"Feature","geometry":{"type":"Point","coordinates":[137.03848,36.77202]},"properties":{"name":"米島口","line":"高岡軌道線","riders":332}},{"type":"Feature","geometry":{"type":"Point","coordinates":[137.02352,36.7553]},"properties":{"name":"志貴野中学校前","line":"高岡軌道線","riders":370}},{"type":"Feature","geometry":{"type":"Point","coordinates":[137.0181,36.74997]},"properties":{"name":"急患医療センター前","line":"高岡軌道線","riders":143}},{"type":"Feature","geometry":{"type":"Point","coordinates":[137.05298,36.77613]},"properties":{"name":"新吉久","line":"高岡軌道線","riders":127}},{"type":"Feature","geometry":{"type":"Point","coordinates":[137.01487,36.74741]},"properties":{"name":"坂下町","line":"高岡軌道線","riders":187}},{"type":"Feature","geometry":{"type":"Point","coordinates":[137.02069,36.75251]},"properties":{"name":"広小路","line":"高岡軌道線","riders":453}},{"type":"Feature","geometry":{"type":"Point","coordinates":[137.02621,36.75819]},"properties":{"name":"市民病院前","line":"高岡軌道線","riders":202}},{"type":"Feature","geometry":{"type":"Point","coordinates":[137.05635,36.78187]},"properties":{"name":"吉久","line":"高岡軌道線","riders":142}},{"type":"Feature","geometry":{"type":"Point","coordinates":[137.03782,36.77028]},"properties":{"name":"新能町","line":"高岡軌道線","riders":116}},{"type":"Feature","geometry":{"type":"Point","coordinates":[137.03575,36.7668]},"properties":{"name":"荻布","line":"高岡軌道線","riders":91}},{"type":"Feature","geometry":{"type":"Point","coordinates":[137.01291,36.74631]},"properties":{"name":"片原町","line":"高岡軌道線","riders":139}},{"type":"Feature","geometry":{"type":"Point","coordinates":[137.03189,36.76331]},"properties":{"name":"旭ヶ丘","line":"高岡軌道線","riders":161}},{"type":"Feature","geometry":{"type":"Point","coordinates":[137.02985,36.76149]},"properties":{"name":"江尻","line":"高岡軌道線","riders":314}},{"type":"Feature","geometry":{"type":"Point","coordinates":[137.04878,36.77315]},"properties":{"name":"能町口","line":"高岡軌道線","riders":111}},{"type":"Feature","geometry":{"type":"Point","coordinates":[137.06148,36.78794]},"properties":{"name":"中伏木","line":"高岡軌道線","riders":213}},{"type":"Feature","geometry":{"type":"Point","coordinates":[137.07101,36.78407]},"properties":{"name":"庄川口","line":"新湊港線","riders":282}},{"type":"Feature","geometry":{"type":"Point","coordinates":[137.11193,36.77484]},"properties":{"name":"越ノ潟","line":"新湊港線","riders":793}},{"type":"Feature","geometry":{"type":"Point","coordinates":[137.08432,36.77864]},"properties":{"name":"新町口","line":"新湊港線","riders":230}},{"type":"Feature","geometry":{"type":"Point","coordinates":[137.07841,36.7812]},"properties":{"name":"西新湊","line":"新湊港線","riders":645}},{"type":"Feature","geometry":{"type":"Point","coordinates":[137.09906,36.77786]},"properties":{"name":"東新湊","line":"新湊港線","riders":122}},{"type":"Feature","geometry":{"type":"Point","coordinates":[137.10669,36.77629]},"properties":{"name":"海王丸","line":"新湊港線","riders":189}},{"type":"Feature","geometry":{"type":"Point","coordinates":[137.08889,36.775]},"properties":{"name":"中新湊","line":"新湊港線","riders":269}},{"type":"Feature","geometry":{"type":"Point","coordinates":[137.446,36.5833]},"properties":{"name":"立山","line":"鋼索線","riders":3825}},{"type":"Feature","geometry":{"type":"Point","coordinates":[137.45877,36.58334]},"properties":{"name":"美女平","line":"鋼索線","riders":3825}},{"type":"Feature","geometry":{"type":"Point","coordinates":[137.21137,36.69162]},"properties":{"name":"国際会議場前","line":"富山都心線","riders":442}},{"type":"Feature","geometry":{"type":"Point","coordinates":[137.21133,36.68952]},"properties":{"name":"大手モール","line":"富山都心線","riders":271}},{"type":"Feature","geometry":{"type":"Point","coordinates":[137.21375,36.6889]},"properties":{"name":"グランドプラザ前","line":"富山都心線","riders":688}},{"type":"Feature","geometry":{"type":"Point","coordinates":[137.16861,36.67781]},"properties":{"name":"婦中鵜坂","line":"高山線","riders":486}},{"type":"Feature","geometry":{"type":"Point","coordinates":[137.01344,36.74448]},"properties":{"name":"末広町","line":"高岡軌道線","riders":209}},{"type":"Feature","geometry":{"type":"Point","coordinates":[137.24108,36.69792]},"properties":{"name":"新庄田中","line":"本線","riders":170}},{"type":"Feature","geometry":{"type":"Point","coordinates":[137.21568,36.68979]},"properties":{"name":"中町（西町北）","line":"本線","riders":721}},{"type":"Feature","geometry":{"type":"Point","coordinates":[137.34232,36.70316]},"properties":{"name":"新相ノ木","line":"本線","riders":145}},{"type":"Feature","geometry":{"type":"Point","coordinates":[137.48113,36.87406]},"properties":{"name":"黒部宇奈月温泉","line":"北陸新幹線","riders":2717}},{"type":"Feature","geometry":{"type":"Point","coordinates":[137.21331,36.70144]},"properties":{"name":"富山","line":"北陸新幹線","riders":28750}},{"type":"Feature","geometry":{"type":"Point","coordinates":[137.01188,36.72695]},"properties":{"name":"新高岡","line":"北陸新幹線","riders":4148}},{"type":"Feature","geometry":{"type":"Point","coordinates":[137.48121,36.87305]},"properties":{"name":"新黒部","line":"本線","riders":415}},{"type":"Feature","geometry":{"type":"Point","coordinates":[137.01034,36.72656]},"properties":{"name":"新高岡","line":"城端線","riders":6286}},{"type":"Feature","geometry":{"type":"Point","coordinates":[136.98871,36.73723]},"properties":{"name":"高岡やぶなみ","line":"あいの風とやま鉄道線","riders":798}},{"type":"Feature","geometry":{"type":"Point","coordinates":[137.23329,36.69113]},"properties":{"name":"栄町","line":"不二越線","riders":149}},{"type":"Feature","geometry":{"type":"Point","coordinates":[137.2146,36.70367]},"properties":{"name":"オークスカナルパークホテル富山前","line":"富山港線","riders":21}},{"type":"Feature","geometry":{"type":"Point","coordinates":[137.21986,36.70301]},"properties":{"name":"龍谷富山高校前（永楽町）","line":"富山港線","riders":21}},{"type":"Feature","geometry":{"type":"Point","coordinates":[137.2404,36.71957]},"properties":{"name":"新富山口","line":"あいの風とやま鉄道線","riders":0}}]}