{"type":"FeatureCollection","features":[{"type":"Feature","geometry":{"type":"Point","coordinates":[140.45993,37.75432]},"properties":{"name":"福島","line":"阿武隈急行線","riders":35450}},{"type":"Feature","geometry":{"type":"Point","coordinates":[140.47948,37.79545]},"properties":{"name":"卸町","line":"阿武隈急行線","riders":698}},{"type":"Feature","geometry":{"type":"Point","coordinates":[140.48859,37.79875]},"properties":{"name":"福島学院前","line":"阿武隈急行線","riders":703}},{"type":"Feature","geometry":{"type":"Point","coordinates":[140.45963,37.75431]},"properties":{"name":"福島","line":"奥羽線","riders":11}},{"type":"Feature","geometry":{"type":"Point","coordinates":[140.4586,37.75371]},"properties":{"name":"福島","line":"奥羽線","riders":11}},{"type":"Feature","geometry":{"type":"Point","coordinates":[140.38983,37.77155]},"properties":{"name":"庭坂","line":"奥羽線","riders":11}},{"type":"Feature","geometry":{"type":"Point","coordinates":[140.42611,37.76588]},"properties":{"name":"笹木野","line":"奥羽線","riders":11}},{"type":"Feature","geometry":{"type":"Point","coordinates":[140.4774,37.79984]},"properties":{"name":"東福島","line":"東北線","riders":1552}},{"type":"Feature","geometry":{"type":"Point","coordinates":[140.45976,37.75432]},"properties":{"name":"福島","line":"東北線","riders":0}},{"type":"Feature","geometry":{"type":"Point","coordinates":[140.45584,37.72382]},"properties":{"name":"南福島","line":"東北線","riders":3710}},{"type":"Feature","geometry":{"type":"Point","coordinates":[139.534,37.70572]},"properties":{"name":"日出谷","line":"磐越西線","riders":11}},{"type":"Feature","geometry":{"type":"Point","coordinates":[140.45538,37.76713]},"properties":{"name":"美術館図書館前","line":"飯坂線","riders":541}},{"type":"Feature","geometry":{"type":"Point","coordinates":[140.4411,37.79587]},"properties":{"name":"桜水","line":"飯坂線","riders":822}},{"type":"Feature","geometry":{"type":"Point","coordinates":[140.44107,37.78361]},"properties":{"name":"上松川","line":"飯坂線","riders":704}},{"type":"Feature","geometry":{"type":"Point","coordinates":[140.43973,37.78735]},"properties":{"name":"笹谷","line":"飯坂線","riders":1220}},{"type":"Feature","geometry":{"type":"Point","coordinates":[140.45949,37.76032]},"properties":{"name":"曽根田","line":"飯坂線","riders":810}},{"type":"Feature","geometry":{"type":"Point","coordinates":[140.44763,37.77631]},"properties":{"name":"岩代清水","line":"飯坂線","riders":938}},{"type":"Feature","geometry":{"type":"Point","coordinates":[140.46004,37.75432]},"properties":{"name":"福島","line":"飯坂線","riders":4781}},{"type":"Feature","geometry":{"type":"Point","coordinates":[140.4455,37.77875]},"properties":{"name":"泉","line":"飯坂線","riders":705}}]}