{"type":"FeatureCollection","features":[{"type":"Feature","geometry":{"type":"Point","coordinates":[139.84182,37.22451]},"properties":{"name":"養鱒公園","line":"会津線","riders":31}},{"type":"Feature","geometry":{"type":"Point","coordinates":[139.71738,37.12418]},"properties":{"name":"七ヶ岳登山口","line":"会津線","riders":21}},{"type":"Feature","geometry":{"type":"Point","coordinates":[139.89518,37.30403]},"properties":{"name":"湯野上温泉","line":"会津線","riders":236}},{"type":"Feature","geometry":{"type":"Point","coordinates":[139.93224,37.39541]},"properties":{"name":"芦ノ牧温泉","line":"会津線","riders":172}},{"type":"Feature","geometry":{"type":"Point","coordinates":[139.91445,37.45904]},"properties":{"name":"南若松","line":"会津線","riders":38}},{"type":"Feature","geometry":{"type":"Point","coordinates":[139.80079,37.20956]},"properties":{"name":"田島高校前","line":"会津線","riders":224}},{"type":"Feature","geometry":{"type":"Point","coordinates":[139.73369,37.15331]},"properties":{"name":"会津荒海","line":"会津線","riders":80}},{"type":"Feature","geometry":{"type":"Point","coordinates":[139.85903,37.24327]},"properties":{"name":"ふるさと公園","line":"会津線","riders":38}},{"type":"Feature","geometry":{"type":"Point","coordinates":[139.75093,37.18024]},"properties":{"name":"中荒井","line":"会津線","riders":23}},{"type":"Feature","geometry":{"type":"Point","coordinates":[139.86494,37.25518]},"properties":{"name":"会津下郷","line":"会津線","riders":224}},{"type":"Feature","geometry":{"type":"Point","coordinates":[139.91378,37.44252]},"properties":{"name":"門田","line":"会津線","riders":12}},{"type":"Feature","geometry":{"type":"Point","coordinates":[139.9015,37.27457]},"properties":{"name":"塔のへつり","line":"会津線","riders":94}},{"type":"Feature","geometry":{"type":"Point","coordinates":[139.77431,37.20327]},"properties":{"name":"会津田島","line":"会津線","riders":618}},{"type":"Feature","geometry":{"type":"Point","coordinates":[139.9176,37.41721]},"properties":{"name":"あまや","line":"会津線","riders":12}},{"type":"Feature","geometry":{"type":"Point","coordinates":[139.73176,37.1442]},"properties":{"name":"会津山村道場","line":"会津線","riders":20}},{"type":"Feature","geometry":{"type":"Point","coordinates":[139.91866,37.33458]},"properties":{"name":"芦ノ牧温泉南","line":"会津線","riders":14}},{"type":"Feature","geometry":{"type":"Point","coordinates":[139.92077,37.34682]},"properties":{"name":"大川ダム公園","line":"会津線","riders":12}},{"type":"Feature","geometry":{"type":"Point","coordinates":[139.82385,37.2153]},"properties":{"name":"会津長野","line":"会津線","riders":18}},{"type":"Feature","geometry":{"type":"Point","coordinates":[139.88998,37.26634]},"properties":{"name":"弥五島","line":"会津線","riders":80}},{"type":"Feature","geometry":{"type":"Point","coordinates":[139.91416,37.48608]},"properties":{"name":"西若松","line":"会津線","riders":1739}},{"type":"Feature","geometry":{"type":"Point","coordinates":[139.70512,37.09003]},"properties":{"name":"会津高原尾瀬口","line":"会津線","riders":551}},{"type":"Feature","geometry":{"type":"Point","coordinates":[139.27246,37.88934]},"properties":{"name":"月岡","line":"羽越線","riders":11}},{"type":"Feature","geometry":{"type":"Point","coordinates":[139.35855,37.97651]},"properties":{"name":"加治","line":"羽越線","riders":11}},{"type":"Feature","geometry":{"type":"Point","coordinates":[139.30276,37.9122]},"properties":{"name":"中浦","line":"羽越線","riders":11}},{"type":"Feature","geometry":{"type":"Point","coordinates":[139.21719,37.83656]},"properties":{"name":"水原","line":"羽越線","riders":1814}},{"type":"Feature","geometry":{"type":"Point","coordinates":[139.24484,37.86287]},"properties":{"name":"神山","line":"羽越線","riders":11}},{"type":"Feature","geometry":{"type":"Point","coordinates":[139.17847,37.81762]},"properties":{"name":"京ヶ瀬","line":"羽越線","riders":11}},{"type":"Feature","geometry":{"type":"Point","coordinates":[139.12121,37.8003]},"properties":{"name":"新津","line":"羽越線","riders":8728}},{"type":"Feature","geometry":{"type":"Point","coordinates":[139.33498,37.94385]},"properties":{"name":"新発田","line":"羽越線","riders":7942}},{"type":"Feature","geometry":{"type":"Point","coordinates":[140.93466,37.75613]},"properties":{"name":"日立木","line":"常磐線","riders":11}},{"type":"Feature","geometry":{"type":"Point","coordinates":[140.89236,37.05822]},"properties":{"name":"いわき","line":"常磐線","riders":12284}},{"type":"Feature","geometry":{"type":"Point","coordinates":[140.85408,36.95558]},"properties":{"name":"泉","line":"常磐線","riders":4904}},{"type":"Feature","geometry":{"type":"Point","coordinates":[140.99872,37.21142]},"properties":{"name":"広野","line":"常磐線","riders":912}},{"type":"Feature","geometry":{"type":"Point","coordinates":[140.99565,37.17215]},"properties":{"name":"末続","line":"常磐線","riders":11}},{"type":"Feature","geometry":{"type":"Point","coordinates":[140.79649,36.92049]},"properties":{"name":"植田","line":"常磐線","riders":4064}},{"type":"Feature","geometry":{"type":"Point","coordinates":[140.99201,37.36579]},"properties":{"name":"夜ノ森","line":"常磐線","riders":718}},{"type":"Feature","geometry":{"type":"Point","coordinates":[140.84984,37.00695]},"properties":{"name":"湯本","line":"常磐線","riders":4456}},{"type":"Feature","geometry":{"type":"Point","coordinates":[140.99148,37.6051]},"properties":{"name":"磐城太田","line":"常磐線","riders":11}},{"type":"Feature","geometry":{"type":"Point","coordinates":[140.98437,37.52866]},"properties":{"name":"桃内","line":"常磐線","riders":11}},{"type":"Feature","geometry":{"type":"Point","coordinates":[140.78669,36.88356]},"properties":{"name":"勿来","line":"常磐線","riders":1790}},{"type":"Feature","geometry":{"type":"Point","coordinates":[140.99638,37.56312]},"properties":{"name":"小高","line":"常磐線","riders":1622}},{"type":"Feature","geometry":{"type":"Point","coordinates":[140.97111,37.63796]},"properties":{"name":"原ノ町","line":"常磐線","riders":3358}},{"type":"Feature","geometry":{"type":"Point","coordinates":[140.98413,37.40917]},"properties":{"name":"大野","line":"常磐線","riders":1232}},{"type":"Feature","geometry":{"type":"Point","coordinates":[140.8549,37.03597]},"properties":{"name":"内郷","line":"常磐線","riders":2314}},{"type":"Feature","geometry":{"type":"Point","coordinates":[140.97008,37.70284]},"properties":{"name":"鹿島","line":"常磐線","riders":756}},{"type":"Feature","geometry":{"type":"Point","coordinates":[140.94725,37.07385]},"properties":{"name":"草野","line":"常磐線","riders":848}},{"type":"Feature","geometry":{"type":"Point","coordinates":[140.98952,37.49235]},"properties":{"name":"浪江","line":"常磐線","riders":1468}},{"type":"Feature","geometry":{"type":"Point","coordinates":[140.98086,37.10228]},"properties":{"name":"四ツ倉","line":"常磐線","riders":1612}},{"type":"Feature","geometry":{"type":"Point","coordinates":[140.99578,37.14247]},"properties":{"name":"久ノ浜","line":"常磐線","riders":642}},{"type":"Feature","geometry":{"type":"Point","coordinates":[140.77801,36.84607]},"properties":{"name":"大津港","line":"常磐線","riders":2126}},{"type":"Feature","geometry":{"type":"Point","coordinates":[139.11736,37.8131]},"properties":{"name":"さつき野","line":"信越線","riders":1956}},{"type":"Feature","geometry":{"type":"Point","coordinates":[139.11446,37.773]},"properties":{"name":"古津","line":"信越線","riders":11}},{"type":"Feature","geometry":{"type":"Point","coordinates":[139.11163,37.83258]},"properties":{"name":"荻川","line":"信越線","riders":3848}},{"type":"Feature","geometry":{"type":"Point","coordinates":[139.10824,37.87718]},"properties":{"name":"亀田","line":"信越線","riders":10950}},{"type":"Feature","geometry":{"type":"Point","coordinates":[140.36882,37.35659]},"properties":{"name":"安積永盛","line":"水郡線","riders":4952}},{"type":"Feature","geometry":{"type":"Point","coordinates":[140.421,37.17521]},"properties":{"name":"野木沢","line":"水郡線","riders":11}},{"type":"Feature","geometry":{"type":"Point","coordinates":[140.41441,37.07984]},"properties":{"name":"磐城浅川","line":"水郡線","riders":378}},{"type":"Feature","geometry":{"type":"Point","coordinates":[140.39376,37.00051]},"properties":{"name":"近津","line":"水郡線","riders":11}},{"type":"Feature","geometry":{"type":"Point","coordinates":[140.41693,36.89471]},"properties":{"name":"南石井","line":"水郡線","riders":11}},{"type":"Feature","geometry":{"type":"Point","coordinates":[140.43124,37.31364]},"properties":{"name":"谷田川","line":"水郡線","riders":11}},{"type":"Feature","geometry":{"type":"Point","coordinates":[140.43016,37.29556]},"properties":{"name":"小塩江","line":"水郡線","riders":11}},{"type":"Feature","geometry":{"type":"Point","coordinates":[140.41533,36.90465]},"properties":{"name":"磐城石井","line":"水郡線","riders":11}},{"type":"Feature","geometry":{"type":"Point","coordinates":[140.41679,37.10459]},"properties":{"name":"里白石","line":"水郡線","riders":11}},{"type":"Feature","geometry":{"type":"Point","coordinates":[140.39329,37.02249]},"properties":{"name":"中豊","line":"水郡線","riders":11}},{"type":"Feature","geometry":{"type":"Point","coordinates":[140.40575,37.19271]},"properties":{"name":"川辺沖","line":"水郡線","riders":11}},{"type":"Feature","geometry":{"type":"Point","coordinates":[140.38443,37.03511]},"properties":{"name":"磐城棚倉","line":"水郡線","riders":416}},{"type":"Feature","geometry":{"type":"Point","coordinates":[140.444,37.14072]},"properties":{"name":"磐城石川","line":"水郡線","riders":1170}},{"type":"Feature","geometry":{"type":"Point","coordinates":[140.40653,37.33072]},"properties":{"name":"磐城守山","line":"水郡線","riders":11}},{"type":"Feature","geometry":{"type":"Point","coordinates":[140.41202,36.95873]},"properties":{"name":"磐城塙","line":"水郡線","riders":552}},{"type":"Feature","geometry":{"type":"Point","coordinates":[140.40557,37.21449]},"properties":{"name":"泉郷","line":"水郡線","riders":252}},{"type":"Feature","geometry":{"type":"Point","coordinates":[140.40615,37.27011]},"properties":{"name":"川東","line":"水郡線","riders":140}},{"type":"Feature","geometry":{"type":"Point","coordinates":[140.37552,36.81577]},"properties":{"name":"下野宮","line":"水郡線","riders":11}},{"type":"Feature","geometry":{"type":"Point","coordinates":[140.42331,36.87042]},"properties":{"name":"東館","line":"水郡線","riders":202}},{"type":"Feature","geometry":{"type":"Point","coordinates":[140.3954,36.84994]},"properties":{"name":"矢祭山","line":"水郡線","riders":11}},{"type":"Feature","geometry":{"type":"Point","coordinates":[139.93017,37.50895]},"properties":{"name":"会津若松","line":"只見線","riders":5816}},{"type":"Feature","geometry":{"type":"Point","coordinates":[139.89258,37.46343]},"properties":{"name":"会津本郷","line":"只見線","riders":11}},{"type":"Feature","geometry":{"type":"Point","coordinates":[139.75663,37.55329]},"properties":{"name":"会津坂本","line":"只見線","riders":11}},{"type":"Feature","geometry":{"type":"Point","coordinates":[139.69796,37.49433]},"properties":{"name":"滝谷","line":"只見線","riders":11}},{"type":"Feature","geometry":{"type":"Point","coordinates":[139.9196,37.50192]},"properties":{"name":"七日町","line":"只見線","riders":11}},{"type":"Feature","geometry":{"type":"Point","coordinates":[139.8283,37.53541]},"properties":{"name":"若宮","line":"只見線","riders":11}},{"type":"Feature","geometry":{"type":"Point","coordinates":[139.8286,37.50196]},"properties":{"name":"根岸","line":"只見線","riders":11}},{"type":"Feature","geometry":{"type":"Point","coordinates":[139.82142,37.55677]},"properties":{"name":"会津坂下","line":"只見線","riders":1028}},{"type":"Feature","geometry":{"type":"Point","coordinates":[139.78522,37.56944]},"properties":{"name":"塔寺","line":"只見線","riders":11}},{"type":"Feature","geometry":{"type":"Point","coordinates":[139.70992,37.51634]},"properties":{"name":"郷戸","line":"只見線","riders":11}},{"type":"Feature","geometry":{"type":"Point","coordinates":[139.8413,37.47081]},"properties":{"name":"会津高田","line":"只見線","riders":11}},{"type":"Feature","geometry":{"type":"Point","coordinates":[139.72387,37.53867]},"properties":{"name":"会津柳津","line":"只見線","riders":11}},{"type":"Feature","geometry":{"type":"Point","coordinates":[139.82849,37.51716]},"properties":{"name":"新鶴","line":"只見線","riders":11}},{"type":"Feature","geometry":{"type":"Point","coordinates":[139.9141,37.48589]},"properties":{"name":"西若松","line":"只見線","riders":1739}},{"type":"Feature","geometry":{"type":"Point","coordinates":[139.4359,37.39238]},"properties":{"name":"会津横田","line":"只見線","riders":11}},{"type":"Feature","geometry":{"type":"Point","coordinates":[139.52376,37.45507]},"properties":{"name":"会津川口","line":"只見線","riders":168}},{"type":"Feature","geometry":{"type":"Point","coordinates":[139.6615,37.48094]},"properties":{"name":"会津西方","line":"只見線","riders":11}},{"type":"Feature","geometry":{"type":"Point","coordinates":[139.33333,37.38179]},"properties":{"name":"会津蒲生","line":"只見線","riders":11}},{"type":"Feature","geometry":{"type":"Point","coordinates":[139.67946,37.49191]},"properties":{"name":"会津桧原","line":"只見線","riders":11}},{"type":"Feature","geometry":{"type":"Point","coordinates":[139.35511,37.39361]},"properties":{"name":"会津塩沢","line":"只見線","riders":11}},{"type":"Feature","geometry":{"type":"Point","coordinates":[139.59358,37.47008]},"properties":{"name":"早戸","line":"只見線","riders":11}},{"type":"Feature","geometry":{"type":"Point","coordinates":[139.56054,37.48298]},"properties":{"name":"会津水沼","line":"只見線","riders":11}},{"type":"Feature","geometry":{"type":"Point","coordinates":[139.49881,37.44477]},"properties":{"name":"本名","line":"只見線","riders":11}},{"type":"Feature","geometry":{"type":"Point","coordinates":[139.53223,37.47381]},"properties":{"name":"会津中川","line":"只見線","riders":11}},{"type":"Feature","geometry":{"type":"Point","coordinates":[139.46943,37.39869]},"properties":{"name":"会津越川","line":"只見線","riders":11}},{"type":"Feature","geometry":{"type":"Point","coordinates":[139.12091,37.34163]},"properties":{"name":"大白川","line":"只見線","riders":11}},{"type":"Feature","geometry":{"type":"Point","coordinates":[139.41315,37.39279]},"properties":{"name":"会津大塩","line":"只見線","riders":11}},{"type":"Feature","geometry":{"type":"Point","coordinates":[139.31481,37.35025]},"properties":{"name":"只見","line":"只見線","riders":40}},{"type":"Feature","geometry":{"type":"Point","coordinates":[139.64708,37.47117]},"properties":{"name":"会津宮下","line":"只見線","riders":92}},{"type":"Feature","geometry":{"type":"Point","coordinates":[140.38862,37.39862]},"properties":{"name":"郡山","line":"東北新幹線","riders":11}},{"type":"Feature","geometry":{"type":"Point","coordinates":[140.02047,36.93145]},"properties":{"name":"那須塩原","line":"東北新幹線","riders":11}},{"type":"Feature","geometry":{"type":"Point","coordinates":[140.18904,37.12353]},"properties":{"name":"新白河","line":"東北新幹線","riders":11}},{"type":"Feature","geometry":{"type":"Point","coordinates":[140.15509,37.05497]},"properties":{"name":"豊原","line":"東北線","riders":11}},{"type":"Feature","geometry":{"type":"Point","coordinates":[140.32825,37.20556]},"properties":{"name":"矢吹","line":"東北線","riders":2348}},{"type":"Feature","geometry":{"type":"Point","coordinates":[140.06015,36.97012]},"properties":{"name":"黒磯","line":"東北線","riders":4838}},{"type":"Feature","geometry":{"type":"Point","coordinates":[140.18471,37.09528]},"properties":{"name":"白坂","line":"東北線","riders":11}},{"type":"Feature","geometry":{"type":"Point","coordinates":[140.38837,37.44596]},"properties":{"name":"日和田","line":"東北線","riders":11}},{"type":"Feature","geometry":{"type":"Point","coordinates":[140.48417,37.65351]},"properties":{"name":"松川","line":"東北線","riders":2388}},{"type":"Feature","geometry":{"type":"Point","coordinates":[140.29909,37.15829]},"properties":{"name":"泉崎","line":"東北線","riders":11}},{"type":"Feature","geometry":{"type":"Point","coordinates":[140.21242,37.13022]},"properties":{"name":"白河","line":"東北線","riders":1412}},{"type":"Feature","geometry":{"type":"Point","coordinates":[140.45201,37.68071]},"properties":{"name":"金谷川","line":"東北線","riders":5860}},{"type":"Feature","geometry":{"type":"Point","coordinates":[140.38774,37.48244]},"properties":{"name":"五百川","line":"東北線","riders":11}},{"type":"Feature","geometry":{"type":"Point","coordinates":[140.12109,37.02355]},"properties":{"name":"黒田原","line":"東北線","riders":1092}},{"type":"Feature","geometry":{"type":"Point","coordinates":[140.34684,37.25055]},"properties":{"name":"鏡石","line":"東北線","riders":1784}},{"type":"Feature","geometry":{"type":"Point","coordinates":[140.08735,36.99651]},"properties":{"name":"高久","line":"東北線","riders":11}},{"type":"Feature","geometry":{"type":"Point","coordinates":[140.38887,37.39814]},"properties":{"name":"郡山","line":"東北線","riders":37228}},{"type":"Feature","geometry":{"type":"Point","coordinates":[140.46668,37.61264]},"properties":{"name":"安達","line":"東北線","riders":1674}},{"type":"Feature","geometry":{"type":"Point","coordinates":[140.37142,37.30036]},"properties":{"name":"須賀川","line":"東北線","riders":4688}},{"type":"Feature","geometry":{"type":"Point","coordinates":[140.41398,37.56348]},"properties":{"name":"杉田","line":"東北線","riders":11}},{"type":"Feature","geometry":{"type":"Point","coordinates":[140.18753,37.12254]},"properties":{"name":"新白河","line":"東北線","riders":6058}},{"type":"Feature","geometry":{"type":"Point","coordinates":[139.98644,36.88381]},"properties":{"name":"西那須野","line":"東北線","riders":7554}},{"type":"Feature","geometry":{"type":"Point","coordinates":[140.43552,37.58946]},"properties":{"name":"二本松","line":"東北線","riders":4170}},{"type":"Feature","geometry":{"type":"Point","coordinates":[140.39934,37.51373]},"properties":{"name":"本宮","line":"東北線","riders":3884}},{"type":"Feature","geometry":{"type":"Point","coordinates":[140.02106,36.93154]},"properties":{"name":"那須塩原","line":"東北線","riders":10662}},{"type":"Feature","geometry":{"type":"Point","coordinates":[140.26019,37.13752]},"properties":{"name":"久田野","line":"東北線","riders":11}},{"type":"Feature","geometry":{"type":"Point","coordinates":[139.9581,36.84381]},"properties":{"name":"野崎","line":"東北線","riders":2670}},{"type":"Feature","geometry":{"type":"Point","coordinates":[139.93297,36.80662]},"properties":{"name":"矢板","line":"東北線","riders":6062}},{"type":"Feature","geometry":{"type":"Point","coordinates":[139.12933,37.91543]},"properties":{"name":"大形","line":"白新線","riders":2512}},{"type":"Feature","geometry":{"type":"Point","coordinates":[139.26981,37.9498]},"properties":{"name":"佐々木","line":"白新線","riders":1798}},{"type":"Feature","geometry":{"type":"Point","coordinates":[139.10865,37.90879]},"properties":{"name":"東新潟","line":"白新線","riders":4022}},{"type":"Feature","geometry":{"type":"Point","coordinates":[139.21563,37.91955]},"properties":{"name":"豊栄","line":"白新線","riders":7688}},{"type":"Feature","geometry":{"type":"Point","coordinates":[139.24139,37.93729]},"properties":{"name":"黒山","line":"白新線","riders":11}},{"type":"Feature","geometry":{"type":"Point","coordinates":[139.17818,37.92112]},"properties":{"name":"早通","line":"白新線","riders":2410}},{"type":"Feature","geometry":{"type":"Point","coordinates":[139.15837,37.92242]},"properties":{"name":"新崎","line":"白新線","riders":2864}},{"type":"Feature","geometry":{"type":"Point","coordinates":[139.30675,37.94137]},"properties":{"name":"西新発田","line":"白新線","riders":11}},{"type":"Feature","geometry":{"type":"Point","coordinates":[139.89534,37.57914]},"properties":{"name":"笈川","line":"磐越西線","riders":11}},{"type":"Feature","geometry":{"type":"Point","coordinates":[139.94813,37.56652]},"properties":{"name":"東長原","line":"磐越西線","riders":11}},{"type":"Feature","geometry":{"type":"Point","coordinates":[140.1033,37.54628]},"properties":{"name":"猪苗代","line":"磐越西線","riders":1222}},{"type":"Feature","geometry":{"type":"Point","coordinates":[140.054,37.55281]},"properties":{"name":"翁島","line":"磐越西線","riders":11}},{"type":"Feature","geometry":{"type":"Point","coordinates":[139.99343,37.55737]},"properties":{"name":"磐梯町","line":"磐越西線","riders":328}},{"type":"Feature","geometry":{"type":"Point","coordinates":[140.27062,37.48076]},"properties":{"name":"磐梯熱海","line":"磐越西線","riders":604}},{"type":"Feature","geometry":{"type":"Point","coordinates":[140.14758,37.50064]},"properties":{"name":"猪苗代湖畔","line":"磐越西線","riders":11}},{"type":"Feature","geometry":{"type":"Point","coordinates":[140.13692,37.5356]},"properties":{"name":"川桁","line":"磐越西線","riders":11}},{"type":"Feature","geometry":{"type":"Point","coordinates":[139.76656,37.6392]},"properties":{"name":"山都","line":"磐越西線","riders":530}},{"type":"Feature","geometry":{"type":"Point","coordinates":[140.31056,37.4719]},"properties":{"name":"安子ヶ島","line":"磐越西線","riders":11}},{"type":"Feature","geometry":{"type":"Point","coordinates":[139.8872,37.5941]},"properties":{"name":"塩川","line":"磐越西線","riders":630}},{"type":"Feature","geometry":{"type":"Point","coordinates":[139.72225,37.61756]},"properties":{"name":"荻野","line":"磐越西線","riders":106}},{"type":"Feature","geometry":{"type":"Point","coordinates":[140.1436,37.51564]},"properties":{"name":"関都","line":"磐越西線","riders":11}},{"type":"Feature","geometry":{"type":"Point","coordinates":[140.342,37.45159]},"properties":{"name":"喜久田","line":"磐越西線","riders":11}},{"type":"Feature","geometry":{"type":"Point","coordinates":[139.86811,37.64386]},"properties":{"name":"喜多方","line":"磐越西線","riders":2372}},{"type":"Feature","geometry":{"type":"Point","coordinates":[139.87682,37.63357]},"properties":{"name":"会津豊川","line":"磐越西線","riders":11}},{"type":"Feature","geometry":{"type":"Point","coordinates":[139.88099,37.616]},"properties":{"name":"姥堂","line":"磐越西線","riders":11}},{"type":"Feature","geometry":{"type":"Point","coordinates":[139.93338,37.54926]},"properties":{"name":"広田","line":"磐越西線","riders":11}},{"type":"Feature","geometry":{"type":"Point","coordinates":[140.16357,37.48786]},"properties":{"name":"上戸","line":"磐越西線","riders":11}},{"type":"Feature","geometry":{"type":"Point","coordinates":[140.21949,37.49569]},"properties":{"name":"中山宿","line":"磐越西線","riders":11}},{"type":"Feature","geometry":{"type":"Point","coordinates":[139.91174,37.55477]},"properties":{"name":"堂島","line":"磐越西線","riders":11}},{"type":"Feature","geometry":{"type":"Point","coordinates":[139.16968,37.74681]},"properties":{"name":"北五泉","line":"磐越西線","riders":1512}},{"type":"Feature","geometry":{"type":"Point","coordinates":[139.16239,37.76823]},"properties":{"name":"新関","line":"磐越西線","riders":11}},{"type":"Feature","geometry":{"type":"Point","coordinates":[139.32197,37.73671]},"properties":{"name":"東下条","line":"磐越西線","riders":11}},{"type":"Feature","geometry":{"type":"Point","coordinates":[139.48023,37.69596]},"properties":{"name":"鹿瀬","line":"磐越西線","riders":11}},{"type":"Feature","geometry":{"type":"Point","coordinates":[139.44697,37.68818]},"properties":{"name":"津川","line":"磐越西線","riders":372}},{"type":"Feature","geometry":{"type":"Point","coordinates":[139.35347,37.71592]},"properties":{"name":"五十島","line":"磐越西線","riders":11}},{"type":"Feature","geometry":{"type":"Point","coordinates":[139.3815,37.7084]},"properties":{"name":"三川","line":"磐越西線","riders":11}},{"type":"Feature","geometry":{"type":"Point","coordinates":[139.26037,37.73758]},"properties":{"name":"馬下","line":"磐越西線","riders":11}},{"type":"Feature","geometry":{"type":"Point","coordinates":[139.57634,37.68052]},"properties":{"name":"豊実","line":"磐越西線","riders":11}},{"type":"Feature","geometry":{"type":"Point","coordinates":[139.17979,37.73437]},"properties":{"name":"五泉","line":"磐越西線","riders":2416}},{"type":"Feature","geometry":{"type":"Point","coordinates":[139.69148,37.60895]},"properties":{"name":"尾登","line":"磐越西線","riders":11}},{"type":"Feature","geometry":{"type":"Point","coordinates":[139.60288,37.66691]},"properties":{"name":"徳沢","line":"磐越西線","riders":28}},{"type":"Feature","geometry":{"type":"Point","coordinates":[139.64424,37.59104]},"properties":{"name":"野沢","line":"磐越西線","riders":382}},{"type":"Feature","geometry":{"type":"Point","coordinates":[139.14359,37.78773]},"properties":{"name":"東新津","line":"磐越西線","riders":11}},{"type":"Feature","geometry":{"type":"Point","coordinates":[139.6339,37.62503]},"properties":{"name":"上野尻","line":"磐越西線","riders":52}},{"type":"Feature","geometry":{"type":"Point","coordinates":[139.22236,37.72963]},"properties":{"name":"猿和田","line":"磐越西線","riders":11}},{"type":"Feature","geometry":{"type":"Point","coordinates":[139.2909,37.735]},"properties":{"name":"咲花","line":"磐越西線","riders":11}},{"type":"Feature","geometry":{"type":"Point","coordinates":[140.86253,37.12645]},"properties":{"name":"小川郷","line":"磐越東線","riders":11}},{"type":"Feature","geometry":{"type":"Point","coordinates":[140.52084,37.45417]},"properties":{"name":"要田","line":"磐越東線","riders":11}},{"type":"Feature","geometry":{"type":"Point","coordinates":[140.60584,37.42076]},"properties":{"name":"磐城常葉","line":"磐越東線","riders":11}},{"type":"Feature","geometry":{"type":"Point","coordinates":[140.86633,37.08064]},"properties":{"name":"赤井","line":"磐越東線","riders":11}},{"type":"Feature","geometry":{"type":"Point","coordinates":[140.47855,37.44982]},"properties":{"name":"三春","line":"磐越東線","riders":2042}},{"type":"Feature","geometry":{"type":"Point","coordinates":[140.64459,37.35048]},"properties":{"name":"菅谷","line":"磐越東線","riders":198}},{"type":"Feature","geometry":{"type":"Point","coordinates":[140.82644,37.17914]},"properties":{"name":"江田","line":"磐越東線","riders":11}},{"type":"Feature","geometry":{"type":"Point","coordinates":[140.66271,37.25299]},"properties":{"name":"夏井","line":"磐越東線","riders":11}},{"type":"Feature","geometry":{"type":"Point","coordinates":[140.65966,37.32475]},"properties":{"name":"神俣","line":"磐越東線","riders":406}},{"type":"Feature","geometry":{"type":"Point","coordinates":[140.63657,37.27578]},"properties":{"name":"小野新町","line":"磐越東線","riders":908}},{"type":"Feature","geometry":{"type":"Point","coordinates":[140.63044,37.38747]},"properties":{"name":"大越","line":"磐越東線","riders":470}},{"type":"Feature","geometry":{"type":"Point","coordinates":[140.43531,37.4167]},"properties":{"name":"舞木","line":"磐越東線","riders":11}},{"type":"Feature","geometry":{"type":"Point","coordinates":[140.75029,37.20564]},"properties":{"name":"川前","line":"磐越東線","riders":11}},{"type":"Feature","geometry":{"type":"Point","coordinates":[140.57461,37.44313]},"properties":{"name":"船引","line":"磐越東線","riders":1930}},{"type":"Feature","geometry":{"type":"Point","coordinates":[139.73301,36.85245]},"properties":{"name":"新藤原","line":"鬼怒川線","riders":2038}},{"type":"Feature","geometry":{"type":"Point","coordinates":[139.7065,36.80224]},"properties":{"name":"小佐越","line":"鬼怒川線","riders":466}},{"type":"Feature","geometry":{"type":"Point","coordinates":[139.71668,36.82252]},"properties":{"name":"鬼怒川温泉","line":"鬼怒川線","riders":3115}},{"type":"Feature","geometry":{"type":"Point","coordinates":[139.72283,36.84157]},"properties":{"name":"鬼怒川公園","line":"鬼怒川線","riders":315}},{"type":"Feature","geometry":{"type":"Point","coordinates":[139.69932,36.9852]},"properties":{"name":"中三依温泉","line":"会津鬼怒川線","riders":44}},{"type":"Feature","geometry":{"type":"Point","coordinates":[139.70374,36.88414]},"properties":{"name":"川治温泉","line":"会津鬼怒川線","riders":63}},{"type":"Feature","geometry":{"type":"Point","coordinates":[139.72392,37.04787]},"properties":{"name":"男鹿高原","line":"会津鬼怒川線","riders":12}},{"type":"Feature","geometry":{"type":"Point","coordinates":[139.70277,36.8952]},"properties":{"name":"川治湯元","line":"会津鬼怒川線","riders":165}},{"type":"Feature","geometry":{"type":"Point","coordinates":[139.7273,37.01438]},"properties":{"name":"上三依塩原温泉口","line":"会津鬼怒川線","riders":57}},{"type":"Feature","geometry":{"type":"Point","coordinates":[139.71857,36.86095]},"properties":{"name":"龍王峡","line":"会津鬼怒川線","riders":141}},{"type":"Feature","geometry":{"type":"Point","coordinates":[139.68861,36.92955]},"properties":{"name":"湯西川温泉","line":"会津鬼怒川線","riders":205}},{"type":"Feature","geometry":{"type":"Point","coordinates":[140.36919,37.42058]},"properties":{"name":"郡山富田","line":"磐越西線","riders":11}},{"type":"Feature","geometry":{"type":"Point","coordinates":[139.70902,36.80837]},"properties":{"name":"東武ワールドスクウェア","line":"鬼怒川線","riders":438}}]}