{"type":"FeatureCollection","features":[{"type":"Feature","geometry":{"type":"Point","coordinates":[134.75756,34.77938]},"properties":{"name":"大塩","line":"本線","riders":4071}},{"type":"Feature","geometry":{"type":"Point","coordinates":[134.90203,34.68928]},"properties":{"name":"山陽魚住","line":"本線","riders":2027}},{"type":"Feature","geometry":{"type":"Point","coordinates":[134.78702,34.76719]},"properties":{"name":"伊保","line":"本線","riders":2194}},{"type":"Feature","geometry":{"type":"Point","coordinates":[134.67547,34.79971]},"properties":{"name":"飾磨","line":"本線","riders":7752}},{"type":"Feature","geometry":{"type":"Point","coordinates":[134.74158,34.78006]},"properties":{"name":"的形","line":"本線","riders":1750}},{"type":"Feature","geometry":{"type":"Point","coordinates":[134.9476,34.6634]},"properties":{"name":"藤江","line":"本線","riders":2859}},{"type":"Feature","geometry":{"type":"Point","coordinates":[134.77317,34.77551]},"properties":{"name":"山陽曽根","line":"本線","riders":2756}},{"type":"Feature","geometry":{"type":"Point","coordinates":[134.90817,34.68573]},"properties":{"name":"西江井ヶ島","line":"本線","riders":2836}},{"type":"Feature","geometry":{"type":"Point","coordinates":[134.70714,34.78686]},"properties":{"name":"白浜の宮","line":"本線","riders":5123}},{"type":"Feature","geometry":{"type":"Point","coordinates":[134.69346,34.7921]},"properties":{"name":"妻鹿","line":"本線","riders":2273}},{"type":"Feature","geometry":{"type":"Point","coordinates":[134.93616,34.6708]},"properties":{"name":"中八木","line":"本線","riders":2720}},{"type":"Feature","geometry":{"type":"Point","coordinates":[134.91993,34.67902]},"properties":{"name":"江井ヶ島","line":"本線","riders":3775}},{"type":"Feature","geometry":{"type":"Point","coordinates":[134.72259,34.78404]},"properties":{"name":"八家","line":"本線","riders":2407}},{"type":"Feature","geometry":{"type":"Point","coordinates":[134.67675,34.81065]},"properties":{"name":"亀山","line":"本線","riders":2143}},{"type":"Feature","geometry":{"type":"Point","coordinates":[134.68933,34.82879]},"properties":{"name":"山陽姫路","line":"本線","riders":24079}},{"type":"Feature","geometry":{"type":"Point","coordinates":[134.79356,34.75791]},"properties":{"name":"荒井","line":"本線","riders":9372}},{"type":"Feature","geometry":{"type":"Point","coordinates":[134.6814,34.81992]},"properties":{"name":"手柄","line":"本線","riders":2032}},{"type":"Feature","geometry":{"type":"Point","coordinates":[134.98081,34.64957]},"properties":{"name":"西新町","line":"本線","riders":4721}},{"type":"Feature","geometry":{"type":"Point","coordinates":[135.05374,34.62933]},"properties":{"name":"山陽垂水","line":"本線","riders":10048}},{"type":"Feature","geometry":{"type":"Point","coordinates":[135.0084,34.64659]},"properties":{"name":"大蔵谷","line":"本線","riders":1981}},{"type":"Feature","geometry":{"type":"Point","coordinates":[135.0026,34.64754]},"properties":{"name":"人丸前","line":"本線","riders":1294}},{"type":"Feature","geometry":{"type":"Point","coordinates":[135.03385,34.63423]},"properties":{"name":"舞子公園","line":"本線","riders":3663}},{"type":"Feature","geometry":{"type":"Point","coordinates":[135.07292,34.63124]},"properties":{"name":"滝の茶屋","line":"本線","riders":4646}},{"type":"Feature","geometry":{"type":"Point","coordinates":[134.99271,34.64882]},"properties":{"name":"山陽明石","line":"本線","riders":26002}},{"type":"Feature","geometry":{"type":"Point","coordinates":[135.04272,34.63032]},"properties":{"name":"霞ヶ丘","line":"本線","riders":2326}},{"type":"Feature","geometry":{"type":"Point","coordinates":[135.06359,34.62938]},"properties":{"name":"東垂水","line":"本線","riders":1315}},{"type":"Feature","geometry":{"type":"Point","coordinates":[134.96508,34.65228]},"properties":{"name":"林崎松江海岸","line":"本線","riders":4537}},{"type":"Feature","geometry":{"type":"Point","coordinates":[135.08204,34.63361]},"properties":{"name":"山陽塩屋","line":"本線","riders":1264}},{"type":"Feature","geometry":{"type":"Point","coordinates":[135.02813,34.6387]},"properties":{"name":"西舞子","line":"本線","riders":1864}},{"type":"Feature","geometry":{"type":"Point","coordinates":[134.62757,34.79791]},"properties":{"name":"広畑","line":"網干線","riders":1685}},{"type":"Feature","geometry":{"type":"Point","coordinates":[134.60108,34.79074]},"properties":{"name":"平松","line":"網干線","riders":1112}},{"type":"Feature","geometry":{"type":"Point","coordinates":[134.61744,34.79637]},"properties":{"name":"山陽天満","line":"網干線","riders":1857}},{"type":"Feature","geometry":{"type":"Point","coordinates":[134.58819,34.78692]},"properties":{"name":"山陽網干","line":"網干線","riders":3549}},{"type":"Feature","geometry":{"type":"Point","coordinates":[134.6393,34.79841]},"properties":{"name":"夢前川","line":"網干線","riders":1762}},{"type":"Feature","geometry":{"type":"Point","coordinates":[134.65122,34.80304]},"properties":{"name":"西飾磨","line":"網干線","riders":1953}},{"type":"Feature","geometry":{"type":"Point","coordinates":[134.30176,34.25471]},"properties":{"name":"丹生","line":"高徳線","riders":310}},{"type":"Feature","geometry":{"type":"Point","coordinates":[134.24827,34.28827]},"properties":{"name":"讃岐津田","line":"高徳線","riders":1066}},{"type":"Feature","geometry":{"type":"Point","coordinates":[134.42438,34.21192]},"properties":{"name":"讃岐相生","line":"高徳線","riders":38}},{"type":"Feature","geometry":{"type":"Point","coordinates":[134.27397,34.28001]},"properties":{"name":"鶴羽","line":"高徳線","riders":182}},{"type":"Feature","geometry":{"type":"Point","coordinates":[134.33416,34.25174]},"properties":{"name":"三本松","line":"高徳線","riders":1656}},{"type":"Feature","geometry":{"type":"Point","coordinates":[134.40179,34.22436]},"properties":{"name":"引田","line":"高徳線","riders":596}},{"type":"Feature","geometry":{"type":"Point","coordinates":[134.36619,34.24361]},"properties":{"name":"讃岐白鳥","line":"高徳線","riders":498}},{"type":"Feature","geometry":{"type":"Point","coordinates":[134.20892,34.28285]},"properties":{"name":"神前","line":"高徳線","riders":1074}},{"type":"Feature","geometry":{"type":"Point","coordinates":[134.35629,35.36072]},"properties":{"name":"丹比","line":"若桜線","riders":244}},{"type":"Feature","geometry":{"type":"Point","coordinates":[134.39837,35.34524]},"properties":{"name":"若桜","line":"若桜線","riders":341}},{"type":"Feature","geometry":{"type":"Point","coordinates":[134.24615,35.40533]},"properties":{"name":"八頭高校前","line":"若桜線","riders":594}},{"type":"Feature","geometry":{"type":"Point","coordinates":[134.24921,35.3952]},"properties":{"name":"因幡船岡","line":"若桜線","riders":57}},{"type":"Feature","geometry":{"type":"Point","coordinates":[134.25083,35.41281]},"properties":{"name":"郡家","line":"若桜線","riders":2039}},{"type":"Feature","geometry":{"type":"Point","coordinates":[134.31656,35.3636]},"properties":{"name":"八東","line":"若桜線","riders":103}},{"type":"Feature","geometry":{"type":"Point","coordinates":[134.29165,35.37451]},"properties":{"name":"安部","line":"若桜線","riders":54}},{"type":"Feature","geometry":{"type":"Point","coordinates":[134.27037,35.38878]},"properties":{"name":"隼","line":"若桜線","riders":48}},{"type":"Feature","geometry":{"type":"Point","coordinates":[134.33564,35.36441]},"properties":{"name":"徳丸","line":"若桜線","riders":46}},{"type":"Feature","geometry":{"type":"Point","coordinates":[135.07538,34.68164]},"properties":{"name":"総合運動公園","line":"西神延伸線","riders":14932}},{"type":"Feature","geometry":{"type":"Point","coordinates":[135.03019,34.6994]},"properties":{"name":"西神南","line":"西神延伸線","riders":27432}},{"type":"Feature","geometry":{"type":"Point","coordinates":[135.09438,34.67927]},"properties":{"name":"名谷","line":"西神延伸線","riders":54492}},{"type":"Feature","geometry":{"type":"Point","coordinates":[135.05734,34.68144]},"properties":{"name":"学園都市","line":"西神延伸線","riders":37508}},{"type":"Feature","geometry":{"type":"Point","coordinates":[135.04134,34.68787]},"properties":{"name":"伊川谷","line":"西神延伸線","riders":10370}},{"type":"Feature","geometry":{"type":"Point","coordinates":[134.22609,35.49422]},"properties":{"name":"鳥取","line":"因美線","riders":11170}},{"type":"Feature","geometry":{"type":"Point","coordinates":[134.21787,35.37319]},"properties":{"name":"国英","line":"因美線","riders":72}},{"type":"Feature","geometry":{"type":"Point","coordinates":[134.2046,35.34314]},"properties":{"name":"用瀬","line":"因美線","riders":227}},{"type":"Feature","geometry":{"type":"Point","coordinates":[134.2231,35.39754]},"properties":{"name":"河原","line":"因美線","riders":207}},{"type":"Feature","geometry":{"type":"Point","coordinates":[134.20658,35.35437]},"properties":{"name":"鷹狩","line":"因美線","riders":113}},{"type":"Feature","geometry":{"type":"Point","coordinates":[134.2486,35.46115]},"properties":{"name":"津ノ井","line":"因美線","riders":1364}},{"type":"Feature","geometry":{"type":"Point","coordinates":[134.22558,35.2651]},"properties":{"name":"智頭","line":"因美線","riders":2938}},{"type":"Feature","geometry":{"type":"Point","coordinates":[134.20989,35.21376]},"properties":{"name":"那岐","line":"因美線","riders":56}},{"type":"Feature","geometry":{"type":"Point","coordinates":[134.22573,35.233]},"properties":{"name":"土師","line":"因美線","riders":61}},{"type":"Feature","geometry":{"type":"Point","coordinates":[134.25983,35.42916]},"properties":{"name":"東郡家","line":"因美線","riders":211}},{"type":"Feature","geometry":{"type":"Point","coordinates":[135.19139,34.23248]},"properties":{"name":"和歌山","line":"紀勢線","riders":39312}},{"type":"Feature","geometry":{"type":"Point","coordinates":[135.18137,34.24195]},"properties":{"name":"紀和","line":"紀勢線","riders":272}},{"type":"Feature","geometry":{"type":"Point","coordinates":[135.18891,34.21341]},"properties":{"name":"宮前","line":"紀勢線","riders":3334}},{"type":"Feature","geometry":{"type":"Point","coordinates":[135.16691,34.2366]},"properties":{"name":"和歌山市","line":"紀勢線","riders":4340}},{"type":"Feature","geometry":{"type":"Point","coordinates":[135.19019,34.24285]},"properties":{"name":"紀伊中ノ島","line":"阪和線","riders":926}},{"type":"Feature","geometry":{"type":"Point","coordinates":[135.24626,34.26926]},"properties":{"name":"紀伊","line":"阪和線","riders":8571}},{"type":"Feature","geometry":{"type":"Point","coordinates":[135.20738,34.26265]},"properties":{"name":"六十谷","line":"阪和線","riders":7685}},{"type":"Feature","geometry":{"type":"Point","coordinates":[134.62315,35.63556]},"properties":{"name":"香住","line":"山陰線","riders":919}},{"type":"Feature","geometry":{"type":"Point","coordinates":[134.79934,35.58861]},"properties":{"name":"玄武洞","line":"山陰線","riders":98}},{"type":"Feature","geometry":{"type":"Point","coordinates":[134.68583,35.65308]},"properties":{"name":"佐津","line":"山陰線","riders":286}},{"type":"Feature","geometry":{"type":"Point","coordinates":[134.7817,35.41456]},"properties":{"name":"八鹿","line":"山陰線","riders":1274}},{"type":"Feature","geometry":{"type":"Point","coordinates":[134.75646,35.64985]},"properties":{"name":"竹野","line":"山陰線","riders":575}},{"type":"Feature","geometry":{"type":"Point","coordinates":[134.66386,35.64655]},"properties":{"name":"柴山","line":"山陰線","riders":252}},{"type":"Feature","geometry":{"type":"Point","coordinates":[134.77569,35.46942]},"properties":{"name":"江原","line":"山陰線","riders":1307}},{"type":"Feature","geometry":{"type":"Point","coordinates":[134.36235,35.59951]},"properties":{"name":"東浜","line":"山陰線","riders":80}},{"type":"Feature","geometry":{"type":"Point","coordinates":[134.57524,35.65172]},"properties":{"name":"鎧","line":"山陰線","riders":42}},{"type":"Feature","geometry":{"type":"Point","coordinates":[134.28731,35.54558]},"properties":{"name":"福部","line":"山陰線","riders":225}},{"type":"Feature","geometry":{"type":"Point","coordinates":[134.45277,35.62062]},"properties":{"name":"浜坂","line":"山陰線","riders":626}},{"type":"Feature","geometry":{"type":"Point","coordinates":[134.55689,35.6487]},"properties":{"name":"餘部","line":"山陰線","riders":118}},{"type":"Feature","geometry":{"type":"Point","coordinates":[134.5174,35.62758]},"properties":{"name":"久谷","line":"山陰線","riders":30}},{"type":"Feature","geometry":{"type":"Point","coordinates":[134.30856,35.56685]},"properties":{"name":"大岩","line":"山陰線","riders":204}},{"type":"Feature","geometry":{"type":"Point","coordinates":[134.33556,35.57417]},"properties":{"name":"岩美","line":"山陰線","riders":981}},{"type":"Feature","geometry":{"type":"Point","coordinates":[134.43438,35.6196]},"properties":{"name":"諸寄","line":"山陰線","riders":141}},{"type":"Feature","geometry":{"type":"Point","coordinates":[134.39386,35.60701]},"properties":{"name":"居組","line":"山陰線","riders":32}},{"type":"Feature","geometry":{"type":"Point","coordinates":[134.96058,34.66702]},"properties":{"name":"西明石","line":"山陽新幹線","riders":11}},{"type":"Feature","geometry":{"type":"Point","coordinates":[134.69122,34.82637]},"properties":{"name":"姫路","line":"山陽新幹線","riders":11}},{"type":"Feature","geometry":{"type":"Point","coordinates":[134.47436,34.81827]},"properties":{"name":"相生","line":"山陽新幹線","riders":11}},{"type":"Feature","geometry":{"type":"Point","coordinates":[134.69075,34.82674]},"properties":{"name":"姫路","line":"山陽線","riders":103604}},{"type":"Feature","geometry":{"type":"Point","coordinates":[134.75297,34.80556]},"properties":{"name":"ひめじ別所","line":"山陽線","riders":3848}},{"type":"Feature","geometry":{"type":"Point","coordinates":[134.96019,34.66588]},"properties":{"name":"西明石","line":"山陽線","riders":64126}},{"type":"Feature","geometry":{"type":"Point","coordinates":[134.58476,34.81424]},"properties":{"name":"網干","line":"山陽線","riders":15856}},{"type":"Feature","geometry":{"type":"Point","coordinates":[134.64477,34.81337]},"properties":{"name":"英賀保","line":"山陽線","riders":9246}},{"type":"Feature","geometry":{"type":"Point","coordinates":[134.90611,34.69644]},"properties":{"name":"魚住","line":"山陽線","riders":23080}},{"type":"Feature","geometry":{"type":"Point","coordinates":[134.76992,34.79325]},"properties":{"name":"曽根","line":"山陽線","riders":8598}},{"type":"Feature","geometry":{"type":"Point","coordinates":[134.73533,34.817]},"properties":{"name":"御着","line":"山陽線","riders":5800}},{"type":"Feature","geometry":{"type":"Point","coordinates":[134.93917,34.68198]},"properties":{"name":"大久保","line":"山陽線","riders":40002}},{"type":"Feature","geometry":{"type":"Point","coordinates":[135.05385,34.62909]},"properties":{"name":"垂水","line":"山陽線","riders":69287}},{"type":"Feature","geometry":{"type":"Point","coordinates":[134.99318,34.64903]},"properties":{"name":"明石","line":"山陽線","riders":106972}},{"type":"Feature","geometry":{"type":"Point","coordinates":[135.03423,34.63325]},"properties":{"name":"舞子","line":"山陽線","riders":40704}},{"type":"Feature","geometry":{"type":"Point","coordinates":[135.01748,34.64424]},"properties":{"name":"朝霧","line":"山陽線","riders":34511}},{"type":"Feature","geometry":{"type":"Point","coordinates":[135.08328,34.63372]},"properties":{"name":"塩屋","line":"山陽線","riders":14273}},{"type":"Feature","geometry":{"type":"Point","coordinates":[134.47347,34.81799]},"properties":{"name":"相生","line":"山陽線","riders":9265}},{"type":"Feature","geometry":{"type":"Point","coordinates":[134.2763,34.805]},"properties":{"name":"三石","line":"山陽線","riders":424}},{"type":"Feature","geometry":{"type":"Point","coordinates":[134.20441,34.81224]},"properties":{"name":"吉永","line":"山陽線","riders":978}},{"type":"Feature","geometry":{"type":"Point","coordinates":[134.52196,34.82546]},"properties":{"name":"竜野","line":"山陽線","riders":4408}},{"type":"Feature","geometry":{"type":"Point","coordinates":[134.39556,34.82927]},"properties":{"name":"有年","line":"山陽線","riders":616}},{"type":"Feature","geometry":{"type":"Point","coordinates":[134.35328,34.86615]},"properties":{"name":"上郡","line":"山陽線","riders":6224}},{"type":"Feature","geometry":{"type":"Point","coordinates":[134.35142,34.74906]},"properties":{"name":"天和","line":"赤穂線","riders":524}},{"type":"Feature","geometry":{"type":"Point","coordinates":[134.22453,34.74156]},"properties":{"name":"伊里","line":"赤穂線","riders":572}},{"type":"Feature","geometry":{"type":"Point","coordinates":[134.27651,34.73516]},"properties":{"name":"日生","line":"赤穂線","riders":734}},{"type":"Feature","geometry":{"type":"Point","coordinates":[134.39305,34.75663]},"properties":{"name":"播州赤穂","line":"赤穂線","riders":8275}},{"type":"Feature","geometry":{"type":"Point","coordinates":[134.33168,34.7467]},"properties":{"name":"備前福河","line":"赤穂線","riders":101}},{"type":"Feature","geometry":{"type":"Point","coordinates":[134.45072,34.80141]},"properties":{"name":"西相生","line":"赤穂線","riders":1822}},{"type":"Feature","geometry":{"type":"Point","coordinates":[134.41736,34.76872]},"properties":{"name":"坂越","line":"赤穂線","riders":1416}},{"type":"Feature","geometry":{"type":"Point","coordinates":[134.29773,34.74616]},"properties":{"name":"寒河","line":"赤穂線","riders":368}},{"type":"Feature","geometry":{"type":"Point","coordinates":[134.75476,35.0237]},"properties":{"name":"鶴居","line":"播但線","riders":517}},{"type":"Feature","geometry":{"type":"Point","coordinates":[134.79521,35.23658]},"properties":{"name":"新井","line":"播但線","riders":289}},{"type":"Feature","geometry":{"type":"Point","coordinates":[134.75258,35.05023]},"properties":{"name":"新野","line":"播但線","riders":1208}},{"type":"Feature","geometry":{"type":"Point","coordinates":[134.7432,35.0653]},"properties":{"name":"寺前","line":"播但線","riders":909}},{"type":"Feature","geometry":{"type":"Point","coordinates":[134.78913,35.16322]},"properties":{"name":"生野","line":"播但線","riders":587}},{"type":"Feature","geometry":{"type":"Point","coordinates":[134.75856,34.98815]},"properties":{"name":"甘地","line":"播但線","riders":1949}},{"type":"Feature","geometry":{"type":"Point","coordinates":[134.74814,35.11704]},"properties":{"name":"長谷","line":"播但線","riders":53}},{"type":"Feature","geometry":{"type":"Point","coordinates":[134.74239,34.92792]},"properties":{"name":"溝口","line":"播但線","riders":3496}},{"type":"Feature","geometry":{"type":"Point","coordinates":[134.71133,34.85619]},"properties":{"name":"野里","line":"播但線","riders":3910}},{"type":"Feature","geometry":{"type":"Point","coordinates":[134.70544,34.83477]},"properties":{"name":"京口","line":"播但線","riders":2244}},{"type":"Feature","geometry":{"type":"Point","coordinates":[134.73591,34.91136]},"properties":{"name":"香呂","line":"播但線","riders":3373}},{"type":"Feature","geometry":{"type":"Point","coordinates":[134.72807,34.88505]},"properties":{"name":"仁豊野","line":"播但線","riders":2158}},{"type":"Feature","geometry":{"type":"Point","coordinates":[134.75104,34.96104]},"properties":{"name":"福崎","line":"播但線","riders":3643}},{"type":"Feature","geometry":{"type":"Point","coordinates":[134.72487,34.86642]},"properties":{"name":"砥堀","line":"播但線","riders":1432}},{"type":"Feature","geometry":{"type":"Point","coordinates":[134.69039,34.82755]},"properties":{"name":"姫路","line":"播但線","riders":11}},{"type":"Feature","geometry":{"type":"Point","coordinates":[134.65872,34.84199]},"properties":{"name":"播磨高岡","line":"姫新線","riders":3462}},{"type":"Feature","geometry":{"type":"Point","coordinates":[134.60712,34.86402]},"properties":{"name":"太市","line":"姫新線","riders":847}},{"type":"Feature","geometry":{"type":"Point","coordinates":[134.64276,34.85625]},"properties":{"name":"余部","line":"姫新線","riders":4529}},{"type":"Feature","geometry":{"type":"Point","coordinates":[134.55534,34.86268]},"properties":{"name":"本竜野","line":"姫新線","riders":3934}},{"type":"Feature","geometry":{"type":"Point","coordinates":[134.4706,34.95244]},"properties":{"name":"西栗栖","line":"姫新線","riders":231}},{"type":"Feature","geometry":{"type":"Point","coordinates":[134.38568,34.99045]},"properties":{"name":"播磨徳久","line":"姫新線","riders":270}},{"type":"Feature","geometry":{"type":"Point","coordinates":[134.25995,34.99518]},"properties":{"name":"美作土居","line":"姫新線","riders":83}},{"type":"Feature","geometry":{"type":"Point","coordinates":[134.32252,34.98347]},"properties":{"name":"上月","line":"姫新線","riders":98}},{"type":"Feature","geometry":{"type":"Point","coordinates":[134.55768,34.88759]},"properties":{"name":"東觜崎","line":"姫新線","riders":936}},{"type":"Feature","geometry":{"type":"Point","coordinates":[134.35665,35.00368]},"properties":{"name":"佐用","line":"姫新線","riders":1329}},{"type":"Feature","geometry":{"type":"Point","coordinates":[134.49436,34.9425]},"properties":{"name":"千本","line":"姫新線","riders":82}},{"type":"Feature","geometry":{"type":"Point","coordinates":[134.21962,35.01322]},"properties":{"name":"美作江見","line":"姫新線","riders":136}},{"type":"Feature","geometry":{"type":"Point","coordinates":[134.43535,34.98483]},"properties":{"name":"三日月","line":"姫新線","riders":280}},{"type":"Feature","geometry":{"type":"Point","coordinates":[134.54587,34.92139]},"properties":{"name":"播磨新宮","line":"姫新線","riders":2518}},{"type":"Feature","geometry":{"type":"Point","coordinates":[135.49385,34.2986]},"properties":{"name":"大谷","line":"和歌山線","riders":253}},{"type":"Feature","geometry":{"type":"Point","coordinates":[135.43368,34.27295]},"properties":{"name":"名手","line":"和歌山線","riders":1116}},{"type":"Feature","geometry":{"type":"Point","coordinates":[135.32128,34.25502]},"properties":{"name":"岩出","line":"和歌山線","riders":4134}},{"type":"Feature","geometry":{"type":"Point","coordinates":[135.22944,34.24207]},"properties":{"name":"田井ノ瀬","line":"和歌山線","riders":674}},{"type":"Feature","geometry":{"type":"Point","coordinates":[135.4042,34.27072]},"properties":{"name":"粉河","line":"和歌山線","riders":2229}},{"type":"Feature","geometry":{"type":"Point","coordinates":[135.26167,34.24445]},"properties":{"name":"布施屋","line":"和歌山線","riders":729}},{"type":"Feature","geometry":{"type":"Point","coordinates":[135.34019,34.26201]},"properties":{"name":"下井阪","line":"和歌山線","riders":978}},{"type":"Feature","geometry":{"type":"Point","coordinates":[135.39156,34.26826]},"properties":{"name":"紀伊長田","line":"和歌山線","riders":264}},{"type":"Feature","geometry":{"type":"Point","coordinates":[135.31124,34.24831]},"properties":{"name":"船戸","line":"和歌山線","riders":530}},{"type":"Feature","geometry":{"type":"Point","coordinates":[135.24567,34.24165]},"properties":{"name":"千旦","line":"和歌山線","riders":416}},{"type":"Feature","geometry":{"type":"Point","coordinates":[135.28742,34.24637]},"properties":{"name":"紀伊小倉","line":"和歌山線","riders":1499}},{"type":"Feature","geometry":{"type":"Point","coordinates":[135.36417,34.26515]},"properties":{"name":"打田","line":"和歌山線","riders":1238}},{"type":"Feature","geometry":{"type":"Point","coordinates":[135.4799,34.29206]},"properties":{"name":"笠田","line":"和歌山線","riders":1607}},{"type":"Feature","geometry":{"type":"Point","coordinates":[135.45263,34.28012]},"properties":{"name":"西笠田","line":"和歌山線","riders":108}},{"type":"Feature","geometry":{"type":"Point","coordinates":[134.33578,35.16035]},"properties":{"name":"西粟倉","line":"智頭線","riders":15}},{"type":"Feature","geometry":{"type":"Point","coordinates":[134.32783,35.12391]},"properties":{"name":"大原","line":"智頭線","riders":132}},{"type":"Feature","geometry":{"type":"Point","coordinates":[134.35266,34.91881]},"properties":{"name":"河野原円心","line":"智頭線","riders":12}},{"type":"Feature","geometry":{"type":"Point","coordinates":[134.35772,35.08192]},"properties":{"name":"石井","line":"智頭線","riders":12}},{"type":"Feature","geometry":{"type":"Point","coordinates":[134.28875,35.2327]},"properties":{"name":"山郷","line":"智頭線","riders":15}},{"type":"Feature","geometry":{"type":"Point","coordinates":[134.33048,35.10185]},"properties":{"name":"宮本武蔵","line":"智頭線","riders":12}},{"type":"Feature","geometry":{"type":"Point","coordinates":[134.33694,35.18851]},"properties":{"name":"あわくら温泉","line":"智頭線","riders":18}},{"type":"Feature","geometry":{"type":"Point","coordinates":[134.34419,34.96069]},"properties":{"name":"久崎","line":"智頭線","riders":80}},{"type":"Feature","geometry":{"type":"Point","coordinates":[134.37187,35.04369]},"properties":{"name":"平福","line":"智頭線","riders":26}},{"type":"Feature","geometry":{"type":"Point","coordinates":[134.35388,34.89639]},"properties":{"name":"苔縄","line":"智頭線","riders":16}},{"type":"Feature","geometry":{"type":"Point","coordinates":[134.27909,35.25588]},"properties":{"name":"恋山形","line":"智頭線","riders":12}},{"type":"Feature","geometry":{"type":"Point","coordinates":[135.1659,34.25493]},"properties":{"name":"紀ノ川","line":"加太線","riders":2968}},{"type":"Feature","geometry":{"type":"Point","coordinates":[135.09462,34.26049]},"properties":{"name":"磯ノ浦","line":"加太線","riders":144}},{"type":"Feature","geometry":{"type":"Point","coordinates":[135.1218,34.25254]},"properties":{"name":"八幡前","line":"加太線","riders":1761}},{"type":"Feature","geometry":{"type":"Point","coordinates":[135.11079,34.25546]},"properties":{"name":"西ノ庄","line":"加太線","riders":717}},{"type":"Feature","geometry":{"type":"Point","coordinates":[135.08077,34.27531]},"properties":{"name":"加太","line":"加太線","riders":781}},{"type":"Feature","geometry":{"type":"Point","coordinates":[135.10416,34.25753]},"properties":{"name":"二里ヶ浜","line":"加太線","riders":440}},{"type":"Feature","geometry":{"type":"Point","coordinates":[135.13295,34.24873]},"properties":{"name":"中松江","line":"加太線","riders":1071}},{"type":"Feature","geometry":{"type":"Point","coordinates":[135.14112,34.24777]},"properties":{"name":"東松江","line":"加太線","riders":1042}},{"type":"Feature","geometry":{"type":"Point","coordinates":[135.16538,34.23604]},"properties":{"name":"和歌山市","line":"南海本線","riders":17964}},{"type":"Feature","geometry":{"type":"Point","coordinates":[135.15104,34.29067]},"properties":{"name":"孝子","line":"南海本線","riders":172}},{"type":"Feature","geometry":{"type":"Point","coordinates":[135.14648,34.21728]},"properties":{"name":"和歌山港","line":"和歌山港線","riders":504}},{"type":"Feature","geometry":{"type":"Point","coordinates":[135.30137,34.2133]},"properties":{"name":"甘露寺前","line":"貴志川線","riders":649}},{"type":"Feature","geometry":{"type":"Point","coordinates":[135.29093,34.20956]},"properties":{"name":"西山口","line":"貴志川線","riders":351}},{"type":"Feature","geometry":{"type":"Point","coordinates":[135.21837,34.20388]},"properties":{"name":"交通センター前","line":"貴志川線","riders":359}},{"type":"Feature","geometry":{"type":"Point","coordinates":[135.20186,34.22642]},"properties":{"name":"日前宮","line":"貴志川線","riders":777}},{"type":"Feature","geometry":{"type":"Point","coordinates":[135.25173,34.20412]},"properties":{"name":"伊太祈曽","line":"貴志川線","riders":872}},{"type":"Feature","geometry":{"type":"Point","coordinates":[135.2251,34.20347]},"properties":{"name":"岡崎前","line":"貴志川線","riders":1065}},{"type":"Feature","geometry":{"type":"Point","coordinates":[135.26218,34.20576]},"properties":{"name":"山東","line":"貴志川線","riders":121}},{"type":"Feature","geometry":{"type":"Point","coordinates":[135.20723,34.20723]},"properties":{"name":"竈山","line":"貴志川線","riders":564}},{"type":"Feature","geometry":{"type":"Point","coordinates":[135.23594,34.20332]},"properties":{"name":"吉礼","line":"貴志川線","riders":625}},{"type":"Feature","geometry":{"type":"Point","coordinates":[135.31185,34.2094]},"properties":{"name":"貴志","line":"貴志川線","riders":1507}},{"type":"Feature","geometry":{"type":"Point","coordinates":[135.2051,34.21299]},"properties":{"name":"神前","line":"貴志川線","riders":756}},{"type":"Feature","geometry":{"type":"Point","coordinates":[135.19294,34.22722]},"properties":{"name":"田中口","line":"貴志川線","riders":185}},{"type":"Feature","geometry":{"type":"Point","coordinates":[135.19187,34.23231]},"properties":{"name":"和歌山","line":"貴志川線","riders":5298}},{"type":"Feature","geometry":{"type":"Point","coordinates":[135.28532,34.20463]},"properties":{"name":"大池遊園","line":"貴志川線","riders":235}},{"type":"Feature","geometry":{"type":"Point","coordinates":[134.61428,34.81016]},"properties":{"name":"はりま勝原","line":"山陽線","riders":11014}},{"type":"Feature","geometry":{"type":"Point","coordinates":[135.14698,34.27638]},"properties":{"name":"和歌山大学前","line":"南海本線","riders":9659}},{"type":"Feature","geometry":{"type":"Point","coordinates":[134.71185,34.82438]},"properties":{"name":"東姫路","line":"山陽線","riders":2826}}]}