{"type":"FeatureCollection","features":[{"type":"Feature","geometry":{"type":"Point","coordinates":[138.22114,35.21227]},"properties":{"name":"井川","line":"井川線","riders":238}},{"type":"Feature","geometry":{"type":"Point","coordinates":[138.93422,35.29995]},"properties":{"name":"御殿場","line":"御殿場線","riders":9896}},{"type":"Feature","geometry":{"type":"Point","coordinates":[138.91964,35.25489]},"properties":{"name":"富士岡","line":"御殿場線","riders":2241}},{"type":"Feature","geometry":{"type":"Point","coordinates":[138.99758,35.35924]},"properties":{"name":"駿河小山","line":"御殿場線","riders":774}},{"type":"Feature","geometry":{"type":"Point","coordinates":[138.92572,35.27723]},"properties":{"name":"南御殿場","line":"御殿場線","riders":654}},{"type":"Feature","geometry":{"type":"Point","coordinates":[138.91926,35.21513]},"properties":{"name":"岩波","line":"御殿場線","riders":4189}},{"type":"Feature","geometry":{"type":"Point","coordinates":[138.98175,35.33207]},"properties":{"name":"足柄","line":"御殿場線","riders":899}},{"type":"Feature","geometry":{"type":"Point","coordinates":[138.55205,35.63056]},"properties":{"name":"国母","line":"身延線","riders":847}},{"type":"Feature","geometry":{"type":"Point","coordinates":[138.51126,35.56307]},"properties":{"name":"芦川","line":"身延線","riders":159}},{"type":"Feature","geometry":{"type":"Point","coordinates":[138.53312,35.61704]},"properties":{"name":"常永","line":"身延線","riders":883}},{"type":"Feature","geometry":{"type":"Point","coordinates":[138.47125,35.50358]},"properties":{"name":"落居","line":"身延線","riders":50}},{"type":"Feature","geometry":{"type":"Point","coordinates":[138.46308,35.49251]},"properties":{"name":"甲斐岩間","line":"身延線","riders":207}},{"type":"Feature","geometry":{"type":"Point","coordinates":[138.52702,35.59485]},"properties":{"name":"東花輪","line":"身延線","riders":1401}},{"type":"Feature","geometry":{"type":"Point","coordinates":[138.52062,35.56958]},"properties":{"name":"甲斐上野","line":"身延線","riders":141}},{"type":"Feature","geometry":{"type":"Point","coordinates":[138.52855,35.60453]},"properties":{"name":"小井川","line":"身延線","riders":453}},{"type":"Feature","geometry":{"type":"Point","coordinates":[138.57887,35.66222]},"properties":{"name":"金手","line":"身延線","riders":125}},{"type":"Feature","geometry":{"type":"Point","coordinates":[138.57824,35.64379]},"properties":{"name":"南甲府","line":"身延線","riders":1004}},{"type":"Feature","geometry":{"type":"Point","coordinates":[138.4932,35.56047]},"properties":{"name":"市川大門","line":"身延線","riders":902}},{"type":"Feature","geometry":{"type":"Point","coordinates":[138.47088,35.54142]},"properties":{"name":"鰍沢口","line":"身延線","riders":214}},{"type":"Feature","geometry":{"type":"Point","coordinates":[138.50202,35.56063]},"properties":{"name":"市川本町","line":"身延線","riders":488}},{"type":"Feature","geometry":{"type":"Point","coordinates":[138.57036,35.66654]},"properties":{"name":"甲府","line":"身延線","riders":11}},{"type":"Feature","geometry":{"type":"Point","coordinates":[138.58922,35.65984]},"properties":{"name":"善光寺","line":"身延線","riders":817}},{"type":"Feature","geometry":{"type":"Point","coordinates":[138.56994,35.63659]},"properties":{"name":"甲斐住吉","line":"身延線","riders":959}},{"type":"Feature","geometry":{"type":"Point","coordinates":[138.61548,35.2212]},"properties":{"name":"富士宮","line":"身延線","riders":4788}},{"type":"Feature","geometry":{"type":"Point","coordinates":[138.63561,35.20527]},"properties":{"name":"富士根","line":"身延線","riders":903}},{"type":"Feature","geometry":{"type":"Point","coordinates":[138.47697,35.44468]},"properties":{"name":"甲斐常葉","line":"身延線","riders":50}},{"type":"Feature","geometry":{"type":"Point","coordinates":[138.46743,35.4815]},"properties":{"name":"久那土","line":"身延線","riders":262}},{"type":"Feature","geometry":{"type":"Point","coordinates":[138.51587,35.23019]},"properties":{"name":"十島","line":"身延線","riders":73}},{"type":"Feature","geometry":{"type":"Point","coordinates":[138.47499,35.26484]},"properties":{"name":"寄畑","line":"身延線","riders":29}},{"type":"Feature","geometry":{"type":"Point","coordinates":[138.49099,35.24746]},"properties":{"name":"井出","line":"身延線","riders":69}},{"type":"Feature","geometry":{"type":"Point","coordinates":[138.47247,35.42579]},"properties":{"name":"下部温泉","line":"身延線","riders":172}},{"type":"Feature","geometry":{"type":"Point","coordinates":[138.46503,35.28221]},"properties":{"name":"内船","line":"身延線","riders":239}},{"type":"Feature","geometry":{"type":"Point","coordinates":[138.45306,35.36145]},"properties":{"name":"身延","line":"身延線","riders":547}},{"type":"Feature","geometry":{"type":"Point","coordinates":[138.48213,35.46234]},"properties":{"name":"市ノ瀬","line":"身延線","riders":11}},{"type":"Feature","geometry":{"type":"Point","coordinates":[138.60253,35.22545]},"properties":{"name":"西富士宮","line":"身延線","riders":2474}},{"type":"Feature","geometry":{"type":"Point","coordinates":[138.4539,35.37967]},"properties":{"name":"塩之沢","line":"身延線","riders":11}},{"type":"Feature","geometry":{"type":"Point","coordinates":[138.53693,35.23054]},"properties":{"name":"稲子","line":"身延線","riders":15}},{"type":"Feature","geometry":{"type":"Point","coordinates":[138.62712,35.21449]},"properties":{"name":"源道寺","line":"身延線","riders":1567}},{"type":"Feature","geometry":{"type":"Point","coordinates":[138.45971,35.41851]},"properties":{"name":"波高島","line":"身延線","riders":58}},{"type":"Feature","geometry":{"type":"Point","coordinates":[138.45214,35.32817]},"properties":{"name":"甲斐大島","line":"身延線","riders":12}},{"type":"Feature","geometry":{"type":"Point","coordinates":[138.31675,35.86373]},"properties":{"name":"小淵沢","line":"小海線","riders":3224}},{"type":"Feature","geometry":{"type":"Point","coordinates":[138.40967,35.89632]},"properties":{"name":"甲斐大泉","line":"小海線","riders":180}},{"type":"Feature","geometry":{"type":"Point","coordinates":[138.52708,35.97588]},"properties":{"name":"信濃川上","line":"小海線","riders":254}},{"type":"Feature","geometry":{"type":"Point","coordinates":[138.43663,35.91915]},"properties":{"name":"清里","line":"小海線","riders":542}},{"type":"Feature","geometry":{"type":"Point","coordinates":[138.47449,35.95532]},"properties":{"name":"野辺山","line":"小海線","riders":394}},{"type":"Feature","geometry":{"type":"Point","coordinates":[138.35939,35.87956]},"properties":{"name":"甲斐小泉","line":"小海線","riders":11}},{"type":"Feature","geometry":{"type":"Point","coordinates":[138.88371,35.59435]},"properties":{"name":"初狩","line":"中央線","riders":786}},{"type":"Feature","geometry":{"type":"Point","coordinates":[138.23786,35.91226]},"properties":{"name":"富士見","line":"中央線","riders":1934}},{"type":"Feature","geometry":{"type":"Point","coordinates":[138.21179,35.93046]},"properties":{"name":"すずらんの里","line":"中央線","riders":11}},{"type":"Feature","geometry":{"type":"Point","coordinates":[138.56876,35.66712]},"properties":{"name":"甲府","line":"中央線","riders":30330}},{"type":"Feature","geometry":{"type":"Point","coordinates":[138.65898,35.67347]},"properties":{"name":"春日居町","line":"中央線","riders":11}},{"type":"Feature","geometry":{"type":"Point","coordinates":[138.45135,35.70969]},"properties":{"name":"韮崎","line":"中央線","riders":5372}},{"type":"Feature","geometry":{"type":"Point","coordinates":[138.82525,35.60396]},"properties":{"name":"笹子","line":"中央線","riders":11}},{"type":"Feature","geometry":{"type":"Point","coordinates":[138.39428,35.79073]},"properties":{"name":"日野春","line":"中央線","riders":1218}},{"type":"Feature","geometry":{"type":"Point","coordinates":[138.70306,35.69434]},"properties":{"name":"東山梨","line":"中央線","riders":11}},{"type":"Feature","geometry":{"type":"Point","coordinates":[138.59952,35.65954]},"properties":{"name":"酒折","line":"中央線","riders":4566}},{"type":"Feature","geometry":{"type":"Point","coordinates":[138.27553,35.8849]},"properties":{"name":"信濃境","line":"中央線","riders":382}},{"type":"Feature","geometry":{"type":"Point","coordinates":[138.48776,35.68779]},"properties":{"name":"塩崎","line":"中央線","riders":2246}},{"type":"Feature","geometry":{"type":"Point","coordinates":[138.43318,35.73691]},"properties":{"name":"新府","line":"中央線","riders":11}},{"type":"Feature","geometry":{"type":"Point","coordinates":[138.36665,35.82743]},"properties":{"name":"長坂","line":"中央線","riders":2278}},{"type":"Feature","geometry":{"type":"Point","coordinates":[138.78145,35.63942]},"properties":{"name":"甲斐大和","line":"中央線","riders":292}},{"type":"Feature","geometry":{"type":"Point","coordinates":[138.41389,35.75103]},"properties":{"name":"穴山","line":"中央線","riders":11}},{"type":"Feature","geometry":{"type":"Point","coordinates":[138.63448,35.65752]},"properties":{"name":"石和温泉","line":"中央線","riders":5956}},{"type":"Feature","geometry":{"type":"Point","coordinates":[138.51935,35.66868]},"properties":{"name":"竜王","line":"中央線","riders":4818}},{"type":"Feature","geometry":{"type":"Point","coordinates":[138.74326,35.67296]},"properties":{"name":"勝沼ぶどう郷","line":"中央線","riders":970}},{"type":"Feature","geometry":{"type":"Point","coordinates":[138.68284,35.68503]},"properties":{"name":"山梨市","line":"中央線","riders":3676}},{"type":"Feature","geometry":{"type":"Point","coordinates":[138.79483,35.48359]},"properties":{"name":"富士山","line":"河口湖線","riders":1739}},{"type":"Feature","geometry":{"type":"Point","coordinates":[138.78182,35.48954]},"properties":{"name":"富士急ハイランド","line":"河口湖線","riders":1322}},{"type":"Feature","geometry":{"type":"Point","coordinates":[138.76938,35.49798]},"properties":{"name":"河口湖","line":"河口湖線","riders":3374}},{"type":"Feature","geometry":{"type":"Point","coordinates":[138.81217,35.50216]},"properties":{"name":"葭池温泉前","line":"大月線","riders":142}},{"type":"Feature","geometry":{"type":"Point","coordinates":[138.80376,35.49797]},"properties":{"name":"下吉田","line":"大月線","riders":896}},{"type":"Feature","geometry":{"type":"Point","coordinates":[138.84537,35.52425]},"properties":{"name":"三つ峠","line":"大月線","riders":549}},{"type":"Feature","geometry":{"type":"Point","coordinates":[138.87045,35.53625]},"properties":{"name":"東桂","line":"大月線","riders":554}},{"type":"Feature","geometry":{"type":"Point","coordinates":[138.82557,35.50845]},"properties":{"name":"寿","line":"大月線","riders":404}},{"type":"Feature","geometry":{"type":"Point","coordinates":[138.79798,35.49332]},"properties":{"name":"月江寺","line":"大月線","riders":593}},{"type":"Feature","geometry":{"type":"Point","coordinates":[138.89663,35.54259]},"properties":{"name":"都留文科大学前","line":"大月線","riders":1891}},{"type":"Feature","geometry":{"type":"Point","coordinates":[138.88746,35.53887]},"properties":{"name":"十日市場","line":"大月線","riders":249}}]}