{"type":"FeatureCollection","features":[{"type":"Feature","geometry":{"type":"Point","coordinates":[137.15354,35.08788]},"properties":{"name":"新豊田","line":"愛知環状鉄道線","riders":15694}},{"type":"Feature","geometry":{"type":"Point","coordinates":[137.15474,34.98258]},"properties":{"name":"大門","line":"愛知環状鉄道線","riders":2858}},{"type":"Feature","geometry":{"type":"Point","coordinates":[137.13898,35.02747]},"properties":{"name":"永覚","line":"愛知環状鉄道線","riders":628}},{"type":"Feature","geometry":{"type":"Point","coordinates":[137.15118,35.07179]},"properties":{"name":"新上挙母","line":"愛知環状鉄道線","riders":1639}},{"type":"Feature","geometry":{"type":"Point","coordinates":[137.1469,35.03954]},"properties":{"name":"末野原","line":"愛知環状鉄道線","riders":2567}},{"type":"Feature","geometry":{"type":"Point","coordinates":[137.13276,35.01241]},"properties":{"name":"三河上郷","line":"愛知環状鉄道線","riders":2075}},{"type":"Feature","geometry":{"type":"Point","coordinates":[137.13949,34.99629]},"properties":{"name":"北野桝塚","line":"愛知環状鉄道線","riders":2394}},{"type":"Feature","geometry":{"type":"Point","coordinates":[137.15093,35.05544]},"properties":{"name":"三河豊田","line":"愛知環状鉄道線","riders":14918}},{"type":"Feature","geometry":{"type":"Point","coordinates":[137.1577,34.97226]},"properties":{"name":"北岡崎","line":"愛知環状鉄道線","riders":3714}},{"type":"Feature","geometry":{"type":"Point","coordinates":[137.15723,34.92578]},"properties":{"name":"岡崎","line":"愛知環状鉄道線","riders":48153}},{"type":"Feature","geometry":{"type":"Point","coordinates":[137.15278,34.95634]},"properties":{"name":"中岡崎","line":"愛知環状鉄道線","riders":4159}},{"type":"Feature","geometry":{"type":"Point","coordinates":[137.15188,34.94129]},"properties":{"name":"六名","line":"愛知環状鉄道線","riders":1619}},{"type":"Feature","geometry":{"type":"Point","coordinates":[136.53099,34.78099]},"properties":{"name":"河芸","line":"伊勢線","riders":134}},{"type":"Feature","geometry":{"type":"Point","coordinates":[136.54248,34.80034]},"properties":{"name":"伊勢上野","line":"伊勢線","riders":140}},{"type":"Feature","geometry":{"type":"Point","coordinates":[136.55522,34.8411]},"properties":{"name":"鈴鹿サーキット稲生","line":"伊勢線","riders":270}},{"type":"Feature","geometry":{"type":"Point","coordinates":[136.54305,34.81215]},"properties":{"name":"中瀬古","line":"伊勢線","riders":287}},{"type":"Feature","geometry":{"type":"Point","coordinates":[136.5888,34.87847]},"properties":{"name":"鈴鹿","line":"伊勢線","riders":577}},{"type":"Feature","geometry":{"type":"Point","coordinates":[136.57003,34.85514]},"properties":{"name":"玉垣","line":"伊勢線","riders":471}},{"type":"Feature","geometry":{"type":"Point","coordinates":[136.54399,34.82614]},"properties":{"name":"徳田","line":"伊勢線","riders":65}},{"type":"Feature","geometry":{"type":"Point","coordinates":[136.59928,34.91124]},"properties":{"name":"河原田","line":"伊勢線","riders":258}},{"type":"Feature","geometry":{"type":"Point","coordinates":[136.5121,34.75874]},"properties":{"name":"東一身田","line":"伊勢線","riders":141}},{"type":"Feature","geometry":{"type":"Point","coordinates":[136.51072,34.73437]},"properties":{"name":"津","line":"伊勢線","riders":35056}},{"type":"Feature","geometry":{"type":"Point","coordinates":[136.54175,34.99647]},"properties":{"name":"桜","line":"湯の山線","riders":3700}},{"type":"Feature","geometry":{"type":"Point","coordinates":[136.55446,34.9832]},"properties":{"name":"高角","line":"湯の山線","riders":1065}},{"type":"Feature","geometry":{"type":"Point","coordinates":[136.50424,35.0123]},"properties":{"name":"中菰野","line":"湯の山線","riders":1049}},{"type":"Feature","geometry":{"type":"Point","coordinates":[136.56695,34.97766]},"properties":{"name":"伊勢川島","line":"湯の山線","riders":2354}},{"type":"Feature","geometry":{"type":"Point","coordinates":[136.51736,35.00872]},"properties":{"name":"菰野","line":"湯の山線","riders":2521}},{"type":"Feature","geometry":{"type":"Point","coordinates":[136.59073,34.96963]},"properties":{"name":"伊勢松本","line":"湯の山線","riders":2599}},{"type":"Feature","geometry":{"type":"Point","coordinates":[136.60323,34.96932]},"properties":{"name":"中川原","line":"湯の山線","riders":1658}},{"type":"Feature","geometry":{"type":"Point","coordinates":[136.61835,34.9664]},"properties":{"name":"近鉄四日市","line":"湯の山線","riders":12}},{"type":"Feature","geometry":{"type":"Point","coordinates":[136.59224,34.92867]},"properties":{"name":"小古曽","line":"内部線","riders":325}},{"type":"Feature","geometry":{"type":"Point","coordinates":[136.61043,34.95923]},"properties":{"name":"赤堀","line":"内部線","riders":553}},{"type":"Feature","geometry":{"type":"Point","coordinates":[136.59614,34.93391]},"properties":{"name":"追分","line":"内部線","riders":989}},{"type":"Feature","geometry":{"type":"Point","coordinates":[136.60102,34.94991]},"properties":{"name":"南日永","line":"内部線","riders":1045}},{"type":"Feature","geometry":{"type":"Point","coordinates":[136.59848,34.9404]},"properties":{"name":"泊","line":"内部線","riders":938}},{"type":"Feature","geometry":{"type":"Point","coordinates":[136.60435,34.95596]},"properties":{"name":"日永","line":"内部線","riders":1018}},{"type":"Feature","geometry":{"type":"Point","coordinates":[136.58695,34.92553]},"properties":{"name":"内部","line":"内部線","riders":1235}},{"type":"Feature","geometry":{"type":"Point","coordinates":[136.61857,34.96697]},"properties":{"name":"あすなろう四日市","line":"内部線","riders":45694}},{"type":"Feature","geometry":{"type":"Point","coordinates":[136.59119,34.95295]},"properties":{"name":"西日野","line":"八王子線","riders":2881}},{"type":"Feature","geometry":{"type":"Point","coordinates":[136.66887,35.03825]},"properties":{"name":"伊勢朝日","line":"名古屋線","riders":3996}},{"type":"Feature","geometry":{"type":"Point","coordinates":[136.69608,35.09763]},"properties":{"name":"近鉄長島","line":"名古屋線","riders":2963}},{"type":"Feature","geometry":{"type":"Point","coordinates":[136.64938,35.00647]},"properties":{"name":"近鉄富田","line":"名古屋線","riders":28849}},{"type":"Feature","geometry":{"type":"Point","coordinates":[136.67858,35.05779]},"properties":{"name":"益生","line":"名古屋線","riders":2665}},{"type":"Feature","geometry":{"type":"Point","coordinates":[136.62331,34.9773]},"properties":{"name":"川原町","line":"名古屋線","riders":1800}},{"type":"Feature","geometry":{"type":"Point","coordinates":[136.63692,34.99343]},"properties":{"name":"霞ヶ浦","line":"名古屋線","riders":3680}},{"type":"Feature","geometry":{"type":"Point","coordinates":[136.65976,35.01624]},"properties":{"name":"川越富洲原","line":"名古屋線","riders":6257}},{"type":"Feature","geometry":{"type":"Point","coordinates":[136.62943,34.98522]},"properties":{"name":"阿倉川","line":"名古屋線","riders":4389}},{"type":"Feature","geometry":{"type":"Point","coordinates":[136.68338,35.06697]},"properties":{"name":"桑名","line":"名古屋線","riders":38703}},{"type":"Feature","geometry":{"type":"Point","coordinates":[136.53253,34.7707]},"properties":{"name":"白塚","line":"名古屋線","riders":1804}},{"type":"Feature","geometry":{"type":"Point","coordinates":[136.61857,34.96697]},"properties":{"name":"近鉄四日市","line":"名古屋線","riders":45694}},{"type":"Feature","geometry":{"type":"Point","coordinates":[136.62635,34.89152]},"properties":{"name":"長太ノ浦","line":"名古屋線","riders":1341}},{"type":"Feature","geometry":{"type":"Point","coordinates":[136.5562,34.79851]},"properties":{"name":"千里","line":"名古屋線","riders":2703}},{"type":"Feature","geometry":{"type":"Point","coordinates":[136.62205,34.87961]},"properties":{"name":"箕田","line":"名古屋線","riders":960}},{"type":"Feature","geometry":{"type":"Point","coordinates":[136.51638,34.75512]},"properties":{"name":"高田本山","line":"名古屋線","riders":2093}},{"type":"Feature","geometry":{"type":"Point","coordinates":[136.62296,34.94332]},"properties":{"name":"海山道","line":"名古屋線","riders":1613}},{"type":"Feature","geometry":{"type":"Point","coordinates":[136.63117,34.90489]},"properties":{"name":"楠","line":"名古屋線","riders":1693}},{"type":"Feature","geometry":{"type":"Point","coordinates":[136.5895,34.83386]},"properties":{"name":"白子","line":"名古屋線","riders":14764}},{"type":"Feature","geometry":{"type":"Point","coordinates":[136.62222,34.93314]},"properties":{"name":"塩浜","line":"名古屋線","riders":7371}},{"type":"Feature","geometry":{"type":"Point","coordinates":[136.61843,34.95638]},"properties":{"name":"新正","line":"名古屋線","riders":2180}},{"type":"Feature","geometry":{"type":"Point","coordinates":[136.51402,34.74444]},"properties":{"name":"江戸橋","line":"名古屋線","riders":8054}},{"type":"Feature","geometry":{"type":"Point","coordinates":[136.61679,34.8695]},"properties":{"name":"伊勢若松","line":"名古屋線","riders":1999}},{"type":"Feature","geometry":{"type":"Point","coordinates":[136.58126,34.82619]},"properties":{"name":"鼓ヶ浦","line":"名古屋線","riders":1252}},{"type":"Feature","geometry":{"type":"Point","coordinates":[136.56887,34.81265]},"properties":{"name":"磯山","line":"名古屋線","riders":1614}},{"type":"Feature","geometry":{"type":"Point","coordinates":[136.54309,34.78525]},"properties":{"name":"豊津上野","line":"名古屋線","riders":1413}},{"type":"Feature","geometry":{"type":"Point","coordinates":[136.62481,34.9163]},"properties":{"name":"北楠","line":"名古屋線","riders":1791}},{"type":"Feature","geometry":{"type":"Point","coordinates":[136.60835,34.85485]},"properties":{"name":"千代崎","line":"名古屋線","riders":2327}},{"type":"Feature","geometry":{"type":"Point","coordinates":[136.51023,34.73441]},"properties":{"name":"津","line":"名古屋線","riders":40579}},{"type":"Feature","geometry":{"type":"Point","coordinates":[136.54238,34.87514]},"properties":{"name":"平田町","line":"鈴鹿線","riders":5467}},{"type":"Feature","geometry":{"type":"Point","coordinates":[136.58279,34.88391]},"properties":{"name":"鈴鹿市","line":"鈴鹿線","riders":3503}},{"type":"Feature","geometry":{"type":"Point","coordinates":[136.56223,34.88024]},"properties":{"name":"三日市","line":"鈴鹿線","riders":1227}},{"type":"Feature","geometry":{"type":"Point","coordinates":[136.59596,34.87136]},"properties":{"name":"柳","line":"鈴鹿線","riders":261}},{"type":"Feature","geometry":{"type":"Point","coordinates":[136.56592,35.04677]},"properties":{"name":"保々","line":"三岐線","riders":1320}},{"type":"Feature","geometry":{"type":"Point","coordinates":[136.54576,35.09155]},"properties":{"name":"大安","line":"三岐線","riders":860}},{"type":"Feature","geometry":{"type":"Point","coordinates":[136.56605,35.06061]},"properties":{"name":"北勢中央公園口","line":"三岐線","riders":682}},{"type":"Feature","geometry":{"type":"Point","coordinates":[136.55719,35.07506]},"properties":{"name":"梅戸井","line":"三岐線","riders":321}},{"type":"Feature","geometry":{"type":"Point","coordinates":[136.60595,35.03282]},"properties":{"name":"暁学園前","line":"三岐線","riders":3612}},{"type":"Feature","geometry":{"type":"Point","coordinates":[136.63342,35.02214]},"properties":{"name":"大矢知","line":"三岐線","riders":734}},{"type":"Feature","geometry":{"type":"Point","coordinates":[136.58836,35.03527]},"properties":{"name":"山城","line":"三岐線","riders":991}},{"type":"Feature","geometry":{"type":"Point","coordinates":[136.61843,35.02844]},"properties":{"name":"平津","line":"三岐線","riders":366}},{"type":"Feature","geometry":{"type":"Point","coordinates":[136.64353,35.06071]},"properties":{"name":"在良","line":"北勢線","riders":319}},{"type":"Feature","geometry":{"type":"Point","coordinates":[136.58706,35.07816]},"properties":{"name":"東員","line":"北勢線","riders":945}},{"type":"Feature","geometry":{"type":"Point","coordinates":[136.6764,35.06061]},"properties":{"name":"馬道","line":"北勢線","riders":905}},{"type":"Feature","geometry":{"type":"Point","coordinates":[136.61549,35.06912]},"properties":{"name":"七和","line":"北勢線","riders":639}},{"type":"Feature","geometry":{"type":"Point","coordinates":[136.60535,35.07282]},"properties":{"name":"穴太","line":"北勢線","riders":689}},{"type":"Feature","geometry":{"type":"Point","coordinates":[136.56999,35.0952]},"properties":{"name":"大泉","line":"北勢線","riders":570}},{"type":"Feature","geometry":{"type":"Point","coordinates":[136.66564,35.0596]},"properties":{"name":"西別所","line":"北勢線","riders":286}},{"type":"Feature","geometry":{"type":"Point","coordinates":[136.68379,35.06539]},"properties":{"name":"西桑名","line":"北勢線","riders":4567}},{"type":"Feature","geometry":{"type":"Point","coordinates":[136.63034,35.06419]},"properties":{"name":"星川","line":"北勢線","riders":1550}},{"type":"Feature","geometry":{"type":"Point","coordinates":[136.65106,35.05953]},"properties":{"name":"蓮花寺","line":"北勢線","riders":813}},{"type":"Feature","geometry":{"type":"Point","coordinates":[137.49417,34.72789]},"properties":{"name":"アスモ前","line":"天竜浜名湖線","riders":58}},{"type":"Feature","geometry":{"type":"Point","coordinates":[137.48445,34.72326]},"properties":{"name":"新所原","line":"天竜浜名湖線","riders":8256}},{"type":"Feature","geometry":{"type":"Point","coordinates":[136.658,35.03373]},"properties":{"name":"朝日","line":"関西線","riders":1394}},{"type":"Feature","geometry":{"type":"Point","coordinates":[136.65009,34.99656]},"properties":{"name":"富田浜","line":"関西線","riders":431}},{"type":"Feature","geometry":{"type":"Point","coordinates":[136.65316,35.00816]},"properties":{"name":"富田","line":"関西線","riders":1589}},{"type":"Feature","geometry":{"type":"Point","coordinates":[136.68374,35.06667]},"properties":{"name":"桑名","line":"関西線","riders":7124}},{"type":"Feature","geometry":{"type":"Point","coordinates":[136.69565,35.09817]},"properties":{"name":"長島","line":"関西線","riders":1140}},{"type":"Feature","geometry":{"type":"Point","coordinates":[136.60959,34.94144]},"properties":{"name":"南四日市","line":"関西線","riders":1430}},{"type":"Feature","geometry":{"type":"Point","coordinates":[136.52999,34.89032]},"properties":{"name":"加佐登","line":"関西線","riders":1263}},{"type":"Feature","geometry":{"type":"Point","coordinates":[136.62988,34.9621]},"properties":{"name":"四日市","line":"関西線","riders":4571}},{"type":"Feature","geometry":{"type":"Point","coordinates":[136.56804,34.89789]},"properties":{"name":"河曲","line":"関西線","riders":644}},{"type":"Feature","geometry":{"type":"Point","coordinates":[136.59874,34.91099]},"properties":{"name":"河原田","line":"関西線","riders":2115}},{"type":"Feature","geometry":{"type":"Point","coordinates":[136.50451,34.70311]},"properties":{"name":"阿漕","line":"紀勢線","riders":689}},{"type":"Feature","geometry":{"type":"Point","coordinates":[136.51262,34.66728]},"properties":{"name":"高茶屋","line":"紀勢線","riders":1101}},{"type":"Feature","geometry":{"type":"Point","coordinates":[136.50759,34.61763]},"properties":{"name":"六軒","line":"紀勢線","riders":241}},{"type":"Feature","geometry":{"type":"Point","coordinates":[137.0603,34.96903]},"properties":{"name":"三河安城","line":"東海道新幹線","riders":3608}},{"type":"Feature","geometry":{"type":"Point","coordinates":[137.38115,34.76289]},"properties":{"name":"豊橋","line":"東海道新幹線","riders":11}},{"type":"Feature","geometry":{"type":"Point","coordinates":[136.9618,35.0087]},"properties":{"name":"大府","line":"東海道線","riders":29513}},{"type":"Feature","geometry":{"type":"Point","coordinates":[137.00971,34.9908]},"properties":{"name":"刈谷","line":"東海道線","riders":73056}},{"type":"Feature","geometry":{"type":"Point","coordinates":[137.04363,34.97736]},"properties":{"name":"東刈谷","line":"東海道線","riders":10974}},{"type":"Feature","geometry":{"type":"Point","coordinates":[136.95458,35.03536]},"properties":{"name":"共和","line":"東海道線","riders":19596}},{"type":"Feature","geometry":{"type":"Point","coordinates":[136.99054,34.99824]},"properties":{"name":"逢妻","line":"東海道線","riders":4963}},{"type":"Feature","geometry":{"type":"Point","coordinates":[136.92623,35.09532]},"properties":{"name":"笠寺","line":"東海道線","riders":12555}},{"type":"Feature","geometry":{"type":"Point","coordinates":[136.94028,35.0691]},"properties":{"name":"大高","line":"東海道線","riders":8536}},{"type":"Feature","geometry":{"type":"Point","coordinates":[137.38267,34.76207]},"properties":{"name":"豊橋","line":"東海道線","riders":92851}},{"type":"Feature","geometry":{"type":"Point","coordinates":[137.31658,34.81258]},"properties":{"name":"愛知御津","line":"東海道線","riders":2750}},{"type":"Feature","geometry":{"type":"Point","coordinates":[137.2015,34.82543]},"properties":{"name":"三河塩津","line":"東海道線","riders":2824}},{"type":"Feature","geometry":{"type":"Point","coordinates":[137.12315,34.94662]},"properties":{"name":"西岡崎","line":"東海道線","riders":3797}},{"type":"Feature","geometry":{"type":"Point","coordinates":[137.24775,34.81857]},"properties":{"name":"三河三谷","line":"東海道線","riders":3793}},{"type":"Feature","geometry":{"type":"Point","coordinates":[137.17655,34.83643]},"properties":{"name":"三ヶ根","line":"東海道線","riders":2026}},{"type":"Feature","geometry":{"type":"Point","coordinates":[137.28296,34.81577]},"properties":{"name":"三河大塚","line":"東海道線","riders":2714}},{"type":"Feature","geometry":{"type":"Point","coordinates":[137.06095,34.97048]},"properties":{"name":"三河安城","line":"東海道線","riders":12394}},{"type":"Feature","geometry":{"type":"Point","coordinates":[137.08642,34.96044]},"properties":{"name":"安城","line":"東海道線","riders":23248}},{"type":"Feature","geometry":{"type":"Point","coordinates":[137.35273,34.79701]},"properties":{"name":"西小坂井","line":"東海道線","riders":2357}},{"type":"Feature","geometry":{"type":"Point","coordinates":[137.16446,34.85965]},"properties":{"name":"幸田","line":"東海道線","riders":8431}},{"type":"Feature","geometry":{"type":"Point","coordinates":[137.22738,34.82274]},"properties":{"name":"蒲郡","line":"東海道線","riders":15525}},{"type":"Feature","geometry":{"type":"Point","coordinates":[137.43887,34.7258]},"properties":{"name":"二川","line":"東海道線","riders":6350}},{"type":"Feature","geometry":{"type":"Point","coordinates":[137.3631,34.7976]},"properties":{"name":"小坂井","line":"飯田線","riders":909}},{"type":"Feature","geometry":{"type":"Point","coordinates":[137.37062,34.78098]},"properties":{"name":"下地","line":"飯田線","riders":447}},{"type":"Feature","geometry":{"type":"Point","coordinates":[137.37407,34.77573]},"properties":{"name":"船町","line":"飯田線","riders":519}},{"type":"Feature","geometry":{"type":"Point","coordinates":[137.47789,34.8893]},"properties":{"name":"野田城","line":"飯田線","riders":804}},{"type":"Feature","geometry":{"type":"Point","coordinates":[137.45536,34.87616]},"properties":{"name":"東上","line":"飯田線","riders":318}},{"type":"Feature","geometry":{"type":"Point","coordinates":[137.493,34.90107]},"properties":{"name":"新城","line":"飯田線","riders":1334}},{"type":"Feature","geometry":{"type":"Point","coordinates":[137.4146,34.84795]},"properties":{"name":"三河一宮","line":"飯田線","riders":1558}},{"type":"Feature","geometry":{"type":"Point","coordinates":[137.38172,34.80857]},"properties":{"name":"牛久保","line":"飯田線","riders":1737}},{"type":"Feature","geometry":{"type":"Point","coordinates":[137.39721,34.82255]},"properties":{"name":"豊川","line":"飯田線","riders":6625}},{"type":"Feature","geometry":{"type":"Point","coordinates":[137.44155,34.86786]},"properties":{"name":"江島","line":"飯田線","riders":131}},{"type":"Feature","geometry":{"type":"Point","coordinates":[137.43135,34.8644]},"properties":{"name":"長山","line":"飯田線","riders":408}},{"type":"Feature","geometry":{"type":"Point","coordinates":[136.9719,34.98139]},"properties":{"name":"緒川","line":"武豊線","riders":3792}},{"type":"Feature","geometry":{"type":"Point","coordinates":[136.97046,34.99388]},"properties":{"name":"尾張森岡","line":"武豊線","riders":1286}},{"type":"Feature","geometry":{"type":"Point","coordinates":[136.94155,34.90336]},"properties":{"name":"乙川","line":"武豊線","riders":2399}},{"type":"Feature","geometry":{"type":"Point","coordinates":[136.93043,34.89411]},"properties":{"name":"半田","line":"武豊線","riders":3302}},{"type":"Feature","geometry":{"type":"Point","coordinates":[136.9611,34.91901]},"properties":{"name":"亀崎","line":"武豊線","riders":5564}},{"type":"Feature","geometry":{"type":"Point","coordinates":[136.9729,34.96787]},"properties":{"name":"石浜","line":"武豊線","riders":2477}},{"type":"Feature","geometry":{"type":"Point","coordinates":[136.9707,34.9496]},"properties":{"name":"東浦","line":"武豊線","riders":3794}},{"type":"Feature","geometry":{"type":"Point","coordinates":[136.92349,34.8743]},"properties":{"name":"東成岩","line":"武豊線","riders":1188}},{"type":"Feature","geometry":{"type":"Point","coordinates":[136.92109,34.85327]},"properties":{"name":"武豊","line":"武豊線","riders":1394}},{"type":"Feature","geometry":{"type":"Point","coordinates":[137.32075,34.68031]},"properties":{"name":"杉山","line":"渥美線","riders":551}},{"type":"Feature","geometry":{"type":"Point","coordinates":[137.36767,34.70614]},"properties":{"name":"向ヶ丘","line":"渥美線","riders":701}},{"type":"Feature","geometry":{"type":"Point","coordinates":[137.37324,34.71098]},"properties":{"name":"植田","line":"渥美線","riders":682}},{"type":"Feature","geometry":{"type":"Point","coordinates":[137.38859,34.75488]},"properties":{"name":"柳生橋","line":"渥美線","riders":1320}},{"type":"Feature","geometry":{"type":"Point","coordinates":[137.27737,34.66799]},"properties":{"name":"神戸","line":"渥美線","riders":283}},{"type":"Feature","geometry":{"type":"Point","coordinates":[137.30915,34.67379]},"properties":{"name":"やぐま台","line":"渥美線","riders":413}},{"type":"Feature","geometry":{"type":"Point","coordinates":[137.38807,34.74889]},"properties":{"name":"小池","line":"渥美線","riders":947}},{"type":"Feature","geometry":{"type":"Point","coordinates":[137.38583,34.73557]},"properties":{"name":"南栄","line":"渥美線","riders":3739}},{"type":"Feature","geometry":{"type":"Point","coordinates":[137.33496,34.69222]},"properties":{"name":"老津","line":"渥美線","riders":753}},{"type":"Feature","geometry":{"type":"Point","coordinates":[137.38594,34.7417]},"properties":{"name":"愛知大学前","line":"渥美線","riders":6391}},{"type":"Feature","geometry":{"type":"Point","coordinates":[137.26902,34.66693]},"properties":{"name":"三河田原","line":"渥美線","riders":3115}},{"type":"Feature","geometry":{"type":"Point","coordinates":[137.35886,34.69595]},"properties":{"name":"大清水","line":"渥美線","riders":3075}},{"type":"Feature","geometry":{"type":"Point","coordinates":[137.38172,34.72711]},"properties":{"name":"高師","line":"渥美線","riders":2984}},{"type":"Feature","geometry":{"type":"Point","coordinates":[137.38015,34.71835]},"properties":{"name":"芦原","line":"渥美線","riders":730}},{"type":"Feature","geometry":{"type":"Point","coordinates":[137.38338,34.76226]},"properties":{"name":"新豊橋","line":"渥美線","riders":18298}},{"type":"Feature","geometry":{"type":"Point","coordinates":[137.2937,34.66763]},"properties":{"name":"豊島","line":"渥美線","riders":471}},{"type":"Feature","geometry":{"type":"Point","coordinates":[137.39306,34.76726]},"properties":{"name":"市役所前","line":"東田本線","riders":871}},{"type":"Feature","geometry":{"type":"Point","coordinates":[137.40072,34.76587]},"properties":{"name":"東八町","line":"東田本線","riders":724}},{"type":"Feature","geometry":{"type":"Point","coordinates":[137.42239,34.75851]},"properties":{"name":"運動公園前","line":"東田本線","riders":854}},{"type":"Feature","geometry":{"type":"Point","coordinates":[137.38313,34.76363]},"properties":{"name":"駅前","line":"東田本線","riders":6816}},{"type":"Feature","geometry":{"type":"Point","coordinates":[137.40449,34.76575]},"properties":{"name":"前畑","line":"東田本線","riders":339}},{"type":"Feature","geometry":{"type":"Point","coordinates":[137.38606,34.76309]},"properties":{"name":"駅前大通","line":"東田本線","riders":503}},{"type":"Feature","geometry":{"type":"Point","coordinates":[137.38948,34.76291]},"properties":{"name":"新川","line":"東田本線","riders":317}},{"type":"Feature","geometry":{"type":"Point","coordinates":[137.42912,34.7634]},"properties":{"name":"赤岩口","line":"東田本線","riders":1378}},{"type":"Feature","geometry":{"type":"Point","coordinates":[137.41728,34.76501]},"properties":{"name":"競輪場前","line":"東田本線","riders":1030}},{"type":"Feature","geometry":{"type":"Point","coordinates":[137.39586,34.76673]},"properties":{"name":"豊橋公園前","line":"東田本線","riders":283}},{"type":"Feature","geometry":{"type":"Point","coordinates":[137.40841,34.76573]},"properties":{"name":"東田坂上","line":"東田本線","riders":1565}},{"type":"Feature","geometry":{"type":"Point","coordinates":[137.39029,34.76448]},"properties":{"name":"札木","line":"東田本線","riders":362}},{"type":"Feature","geometry":{"type":"Point","coordinates":[137.41371,34.76531]},"properties":{"name":"東田","line":"東田本線","riders":525}},{"type":"Feature","geometry":{"type":"Point","coordinates":[137.42183,34.76418]},"properties":{"name":"井原","line":"東田本線","riders":1233}},{"type":"Feature","geometry":{"type":"Point","coordinates":[136.88191,35.0932]},"properties":{"name":"名古屋港","line":"2号線名港線","riders":11243}},{"type":"Feature","geometry":{"type":"Point","coordinates":[136.8832,35.09995]},"properties":{"name":"築地口","line":"2号線名港線","riders":10350}},{"type":"Feature","geometry":{"type":"Point","coordinates":[136.89257,35.0203]},"properties":{"name":"太田川","line":"河和線","riders":20593}},{"type":"Feature","geometry":{"type":"Point","coordinates":[136.89373,35.00965]},"properties":{"name":"高横須賀","line":"河和線","riders":3083}},{"type":"Feature","geometry":{"type":"Point","coordinates":[136.90686,34.98927]},"properties":{"name":"南加木屋","line":"河和線","riders":8439}},{"type":"Feature","geometry":{"type":"Point","coordinates":[136.91676,34.82932]},"properties":{"name":"富貴","line":"河和線","riders":2513}},{"type":"Feature","geometry":{"type":"Point","coordinates":[136.91672,34.94097]},"properties":{"name":"坂部","line":"河和線","riders":612}},{"type":"Feature","geometry":{"type":"Point","coordinates":[136.92184,34.8862]},"properties":{"name":"成岩","line":"河和線","riders":2167}},{"type":"Feature","geometry":{"type":"Point","coordinates":[136.91567,34.96229]},"properties":{"name":"巽ヶ丘","line":"河和線","riders":6221}},{"type":"Feature","geometry":{"type":"Point","coordinates":[136.91729,34.87874]},"properties":{"name":"青山","line":"河和線","riders":7889}},{"type":"Feature","geometry":{"type":"Point","coordinates":[136.91845,34.9313]},"properties":{"name":"阿久比","line":"河和線","riders":6495}},{"type":"Feature","geometry":{"type":"Point","coordinates":[136.92588,34.89399]},"properties":{"name":"知多半田","line":"河和線","riders":11939}},{"type":"Feature","geometry":{"type":"Point","coordinates":[136.92345,34.91743]},"properties":{"name":"植大","line":"河和線","riders":1480}},{"type":"Feature","geometry":{"type":"Point","coordinates":[136.92574,34.9021]},"properties":{"name":"住吉町","line":"河和線","riders":6605}},{"type":"Feature","geometry":{"type":"Point","coordinates":[136.92547,34.90909]},"properties":{"name":"半田口","line":"河和線","riders":1161}},{"type":"Feature","geometry":{"type":"Point","coordinates":[136.91655,34.85062]},"properties":{"name":"知多武豊","line":"河和線","riders":6260}},{"type":"Feature","geometry":{"type":"Point","coordinates":[136.91262,34.97378]},"properties":{"name":"八幡新田","line":"河和線","riders":2635}},{"type":"Feature","geometry":{"type":"Point","coordinates":[136.91898,34.79725]},"properties":{"name":"河和口","line":"河和線","riders":567}},{"type":"Feature","geometry":{"type":"Point","coordinates":[136.91645,34.85833]},"properties":{"name":"上ゲ","line":"河和線","riders":985}},{"type":"Feature","geometry":{"type":"Point","coordinates":[136.91226,34.77802]},"properties":{"name":"河和","line":"河和線","riders":4119}},{"type":"Feature","geometry":{"type":"Point","coordinates":[136.91538,34.95508]},"properties":{"name":"白沢","line":"河和線","riders":493}},{"type":"Feature","geometry":{"type":"Point","coordinates":[137.07125,34.79428]},"properties":{"name":"吉良吉田","line":"蒲郡線","riders":2893}},{"type":"Feature","geometry":{"type":"Point","coordinates":[137.17871,34.78997]},"properties":{"name":"西浦","line":"蒲郡線","riders":776}},{"type":"Feature","geometry":{"type":"Point","coordinates":[137.1897,34.81331]},"properties":{"name":"三河鹿島","line":"蒲郡線","riders":646}},{"type":"Feature","geometry":{"type":"Point","coordinates":[137.18463,34.79841]},"properties":{"name":"形原","line":"蒲郡線","riders":921}},{"type":"Feature","geometry":{"type":"Point","coordinates":[137.22568,34.82277]},"properties":{"name":"蒲郡","line":"蒲郡線","riders":2620}},{"type":"Feature","geometry":{"type":"Point","coordinates":[137.14593,34.78955]},"properties":{"name":"東幡豆","line":"蒲郡線","riders":382}},{"type":"Feature","geometry":{"type":"Point","coordinates":[137.10505,34.79331]},"properties":{"name":"三河鳥羽","line":"蒲郡線","riders":362}},{"type":"Feature","geometry":{"type":"Point","coordinates":[137.20212,34.82543]},"properties":{"name":"蒲郡競艇場前","line":"蒲郡線","riders":318}},{"type":"Feature","geometry":{"type":"Point","coordinates":[137.12135,34.79248]},"properties":{"name":"西幡豆","line":"蒲郡線","riders":604}},{"type":"Feature","geometry":{"type":"Point","coordinates":[137.16274,34.7886]},"properties":{"name":"こどもの国","line":"蒲郡線","riders":153}},{"type":"Feature","geometry":{"type":"Point","coordinates":[136.83511,34.89117]},"properties":{"name":"常滑","line":"空港線","riders":11715}},{"type":"Feature","geometry":{"type":"Point","coordinates":[136.8281,34.87962]},"properties":{"name":"りんくう常滑","line":"空港線","riders":2280}},{"type":"Feature","geometry":{"type":"Point","coordinates":[136.81598,34.8599]},"properties":{"name":"中部国際空港","line":"空港線","riders":29863}},{"type":"Feature","geometry":{"type":"Point","coordinates":[137.16228,35.09967]},"properties":{"name":"梅坪","line":"三河線","riders":6674}},{"type":"Feature","geometry":{"type":"Point","coordinates":[137.09584,35.02631]},"properties":{"name":"若林","line":"三河線","riders":6224}},{"type":"Feature","geometry":{"type":"Point","coordinates":[137.0453,35.004]},"properties":{"name":"三河知立","line":"三河線","riders":895}},{"type":"Feature","geometry":{"type":"Point","coordinates":[137.15624,35.08726]},"properties":{"name":"豊田市","line":"三河線","riders":36470}},{"type":"Feature","geometry":{"type":"Point","coordinates":[137.11476,35.04008]},"properties":{"name":"竹村","line":"三河線","riders":3341}},{"type":"Feature","geometry":{"type":"Point","coordinates":[136.99394,34.98468]},"properties":{"name":"刈谷市","line":"三河線","riders":6558}},{"type":"Feature","geometry":{"type":"Point","coordinates":[137.12947,35.05823]},"properties":{"name":"土橋","line":"三河線","riders":8443}},{"type":"Feature","geometry":{"type":"Point","coordinates":[137.02378,34.99478]},"properties":{"name":"重原","line":"三河線","riders":1862}},{"type":"Feature","geometry":{"type":"Point","coordinates":[137.00928,34.99053]},"properties":{"name":"刈谷","line":"三河線","riders":28655}},{"type":"Feature","geometry":{"type":"Point","coordinates":[137.07724,35.01094]},"properties":{"name":"三河八橋","line":"三河線","riders":3391}},{"type":"Feature","geometry":{"type":"Point","coordinates":[137.15467,35.07192]},"properties":{"name":"上挙母","line":"三河線","riders":4792}},{"type":"Feature","geometry":{"type":"Point","coordinates":[137.03967,35.00623]},"properties":{"name":"知立","line":"三河線","riders":33768}},{"type":"Feature","geometry":{"type":"Point","coordinates":[136.98944,34.94671]},"properties":{"name":"吉浜","line":"三河線","riders":3208}},{"type":"Feature","geometry":{"type":"Point","coordinates":[136.98944,34.88731]},"properties":{"name":"碧南中央","line":"三河線","riders":4643}},{"type":"Feature","geometry":{"type":"Point","coordinates":[136.98562,34.87401]},"properties":{"name":"碧南","line":"三河線","riders":4031}},{"type":"Feature","geometry":{"type":"Point","coordinates":[136.99248,34.90597]},"properties":{"name":"北新川","line":"三河線","riders":3246}},{"type":"Feature","geometry":{"type":"Point","coordinates":[136.98938,34.92153]},"properties":{"name":"高浜港","line":"三河線","riders":2596}},{"type":"Feature","geometry":{"type":"Point","coordinates":[136.99031,34.89661]},"properties":{"name":"新川町","line":"三河線","riders":1301}},{"type":"Feature","geometry":{"type":"Point","coordinates":[136.99552,34.96388]},"properties":{"name":"小垣江","line":"三河線","riders":3846}},{"type":"Feature","geometry":{"type":"Point","coordinates":[136.98996,34.93077]},"properties":{"name":"三河高浜","line":"三河線","riders":4405}},{"type":"Feature","geometry":{"type":"Point","coordinates":[136.9128,35.0933]},"properties":{"name":"大江","line":"常滑線","riders":5728}},{"type":"Feature","geometry":{"type":"Point","coordinates":[136.86345,34.99386]},"properties":{"name":"朝倉","line":"常滑線","riders":7171}},{"type":"Feature","geometry":{"type":"Point","coordinates":[136.88555,35.01002]},"properties":{"name":"尾張横須賀","line":"常滑線","riders":5505}},{"type":"Feature","geometry":{"type":"Point","coordinates":[136.89949,35.03514]},"properties":{"name":"新日鉄前","line":"常滑線","riders":2080}},{"type":"Feature","geometry":{"type":"Point","coordinates":[136.90908,35.07282]},"properties":{"name":"柴田","line":"常滑線","riders":4541}},{"type":"Feature","geometry":{"type":"Point","coordinates":[136.84781,34.9784]},"properties":{"name":"長浦","line":"常滑線","riders":1014}},{"type":"Feature","geometry":{"type":"Point","coordinates":[136.90935,35.08026]},"properties":{"name":"大同町","line":"常滑線","riders":13614}},{"type":"Feature","geometry":{"type":"Point","coordinates":[136.91169,35.06092]},"properties":{"name":"名和","line":"常滑線","riders":5706}},{"type":"Feature","geometry":{"type":"Point","coordinates":[136.90306,35.04282]},"properties":{"name":"聚楽園","line":"常滑線","riders":6671}},{"type":"Feature","geometry":{"type":"Point","coordinates":[136.87544,35.0002]},"properties":{"name":"寺本","line":"常滑線","riders":3939}},{"type":"Feature","geometry":{"type":"Point","coordinates":[136.85677,34.98774]},"properties":{"name":"古見","line":"常滑線","riders":3419}},{"type":"Feature","geometry":{"type":"Point","coordinates":[136.82565,34.91528]},"properties":{"name":"蒲池","line":"常滑線","riders":1143}},{"type":"Feature","geometry":{"type":"Point","coordinates":[136.83217,34.96166]},"properties":{"name":"日長","line":"常滑線","riders":453}},{"type":"Feature","geometry":{"type":"Point","coordinates":[136.83069,34.89702]},"properties":{"name":"多屋","line":"常滑線","riders":1252}},{"type":"Feature","geometry":{"type":"Point","coordinates":[136.82676,34.9246]},"properties":{"name":"西ノ口","line":"常滑線","riders":994}},{"type":"Feature","geometry":{"type":"Point","coordinates":[136.8282,34.90495]},"properties":{"name":"榎戸","line":"常滑線","riders":1758}},{"type":"Feature","geometry":{"type":"Point","coordinates":[136.8275,34.93543]},"properties":{"name":"大野町","line":"常滑線","riders":2389}},{"type":"Feature","geometry":{"type":"Point","coordinates":[136.8286,34.94973]},"properties":{"name":"新舞子","line":"常滑線","riders":5992}},{"type":"Feature","geometry":{"type":"Point","coordinates":[137.08551,34.9869]},"properties":{"name":"新安城","line":"西尾線","riders":24413}},{"type":"Feature","geometry":{"type":"Point","coordinates":[137.0627,34.87074]},"properties":{"name":"西尾口","line":"西尾線","riders":615}},{"type":"Feature","geometry":{"type":"Point","coordinates":[137.08837,34.91752]},"properties":{"name":"桜井","line":"西尾線","riders":5114}},{"type":"Feature","geometry":{"type":"Point","coordinates":[137.07214,34.83012]},"properties":{"name":"上横須賀","line":"西尾線","riders":1294}},{"type":"Feature","geometry":{"type":"Point","coordinates":[137.08965,34.92762]},"properties":{"name":"堀内公園","line":"西尾線","riders":520}},{"type":"Feature","geometry":{"type":"Point","coordinates":[137.09215,34.96465]},"properties":{"name":"北安城","line":"西尾線","riders":1498}},{"type":"Feature","geometry":{"type":"Point","coordinates":[137.04855,34.84469]},"properties":{"name":"福地","line":"西尾線","riders":1337}},{"type":"Feature","geometry":{"type":"Point","coordinates":[137.06245,34.88024]},"properties":{"name":"桜町前","line":"西尾線","riders":3613}},{"type":"Feature","geometry":{"type":"Point","coordinates":[137.0926,34.95191]},"properties":{"name":"南安城","line":"西尾線","riders":5115}},{"type":"Feature","geometry":{"type":"Point","coordinates":[137.09084,34.9372]},"properties":{"name":"碧海古井","line":"西尾線","riders":1260}},{"type":"Feature","geometry":{"type":"Point","coordinates":[137.05784,34.86392]},"properties":{"name":"西尾","line":"西尾線","riders":10487}},{"type":"Feature","geometry":{"type":"Point","coordinates":[137.06108,34.89285]},"properties":{"name":"米津","line":"西尾線","riders":1964}},{"type":"Feature","geometry":{"type":"Point","coordinates":[136.86309,34.80029]},"properties":{"name":"美浜緑苑","line":"知多新線","riders":436}},{"type":"Feature","geometry":{"type":"Point","coordinates":[136.86449,34.78719]},"properties":{"name":"知多奥田","line":"知多新線","riders":5559}},{"type":"Feature","geometry":{"type":"Point","coordinates":[136.86681,34.80727]},"properties":{"name":"上野間","line":"知多新線","riders":632}},{"type":"Feature","geometry":{"type":"Point","coordinates":[136.86075,34.7723]},"properties":{"name":"野間","line":"知多新線","riders":641}},{"type":"Feature","geometry":{"type":"Point","coordinates":[136.87525,34.74469]},"properties":{"name":"内海","line":"知多新線","riders":1319}},{"type":"Feature","geometry":{"type":"Point","coordinates":[136.89918,35.08909]},"properties":{"name":"東名古屋港","line":"築港線","riders":5386}},{"type":"Feature","geometry":{"type":"Point","coordinates":[137.39596,34.82177]},"properties":{"name":"豊川稲荷","line":"豊川線","riders":5239}},{"type":"Feature","geometry":{"type":"Point","coordinates":[137.37044,34.82354]},"properties":{"name":"諏訪町","line":"豊川線","riders":4571}},{"type":"Feature","geometry":{"type":"Point","coordinates":[137.35202,34.82909]},"properties":{"name":"八幡","line":"豊川線","riders":2294}},{"type":"Feature","geometry":{"type":"Point","coordinates":[137.32814,34.83745]},"properties":{"name":"国府","line":"豊川線","riders":10321}},{"type":"Feature","geometry":{"type":"Point","coordinates":[137.38774,34.81842]},"properties":{"name":"稲荷口","line":"豊川線","riders":1025}},{"type":"Feature","geometry":{"type":"Point","coordinates":[137.06088,34.99928]},"properties":{"name":"牛田","line":"名古屋本線","riders":4300}},{"type":"Feature","geometry":{"type":"Point","coordinates":[136.96038,35.07052]},"properties":{"name":"左京山","line":"名古屋本線","riders":4753}},{"type":"Feature","geometry":{"type":"Point","coordinates":[137.00824,35.04113]},"properties":{"name":"豊明","line":"名古屋本線","riders":5144}},{"type":"Feature","geometry":{"type":"Point","coordinates":[136.9711,35.06769]},"properties":{"name":"有松","line":"名古屋本線","riders":14999}},{"type":"Feature","geometry":{"type":"Point","coordinates":[136.98089,35.0615]},"properties":{"name":"中京競馬場前","line":"名古屋本線","riders":9750}},{"type":"Feature","geometry":{"type":"Point","coordinates":[137.02546,35.0136]},"properties":{"name":"一ツ木","line":"名古屋本線","riders":3762}},{"type":"Feature","geometry":{"type":"Point","coordinates":[137.01644,35.02981]},"properties":{"name":"富士松","line":"名古屋本線","riders":3478}},{"type":"Feature","geometry":{"type":"Point","coordinates":[136.99592,35.05208]},"properties":{"name":"前後","line":"名古屋本線","riders":21465}},{"type":"Feature","geometry":{"type":"Point","coordinates":[136.93344,35.09908]},"properties":{"name":"本笠寺","line":"名古屋本線","riders":4707}},{"type":"Feature","geometry":{"type":"Point","coordinates":[136.95119,35.07843]},"properties":{"name":"鳴海","line":"名古屋本線","riders":19299}},{"type":"Feature","geometry":{"type":"Point","coordinates":[136.93733,35.08747]},"properties":{"name":"本星崎","line":"名古屋本線","riders":4446}},{"type":"Feature","geometry":{"type":"Point","coordinates":[137.18336,34.93744]},"properties":{"name":"男川","line":"名古屋本線","riders":4546}},{"type":"Feature","geometry":{"type":"Point","coordinates":[137.24269,34.89952]},"properties":{"name":"名電山中","line":"名古屋本線","riders":914}},{"type":"Feature","geometry":{"type":"Point","coordinates":[137.16745,34.95203]},"properties":{"name":"東岡崎","line":"名古屋本線","riders":39249}},{"type":"Feature","geometry":{"type":"Point","coordinates":[137.35479,34.80285]},"properties":{"name":"伊奈","line":"名古屋本線","riders":3354}},{"type":"Feature","geometry":{"type":"Point","coordinates":[137.28839,34.87147]},"properties":{"name":"名電長沢","line":"名古屋本線","riders":678}},{"type":"Feature","geometry":{"type":"Point","coordinates":[137.3215,34.84606]},"properties":{"name":"御油","line":"名古屋本線","riders":633}},{"type":"Feature","geometry":{"type":"Point","coordinates":[137.15347,34.95491]},"properties":{"name":"岡崎公園前","line":"名古屋本線","riders":4970}},{"type":"Feature","geometry":{"type":"Point","coordinates":[137.19634,34.9237]},"properties":{"name":"美合","line":"名古屋本線","riders":7441}},{"type":"Feature","geometry":{"type":"Point","coordinates":[137.25997,34.89293]},"properties":{"name":"本宿","line":"名古屋本線","riders":6435}},{"type":"Feature","geometry":{"type":"Point","coordinates":[137.21857,34.91324]},"properties":{"name":"藤川","line":"名古屋本線","riders":6576}},{"type":"Feature","geometry":{"type":"Point","coordinates":[137.11811,34.97132]},"properties":{"name":"宇頭","line":"名古屋本線","riders":3454}},{"type":"Feature","geometry":{"type":"Point","coordinates":[137.13997,34.96107]},"properties":{"name":"矢作橋","line":"名古屋本線","riders":7068}},{"type":"Feature","geometry":{"type":"Point","coordinates":[137.34562,34.81476]},"properties":{"name":"小田渕","line":"名古屋本線","riders":546}},{"type":"Feature","geometry":{"type":"Point","coordinates":[137.31114,34.85936]},"properties":{"name":"名電赤坂","line":"名古屋本線","riders":1065}},{"type":"Feature","geometry":{"type":"Point","coordinates":[136.86336,35.09151]},"properties":{"name":"稲永","line":"西名古屋港線","riders":5400}},{"type":"Feature","geometry":{"type":"Point","coordinates":[136.85419,35.07532]},"properties":{"name":"野跡","line":"西名古屋港線","riders":2100}},{"type":"Feature","geometry":{"type":"Point","coordinates":[136.84924,35.04888]},"properties":{"name":"金城ふ頭","line":"西名古屋港線","riders":8500}},{"type":"Feature","geometry":{"type":"Point","coordinates":[137.02818,34.9835]},"properties":{"name":"野田新町","line":"東海道線","riders":5305}},{"type":"Feature","geometry":{"type":"Point","coordinates":[136.94872,35.05445]},"properties":{"name":"南大高","line":"東海道線","riders":13528}},{"type":"Feature","geometry":{"type":"Point","coordinates":[137.07694,34.90601]},"properties":{"name":"南桜井","line":"西尾線","riders":6391}},{"type":"Feature","geometry":{"type":"Point","coordinates":[136.9894,35.09863]},"properties":{"name":"神沢","line":"6号線桜通線","riders":6514}},{"type":"Feature","geometry":{"type":"Point","coordinates":[136.99763,35.09489]},"properties":{"name":"徳重","line":"6号線桜通線","riders":20854}},{"type":"Feature","geometry":{"type":"Point","coordinates":[136.67462,35.07827]},"properties":{"name":"播磨","line":"養老線","riders":531}},{"type":"Feature","geometry":{"type":"Point","coordinates":[136.66155,35.09606]},"properties":{"name":"下深谷","line":"養老線","riders":1042}},{"type":"Feature","geometry":{"type":"Point","coordinates":[137.16027,34.88804]},"properties":{"name":"相見","line":"東海道線","riders":3261}}]}