{"type":"FeatureCollection","features":[{"type":"Feature","geometry":{"type":"Point","coordinates":[127.70294,26.23064]},"properties":{"name":"古島","line":"沖縄都市モノレール線","riders":5143}},{"type":"Feature","geometry":{"type":"Point","coordinates":[127.67838,26.20578]},"properties":{"name":"壺川","line":"沖縄都市モノレール線","riders":4338}},{"type":"Feature","geometry":{"type":"Point","coordinates":[127.69256,26.21711]},"properties":{"name":"牧志","line":"沖縄都市モノレール線","riders":7298}},{"type":"Feature","geometry":{"type":"Point","coordinates":[127.69573,26.21674]},"properties":{"name":"安里","line":"沖縄都市モノレール線","riders":4684}},{"type":"Feature","geometry":{"type":"Point","coordinates":[127.67932,26.21439]},"properties":{"name":"県庁前","line":"沖縄都市モノレール線","riders":14628}},{"type":"Feature","geometry":{"type":"Point","coordinates":[127.68442,26.21916]},"properties":{"name":"美栄橋","line":"沖縄都市モノレール線","riders":6405}},{"type":"Feature","geometry":{"type":"Point","coordinates":[127.67548,26.21195]},"properties":{"name":"旭橋","line":"沖縄都市モノレール線","riders":8749}},{"type":"Feature","geometry":{"type":"Point","coordinates":[127.7193,26.2245]},"properties":{"name":"儀保","line":"沖縄都市モノレール線","riders":3294}},{"type":"Feature","geometry":{"type":"Point","coordinates":[127.65229,26.20666]},"properties":{"name":"那覇空港","line":"沖縄都市モノレール線","riders":14008}},{"type":"Feature","geometry":{"type":"Point","coordinates":[127.72556,26.21918]},"properties":{"name":"首里","line":"沖縄都市モノレール線","riders":7375}},{"type":"Feature","geometry":{"type":"Point","coordinates":[127.69848,26.22266]},"properties":{"name":"おもろまち","line":"沖縄都市モノレール線","riders":11755}},{"type":"Feature","geometry":{"type":"Point","coordinates":[127.71027,26.22734]},"properties":{"name":"市立病院前","line":"沖縄都市モノレール線","riders":1897}},{"type":"Feature","geometry":{"type":"Point","coordinates":[127.66703,26.19655]},"properties":{"name":"小禄","line":"沖縄都市モノレール線","riders":7770}},{"type":"Feature","geometry":{"type":"Point","coordinates":[127.66066,26.19327]},"properties":{"name":"赤嶺","line":"沖縄都市モノレール線","riders":4841}},{"type":"Feature","geometry":{"type":"Point","coordinates":[127.67524,26.20066]},"properties":{"name":"奥武山公園","line":"沖縄都市モノレール線","riders":4438}},{"type":"Feature","geometry":{"type":"Point","coordinates":[127.72903,26.22699]},"properties":{"name":"石嶺","line":"沖縄都市モノレール線","riders":3215}},{"type":"Feature","geometry":{"type":"Point","coordinates":[127.72852,26.2367]},"properties":{"name":"経塚","line":"沖縄都市モノレール線","riders":2051}},{"type":"Feature","geometry":{"type":"Point","coordinates":[127.73229,26.24384]},"properties":{"name":"浦添前田","line":"沖縄都市モノレール線","riders":1464}},{"type":"Feature","geometry":{"type":"Point","coordinates":[127.74192,26.24174]},"properties":{"name":"てだこ浦西","line":"沖縄都市モノレール線","riders":3518}}]}