{"type":"FeatureCollection","features":[{"type":"Feature","geometry":{"type":"Point","coordinates":[138.45391,36.30864]},"properties":{"name":"平原","line":"しなの鉄道線","riders":194}},{"type":"Feature","geometry":{"type":"Point","coordinates":[138.13249,36.54796]},"properties":{"name":"屋代高校前","line":"しなの鉄道線","riders":2036}},{"type":"Feature","geometry":{"type":"Point","coordinates":[138.59321,36.34756]},"properties":{"name":"中軽井沢","line":"しなの鉄道線","riders":1640}},{"type":"Feature","geometry":{"type":"Point","coordinates":[138.50632,36.31899]},"properties":{"name":"御代田","line":"しなの鉄道線","riders":1619}},{"type":"Feature","geometry":{"type":"Point","coordinates":[138.55849,36.33545]},"properties":{"name":"信濃追分","line":"しなの鉄道線","riders":546}},{"type":"Feature","geometry":{"type":"Point","coordinates":[138.32921,36.35442]},"properties":{"name":"田中","line":"しなの鉄道線","riders":2500}},{"type":"Feature","geometry":{"type":"Point","coordinates":[138.25026,36.39575]},"properties":{"name":"上田","line":"しなの鉄道線","riders":11524}},{"type":"Feature","geometry":{"type":"Point","coordinates":[138.20906,36.41688]},"properties":{"name":"西上田","line":"しなの鉄道線","riders":1984}},{"type":"Feature","geometry":{"type":"Point","coordinates":[138.15308,36.49287]},"properties":{"name":"戸倉","line":"しなの鉄道線","riders":2700}},{"type":"Feature","geometry":{"type":"Point","coordinates":[138.18145,36.46198]},"properties":{"name":"坂城","line":"しなの鉄道線","riders":2000}},{"type":"Feature","geometry":{"type":"Point","coordinates":[138.27384,36.37832]},"properties":{"name":"信濃国分寺","line":"しなの鉄道線","riders":1269}},{"type":"Feature","geometry":{"type":"Point","coordinates":[138.29713,36.36959]},"properties":{"name":"大屋","line":"しなの鉄道線","riders":2388}},{"type":"Feature","geometry":{"type":"Point","coordinates":[138.36391,36.34232]},"properties":{"name":"滋野","line":"しなの鉄道線","riders":800}},{"type":"Feature","geometry":{"type":"Point","coordinates":[138.1282,36.53242]},"properties":{"name":"屋代","line":"しなの鉄道線","riders":4677}},{"type":"Feature","geometry":{"type":"Point","coordinates":[138.1882,36.44058]},"properties":{"name":"テクノさかき","line":"しなの鉄道線","riders":1000}},{"type":"Feature","geometry":{"type":"Point","coordinates":[138.4229,36.32564]},"properties":{"name":"小諸","line":"しなの鉄道線","riders":8130}},{"type":"Feature","geometry":{"type":"Point","coordinates":[138.13807,36.57696]},"properties":{"name":"篠ノ井","line":"しなの鉄道線","riders":20376}},{"type":"Feature","geometry":{"type":"Point","coordinates":[137.64174,36.74956]},"properties":{"name":"猫又","line":"本線","riders":0}},{"type":"Feature","geometry":{"type":"Point","coordinates":[137.62391,36.78323]},"properties":{"name":"笹平","line":"本線","riders":0}},{"type":"Feature","geometry":{"type":"Point","coordinates":[137.65814,36.69679]},"properties":{"name":"欅平","line":"本線","riders":3000}},{"type":"Feature","geometry":{"type":"Point","coordinates":[137.61323,36.79198]},"properties":{"name":"森石","line":"本線","riders":0}},{"type":"Feature","geometry":{"type":"Point","coordinates":[137.62484,36.78662]},"properties":{"name":"黒薙","line":"本線","riders":120}},{"type":"Feature","geometry":{"type":"Point","coordinates":[137.58563,36.81516]},"properties":{"name":"宇奈月","line":"本線","riders":4600}},{"type":"Feature","geometry":{"type":"Point","coordinates":[137.64709,36.71109]},"properties":{"name":"小屋平","line":"本線","riders":0}},{"type":"Feature","geometry":{"type":"Point","coordinates":[137.65134,36.73441]},"properties":{"name":"鐘釣","line":"本線","riders":1334}},{"type":"Feature","geometry":{"type":"Point","coordinates":[137.59201,36.80336]},"properties":{"name":"柳橋","line":"本線","riders":0}},{"type":"Feature","geometry":{"type":"Point","coordinates":[137.63369,36.76726]},"properties":{"name":"出平","line":"本線","riders":0}},{"type":"Feature","geometry":{"type":"Point","coordinates":[137.89131,36.21265]},"properties":{"name":"三溝","line":"上高地線","riders":393}},{"type":"Feature","geometry":{"type":"Point","coordinates":[137.94952,36.22907]},"properties":{"name":"信濃荒井","line":"上高地線","riders":94}},{"type":"Feature","geometry":{"type":"Point","coordinates":[137.96317,36.227]},"properties":{"name":"西松本","line":"上高地線","riders":108}},{"type":"Feature","geometry":{"type":"Point","coordinates":[137.95609,36.22713]},"properties":{"name":"渚","line":"上高地線","riders":155}},{"type":"Feature","geometry":{"type":"Point","coordinates":[137.94126,36.22696]},"properties":{"name":"大庭","line":"上高地線","riders":387}},{"type":"Feature","geometry":{"type":"Point","coordinates":[137.96378,36.23105]},"properties":{"name":"松本","line":"上高地線","riders":37177}},{"type":"Feature","geometry":{"type":"Point","coordinates":[137.92262,36.22514]},"properties":{"name":"下新","line":"上高地線","riders":183}},{"type":"Feature","geometry":{"type":"Point","coordinates":[137.91353,36.21963]},"properties":{"name":"北新・松本大学前","line":"上高地線","riders":1394}},{"type":"Feature","geometry":{"type":"Point","coordinates":[137.90533,36.21646]},"properties":{"name":"新村","line":"上高地線","riders":287}},{"type":"Feature","geometry":{"type":"Point","coordinates":[137.83994,36.19519]},"properties":{"name":"渕東","line":"上高地線","riders":71}},{"type":"Feature","geometry":{"type":"Point","coordinates":[137.85645,36.20041]},"properties":{"name":"波田","line":"上高地線","riders":1142}},{"type":"Feature","geometry":{"type":"Point","coordinates":[137.82176,36.1898]},"properties":{"name":"新島々","line":"上高地線","riders":646}},{"type":"Feature","geometry":{"type":"Point","coordinates":[137.87189,36.20614]},"properties":{"name":"下島","line":"上高地線","riders":436}},{"type":"Feature","geometry":{"type":"Point","coordinates":[137.88133,36.20802]},"properties":{"name":"森口","line":"上高地線","riders":578}},{"type":"Feature","geometry":{"type":"Point","coordinates":[138.19333,36.36051]},"properties":{"name":"中野","line":"別所線","riders":112}},{"type":"Feature","geometry":{"type":"Point","coordinates":[138.17576,36.35838]},"properties":{"name":"八木沢","line":"別所線","riders":90}},{"type":"Feature","geometry":{"type":"Point","coordinates":[138.21695,36.37784]},"properties":{"name":"神畑","line":"別所線","riders":140}},{"type":"Feature","geometry":{"type":"Point","coordinates":[138.2172,36.36324]},"properties":{"name":"下之郷","line":"別所線","riders":344}},{"type":"Feature","geometry":{"type":"Point","coordinates":[138.20467,36.36323]},"properties":{"name":"中塩田","line":"別所線","riders":85}},{"type":"Feature","geometry":{"type":"Point","coordinates":[138.19843,36.36091]},"properties":{"name":"塩田町","line":"別所線","riders":362}},{"type":"Feature","geometry":{"type":"Point","coordinates":[138.24264,36.39247]},"properties":{"name":"城下","line":"別所線","riders":123}},{"type":"Feature","geometry":{"type":"Point","coordinates":[138.18278,36.35965]},"properties":{"name":"舞田","line":"別所線","riders":84}},{"type":"Feature","geometry":{"type":"Point","coordinates":[138.21632,36.3839]},"properties":{"name":"寺下","line":"別所線","riders":183}},{"type":"Feature","geometry":{"type":"Point","coordinates":[138.21513,36.37131]},"properties":{"name":"大学前","line":"別所線","riders":799}},{"type":"Feature","geometry":{"type":"Point","coordinates":[138.22171,36.39039]},"properties":{"name":"上田原","line":"別所線","riders":917}},{"type":"Feature","geometry":{"type":"Point","coordinates":[138.22717,36.39135]},"properties":{"name":"赤坂上","line":"別所線","riders":253}},{"type":"Feature","geometry":{"type":"Point","coordinates":[138.16188,36.3532]},"properties":{"name":"別所温泉","line":"別所線","riders":642}},{"type":"Feature","geometry":{"type":"Point","coordinates":[138.23554,36.39168]},"properties":{"name":"三好町","line":"別所線","riders":104}},{"type":"Feature","geometry":{"type":"Point","coordinates":[137.90789,36.80562]},"properties":{"name":"中土","line":"大糸線","riders":11}},{"type":"Feature","geometry":{"type":"Point","coordinates":[137.90836,36.7746]},"properties":{"name":"南小谷","line":"大糸線","riders":246}},{"type":"Feature","geometry":{"type":"Point","coordinates":[137.90645,36.84257]},"properties":{"name":"北小谷","line":"大糸線","riders":11}},{"type":"Feature","geometry":{"type":"Point","coordinates":[137.85951,36.93818]},"properties":{"name":"小滝","line":"大糸線","riders":11}},{"type":"Feature","geometry":{"type":"Point","coordinates":[137.86712,36.96666]},"properties":{"name":"根知","line":"大糸線","riders":28}},{"type":"Feature","geometry":{"type":"Point","coordinates":[137.86562,36.88688]},"properties":{"name":"平岩","line":"大糸線","riders":16}},{"type":"Feature","geometry":{"type":"Point","coordinates":[137.55601,36.95192]},"properties":{"name":"泊","line":"あいの風とやま鉄道線","riders":1491}},{"type":"Feature","geometry":{"type":"Point","coordinates":[137.65049,36.98045]},"properties":{"name":"市振","line":"日本海ひすいライン","riders":123}},{"type":"Feature","geometry":{"type":"Point","coordinates":[137.5995,36.97387]},"properties":{"name":"越中宮崎","line":"あいの風とやま鉄道線","riders":171}},{"type":"Feature","geometry":{"type":"Point","coordinates":[138.3042,36.65678]},"properties":{"name":"須坂","line":"長野線","riders":6463}},{"type":"Feature","geometry":{"type":"Point","coordinates":[138.19367,36.65839]},"properties":{"name":"善光寺下","line":"長野線","riders":1340}},{"type":"Feature","geometry":{"type":"Point","coordinates":[138.25829,36.66342]},"properties":{"name":"柳原","line":"長野線","riders":1318}},{"type":"Feature","geometry":{"type":"Point","coordinates":[138.18888,36.64446]},"properties":{"name":"長野","line":"長野線","riders":10752}},{"type":"Feature","geometry":{"type":"Point","coordinates":[138.20409,36.66261]},"properties":{"name":"本郷","line":"長野線","riders":2731}},{"type":"Feature","geometry":{"type":"Point","coordinates":[138.34963,36.71264]},"properties":{"name":"桜沢","line":"長野線","riders":120}},{"type":"Feature","geometry":{"type":"Point","coordinates":[138.22092,36.66744]},"properties":{"name":"信濃吉田","line":"長野線","riders":3053}},{"type":"Feature","geometry":{"type":"Point","coordinates":[138.28027,36.65928]},"properties":{"name":"村山","line":"長野線","riders":799}},{"type":"Feature","geometry":{"type":"Point","coordinates":[138.40334,36.75997]},"properties":{"name":"夜間瀬","line":"長野線","riders":234}},{"type":"Feature","geometry":{"type":"Point","coordinates":[138.19122,36.64809]},"properties":{"name":"市役所前","line":"長野線","riders":1388}},{"type":"Feature","geometry":{"type":"Point","coordinates":[138.32216,36.70405]},"properties":{"name":"都住","line":"長野線","riders":239}},{"type":"Feature","geometry":{"type":"Point","coordinates":[138.28879,36.65594]},"properties":{"name":"日野","line":"長野線","riders":408}},{"type":"Feature","geometry":{"type":"Point","coordinates":[138.3625,36.72674]},"properties":{"name":"延徳","line":"長野線","riders":307}},{"type":"Feature","geometry":{"type":"Point","coordinates":[138.21307,36.66567]},"properties":{"name":"桐原","line":"長野線","riders":2134}},{"type":"Feature","geometry":{"type":"Point","coordinates":[138.39366,36.76109]},"properties":{"name":"信濃竹原","line":"長野線","riders":91}},{"type":"Feature","geometry":{"type":"Point","coordinates":[138.2479,36.66284]},"properties":{"name":"附属中学前","line":"長野線","riders":2263}},{"type":"Feature","geometry":{"type":"Point","coordinates":[138.4076,36.74961]},"properties":{"name":"上条","line":"長野線","riders":75}},{"type":"Feature","geometry":{"type":"Point","coordinates":[138.31279,36.69899]},"properties":{"name":"小布施","line":"長野線","riders":1850}},{"type":"Feature","geometry":{"type":"Point","coordinates":[138.4149,36.74165]},"properties":{"name":"湯田中","line":"長野線","riders":1255}},{"type":"Feature","geometry":{"type":"Point","coordinates":[138.30871,36.67839]},"properties":{"name":"北須坂","line":"長野線","riders":887}},{"type":"Feature","geometry":{"type":"Point","coordinates":[138.19211,36.65324]},"properties":{"name":"権堂","line":"長野線","riders":2652}},{"type":"Feature","geometry":{"type":"Point","coordinates":[138.2407,36.66633]},"properties":{"name":"朝陽","line":"長野線","riders":2197}},{"type":"Feature","geometry":{"type":"Point","coordinates":[138.36493,36.74465]},"properties":{"name":"信州中野","line":"長野線","riders":3154}},{"type":"Feature","geometry":{"type":"Point","coordinates":[138.3743,36.75066]},"properties":{"name":"中野松川","line":"長野線","riders":184}},{"type":"Feature","geometry":{"type":"Point","coordinates":[137.94788,36.1148]},"properties":{"name":"塩尻","line":"中央線","riders":8594}},{"type":"Feature","geometry":{"type":"Point","coordinates":[137.89486,36.04906]},"properties":{"name":"日出塩","line":"中央線","riders":13}},{"type":"Feature","geometry":{"type":"Point","coordinates":[137.91682,36.08713]},"properties":{"name":"洗馬","line":"中央線","riders":122}},{"type":"Feature","geometry":{"type":"Point","coordinates":[137.86094,36.01398]},"properties":{"name":"贄川","line":"中央線","riders":216}},{"type":"Feature","geometry":{"type":"Point","coordinates":[137.83229,35.97905]},"properties":{"name":"木曽平沢","line":"中央線","riders":91}},{"type":"Feature","geometry":{"type":"Point","coordinates":[137.81621,35.96947]},"properties":{"name":"奈良井","line":"中央線","riders":136}},{"type":"Feature","geometry":{"type":"Point","coordinates":[137.54903,35.58823]},"properties":{"name":"田立","line":"中央線","riders":123}},{"type":"Feature","geometry":{"type":"Point","coordinates":[137.6087,35.59904]},"properties":{"name":"南木曽","line":"中央線","riders":583}},{"type":"Feature","geometry":{"type":"Point","coordinates":[137.6641,35.68442]},"properties":{"name":"大桑","line":"中央線","riders":125}},{"type":"Feature","geometry":{"type":"Point","coordinates":[137.6934,35.84373]},"properties":{"name":"木曽福島","line":"中央線","riders":1394}},{"type":"Feature","geometry":{"type":"Point","coordinates":[137.61756,35.6453]},"properties":{"name":"十二兼","line":"中央線","riders":16}},{"type":"Feature","geometry":{"type":"Point","coordinates":[137.50281,35.50015]},"properties":{"name":"中津川","line":"中央線","riders":6701}},{"type":"Feature","geometry":{"type":"Point","coordinates":[137.53118,35.57458]},"properties":{"name":"坂下","line":"中央線","riders":693}},{"type":"Feature","geometry":{"type":"Point","coordinates":[137.69494,35.69785]},"properties":{"name":"須原","line":"中央線","riders":106}},{"type":"Feature","geometry":{"type":"Point","coordinates":[137.78428,35.9299]},"properties":{"name":"藪原","line":"中央線","riders":226}},{"type":"Feature","geometry":{"type":"Point","coordinates":[137.76393,35.88848]},"properties":{"name":"宮ノ越","line":"中央線","riders":91}},{"type":"Feature","geometry":{"type":"Point","coordinates":[137.53006,35.52532]},"properties":{"name":"落合川","line":"中央線","riders":63}},{"type":"Feature","geometry":{"type":"Point","coordinates":[137.63616,35.67304]},"properties":{"name":"野尻","line":"中央線","riders":142}},{"type":"Feature","geometry":{"type":"Point","coordinates":[137.74153,35.87127]},"properties":{"name":"原野","line":"中央線","riders":86}},{"type":"Feature","geometry":{"type":"Point","coordinates":[137.69327,35.78408]},"properties":{"name":"上松","line":"中央線","riders":325}},{"type":"Feature","geometry":{"type":"Point","coordinates":[137.71433,35.73294]},"properties":{"name":"倉本","line":"中央線","riders":33}},{"type":"Feature","geometry":{"type":"Point","coordinates":[137.99718,35.98452]},"properties":{"name":"辰野","line":"飯田線","riders":1192}},{"type":"Feature","geometry":{"type":"Point","coordinates":[137.96435,35.84524]},"properties":{"name":"伊那北","line":"飯田線","riders":2050}},{"type":"Feature","geometry":{"type":"Point","coordinates":[137.98406,35.96878]},"properties":{"name":"伊那新町","line":"飯田線","riders":145}},{"type":"Feature","geometry":{"type":"Point","coordinates":[137.95925,35.83845]},"properties":{"name":"伊那市","line":"飯田線","riders":2377}},{"type":"Feature","geometry":{"type":"Point","coordinates":[137.98546,35.93632]},"properties":{"name":"沢","line":"飯田線","riders":724}},{"type":"Feature","geometry":{"type":"Point","coordinates":[137.94396,35.77793]},"properties":{"name":"赤木","line":"飯田線","riders":117}},{"type":"Feature","geometry":{"type":"Point","coordinates":[137.90407,35.6175]},"properties":{"name":"上片桐","line":"飯田線","riders":689}},{"type":"Feature","geometry":{"type":"Point","coordinates":[137.9905,35.97626]},"properties":{"name":"宮木","line":"飯田線","riders":1219}},{"type":"Feature","geometry":{"type":"Point","coordinates":[137.91321,35.5957]},"properties":{"name":"伊那大島","line":"飯田線","riders":702}},{"type":"Feature","geometry":{"type":"Point","coordinates":[137.93397,35.71223]},"properties":{"name":"伊那福岡","line":"飯田線","riders":647}},{"type":"Feature","geometry":{"type":"Point","coordinates":[137.92899,35.67759]},"properties":{"name":"飯島","line":"飯田線","riders":509}},{"type":"Feature","geometry":{"type":"Point","coordinates":[137.93887,35.76727]},"properties":{"name":"宮田","line":"飯田線","riders":641}},{"type":"Feature","geometry":{"type":"Point","coordinates":[137.93306,35.69564]},"properties":{"name":"田切","line":"飯田線","riders":87}},{"type":"Feature","geometry":{"type":"Point","coordinates":[137.94015,35.81318]},"properties":{"name":"下島","line":"飯田線","riders":144}},{"type":"Feature","geometry":{"type":"Point","coordinates":[137.93516,35.72678]},"properties":{"name":"小町屋","line":"飯田線","riders":1279}},{"type":"Feature","geometry":{"type":"Point","coordinates":[137.91138,35.65468]},"properties":{"name":"七久保","line":"飯田線","riders":269}},{"type":"Feature","geometry":{"type":"Point","coordinates":[137.9401,35.7482]},"properties":{"name":"大田切","line":"飯田線","riders":201}},{"type":"Feature","geometry":{"type":"Point","coordinates":[137.91024,35.62745]},"properties":{"name":"伊那田島","line":"飯田線","riders":31}},{"type":"Feature","geometry":{"type":"Point","coordinates":[137.98866,35.91385]},"properties":{"name":"伊那松島","line":"飯田線","riders":995}},{"type":"Feature","geometry":{"type":"Point","coordinates":[137.93249,35.6654]},"properties":{"name":"伊那本郷","line":"飯田線","riders":82}},{"type":"Feature","geometry":{"type":"Point","coordinates":[137.98516,35.95306]},"properties":{"name":"羽場","line":"飯田線","riders":387}},{"type":"Feature","geometry":{"type":"Point","coordinates":[137.93686,35.73628]},"properties":{"name":"駒ヶ根","line":"飯田線","riders":949}},{"type":"Feature","geometry":{"type":"Point","coordinates":[137.98406,35.87951]},"properties":{"name":"北殿","line":"飯田線","riders":563}},{"type":"Feature","geometry":{"type":"Point","coordinates":[137.90335,35.57778]},"properties":{"name":"山吹","line":"飯田線","riders":142}},{"type":"Feature","geometry":{"type":"Point","coordinates":[137.94403,35.80372]},"properties":{"name":"沢渡","line":"飯田線","riders":919}},{"type":"Feature","geometry":{"type":"Point","coordinates":[137.89591,35.57259]},"properties":{"name":"下平","line":"飯田線","riders":188}},{"type":"Feature","geometry":{"type":"Point","coordinates":[137.988,35.90083]},"properties":{"name":"木ノ下","line":"飯田線","riders":863}},{"type":"Feature","geometry":{"type":"Point","coordinates":[137.90055,35.64463]},"properties":{"name":"高遠原","line":"飯田線","riders":43}},{"type":"Feature","geometry":{"type":"Point","coordinates":[137.97783,35.8608]},"properties":{"name":"田畑","line":"飯田線","riders":304}},{"type":"Feature","geometry":{"type":"Point","coordinates":[137.86142,35.53386]},"properties":{"name":"元善光寺","line":"飯田線","riders":471}},{"type":"Feature","geometry":{"type":"Point","coordinates":[137.83974,35.5042]},"properties":{"name":"下山村","line":"飯田線","riders":80}},{"type":"Feature","geometry":{"type":"Point","coordinates":[137.82836,35.5067]},"properties":{"name":"鼎","line":"飯田線","riders":1298}},{"type":"Feature","geometry":{"type":"Point","coordinates":[137.82127,35.51972]},"properties":{"name":"飯田","line":"飯田線","riders":1654}},{"type":"Feature","geometry":{"type":"Point","coordinates":[137.83903,35.52018]},"properties":{"name":"伊那上郷","line":"飯田線","riders":1351}},{"type":"Feature","geometry":{"type":"Point","coordinates":[137.88658,35.54935]},"properties":{"name":"市田","line":"飯田線","riders":781}},{"type":"Feature","geometry":{"type":"Point","coordinates":[137.80915,35.5124]},"properties":{"name":"切石","line":"飯田線","riders":226}},{"type":"Feature","geometry":{"type":"Point","coordinates":[137.87634,35.54416]},"properties":{"name":"下市田","line":"飯田線","riders":137}},{"type":"Feature","geometry":{"type":"Point","coordinates":[137.82976,35.52218]},"properties":{"name":"桜町","line":"飯田線","riders":189}},{"type":"Feature","geometry":{"type":"Point","coordinates":[138.55129,36.5319]},"properties":{"name":"万座・鹿沢口","line":"吾妻線","riders":592}},{"type":"Feature","geometry":{"type":"Point","coordinates":[138.52902,36.51358]},"properties":{"name":"大前","line":"吾妻線","riders":11}},{"type":"Feature","geometry":{"type":"Point","coordinates":[138.57917,36.54402]},"properties":{"name":"袋倉","line":"吾妻線","riders":11}},{"type":"Feature","geometry":{"type":"Point","coordinates":[138.07935,36.45722]},"properties":{"name":"冠着","line":"篠ノ井線","riders":154}},{"type":"Feature","geometry":{"type":"Point","coordinates":[138.04757,36.45506]},"properties":{"name":"聖高原","line":"篠ノ井線","riders":630}},{"type":"Feature","geometry":{"type":"Point","coordinates":[138.01576,36.43071]},"properties":{"name":"坂北","line":"篠ノ井線","riders":348}},{"type":"Feature","geometry":{"type":"Point","coordinates":[138.01249,36.40046]},"properties":{"name":"西条","line":"篠ノ井線","riders":398}},{"type":"Feature","geometry":{"type":"Point","coordinates":[138.09315,36.50288]},"properties":{"name":"姨捨","line":"篠ノ井線","riders":128}},{"type":"Feature","geometry":{"type":"Point","coordinates":[137.93037,36.35426]},"properties":{"name":"明科","line":"篠ノ井線","riders":2188}},{"type":"Feature","geometry":{"type":"Point","coordinates":[137.95606,36.17433]},"properties":{"name":"村井","line":"篠ノ井線","riders":4028}},{"type":"Feature","geometry":{"type":"Point","coordinates":[138.10809,36.55265]},"properties":{"name":"稲荷山","line":"篠ノ井線","riders":820}},{"type":"Feature","geometry":{"type":"Point","coordinates":[137.96463,36.23027]},"properties":{"name":"松本","line":"篠ノ井線","riders":37281}},{"type":"Feature","geometry":{"type":"Point","coordinates":[137.96961,36.21071]},"properties":{"name":"南松本","line":"篠ノ井線","riders":3190}},{"type":"Feature","geometry":{"type":"Point","coordinates":[137.94103,36.3017]},"properties":{"name":"田沢","line":"篠ノ井線","riders":1092}},{"type":"Feature","geometry":{"type":"Point","coordinates":[137.94959,36.14793]},"properties":{"name":"広丘","line":"篠ノ井線","riders":5444}},{"type":"Feature","geometry":{"type":"Point","coordinates":[138.48919,36.18131]},"properties":{"name":"青沼","line":"小海線","riders":11}},{"type":"Feature","geometry":{"type":"Point","coordinates":[138.45024,36.2923]},"properties":{"name":"美里","line":"小海線","riders":11}},{"type":"Feature","geometry":{"type":"Point","coordinates":[138.49072,36.20422]},"properties":{"name":"龍岡城","line":"小海線","riders":11}},{"type":"Feature","geometry":{"type":"Point","coordinates":[138.44844,36.30418]},"properties":{"name":"三岡","line":"小海線","riders":11}},{"type":"Feature","geometry":{"type":"Point","coordinates":[138.4767,36.25491]},"properties":{"name":"北中込","line":"小海線","riders":11}},{"type":"Feature","geometry":{"type":"Point","coordinates":[138.44052,36.3113]},"properties":{"name":"乙女","line":"小海線","riders":11}},{"type":"Feature","geometry":{"type":"Point","coordinates":[138.4794,36.23065]},"properties":{"name":"中込","line":"小海線","riders":2050}},{"type":"Feature","geometry":{"type":"Point","coordinates":[138.47244,36.27448]},"properties":{"name":"岩村田","line":"小海線","riders":2628}},{"type":"Feature","geometry":{"type":"Point","coordinates":[138.42274,36.32568]},"properties":{"name":"小諸","line":"小海線","riders":6518}},{"type":"Feature","geometry":{"type":"Point","coordinates":[138.46331,36.27757]},"properties":{"name":"佐久平","line":"小海線","riders":6226}},{"type":"Feature","geometry":{"type":"Point","coordinates":[138.45361,36.28088]},"properties":{"name":"中佐都","line":"小海線","riders":11}},{"type":"Feature","geometry":{"type":"Point","coordinates":[138.43209,36.31701]},"properties":{"name":"東小諸","line":"小海線","riders":11}},{"type":"Feature","geometry":{"type":"Point","coordinates":[138.47501,36.23871]},"properties":{"name":"滑津","line":"小海線","riders":11}},{"type":"Feature","geometry":{"type":"Point","coordinates":[138.48777,36.22033]},"properties":{"name":"太田部","line":"小海線","riders":11}},{"type":"Feature","geometry":{"type":"Point","coordinates":[138.48824,36.194]},"properties":{"name":"臼田","line":"小海線","riders":530}},{"type":"Feature","geometry":{"type":"Point","coordinates":[138.48593,36.15578]},"properties":{"name":"海瀬","line":"小海線","riders":11}},{"type":"Feature","geometry":{"type":"Point","coordinates":[138.47055,36.061]},"properties":{"name":"松原湖","line":"小海線","riders":11}},{"type":"Feature","geometry":{"type":"Point","coordinates":[138.48289,36.08868]},"properties":{"name":"小海","line":"小海線","riders":470}},{"type":"Feature","geometry":{"type":"Point","coordinates":[138.47356,36.04131]},"properties":{"name":"海尻","line":"小海線","riders":11}},{"type":"Feature","geometry":{"type":"Point","coordinates":[138.47753,36.11574]},"properties":{"name":"高岩","line":"小海線","riders":11}},{"type":"Feature","geometry":{"type":"Point","coordinates":[138.49082,36.02119]},"properties":{"name":"佐久海ノ口","line":"小海線","riders":11}},{"type":"Feature","geometry":{"type":"Point","coordinates":[138.48598,36.10184]},"properties":{"name":"馬流","line":"小海線","riders":11}},{"type":"Feature","geometry":{"type":"Point","coordinates":[138.48964,36.1664]},"properties":{"name":"羽黒下","line":"小海線","riders":238}},{"type":"Feature","geometry":{"type":"Point","coordinates":[138.47742,36.13332]},"properties":{"name":"八千穂","line":"小海線","riders":272}},{"type":"Feature","geometry":{"type":"Point","coordinates":[138.51939,36.00368]},"properties":{"name":"佐久広瀬","line":"小海線","riders":11}},{"type":"Feature","geometry":{"type":"Point","coordinates":[138.23271,36.98975]},"properties":{"name":"二本木","line":"妙高はねうまライン","riders":294}},{"type":"Feature","geometry":{"type":"Point","coordinates":[138.18885,36.64346]},"properties":{"name":"長野","line":"北しなの線","riders":42818}},{"type":"Feature","geometry":{"type":"Point","coordinates":[138.19711,36.80732]},"properties":{"name":"黒姫","line":"北しなの線","riders":836}},{"type":"Feature","geometry":{"type":"Point","coordinates":[138.22678,36.93251]},"properties":{"name":"関山","line":"妙高はねうまライン","riders":382}},{"type":"Feature","geometry":{"type":"Point","coordinates":[138.14508,36.59488]},"properties":{"name":"今井","line":"信越線","riders":3988}},{"type":"Feature","geometry":{"type":"Point","coordinates":[138.23048,36.7924]},"properties":{"name":"古間","line":"北しなの線","riders":289}},{"type":"Feature","geometry":{"type":"Point","coordinates":[138.21218,36.8723]},"properties":{"name":"妙高高原","line":"妙高はねうまライン","riders":780}},{"type":"Feature","geometry":{"type":"Point","coordinates":[138.16182,36.63027]},"properties":{"name":"安茂里","line":"信越線","riders":2166}},{"type":"Feature","geometry":{"type":"Point","coordinates":[138.24385,36.68648]},"properties":{"name":"三才","line":"北しなの線","riders":2992}},{"type":"Feature","geometry":{"type":"Point","coordinates":[138.1507,36.61409]},"properties":{"name":"川中島","line":"信越線","riders":3200}},{"type":"Feature","geometry":{"type":"Point","coordinates":[138.22265,36.66507]},"properties":{"name":"北長野","line":"北しなの線","riders":4488}},{"type":"Feature","geometry":{"type":"Point","coordinates":[138.24681,36.75322]},"properties":{"name":"牟礼","line":"北しなの線","riders":1630}},{"type":"Feature","geometry":{"type":"Point","coordinates":[138.27556,36.7111]},"properties":{"name":"豊野","line":"北しなの線","riders":4419}},{"type":"Feature","geometry":{"type":"Point","coordinates":[137.90398,36.26008]},"properties":{"name":"一日市場","line":"大糸線","riders":1636}},{"type":"Feature","geometry":{"type":"Point","coordinates":[137.94476,36.24691]},"properties":{"name":"島内","line":"大糸線","riders":11}},{"type":"Feature","geometry":{"type":"Point","coordinates":[137.9033,36.27388]},"properties":{"name":"中萱","line":"大糸線","riders":800}},{"type":"Feature","geometry":{"type":"Point","coordinates":[137.93162,36.24633]},"properties":{"name":"島高松","line":"大糸線","riders":11}},{"type":"Feature","geometry":{"type":"Point","coordinates":[137.90085,36.76324]},"properties":{"name":"千国","line":"大糸線","riders":11}},{"type":"Feature","geometry":{"type":"Point","coordinates":[137.90349,36.29099]},"properties":{"name":"南豊科","line":"大糸線","riders":1862}},{"type":"Feature","geometry":{"type":"Point","coordinates":[137.9611,36.2369]},"properties":{"name":"北松本","line":"大糸線","riders":1512}},{"type":"Feature","geometry":{"type":"Point","coordinates":[137.91808,36.25018]},"properties":{"name":"梓橋","line":"大糸線","riders":1020}},{"type":"Feature","geometry":{"type":"Point","coordinates":[137.90094,36.30002]},"properties":{"name":"豊科","line":"大糸線","riders":2206}},{"type":"Feature","geometry":{"type":"Point","coordinates":[137.86579,36.39707]},"properties":{"name":"細野","line":"大糸線","riders":11}},{"type":"Feature","geometry":{"type":"Point","coordinates":[137.84716,36.46737]},"properties":{"name":"信濃常盤","line":"大糸線","riders":11}},{"type":"Feature","geometry":{"type":"Point","coordinates":[137.84262,36.55411]},"properties":{"name":"稲尾","line":"大糸線","riders":11}},{"type":"Feature","geometry":{"type":"Point","coordinates":[137.84625,36.53564]},"properties":{"name":"信濃木崎","line":"大糸線","riders":11}},{"type":"Feature","geometry":{"type":"Point","coordinates":[137.85807,36.51761]},"properties":{"name":"北大町","line":"大糸線","riders":11}},{"type":"Feature","geometry":{"type":"Point","coordinates":[137.85476,36.44781]},"properties":{"name":"安曇沓掛","line":"大糸線","riders":11}},{"type":"Feature","geometry":{"type":"Point","coordinates":[137.85016,36.67061]},"properties":{"name":"飯森","line":"大糸線","riders":11}},{"type":"Feature","geometry":{"type":"Point","coordinates":[137.84661,36.65822]},"properties":{"name":"神城","line":"大糸線","riders":116}},{"type":"Feature","geometry":{"type":"Point","coordinates":[137.84163,36.63718]},"properties":{"name":"南神城","line":"大糸線","riders":11}},{"type":"Feature","geometry":{"type":"Point","coordinates":[137.88554,36.73996]},"properties":{"name":"白馬大池","line":"大糸線","riders":11}},{"type":"Feature","geometry":{"type":"Point","coordinates":[137.85858,36.42448]},"properties":{"name":"信濃松川","line":"大糸線","riders":1294}},{"type":"Feature","geometry":{"type":"Point","coordinates":[137.87277,36.37186]},"properties":{"name":"安曇追分","line":"大糸線","riders":640}},{"type":"Feature","geometry":{"type":"Point","coordinates":[137.86273,36.40644]},"properties":{"name":"北細野","line":"大糸線","riders":11}},{"type":"Feature","geometry":{"type":"Point","coordinates":[137.8639,36.69601]},"properties":{"name":"白馬","line":"大糸線","riders":662}},{"type":"Feature","geometry":{"type":"Point","coordinates":[137.84185,36.56568]},"properties":{"name":"海ノ口","line":"大糸線","riders":11}},{"type":"Feature","geometry":{"type":"Point","coordinates":[137.88194,36.33906]},"properties":{"name":"穂高","line":"大糸線","riders":2520}},{"type":"Feature","geometry":{"type":"Point","coordinates":[137.86169,36.50022]},"properties":{"name":"信濃大町","line":"大糸線","riders":2746}},{"type":"Feature","geometry":{"type":"Point","coordinates":[137.88836,36.32247]},"properties":{"name":"柏矢町","line":"大糸線","riders":1074}},{"type":"Feature","geometry":{"type":"Point","coordinates":[137.85627,36.49153]},"properties":{"name":"南大町","line":"大糸線","riders":11}},{"type":"Feature","geometry":{"type":"Point","coordinates":[137.87184,36.71098]},"properties":{"name":"信濃森上","line":"大糸線","riders":11}},{"type":"Feature","geometry":{"type":"Point","coordinates":[137.84483,36.59491]},"properties":{"name":"簗場","line":"大糸線","riders":11}},{"type":"Feature","geometry":{"type":"Point","coordinates":[137.87825,36.36001]},"properties":{"name":"有明","line":"大糸線","riders":520}},{"type":"Feature","geometry":{"type":"Point","coordinates":[138.02196,36.03298]},"properties":{"name":"川岸","line":"中央線","riders":11}},{"type":"Feature","geometry":{"type":"Point","coordinates":[138.19753,35.94271]},"properties":{"name":"青柳","line":"中央線","riders":11}},{"type":"Feature","geometry":{"type":"Point","coordinates":[138.04512,36.05676]},"properties":{"name":"岡谷","line":"中央線","riders":6540}},{"type":"Feature","geometry":{"type":"Point","coordinates":[137.98197,36.09426]},"properties":{"name":"みどり湖","line":"中央線","riders":11}},{"type":"Feature","geometry":{"type":"Point","coordinates":[137.9708,36.04688]},"properties":{"name":"小野","line":"中央線","riders":372}},{"type":"Feature","geometry":{"type":"Point","coordinates":[138.11626,36.04676]},"properties":{"name":"上諏訪","line":"中央線","riders":8786}},{"type":"Feature","geometry":{"type":"Point","coordinates":[137.97188,36.01368]},"properties":{"name":"信濃川島","line":"中央線","riders":11}},{"type":"Feature","geometry":{"type":"Point","coordinates":[138.08562,36.07195]},"properties":{"name":"下諏訪","line":"中央線","riders":4280}},{"type":"Feature","geometry":{"type":"Point","coordinates":[138.15195,35.99476]},"properties":{"name":"茅野","line":"中央線","riders":7582}},{"type":"Feature","geometry":{"type":"Point","coordinates":[138.57745,36.98945]},"properties":{"name":"森宮野原","line":"飯山線","riders":166}},{"type":"Feature","geometry":{"type":"Point","coordinates":[138.44141,36.96294]},"properties":{"name":"上桑名川","line":"飯山線","riders":11}},{"type":"Feature","geometry":{"type":"Point","coordinates":[138.48087,36.97924]},"properties":{"name":"西大滝","line":"飯山線","riders":11}},{"type":"Feature","geometry":{"type":"Point","coordinates":[138.55034,36.97991]},"properties":{"name":"横倉","line":"飯山線","riders":44}},{"type":"Feature","geometry":{"type":"Point","coordinates":[138.50304,36.9836]},"properties":{"name":"信濃白鳥","line":"飯山線","riders":20}},{"type":"Feature","geometry":{"type":"Point","coordinates":[138.53375,36.98604]},"properties":{"name":"平滝","line":"飯山線","riders":26}},{"type":"Feature","geometry":{"type":"Point","coordinates":[138.45797,36.97589]},"properties":{"name":"桑名川","line":"飯山線","riders":11}},{"type":"Feature","geometry":{"type":"Point","coordinates":[138.30701,36.7313]},"properties":{"name":"立ヶ花","line":"飯山線","riders":11}},{"type":"Feature","geometry":{"type":"Point","coordinates":[138.41904,36.93798]},"properties":{"name":"上境","line":"飯山線","riders":11}},{"type":"Feature","geometry":{"type":"Point","coordinates":[138.32414,36.7693]},"properties":{"name":"替佐","line":"飯山線","riders":256}},{"type":"Feature","geometry":{"type":"Point","coordinates":[138.39294,36.91666]},"properties":{"name":"戸狩野沢温泉","line":"飯山線","riders":602}},{"type":"Feature","geometry":{"type":"Point","coordinates":[138.36386,36.85882]},"properties":{"name":"北飯山","line":"飯山線","riders":11}},{"type":"Feature","geometry":{"type":"Point","coordinates":[138.34919,36.80884]},"properties":{"name":"蓮","line":"飯山線","riders":11}},{"type":"Feature","geometry":{"type":"Point","coordinates":[138.37849,36.885]},"properties":{"name":"信濃平","line":"飯山線","riders":11}},{"type":"Feature","geometry":{"type":"Point","coordinates":[138.31947,36.75335]},"properties":{"name":"上今井","line":"飯山線","riders":500}},{"type":"Feature","geometry":{"type":"Point","coordinates":[138.35879,36.84603]},"properties":{"name":"飯山","line":"飯山線","riders":2024}},{"type":"Feature","geometry":{"type":"Point","coordinates":[138.29449,36.72177]},"properties":{"name":"信濃浅野","line":"飯山線","riders":452}},{"type":"Feature","geometry":{"type":"Point","coordinates":[138.46476,36.2782]},"properties":{"name":"佐久平","line":"北陸新幹線","riders":11}},{"type":"Feature","geometry":{"type":"Point","coordinates":[138.25023,36.39614]},"properties":{"name":"上田","line":"北陸新幹線","riders":5842}},{"type":"Feature","geometry":{"type":"Point","coordinates":[138.18887,36.64281]},"properties":{"name":"長野","line":"北陸新幹線","riders":11}},{"type":"Feature","geometry":{"type":"Point","coordinates":[137.55992,36.84074]},"properties":{"name":"音沢","line":"本線","riders":83}},{"type":"Feature","geometry":{"type":"Point","coordinates":[137.51952,36.86342]},"properties":{"name":"浦山","line":"本線","riders":265}},{"type":"Feature","geometry":{"type":"Point","coordinates":[137.58358,36.81585]},"properties":{"name":"宇奈月温泉","line":"本線","riders":1058}},{"type":"Feature","geometry":{"type":"Point","coordinates":[137.54143,36.85773]},"properties":{"name":"下立","line":"本線","riders":93}},{"type":"Feature","geometry":{"type":"Point","coordinates":[137.55361,36.85578]},"properties":{"name":"愛本","line":"本線","riders":248}},{"type":"Feature","geometry":{"type":"Point","coordinates":[137.50597,36.86977]},"properties":{"name":"栃屋","line":"本線","riders":82}},{"type":"Feature","geometry":{"type":"Point","coordinates":[137.55676,36.84682]},"properties":{"name":"内山","line":"本線","riders":193}},{"type":"Feature","geometry":{"type":"Point","coordinates":[137.53298,36.85961]},"properties":{"name":"下立口","line":"本線","riders":52}},{"type":"Feature","geometry":{"type":"Point","coordinates":[137.65058,36.56705]},"properties":{"name":"黒部平","line":"鋼索線","riders":3382}},{"type":"Feature","geometry":{"type":"Point","coordinates":[137.65842,36.56653]},"properties":{"name":"黒部湖","line":"鋼索線","riders":3382}},{"type":"Feature","geometry":{"type":"Point","coordinates":[137.5955,36.57736]},"properties":{"name":"室堂","line":"無軌条電車線","riders":3308}},{"type":"Feature","geometry":{"type":"Point","coordinates":[137.63172,36.56972]},"properties":{"name":"大観峰","line":"無軌条電車線","riders":3308}},{"type":"Feature","geometry":{"type":"Point","coordinates":[137.96256,36.19171]},"properties":{"name":"平田","line":"篠ノ井線","riders":3076}},{"type":"Feature","geometry":{"type":"Point","coordinates":[138.14144,36.50921]},"properties":{"name":"千曲","line":"しなの鉄道線","riders":1039}},{"type":"Feature","geometry":{"type":"Point","coordinates":[138.35901,36.84514]},"properties":{"name":"飯山","line":"北陸新幹線","riders":11}}]}