{"type":"FeatureCollection","features":[{"type":"Feature","geometry":{"type":"Point","coordinates":[136.20649,36.15359]},"properties":{"name":"西長田ゆりの里","line":"三国芦原線","riders":328}},{"type":"Feature","geometry":{"type":"Point","coordinates":[136.20481,36.12024]},"properties":{"name":"鷲塚針原","line":"三国芦原線","riders":293}},{"type":"Feature","geometry":{"type":"Point","coordinates":[136.20444,36.10112]},"properties":{"name":"中角","line":"三国芦原線","riders":92}},{"type":"Feature","geometry":{"type":"Point","coordinates":[136.20252,36.21253]},"properties":{"name":"番田","line":"三国芦原線","riders":32}},{"type":"Feature","geometry":{"type":"Point","coordinates":[136.20569,36.13133]},"properties":{"name":"太郎丸エンゼルランド","line":"三国芦原線","riders":316}},{"type":"Feature","geometry":{"type":"Point","coordinates":[136.20378,36.18663]},"properties":{"name":"大関","line":"三国芦原線","riders":171}},{"type":"Feature","geometry":{"type":"Point","coordinates":[136.20622,36.1389]},"properties":{"name":"西春江ハートピア","line":"三国芦原線","riders":280}},{"type":"Feature","geometry":{"type":"Point","coordinates":[136.20259,36.17012]},"properties":{"name":"下兵庫こうふく","line":"三国芦原線","riders":174}},{"type":"Feature","geometry":{"type":"Point","coordinates":[136.20316,36.20463]},"properties":{"name":"本荘","line":"三国芦原線","riders":122}},{"type":"Feature","geometry":{"type":"Point","coordinates":[136.31385,36.30009]},"properties":{"name":"大聖寺","line":"北陸線","riders":1870}},{"type":"Feature","geometry":{"type":"Point","coordinates":[136.45294,36.40269]},"properties":{"name":"小松","line":"北陸線","riders":9070}},{"type":"Feature","geometry":{"type":"Point","coordinates":[136.59893,36.54213]},"properties":{"name":"野々市","line":"北陸線","riders":4000}},{"type":"Feature","geometry":{"type":"Point","coordinates":[136.48973,36.486]},"properties":{"name":"美川","line":"北陸線","riders":1826}},{"type":"Feature","geometry":{"type":"Point","coordinates":[136.45962,36.45146]},"properties":{"name":"能美根上","line":"北陸線","riders":2582}},{"type":"Feature","geometry":{"type":"Point","coordinates":[136.38336,36.32856]},"properties":{"name":"動橋","line":"北陸線","riders":1168}},{"type":"Feature","geometry":{"type":"Point","coordinates":[136.64781,36.57826]},"properties":{"name":"金沢","line":"北陸線","riders":46820}},{"type":"Feature","geometry":{"type":"Point","coordinates":[136.66948,36.59345]},"properties":{"name":"東金沢","line":"IRいしかわ鉄道線","riders":6292}},{"type":"Feature","geometry":{"type":"Point","coordinates":[136.56568,36.52651]},"properties":{"name":"松任","line":"北陸線","riders":7636}},{"type":"Feature","geometry":{"type":"Point","coordinates":[136.68956,36.61219]},"properties":{"name":"森本","line":"IRいしかわ鉄道線","riders":3398}},{"type":"Feature","geometry":{"type":"Point","coordinates":[136.35037,36.32057]},"properties":{"name":"加賀温泉","line":"北陸線","riders":4458}},{"type":"Feature","geometry":{"type":"Point","coordinates":[136.42458,36.35577]},"properties":{"name":"粟津","line":"北陸線","riders":2757}},{"type":"Feature","geometry":{"type":"Point","coordinates":[136.46316,36.42531]},"properties":{"name":"明峰","line":"北陸線","riders":1064}},{"type":"Feature","geometry":{"type":"Point","coordinates":[136.5277,36.50315]},"properties":{"name":"加賀笠間","line":"北陸線","riders":3325}},{"type":"Feature","geometry":{"type":"Point","coordinates":[136.47489,36.47631]},"properties":{"name":"小舞子","line":"北陸線","riders":624}},{"type":"Feature","geometry":{"type":"Point","coordinates":[136.62112,36.55314]},"properties":{"name":"西金沢","line":"北陸線","riders":6064}},{"type":"Feature","geometry":{"type":"Point","coordinates":[136.22874,36.12976]},"properties":{"name":"春江","line":"北陸線","riders":2206}},{"type":"Feature","geometry":{"type":"Point","coordinates":[136.28186,36.25969]},"properties":{"name":"牛ノ谷","line":"北陸線","riders":53}},{"type":"Feature","geometry":{"type":"Point","coordinates":[136.25671,36.24063]},"properties":{"name":"細呂木","line":"北陸線","riders":161}},{"type":"Feature","geometry":{"type":"Point","coordinates":[136.22251,36.10932]},"properties":{"name":"森田","line":"北陸線","riders":1866}},{"type":"Feature","geometry":{"type":"Point","coordinates":[136.2352,36.21541]},"properties":{"name":"芦原温泉","line":"北陸線","riders":3666}},{"type":"Feature","geometry":{"type":"Point","coordinates":[136.23356,36.16254]},"properties":{"name":"丸岡","line":"北陸線","riders":2224}},{"type":"Feature","geometry":{"type":"Point","coordinates":[137.24583,36.18099]},"properties":{"name":"上枝","line":"高山線","riders":28}},{"type":"Feature","geometry":{"type":"Point","coordinates":[137.2514,36.14069]},"properties":{"name":"高山","line":"高山線","riders":2816}},{"type":"Feature","geometry":{"type":"Point","coordinates":[136.61574,36.49883]},"properties":{"name":"四十万","line":"石川線","riders":254}},{"type":"Feature","geometry":{"type":"Point","coordinates":[136.62383,36.45219]},"properties":{"name":"鶴来","line":"石川線","riders":1102}},{"type":"Feature","geometry":{"type":"Point","coordinates":[136.61514,36.46464]},"properties":{"name":"日御子","line":"石川線","riders":205}},{"type":"Feature","geometry":{"type":"Point","coordinates":[136.61885,36.51853]},"properties":{"name":"額住宅前","line":"石川線","riders":357}},{"type":"Feature","geometry":{"type":"Point","coordinates":[136.63337,36.55339]},"properties":{"name":"西泉","line":"石川線","riders":271}},{"type":"Feature","geometry":{"type":"Point","coordinates":[136.62088,36.53583]},"properties":{"name":"野々市","line":"石川線","riders":112}},{"type":"Feature","geometry":{"type":"Point","coordinates":[136.62051,36.52275]},"properties":{"name":"馬替","line":"石川線","riders":277}},{"type":"Feature","geometry":{"type":"Point","coordinates":[136.62274,36.55306]},"properties":{"name":"新西金沢","line":"石川線","riders":1107}},{"type":"Feature","geometry":{"type":"Point","coordinates":[136.6123,36.47633]},"properties":{"name":"井口","line":"石川線","riders":272}},{"type":"Feature","geometry":{"type":"Point","coordinates":[136.62205,36.54232]},"properties":{"name":"押野","line":"石川線","riders":80}},{"type":"Feature","geometry":{"type":"Point","coordinates":[136.62177,36.53265]},"properties":{"name":"野々市工大前","line":"石川線","riders":579}},{"type":"Feature","geometry":{"type":"Point","coordinates":[136.61765,36.51185]},"properties":{"name":"乙丸","line":"石川線","riders":448}},{"type":"Feature","geometry":{"type":"Point","coordinates":[136.64418,36.55369]},"properties":{"name":"野町","line":"石川線","riders":1746}},{"type":"Feature","geometry":{"type":"Point","coordinates":[136.61354,36.48426]},"properties":{"name":"道法寺","line":"石川線","riders":331}},{"type":"Feature","geometry":{"type":"Point","coordinates":[136.61144,36.47067]},"properties":{"name":"小柳","line":"石川線","riders":73}},{"type":"Feature","geometry":{"type":"Point","coordinates":[136.61445,36.49001]},"properties":{"name":"曽谷","line":"石川線","riders":71}},{"type":"Feature","geometry":{"type":"Point","coordinates":[136.6485,36.59648]},"properties":{"name":"磯部","line":"浅野川線","riders":114}},{"type":"Feature","geometry":{"type":"Point","coordinates":[136.65164,36.58351]},"properties":{"name":"七ツ屋","line":"浅野川線","riders":57}},{"type":"Feature","geometry":{"type":"Point","coordinates":[136.64754,36.60637]},"properties":{"name":"三口","line":"浅野川線","riders":124}},{"type":"Feature","geometry":{"type":"Point","coordinates":[136.64309,36.62519]},"properties":{"name":"蚊爪","line":"浅野川線","riders":361}},{"type":"Feature","geometry":{"type":"Point","coordinates":[136.64533,36.6116]},"properties":{"name":"三ツ屋","line":"浅野川線","riders":871}},{"type":"Feature","geometry":{"type":"Point","coordinates":[136.64908,36.59101]},"properties":{"name":"上諸江","line":"浅野川線","riders":398}},{"type":"Feature","geometry":{"type":"Point","coordinates":[136.6411,36.62289]},"properties":{"name":"北間","line":"浅野川線","riders":69}},{"type":"Feature","geometry":{"type":"Point","coordinates":[136.64297,36.61684]},"properties":{"name":"大河端","line":"浅野川線","riders":89}},{"type":"Feature","geometry":{"type":"Point","coordinates":[136.64843,36.60289]},"properties":{"name":"割出","line":"浅野川線","riders":478}},{"type":"Feature","geometry":{"type":"Point","coordinates":[136.64988,36.57897]},"properties":{"name":"北鉄金沢","line":"浅野川線","riders":4468}},{"type":"Feature","geometry":{"type":"Point","coordinates":[136.63844,36.63032]},"properties":{"name":"粟ヶ崎","line":"浅野川線","riders":41}},{"type":"Feature","geometry":{"type":"Point","coordinates":[136.63418,36.63323]},"properties":{"name":"内灘","line":"浅野川線","riders":2747}},{"type":"Feature","geometry":{"type":"Point","coordinates":[136.64804,36.57792]},"properties":{"name":"金沢","line":"北陸新幹線","riders":11}},{"type":"Feature","geometry":{"type":"Point","coordinates":[136.61499,36.49364]},"properties":{"name":"陽羽里","line":"石川線","riders":42}}]}