{"type":"FeatureCollection","features":[{"type":"Feature","geometry":{"type":"Point","coordinates":[129.94778,33.19473]},"properties":{"name":"三間坂","line":"佐世保線","riders":716}},{"type":"Feature","geometry":{"type":"Point","coordinates":[129.98043,33.19339]},"properties":{"name":"永尾","line":"佐世保線","riders":117}},{"type":"Feature","geometry":{"type":"Point","coordinates":[129.75831,33.15742]},"properties":{"name":"日宇","line":"佐世保線","riders":836}},{"type":"Feature","geometry":{"type":"Point","coordinates":[129.8291,33.15031]},"properties":{"name":"三河内","line":"佐世保線","riders":185}},{"type":"Feature","geometry":{"type":"Point","coordinates":[129.88186,33.18374]},"properties":{"name":"有田","line":"佐世保線","riders":1731}},{"type":"Feature","geometry":{"type":"Point","coordinates":[129.78205,33.14921]},"properties":{"name":"大塔","line":"佐世保線","riders":1032}},{"type":"Feature","geometry":{"type":"Point","coordinates":[129.90532,33.19031]},"properties":{"name":"上有田","line":"佐世保線","riders":180}},{"type":"Feature","geometry":{"type":"Point","coordinates":[129.72663,33.16372]},"properties":{"name":"佐世保","line":"佐世保線","riders":7648}},{"type":"Feature","geometry":{"type":"Point","coordinates":[129.79931,33.1339]},"properties":{"name":"早岐","line":"佐世保線","riders":3370}},{"type":"Feature","geometry":{"type":"Point","coordinates":[130.43472,32.99453]},"properties":{"name":"荒尾","line":"鹿児島線","riders":2124}},{"type":"Feature","geometry":{"type":"Point","coordinates":[130.45559,32.93515]},"properties":{"name":"長洲","line":"鹿児島線","riders":1440}},{"type":"Feature","geometry":{"type":"Point","coordinates":[130.58677,32.91327]},"properties":{"name":"肥後伊倉","line":"鹿児島線","riders":521}},{"type":"Feature","geometry":{"type":"Point","coordinates":[130.43313,32.96583]},"properties":{"name":"南荒尾","line":"鹿児島線","riders":776}},{"type":"Feature","geometry":{"type":"Point","coordinates":[130.50243,32.92165]},"properties":{"name":"大野下","line":"鹿児島線","riders":756}},{"type":"Feature","geometry":{"type":"Point","coordinates":[130.5487,32.92598]},"properties":{"name":"玉名","line":"鹿児島線","riders":5285}},{"type":"Feature","geometry":{"type":"Point","coordinates":[129.86408,33.06837]},"properties":{"name":"川棚","line":"大村線","riders":1791}},{"type":"Feature","geometry":{"type":"Point","coordinates":[129.91469,33.03982]},"properties":{"name":"彼杵","line":"大村線","riders":636}},{"type":"Feature","geometry":{"type":"Point","coordinates":[129.801,33.08708]},"properties":{"name":"南風崎","line":"大村線","riders":39}},{"type":"Feature","geometry":{"type":"Point","coordinates":[129.83443,33.06373]},"properties":{"name":"小串郷","line":"大村線","riders":141}},{"type":"Feature","geometry":{"type":"Point","coordinates":[129.96008,32.92391]},"properties":{"name":"諏訪","line":"大村線","riders":0}},{"type":"Feature","geometry":{"type":"Point","coordinates":[129.94561,33.01307]},"properties":{"name":"千綿","line":"大村線","riders":147}},{"type":"Feature","geometry":{"type":"Point","coordinates":[129.96227,32.91143]},"properties":{"name":"大村","line":"大村線","riders":4746}},{"type":"Feature","geometry":{"type":"Point","coordinates":[129.79629,33.09223]},"properties":{"name":"ハウステンボス","line":"大村線","riders":3138}},{"type":"Feature","geometry":{"type":"Point","coordinates":[129.94632,32.97745]},"properties":{"name":"松原","line":"大村線","riders":142}},{"type":"Feature","geometry":{"type":"Point","coordinates":[129.95303,32.94006]},"properties":{"name":"竹松","line":"大村線","riders":2461}},{"type":"Feature","geometry":{"type":"Point","coordinates":[129.89254,33.27005]},"properties":{"name":"上伊万里","line":"筑肥線","riders":11}},{"type":"Feature","geometry":{"type":"Point","coordinates":[129.98066,33.43707]},"properties":{"name":"和多田","line":"筑肥線","riders":776}},{"type":"Feature","geometry":{"type":"Point","coordinates":[129.9787,33.33765]},"properties":{"name":"佐里","line":"筑肥線","riders":11}},{"type":"Feature","geometry":{"type":"Point","coordinates":[129.95666,33.27184]},"properties":{"name":"桃川","line":"筑肥線","riders":74}},{"type":"Feature","geometry":{"type":"Point","coordinates":[129.9687,33.44592]},"properties":{"name":"唐津","line":"筑肥線","riders":4619}},{"type":"Feature","geometry":{"type":"Point","coordinates":[129.99708,33.43949]},"properties":{"name":"東唐津","line":"筑肥線","riders":1720}},{"type":"Feature","geometry":{"type":"Point","coordinates":[129.97239,33.31942]},"properties":{"name":"駒鳴","line":"筑肥線","riders":14}},{"type":"Feature","geometry":{"type":"Point","coordinates":[129.99045,33.34749]},"properties":{"name":"西相知","line":"筑肥線","riders":19}},{"type":"Feature","geometry":{"type":"Point","coordinates":[129.97666,33.3074]},"properties":{"name":"大川野","line":"筑肥線","riders":71}},{"type":"Feature","geometry":{"type":"Point","coordinates":[129.971,33.29565]},"properties":{"name":"肥前長野","line":"筑肥線","riders":30}},{"type":"Feature","geometry":{"type":"Point","coordinates":[129.93503,33.26542]},"properties":{"name":"金石原","line":"筑肥線","riders":21}},{"type":"Feature","geometry":{"type":"Point","coordinates":[129.98127,33.39326]},"properties":{"name":"山本","line":"筑肥線","riders":660}},{"type":"Feature","geometry":{"type":"Point","coordinates":[129.87632,33.27191]},"properties":{"name":"伊万里","line":"筑肥線","riders":1245}},{"type":"Feature","geometry":{"type":"Point","coordinates":[130.18646,32.92418]},"properties":{"name":"小長井","line":"長崎線","riders":193}},{"type":"Feature","geometry":{"type":"Point","coordinates":[130.14068,32.90483]},"properties":{"name":"湯江","line":"長崎線","riders":448}},{"type":"Feature","geometry":{"type":"Point","coordinates":[130.16551,32.9153]},"properties":{"name":"長里","line":"長崎線","riders":77}},{"type":"Feature","geometry":{"type":"Point","coordinates":[130.20727,32.97507]},"properties":{"name":"肥前大浦","line":"長崎線","riders":225}},{"type":"Feature","geometry":{"type":"Point","coordinates":[129.98711,33.4211]},"properties":{"name":"鬼塚","line":"唐津線","riders":239}},{"type":"Feature","geometry":{"type":"Point","coordinates":[129.95788,33.46149]},"properties":{"name":"西唐津","line":"唐津線","riders":1006}},{"type":"Feature","geometry":{"type":"Point","coordinates":[129.99669,33.37212]},"properties":{"name":"本牟田部","line":"唐津線","riders":69}},{"type":"Feature","geometry":{"type":"Point","coordinates":[129.72037,33.1872]},"properties":{"name":"北佐世保","line":"西九州線","riders":622}},{"type":"Feature","geometry":{"type":"Point","coordinates":[129.72714,33.20593]},"properties":{"name":"泉福寺","line":"西九州線","riders":1069}},{"type":"Feature","geometry":{"type":"Point","coordinates":[129.76171,33.35383]},"properties":{"name":"鷹島口","line":"西九州線","riders":121}},{"type":"Feature","geometry":{"type":"Point","coordinates":[129.84913,33.22912]},"properties":{"name":"山谷","line":"西九州線","riders":72}},{"type":"Feature","geometry":{"type":"Point","coordinates":[129.77173,33.34846]},"properties":{"name":"今福","line":"西九州線","riders":201}},{"type":"Feature","geometry":{"type":"Point","coordinates":[129.81197,33.3139]},"properties":{"name":"久原","line":"西九州線","riders":128}},{"type":"Feature","geometry":{"type":"Point","coordinates":[129.72201,33.20891]},"properties":{"name":"左石","line":"西九州線","riders":1034}},{"type":"Feature","geometry":{"type":"Point","coordinates":[129.85001,33.20991]},"properties":{"name":"西有田","line":"西九州線","riders":156}},{"type":"Feature","geometry":{"type":"Point","coordinates":[129.79024,33.3381]},"properties":{"name":"福島口","line":"西九州線","riders":100}},{"type":"Feature","geometry":{"type":"Point","coordinates":[129.70846,33.21171]},"properties":{"name":"野中","line":"西九州線","riders":173}},{"type":"Feature","geometry":{"type":"Point","coordinates":[129.86388,33.26736]},"properties":{"name":"川東","line":"西九州線","riders":347}},{"type":"Feature","geometry":{"type":"Point","coordinates":[129.86594,33.18907]},"properties":{"name":"三代橋","line":"西九州線","riders":121}},{"type":"Feature","geometry":{"type":"Point","coordinates":[129.70783,33.34423]},"properties":{"name":"松浦","line":"西九州線","riders":577}},{"type":"Feature","geometry":{"type":"Point","coordinates":[129.72754,33.35218]},"properties":{"name":"調川","line":"西九州線","riders":125}},{"type":"Feature","geometry":{"type":"Point","coordinates":[129.85453,33.25186]},"properties":{"name":"金武","line":"西九州線","riders":55}},{"type":"Feature","geometry":{"type":"Point","coordinates":[129.85013,33.22155]},"properties":{"name":"大木","line":"西九州線","riders":76}},{"type":"Feature","geometry":{"type":"Point","coordinates":[129.82689,33.29142]},"properties":{"name":"楠久","line":"西九州線","riders":162}},{"type":"Feature","geometry":{"type":"Point","coordinates":[129.79251,33.33528]},"properties":{"name":"浦ノ崎","line":"西九州線","riders":104}},{"type":"Feature","geometry":{"type":"Point","coordinates":[129.8358,33.28467]},"properties":{"name":"里","line":"西九州線","riders":77}},{"type":"Feature","geometry":{"type":"Point","coordinates":[129.84605,33.27799]},"properties":{"name":"東山代","line":"西九州線","riders":74}},{"type":"Feature","geometry":{"type":"Point","coordinates":[129.70176,33.21335]},"properties":{"name":"皆瀬","line":"西九州線","riders":220}},{"type":"Feature","geometry":{"type":"Point","coordinates":[129.73593,33.35875]},"properties":{"name":"前浜","line":"西九州線","riders":56}},{"type":"Feature","geometry":{"type":"Point","coordinates":[129.80725,33.32265]},"properties":{"name":"波瀬","line":"西九州線","riders":21}},{"type":"Feature","geometry":{"type":"Point","coordinates":[129.72272,33.17231]},"properties":{"name":"中佐世保","line":"西九州線","riders":205}},{"type":"Feature","geometry":{"type":"Point","coordinates":[129.85533,33.19508]},"properties":{"name":"黒川","line":"西九州線","riders":118}},{"type":"Feature","geometry":{"type":"Point","coordinates":[129.72082,33.17104]},"properties":{"name":"佐世保中央","line":"西九州線","riders":954}},{"type":"Feature","geometry":{"type":"Point","coordinates":[129.85059,33.20199]},"properties":{"name":"蔵宿","line":"西九州線","riders":76}},{"type":"Feature","geometry":{"type":"Point","coordinates":[129.72291,33.19646]},"properties":{"name":"山の田","line":"西九州線","riders":103}},{"type":"Feature","geometry":{"type":"Point","coordinates":[129.8168,33.29962]},"properties":{"name":"鳴石","line":"西九州線","riders":104}},{"type":"Feature","geometry":{"type":"Point","coordinates":[129.85063,33.23704]},"properties":{"name":"夫婦石","line":"西九州線","riders":72}},{"type":"Feature","geometry":{"type":"Point","coordinates":[130.57341,32.94271]},"properties":{"name":"新玉名","line":"九州新幹線","riders":1277}},{"type":"Feature","geometry":{"type":"Point","coordinates":[129.95713,32.93303]},"properties":{"name":"新大村","line":"西九州新幹線","riders":0}},{"type":"Feature","geometry":{"type":"Point","coordinates":[129.99895,33.1066]},"properties":{"name":"嬉野温泉","line":"西九州新幹線","riders":0}},{"type":"Feature","geometry":{"type":"Point","coordinates":[129.95725,32.93242]},"properties":{"name":"新大村","line":"大村線","riders":0}}]}