{"type":"FeatureCollection","features":[{"type":"Feature","geometry":{"type":"Point","coordinates":[135.5174,34.29851]},"properties":{"name":"妙寺","line":"和歌山線","riders":912}},{"type":"Feature","geometry":{"type":"Point","coordinates":[135.57754,34.22774]},"properties":{"name":"高野山","line":"鋼索線","riders":3108}},{"type":"Feature","geometry":{"type":"Point","coordinates":[135.58188,34.23362]},"properties":{"name":"極楽橋","line":"鋼索線","riders":13}},{"type":"Feature","geometry":{"type":"Point","coordinates":[135.55325,34.26648]},"properties":{"name":"下古沢","line":"高野線","riders":107}},{"type":"Feature","geometry":{"type":"Point","coordinates":[135.5645,34.28779]},"properties":{"name":"九度山","line":"高野線","riders":909}},{"type":"Feature","geometry":{"type":"Point","coordinates":[135.5799,34.29651]},"properties":{"name":"学文路","line":"高野線","riders":633}},{"type":"Feature","geometry":{"type":"Point","coordinates":[135.54801,34.25733]},"properties":{"name":"上古沢","line":"高野線","riders":31}},{"type":"Feature","geometry":{"type":"Point","coordinates":[135.55369,34.23574]},"properties":{"name":"紀伊細川","line":"高野線","riders":50}},{"type":"Feature","geometry":{"type":"Point","coordinates":[135.58206,34.23439]},"properties":{"name":"極楽橋","line":"高野線","riders":68}},{"type":"Feature","geometry":{"type":"Point","coordinates":[135.5711,34.24274]},"properties":{"name":"紀伊神谷","line":"高野線","riders":16}},{"type":"Feature","geometry":{"type":"Point","coordinates":[135.56637,34.27181]},"properties":{"name":"高野下","line":"高野線","riders":123}}]}