{"type":"FeatureCollection","features":[{"type":"Feature","geometry":{"type":"Point","coordinates":[141.13637,39.70119]},"properties":{"name":"盛岡","line":"いわて銀河鉄道線","riders":36880}},{"type":"Feature","geometry":{"type":"Point","coordinates":[141.23705,40.00436]},"properties":{"name":"御堂","line":"いわて銀河鉄道線","riders":58}},{"type":"Feature","geometry":{"type":"Point","coordinates":[141.30774,40.17112]},"properties":{"name":"小鳥谷","line":"いわて銀河鉄道線","riders":151}},{"type":"Feature","geometry":{"type":"Point","coordinates":[141.15423,39.83474]},"properties":{"name":"渋民","line":"いわて銀河鉄道線","riders":715}},{"type":"Feature","geometry":{"type":"Point","coordinates":[141.21708,39.96059]},"properties":{"name":"いわて沼宮内","line":"いわて銀河鉄道線","riders":989}},{"type":"Feature","geometry":{"type":"Point","coordinates":[141.12886,39.74408]},"properties":{"name":"厨川","line":"いわて銀河鉄道線","riders":3209}},{"type":"Feature","geometry":{"type":"Point","coordinates":[141.19937,39.91931]},"properties":{"name":"岩手川口","line":"いわて銀河鉄道線","riders":299}},{"type":"Feature","geometry":{"type":"Point","coordinates":[141.14955,39.799]},"properties":{"name":"滝沢","line":"いわて銀河鉄道線","riders":3162}},{"type":"Feature","geometry":{"type":"Point","coordinates":[141.26042,40.12311]},"properties":{"name":"小繋","line":"いわて銀河鉄道線","riders":37}},{"type":"Feature","geometry":{"type":"Point","coordinates":[141.2285,40.06616]},"properties":{"name":"奥中山高原","line":"いわて銀河鉄道線","riders":377}},{"type":"Feature","geometry":{"type":"Point","coordinates":[141.17368,39.87416]},"properties":{"name":"好摩","line":"いわて銀河鉄道線","riders":2126}},{"type":"Feature","geometry":{"type":"Point","coordinates":[141.1183,39.72465]},"properties":{"name":"青山","line":"いわて銀河鉄道線","riders":3449}},{"type":"Feature","geometry":{"type":"Point","coordinates":[141.14865,39.78343]},"properties":{"name":"巣子","line":"いわて銀河鉄道線","riders":1031}},{"type":"Feature","geometry":{"type":"Point","coordinates":[141.8612,39.20185]},"properties":{"name":"唐丹","line":"リアス線","riders":28}},{"type":"Feature","geometry":{"type":"Point","coordinates":[141.74106,39.06852]},"properties":{"name":"陸前赤崎","line":"リアス線","riders":12}},{"type":"Feature","geometry":{"type":"Point","coordinates":[141.83643,39.15115]},"properties":{"name":"吉浜","line":"リアス線","riders":100}},{"type":"Feature","geometry":{"type":"Point","coordinates":[141.81602,39.07425]},"properties":{"name":"恋し浜","line":"リアス線","riders":12}},{"type":"Feature","geometry":{"type":"Point","coordinates":[141.80671,39.09326]},"properties":{"name":"甫嶺","line":"リアス線","riders":23}},{"type":"Feature","geometry":{"type":"Point","coordinates":[141.79935,39.05418]},"properties":{"name":"綾里","line":"リアス線","riders":116}},{"type":"Feature","geometry":{"type":"Point","coordinates":[141.886,39.24571]},"properties":{"name":"平田","line":"リアス線","riders":19}},{"type":"Feature","geometry":{"type":"Point","coordinates":[141.80997,39.11724]},"properties":{"name":"三陸","line":"リアス線","riders":51}},{"type":"Feature","geometry":{"type":"Point","coordinates":[141.7109,39.08555]},"properties":{"name":"盛","line":"リアス線","riders":656}},{"type":"Feature","geometry":{"type":"Point","coordinates":[141.87275,39.2733]},"properties":{"name":"釜石","line":"リアス線","riders":886}},{"type":"Feature","geometry":{"type":"Point","coordinates":[141.96215,39.80948]},"properties":{"name":"摂待","line":"リアス線","riders":21}},{"type":"Feature","geometry":{"type":"Point","coordinates":[141.94267,39.68686]},"properties":{"name":"一の渡","line":"リアス線","riders":12}},{"type":"Feature","geometry":{"type":"Point","coordinates":[141.93589,39.71113]},"properties":{"name":"佐羽根","line":"リアス線","riders":12}},{"type":"Feature","geometry":{"type":"Point","coordinates":[141.78594,40.13243]},"properties":{"name":"陸中宇部","line":"リアス線","riders":323}},{"type":"Feature","geometry":{"type":"Point","coordinates":[141.8863,40.0027]},"properties":{"name":"普代","line":"リアス線","riders":240}},{"type":"Feature","geometry":{"type":"Point","coordinates":[141.88324,40.03258]},"properties":{"name":"白井海岸","line":"リアス線","riders":12}},{"type":"Feature","geometry":{"type":"Point","coordinates":[141.95845,39.84276]},"properties":{"name":"岩泉小本","line":"リアス線","riders":227}},{"type":"Feature","geometry":{"type":"Point","coordinates":[141.85949,40.0519]},"properties":{"name":"堀内","line":"リアス線","riders":41}},{"type":"Feature","geometry":{"type":"Point","coordinates":[141.96465,39.73185]},"properties":{"name":"田老","line":"リアス線","riders":143}},{"type":"Feature","geometry":{"type":"Point","coordinates":[141.94736,39.6399]},"properties":{"name":"宮古","line":"リアス線","riders":1022}},{"type":"Feature","geometry":{"type":"Point","coordinates":[141.8289,40.08275]},"properties":{"name":"野田玉川","line":"リアス線","riders":27}},{"type":"Feature","geometry":{"type":"Point","coordinates":[141.93379,39.93427]},"properties":{"name":"田野畑","line":"リアス線","riders":215}},{"type":"Feature","geometry":{"type":"Point","coordinates":[141.77085,40.19051]},"properties":{"name":"久慈","line":"リアス線","riders":889}},{"type":"Feature","geometry":{"type":"Point","coordinates":[141.81909,40.11608]},"properties":{"name":"陸中野田","line":"リアス線","riders":458}},{"type":"Feature","geometry":{"type":"Point","coordinates":[141.93966,39.91573]},"properties":{"name":"島越","line":"リアス線","riders":63}},{"type":"Feature","geometry":{"type":"Point","coordinates":[140.37341,40.12842]},"properties":{"name":"米内沢","line":"秋田内陸線","riders":152}},{"type":"Feature","geometry":{"type":"Point","coordinates":[140.60276,39.77114]},"properties":{"name":"羽後中里","line":"秋田内陸線","riders":12}},{"type":"Feature","geometry":{"type":"Point","coordinates":[140.34977,40.14639]},"properties":{"name":"上杉","line":"秋田内陸線","riders":21}},{"type":"Feature","geometry":{"type":"Point","coordinates":[140.4532,39.90498]},"properties":{"name":"比立内","line":"秋田内陸線","riders":36}},{"type":"Feature","geometry":{"type":"Point","coordinates":[140.40247,40.05053]},"properties":{"name":"前田南","line":"秋田内陸線","riders":14}},{"type":"Feature","geometry":{"type":"Point","coordinates":[140.4178,40.10143]},"properties":{"name":"桂瀬","line":"秋田内陸線","riders":31}},{"type":"Feature","geometry":{"type":"Point","coordinates":[140.41311,39.93506]},"properties":{"name":"笑内","line":"秋田内陸線","riders":12}},{"type":"Feature","geometry":{"type":"Point","coordinates":[140.58122,39.85907]},"properties":{"name":"戸沢","line":"秋田内陸線","riders":12}},{"type":"Feature","geometry":{"type":"Point","coordinates":[140.56304,39.65317]},"properties":{"name":"西明寺","line":"秋田内陸線","riders":18}},{"type":"Feature","geometry":{"type":"Point","coordinates":[140.58613,39.80191]},"properties":{"name":"左通","line":"秋田内陸線","riders":12}},{"type":"Feature","geometry":{"type":"Point","coordinates":[140.57425,39.6273]},"properties":{"name":"羽後太田","line":"秋田内陸線","riders":12}},{"type":"Feature","geometry":{"type":"Point","coordinates":[140.55282,39.68776]},"properties":{"name":"八津","line":"秋田内陸線","riders":12}},{"type":"Feature","geometry":{"type":"Point","coordinates":[140.4024,39.98004]},"properties":{"name":"荒瀬","line":"秋田内陸線","riders":17}},{"type":"Feature","geometry":{"type":"Point","coordinates":[140.41783,40.0615]},"properties":{"name":"阿仁前田温泉","line":"秋田内陸線","riders":118}},{"type":"Feature","geometry":{"type":"Point","coordinates":[140.4124,39.95854]},"properties":{"name":"萱草","line":"秋田内陸線","riders":12}},{"type":"Feature","geometry":{"type":"Point","coordinates":[140.48842,39.91098]},"properties":{"name":"奥阿仁","line":"秋田内陸線","riders":12}},{"type":"Feature","geometry":{"type":"Point","coordinates":[140.40123,40.00008]},"properties":{"name":"阿仁合","line":"秋田内陸線","riders":158}},{"type":"Feature","geometry":{"type":"Point","coordinates":[140.58254,39.81803]},"properties":{"name":"上桧木内","line":"秋田内陸線","riders":12}},{"type":"Feature","geometry":{"type":"Point","coordinates":[140.33013,40.1613]},"properties":{"name":"合川","line":"秋田内陸線","riders":112}},{"type":"Feature","geometry":{"type":"Point","coordinates":[140.56543,39.72771]},"properties":{"name":"羽後長戸呂","line":"秋田内陸線","riders":12}},{"type":"Feature","geometry":{"type":"Point","coordinates":[140.3406,40.18691]},"properties":{"name":"大野台","line":"秋田内陸線","riders":15}},{"type":"Feature","geometry":{"type":"Point","coordinates":[140.59032,39.74412]},"properties":{"name":"松葉","line":"秋田内陸線","riders":124}},{"type":"Feature","geometry":{"type":"Point","coordinates":[140.43068,39.92117]},"properties":{"name":"岩野目","line":"秋田内陸線","riders":12}},{"type":"Feature","geometry":{"type":"Point","coordinates":[140.4012,40.03374]},"properties":{"name":"小渕","line":"秋田内陸線","riders":23}},{"type":"Feature","geometry":{"type":"Point","coordinates":[140.51589,39.9195]},"properties":{"name":"阿仁マタギ","line":"秋田内陸線","riders":30}},{"type":"Feature","geometry":{"type":"Point","coordinates":[140.57118,39.5918]},"properties":{"name":"角館","line":"秋田内陸線","riders":1412}},{"type":"Feature","geometry":{"type":"Point","coordinates":[140.1295,39.7173]},"properties":{"name":"秋田","line":"羽越線","riders":11}},{"type":"Feature","geometry":{"type":"Point","coordinates":[140.1165,39.69586]},"properties":{"name":"羽後牛島","line":"羽越線","riders":1520}},{"type":"Feature","geometry":{"type":"Point","coordinates":[140.0664,39.64755]},"properties":{"name":"桂根","line":"羽越線","riders":11}},{"type":"Feature","geometry":{"type":"Point","coordinates":[140.06453,39.61968]},"properties":{"name":"下浜","line":"羽越線","riders":11}},{"type":"Feature","geometry":{"type":"Point","coordinates":[140.08775,39.67744]},"properties":{"name":"新屋","line":"羽越線","riders":1912}},{"type":"Feature","geometry":{"type":"Point","coordinates":[140.0576,39.38686]},"properties":{"name":"羽後本荘","line":"羽越線","riders":2729}},{"type":"Feature","geometry":{"type":"Point","coordinates":[139.76798,38.74213]},"properties":{"name":"羽前大山","line":"羽越線","riders":214}},{"type":"Feature","geometry":{"type":"Point","coordinates":[139.87527,38.90757]},"properties":{"name":"東酒田","line":"羽越線","riders":11}},{"type":"Feature","geometry":{"type":"Point","coordinates":[139.84591,38.92221]},"properties":{"name":"酒田","line":"羽越線","riders":2738}},{"type":"Feature","geometry":{"type":"Point","coordinates":[140.09113,39.47639]},"properties":{"name":"折渡","line":"羽越線","riders":11}},{"type":"Feature","geometry":{"type":"Point","coordinates":[139.87864,39.07004]},"properties":{"name":"吹浦","line":"羽越線","riders":11}},{"type":"Feature","geometry":{"type":"Point","coordinates":[140.05487,39.54615]},"properties":{"name":"岩城みなと","line":"羽越線","riders":250}},{"type":"Feature","geometry":{"type":"Point","coordinates":[139.90771,38.81151]},"properties":{"name":"西袋","line":"羽越線","riders":11}},{"type":"Feature","geometry":{"type":"Point","coordinates":[139.88097,39.09875]},"properties":{"name":"女鹿","line":"羽越線","riders":11}},{"type":"Feature","geometry":{"type":"Point","coordinates":[139.89871,38.98743]},"properties":{"name":"南鳥海","line":"羽越線","riders":11}},{"type":"Feature","geometry":{"type":"Point","coordinates":[140.01875,39.34776]},"properties":{"name":"西目","line":"羽越線","riders":748}},{"type":"Feature","geometry":{"type":"Point","coordinates":[139.90514,39.01599]},"properties":{"name":"遊佐","line":"羽越線","riders":494}},{"type":"Feature","geometry":{"type":"Point","coordinates":[139.92077,39.25627]},"properties":{"name":"金浦","line":"羽越線","riders":644}},{"type":"Feature","geometry":{"type":"Point","coordinates":[140.08937,39.44162]},"properties":{"name":"羽後岩谷","line":"羽越線","riders":482}},{"type":"Feature","geometry":{"type":"Point","coordinates":[139.73155,38.71356]},"properties":{"name":"羽前水沢","line":"羽越線","riders":11}},{"type":"Feature","geometry":{"type":"Point","coordinates":[139.83539,38.74009]},"properties":{"name":"鶴岡","line":"羽越線","riders":2758}},{"type":"Feature","geometry":{"type":"Point","coordinates":[140.06302,39.4939]},"properties":{"name":"羽後亀田","line":"羽越線","riders":216}},{"type":"Feature","geometry":{"type":"Point","coordinates":[139.90227,39.20763]},"properties":{"name":"象潟","line":"羽越線","riders":574}},{"type":"Feature","geometry":{"type":"Point","coordinates":[139.88572,39.1376]},"properties":{"name":"小砂川","line":"羽越線","riders":68}},{"type":"Feature","geometry":{"type":"Point","coordinates":[139.90733,38.89514]},"properties":{"name":"砂越","line":"羽越線","riders":396}},{"type":"Feature","geometry":{"type":"Point","coordinates":[139.96466,39.2898]},"properties":{"name":"仁賀保","line":"羽越線","riders":724}},{"type":"Feature","geometry":{"type":"Point","coordinates":[139.9029,39.16469]},"properties":{"name":"上浜","line":"羽越線","riders":40}},{"type":"Feature","geometry":{"type":"Point","coordinates":[139.88196,38.96856]},"properties":{"name":"本楯","line":"羽越線","riders":88}},{"type":"Feature","geometry":{"type":"Point","coordinates":[139.89407,38.76864]},"properties":{"name":"藤島","line":"羽越線","riders":796}},{"type":"Feature","geometry":{"type":"Point","coordinates":[139.91132,38.84437]},"properties":{"name":"余目","line":"羽越線","riders":1134}},{"type":"Feature","geometry":{"type":"Point","coordinates":[139.90812,38.86754]},"properties":{"name":"北余目","line":"羽越線","riders":11}},{"type":"Feature","geometry":{"type":"Point","coordinates":[140.05707,39.56061]},"properties":{"name":"道川","line":"羽越線","riders":11}},{"type":"Feature","geometry":{"type":"Point","coordinates":[140.06572,40.19158]},"properties":{"name":"東能代","line":"奥羽線","riders":1110}},{"type":"Feature","geometry":{"type":"Point","coordinates":[140.05782,39.80996]},"properties":{"name":"追分","line":"奥羽線","riders":3710}},{"type":"Feature","geometry":{"type":"Point","coordinates":[140.27414,39.66358]},"properties":{"name":"大張野","line":"奥羽線","riders":11}},{"type":"Feature","geometry":{"type":"Point","coordinates":[140.06305,39.87091]},"properties":{"name":"大久保","line":"奥羽線","riders":972}},{"type":"Feature","geometry":{"type":"Point","coordinates":[140.06345,40.14184]},"properties":{"name":"北金岡","line":"奥羽線","riders":11}},{"type":"Feature","geometry":{"type":"Point","coordinates":[140.32056,39.6192]},"properties":{"name":"羽後境","line":"奥羽線","riders":532}},{"type":"Feature","geometry":{"type":"Point","coordinates":[140.07338,39.89896]},"properties":{"name":"羽後飯塚","line":"奥羽線","riders":260}},{"type":"Feature","geometry":{"type":"Point","coordinates":[140.06845,39.77934]},"properties":{"name":"上飯島","line":"奥羽線","riders":11}},{"type":"Feature","geometry":{"type":"Point","coordinates":[140.07754,39.99635]},"properties":{"name":"鯉川","line":"奥羽線","riders":11}},{"type":"Feature","geometry":{"type":"Point","coordinates":[140.07081,40.10322]},"properties":{"name":"森岳","line":"奥羽線","riders":518}},{"type":"Feature","geometry":{"type":"Point","coordinates":[140.1449,39.66193]},"properties":{"name":"四ツ小屋","line":"奥羽線","riders":11}},{"type":"Feature","geometry":{"type":"Point","coordinates":[140.07852,39.94783]},"properties":{"name":"八郎潟","line":"奥羽線","riders":1824}},{"type":"Feature","geometry":{"type":"Point","coordinates":[140.12975,39.71755]},"properties":{"name":"秋田","line":"奥羽線","riders":22738}},{"type":"Feature","geometry":{"type":"Point","coordinates":[140.21875,39.65087]},"properties":{"name":"和田","line":"奥羽線","riders":794}},{"type":"Feature","geometry":{"type":"Point","coordinates":[140.07598,39.91166]},"properties":{"name":"井川さくら","line":"奥羽線","riders":706}},{"type":"Feature","geometry":{"type":"Point","coordinates":[140.0826,40.04465]},"properties":{"name":"鹿渡","line":"奥羽線","riders":402}},{"type":"Feature","geometry":{"type":"Point","coordinates":[140.07345,39.7589]},"properties":{"name":"土崎","line":"奥羽線","riders":4632}},{"type":"Feature","geometry":{"type":"Point","coordinates":[140.47954,39.46586]},"properties":{"name":"大曲","line":"奥羽線","riders":4320}},{"type":"Feature","geometry":{"type":"Point","coordinates":[140.56043,39.31028]},"properties":{"name":"横手","line":"奥羽線","riders":2854}},{"type":"Feature","geometry":{"type":"Point","coordinates":[140.30611,38.76252]},"properties":{"name":"新庄","line":"奥羽線","riders":3210}},{"type":"Feature","geometry":{"type":"Point","coordinates":[140.4838,39.11019]},"properties":{"name":"三関","line":"奥羽線","riders":11}},{"type":"Feature","geometry":{"type":"Point","coordinates":[140.42584,39.49541]},"properties":{"name":"神宮寺","line":"奥羽線","riders":600}},{"type":"Feature","geometry":{"type":"Point","coordinates":[140.32018,38.97147]},"properties":{"name":"大滝","line":"奥羽線","riders":11}},{"type":"Feature","geometry":{"type":"Point","coordinates":[140.32304,39.56674]},"properties":{"name":"峰吉川","line":"奥羽線","riders":146}},{"type":"Feature","geometry":{"type":"Point","coordinates":[140.36119,38.99296]},"properties":{"name":"及位","line":"奥羽線","riders":11}},{"type":"Feature","geometry":{"type":"Point","coordinates":[140.50253,39.19733]},"properties":{"name":"下湯沢","line":"奥羽線","riders":11}},{"type":"Feature","geometry":{"type":"Point","coordinates":[140.2423,38.83675]},"properties":{"name":"羽前豊里","line":"奥羽線","riders":11}},{"type":"Feature","geometry":{"type":"Point","coordinates":[140.25486,38.85831]},"properties":{"name":"真室川","line":"奥羽線","riders":336}},{"type":"Feature","geometry":{"type":"Point","coordinates":[140.37181,39.54817]},"properties":{"name":"刈和野","line":"奥羽線","riders":1072}},{"type":"Feature","geometry":{"type":"Point","coordinates":[140.48705,39.16358]},"properties":{"name":"湯沢","line":"奥羽線","riders":1472}},{"type":"Feature","geometry":{"type":"Point","coordinates":[140.45154,39.0647]},"properties":{"name":"横堀","line":"奥羽線","riders":496}},{"type":"Feature","geometry":{"type":"Point","coordinates":[140.41395,39.04962]},"properties":{"name":"院内","line":"奥羽線","riders":11}},{"type":"Feature","geometry":{"type":"Point","coordinates":[140.48524,39.13414]},"properties":{"name":"上湯沢","line":"奥羽線","riders":11}},{"type":"Feature","geometry":{"type":"Point","coordinates":[140.51527,39.4063]},"properties":{"name":"飯詰","line":"奥羽線","riders":376}},{"type":"Feature","geometry":{"type":"Point","coordinates":[140.26398,38.93299]},"properties":{"name":"釜淵","line":"奥羽線","riders":11}},{"type":"Feature","geometry":{"type":"Point","coordinates":[140.53855,39.24865]},"properties":{"name":"醍醐","line":"奥羽線","riders":11}},{"type":"Feature","geometry":{"type":"Point","coordinates":[140.55383,39.27634]},"properties":{"name":"柳田","line":"奥羽線","riders":11}},{"type":"Feature","geometry":{"type":"Point","coordinates":[140.31006,38.81181]},"properties":{"name":"泉田","line":"奥羽線","riders":11}},{"type":"Feature","geometry":{"type":"Point","coordinates":[140.53846,39.36488]},"properties":{"name":"後三年","line":"奥羽線","riders":11}},{"type":"Feature","geometry":{"type":"Point","coordinates":[140.52648,39.22137]},"properties":{"name":"十文字","line":"奥羽線","riders":1034}},{"type":"Feature","geometry":{"type":"Point","coordinates":[141.04393,39.96924]},"properties":{"name":"松尾八幡平","line":"花輪線","riders":11}},{"type":"Feature","geometry":{"type":"Point","coordinates":[140.84031,40.12238]},"properties":{"name":"湯瀬温泉","line":"花輪線","riders":88}},{"type":"Feature","geometry":{"type":"Point","coordinates":[140.80445,40.14299]},"properties":{"name":"八幡平","line":"花輪線","riders":68}},{"type":"Feature","geometry":{"type":"Point","coordinates":[141.14223,39.90261]},"properties":{"name":"東大更","line":"花輪線","riders":11}},{"type":"Feature","geometry":{"type":"Point","coordinates":[141.00394,40.04851]},"properties":{"name":"赤坂田","line":"花輪線","riders":11}},{"type":"Feature","geometry":{"type":"Point","coordinates":[140.88294,40.11595]},"properties":{"name":"兄畑","line":"花輪線","riders":11}},{"type":"Feature","geometry":{"type":"Point","coordinates":[141.08521,39.95087]},"properties":{"name":"平館","line":"花輪線","riders":11}},{"type":"Feature","geometry":{"type":"Point","coordinates":[140.99732,40.01264]},"properties":{"name":"安比高原","line":"花輪線","riders":11}},{"type":"Feature","geometry":{"type":"Point","coordinates":[141.02717,40.10751]},"properties":{"name":"横間","line":"花輪線","riders":11}},{"type":"Feature","geometry":{"type":"Point","coordinates":[141.02068,40.07644]},"properties":{"name":"小屋の畑","line":"花輪線","riders":11}},{"type":"Feature","geometry":{"type":"Point","coordinates":[141.04925,40.09772]},"properties":{"name":"荒屋新町","line":"花輪線","riders":176}},{"type":"Feature","geometry":{"type":"Point","coordinates":[140.94408,40.13973]},"properties":{"name":"田山","line":"花輪線","riders":11}},{"type":"Feature","geometry":{"type":"Point","coordinates":[141.10085,39.9141]},"properties":{"name":"大更","line":"花輪線","riders":612}},{"type":"Feature","geometry":{"type":"Point","coordinates":[140.78517,40.18854]},"properties":{"name":"鹿角花輪","line":"花輪線","riders":504}},{"type":"Feature","geometry":{"type":"Point","coordinates":[140.79345,40.15854]},"properties":{"name":"陸中大里","line":"花輪線","riders":11}},{"type":"Feature","geometry":{"type":"Point","coordinates":[141.25782,39.36664]},"properties":{"name":"晴山","line":"釜石線","riders":11}},{"type":"Feature","geometry":{"type":"Point","coordinates":[141.47682,39.3284]},"properties":{"name":"綾織","line":"釜石線","riders":11}},{"type":"Feature","geometry":{"type":"Point","coordinates":[141.68153,39.24199]},"properties":{"name":"上有住","line":"釜石線","riders":11}},{"type":"Feature","geometry":{"type":"Point","coordinates":[141.56893,39.31148]},"properties":{"name":"青笹","line":"釜石線","riders":11}},{"type":"Feature","geometry":{"type":"Point","coordinates":[141.45603,39.32349]},"properties":{"name":"岩手二日町","line":"釜石線","riders":11}},{"type":"Feature","geometry":{"type":"Point","coordinates":[141.83647,39.26457]},"properties":{"name":"小佐野","line":"釜石線","riders":132}},{"type":"Feature","geometry":{"type":"Point","coordinates":[141.23254,39.3833]},"properties":{"name":"土沢","line":"釜石線","riders":376}},{"type":"Feature","geometry":{"type":"Point","coordinates":[141.17301,39.40581]},"properties":{"name":"新花巻","line":"釜石線","riders":1884}},{"type":"Feature","geometry":{"type":"Point","coordinates":[141.80151,39.25646]},"properties":{"name":"松倉","line":"釜石線","riders":11}},{"type":"Feature","geometry":{"type":"Point","coordinates":[141.53067,39.33255]},"properties":{"name":"遠野","line":"釜石線","riders":764}},{"type":"Feature","geometry":{"type":"Point","coordinates":[141.37986,39.30606]},"properties":{"name":"柏木平","line":"釜石線","riders":11}},{"type":"Feature","geometry":{"type":"Point","coordinates":[141.76019,39.25045]},"properties":{"name":"洞泉","line":"釜石線","riders":11}},{"type":"Feature","geometry":{"type":"Point","coordinates":[141.42844,39.30991]},"properties":{"name":"荒谷前","line":"釜石線","riders":11}},{"type":"Feature","geometry":{"type":"Point","coordinates":[141.58584,39.28455]},"properties":{"name":"岩手上郷","line":"釜石線","riders":11}},{"type":"Feature","geometry":{"type":"Point","coordinates":[141.71851,39.28043]},"properties":{"name":"陸中大橋","line":"釜石線","riders":11}},{"type":"Feature","geometry":{"type":"Point","coordinates":[141.35029,39.35108]},"properties":{"name":"宮守","line":"釜石線","riders":256}},{"type":"Feature","geometry":{"type":"Point","coordinates":[141.39925,39.30015]},"properties":{"name":"鱒沢","line":"釜石線","riders":11}},{"type":"Feature","geometry":{"type":"Point","coordinates":[141.19399,39.40857]},"properties":{"name":"小山田","line":"釜石線","riders":11}},{"type":"Feature","geometry":{"type":"Point","coordinates":[141.59566,39.26467]},"properties":{"name":"平倉","line":"釜石線","riders":11}},{"type":"Feature","geometry":{"type":"Point","coordinates":[141.11032,39.39375]},"properties":{"name":"花巻","line":"釜石線","riders":6898}},{"type":"Feature","geometry":{"type":"Point","coordinates":[141.64587,39.25478]},"properties":{"name":"足ヶ瀬","line":"釜石線","riders":11}},{"type":"Feature","geometry":{"type":"Point","coordinates":[141.14094,39.40686]},"properties":{"name":"似内","line":"釜石線","riders":11}},{"type":"Feature","geometry":{"type":"Point","coordinates":[141.31878,39.35522]},"properties":{"name":"岩根橋","line":"釜石線","riders":11}},{"type":"Feature","geometry":{"type":"Point","coordinates":[141.17145,39.7161]},"properties":{"name":"山岸","line":"山田線","riders":11}},{"type":"Feature","geometry":{"type":"Point","coordinates":[141.91196,39.63225]},"properties":{"name":"千徳","line":"山田線","riders":11}},{"type":"Feature","geometry":{"type":"Point","coordinates":[141.62581,39.61711]},"properties":{"name":"箱石","line":"山田線","riders":11}},{"type":"Feature","geometry":{"type":"Point","coordinates":[141.96094,39.63041]},"properties":{"name":"磯鶏","line":"リアス線","riders":107}},{"type":"Feature","geometry":{"type":"Point","coordinates":[141.7993,39.6206]},"properties":{"name":"茂市","line":"山田線","riders":110}},{"type":"Feature","geometry":{"type":"Point","coordinates":[141.35143,39.65174]},"properties":{"name":"区界","line":"山田線","riders":11}},{"type":"Feature","geometry":{"type":"Point","coordinates":[141.43745,39.63585]},"properties":{"name":"松草","line":"山田線","riders":11}},{"type":"Feature","geometry":{"type":"Point","coordinates":[141.20381,39.74391]},"properties":{"name":"上米内","line":"山田線","riders":156}},{"type":"Feature","geometry":{"type":"Point","coordinates":[141.148,39.71148]},"properties":{"name":"上盛岡","line":"山田線","riders":11}},{"type":"Feature","geometry":{"type":"Point","coordinates":[141.51128,39.62337]},"properties":{"name":"平津戸","line":"山田線","riders":11}},{"type":"Feature","geometry":{"type":"Point","coordinates":[141.86142,39.63041]},"properties":{"name":"花原市","line":"山田線","riders":11}},{"type":"Feature","geometry":{"type":"Point","coordinates":[141.59761,39.64077]},"properties":{"name":"川内","line":"山田線","riders":26}},{"type":"Feature","geometry":{"type":"Point","coordinates":[141.83884,39.62929]},"properties":{"name":"蟇目","line":"山田線","riders":11}},{"type":"Feature","geometry":{"type":"Point","coordinates":[141.8879,39.32673]},"properties":{"name":"鵜住居","line":"リアス線","riders":124}},{"type":"Feature","geometry":{"type":"Point","coordinates":[141.93864,39.36953]},"properties":{"name":"吉里吉里","line":"リアス線","riders":101}},{"type":"Feature","geometry":{"type":"Point","coordinates":[141.68151,39.59734]},"properties":{"name":"陸中川井","line":"山田線","riders":84}},{"type":"Feature","geometry":{"type":"Point","coordinates":[141.76743,39.60452]},"properties":{"name":"腹帯","line":"山田線","riders":11}},{"type":"Feature","geometry":{"type":"Point","coordinates":[141.90313,39.35674]},"properties":{"name":"大槌","line":"リアス線","riders":470}},{"type":"Feature","geometry":{"type":"Point","coordinates":[141.93511,39.38356]},"properties":{"name":"浪板海岸","line":"リアス線","riders":72}},{"type":"Feature","geometry":{"type":"Point","coordinates":[141.88909,39.3081]},"properties":{"name":"両石","line":"リアス線","riders":22}},{"type":"Feature","geometry":{"type":"Point","coordinates":[141.97404,39.43133]},"properties":{"name":"岩手船越","line":"リアス線","riders":98}},{"type":"Feature","geometry":{"type":"Point","coordinates":[141.9513,39.46359]},"properties":{"name":"陸中山田","line":"リアス線","riders":518}},{"type":"Feature","geometry":{"type":"Point","coordinates":[141.17794,38.90827]},"properties":{"name":"真滝","line":"大船渡線","riders":11}},{"type":"Feature","geometry":{"type":"Point","coordinates":[141.24531,38.9477]},"properties":{"name":"岩ノ下","line":"大船渡線","riders":11}},{"type":"Feature","geometry":{"type":"Point","coordinates":[141.45227,38.93941]},"properties":{"name":"折壁","line":"大船渡線","riders":11}},{"type":"Feature","geometry":{"type":"Point","coordinates":[141.32117,38.99608]},"properties":{"name":"摺沢","line":"大船渡線","riders":734}},{"type":"Feature","geometry":{"type":"Point","coordinates":[141.25122,38.91693]},"properties":{"name":"陸中門崎","line":"大船渡線","riders":11}},{"type":"Feature","geometry":{"type":"Point","coordinates":[141.48888,38.91561]},"properties":{"name":"新月","line":"大船渡線","riders":11}},{"type":"Feature","geometry":{"type":"Point","coordinates":[141.34562,38.92486]},"properties":{"name":"千厩","line":"大船渡線","riders":576}},{"type":"Feature","geometry":{"type":"Point","coordinates":[141.4291,38.93527]},"properties":{"name":"矢越","line":"大船渡線","riders":11}},{"type":"Feature","geometry":{"type":"Point","coordinates":[141.23804,38.97723]},"properties":{"name":"陸中松川","line":"大船渡線","riders":11}},{"type":"Feature","geometry":{"type":"Point","coordinates":[141.25302,38.98863]},"properties":{"name":"猊鼻渓","line":"大船渡線","riders":11}},{"type":"Feature","geometry":{"type":"Point","coordinates":[141.27219,38.99674]},"properties":{"name":"柴宿","line":"大船渡線","riders":11}},{"type":"Feature","geometry":{"type":"Point","coordinates":[141.38421,38.93247]},"properties":{"name":"小梨","line":"大船渡線","riders":11}},{"type":"Feature","geometry":{"type":"Point","coordinates":[141.55884,38.91003]},"properties":{"name":"気仙沼","line":"大船渡線","riders":574}},{"type":"Feature","geometry":{"type":"Point","coordinates":[141.13814,38.92661]},"properties":{"name":"一ノ関","line":"大船渡線","riders":9228}},{"type":"Feature","geometry":{"type":"Point","coordinates":[140.00409,39.86898]},"properties":{"name":"上二田","line":"男鹿線","riders":11}},{"type":"Feature","geometry":{"type":"Point","coordinates":[140.02459,39.84443]},"properties":{"name":"出戸浜","line":"男鹿線","riders":11}},{"type":"Feature","geometry":{"type":"Point","coordinates":[139.84864,39.88465]},"properties":{"name":"男鹿","line":"男鹿線","riders":1104}},{"type":"Feature","geometry":{"type":"Point","coordinates":[139.94669,39.90476]},"properties":{"name":"船越","line":"男鹿線","riders":1414}},{"type":"Feature","geometry":{"type":"Point","coordinates":[139.86202,39.90454]},"properties":{"name":"羽立","line":"男鹿線","riders":11}},{"type":"Feature","geometry":{"type":"Point","coordinates":[139.98732,39.88142]},"properties":{"name":"二田","line":"男鹿線","riders":814}},{"type":"Feature","geometry":{"type":"Point","coordinates":[139.90263,39.91528]},"properties":{"name":"脇本","line":"男鹿線","riders":11}},{"type":"Feature","geometry":{"type":"Point","coordinates":[139.9638,39.89877]},"properties":{"name":"天王","line":"男鹿線","riders":11}},{"type":"Feature","geometry":{"type":"Point","coordinates":[141.07194,39.71153]},"properties":{"name":"大釜","line":"田沢湖線","riders":1074}},{"type":"Feature","geometry":{"type":"Point","coordinates":[141.0247,39.70976]},"properties":{"name":"小岩井","line":"田沢湖線","riders":1138}},{"type":"Feature","geometry":{"type":"Point","coordinates":[140.97481,39.68923]},"properties":{"name":"雫石","line":"田沢湖線","riders":1244}},{"type":"Feature","geometry":{"type":"Point","coordinates":[140.94394,39.6934]},"properties":{"name":"春木場","line":"田沢湖線","riders":11}},{"type":"Feature","geometry":{"type":"Point","coordinates":[140.90723,39.68509]},"properties":{"name":"赤渕","line":"田沢湖線","riders":11}},{"type":"Feature","geometry":{"type":"Point","coordinates":[141.13653,39.70155]},"properties":{"name":"盛岡","line":"田沢湖線","riders":11}},{"type":"Feature","geometry":{"type":"Point","coordinates":[140.60132,39.61216]},"properties":{"name":"生田","line":"田沢湖線","riders":11}},{"type":"Feature","geometry":{"type":"Point","coordinates":[140.72229,39.70044]},"properties":{"name":"田沢湖","line":"田沢湖線","riders":776}},{"type":"Feature","geometry":{"type":"Point","coordinates":[140.69195,39.66857]},"properties":{"name":"刺巻","line":"田沢湖線","riders":11}},{"type":"Feature","geometry":{"type":"Point","coordinates":[140.62749,39.62268]},"properties":{"name":"神代","line":"田沢湖線","riders":11}},{"type":"Feature","geometry":{"type":"Point","coordinates":[140.54093,39.54606]},"properties":{"name":"羽後長野","line":"田沢湖線","riders":228}},{"type":"Feature","geometry":{"type":"Point","coordinates":[140.49806,39.48949]},"properties":{"name":"北大曲","line":"田沢湖線","riders":11}},{"type":"Feature","geometry":{"type":"Point","coordinates":[140.55795,39.56856]},"properties":{"name":"鶯野","line":"田沢湖線","riders":11}},{"type":"Feature","geometry":{"type":"Point","coordinates":[140.52769,39.51926]},"properties":{"name":"鑓見内","line":"田沢湖線","riders":11}},{"type":"Feature","geometry":{"type":"Point","coordinates":[140.512,39.50161]},"properties":{"name":"羽後四ツ屋","line":"田沢湖線","riders":11}},{"type":"Feature","geometry":{"type":"Point","coordinates":[141.21742,39.96061]},"properties":{"name":"いわて沼宮内","line":"東北新幹線","riders":204}},{"type":"Feature","geometry":{"type":"Point","coordinates":[141.12261,39.28225]},"properties":{"name":"北上","line":"東北新幹線","riders":11}},{"type":"Feature","geometry":{"type":"Point","coordinates":[141.1887,39.14516]},"properties":{"name":"水沢江刺","line":"東北新幹線","riders":2102}},{"type":"Feature","geometry":{"type":"Point","coordinates":[141.1391,38.92645]},"properties":{"name":"一ノ関","line":"東北新幹線","riders":11}},{"type":"Feature","geometry":{"type":"Point","coordinates":[141.17361,39.4065]},"properties":{"name":"新花巻","line":"東北新幹線","riders":11}},{"type":"Feature","geometry":{"type":"Point","coordinates":[141.07122,38.74823]},"properties":{"name":"くりこま高原","line":"東北新幹線","riders":2314}},{"type":"Feature","geometry":{"type":"Point","coordinates":[141.14811,39.61281]},"properties":{"name":"矢幅","line":"東北線","riders":6048}},{"type":"Feature","geometry":{"type":"Point","coordinates":[141.14875,39.68769]},"properties":{"name":"仙北町","line":"東北線","riders":3374}},{"type":"Feature","geometry":{"type":"Point","coordinates":[141.14659,39.65375]},"properties":{"name":"岩手飯岡","line":"東北線","riders":4796}},{"type":"Feature","geometry":{"type":"Point","coordinates":[141.12145,39.28148]},"properties":{"name":"北上","line":"東北線","riders":7666}},{"type":"Feature","geometry":{"type":"Point","coordinates":[141.14092,39.09391]},"properties":{"name":"陸中折居","line":"東北線","riders":11}},{"type":"Feature","geometry":{"type":"Point","coordinates":[141.15916,38.76883]},"properties":{"name":"石越","line":"東北線","riders":776}},{"type":"Feature","geometry":{"type":"Point","coordinates":[141.12625,39.04924]},"properties":{"name":"前沢","line":"東北線","riders":1232}},{"type":"Feature","geometry":{"type":"Point","coordinates":[141.12731,39.44226]},"properties":{"name":"花巻空港","line":"東北線","riders":1468}},{"type":"Feature","geometry":{"type":"Point","coordinates":[141.09781,39.22783]},"properties":{"name":"六原","line":"東北線","riders":464}},{"type":"Feature","geometry":{"type":"Point","coordinates":[141.11781,38.9879]},"properties":{"name":"平泉","line":"東北線","riders":1142}},{"type":"Feature","geometry":{"type":"Point","coordinates":[141.11294,39.19958]},"properties":{"name":"金ヶ崎","line":"東北線","riders":1326}},{"type":"Feature","geometry":{"type":"Point","coordinates":[141.18002,38.83337]},"properties":{"name":"花泉","line":"東北線","riders":828}},{"type":"Feature","geometry":{"type":"Point","coordinates":[141.15463,39.58086]},"properties":{"name":"古館","line":"東北線","riders":1790}},{"type":"Feature","geometry":{"type":"Point","coordinates":[141.14688,39.4909]},"properties":{"name":"石鳥谷","line":"東北線","riders":2398}},{"type":"Feature","geometry":{"type":"Point","coordinates":[141.14632,39.13923]},"properties":{"name":"水沢","line":"東北線","riders":4096}},{"type":"Feature","geometry":{"type":"Point","coordinates":[141.1211,38.86735]},"properties":{"name":"有壁","line":"東北線","riders":11}},{"type":"Feature","geometry":{"type":"Point","coordinates":[141.12049,39.32265]},"properties":{"name":"村崎野","line":"東北線","riders":1972}},{"type":"Feature","geometry":{"type":"Point","coordinates":[141.15645,38.85493]},"properties":{"name":"清水原","line":"東北線","riders":11}},{"type":"Feature","geometry":{"type":"Point","coordinates":[141.15992,39.55476]},"properties":{"name":"紫波中央","line":"東北線","riders":3092}},{"type":"Feature","geometry":{"type":"Point","coordinates":[141.13197,38.95132]},"properties":{"name":"山ノ目","line":"東北線","riders":11}},{"type":"Feature","geometry":{"type":"Point","coordinates":[141.17572,38.79711]},"properties":{"name":"油島","line":"東北線","riders":11}},{"type":"Feature","geometry":{"type":"Point","coordinates":[141.16055,39.53863]},"properties":{"name":"日詰","line":"東北線","riders":1112}},{"type":"Feature","geometry":{"type":"Point","coordinates":[141.11952,38.71156]},"properties":{"name":"新田","line":"東北線","riders":602}},{"type":"Feature","geometry":{"type":"Point","coordinates":[141.71519,40.41039]},"properties":{"name":"種市","line":"八戸線","riders":346}},{"type":"Feature","geometry":{"type":"Point","coordinates":[141.78776,40.30507]},"properties":{"name":"陸中中野","line":"八戸線","riders":11}},{"type":"Feature","geometry":{"type":"Point","coordinates":[141.79199,40.20767]},"properties":{"name":"陸中夏井","line":"八戸線","riders":11}},{"type":"Feature","geometry":{"type":"Point","coordinates":[141.77309,40.32404]},"properties":{"name":"有家","line":"八戸線","riders":11}},{"type":"Feature","geometry":{"type":"Point","coordinates":[141.73502,40.38041]},"properties":{"name":"玉川","line":"八戸線","riders":11}},{"type":"Feature","geometry":{"type":"Point","coordinates":[141.74685,40.36608]},"properties":{"name":"宿戸","line":"八戸線","riders":11}},{"type":"Feature","geometry":{"type":"Point","coordinates":[141.76671,40.34537]},"properties":{"name":"陸中八木","line":"八戸線","riders":11}},{"type":"Feature","geometry":{"type":"Point","coordinates":[141.76059,40.26161]},"properties":{"name":"侍浜","line":"八戸線","riders":11}},{"type":"Feature","geometry":{"type":"Point","coordinates":[140.93157,39.30116]},"properties":{"name":"岩沢","line":"北上線","riders":11}},{"type":"Feature","geometry":{"type":"Point","coordinates":[140.9722,39.30924]},"properties":{"name":"横川目","line":"北上線","riders":11}},{"type":"Feature","geometry":{"type":"Point","coordinates":[140.83531,39.29554]},"properties":{"name":"ゆだ錦秋湖","line":"北上線","riders":11}},{"type":"Feature","geometry":{"type":"Point","coordinates":[141.03958,39.3011]},"properties":{"name":"藤根","line":"北上線","riders":400}},{"type":"Feature","geometry":{"type":"Point","coordinates":[140.99724,39.30781]},"properties":{"name":"立川目","line":"北上線","riders":11}},{"type":"Feature","geometry":{"type":"Point","coordinates":[140.90975,39.30824]},"properties":{"name":"和賀仙人","line":"北上線","riders":11}},{"type":"Feature","geometry":{"type":"Point","coordinates":[141.1117,39.29463]},"properties":{"name":"柳原","line":"北上線","riders":11}},{"type":"Feature","geometry":{"type":"Point","coordinates":[141.07578,39.29846]},"properties":{"name":"江釣子","line":"北上線","riders":11}},{"type":"Feature","geometry":{"type":"Point","coordinates":[140.69969,39.2762]},"properties":{"name":"黒沢","line":"北上線","riders":11}},{"type":"Feature","geometry":{"type":"Point","coordinates":[140.77555,39.31443]},"properties":{"name":"ほっとゆだ","line":"北上線","riders":372}},{"type":"Feature","geometry":{"type":"Point","coordinates":[140.6187,39.27811]},"properties":{"name":"相野々","line":"北上線","riders":68}},{"type":"Feature","geometry":{"type":"Point","coordinates":[140.73717,39.30108]},"properties":{"name":"ゆだ高原","line":"北上線","riders":11}},{"type":"Feature","geometry":{"type":"Point","coordinates":[140.64617,39.2934]},"properties":{"name":"小松川","line":"北上線","riders":11}},{"type":"Feature","geometry":{"type":"Point","coordinates":[139.94471,38.81818]},"properties":{"name":"南野","line":"陸羽西線","riders":11}},{"type":"Feature","geometry":{"type":"Point","coordinates":[140.14598,38.73716]},"properties":{"name":"古口","line":"陸羽西線","riders":84}},{"type":"Feature","geometry":{"type":"Point","coordinates":[140.2095,38.74771]},"properties":{"name":"羽前前波","line":"陸羽西線","riders":11}},{"type":"Feature","geometry":{"type":"Point","coordinates":[140.02069,38.79018]},"properties":{"name":"清川","line":"陸羽西線","riders":11}},{"type":"Feature","geometry":{"type":"Point","coordinates":[139.97676,38.79369]},"properties":{"name":"狩川","line":"陸羽西線","riders":184}},{"type":"Feature","geometry":{"type":"Point","coordinates":[140.07101,38.7525]},"properties":{"name":"高屋","line":"陸羽西線","riders":11}},{"type":"Feature","geometry":{"type":"Point","coordinates":[140.18635,38.7376]},"properties":{"name":"津谷","line":"陸羽西線","riders":11}},{"type":"Feature","geometry":{"type":"Point","coordinates":[140.24426,38.75158]},"properties":{"name":"升形","line":"陸羽西線","riders":11}},{"type":"Feature","geometry":{"type":"Point","coordinates":[140.83563,38.70906]},"properties":{"name":"池月","line":"陸羽東線","riders":11}},{"type":"Feature","geometry":{"type":"Point","coordinates":[140.61278,38.73557]},"properties":{"name":"堺田","line":"陸羽東線","riders":11}},{"type":"Feature","geometry":{"type":"Point","coordinates":[140.54271,38.74202]},"properties":{"name":"立小路","line":"陸羽東線","riders":11}},{"type":"Feature","geometry":{"type":"Point","coordinates":[140.38217,38.71891]},"properties":{"name":"東長沢","line":"陸羽東線","riders":11}},{"type":"Feature","geometry":{"type":"Point","coordinates":[140.73749,38.74454]},"properties":{"name":"鳴子御殿湯","line":"陸羽東線","riders":152}},{"type":"Feature","geometry":{"type":"Point","coordinates":[140.55356,38.73054]},"properties":{"name":"赤倉温泉","line":"陸羽東線","riders":11}},{"type":"Feature","geometry":{"type":"Point","coordinates":[140.4754,38.76593]},"properties":{"name":"大堀","line":"陸羽東線","riders":11}},{"type":"Feature","geometry":{"type":"Point","coordinates":[140.31621,38.72155]},"properties":{"name":"南新庄","line":"陸羽東線","riders":11}},{"type":"Feature","geometry":{"type":"Point","coordinates":[140.45367,38.76493]},"properties":{"name":"鵜杉","line":"陸羽東線","riders":11}},{"type":"Feature","geometry":{"type":"Point","coordinates":[140.51766,38.75593]},"properties":{"name":"最上","line":"陸羽東線","riders":408}},{"type":"Feature","geometry":{"type":"Point","coordinates":[140.36576,38.70978]},"properties":{"name":"長沢","line":"陸羽東線","riders":11}},{"type":"Feature","geometry":{"type":"Point","coordinates":[140.41963,38.75513]},"properties":{"name":"瀬見温泉","line":"陸羽東線","riders":11}},{"type":"Feature","geometry":{"type":"Point","coordinates":[140.71596,38.74336]},"properties":{"name":"鳴子温泉","line":"陸羽東線","riders":558}},{"type":"Feature","geometry":{"type":"Point","coordinates":[140.66802,38.72652]},"properties":{"name":"中山平温泉","line":"陸羽東線","riders":11}},{"type":"Feature","geometry":{"type":"Point","coordinates":[140.7792,38.73686]},"properties":{"name":"川渡温泉","line":"陸羽東線","riders":11}},{"type":"Feature","geometry":{"type":"Point","coordinates":[140.11647,39.2784]},"properties":{"name":"西滝沢","line":"鳥海山ろく線","riders":64}},{"type":"Feature","geometry":{"type":"Point","coordinates":[140.13904,39.23031]},"properties":{"name":"矢島","line":"鳥海山ろく線","riders":463}},{"type":"Feature","geometry":{"type":"Point","coordinates":[140.11114,39.29621]},"properties":{"name":"久保田","line":"鳥海山ろく線","riders":21}},{"type":"Feature","geometry":{"type":"Point","coordinates":[140.11496,39.2685]},"properties":{"name":"吉沢","line":"鳥海山ろく線","riders":53}},{"type":"Feature","geometry":{"type":"Point","coordinates":[140.05993,39.35043]},"properties":{"name":"子吉","line":"鳥海山ろく線","riders":26}},{"type":"Feature","geometry":{"type":"Point","coordinates":[140.11284,39.31282]},"properties":{"name":"前郷","line":"鳥海山ろく線","riders":241}},{"type":"Feature","geometry":{"type":"Point","coordinates":[140.07139,39.32858]},"properties":{"name":"鮎川","line":"鳥海山ろく線","riders":56}},{"type":"Feature","geometry":{"type":"Point","coordinates":[140.09313,39.32042]},"properties":{"name":"黒沢","line":"鳥海山ろく線","riders":17}},{"type":"Feature","geometry":{"type":"Point","coordinates":[140.10251,39.32085]},"properties":{"name":"曲沢","line":"鳥海山ろく線","riders":12}},{"type":"Feature","geometry":{"type":"Point","coordinates":[140.12037,39.24902]},"properties":{"name":"川辺","line":"鳥海山ろく線","riders":91}},{"type":"Feature","geometry":{"type":"Point","coordinates":[140.04885,39.36808]},"properties":{"name":"薬師堂","line":"鳥海山ろく線","riders":96}},{"type":"Feature","geometry":{"type":"Point","coordinates":[141.93324,39.6463]},"properties":{"name":"山口団地","line":"リアス線","riders":39}},{"type":"Feature","geometry":{"type":"Point","coordinates":[141.07211,39.95648]},"properties":{"name":"北森","line":"花輪線","riders":11}},{"type":"Feature","geometry":{"type":"Point","coordinates":[141.82409,40.09683]},"properties":{"name":"十府ヶ浦海岸","line":"リアス線","riders":12}},{"type":"Feature","geometry":{"type":"Point","coordinates":[141.95527,39.45376]},"properties":{"name":"織笠","line":"リアス線","riders":0}},{"type":"Feature","geometry":{"type":"Point","coordinates":[141.92471,39.53424]},"properties":{"name":"豊間根","line":"リアス線","riders":100}},{"type":"Feature","geometry":{"type":"Point","coordinates":[141.93779,39.5815]},"properties":{"name":"津軽石","line":"リアス線","riders":306}},{"type":"Feature","geometry":{"type":"Point","coordinates":[141.94637,39.6193]},"properties":{"name":"八木沢・宮古短大","line":"リアス線","riders":49}},{"type":"Feature","geometry":{"type":"Point","coordinates":[141.93282,39.5644]},"properties":{"name":"払川","line":"リアス線","riders":57}},{"type":"Feature","geometry":{"type":"Point","coordinates":[141.96728,39.73565]},"properties":{"name":"新田老","line":"リアス線","riders":19}},{"type":"Feature","geometry":{"type":"Point","coordinates":[140.11244,39.73788]},"properties":{"name":"泉外旭川","line":"奥羽線","riders":0}},{"type":"Feature","geometry":{"type":"Point","coordinates":[140.11293,39.7382]},"properties":{"name":"泉外旭川","line":"奥羽線","riders":11}}]}