{"type":"FeatureCollection","features":[{"type":"Feature","geometry":{"type":"Point","coordinates":[137.13436,35.13672]},"properties":{"name":"保見","line":"愛知環状鉄道線","riders":1333}},{"type":"Feature","geometry":{"type":"Point","coordinates":[137.1017,35.1979]},"properties":{"name":"山口","line":"愛知環状鉄道線","riders":2188}},{"type":"Feature","geometry":{"type":"Point","coordinates":[137.04326,35.26425]},"properties":{"name":"高蔵寺","line":"愛知環状鉄道線","riders":10872}},{"type":"Feature","geometry":{"type":"Point","coordinates":[137.10715,35.17492]},"properties":{"name":"八草","line":"愛知環状鉄道線","riders":6344}},{"type":"Feature","geometry":{"type":"Point","coordinates":[137.07844,35.22591]},"properties":{"name":"瀬戸市","line":"愛知環状鉄道線","riders":6392}},{"type":"Feature","geometry":{"type":"Point","coordinates":[137.07192,35.25046]},"properties":{"name":"中水野","line":"愛知環状鉄道線","riders":3412}},{"type":"Feature","geometry":{"type":"Point","coordinates":[137.12077,35.15473]},"properties":{"name":"篠原","line":"愛知環状鉄道線","riders":294}},{"type":"Feature","geometry":{"type":"Point","coordinates":[137.08213,35.20656]},"properties":{"name":"瀬戸口","line":"愛知環状鉄道線","riders":4242}},{"type":"Feature","geometry":{"type":"Point","coordinates":[137.16091,35.10516]},"properties":{"name":"愛環梅坪","line":"愛知環状鉄道線","riders":1958}},{"type":"Feature","geometry":{"type":"Point","coordinates":[137.16269,35.12193]},"properties":{"name":"四郷","line":"愛知環状鉄道線","riders":1454}},{"type":"Feature","geometry":{"type":"Point","coordinates":[137.14805,35.13312]},"properties":{"name":"貝津","line":"愛知環状鉄道線","riders":1228}},{"type":"Feature","geometry":{"type":"Point","coordinates":[137.0379,35.17175]},"properties":{"name":"杁ヶ池公園","line":"東部丘陵線","riders":3370}},{"type":"Feature","geometry":{"type":"Point","coordinates":[137.09705,35.17924]},"properties":{"name":"陶磁資料館南","line":"東部丘陵線","riders":426}},{"type":"Feature","geometry":{"type":"Point","coordinates":[137.07686,35.1743]},"properties":{"name":"公園西","line":"東部丘陵線","riders":2570}},{"type":"Feature","geometry":{"type":"Point","coordinates":[137.08754,35.17767]},"properties":{"name":"愛・地球博記念公園","line":"東部丘陵線","riders":4911}},{"type":"Feature","geometry":{"type":"Point","coordinates":[137.06122,35.17188]},"properties":{"name":"芸大通","line":"東部丘陵線","riders":2147}},{"type":"Feature","geometry":{"type":"Point","coordinates":[137.04951,35.17147]},"properties":{"name":"長久手古戦場","line":"東部丘陵線","riders":6887}},{"type":"Feature","geometry":{"type":"Point","coordinates":[137.03547,35.17752]},"properties":{"name":"はなみずき通","line":"東部丘陵線","riders":3007}},{"type":"Feature","geometry":{"type":"Point","coordinates":[137.10635,35.17651]},"properties":{"name":"八草","line":"東部丘陵線","riders":7767}},{"type":"Feature","geometry":{"type":"Point","coordinates":[137.02227,35.1822]},"properties":{"name":"藤が丘","line":"東部丘陵線","riders":20266}},{"type":"Feature","geometry":{"type":"Point","coordinates":[136.82783,35.14015]},"properties":{"name":"伏屋","line":"名古屋線","riders":5636}},{"type":"Feature","geometry":{"type":"Point","coordinates":[136.88375,35.16936]},"properties":{"name":"近鉄名古屋","line":"名古屋線","riders":106751}},{"type":"Feature","geometry":{"type":"Point","coordinates":[136.86381,35.15282]},"properties":{"name":"烏森","line":"名古屋線","riders":5019}},{"type":"Feature","geometry":{"type":"Point","coordinates":[136.85434,35.14952]},"properties":{"name":"近鉄八田","line":"名古屋線","riders":3926}},{"type":"Feature","geometry":{"type":"Point","coordinates":[136.87081,35.15627]},"properties":{"name":"黄金","line":"名古屋線","riders":2475}},{"type":"Feature","geometry":{"type":"Point","coordinates":[136.87962,35.16126]},"properties":{"name":"米野","line":"名古屋線","riders":1285}},{"type":"Feature","geometry":{"type":"Point","coordinates":[136.75231,35.11948]},"properties":{"name":"佐古木","line":"名古屋線","riders":2815}},{"type":"Feature","geometry":{"type":"Point","coordinates":[136.79521,35.12965]},"properties":{"name":"近鉄蟹江","line":"名古屋線","riders":12304}},{"type":"Feature","geometry":{"type":"Point","coordinates":[136.80745,35.1326]},"properties":{"name":"戸田","line":"名古屋線","riders":4323}},{"type":"Feature","geometry":{"type":"Point","coordinates":[136.76937,35.12349]},"properties":{"name":"富吉","line":"名古屋線","riders":5892}},{"type":"Feature","geometry":{"type":"Point","coordinates":[136.72777,35.11359]},"properties":{"name":"近鉄弥富","line":"名古屋線","riders":11762}},{"type":"Feature","geometry":{"type":"Point","coordinates":[136.51475,35.13276]},"properties":{"name":"伊勢治田","line":"三岐線","riders":465}},{"type":"Feature","geometry":{"type":"Point","coordinates":[136.49884,35.14742]},"properties":{"name":"東藤原","line":"三岐線","riders":134}},{"type":"Feature","geometry":{"type":"Point","coordinates":[136.48793,35.16404]},"properties":{"name":"西野尻","line":"三岐線","riders":118}},{"type":"Feature","geometry":{"type":"Point","coordinates":[136.53833,35.10725]},"properties":{"name":"三里","line":"三岐線","riders":878}},{"type":"Feature","geometry":{"type":"Point","coordinates":[136.51954,35.12271]},"properties":{"name":"丹生川","line":"三岐線","riders":286}},{"type":"Feature","geometry":{"type":"Point","coordinates":[136.47813,35.17019]},"properties":{"name":"西藤原","line":"三岐線","riders":240}},{"type":"Feature","geometry":{"type":"Point","coordinates":[136.51904,35.14628]},"properties":{"name":"阿下喜","line":"北勢線","riders":730}},{"type":"Feature","geometry":{"type":"Point","coordinates":[136.53561,35.13359]},"properties":{"name":"麻生田","line":"北勢線","riders":319}},{"type":"Feature","geometry":{"type":"Point","coordinates":[136.5603,35.11087]},"properties":{"name":"楚原","line":"北勢線","riders":1298}},{"type":"Feature","geometry":{"type":"Point","coordinates":[137.00168,35.44976]},"properties":{"name":"前平公園","line":"越美南線","riders":113}},{"type":"Feature","geometry":{"type":"Point","coordinates":[136.98512,35.46089]},"properties":{"name":"加茂野","line":"越美南線","riders":117}},{"type":"Feature","geometry":{"type":"Point","coordinates":[136.96116,35.6718]},"properties":{"name":"赤池","line":"越美南線","riders":29}},{"type":"Feature","geometry":{"type":"Point","coordinates":[136.95477,35.66081]},"properties":{"name":"美並苅安","line":"越美南線","riders":73}},{"type":"Feature","geometry":{"type":"Point","coordinates":[137.01953,35.44561]},"properties":{"name":"美濃太田","line":"越美南線","riders":5729}},{"type":"Feature","geometry":{"type":"Point","coordinates":[136.96233,35.68648]},"properties":{"name":"深戸","line":"越美南線","riders":35}},{"type":"Feature","geometry":{"type":"Point","coordinates":[136.96945,35.4751]},"properties":{"name":"富加","line":"越美南線","riders":192}},{"type":"Feature","geometry":{"type":"Point","coordinates":[136.94193,35.59859]},"properties":{"name":"母野","line":"越美南線","riders":12}},{"type":"Feature","geometry":{"type":"Point","coordinates":[136.9313,35.57131]},"properties":{"name":"湯の洞温泉口","line":"越美南線","riders":62}},{"type":"Feature","geometry":{"type":"Point","coordinates":[136.91564,35.53965]},"properties":{"name":"美濃市","line":"越美南線","riders":211}},{"type":"Feature","geometry":{"type":"Point","coordinates":[136.91166,35.78859]},"properties":{"name":"山田","line":"越美南線","riders":14}},{"type":"Feature","geometry":{"type":"Point","coordinates":[136.95051,35.71509]},"properties":{"name":"相生","line":"越美南線","riders":89}},{"type":"Feature","geometry":{"type":"Point","coordinates":[136.94493,35.47853]},"properties":{"name":"関富岡","line":"越美南線","riders":130}},{"type":"Feature","geometry":{"type":"Point","coordinates":[136.91284,35.48996]},"properties":{"name":"関","line":"越美南線","riders":420}},{"type":"Feature","geometry":{"type":"Point","coordinates":[136.90355,35.80486]},"properties":{"name":"徳永","line":"越美南線","riders":68}},{"type":"Feature","geometry":{"type":"Point","coordinates":[136.94508,35.62019]},"properties":{"name":"八坂","line":"越美南線","riders":12}},{"type":"Feature","geometry":{"type":"Point","coordinates":[136.95024,35.63766]},"properties":{"name":"大矢","line":"越美南線","riders":56}},{"type":"Feature","geometry":{"type":"Point","coordinates":[136.93127,35.77023]},"properties":{"name":"自然園前","line":"越美南線","riders":13}},{"type":"Feature","geometry":{"type":"Point","coordinates":[136.91423,35.4834]},"properties":{"name":"せきてらす前","line":"越美南線","riders":111}},{"type":"Feature","geometry":{"type":"Point","coordinates":[136.93854,35.60632]},"properties":{"name":"木尾","line":"越美南線","riders":26}},{"type":"Feature","geometry":{"type":"Point","coordinates":[136.91285,35.49903]},"properties":{"name":"関市役所前","line":"越美南線","riders":82}},{"type":"Feature","geometry":{"type":"Point","coordinates":[136.91795,35.54969]},"properties":{"name":"梅山","line":"越美南線","riders":405}},{"type":"Feature","geometry":{"type":"Point","coordinates":[136.94482,35.58883]},"properties":{"name":"洲原","line":"越美南線","riders":56}},{"type":"Feature","geometry":{"type":"Point","coordinates":[136.95162,35.64635]},"properties":{"name":"福野","line":"越美南線","riders":85}},{"type":"Feature","geometry":{"type":"Point","coordinates":[136.91458,35.51353]},"properties":{"name":"関下有知","line":"越美南線","riders":210}},{"type":"Feature","geometry":{"type":"Point","coordinates":[136.91541,35.52678]},"properties":{"name":"松森","line":"越美南線","riders":76}},{"type":"Feature","geometry":{"type":"Point","coordinates":[136.94736,35.74162]},"properties":{"name":"郡上八幡","line":"越美南線","riders":340}},{"type":"Feature","geometry":{"type":"Point","coordinates":[136.95066,35.62779]},"properties":{"name":"みなみ子宝温泉","line":"越美南線","riders":45}},{"type":"Feature","geometry":{"type":"Point","coordinates":[136.92889,35.47996]},"properties":{"name":"関口","line":"越美南線","riders":457}},{"type":"Feature","geometry":{"type":"Point","coordinates":[136.88092,35.22127]},"properties":{"name":"小田井","line":"城北線","riders":392}},{"type":"Feature","geometry":{"type":"Point","coordinates":[136.8614,35.19949]},"properties":{"name":"枇杷島","line":"城北線","riders":555}},{"type":"Feature","geometry":{"type":"Point","coordinates":[136.85511,35.21306]},"properties":{"name":"尾張星の宮","line":"城北線","riders":485}},{"type":"Feature","geometry":{"type":"Point","coordinates":[136.95333,35.22803]},"properties":{"name":"勝川","line":"城北線","riders":495}},{"type":"Feature","geometry":{"type":"Point","coordinates":[136.93234,35.22935]},"properties":{"name":"味美","line":"城北線","riders":224}},{"type":"Feature","geometry":{"type":"Point","coordinates":[136.90293,35.2286]},"properties":{"name":"比良","line":"城北線","riders":248}},{"type":"Feature","geometry":{"type":"Point","coordinates":[136.88137,35.17101]},"properties":{"name":"名古屋","line":"関西線","riders":11}},{"type":"Feature","geometry":{"type":"Point","coordinates":[136.85218,35.14879]},"properties":{"name":"八田","line":"関西線","riders":4031}},{"type":"Feature","geometry":{"type":"Point","coordinates":[136.79348,35.14198]},"properties":{"name":"蟹江","line":"関西線","riders":7369}},{"type":"Feature","geometry":{"type":"Point","coordinates":[136.72584,35.11406]},"properties":{"name":"弥富","line":"関西線","riders":6224}},{"type":"Feature","geometry":{"type":"Point","coordinates":[136.76441,35.13284]},"properties":{"name":"永和","line":"関西線","riders":2561}},{"type":"Feature","geometry":{"type":"Point","coordinates":[136.81338,35.14315]},"properties":{"name":"春田","line":"関西線","riders":7519}},{"type":"Feature","geometry":{"type":"Point","coordinates":[137.28795,36.00145]},"properties":{"name":"渚","line":"高山線","riders":11}},{"type":"Feature","geometry":{"type":"Point","coordinates":[137.24776,36.0884]},"properties":{"name":"飛騨一ノ宮","line":"高山線","riders":74}},{"type":"Feature","geometry":{"type":"Point","coordinates":[137.27683,36.05234]},"properties":{"name":"久々野","line":"高山線","riders":106}},{"type":"Feature","geometry":{"type":"Point","coordinates":[136.97681,35.42639]},"properties":{"name":"坂祝","line":"高山線","riders":794}},{"type":"Feature","geometry":{"type":"Point","coordinates":[137.22521,35.84914]},"properties":{"name":"禅昌寺","line":"高山線","riders":17}},{"type":"Feature","geometry":{"type":"Point","coordinates":[137.23939,35.8061]},"properties":{"name":"下呂","line":"高山線","riders":1608}},{"type":"Feature","geometry":{"type":"Point","coordinates":[137.11879,35.5413]},"properties":{"name":"上麻生","line":"高山線","riders":159}},{"type":"Feature","geometry":{"type":"Point","coordinates":[137.23555,35.92844]},"properties":{"name":"飛騨宮田","line":"高山線","riders":53}},{"type":"Feature","geometry":{"type":"Point","coordinates":[137.06513,35.48708]},"properties":{"name":"中川辺","line":"高山線","riders":260}},{"type":"Feature","geometry":{"type":"Point","coordinates":[137.21397,35.87441]},"properties":{"name":"飛騨萩原","line":"高山線","riders":774}},{"type":"Feature","geometry":{"type":"Point","coordinates":[137.18484,35.57937]},"properties":{"name":"白川口","line":"高山線","riders":361}},{"type":"Feature","geometry":{"type":"Point","coordinates":[137.04766,35.45743]},"properties":{"name":"古井","line":"高山線","riders":628}},{"type":"Feature","geometry":{"type":"Point","coordinates":[137.16439,35.66249]},"properties":{"name":"飛騨金山","line":"高山線","riders":354}},{"type":"Feature","geometry":{"type":"Point","coordinates":[137.08711,35.51492]},"properties":{"name":"下麻生","line":"高山線","riders":81}},{"type":"Feature","geometry":{"type":"Point","coordinates":[137.25686,35.95079]},"properties":{"name":"飛騨小坂","line":"高山線","riders":136}},{"type":"Feature","geometry":{"type":"Point","coordinates":[137.20061,35.72563]},"properties":{"name":"焼石","line":"高山線","riders":46}},{"type":"Feature","geometry":{"type":"Point","coordinates":[137.20467,35.91091]},"properties":{"name":"上呂","line":"高山線","riders":55}},{"type":"Feature","geometry":{"type":"Point","coordinates":[137.18311,35.63327]},"properties":{"name":"下油井","line":"高山線","riders":62}},{"type":"Feature","geometry":{"type":"Point","coordinates":[136.94605,35.39756]},"properties":{"name":"鵜沼","line":"高山線","riders":2730}},{"type":"Feature","geometry":{"type":"Point","coordinates":[136.90106,35.40388]},"properties":{"name":"各務ケ原","line":"高山線","riders":921}},{"type":"Feature","geometry":{"type":"Point","coordinates":[137.12028,35.33483]},"properties":{"name":"多治見","line":"太多線","riders":26529}},{"type":"Feature","geometry":{"type":"Point","coordinates":[137.07211,35.382]},"properties":{"name":"姫","line":"太多線","riders":913}},{"type":"Feature","geometry":{"type":"Point","coordinates":[137.06372,35.39373]},"properties":{"name":"下切","line":"太多線","riders":1059}},{"type":"Feature","geometry":{"type":"Point","coordinates":[137.05535,35.42293]},"properties":{"name":"可児","line":"太多線","riders":3217}},{"type":"Feature","geometry":{"type":"Point","coordinates":[137.09015,35.36147]},"properties":{"name":"根本","line":"太多線","riders":2515}},{"type":"Feature","geometry":{"type":"Point","coordinates":[137.04539,35.4441]},"properties":{"name":"美濃川合","line":"太多線","riders":884}},{"type":"Feature","geometry":{"type":"Point","coordinates":[137.10056,35.34916]},"properties":{"name":"小泉","line":"太多線","riders":2618}},{"type":"Feature","geometry":{"type":"Point","coordinates":[137.4078,35.45509]},"properties":{"name":"恵那","line":"中央線","riders":6189}},{"type":"Feature","geometry":{"type":"Point","coordinates":[137.25191,35.36912]},"properties":{"name":"瑞浪","line":"中央線","riders":9354}},{"type":"Feature","geometry":{"type":"Point","coordinates":[137.35412,35.43793]},"properties":{"name":"武並","line":"中央線","riders":911}},{"type":"Feature","geometry":{"type":"Point","coordinates":[137.04325,35.2644]},"properties":{"name":"高蔵寺","line":"中央線","riders":51935}},{"type":"Feature","geometry":{"type":"Point","coordinates":[136.98495,35.24296]},"properties":{"name":"春日井","line":"中央線","riders":31666}},{"type":"Feature","geometry":{"type":"Point","coordinates":[137.30523,35.41124]},"properties":{"name":"釜戸","line":"中央線","riders":541}},{"type":"Feature","geometry":{"type":"Point","coordinates":[137.01047,35.2566]},"properties":{"name":"神領","line":"中央線","riders":26673}},{"type":"Feature","geometry":{"type":"Point","coordinates":[137.18213,35.35974]},"properties":{"name":"土岐市","line":"中央線","riders":10069}},{"type":"Feature","geometry":{"type":"Point","coordinates":[137.08095,35.27797]},"properties":{"name":"定光寺","line":"中央線","riders":308}},{"type":"Feature","geometry":{"type":"Point","coordinates":[137.10175,35.30383]},"properties":{"name":"古虎渓","line":"中央線","riders":768}},{"type":"Feature","geometry":{"type":"Point","coordinates":[137.45036,35.47925]},"properties":{"name":"美乃坂本","line":"中央線","riders":2625}},{"type":"Feature","geometry":{"type":"Point","coordinates":[136.95646,35.2299]},"properties":{"name":"勝川","line":"中央線","riders":35202}},{"type":"Feature","geometry":{"type":"Point","coordinates":[136.93718,35.18947]},"properties":{"name":"大曽根","line":"中央線","riders":65392}},{"type":"Feature","geometry":{"type":"Point","coordinates":[136.88166,35.1714]},"properties":{"name":"名古屋","line":"中央線","riders":431428}},{"type":"Feature","geometry":{"type":"Point","coordinates":[136.93109,35.17092]},"properties":{"name":"千種","line":"中央線","riders":56483}},{"type":"Feature","geometry":{"type":"Point","coordinates":[136.90085,35.14329]},"properties":{"name":"金山","line":"中央線","riders":141747}},{"type":"Feature","geometry":{"type":"Point","coordinates":[136.91818,35.157]},"properties":{"name":"鶴舞","line":"中央線","riders":41101}},{"type":"Feature","geometry":{"type":"Point","coordinates":[136.95024,35.20604]},"properties":{"name":"新守山","line":"中央線","riders":16466}},{"type":"Feature","geometry":{"type":"Point","coordinates":[136.88096,35.17075]},"properties":{"name":"名古屋","line":"東海道新幹線","riders":11}},{"type":"Feature","geometry":{"type":"Point","coordinates":[136.82093,35.2531]},"properties":{"name":"稲沢","line":"東海道線","riders":18047}},{"type":"Feature","geometry":{"type":"Point","coordinates":[136.91067,35.1298]},"properties":{"name":"熱田","line":"東海道線","riders":6093}},{"type":"Feature","geometry":{"type":"Point","coordinates":[136.86146,35.19953]},"properties":{"name":"枇杷島","line":"東海道線","riders":9155}},{"type":"Feature","geometry":{"type":"Point","coordinates":[136.83451,35.22548]},"properties":{"name":"清洲","line":"東海道線","riders":8277}},{"type":"Feature","geometry":{"type":"Point","coordinates":[136.88202,35.17166]},"properties":{"name":"名古屋","line":"東海道線","riders":11}},{"type":"Feature","geometry":{"type":"Point","coordinates":[136.89102,35.14705]},"properties":{"name":"尾頭橋","line":"東海道線","riders":7490}},{"type":"Feature","geometry":{"type":"Point","coordinates":[136.9009,35.14277]},"properties":{"name":"金山","line":"東海道線","riders":11}},{"type":"Feature","geometry":{"type":"Point","coordinates":[136.95421,35.18878]},"properties":{"name":"砂田橋","line":"ガイドウェイバス志段味線","riders":2315}},{"type":"Feature","geometry":{"type":"Point","coordinates":[136.96204,35.21026]},"properties":{"name":"川宮","line":"ガイドウェイバス志段味線","riders":1273}},{"type":"Feature","geometry":{"type":"Point","coordinates":[136.96874,35.21417]},"properties":{"name":"川村","line":"ガイドウェイバス志段味線","riders":1016}},{"type":"Feature","geometry":{"type":"Point","coordinates":[136.98286,35.21867]},"properties":{"name":"小幡緑地","line":"ガイドウェイバス志段味線","riders":1060}},{"type":"Feature","geometry":{"type":"Point","coordinates":[136.9785,35.21593]},"properties":{"name":"白沢渓谷","line":"ガイドウェイバス志段味線","riders":872}},{"type":"Feature","geometry":{"type":"Point","coordinates":[136.95675,35.20249]},"properties":{"name":"金屋","line":"ガイドウェイバス志段味線","riders":1260}},{"type":"Feature","geometry":{"type":"Point","coordinates":[136.95655,35.19735]},"properties":{"name":"守山","line":"ガイドウェイバス志段味線","riders":982}},{"type":"Feature","geometry":{"type":"Point","coordinates":[136.94742,35.19021]},"properties":{"name":"ナゴヤドーム前矢田","line":"ガイドウェイバス志段味線","riders":1424}},{"type":"Feature","geometry":{"type":"Point","coordinates":[136.9375,35.19152]},"properties":{"name":"大曽根","line":"ガイドウェイバス志段味線","riders":6160}},{"type":"Feature","geometry":{"type":"Point","coordinates":[137.01359,35.17533]},"properties":{"name":"本郷","line":"1号線東山線","riders":23994}},{"type":"Feature","geometry":{"type":"Point","coordinates":[136.98589,35.16277]},"properties":{"name":"星ヶ丘","line":"1号線東山線","riders":54014}},{"type":"Feature","geometry":{"type":"Point","coordinates":[136.96371,35.16388]},"properties":{"name":"本山","line":"1号線東山線","riders":31452}},{"type":"Feature","geometry":{"type":"Point","coordinates":[137.00659,35.17348]},"properties":{"name":"上社","line":"1号線東山線","riders":23275}},{"type":"Feature","geometry":{"type":"Point","coordinates":[137.02144,35.18256]},"properties":{"name":"藤が丘","line":"1号線東山線","riders":62191}},{"type":"Feature","geometry":{"type":"Point","coordinates":[136.97264,35.16063]},"properties":{"name":"東山公園","line":"1号線東山線","riders":16232}},{"type":"Feature","geometry":{"type":"Point","coordinates":[136.99599,35.1683]},"properties":{"name":"一社","line":"1号線東山線","riders":29153}},{"type":"Feature","geometry":{"type":"Point","coordinates":[136.93807,35.16979]},"properties":{"name":"今池","line":"1号線東山線","riders":48211}},{"type":"Feature","geometry":{"type":"Point","coordinates":[136.87746,35.17755]},"properties":{"name":"亀島","line":"1号線東山線","riders":9736}},{"type":"Feature","geometry":{"type":"Point","coordinates":[136.94603,35.16783]},"properties":{"name":"池下","line":"1号線東山線","riders":28359}},{"type":"Feature","geometry":{"type":"Point","coordinates":[136.8837,35.1716]},"properties":{"name":"名古屋","line":"1号線東山線","riders":399287}},{"type":"Feature","geometry":{"type":"Point","coordinates":[136.85326,35.14834]},"properties":{"name":"八田","line":"1号線東山線","riders":14478}},{"type":"Feature","geometry":{"type":"Point","coordinates":[136.92997,35.17066]},"properties":{"name":"千種","line":"1号線東山線","riders":51620}},{"type":"Feature","geometry":{"type":"Point","coordinates":[136.85492,35.16773]},"properties":{"name":"中村公園","line":"1号線東山線","riders":26839}},{"type":"Feature","geometry":{"type":"Point","coordinates":[136.86229,35.1727]},"properties":{"name":"中村日赤","line":"1号線東山線","riders":9988}},{"type":"Feature","geometry":{"type":"Point","coordinates":[136.95251,35.16654]},"properties":{"name":"覚王山","line":"1号線東山線","riders":19883}},{"type":"Feature","geometry":{"type":"Point","coordinates":[136.89738,35.16921]},"properties":{"name":"伏見","line":"1号線東山線","riders":101639}},{"type":"Feature","geometry":{"type":"Point","coordinates":[136.85351,35.1391]},"properties":{"name":"高畑","line":"1号線東山線","riders":22258}},{"type":"Feature","geometry":{"type":"Point","coordinates":[136.86724,35.17699]},"properties":{"name":"本陣","line":"1号線東山線","riders":16972}},{"type":"Feature","geometry":{"type":"Point","coordinates":[136.92011,35.17067]},"properties":{"name":"新栄町","line":"1号線東山線","riders":30148}},{"type":"Feature","geometry":{"type":"Point","coordinates":[136.90859,35.16995]},"properties":{"name":"栄","line":"1号線東山線","riders":230818}},{"type":"Feature","geometry":{"type":"Point","coordinates":[136.85442,35.1582]},"properties":{"name":"岩塚","line":"1号線東山線","riders":17722}},{"type":"Feature","geometry":{"type":"Point","coordinates":[136.89309,35.13276]},"properties":{"name":"日比野","line":"2号線名港線","riders":18690}},{"type":"Feature","geometry":{"type":"Point","coordinates":[136.88839,35.12411]},"properties":{"name":"六番町","line":"2号線名港線","riders":14930}},{"type":"Feature","geometry":{"type":"Point","coordinates":[136.88479,35.1065]},"properties":{"name":"港区役所","line":"2号線名港線","riders":10974}},{"type":"Feature","geometry":{"type":"Point","coordinates":[136.88604,35.11348]},"properties":{"name":"東海通","line":"2号線名港線","riders":14922}},{"type":"Feature","geometry":{"type":"Point","coordinates":[136.90193,35.14388]},"properties":{"name":"金山","line":"2号線名港線","riders":164422}},{"type":"Feature","geometry":{"type":"Point","coordinates":[136.90814,35.17384]},"properties":{"name":"久屋大通","line":"2号線名城線","riders":53797}},{"type":"Feature","geometry":{"type":"Point","coordinates":[136.90557,35.18147]},"properties":{"name":"市役所","line":"2号線名城線","riders":44513}},{"type":"Feature","geometry":{"type":"Point","coordinates":[136.92985,35.19589]},"properties":{"name":"平安通","line":"2号線名城線","riders":12}},{"type":"Feature","geometry":{"type":"Point","coordinates":[136.90863,35.16951]},"properties":{"name":"栄","line":"2号線名城線","riders":12}},{"type":"Feature","geometry":{"type":"Point","coordinates":[136.93617,35.19275]},"properties":{"name":"大曽根","line":"2号線名城線","riders":39669}},{"type":"Feature","geometry":{"type":"Point","coordinates":[136.92122,35.19627]},"properties":{"name":"志賀本通","line":"2号線名城線","riders":14582}},{"type":"Feature","geometry":{"type":"Point","coordinates":[136.90873,35.16331]},"properties":{"name":"矢場町","line":"2号線名城線","riders":65567}},{"type":"Feature","geometry":{"type":"Point","coordinates":[136.90678,35.15752]},"properties":{"name":"上前津","line":"2号線名城線","riders":49060}},{"type":"Feature","geometry":{"type":"Point","coordinates":[136.90457,35.14993]},"properties":{"name":"東別院","line":"2号線名城線","riders":15476}},{"type":"Feature","geometry":{"type":"Point","coordinates":[136.91015,35.19716]},"properties":{"name":"黒川","line":"2号線名城線","riders":29148}},{"type":"Feature","geometry":{"type":"Point","coordinates":[136.90477,35.19046]},"properties":{"name":"名城公園","line":"2号線名城線","riders":11189}},{"type":"Feature","geometry":{"type":"Point","coordinates":[137.0182,35.12103]},"properties":{"name":"赤池","line":"3号線鶴舞線","riders":28160}},{"type":"Feature","geometry":{"type":"Point","coordinates":[136.95454,35.14387]},"properties":{"name":"いりなか","line":"3号線鶴舞線","riders":15518}},{"type":"Feature","geometry":{"type":"Point","coordinates":[136.96379,35.13701]},"properties":{"name":"八事","line":"3号線鶴舞線","riders":36595}},{"type":"Feature","geometry":{"type":"Point","coordinates":[136.99709,35.12604]},"properties":{"name":"原","line":"3号線鶴舞線","riders":21794}},{"type":"Feature","geometry":{"type":"Point","coordinates":[136.97863,35.13243]},"properties":{"name":"塩釜口","line":"3号線鶴舞線","riders":26392}},{"type":"Feature","geometry":{"type":"Point","coordinates":[136.98856,35.1285]},"properties":{"name":"植田","line":"3号線鶴舞線","riders":17862}},{"type":"Feature","geometry":{"type":"Point","coordinates":[137.00722,35.1227]},"properties":{"name":"平針","line":"3号線鶴舞線","riders":17102}},{"type":"Feature","geometry":{"type":"Point","coordinates":[136.8902,35.18332]},"properties":{"name":"浅間町","line":"3号線鶴舞線","riders":10444}},{"type":"Feature","geometry":{"type":"Point","coordinates":[136.91525,35.15615]},"properties":{"name":"鶴舞","line":"3号線鶴舞線","riders":29652}},{"type":"Feature","geometry":{"type":"Point","coordinates":[136.89673,35.17493]},"properties":{"name":"丸の内","line":"3号線鶴舞線","riders":41643}},{"type":"Feature","geometry":{"type":"Point","coordinates":[136.89079,35.19209]},"properties":{"name":"浄心","line":"3号線鶴舞線","riders":14607}},{"type":"Feature","geometry":{"type":"Point","coordinates":[136.94826,35.14872]},"properties":{"name":"川名","line":"3号線鶴舞線","riders":12200}},{"type":"Feature","geometry":{"type":"Point","coordinates":[136.89808,35.16141]},"properties":{"name":"大須観音","line":"3号線鶴舞線","riders":19919}},{"type":"Feature","geometry":{"type":"Point","coordinates":[136.87702,35.2233]},"properties":{"name":"上小田井","line":"3号線鶴舞線","riders":38891}},{"type":"Feature","geometry":{"type":"Point","coordinates":[136.93388,35.14947]},"properties":{"name":"御器所","line":"3号線鶴舞線","riders":23521}},{"type":"Feature","geometry":{"type":"Point","coordinates":[136.89101,35.20382]},"properties":{"name":"庄内通","line":"3号線鶴舞線","riders":14880}},{"type":"Feature","geometry":{"type":"Point","coordinates":[136.88662,35.21502]},"properties":{"name":"庄内緑地公園","line":"3号線鶴舞線","riders":8778}},{"type":"Feature","geometry":{"type":"Point","coordinates":[136.89734,35.16904]},"properties":{"name":"伏見","line":"3号線鶴舞線","riders":12}},{"type":"Feature","geometry":{"type":"Point","coordinates":[136.92523,35.1496]},"properties":{"name":"荒畑","line":"3号線鶴舞線","riders":9032}},{"type":"Feature","geometry":{"type":"Point","coordinates":[136.90653,35.15734]},"properties":{"name":"上前津","line":"3号線鶴舞線","riders":12}},{"type":"Feature","geometry":{"type":"Point","coordinates":[136.95463,35.1887]},"properties":{"name":"砂田橋","line":"4号線名城線","riders":15272}},{"type":"Feature","geometry":{"type":"Point","coordinates":[136.96212,35.18466]},"properties":{"name":"茶屋ヶ坂","line":"4号線名城線","riders":15326}},{"type":"Feature","geometry":{"type":"Point","coordinates":[136.96489,35.14464]},"properties":{"name":"八事日赤","line":"4号線名城線","riders":14686}},{"type":"Feature","geometry":{"type":"Point","coordinates":[136.96379,35.16288]},"properties":{"name":"本山","line":"4号線名城線","riders":12}},{"type":"Feature","geometry":{"type":"Point","coordinates":[136.95448,35.1305]},"properties":{"name":"総合リハビリセンター","line":"4号線名城線","riders":6718}},{"type":"Feature","geometry":{"type":"Point","coordinates":[136.96462,35.13704]},"properties":{"name":"八事","line":"4号線名城線","riders":12}},{"type":"Feature","geometry":{"type":"Point","coordinates":[136.96681,35.17539]},"properties":{"name":"自由ヶ丘","line":"4号線名城線","riders":14127}},{"type":"Feature","geometry":{"type":"Point","coordinates":[136.96658,35.15451]},"properties":{"name":"名古屋大学","line":"4号線名城線","riders":22888}},{"type":"Feature","geometry":{"type":"Point","coordinates":[136.93722,35.11773]},"properties":{"name":"新瑞橋","line":"4号線名城線","riders":28119}},{"type":"Feature","geometry":{"type":"Point","coordinates":[136.94399,35.19093]},"properties":{"name":"ナゴヤドーム前矢田","line":"4号線名城線","riders":25390}},{"type":"Feature","geometry":{"type":"Point","coordinates":[136.9018,35.13487]},"properties":{"name":"西高蔵","line":"4号線名城線","riders":6690}},{"type":"Feature","geometry":{"type":"Point","coordinates":[136.90682,35.12765]},"properties":{"name":"神宮西","line":"4号線名城線","riders":8978}},{"type":"Feature","geometry":{"type":"Point","coordinates":[136.91044,35.12087]},"properties":{"name":"伝馬町","line":"4号線名城線","riders":15494}},{"type":"Feature","geometry":{"type":"Point","coordinates":[136.94834,35.12271]},"properties":{"name":"瑞穂運動場東","line":"4号線名城線","riders":10049}},{"type":"Feature","geometry":{"type":"Point","coordinates":[136.92146,35.11646]},"properties":{"name":"堀田","line":"4号線名城線","riders":15338}},{"type":"Feature","geometry":{"type":"Point","coordinates":[136.92958,35.11712]},"properties":{"name":"妙音通","line":"4号線名城線","riders":4160}},{"type":"Feature","geometry":{"type":"Point","coordinates":[136.9549,35.1026]},"properties":{"name":"野並","line":"6号線桜通線","riders":31256}},{"type":"Feature","geometry":{"type":"Point","coordinates":[136.92949,35.17341]},"properties":{"name":"車道","line":"6号線桜通線","riders":14560}},{"type":"Feature","geometry":{"type":"Point","coordinates":[136.93439,35.13203]},"properties":{"name":"瑞穂区役所","line":"6号線桜通線","riders":15446}},{"type":"Feature","geometry":{"type":"Point","coordinates":[136.93331,35.14004]},"properties":{"name":"桜山","line":"6号線桜通線","riders":25380}},{"type":"Feature","geometry":{"type":"Point","coordinates":[136.93522,35.15881]},"properties":{"name":"吹上","line":"6号線桜通線","riders":15260}},{"type":"Feature","geometry":{"type":"Point","coordinates":[136.93543,35.1251]},"properties":{"name":"瑞穂運動場西","line":"6号線桜通線","riders":7402}},{"type":"Feature","geometry":{"type":"Point","coordinates":[136.88229,35.17079]},"properties":{"name":"名古屋","line":"6号線桜通線","riders":12}},{"type":"Feature","geometry":{"type":"Point","coordinates":[136.90783,35.17371]},"properties":{"name":"久屋大通","line":"6号線桜通線","riders":12}},{"type":"Feature","geometry":{"type":"Point","coordinates":[136.937,35.16898]},"properties":{"name":"今池","line":"6号線桜通線","riders":12}},{"type":"Feature","geometry":{"type":"Point","coordinates":[136.91618,35.17417]},"properties":{"name":"高岳","line":"6号線桜通線","riders":18774}},{"type":"Feature","geometry":{"type":"Point","coordinates":[136.93684,35.10931]},"properties":{"name":"桜本町","line":"6号線桜通線","riders":8112}},{"type":"Feature","geometry":{"type":"Point","coordinates":[136.89864,35.17304]},"properties":{"name":"丸の内","line":"6号線桜通線","riders":12}},{"type":"Feature","geometry":{"type":"Point","coordinates":[136.87338,35.16763]},"properties":{"name":"中村区役所","line":"6号線桜通線","riders":13140}},{"type":"Feature","geometry":{"type":"Point","coordinates":[136.88898,35.17206]},"properties":{"name":"国際センター","line":"6号線桜通線","riders":13018}},{"type":"Feature","geometry":{"type":"Point","coordinates":[136.9442,35.10556]},"properties":{"name":"鶴里","line":"6号線桜通線","riders":6334}},{"type":"Feature","geometry":{"type":"Point","coordinates":[136.93638,35.1189]},"properties":{"name":"新瑞橋","line":"6号線桜通線","riders":12}},{"type":"Feature","geometry":{"type":"Point","coordinates":[136.93366,35.14972]},"properties":{"name":"御器所","line":"6号線桜通線","riders":12}},{"type":"Feature","geometry":{"type":"Point","coordinates":[136.92976,35.19622]},"properties":{"name":"平安通","line":"上飯田線","riders":12544}},{"type":"Feature","geometry":{"type":"Point","coordinates":[136.92968,35.20361]},"properties":{"name":"上飯田","line":"上飯田線","riders":9399}},{"type":"Feature","geometry":{"type":"Point","coordinates":[136.91238,35.4033]},"properties":{"name":"苧ヶ瀬","line":"各務原線","riders":838}},{"type":"Feature","geometry":{"type":"Point","coordinates":[136.92156,35.40119]},"properties":{"name":"羽場","line":"各務原線","riders":1058}},{"type":"Feature","geometry":{"type":"Point","coordinates":[136.90103,35.40256]},"properties":{"name":"名電各務原","line":"各務原線","riders":3403}},{"type":"Feature","geometry":{"type":"Point","coordinates":[136.93241,35.39988]},"properties":{"name":"鵜沼宿","line":"各務原線","riders":1009}},{"type":"Feature","geometry":{"type":"Point","coordinates":[136.94426,35.39684]},"properties":{"name":"新鵜沼","line":"各務原線","riders":11033}},{"type":"Feature","geometry":{"type":"Point","coordinates":[136.94554,35.3799]},"properties":{"name":"犬山","line":"犬山線","riders":17532}},{"type":"Feature","geometry":{"type":"Point","coordinates":[136.91609,35.35965]},"properties":{"name":"扶桑","line":"犬山線","riders":6799}},{"type":"Feature","geometry":{"type":"Point","coordinates":[136.87117,35.29554]},"properties":{"name":"石仏","line":"犬山線","riders":4055}},{"type":"Feature","geometry":{"type":"Point","coordinates":[136.94693,35.39041]},"properties":{"name":"犬山遊園","line":"犬山線","riders":1473}},{"type":"Feature","geometry":{"type":"Point","coordinates":[136.93997,35.37423]},"properties":{"name":"犬山口","line":"犬山線","riders":2064}},{"type":"Feature","geometry":{"type":"Point","coordinates":[136.87357,35.27797]},"properties":{"name":"岩倉","line":"犬山線","riders":24486}},{"type":"Feature","geometry":{"type":"Point","coordinates":[136.90025,35.34482]},"properties":{"name":"柏森","line":"犬山線","riders":11229}},{"type":"Feature","geometry":{"type":"Point","coordinates":[136.92602,35.36684]},"properties":{"name":"木津用水","line":"犬山線","riders":2169}},{"type":"Feature","geometry":{"type":"Point","coordinates":[136.87081,35.20243]},"properties":{"name":"下小田井","line":"犬山線","riders":3779}},{"type":"Feature","geometry":{"type":"Point","coordinates":[136.87479,35.26331]},"properties":{"name":"大山寺","line":"犬山線","riders":2065}},{"type":"Feature","geometry":{"type":"Point","coordinates":[136.87336,35.25575]},"properties":{"name":"徳重・名古屋芸大","line":"犬山線","riders":10832}},{"type":"Feature","geometry":{"type":"Point","coordinates":[136.87129,35.24478]},"properties":{"name":"西春","line":"犬山線","riders":23983}},{"type":"Feature","geometry":{"type":"Point","coordinates":[136.87685,35.21475]},"properties":{"name":"中小田井","line":"犬山線","riders":3791}},{"type":"Feature","geometry":{"type":"Point","coordinates":[137.12174,35.43131]},"properties":{"name":"御嵩口","line":"広見線","riders":265}},{"type":"Feature","geometry":{"type":"Point","coordinates":[137.08772,35.43335]},"properties":{"name":"明智","line":"広見線","riders":913}},{"type":"Feature","geometry":{"type":"Point","coordinates":[137.01066,35.40472]},"properties":{"name":"西可児","line":"広見線","riders":3981}},{"type":"Feature","geometry":{"type":"Point","coordinates":[137.05568,35.42327]},"properties":{"name":"新可児","line":"広見線","riders":5295}},{"type":"Feature","geometry":{"type":"Point","coordinates":[137.12754,35.42973]},"properties":{"name":"御嵩","line":"広見線","riders":1281}},{"type":"Feature","geometry":{"type":"Point","coordinates":[136.96218,35.37953]},"properties":{"name":"富岡前","line":"広見線","riders":965}},{"type":"Feature","geometry":{"type":"Point","coordinates":[137.10514,35.43453]},"properties":{"name":"顔戸","line":"広見線","riders":179}},{"type":"Feature","geometry":{"type":"Point","coordinates":[137.03693,35.43231]},"properties":{"name":"日本ライン今渡","line":"広見線","riders":3083}},{"type":"Feature","geometry":{"type":"Point","coordinates":[137.01846,35.41825]},"properties":{"name":"可児川","line":"広見線","riders":1505}},{"type":"Feature","geometry":{"type":"Point","coordinates":[136.98005,35.3898]},"properties":{"name":"善師野","line":"広見線","riders":1502}},{"type":"Feature","geometry":{"type":"Point","coordinates":[137.18013,35.10767]},"properties":{"name":"越戸","line":"三河線","riders":898}},{"type":"Feature","geometry":{"type":"Point","coordinates":[137.18459,35.11454]},"properties":{"name":"平戸橋","line":"三河線","riders":1739}},{"type":"Feature","geometry":{"type":"Point","coordinates":[137.17871,35.12174]},"properties":{"name":"猿投","line":"三河線","riders":4108}},{"type":"Feature","geometry":{"type":"Point","coordinates":[136.94378,35.3174]},"properties":{"name":"田県神社前","line":"小牧線","riders":4767}},{"type":"Feature","geometry":{"type":"Point","coordinates":[136.93119,35.2716]},"properties":{"name":"間内","line":"小牧線","riders":2773}},{"type":"Feature","geometry":{"type":"Point","coordinates":[136.95252,35.35161]},"properties":{"name":"羽黒","line":"小牧線","riders":3456}},{"type":"Feature","geometry":{"type":"Point","coordinates":[136.92799,35.28896]},"properties":{"name":"小牧","line":"小牧線","riders":11278}},{"type":"Feature","geometry":{"type":"Point","coordinates":[136.94034,35.30938]},"properties":{"name":"味岡","line":"小牧線","riders":4942}},{"type":"Feature","geometry":{"type":"Point","coordinates":[136.9277,35.28175]},"properties":{"name":"小牧口","line":"小牧線","riders":3405}},{"type":"Feature","geometry":{"type":"Point","coordinates":[136.95009,35.33056]},"properties":{"name":"楽田","line":"小牧線","riders":3708}},{"type":"Feature","geometry":{"type":"Point","coordinates":[136.93718,35.23511]},"properties":{"name":"味美","line":"小牧線","riders":5020}},{"type":"Feature","geometry":{"type":"Point","coordinates":[136.93627,35.22281]},"properties":{"name":"味鋺","line":"小牧線","riders":4350}},{"type":"Feature","geometry":{"type":"Point","coordinates":[136.93134,35.26406]},"properties":{"name":"牛山","line":"小牧線","riders":2472}},{"type":"Feature","geometry":{"type":"Point","coordinates":[136.93624,35.25036]},"properties":{"name":"春日井","line":"小牧線","riders":3115}},{"type":"Feature","geometry":{"type":"Point","coordinates":[136.91082,35.11362]},"properties":{"name":"豊田本町","line":"常滑線","riders":5036}},{"type":"Feature","geometry":{"type":"Point","coordinates":[136.91257,35.12571]},"properties":{"name":"神宮前","line":"常滑線","riders":33766}},{"type":"Feature","geometry":{"type":"Point","coordinates":[136.90952,35.1057]},"properties":{"name":"道徳","line":"常滑線","riders":5835}},{"type":"Feature","geometry":{"type":"Point","coordinates":[137.07769,35.22553]},"properties":{"name":"新瀬戸","line":"瀬戸線","riders":10893}},{"type":"Feature","geometry":{"type":"Point","coordinates":[136.95757,35.19619]},"properties":{"name":"守山自衛隊前","line":"瀬戸線","riders":2648}},{"type":"Feature","geometry":{"type":"Point","coordinates":[136.98811,35.20506]},"properties":{"name":"喜多山","line":"瀬戸線","riders":6322}},{"type":"Feature","geometry":{"type":"Point","coordinates":[137.06942,35.2242]},"properties":{"name":"水野","line":"瀬戸線","riders":5115}},{"type":"Feature","geometry":{"type":"Point","coordinates":[137.03625,35.21676]},"properties":{"name":"尾張旭","line":"瀬戸線","riders":7979}},{"type":"Feature","geometry":{"type":"Point","coordinates":[137.05237,35.21623]},"properties":{"name":"三郷","line":"瀬戸線","riders":9896}},{"type":"Feature","geometry":{"type":"Point","coordinates":[136.97556,35.20007]},"properties":{"name":"小幡","line":"瀬戸線","riders":13381}},{"type":"Feature","geometry":{"type":"Point","coordinates":[137.01975,35.21416]},"properties":{"name":"旭前","line":"瀬戸線","riders":6281}},{"type":"Feature","geometry":{"type":"Point","coordinates":[136.96445,35.19714]},"properties":{"name":"瓢箪山","line":"瀬戸線","riders":4607}},{"type":"Feature","geometry":{"type":"Point","coordinates":[137.08421,35.22499]},"properties":{"name":"瀬戸市役所前","line":"瀬戸線","riders":2879}},{"type":"Feature","geometry":{"type":"Point","coordinates":[137.01104,35.21102]},"properties":{"name":"印場","line":"瀬戸線","riders":5526}},{"type":"Feature","geometry":{"type":"Point","coordinates":[137.09674,35.22489]},"properties":{"name":"尾張瀬戸","line":"瀬戸線","riders":8541}},{"type":"Feature","geometry":{"type":"Point","coordinates":[136.99659,35.20694]},"properties":{"name":"大森・金城学院前","line":"瀬戸線","riders":12690}},{"type":"Feature","geometry":{"type":"Point","coordinates":[136.90848,35.18345]},"properties":{"name":"東大手","line":"瀬戸線","riders":4115}},{"type":"Feature","geometry":{"type":"Point","coordinates":[136.93695,35.19159]},"properties":{"name":"大曽根","line":"瀬戸線","riders":34943}},{"type":"Feature","geometry":{"type":"Point","coordinates":[136.94799,35.19366]},"properties":{"name":"矢田","line":"瀬戸線","riders":1392}},{"type":"Feature","geometry":{"type":"Point","coordinates":[136.91917,35.1878]},"properties":{"name":"尼ヶ坂","line":"瀬戸線","riders":3839}},{"type":"Feature","geometry":{"type":"Point","coordinates":[136.92929,35.18824]},"properties":{"name":"森下","line":"瀬戸線","riders":2867}},{"type":"Feature","geometry":{"type":"Point","coordinates":[136.91394,35.18709]},"properties":{"name":"清水","line":"瀬戸線","riders":2464}},{"type":"Feature","geometry":{"type":"Point","coordinates":[136.90885,35.17048]},"properties":{"name":"栄町","line":"瀬戸線","riders":42090}},{"type":"Feature","geometry":{"type":"Point","coordinates":[136.82585,35.19595]},"properties":{"name":"甚目寺","line":"津島線","riders":10693}},{"type":"Feature","geometry":{"type":"Point","coordinates":[136.84575,35.19893]},"properties":{"name":"須ヶ口","line":"津島線","riders":7544}},{"type":"Feature","geometry":{"type":"Point","coordinates":[136.73107,35.17803]},"properties":{"name":"津島","line":"津島線","riders":11994}},{"type":"Feature","geometry":{"type":"Point","coordinates":[136.73891,35.18883]},"properties":{"name":"藤浪","line":"津島線","riders":4797}},{"type":"Feature","geometry":{"type":"Point","coordinates":[136.78801,35.1953]},"properties":{"name":"木田","line":"津島線","riders":7033}},{"type":"Feature","geometry":{"type":"Point","coordinates":[136.76693,35.19871]},"properties":{"name":"青塚","line":"津島線","riders":3534}},{"type":"Feature","geometry":{"type":"Point","coordinates":[136.75037,35.19524]},"properties":{"name":"勝幡","line":"津島線","riders":4584}},{"type":"Feature","geometry":{"type":"Point","coordinates":[136.80596,35.19579]},"properties":{"name":"七宝","line":"津島線","riders":5313}},{"type":"Feature","geometry":{"type":"Point","coordinates":[136.78617,35.28972]},"properties":{"name":"観音寺","line":"尾西線","riders":1744}},{"type":"Feature","geometry":{"type":"Point","coordinates":[136.7577,35.27717]},"properties":{"name":"萩原","line":"尾西線","riders":2585}},{"type":"Feature","geometry":{"type":"Point","coordinates":[136.76569,35.28376]},"properties":{"name":"二子","line":"尾西線","riders":2735}},{"type":"Feature","geometry":{"type":"Point","coordinates":[136.77826,35.28714]},"properties":{"name":"苅安賀","line":"尾西線","riders":959}},{"type":"Feature","geometry":{"type":"Point","coordinates":[136.7286,35.16367]},"properties":{"name":"日比野","line":"尾西線","riders":3818}},{"type":"Feature","geometry":{"type":"Point","coordinates":[136.73944,35.25644]},"properties":{"name":"山崎","line":"尾西線","riders":1043}},{"type":"Feature","geometry":{"type":"Point","coordinates":[136.7478,35.2662]},"properties":{"name":"玉野","line":"尾西線","riders":986}},{"type":"Feature","geometry":{"type":"Point","coordinates":[136.72915,35.20221]},"properties":{"name":"六輪","line":"尾西線","riders":1046}},{"type":"Feature","geometry":{"type":"Point","coordinates":[136.73252,35.23387]},"properties":{"name":"上丸渕","line":"尾西線","riders":1046}},{"type":"Feature","geometry":{"type":"Point","coordinates":[136.72704,35.18992]},"properties":{"name":"町方","line":"尾西線","riders":1301}},{"type":"Feature","geometry":{"type":"Point","coordinates":[136.71668,35.14755]},"properties":{"name":"佐屋","line":"尾西線","riders":4374}},{"type":"Feature","geometry":{"type":"Point","coordinates":[136.72735,35.21395]},"properties":{"name":"渕高","line":"尾西線","riders":1699}},{"type":"Feature","geometry":{"type":"Point","coordinates":[136.71143,35.12935]},"properties":{"name":"五ノ三","line":"尾西線","riders":499}},{"type":"Feature","geometry":{"type":"Point","coordinates":[136.73695,35.24761]},"properties":{"name":"森上","line":"尾西線","riders":3062}},{"type":"Feature","geometry":{"type":"Point","coordinates":[136.72899,35.22253]},"properties":{"name":"丸渕","line":"尾西線","riders":763}},{"type":"Feature","geometry":{"type":"Point","coordinates":[137.09159,35.12767]},"properties":{"name":"黒笹","line":"豊田線","riders":3311}},{"type":"Feature","geometry":{"type":"Point","coordinates":[137.06699,35.1237]},"properties":{"name":"米野木","line":"豊田線","riders":6429}},{"type":"Feature","geometry":{"type":"Point","coordinates":[137.1551,35.11617]},"properties":{"name":"上豊田","line":"豊田線","riders":3164}},{"type":"Feature","geometry":{"type":"Point","coordinates":[137.11142,35.12699]},"properties":{"name":"三好ヶ丘","line":"豊田線","riders":10060}},{"type":"Feature","geometry":{"type":"Point","coordinates":[137.04878,35.11839]},"properties":{"name":"日進","line":"豊田線","riders":10422}},{"type":"Feature","geometry":{"type":"Point","coordinates":[137.13732,35.12129]},"properties":{"name":"浄水","line":"豊田線","riders":10706}},{"type":"Feature","geometry":{"type":"Point","coordinates":[136.80087,35.27115]},"properties":{"name":"島氏永","line":"名古屋本線","riders":2008}},{"type":"Feature","geometry":{"type":"Point","coordinates":[136.79822,35.2873]},"properties":{"name":"妙興寺","line":"名古屋本線","riders":2891}},{"type":"Feature","geometry":{"type":"Point","coordinates":[136.86528,35.19509]},"properties":{"name":"西枇杷島","line":"名古屋本線","riders":709}},{"type":"Feature","geometry":{"type":"Point","coordinates":[136.93037,35.11476]},"properties":{"name":"呼続","line":"名古屋本線","riders":2428}},{"type":"Feature","geometry":{"type":"Point","coordinates":[136.83536,35.21146]},"properties":{"name":"新清洲","line":"名古屋本線","riders":8331}},{"type":"Feature","geometry":{"type":"Point","coordinates":[136.85262,35.19525]},"properties":{"name":"新川橋","line":"名古屋本線","riders":828}},{"type":"Feature","geometry":{"type":"Point","coordinates":[136.87032,35.18994]},"properties":{"name":"東枇杷島","line":"名古屋本線","riders":5815}},{"type":"Feature","geometry":{"type":"Point","coordinates":[136.88877,35.15189]},"properties":{"name":"山王","line":"名古屋本線","riders":7261}},{"type":"Feature","geometry":{"type":"Point","coordinates":[136.92,35.12023]},"properties":{"name":"堀田","line":"名古屋本線","riders":14441}},{"type":"Feature","geometry":{"type":"Point","coordinates":[136.87306,35.18379]},"properties":{"name":"栄生","line":"名古屋本線","riders":13664}},{"type":"Feature","geometry":{"type":"Point","coordinates":[136.85978,35.19466]},"properties":{"name":"二ツ杁","line":"名古屋本線","riders":3265}},{"type":"Feature","geometry":{"type":"Point","coordinates":[136.88387,35.17044]},"properties":{"name":"名鉄名古屋","line":"名古屋本線","riders":301998}},{"type":"Feature","geometry":{"type":"Point","coordinates":[136.90133,35.14286]},"properties":{"name":"金山","line":"名古屋本線","riders":172387}},{"type":"Feature","geometry":{"type":"Point","coordinates":[136.84214,35.20421]},"properties":{"name":"丸ノ内","line":"名古屋本線","riders":1148}},{"type":"Feature","geometry":{"type":"Point","coordinates":[136.93462,35.10605]},"properties":{"name":"桜","line":"名古屋本線","riders":4077}},{"type":"Feature","geometry":{"type":"Point","coordinates":[136.81829,35.2264]},"properties":{"name":"大里","line":"名古屋本線","riders":3881}},{"type":"Feature","geometry":{"type":"Point","coordinates":[136.81115,35.23503]},"properties":{"name":"奥田","line":"名古屋本線","riders":2456}},{"type":"Feature","geometry":{"type":"Point","coordinates":[136.80293,35.25428]},"properties":{"name":"国府宮","line":"名古屋本線","riders":22767}},{"type":"Feature","geometry":{"type":"Point","coordinates":[136.88254,35.16866]},"properties":{"name":"名古屋","line":"西名古屋港線","riders":37300}},{"type":"Feature","geometry":{"type":"Point","coordinates":[136.86193,35.14005]},"properties":{"name":"荒子","line":"西名古屋港線","riders":4900}},{"type":"Feature","geometry":{"type":"Point","coordinates":[136.86141,35.12519]},"properties":{"name":"中島","line":"西名古屋港線","riders":5800}},{"type":"Feature","geometry":{"type":"Point","coordinates":[136.86277,35.11464]},"properties":{"name":"港北","line":"西名古屋港線","riders":6900}},{"type":"Feature","geometry":{"type":"Point","coordinates":[136.86194,35.13164]},"properties":{"name":"南荒子","line":"西名古屋港線","riders":3100}},{"type":"Feature","geometry":{"type":"Point","coordinates":[136.86131,35.10451]},"properties":{"name":"荒子川公園","line":"西名古屋港線","riders":6300}},{"type":"Feature","geometry":{"type":"Point","coordinates":[136.88192,35.16201]},"properties":{"name":"ささしまライブ","line":"西名古屋港線","riders":7000}},{"type":"Feature","geometry":{"type":"Point","coordinates":[136.86146,35.14906]},"properties":{"name":"小本","line":"西名古屋港線","riders":3000}},{"type":"Feature","geometry":{"type":"Point","coordinates":[137.42881,35.44626]},"properties":{"name":"東野","line":"明知線","riders":75}},{"type":"Feature","geometry":{"type":"Point","coordinates":[137.38737,35.30598]},"properties":{"name":"明智","line":"明知線","riders":452}},{"type":"Feature","geometry":{"type":"Point","coordinates":[137.40735,35.35502]},"properties":{"name":"花白温泉","line":"明知線","riders":112}},{"type":"Feature","geometry":{"type":"Point","coordinates":[137.43419,35.36862]},"properties":{"name":"岩村","line":"明知線","riders":415}},{"type":"Feature","geometry":{"type":"Point","coordinates":[137.39571,35.35002]},"properties":{"name":"山岡","line":"明知線","riders":151}},{"type":"Feature","geometry":{"type":"Point","coordinates":[137.38939,35.32207]},"properties":{"name":"野志","line":"明知線","riders":17}},{"type":"Feature","geometry":{"type":"Point","coordinates":[137.46134,35.4186]},"properties":{"name":"飯沼","line":"明知線","riders":43}},{"type":"Feature","geometry":{"type":"Point","coordinates":[137.43752,35.38726]},"properties":{"name":"飯羽間","line":"明知線","riders":88}},{"type":"Feature","geometry":{"type":"Point","coordinates":[137.45913,35.39959]},"properties":{"name":"阿木","line":"明知線","riders":401}},{"type":"Feature","geometry":{"type":"Point","coordinates":[137.43251,35.37966]},"properties":{"name":"極楽","line":"明知線","riders":120}},{"type":"Feature","geometry":{"type":"Point","coordinates":[136.96617,35.1027]},"properties":{"name":"鳴子北","line":"6号線桜通線","riders":10396}},{"type":"Feature","geometry":{"type":"Point","coordinates":[136.97624,35.10251]},"properties":{"name":"相生山","line":"6号線桜通線","riders":8866}},{"type":"Feature","geometry":{"type":"Point","coordinates":[136.64723,35.1159]},"properties":{"name":"下野代","line":"養老線","riders":425}},{"type":"Feature","geometry":{"type":"Point","coordinates":[136.64066,35.13374]},"properties":{"name":"多度","line":"養老線","riders":1238}},{"type":"Feature","geometry":{"type":"Point","coordinates":[136.63268,35.16091]},"properties":{"name":"美濃松山","line":"養老線","riders":817}},{"type":"Feature","geometry":{"type":"Point","coordinates":[136.62748,35.18037]},"properties":{"name":"石津","line":"養老線","riders":543}},{"type":"Feature","geometry":{"type":"Point","coordinates":[136.62154,35.19872]},"properties":{"name":"美濃山崎","line":"養老線","riders":176}},{"type":"Feature","geometry":{"type":"Point","coordinates":[136.60342,35.22374]},"properties":{"name":"駒野","line":"養老線","riders":952}},{"type":"Feature","geometry":{"type":"Point","coordinates":[136.56672,35.25139]},"properties":{"name":"美濃津屋","line":"養老線","riders":325}},{"type":"Feature","geometry":{"type":"Point","coordinates":[136.55684,35.28677]},"properties":{"name":"養老","line":"養老線","riders":646}},{"type":"Feature","geometry":{"type":"Point","coordinates":[136.93534,35.29868]},"properties":{"name":"小牧原","line":"小牧線","riders":3700}}]}