{"type":"FeatureCollection","features":[{"type":"Feature","geometry":{"type":"Point","coordinates":[137.86097,37.02042]},"properties":{"name":"姫川","line":"大糸線","riders":11}},{"type":"Feature","geometry":{"type":"Point","coordinates":[137.87249,37.00616]},"properties":{"name":"頸城大野","line":"大糸線","riders":29}},{"type":"Feature","geometry":{"type":"Point","coordinates":[137.86258,37.0438]},"properties":{"name":"糸魚川","line":"大糸線","riders":1940}},{"type":"Feature","geometry":{"type":"Point","coordinates":[138.09234,37.1557]},"properties":{"name":"名立","line":"日本海ひすいライン","riders":236}},{"type":"Feature","geometry":{"type":"Point","coordinates":[137.93983,37.07419]},"properties":{"name":"浦本","line":"日本海ひすいライン","riders":29}},{"type":"Feature","geometry":{"type":"Point","coordinates":[138.06058,37.12732]},"properties":{"name":"筒石","line":"日本海ひすいライン","riders":92}},{"type":"Feature","geometry":{"type":"Point","coordinates":[137.90569,37.05658]},"properties":{"name":"梶屋敷","line":"日本海ひすいライン","riders":154}},{"type":"Feature","geometry":{"type":"Point","coordinates":[137.98847,37.09601]},"properties":{"name":"能生","line":"日本海ひすいライン","riders":823}},{"type":"Feature","geometry":{"type":"Point","coordinates":[138.24203,37.17014]},"properties":{"name":"直江津","line":"妙高はねうまライン","riders":7240}},{"type":"Feature","geometry":{"type":"Point","coordinates":[138.17391,37.16239]},"properties":{"name":"谷浜","line":"日本海ひすいライン","riders":63}},{"type":"Feature","geometry":{"type":"Point","coordinates":[138.13666,37.16332]},"properties":{"name":"有間川","line":"日本海ひすいライン","riders":73}},{"type":"Feature","geometry":{"type":"Point","coordinates":[139.45025,38.27305]},"properties":{"name":"間島","line":"羽越線","riders":11}},{"type":"Feature","geometry":{"type":"Point","coordinates":[139.45968,38.18349]},"properties":{"name":"岩船町","line":"羽越線","riders":11}},{"type":"Feature","geometry":{"type":"Point","coordinates":[139.46332,38.21988]},"properties":{"name":"村上","line":"羽越線","riders":3722}},{"type":"Feature","geometry":{"type":"Point","coordinates":[139.42792,38.09439]},"properties":{"name":"平木田","line":"羽越線","riders":11}},{"type":"Feature","geometry":{"type":"Point","coordinates":[139.44995,38.31638]},"properties":{"name":"越後早川","line":"羽越線","riders":11}},{"type":"Feature","geometry":{"type":"Point","coordinates":[139.49005,38.44877]},"properties":{"name":"越後寒川","line":"羽越線","riders":11}},{"type":"Feature","geometry":{"type":"Point","coordinates":[139.37955,38.0203]},"properties":{"name":"金塚","line":"羽越線","riders":11}},{"type":"Feature","geometry":{"type":"Point","coordinates":[139.46838,38.41014]},"properties":{"name":"今川","line":"羽越線","riders":11}},{"type":"Feature","geometry":{"type":"Point","coordinates":[139.45902,38.1501]},"properties":{"name":"平林","line":"羽越線","riders":11}},{"type":"Feature","geometry":{"type":"Point","coordinates":[139.4588,38.37518]},"properties":{"name":"桑川","line":"羽越線","riders":11}},{"type":"Feature","geometry":{"type":"Point","coordinates":[139.398,38.04989]},"properties":{"name":"中条","line":"羽越線","riders":2522}},{"type":"Feature","geometry":{"type":"Point","coordinates":[139.44584,38.11929]},"properties":{"name":"坂町","line":"羽越線","riders":1586}},{"type":"Feature","geometry":{"type":"Point","coordinates":[138.55642,37.36355]},"properties":{"name":"柏崎","line":"越後線","riders":28633}},{"type":"Feature","geometry":{"type":"Point","coordinates":[138.88,37.72143]},"properties":{"name":"岩室","line":"越後線","riders":11}},{"type":"Feature","geometry":{"type":"Point","coordinates":[138.90817,37.816]},"properties":{"name":"越後赤塚","line":"越後線","riders":11}},{"type":"Feature","geometry":{"type":"Point","coordinates":[138.83939,37.62917]},"properties":{"name":"分水","line":"越後線","riders":1280}},{"type":"Feature","geometry":{"type":"Point","coordinates":[138.77134,37.57456]},"properties":{"name":"小島谷","line":"越後線","riders":11}},{"type":"Feature","geometry":{"type":"Point","coordinates":[138.56591,37.37405]},"properties":{"name":"東柏崎","line":"越後線","riders":11}},{"type":"Feature","geometry":{"type":"Point","coordinates":[139.03005,37.91184]},"properties":{"name":"白山","line":"越後線","riders":10874}},{"type":"Feature","geometry":{"type":"Point","coordinates":[138.93688,37.85849]},"properties":{"name":"内野","line":"越後線","riders":5684}},{"type":"Feature","geometry":{"type":"Point","coordinates":[138.61965,37.42999]},"properties":{"name":"刈羽","line":"越後線","riders":11}},{"type":"Feature","geometry":{"type":"Point","coordinates":[138.87857,37.68713]},"properties":{"name":"吉田","line":"越後線","riders":3490}},{"type":"Feature","geometry":{"type":"Point","coordinates":[138.70422,37.51563]},"properties":{"name":"小木ノ城","line":"越後線","riders":11}},{"type":"Feature","geometry":{"type":"Point","coordinates":[138.95458,37.86919]},"properties":{"name":"新潟大学前","line":"越後線","riders":6214}},{"type":"Feature","geometry":{"type":"Point","coordinates":[138.59283,37.39254]},"properties":{"name":"西中通","line":"越後線","riders":11}},{"type":"Feature","geometry":{"type":"Point","coordinates":[138.8896,37.75699]},"properties":{"name":"巻","line":"越後線","riders":4946}},{"type":"Feature","geometry":{"type":"Point","coordinates":[138.74211,37.56645]},"properties":{"name":"妙法寺","line":"越後線","riders":11}},{"type":"Feature","geometry":{"type":"Point","coordinates":[139.00088,37.89857]},"properties":{"name":"青山","line":"越後線","riders":2352}},{"type":"Feature","geometry":{"type":"Point","coordinates":[138.91109,37.7935]},"properties":{"name":"越後曽根","line":"越後線","riders":2500}},{"type":"Feature","geometry":{"type":"Point","coordinates":[138.88222,37.702]},"properties":{"name":"北吉田","line":"越後線","riders":11}},{"type":"Feature","geometry":{"type":"Point","coordinates":[138.64182,37.44826]},"properties":{"name":"西山","line":"越後線","riders":11}},{"type":"Feature","geometry":{"type":"Point","coordinates":[139.01515,37.90613]},"properties":{"name":"関屋","line":"越後線","riders":4066}},{"type":"Feature","geometry":{"type":"Point","coordinates":[138.66356,37.459]},"properties":{"name":"礼拝","line":"越後線","riders":11}},{"type":"Feature","geometry":{"type":"Point","coordinates":[138.97395,37.8792]},"properties":{"name":"寺尾","line":"越後線","riders":4454}},{"type":"Feature","geometry":{"type":"Point","coordinates":[138.92673,37.84614]},"properties":{"name":"内野西が丘","line":"越後線","riders":11}},{"type":"Feature","geometry":{"type":"Point","coordinates":[138.60195,37.40473]},"properties":{"name":"荒浜","line":"越後線","riders":11}},{"type":"Feature","geometry":{"type":"Point","coordinates":[138.99113,37.8895]},"properties":{"name":"小針","line":"越後線","riders":5302}},{"type":"Feature","geometry":{"type":"Point","coordinates":[138.8735,37.65397]},"properties":{"name":"粟生津","line":"越後線","riders":11}},{"type":"Feature","geometry":{"type":"Point","coordinates":[138.81446,37.62027]},"properties":{"name":"寺泊","line":"越後線","riders":500}},{"type":"Feature","geometry":{"type":"Point","coordinates":[138.68826,37.48412]},"properties":{"name":"石地","line":"越後線","riders":11}},{"type":"Feature","geometry":{"type":"Point","coordinates":[138.87105,37.67198]},"properties":{"name":"南吉田","line":"越後線","riders":11}},{"type":"Feature","geometry":{"type":"Point","coordinates":[138.79251,37.60177]},"properties":{"name":"桐原","line":"越後線","riders":11}},{"type":"Feature","geometry":{"type":"Point","coordinates":[138.71625,37.53182]},"properties":{"name":"出雲崎","line":"越後線","riders":488}},{"type":"Feature","geometry":{"type":"Point","coordinates":[139.06125,37.91223]},"properties":{"name":"新潟","line":"越後線","riders":77602}},{"type":"Feature","geometry":{"type":"Point","coordinates":[138.92273,37.16772]},"properties":{"name":"浦佐","line":"上越新幹線","riders":11}},{"type":"Feature","geometry":{"type":"Point","coordinates":[138.85397,37.44776]},"properties":{"name":"長岡","line":"上越新幹線","riders":25552}},{"type":"Feature","geometry":{"type":"Point","coordinates":[138.93865,37.64786]},"properties":{"name":"燕三条","line":"上越新幹線","riders":11}},{"type":"Feature","geometry":{"type":"Point","coordinates":[139.06175,37.91201]},"properties":{"name":"新潟","line":"上越新幹線","riders":11}},{"type":"Feature","geometry":{"type":"Point","coordinates":[138.84011,37.42213]},"properties":{"name":"宮内","line":"上越線","riders":2006}},{"type":"Feature","geometry":{"type":"Point","coordinates":[138.92304,37.16742]},"properties":{"name":"浦佐","line":"上越線","riders":2914}},{"type":"Feature","geometry":{"type":"Point","coordinates":[138.89632,37.25574]},"properties":{"name":"北堀之内","line":"上越線","riders":11}},{"type":"Feature","geometry":{"type":"Point","coordinates":[138.90851,37.12007]},"properties":{"name":"五日町","line":"上越線","riders":488}},{"type":"Feature","geometry":{"type":"Point","coordinates":[138.93511,37.19176]},"properties":{"name":"八色","line":"上越線","riders":11}},{"type":"Feature","geometry":{"type":"Point","coordinates":[138.83497,37.36872]},"properties":{"name":"越後滝谷","line":"上越線","riders":11}},{"type":"Feature","geometry":{"type":"Point","coordinates":[138.81335,37.30997]},"properties":{"name":"小千谷","line":"上越線","riders":2638}},{"type":"Feature","geometry":{"type":"Point","coordinates":[138.92829,37.23895]},"properties":{"name":"越後堀之内","line":"上越線","riders":924}},{"type":"Feature","geometry":{"type":"Point","coordinates":[138.86184,37.27292]},"properties":{"name":"越後川口","line":"上越線","riders":438}},{"type":"Feature","geometry":{"type":"Point","coordinates":[138.95361,37.23357]},"properties":{"name":"小出","line":"上越線","riders":1894}},{"type":"Feature","geometry":{"type":"Point","coordinates":[138.94295,37.59303]},"properties":{"name":"東光寺","line":"信越線","riders":11}},{"type":"Feature","geometry":{"type":"Point","coordinates":[139.0955,37.74889]},"properties":{"name":"矢代田","line":"信越線","riders":2368}},{"type":"Feature","geometry":{"type":"Point","coordinates":[138.46705,37.3357]},"properties":{"name":"笠島","line":"信越線","riders":11}},{"type":"Feature","geometry":{"type":"Point","coordinates":[138.24807,37.08135]},"properties":{"name":"上越妙高","line":"妙高はねうまライン","riders":1876}},{"type":"Feature","geometry":{"type":"Point","coordinates":[139.0607,37.69364]},"properties":{"name":"羽生田","line":"信越線","riders":1322}},{"type":"Feature","geometry":{"type":"Point","coordinates":[138.86242,37.46883]},"properties":{"name":"北長岡","line":"信越線","riders":11}},{"type":"Feature","geometry":{"type":"Point","coordinates":[138.48624,37.34619]},"properties":{"name":"青海川","line":"信越線","riders":11}},{"type":"Feature","geometry":{"type":"Point","coordinates":[138.24303,37.0968]},"properties":{"name":"南高田","line":"妙高はねうまライン","riders":1708}},{"type":"Feature","geometry":{"type":"Point","coordinates":[138.90483,37.54015]},"properties":{"name":"見附","line":"信越線","riders":4384}},{"type":"Feature","geometry":{"type":"Point","coordinates":[139.01468,37.63931]},"properties":{"name":"保内","line":"信越線","riders":11}},{"type":"Feature","geometry":{"type":"Point","coordinates":[138.637,37.3383]},"properties":{"name":"北条","line":"信越線","riders":11}},{"type":"Feature","geometry":{"type":"Point","coordinates":[138.66123,37.35736]},"properties":{"name":"越後広田","line":"信越線","riders":11}},{"type":"Feature","geometry":{"type":"Point","coordinates":[139.04895,37.65884]},"properties":{"name":"加茂","line":"信越線","riders":5972}},{"type":"Feature","geometry":{"type":"Point","coordinates":[138.58675,37.35705]},"properties":{"name":"茨目","line":"信越線","riders":11}},{"type":"Feature","geometry":{"type":"Point","coordinates":[138.24196,37.11462]},"properties":{"name":"高田","line":"妙高はねうまライン","riders":4706}},{"type":"Feature","geometry":{"type":"Point","coordinates":[138.72994,37.35515]},"properties":{"name":"塚山","line":"信越線","riders":474}},{"type":"Feature","geometry":{"type":"Point","coordinates":[138.88121,37.50494]},"properties":{"name":"押切","line":"信越線","riders":11}},{"type":"Feature","geometry":{"type":"Point","coordinates":[138.92856,37.57301]},"properties":{"name":"帯織","line":"信越線","riders":11}},{"type":"Feature","geometry":{"type":"Point","coordinates":[138.85397,37.44776]},"properties":{"name":"長岡","line":"信越線","riders":25552}},{"type":"Feature","geometry":{"type":"Point","coordinates":[138.97475,37.62855]},"properties":{"name":"東三条","line":"信越線","riders":5894}},{"type":"Feature","geometry":{"type":"Point","coordinates":[138.8239,37.40176]},"properties":{"name":"前川","line":"信越線","riders":11}},{"type":"Feature","geometry":{"type":"Point","coordinates":[138.3399,37.23421]},"properties":{"name":"潟町","line":"信越線","riders":424}},{"type":"Feature","geometry":{"type":"Point","coordinates":[139.09547,37.89637]},"properties":{"name":"越後石山","line":"信越線","riders":4132}},{"type":"Feature","geometry":{"type":"Point","coordinates":[138.43146,37.31686]},"properties":{"name":"米山","line":"信越線","riders":11}},{"type":"Feature","geometry":{"type":"Point","coordinates":[138.23505,37.14798]},"properties":{"name":"春日山","line":"妙高はねうまライン","riders":1576}},{"type":"Feature","geometry":{"type":"Point","coordinates":[138.36168,37.25238]},"properties":{"name":"上下浜","line":"信越線","riders":11}},{"type":"Feature","geometry":{"type":"Point","coordinates":[138.75641,37.38634]},"properties":{"name":"越後岩塚","line":"信越線","riders":11}},{"type":"Feature","geometry":{"type":"Point","coordinates":[138.78379,37.39722]},"properties":{"name":"来迎寺","line":"信越線","riders":1124}},{"type":"Feature","geometry":{"type":"Point","coordinates":[138.51736,37.35585]},"properties":{"name":"鯨波","line":"信越線","riders":11}},{"type":"Feature","geometry":{"type":"Point","coordinates":[138.32482,37.22278]},"properties":{"name":"土底浜","line":"信越線","riders":11}},{"type":"Feature","geometry":{"type":"Point","coordinates":[138.25771,37.0529]},"properties":{"name":"北新井","line":"妙高はねうまライン","riders":512}},{"type":"Feature","geometry":{"type":"Point","coordinates":[138.96088,37.62123]},"properties":{"name":"三条","line":"信越線","riders":3740}},{"type":"Feature","geometry":{"type":"Point","coordinates":[138.25563,37.02674]},"properties":{"name":"新井","line":"妙高はねうまライン","riders":2588}},{"type":"Feature","geometry":{"type":"Point","coordinates":[138.26817,37.18403]},"properties":{"name":"黒井","line":"信越線","riders":11}},{"type":"Feature","geometry":{"type":"Point","coordinates":[138.38592,37.27778]},"properties":{"name":"柿崎","line":"信越線","riders":1318}},{"type":"Feature","geometry":{"type":"Point","coordinates":[138.6841,37.36642]},"properties":{"name":"長鳥","line":"信越線","riders":11}},{"type":"Feature","geometry":{"type":"Point","coordinates":[139.07457,37.71903]},"properties":{"name":"田上","line":"信越線","riders":11}},{"type":"Feature","geometry":{"type":"Point","coordinates":[138.61217,37.34113]},"properties":{"name":"安田","line":"信越線","riders":738}},{"type":"Feature","geometry":{"type":"Point","coordinates":[138.30496,37.2101]},"properties":{"name":"犀潟","line":"信越線","riders":9176}},{"type":"Feature","geometry":{"type":"Point","coordinates":[138.98141,37.27456]},"properties":{"name":"越後広瀬","line":"只見線","riders":11}},{"type":"Feature","geometry":{"type":"Point","coordinates":[138.97588,37.25684]},"properties":{"name":"藪神","line":"只見線","riders":11}},{"type":"Feature","geometry":{"type":"Point","coordinates":[139.05075,37.34678]},"properties":{"name":"上条","line":"只見線","riders":11}},{"type":"Feature","geometry":{"type":"Point","coordinates":[139.06583,37.35869]},"properties":{"name":"入広瀬","line":"只見線","riders":11}},{"type":"Feature","geometry":{"type":"Point","coordinates":[139.01777,37.32055]},"properties":{"name":"越後須原","line":"只見線","riders":11}},{"type":"Feature","geometry":{"type":"Point","coordinates":[138.99263,37.29414]},"properties":{"name":"魚沼田中","line":"只見線","riders":11}},{"type":"Feature","geometry":{"type":"Point","coordinates":[138.75646,37.1348]},"properties":{"name":"十日町","line":"飯山線","riders":1182}},{"type":"Feature","geometry":{"type":"Point","coordinates":[138.85177,37.25001]},"properties":{"name":"内ヶ巻","line":"飯山線","riders":11}},{"type":"Feature","geometry":{"type":"Point","coordinates":[138.7972,37.24079]},"properties":{"name":"越後岩沢","line":"飯山線","riders":11}},{"type":"Feature","geometry":{"type":"Point","coordinates":[138.77249,37.15947]},"properties":{"name":"魚沼中条","line":"飯山線","riders":11}},{"type":"Feature","geometry":{"type":"Point","coordinates":[138.78004,37.19839]},"properties":{"name":"下条","line":"飯山線","riders":11}},{"type":"Feature","geometry":{"type":"Point","coordinates":[138.85167,37.69065]},"properties":{"name":"矢作","line":"弥彦線","riders":11}},{"type":"Feature","geometry":{"type":"Point","coordinates":[138.92848,37.66764]},"properties":{"name":"燕","line":"弥彦線","riders":2368}},{"type":"Feature","geometry":{"type":"Point","coordinates":[138.83178,37.6992]},"properties":{"name":"弥彦","line":"弥彦線","riders":536}},{"type":"Feature","geometry":{"type":"Point","coordinates":[138.87859,37.6871]},"properties":{"name":"吉田","line":"弥彦線","riders":3490}},{"type":"Feature","geometry":{"type":"Point","coordinates":[138.90926,37.67979]},"properties":{"name":"西燕","line":"弥彦線","riders":11}},{"type":"Feature","geometry":{"type":"Point","coordinates":[138.95562,37.63277]},"properties":{"name":"北三条","line":"弥彦線","riders":864}},{"type":"Feature","geometry":{"type":"Point","coordinates":[138.93965,37.64887]},"properties":{"name":"燕三条","line":"弥彦線","riders":4932}},{"type":"Feature","geometry":{"type":"Point","coordinates":[138.36164,37.19814]},"properties":{"name":"くびき","line":"ほくほく線","riders":183}},{"type":"Feature","geometry":{"type":"Point","coordinates":[138.37344,37.18439]},"properties":{"name":"大池いこいの森","line":"ほくほく線","riders":21}},{"type":"Feature","geometry":{"type":"Point","coordinates":[138.7684,37.13968]},"properties":{"name":"しんざ","line":"ほくほく線","riders":170}},{"type":"Feature","geometry":{"type":"Point","coordinates":[138.50955,37.14701]},"properties":{"name":"ほくほく大島","line":"ほくほく線","riders":137}},{"type":"Feature","geometry":{"type":"Point","coordinates":[138.78992,37.13094]},"properties":{"name":"美佐島","line":"ほくほく線","riders":12}},{"type":"Feature","geometry":{"type":"Point","coordinates":[138.75598,37.13461]},"properties":{"name":"十日町","line":"ほくほく線","riders":1559}},{"type":"Feature","geometry":{"type":"Point","coordinates":[138.61397,37.1322]},"properties":{"name":"まつだい","line":"ほくほく線","riders":625}},{"type":"Feature","geometry":{"type":"Point","coordinates":[138.44145,37.1549]},"properties":{"name":"虫川大杉","line":"ほくほく線","riders":254}},{"type":"Feature","geometry":{"type":"Point","coordinates":[138.419,37.1593]},"properties":{"name":"うらがわら","line":"ほくほく線","riders":232}},{"type":"Feature","geometry":{"type":"Point","coordinates":[138.24847,37.08137]},"properties":{"name":"上越妙高","line":"北陸新幹線","riders":5858}},{"type":"Feature","geometry":{"type":"Point","coordinates":[137.86129,37.04311]},"properties":{"name":"糸魚川","line":"北陸新幹線","riders":1646}},{"type":"Feature","geometry":{"type":"Point","coordinates":[137.8784,37.04824]},"properties":{"name":"えちご押上ひすい海岸","line":"日本海ひすいライン","riders":128}}]}