{"type":"FeatureCollection","features":[{"type":"Feature","geometry":{"type":"Point","coordinates":[135.74916,34.72639]},"properties":{"name":"学研奈良登美ヶ丘","line":"けいはんな線","riders":14165}},{"type":"Feature","geometry":{"type":"Point","coordinates":[135.71683,34.72103]},"properties":{"name":"白庭台","line":"けいはんな線","riders":9339}},{"type":"Feature","geometry":{"type":"Point","coordinates":[135.72342,34.72485]},"properties":{"name":"学研北生駒","line":"けいはんな線","riders":6419}},{"type":"Feature","geometry":{"type":"Point","coordinates":[135.77281,35.11644]},"properties":{"name":"多宝塔","line":"鞍馬山鋼索鉄道","riders":820}},{"type":"Feature","geometry":{"type":"Point","coordinates":[135.77287,35.11455]},"properties":{"name":"山門","line":"鞍馬山鋼索鉄道","riders":820}},{"type":"Feature","geometry":{"type":"Point","coordinates":[135.77654,35.07109]},"properties":{"name":"木野","line":"鞍馬線","riders":516}},{"type":"Feature","geometry":{"type":"Point","coordinates":[135.76305,35.08816]},"properties":{"name":"市原","line":"鞍馬線","riders":1003}},{"type":"Feature","geometry":{"type":"Point","coordinates":[135.79244,35.06617]},"properties":{"name":"八幡前","line":"鞍馬線","riders":870}},{"type":"Feature","geometry":{"type":"Point","coordinates":[135.78637,35.07121]},"properties":{"name":"岩倉","line":"鞍馬線","riders":1667}},{"type":"Feature","geometry":{"type":"Point","coordinates":[135.76891,35.07305]},"properties":{"name":"京都精華大前","line":"鞍馬線","riders":1380}},{"type":"Feature","geometry":{"type":"Point","coordinates":[135.79232,35.0581]},"properties":{"name":"宝ヶ池","line":"鞍馬線","riders":12}},{"type":"Feature","geometry":{"type":"Point","coordinates":[135.77226,35.1129]},"properties":{"name":"鞍馬","line":"鞍馬線","riders":1944}},{"type":"Feature","geometry":{"type":"Point","coordinates":[135.76582,35.07803]},"properties":{"name":"二軒茶屋","line":"鞍馬線","riders":1699}},{"type":"Feature","geometry":{"type":"Point","coordinates":[135.76298,35.09763]},"properties":{"name":"二ノ瀬","line":"鞍馬線","riders":99}},{"type":"Feature","geometry":{"type":"Point","coordinates":[135.7636,35.10587]},"properties":{"name":"貴船口","line":"鞍馬線","riders":1746}},{"type":"Feature","geometry":{"type":"Point","coordinates":[135.7903,35.05]},"properties":{"name":"修学院","line":"叡山本線","riders":3750}},{"type":"Feature","geometry":{"type":"Point","coordinates":[135.78752,35.04438]},"properties":{"name":"一乗寺","line":"叡山本線","riders":3004}},{"type":"Feature","geometry":{"type":"Point","coordinates":[135.77355,35.03092]},"properties":{"name":"出町柳","line":"叡山本線","riders":16682}},{"type":"Feature","geometry":{"type":"Point","coordinates":[135.78465,35.03839]},"properties":{"name":"茶山","line":"叡山本線","riders":2904}},{"type":"Feature","geometry":{"type":"Point","coordinates":[135.79619,35.06238]},"properties":{"name":"三宅八幡","line":"叡山本線","riders":900}},{"type":"Feature","geometry":{"type":"Point","coordinates":[135.78163,35.03502]},"properties":{"name":"元田中","line":"叡山本線","riders":1122}},{"type":"Feature","geometry":{"type":"Point","coordinates":[135.79246,35.05809]},"properties":{"name":"宝ヶ池","line":"叡山本線","riders":1051}},{"type":"Feature","geometry":{"type":"Point","coordinates":[135.79609,34.92622]},"properties":{"name":"木幡","line":"宇治線","riders":5688}},{"type":"Feature","geometry":{"type":"Point","coordinates":[135.78351,34.93102]},"properties":{"name":"桃山南口","line":"宇治線","riders":5535}},{"type":"Feature","geometry":{"type":"Point","coordinates":[135.76005,34.92664]},"properties":{"name":"中書島","line":"宇治線","riders":12}},{"type":"Feature","geometry":{"type":"Point","coordinates":[135.79323,34.93199]},"properties":{"name":"六地蔵","line":"宇治線","riders":9334}},{"type":"Feature","geometry":{"type":"Point","coordinates":[135.76896,34.92815]},"properties":{"name":"観月橋","line":"宇治線","riders":5052}},{"type":"Feature","geometry":{"type":"Point","coordinates":[135.77224,35.0185]},"properties":{"name":"神宮丸太町","line":"鴨東線","riders":9949}},{"type":"Feature","geometry":{"type":"Point","coordinates":[135.77264,35.03004]},"properties":{"name":"出町柳","line":"鴨東線","riders":40874}},{"type":"Feature","geometry":{"type":"Point","coordinates":[135.77234,35.00887]},"properties":{"name":"三条","line":"鴨東線","riders":38490}},{"type":"Feature","geometry":{"type":"Point","coordinates":[135.7687,34.99657]},"properties":{"name":"清水五条","line":"京阪本線","riders":9445}},{"type":"Feature","geometry":{"type":"Point","coordinates":[135.77193,35.00332]},"properties":{"name":"祇園四条","line":"京阪本線","riders":56167}},{"type":"Feature","geometry":{"type":"Point","coordinates":[135.77001,34.98143]},"properties":{"name":"東福寺","line":"京阪本線","riders":17301}},{"type":"Feature","geometry":{"type":"Point","coordinates":[135.76763,34.9901]},"properties":{"name":"七条","line":"京阪本線","riders":14980}},{"type":"Feature","geometry":{"type":"Point","coordinates":[135.63094,34.78456]},"properties":{"name":"香里園","line":"京阪本線","riders":57453}},{"type":"Feature","geometry":{"type":"Point","coordinates":[135.60255,34.74293]},"properties":{"name":"大和田","line":"京阪本線","riders":22330}},{"type":"Feature","geometry":{"type":"Point","coordinates":[135.721,34.90652]},"properties":{"name":"淀","line":"京阪本線","riders":16120}},{"type":"Feature","geometry":{"type":"Point","coordinates":[135.56514,34.73524]},"properties":{"name":"守口市","line":"京阪本線","riders":35378}},{"type":"Feature","geometry":{"type":"Point","coordinates":[135.67534,34.86185]},"properties":{"name":"樟葉","line":"京阪本線","riders":59160}},{"type":"Feature","geometry":{"type":"Point","coordinates":[135.76436,34.9325]},"properties":{"name":"伏見桃山","line":"京阪本線","riders":11014}},{"type":"Feature","geometry":{"type":"Point","coordinates":[135.654,34.82917]},"properties":{"name":"御殿山","line":"京阪本線","riders":13817}},{"type":"Feature","geometry":{"type":"Point","coordinates":[135.6395,34.81162]},"properties":{"name":"枚方公園","line":"京阪本線","riders":18506}},{"type":"Feature","geometry":{"type":"Point","coordinates":[135.611,34.7474]},"properties":{"name":"萱島","line":"京阪本線","riders":25981}},{"type":"Feature","geometry":{"type":"Point","coordinates":[135.62079,34.764]},"properties":{"name":"寝屋川市","line":"京阪本線","riders":61717}},{"type":"Feature","geometry":{"type":"Point","coordinates":[135.76045,34.9269]},"properties":{"name":"中書島","line":"京阪本線","riders":12894}},{"type":"Feature","geometry":{"type":"Point","coordinates":[135.57589,34.73734]},"properties":{"name":"西三荘","line":"京阪本線","riders":22496}},{"type":"Feature","geometry":{"type":"Point","coordinates":[135.76931,34.96913]},"properties":{"name":"伏見稲荷","line":"京阪本線","riders":13700}},{"type":"Feature","geometry":{"type":"Point","coordinates":[135.76542,34.93892]},"properties":{"name":"丹波橋","line":"京阪本線","riders":49895}},{"type":"Feature","geometry":{"type":"Point","coordinates":[135.77022,34.95688]},"properties":{"name":"藤森","line":"京阪本線","riders":14225}},{"type":"Feature","geometry":{"type":"Point","coordinates":[135.583,34.7381]},"properties":{"name":"門真市","line":"京阪本線","riders":31601}},{"type":"Feature","geometry":{"type":"Point","coordinates":[135.68422,34.88199]},"properties":{"name":"橋本","line":"京阪本線","riders":5446}},{"type":"Feature","geometry":{"type":"Point","coordinates":[135.7691,34.94817]},"properties":{"name":"墨染","line":"京阪本線","riders":8160}},{"type":"Feature","geometry":{"type":"Point","coordinates":[135.63017,34.79776]},"properties":{"name":"光善寺","line":"京阪本線","riders":21213}},{"type":"Feature","geometry":{"type":"Point","coordinates":[135.69982,34.88472]},"properties":{"name":"石清水八幡宮","line":"京阪本線","riders":9150}},{"type":"Feature","geometry":{"type":"Point","coordinates":[135.77001,34.97371]},"properties":{"name":"鳥羽街道","line":"京阪本線","riders":3553}},{"type":"Feature","geometry":{"type":"Point","coordinates":[135.64872,34.81624]},"properties":{"name":"枚方市","line":"京阪本線","riders":91782}},{"type":"Feature","geometry":{"type":"Point","coordinates":[135.77014,34.96402]},"properties":{"name":"龍谷大前深草","line":"京阪本線","riders":12083}},{"type":"Feature","geometry":{"type":"Point","coordinates":[135.59129,34.73987]},"properties":{"name":"古川橋","line":"京阪本線","riders":22118}},{"type":"Feature","geometry":{"type":"Point","coordinates":[135.6655,34.84377]},"properties":{"name":"牧野","line":"京阪本線","riders":22535}},{"type":"Feature","geometry":{"type":"Point","coordinates":[135.55978,34.73063]},"properties":{"name":"土居","line":"京阪本線","riders":5920}},{"type":"Feature","geometry":{"type":"Point","coordinates":[135.55168,34.71946]},"properties":{"name":"森小路","line":"京阪本線","riders":10182}},{"type":"Feature","geometry":{"type":"Point","coordinates":[135.55482,34.72405]},"properties":{"name":"千林","line":"京阪本線","riders":8685}},{"type":"Feature","geometry":{"type":"Point","coordinates":[135.54699,34.71263]},"properties":{"name":"関目","line":"京阪本線","riders":14706}},{"type":"Feature","geometry":{"type":"Point","coordinates":[135.54334,34.7073]},"properties":{"name":"野江","line":"京阪本線","riders":12628}},{"type":"Feature","geometry":{"type":"Point","coordinates":[135.55745,34.7279]},"properties":{"name":"滝井","line":"京阪本線","riders":6954}},{"type":"Feature","geometry":{"type":"Point","coordinates":[135.68565,34.77383]},"properties":{"name":"河内森","line":"交野線","riders":10789}},{"type":"Feature","geometry":{"type":"Point","coordinates":[135.65669,34.81368]},"properties":{"name":"宮之阪","line":"交野線","riders":5800}},{"type":"Feature","geometry":{"type":"Point","coordinates":[135.65983,34.80759]},"properties":{"name":"星ヶ丘","line":"交野線","riders":5086}},{"type":"Feature","geometry":{"type":"Point","coordinates":[135.68656,34.76763]},"properties":{"name":"私市","line":"交野線","riders":2539}},{"type":"Feature","geometry":{"type":"Point","coordinates":[135.67564,34.78692]},"properties":{"name":"交野市","line":"交野線","riders":10323}},{"type":"Feature","geometry":{"type":"Point","coordinates":[135.6642,34.80186]},"properties":{"name":"村野","line":"交野線","riders":5994}},{"type":"Feature","geometry":{"type":"Point","coordinates":[135.66989,34.79445]},"properties":{"name":"郡津","line":"交野線","riders":6444}},{"type":"Feature","geometry":{"type":"Point","coordinates":[135.64887,34.81618]},"properties":{"name":"枚方市","line":"交野線","riders":12}},{"type":"Feature","geometry":{"type":"Point","coordinates":[135.69987,34.88093]},"properties":{"name":"ケーブル八幡宮山上","line":"鋼索線","riders":1132}},{"type":"Feature","geometry":{"type":"Point","coordinates":[135.69936,34.88425]},"properties":{"name":"ケーブル八幡宮口","line":"鋼索線","riders":0}},{"type":"Feature","geometry":{"type":"Point","coordinates":[135.75933,35.03006]},"properties":{"name":"今出川","line":"烏丸線","riders":27761}},{"type":"Feature","geometry":{"type":"Point","coordinates":[135.75963,35.01021]},"properties":{"name":"烏丸御池","line":"烏丸線","riders":0}},{"type":"Feature","geometry":{"type":"Point","coordinates":[135.75933,35.03735]},"properties":{"name":"鞍馬口","line":"烏丸線","riders":10197}},{"type":"Feature","geometry":{"type":"Point","coordinates":[135.75975,34.97912]},"properties":{"name":"九条","line":"烏丸線","riders":5445}},{"type":"Feature","geometry":{"type":"Point","coordinates":[135.7656,35.05126]},"properties":{"name":"北山","line":"烏丸線","riders":14544}},{"type":"Feature","geometry":{"type":"Point","coordinates":[135.78509,35.06289]},"properties":{"name":"国際会館","line":"烏丸線","riders":26019}},{"type":"Feature","geometry":{"type":"Point","coordinates":[135.75968,35.00281]},"properties":{"name":"四条","line":"烏丸線","riders":102351}},{"type":"Feature","geometry":{"type":"Point","coordinates":[135.75988,34.98656]},"properties":{"name":"京都","line":"烏丸線","riders":128783}},{"type":"Feature","geometry":{"type":"Point","coordinates":[135.77632,35.05159]},"properties":{"name":"松ヶ崎","line":"烏丸線","riders":11866}},{"type":"Feature","geometry":{"type":"Point","coordinates":[135.75973,34.99522]},"properties":{"name":"五条","line":"烏丸線","riders":14843}},{"type":"Feature","geometry":{"type":"Point","coordinates":[135.75949,35.01651]},"properties":{"name":"丸太町","line":"烏丸線","riders":23356}},{"type":"Feature","geometry":{"type":"Point","coordinates":[135.75838,35.04463]},"properties":{"name":"北大路","line":"烏丸線","riders":31340}},{"type":"Feature","geometry":{"type":"Point","coordinates":[135.75616,34.95599]},"properties":{"name":"竹田","line":"烏丸線","riders":30987}},{"type":"Feature","geometry":{"type":"Point","coordinates":[135.75971,34.97249]},"properties":{"name":"十条","line":"烏丸線","riders":7561}},{"type":"Feature","geometry":{"type":"Point","coordinates":[135.75742,34.96256]},"properties":{"name":"くいな橋","line":"烏丸線","riders":6035}},{"type":"Feature","geometry":{"type":"Point","coordinates":[135.7904,35.00801]},"properties":{"name":"蹴上","line":"東西線","riders":11839}},{"type":"Feature","geometry":{"type":"Point","coordinates":[135.75042,35.01191]},"properties":{"name":"二条城前","line":"東西線","riders":10348}},{"type":"Feature","geometry":{"type":"Point","coordinates":[135.76895,35.01091]},"properties":{"name":"京都市役所前","line":"東西線","riders":28747}},{"type":"Feature","geometry":{"type":"Point","coordinates":[135.74177,35.01202]},"properties":{"name":"二条","line":"東西線","riders":20792}},{"type":"Feature","geometry":{"type":"Point","coordinates":[135.77982,35.00944]},"properties":{"name":"東山","line":"東西線","riders":20061}},{"type":"Feature","geometry":{"type":"Point","coordinates":[135.75962,35.0108]},"properties":{"name":"烏丸御池","line":"東西線","riders":0}},{"type":"Feature","geometry":{"type":"Point","coordinates":[135.77369,35.00922]},"properties":{"name":"三条京阪","line":"東西線","riders":27025}},{"type":"Feature","geometry":{"type":"Point","coordinates":[135.79644,34.9337]},"properties":{"name":"六地蔵","line":"東西線","riders":13673}},{"type":"Feature","geometry":{"type":"Point","coordinates":[135.71785,35.02628]},"properties":{"name":"妙心寺","line":"北野線","riders":569}},{"type":"Feature","geometry":{"type":"Point","coordinates":[135.73081,35.02742]},"properties":{"name":"北野白梅町","line":"北野線","riders":3374}},{"type":"Feature","geometry":{"type":"Point","coordinates":[135.72143,35.02784]},"properties":{"name":"龍安寺","line":"北野線","riders":1170}},{"type":"Feature","geometry":{"type":"Point","coordinates":[135.7048,35.02037]},"properties":{"name":"常盤","line":"北野線","riders":1436}},{"type":"Feature","geometry":{"type":"Point","coordinates":[135.72368,35.02783]},"properties":{"name":"等持院・立命館大学衣笠キャンパス前","line":"北野線","riders":816}},{"type":"Feature","geometry":{"type":"Point","coordinates":[135.70988,35.02706]},"properties":{"name":"宇多野","line":"北野線","riders":530}},{"type":"Feature","geometry":{"type":"Point","coordinates":[135.7058,35.02353]},"properties":{"name":"鳴滝","line":"北野線","riders":950}},{"type":"Feature","geometry":{"type":"Point","coordinates":[135.71439,35.02635]},"properties":{"name":"御室仁和寺","line":"北野線","riders":818}},{"type":"Feature","geometry":{"type":"Point","coordinates":[135.70031,35.01515]},"properties":{"name":"帷子ノ辻","line":"北野線","riders":3476}},{"type":"Feature","geometry":{"type":"Point","coordinates":[135.68525,35.01705]},"properties":{"name":"鹿王院","line":"嵐山本線","riders":1199}},{"type":"Feature","geometry":{"type":"Point","coordinates":[135.73427,35.0032]},"properties":{"name":"西院","line":"嵐山本線","riders":5137}},{"type":"Feature","geometry":{"type":"Point","coordinates":[135.73253,35.0079]},"properties":{"name":"西大路三条","line":"嵐山本線","riders":1011}},{"type":"Feature","geometry":{"type":"Point","coordinates":[135.74824,35.00315]},"properties":{"name":"四条大宮","line":"嵐山本線","riders":6275}},{"type":"Feature","geometry":{"type":"Point","coordinates":[135.713,35.01171]},"properties":{"name":"蚕ノ社","line":"嵐山本線","riders":758}},{"type":"Feature","geometry":{"type":"Point","coordinates":[135.6818,35.0165]},"properties":{"name":"嵐電嵯峨","line":"嵐山本線","riders":1674}},{"type":"Feature","geometry":{"type":"Point","coordinates":[135.68904,35.01676]},"properties":{"name":"車折神社","line":"嵐山本線","riders":2534}},{"type":"Feature","geometry":{"type":"Point","coordinates":[135.67821,35.01537]},"properties":{"name":"嵐山","line":"嵐山本線","riders":4709}},{"type":"Feature","geometry":{"type":"Point","coordinates":[135.72321,35.00832]},"properties":{"name":"山ノ内","line":"嵐山本線","riders":1028}},{"type":"Feature","geometry":{"type":"Point","coordinates":[135.70835,35.01328]},"properties":{"name":"太秦広隆寺","line":"嵐山本線","riders":1584}},{"type":"Feature","geometry":{"type":"Point","coordinates":[135.69402,35.01519]},"properties":{"name":"有栖川","line":"嵐山本線","riders":2160}},{"type":"Feature","geometry":{"type":"Point","coordinates":[135.75834,34.98461]},"properties":{"name":"京都","line":"京都線","riders":87880}},{"type":"Feature","geometry":{"type":"Point","coordinates":[135.7526,34.97998]},"properties":{"name":"東寺","line":"京都線","riders":9285}},{"type":"Feature","geometry":{"type":"Point","coordinates":[135.779,34.88216]},"properties":{"name":"伊勢田","line":"京都線","riders":7392}},{"type":"Feature","geometry":{"type":"Point","coordinates":[135.79388,34.73779]},"properties":{"name":"山田川","line":"京都線","riders":4874}},{"type":"Feature","geometry":{"type":"Point","coordinates":[135.77706,34.87463]},"properties":{"name":"大久保","line":"京都線","riders":26217}},{"type":"Feature","geometry":{"type":"Point","coordinates":[135.77292,34.84016]},"properties":{"name":"富野荘","line":"京都線","riders":7324}},{"type":"Feature","geometry":{"type":"Point","coordinates":[135.78952,34.78044]},"properties":{"name":"狛田","line":"京都線","riders":3002}},{"type":"Feature","geometry":{"type":"Point","coordinates":[135.79605,34.7467]},"properties":{"name":"木津川台","line":"京都線","riders":2388}},{"type":"Feature","geometry":{"type":"Point","coordinates":[135.78609,34.79864]},"properties":{"name":"三山木","line":"京都線","riders":4746}},{"type":"Feature","geometry":{"type":"Point","coordinates":[135.76977,34.91473]},"properties":{"name":"向島","line":"京都線","riders":16616}},{"type":"Feature","geometry":{"type":"Point","coordinates":[135.76555,34.93333]},"properties":{"name":"桃山御陵前","line":"京都線","riders":15216}},{"type":"Feature","geometry":{"type":"Point","coordinates":[135.76643,34.93811]},"properties":{"name":"近鉄丹波橋","line":"京都線","riders":47904}},{"type":"Feature","geometry":{"type":"Point","coordinates":[135.77282,34.82072]},"properties":{"name":"新田辺","line":"京都線","riders":26485}},{"type":"Feature","geometry":{"type":"Point","coordinates":[135.75273,34.96502]},"properties":{"name":"上鳥羽口","line":"京都線","riders":8128}},{"type":"Feature","geometry":{"type":"Point","coordinates":[135.78188,34.89301]},"properties":{"name":"小倉","line":"京都線","riders":16674}},{"type":"Feature","geometry":{"type":"Point","coordinates":[135.76149,34.94602]},"properties":{"name":"伏見","line":"京都線","riders":7408}},{"type":"Feature","geometry":{"type":"Point","coordinates":[135.75246,34.974]},"properties":{"name":"十条","line":"京都線","riders":6085}},{"type":"Feature","geometry":{"type":"Point","coordinates":[135.77479,34.86495]},"properties":{"name":"久津川","line":"京都線","riders":7714}},{"type":"Feature","geometry":{"type":"Point","coordinates":[135.78751,34.79162]},"properties":{"name":"近鉄宮津","line":"京都線","riders":431}},{"type":"Feature","geometry":{"type":"Point","coordinates":[135.79186,34.72371]},"properties":{"name":"高の原","line":"京都線","riders":36489}},{"type":"Feature","geometry":{"type":"Point","coordinates":[135.79277,34.76033]},"properties":{"name":"新祝園","line":"京都線","riders":14984}},{"type":"Feature","geometry":{"type":"Point","coordinates":[135.78465,34.70146]},"properties":{"name":"平城","line":"京都線","riders":3323}},{"type":"Feature","geometry":{"type":"Point","coordinates":[135.77868,34.80832]},"properties":{"name":"興戸","line":"京都線","riders":14305}},{"type":"Feature","geometry":{"type":"Point","coordinates":[135.77209,34.85327]},"properties":{"name":"寺田","line":"京都線","riders":10787}},{"type":"Feature","geometry":{"type":"Point","coordinates":[135.68044,35.01861]},"properties":{"name":"トロッコ嵯峨","line":"嵯峨野観光線","riders":2700}},{"type":"Feature","geometry":{"type":"Point","coordinates":[135.64623,35.02607]},"properties":{"name":"トロッコ保津峡","line":"嵯峨野観光線","riders":30}},{"type":"Feature","geometry":{"type":"Point","coordinates":[135.67092,35.01702]},"properties":{"name":"トロッコ嵐山","line":"嵯峨野観光線","riders":2200}},{"type":"Feature","geometry":{"type":"Point","coordinates":[135.60664,35.01305]},"properties":{"name":"トロッコ亀岡","line":"嵯峨野観光線","riders":4500}},{"type":"Feature","geometry":{"type":"Point","coordinates":[135.41564,34.76506]},"properties":{"name":"稲野","line":"伊丹線","riders":8143}},{"type":"Feature","geometry":{"type":"Point","coordinates":[135.41559,34.77237]},"properties":{"name":"新伊丹","line":"伊丹線","riders":7214}},{"type":"Feature","geometry":{"type":"Point","coordinates":[135.41624,34.75314]},"properties":{"name":"塚口","line":"伊丹線","riders":12}},{"type":"Feature","geometry":{"type":"Point","coordinates":[135.41373,34.77992]},"properties":{"name":"伊丹","line":"伊丹線","riders":24880}},{"type":"Feature","geometry":{"type":"Point","coordinates":[135.76038,35.0037]},"properties":{"name":"烏丸","line":"京都線","riders":85039}},{"type":"Feature","geometry":{"type":"Point","coordinates":[135.76872,35.00378]},"properties":{"name":"京都河原町","line":"京都線","riders":78595}},{"type":"Feature","geometry":{"type":"Point","coordinates":[135.70324,34.9787]},"properties":{"name":"桂","line":"京都線","riders":51410}},{"type":"Feature","geometry":{"type":"Point","coordinates":[135.73197,35.00357]},"properties":{"name":"西院","line":"京都線","riders":41936}},{"type":"Feature","geometry":{"type":"Point","coordinates":[135.71852,34.99254]},"properties":{"name":"西京極","line":"京都線","riders":18233}},{"type":"Feature","geometry":{"type":"Point","coordinates":[135.74952,35.00365]},"properties":{"name":"大宮","line":"京都線","riders":28181}},{"type":"Feature","geometry":{"type":"Point","coordinates":[135.66777,34.87781]},"properties":{"name":"水無瀬","line":"京都線","riders":11247}},{"type":"Feature","geometry":{"type":"Point","coordinates":[135.57568,34.8165]},"properties":{"name":"茨木市","line":"京都線","riders":66557}},{"type":"Feature","geometry":{"type":"Point","coordinates":[135.6617,34.87203]},"properties":{"name":"上牧","line":"京都線","riders":10862}},{"type":"Feature","geometry":{"type":"Point","coordinates":[135.62314,34.84983]},"properties":{"name":"高槻市","line":"京都線","riders":64824}},{"type":"Feature","geometry":{"type":"Point","coordinates":[135.59271,34.83516]},"properties":{"name":"富田","line":"京都線","riders":20910}},{"type":"Feature","geometry":{"type":"Point","coordinates":[135.69246,34.92488]},"properties":{"name":"長岡天神","line":"京都線","riders":33440}},{"type":"Feature","geometry":{"type":"Point","coordinates":[135.58479,34.82717]},"properties":{"name":"総持寺","line":"京都線","riders":18767}},{"type":"Feature","geometry":{"type":"Point","coordinates":[135.70466,34.95391]},"properties":{"name":"東向日","line":"京都線","riders":15541}},{"type":"Feature","geometry":{"type":"Point","coordinates":[135.70272,34.93994]},"properties":{"name":"西向日","line":"京都線","riders":11324}},{"type":"Feature","geometry":{"type":"Point","coordinates":[135.70314,34.96362]},"properties":{"name":"洛西口","line":"京都線","riders":12766}},{"type":"Feature","geometry":{"type":"Point","coordinates":[135.56501,34.80219]},"properties":{"name":"南茨木","line":"京都線","riders":43887}},{"type":"Feature","geometry":{"type":"Point","coordinates":[135.68155,34.89145]},"properties":{"name":"大山崎","line":"京都線","riders":6551}},{"type":"Feature","geometry":{"type":"Point","coordinates":[135.51698,34.73938]},"properties":{"name":"淡路","line":"京都線","riders":37230}},{"type":"Feature","geometry":{"type":"Point","coordinates":[135.51017,34.73101]},"properties":{"name":"崇禅寺","line":"京都線","riders":5906}},{"type":"Feature","geometry":{"type":"Point","coordinates":[135.4993,34.72571]},"properties":{"name":"南方","line":"京都線","riders":42640}},{"type":"Feature","geometry":{"type":"Point","coordinates":[135.53367,34.7578]},"properties":{"name":"相川","line":"京都線","riders":18997}},{"type":"Feature","geometry":{"type":"Point","coordinates":[135.54566,34.7755]},"properties":{"name":"正雀","line":"京都線","riders":19116}},{"type":"Feature","geometry":{"type":"Point","coordinates":[135.53301,34.75007]},"properties":{"name":"上新庄","line":"京都線","riders":53182}},{"type":"Feature","geometry":{"type":"Point","coordinates":[135.48241,34.72091]},"properties":{"name":"十三","line":"京都線","riders":74611}},{"type":"Feature","geometry":{"type":"Point","coordinates":[135.32894,34.75006]},"properties":{"name":"苦楽園口","line":"甲陽線","riders":13743}},{"type":"Feature","geometry":{"type":"Point","coordinates":[135.33064,34.76056]},"properties":{"name":"甲陽園","line":"甲陽線","riders":11284}},{"type":"Feature","geometry":{"type":"Point","coordinates":[135.32806,34.74267]},"properties":{"name":"夙川","line":"甲陽線","riders":12}},{"type":"Feature","geometry":{"type":"Point","coordinates":[135.35824,34.75705]},"properties":{"name":"門戸厄神","line":"今津線","riders":23181}},{"type":"Feature","geometry":{"type":"Point","coordinates":[135.35687,34.77508]},"properties":{"name":"仁川","line":"今津線","riders":25202}},{"type":"Feature","geometry":{"type":"Point","coordinates":[135.35981,34.76677]},"properties":{"name":"甲東園","line":"今津線","riders":32240}},{"type":"Feature","geometry":{"type":"Point","coordinates":[135.35089,34.79702]},"properties":{"name":"逆瀬川","line":"今津線","riders":27714}},{"type":"Feature","geometry":{"type":"Point","coordinates":[135.35162,34.73195]},"properties":{"name":"今津","line":"今津線","riders":25598}},{"type":"Feature","geometry":{"type":"Point","coordinates":[135.35677,34.74647]},"properties":{"name":"西宮北口","line":"今津線","riders":12}},{"type":"Feature","geometry":{"type":"Point","coordinates":[135.34584,34.80382]},"properties":{"name":"宝塚南口","line":"今津線","riders":12297}},{"type":"Feature","geometry":{"type":"Point","coordinates":[135.35485,34.73739]},"properties":{"name":"阪神国道","line":"今津線","riders":4291}},{"type":"Feature","geometry":{"type":"Point","coordinates":[135.35233,34.78938]},"properties":{"name":"小林","line":"今津線","riders":17296}},{"type":"Feature","geometry":{"type":"Point","coordinates":[135.3572,34.7456]},"properties":{"name":"西宮北口","line":"今津線","riders":12}},{"type":"Feature","geometry":{"type":"Point","coordinates":[135.34089,34.81048]},"properties":{"name":"宝塚","line":"今津線","riders":50301}},{"type":"Feature","geometry":{"type":"Point","coordinates":[135.4821,34.72025]},"properties":{"name":"十三","line":"神戸線","riders":12}},{"type":"Feature","geometry":{"type":"Point","coordinates":[135.49807,34.70554]},"properties":{"name":"大阪梅田","line":"神戸線","riders":12}},{"type":"Feature","geometry":{"type":"Point","coordinates":[135.49834,34.70558]},"properties":{"name":"大阪梅田","line":"神戸線","riders":545067}},{"type":"Feature","geometry":{"type":"Point","coordinates":[135.49253,34.70987]},"properties":{"name":"中津","line":"神戸線","riders":11060}},{"type":"Feature","geometry":{"type":"Point","coordinates":[135.47314,34.73197]},"properties":{"name":"神崎川","line":"神戸線","riders":19440}},{"type":"Feature","geometry":{"type":"Point","coordinates":[135.3567,34.74595]},"properties":{"name":"西宮北口","line":"神戸線","riders":103925}},{"type":"Feature","geometry":{"type":"Point","coordinates":[135.30079,34.73639]},"properties":{"name":"芦屋川","line":"神戸線","riders":17734}},{"type":"Feature","geometry":{"type":"Point","coordinates":[135.32807,34.74226]},"properties":{"name":"夙川","line":"神戸線","riders":29891}},{"type":"Feature","geometry":{"type":"Point","coordinates":[135.4161,34.75286]},"properties":{"name":"塚口","line":"神戸線","riders":53206}},{"type":"Feature","geometry":{"type":"Point","coordinates":[135.44811,34.75185]},"properties":{"name":"園田","line":"神戸線","riders":34397}},{"type":"Feature","geometry":{"type":"Point","coordinates":[135.27594,34.72917]},"properties":{"name":"岡本","line":"神戸線","riders":32965}},{"type":"Feature","geometry":{"type":"Point","coordinates":[135.39386,34.75165]},"properties":{"name":"武庫之荘","line":"神戸線","riders":53805}},{"type":"Feature","geometry":{"type":"Point","coordinates":[135.20551,34.70307]},"properties":{"name":"春日野道","line":"神戸線","riders":11675}},{"type":"Feature","geometry":{"type":"Point","coordinates":[135.21864,34.71034]},"properties":{"name":"王子公園","line":"神戸線","riders":21666}},{"type":"Feature","geometry":{"type":"Point","coordinates":[135.25187,34.72457]},"properties":{"name":"御影","line":"神戸線","riders":18526}},{"type":"Feature","geometry":{"type":"Point","coordinates":[135.2337,34.71948]},"properties":{"name":"六甲","line":"神戸線","riders":34206}},{"type":"Feature","geometry":{"type":"Point","coordinates":[135.5199,34.74641]},"properties":{"name":"下新庄","line":"千里線","riders":10294}},{"type":"Feature","geometry":{"type":"Point","coordinates":[135.5089,34.76464]},"properties":{"name":"豊津","line":"千里線","riders":14717}},{"type":"Feature","geometry":{"type":"Point","coordinates":[135.51561,34.80386]},"properties":{"name":"山田","line":"千里線","riders":24435}},{"type":"Feature","geometry":{"type":"Point","coordinates":[135.51729,34.7596]},"properties":{"name":"吹田","line":"千里線","riders":18079}},{"type":"Feature","geometry":{"type":"Point","coordinates":[135.50606,34.77091]},"properties":{"name":"関大前","line":"千里線","riders":35272}},{"type":"Feature","geometry":{"type":"Point","coordinates":[135.50875,34.79241]},"properties":{"name":"南千里","line":"千里線","riders":23368}},{"type":"Feature","geometry":{"type":"Point","coordinates":[135.50551,34.77898]},"properties":{"name":"千里山","line":"千里線","riders":16912}},{"type":"Feature","geometry":{"type":"Point","coordinates":[135.51103,34.8199]},"properties":{"name":"北千里","line":"千里線","riders":30230}},{"type":"Feature","geometry":{"type":"Point","coordinates":[135.51167,34.72867]},"properties":{"name":"柴島","line":"千里線","riders":5339}},{"type":"Feature","geometry":{"type":"Point","coordinates":[135.51075,34.71019]},"properties":{"name":"天神橋筋六丁目","line":"千里線","riders":21}},{"type":"Feature","geometry":{"type":"Point","coordinates":[135.48295,34.73748]},"properties":{"name":"三国","line":"宝塚線","riders":27100}},{"type":"Feature","geometry":{"type":"Point","coordinates":[135.46773,34.77094]},"properties":{"name":"曽根","line":"宝塚線","riders":25586}},{"type":"Feature","geometry":{"type":"Point","coordinates":[135.47514,34.75035]},"properties":{"name":"庄内","line":"宝塚線","riders":32080}},{"type":"Feature","geometry":{"type":"Point","coordinates":[135.49257,34.71]},"properties":{"name":"中津","line":"宝塚線","riders":12}},{"type":"Feature","geometry":{"type":"Point","coordinates":[135.46193,34.78719]},"properties":{"name":"豊中","line":"宝塚線","riders":53350}},{"type":"Feature","geometry":{"type":"Point","coordinates":[135.49858,34.70562]},"properties":{"name":"大阪梅田","line":"宝塚線","riders":12}},{"type":"Feature","geometry":{"type":"Point","coordinates":[135.47518,34.76293]},"properties":{"name":"服部天神","line":"宝塚線","riders":26287}},{"type":"Feature","geometry":{"type":"Point","coordinates":[135.46507,34.77892]},"properties":{"name":"岡町","line":"宝塚線","riders":18451}},{"type":"Feature","geometry":{"type":"Point","coordinates":[135.35344,34.81119]},"properties":{"name":"清荒神","line":"宝塚線","riders":8402}},{"type":"Feature","geometry":{"type":"Point","coordinates":[135.44549,34.80819]},"properties":{"name":"石橋阪大前","line":"宝塚線","riders":49210}},{"type":"Feature","geometry":{"type":"Point","coordinates":[135.42563,34.8216]},"properties":{"name":"池田","line":"宝塚線","riders":52102}},{"type":"Feature","geometry":{"type":"Point","coordinates":[135.4133,34.82743]},"properties":{"name":"川西能勢口","line":"宝塚線","riders":63113}},{"type":"Feature","geometry":{"type":"Point","coordinates":[135.40283,34.82728]},"properties":{"name":"雲雀丘花屋敷","line":"宝塚線","riders":12256}},{"type":"Feature","geometry":{"type":"Point","coordinates":[135.36929,34.81954]},"properties":{"name":"中山観音","line":"宝塚線","riders":12942}},{"type":"Feature","geometry":{"type":"Point","coordinates":[135.38849,34.82195]},"properties":{"name":"山本","line":"宝塚線","riders":18818}},{"type":"Feature","geometry":{"type":"Point","coordinates":[135.44923,34.79465]},"properties":{"name":"蛍池","line":"宝塚線","riders":41690}},{"type":"Feature","geometry":{"type":"Point","coordinates":[135.36185,34.81631]},"properties":{"name":"売布神社","line":"宝塚線","riders":9234}},{"type":"Feature","geometry":{"type":"Point","coordinates":[135.46822,34.83428]},"properties":{"name":"箕面","line":"箕面線","riders":16518}},{"type":"Feature","geometry":{"type":"Point","coordinates":[135.4659,34.82347]},"properties":{"name":"牧落","line":"箕面線","riders":8565}},{"type":"Feature","geometry":{"type":"Point","coordinates":[135.46083,34.8167]},"properties":{"name":"桜井","line":"箕面線","riders":11187}},{"type":"Feature","geometry":{"type":"Point","coordinates":[135.44622,34.80814]},"properties":{"name":"石橋阪大前","line":"箕面線","riders":12}},{"type":"Feature","geometry":{"type":"Point","coordinates":[135.70313,34.97875]},"properties":{"name":"桂","line":"嵐山線","riders":12}},{"type":"Feature","geometry":{"type":"Point","coordinates":[135.69621,34.99003]},"properties":{"name":"上桂","line":"嵐山線","riders":8189}},{"type":"Feature","geometry":{"type":"Point","coordinates":[135.68829,35.00017]},"properties":{"name":"松尾大社","line":"嵐山線","riders":5174}},{"type":"Feature","geometry":{"type":"Point","coordinates":[135.68233,35.00987]},"properties":{"name":"嵐山","line":"嵐山線","riders":9553}},{"type":"Feature","geometry":{"type":"Point","coordinates":[135.41732,34.71851]},"properties":{"name":"尼崎","line":"阪神なんば線","riders":53030}},{"type":"Feature","geometry":{"type":"Point","coordinates":[135.42591,34.71644]},"properties":{"name":"大物","line":"阪神なんば線","riders":12}},{"type":"Feature","geometry":{"type":"Point","coordinates":[135.43685,34.70727]},"properties":{"name":"出来島","line":"阪神なんば線","riders":10612}},{"type":"Feature","geometry":{"type":"Point","coordinates":[135.38123,34.71835]},"properties":{"name":"武庫川","line":"武庫川線","riders":12}},{"type":"Feature","geometry":{"type":"Point","coordinates":[135.37796,34.709]},"properties":{"name":"洲先","line":"武庫川線","riders":1903}},{"type":"Feature","geometry":{"type":"Point","coordinates":[135.37915,34.71272]},"properties":{"name":"東鳴尾","line":"武庫川線","riders":2297}},{"type":"Feature","geometry":{"type":"Point","coordinates":[135.37485,34.70493]},"properties":{"name":"武庫川団地前","line":"武庫川線","riders":7834}},{"type":"Feature","geometry":{"type":"Point","coordinates":[135.49725,34.7015]},"properties":{"name":"大阪梅田","line":"本線","riders":169732}},{"type":"Feature","geometry":{"type":"Point","coordinates":[135.45819,34.70435]},"properties":{"name":"姫島","line":"本線","riders":14312}},{"type":"Feature","geometry":{"type":"Point","coordinates":[135.31556,34.73161]},"properties":{"name":"打出","line":"本線","riders":16068}},{"type":"Feature","geometry":{"type":"Point","coordinates":[135.36327,34.72396]},"properties":{"name":"甲子園","line":"本線","riders":55606}},{"type":"Feature","geometry":{"type":"Point","coordinates":[135.26968,34.71268]},"properties":{"name":"魚崎","line":"本線","riders":30120}},{"type":"Feature","geometry":{"type":"Point","coordinates":[135.3395,34.73668]},"properties":{"name":"西宮","line":"本線","riders":48577}},{"type":"Feature","geometry":{"type":"Point","coordinates":[135.26126,34.71305]},"properties":{"name":"住吉","line":"本線","riders":3078}},{"type":"Feature","geometry":{"type":"Point","coordinates":[135.30355,34.72777]},"properties":{"name":"芦屋","line":"本線","riders":29542}},{"type":"Feature","geometry":{"type":"Point","coordinates":[135.32889,34.73431]},"properties":{"name":"香櫨園","line":"本線","riders":11557}},{"type":"Feature","geometry":{"type":"Point","coordinates":[135.29145,34.72257]},"properties":{"name":"深江","line":"本線","riders":18277}},{"type":"Feature","geometry":{"type":"Point","coordinates":[135.28065,34.71698]},"properties":{"name":"青木","line":"本線","riders":15352}},{"type":"Feature","geometry":{"type":"Point","coordinates":[135.38287,34.71849]},"properties":{"name":"武庫川","line":"本線","riders":29372}},{"type":"Feature","geometry":{"type":"Point","coordinates":[135.40461,34.71826]},"properties":{"name":"出屋敷","line":"本線","riders":12792}},{"type":"Feature","geometry":{"type":"Point","coordinates":[135.42601,34.71665]},"properties":{"name":"大物","line":"本線","riders":9614}},{"type":"Feature","geometry":{"type":"Point","coordinates":[135.39525,34.71787]},"properties":{"name":"尼崎センタープール前","line":"本線","riders":10801}},{"type":"Feature","geometry":{"type":"Point","coordinates":[135.43868,34.71831]},"properties":{"name":"杭瀬","line":"本線","riders":9120}},{"type":"Feature","geometry":{"type":"Point","coordinates":[135.44535,34.71225]},"properties":{"name":"千船","line":"本線","riders":18848}},{"type":"Feature","geometry":{"type":"Point","coordinates":[135.35689,34.72702]},"properties":{"name":"久寿川","line":"本線","riders":4561}},{"type":"Feature","geometry":{"type":"Point","coordinates":[135.37039,34.71968]},"properties":{"name":"鳴尾・武庫川女子大前","line":"本線","riders":25164}},{"type":"Feature","geometry":{"type":"Point","coordinates":[135.35174,34.73089]},"properties":{"name":"今津","line":"本線","riders":33382}},{"type":"Feature","geometry":{"type":"Point","coordinates":[135.22433,34.70573]},"properties":{"name":"西灘","line":"本線","riders":6828}},{"type":"Feature","geometry":{"type":"Point","coordinates":[135.24941,34.71332]},"properties":{"name":"石屋川","line":"本線","riders":6838}},{"type":"Feature","geometry":{"type":"Point","coordinates":[135.21849,34.7042]},"properties":{"name":"岩屋","line":"本線","riders":11624}},{"type":"Feature","geometry":{"type":"Point","coordinates":[135.23107,34.70771]},"properties":{"name":"大石","line":"本線","riders":10366}},{"type":"Feature","geometry":{"type":"Point","coordinates":[135.25551,34.71491]},"properties":{"name":"御影","line":"本線","riders":27313}},{"type":"Feature","geometry":{"type":"Point","coordinates":[135.24057,34.71061]},"properties":{"name":"新在家","line":"本線","riders":11523}},{"type":"Feature","geometry":{"type":"Point","coordinates":[134.85069,34.73024]},"properties":{"name":"別府","line":"本線","riders":7369}},{"type":"Feature","geometry":{"type":"Point","coordinates":[134.82093,34.74859]},"properties":{"name":"尾上の松","line":"本線","riders":3229}},{"type":"Feature","geometry":{"type":"Point","coordinates":[134.80236,34.75198]},"properties":{"name":"高砂","line":"本線","riders":5926}},{"type":"Feature","geometry":{"type":"Point","coordinates":[134.86813,34.71667]},"properties":{"name":"播磨町","line":"本線","riders":3775}},{"type":"Feature","geometry":{"type":"Point","coordinates":[134.87707,34.70719]},"properties":{"name":"西二見","line":"本線","riders":4417}},{"type":"Feature","geometry":{"type":"Point","coordinates":[134.83398,34.74084]},"properties":{"name":"浜の宮","line":"本線","riders":3768}},{"type":"Feature","geometry":{"type":"Point","coordinates":[134.88802,34.70025]},"properties":{"name":"東二見","line":"本線","riders":7037}},{"type":"Feature","geometry":{"type":"Point","coordinates":[135.19566,34.70468]},"properties":{"name":"新神戸","line":"山手線","riders":48016}},{"type":"Feature","geometry":{"type":"Point","coordinates":[135.01716,34.71998]},"properties":{"name":"西神中央","line":"西神延伸線","riders":52718}},{"type":"Feature","geometry":{"type":"Point","coordinates":[135.21236,34.72701]},"properties":{"name":"虹","line":"摩耶ケーブル線","riders":665}},{"type":"Feature","geometry":{"type":"Point","coordinates":[135.216,34.72009]},"properties":{"name":"摩耶ケーブル","line":"摩耶ケーブル線","riders":665}},{"type":"Feature","geometry":{"type":"Point","coordinates":[135.26863,34.71365]},"properties":{"name":"魚崎","line":"六甲アイランド線","riders":11374}},{"type":"Feature","geometry":{"type":"Point","coordinates":[135.26762,34.70676]},"properties":{"name":"南魚崎","line":"六甲アイランド線","riders":1810}},{"type":"Feature","geometry":{"type":"Point","coordinates":[135.26227,34.71942]},"properties":{"name":"住吉","line":"六甲アイランド線","riders":27139}},{"type":"Feature","geometry":{"type":"Point","coordinates":[135.14588,34.72364]},"properties":{"name":"鈴蘭台","line":"粟生線","riders":21085}},{"type":"Feature","geometry":{"type":"Point","coordinates":[134.93422,34.84314]},"properties":{"name":"小野","line":"粟生線","riders":3522}},{"type":"Feature","geometry":{"type":"Point","coordinates":[135.0258,34.7652]},"properties":{"name":"緑が丘","line":"粟生線","riders":3543}},{"type":"Feature","geometry":{"type":"Point","coordinates":[135.05653,34.75525]},"properties":{"name":"栄","line":"粟生線","riders":1701}},{"type":"Feature","geometry":{"type":"Point","coordinates":[135.02323,34.77005]},"properties":{"name":"広野ゴルフ場前","line":"粟生線","riders":1131}},{"type":"Feature","geometry":{"type":"Point","coordinates":[135.11822,34.73238]},"properties":{"name":"藍那","line":"粟生線","riders":171}},{"type":"Feature","geometry":{"type":"Point","coordinates":[134.99858,34.79775]},"properties":{"name":"恵比須","line":"粟生線","riders":1591}},{"type":"Feature","geometry":{"type":"Point","coordinates":[134.98881,34.79997]},"properties":{"name":"三木上の丸","line":"粟生線","riders":427}},{"type":"Feature","geometry":{"type":"Point","coordinates":[135.07138,34.74831]},"properties":{"name":"木幡","line":"粟生線","riders":1065}},{"type":"Feature","geometry":{"type":"Point","coordinates":[135.08853,34.74406]},"properties":{"name":"木津","line":"粟生線","riders":1126}},{"type":"Feature","geometry":{"type":"Point","coordinates":[135.14076,34.72653]},"properties":{"name":"鈴蘭台西口","line":"粟生線","riders":2411}},{"type":"Feature","geometry":{"type":"Point","coordinates":[134.9498,34.82048]},"properties":{"name":"樫山","line":"粟生線","riders":598}},{"type":"Feature","geometry":{"type":"Point","coordinates":[134.94457,34.82431]},"properties":{"name":"市場","line":"粟生線","riders":230}},{"type":"Feature","geometry":{"type":"Point","coordinates":[134.97152,34.80864]},"properties":{"name":"大村","line":"粟生線","riders":1012}},{"type":"Feature","geometry":{"type":"Point","coordinates":[134.91993,34.85013]},"properties":{"name":"葉多","line":"粟生線","riders":279}},{"type":"Feature","geometry":{"type":"Point","coordinates":[135.00759,34.78249]},"properties":{"name":"志染","line":"粟生線","riders":3992}},{"type":"Feature","geometry":{"type":"Point","coordinates":[134.98188,34.79978]},"properties":{"name":"三木","line":"粟生線","riders":1867}},{"type":"Feature","geometry":{"type":"Point","coordinates":[135.13501,34.72583]},"properties":{"name":"西鈴蘭台","line":"粟生線","riders":10897}},{"type":"Feature","geometry":{"type":"Point","coordinates":[135.03939,34.75658]},"properties":{"name":"押部谷","line":"粟生線","riders":1984}},{"type":"Feature","geometry":{"type":"Point","coordinates":[135.22007,34.87702]},"properties":{"name":"横山","line":"公園都市線","riders":4814}},{"type":"Feature","geometry":{"type":"Point","coordinates":[135.20242,34.8855]},"properties":{"name":"フラワータウン","line":"公園都市線","riders":6101}},{"type":"Feature","geometry":{"type":"Point","coordinates":[135.1897,34.90174]},"properties":{"name":"南ウッディタウン","line":"公園都市線","riders":1869}},{"type":"Feature","geometry":{"type":"Point","coordinates":[135.18382,34.90967]},"properties":{"name":"ウッディタウン中央","line":"公園都市線","riders":3850}},{"type":"Feature","geometry":{"type":"Point","coordinates":[135.22248,34.82178]},"properties":{"name":"岡場","line":"三田線","riders":12324}},{"type":"Feature","geometry":{"type":"Point","coordinates":[135.22318,34.85614]},"properties":{"name":"道場南口","line":"三田線","riders":3314}},{"type":"Feature","geometry":{"type":"Point","coordinates":[135.22613,34.86676]},"properties":{"name":"神鉄道場","line":"三田線","riders":2795}},{"type":"Feature","geometry":{"type":"Point","coordinates":[135.23001,34.88836]},"properties":{"name":"三田","line":"三田線","riders":17052}},{"type":"Feature","geometry":{"type":"Point","coordinates":[135.22618,34.83559]},"properties":{"name":"田尾寺","line":"三田線","riders":6597}},{"type":"Feature","geometry":{"type":"Point","coordinates":[135.22965,34.88175]},"properties":{"name":"三田本町","line":"三田線","riders":773}},{"type":"Feature","geometry":{"type":"Point","coordinates":[135.22697,34.84884]},"properties":{"name":"二郎","line":"三田線","riders":209}},{"type":"Feature","geometry":{"type":"Point","coordinates":[135.22098,34.79648]},"properties":{"name":"有馬口","line":"三田線","riders":1117}},{"type":"Feature","geometry":{"type":"Point","coordinates":[135.21635,34.80613]},"properties":{"name":"五社","line":"三田線","riders":2126}},{"type":"Feature","geometry":{"type":"Point","coordinates":[135.19889,34.78101]},"properties":{"name":"大池","line":"有馬線","riders":3850}},{"type":"Feature","geometry":{"type":"Point","coordinates":[135.20616,34.78525]},"properties":{"name":"神鉄六甲","line":"有馬線","riders":1128}},{"type":"Feature","geometry":{"type":"Point","coordinates":[135.15575,34.75691]},"properties":{"name":"箕谷","line":"有馬線","riders":2807}},{"type":"Feature","geometry":{"type":"Point","coordinates":[135.24563,34.79946]},"properties":{"name":"有馬温泉","line":"有馬線","riders":3712}},{"type":"Feature","geometry":{"type":"Point","coordinates":[135.18723,34.76962]},"properties":{"name":"花山","line":"有馬線","riders":4046}},{"type":"Feature","geometry":{"type":"Point","coordinates":[135.17127,34.76166]},"properties":{"name":"谷上","line":"有馬線","riders":12}},{"type":"Feature","geometry":{"type":"Point","coordinates":[135.15321,34.74621]},"properties":{"name":"山の街","line":"有馬線","riders":5335}},{"type":"Feature","geometry":{"type":"Point","coordinates":[135.2116,34.79033]},"properties":{"name":"唐櫃台","line":"有馬線","riders":3497}},{"type":"Feature","geometry":{"type":"Point","coordinates":[135.15194,34.73946]},"properties":{"name":"北鈴蘭台","line":"有馬線","riders":13434}},{"type":"Feature","geometry":{"type":"Point","coordinates":[135.45561,34.71269]},"properties":{"name":"御幣島","line":"JR東西線","riders":27094}},{"type":"Feature","geometry":{"type":"Point","coordinates":[135.45359,34.72776]},"properties":{"name":"加島","line":"JR東西線","riders":18628}},{"type":"Feature","geometry":{"type":"Point","coordinates":[135.43178,34.73186]},"properties":{"name":"尼崎","line":"JR東西線","riders":91854}},{"type":"Feature","geometry":{"type":"Point","coordinates":[135.04989,35.08279]},"properties":{"name":"谷川","line":"加古川線","riders":1096}},{"type":"Feature","geometry":{"type":"Point","coordinates":[134.99574,34.98878]},"properties":{"name":"比延","line":"加古川線","riders":42}},{"type":"Feature","geometry":{"type":"Point","coordinates":[134.99255,35.02274]},"properties":{"name":"黒田庄","line":"加古川線","riders":70}},{"type":"Feature","geometry":{"type":"Point","coordinates":[135.03063,35.07587]},"properties":{"name":"久下村","line":"加古川線","riders":12}},{"type":"Feature","geometry":{"type":"Point","coordinates":[134.99595,35.05295]},"properties":{"name":"本黒田","line":"加古川線","riders":72}},{"type":"Feature","geometry":{"type":"Point","coordinates":[134.97758,34.97792]},"properties":{"name":"新西脇","line":"加古川線","riders":24}},{"type":"Feature","geometry":{"type":"Point","coordinates":[134.99766,35.00205]},"properties":{"name":"日本へそ公園","line":"加古川線","riders":30}},{"type":"Feature","geometry":{"type":"Point","coordinates":[135.00936,35.06289]},"properties":{"name":"船町口","line":"加古川線","riders":26}},{"type":"Feature","geometry":{"type":"Point","coordinates":[134.95492,34.94103]},"properties":{"name":"滝野","line":"加古川線","riders":567}},{"type":"Feature","geometry":{"type":"Point","coordinates":[134.92798,34.89731]},"properties":{"name":"青野ヶ原","line":"加古川線","riders":371}},{"type":"Feature","geometry":{"type":"Point","coordinates":[134.87903,34.79102]},"properties":{"name":"神野","line":"加古川線","riders":2293}},{"type":"Feature","geometry":{"type":"Point","coordinates":[134.90672,34.79454]},"properties":{"name":"厄神","line":"加古川線","riders":1914}},{"type":"Feature","geometry":{"type":"Point","coordinates":[134.93257,34.81924]},"properties":{"name":"市場","line":"加古川線","riders":428}},{"type":"Feature","geometry":{"type":"Point","coordinates":[134.96893,34.97167]},"properties":{"name":"西脇市","line":"加古川線","riders":1644}},{"type":"Feature","geometry":{"type":"Point","coordinates":[134.9346,34.92028]},"properties":{"name":"社町","line":"加古川線","riders":896}},{"type":"Feature","geometry":{"type":"Point","coordinates":[134.91937,34.879]},"properties":{"name":"河合西","line":"加古川線","riders":365}},{"type":"Feature","geometry":{"type":"Point","coordinates":[134.9624,34.94879]},"properties":{"name":"滝","line":"加古川線","riders":114}},{"type":"Feature","geometry":{"type":"Point","coordinates":[134.91847,34.83358]},"properties":{"name":"小野町","line":"加古川線","riders":842}},{"type":"Feature","geometry":{"type":"Point","coordinates":[134.8399,34.76761]},"properties":{"name":"加古川","line":"加古川線","riders":11}},{"type":"Feature","geometry":{"type":"Point","coordinates":[134.85718,34.77866]},"properties":{"name":"日岡","line":"加古川線","riders":1270}},{"type":"Feature","geometry":{"type":"Point","coordinates":[135.25194,35.30215]},"properties":{"name":"綾部","line":"山陰線","riders":3286}},{"type":"Feature","geometry":{"type":"Point","coordinates":[134.85136,35.3414]},"properties":{"name":"和田山","line":"山陰線","riders":1516}},{"type":"Feature","geometry":{"type":"Point","coordinates":[135.07318,35.32946]},"properties":{"name":"上川口","line":"山陰線","riders":140}},{"type":"Feature","geometry":{"type":"Point","coordinates":[134.80005,35.49638]},"properties":{"name":"国府","line":"山陰線","riders":190}},{"type":"Feature","geometry":{"type":"Point","coordinates":[134.81181,35.37081]},"properties":{"name":"養父","line":"山陰線","riders":198}},{"type":"Feature","geometry":{"type":"Point","coordinates":[135.33725,35.27428]},"properties":{"name":"立木","line":"山陰線","riders":32}},{"type":"Feature","geometry":{"type":"Point","coordinates":[135.71789,35.0186]},"properties":{"name":"花園","line":"山陰線","riders":8056}},{"type":"Feature","geometry":{"type":"Point","coordinates":[134.88125,35.32223]},"properties":{"name":"梁瀬","line":"山陰線","riders":332}},{"type":"Feature","geometry":{"type":"Point","coordinates":[135.48952,35.17953]},"properties":{"name":"鍼灸大学前","line":"山陰線","riders":784}},{"type":"Feature","geometry":{"type":"Point","coordinates":[135.68131,35.01878]},"properties":{"name":"嵯峨嵐山","line":"山陰線","riders":16850}},{"type":"Feature","geometry":{"type":"Point","coordinates":[134.81346,35.62368]},"properties":{"name":"城崎温泉","line":"山陰線","riders":2160}},{"type":"Feature","geometry":{"type":"Point","coordinates":[135.20705,35.30492]},"properties":{"name":"高津","line":"山陰線","riders":247}},{"type":"Feature","geometry":{"type":"Point","coordinates":[135.70063,35.01696]},"properties":{"name":"太秦","line":"山陰線","riders":9054}},{"type":"Feature","geometry":{"type":"Point","coordinates":[135.49855,35.09206]},"properties":{"name":"吉富","line":"山陰線","riders":1192}},{"type":"Feature","geometry":{"type":"Point","coordinates":[135.55505,35.0323]},"properties":{"name":"並河","line":"山陰線","riders":6586}},{"type":"Feature","geometry":{"type":"Point","coordinates":[134.93173,35.34184]},"properties":{"name":"上夜久野","line":"山陰線","riders":178}},{"type":"Feature","geometry":{"type":"Point","coordinates":[135.46861,35.1953]},"properties":{"name":"胡麻","line":"山陰線","riders":716}},{"type":"Feature","geometry":{"type":"Point","coordinates":[135.39918,35.26095]},"properties":{"name":"和知","line":"山陰線","riders":375}},{"type":"Feature","geometry":{"type":"Point","coordinates":[135.58232,35.0168]},"properties":{"name":"亀岡","line":"山陰線","riders":18936}},{"type":"Feature","geometry":{"type":"Point","coordinates":[135.53197,35.06899]},"properties":{"name":"八木","line":"山陰線","riders":3197}},{"type":"Feature","geometry":{"type":"Point","coordinates":[135.50348,35.16204]},"properties":{"name":"日吉","line":"山陰線","riders":662}},{"type":"Feature","geometry":{"type":"Point","coordinates":[135.75858,34.98566]},"properties":{"name":"京都","line":"山陰線","riders":406592}},{"type":"Feature","geometry":{"type":"Point","coordinates":[135.42274,35.2122]},"properties":{"name":"下山","line":"山陰線","riders":288}},{"type":"Feature","geometry":{"type":"Point","coordinates":[135.6403,35.02309]},"properties":{"name":"保津峡","line":"山陰線","riders":876}},{"type":"Feature","geometry":{"type":"Point","coordinates":[135.74176,35.01116]},"properties":{"name":"二条","line":"山陰線","riders":27499}},{"type":"Feature","geometry":{"type":"Point","coordinates":[135.18016,35.30089]},"properties":{"name":"石原","line":"山陰線","riders":1014}},{"type":"Feature","geometry":{"type":"Point","coordinates":[135.73069,35.01814]},"properties":{"name":"円町","line":"山陰線","riders":17374}},{"type":"Feature","geometry":{"type":"Point","coordinates":[134.81354,35.54407]},"properties":{"name":"豊岡","line":"山陰線","riders":4030}},{"type":"Feature","geometry":{"type":"Point","coordinates":[135.48345,35.10217]},"properties":{"name":"園部","line":"山陰線","riders":9566}},{"type":"Feature","geometry":{"type":"Point","coordinates":[135.11856,35.29657]},"properties":{"name":"福知山","line":"山陰線","riders":7569}},{"type":"Feature","geometry":{"type":"Point","coordinates":[135.38538,35.26623]},"properties":{"name":"安栖里","line":"山陰線","riders":54}},{"type":"Feature","geometry":{"type":"Point","coordinates":[135.54842,35.04844]},"properties":{"name":"千代川","line":"山陰線","riders":4447}},{"type":"Feature","geometry":{"type":"Point","coordinates":[135.31855,35.29375]},"properties":{"name":"山家","line":"山陰線","riders":79}},{"type":"Feature","geometry":{"type":"Point","coordinates":[134.99883,35.3199]},"properties":{"name":"下夜久野","line":"山陰線","riders":190}},{"type":"Feature","geometry":{"type":"Point","coordinates":[135.60259,35.0107]},"properties":{"name":"馬堀","line":"山陰線","riders":9511}},{"type":"Feature","geometry":{"type":"Point","coordinates":[135.4918,35.13349]},"properties":{"name":"船岡","line":"山陰線","riders":116}},{"type":"Feature","geometry":{"type":"Point","coordinates":[135.74227,34.99655]},"properties":{"name":"丹波口","line":"山陰線","riders":14338}},{"type":"Feature","geometry":{"type":"Point","coordinates":[135.50003,34.73368]},"properties":{"name":"新大阪","line":"山陽新幹線","riders":159028}},{"type":"Feature","geometry":{"type":"Point","coordinates":[135.50014,34.7334]},"properties":{"name":"新大阪","line":"山陽新幹線","riders":11}},{"type":"Feature","geometry":{"type":"Point","coordinates":[135.19703,34.70732]},"properties":{"name":"新神戸","line":"山陽新幹線","riders":19930}},{"type":"Feature","geometry":{"type":"Point","coordinates":[134.81253,34.78464]},"properties":{"name":"宝殿","line":"山陽線","riders":20748}},{"type":"Feature","geometry":{"type":"Point","coordinates":[134.88902,34.72032]},"properties":{"name":"土山","line":"山陽線","riders":28963}},{"type":"Feature","geometry":{"type":"Point","coordinates":[134.86927,34.74569]},"properties":{"name":"東加古川","line":"山陽線","riders":28678}},{"type":"Feature","geometry":{"type":"Point","coordinates":[134.83952,34.76756]},"properties":{"name":"加古川","line":"山陽線","riders":48129}},{"type":"Feature","geometry":{"type":"Point","coordinates":[135.45028,35.48597]},"properties":{"name":"松尾寺","line":"小浜線","riders":106}},{"type":"Feature","geometry":{"type":"Point","coordinates":[135.49989,35.48158]},"properties":{"name":"青郷","line":"小浜線","riders":284}},{"type":"Feature","geometry":{"type":"Point","coordinates":[135.39479,35.46858]},"properties":{"name":"東舞鶴","line":"小浜線","riders":3110}},{"type":"Feature","geometry":{"type":"Point","coordinates":[135.52103,34.70505]},"properties":{"name":"桜ノ宮","line":"大阪環状線","riders":35185}},{"type":"Feature","geometry":{"type":"Point","coordinates":[135.51237,34.70494]},"properties":{"name":"天満","line":"大阪環状線","riders":52866}},{"type":"Feature","geometry":{"type":"Point","coordinates":[135.49627,34.70238]},"properties":{"name":"大阪","line":"大阪環状線","riders":11}},{"type":"Feature","geometry":{"type":"Point","coordinates":[135.73149,34.98099]},"properties":{"name":"西大路","line":"東海道線","riders":33820}},{"type":"Feature","geometry":{"type":"Point","coordinates":[135.70978,34.95512]},"properties":{"name":"向日町","line":"東海道線","riders":15988}},{"type":"Feature","geometry":{"type":"Point","coordinates":[135.67904,34.8922]},"properties":{"name":"山崎","line":"東海道線","riders":11882}},{"type":"Feature","geometry":{"type":"Point","coordinates":[135.7009,34.9235]},"properties":{"name":"長岡京","line":"東海道線","riders":41610}},{"type":"Feature","geometry":{"type":"Point","coordinates":[135.61711,34.85124]},"properties":{"name":"高槻","line":"東海道線","riders":129888}},{"type":"Feature","geometry":{"type":"Point","coordinates":[135.59333,34.83768]},"properties":{"name":"摂津富田","line":"東海道線","riders":41643}},{"type":"Feature","geometry":{"type":"Point","coordinates":[135.55142,34.79144]},"properties":{"name":"千里丘","line":"東海道線","riders":40594}},{"type":"Feature","geometry":{"type":"Point","coordinates":[135.50198,34.73387]},"properties":{"name":"新大阪","line":"東海道線","riders":138178}},{"type":"Feature","geometry":{"type":"Point","coordinates":[135.49499,34.70249]},"properties":{"name":"大阪","line":"東海道線","riders":11}},{"type":"Feature","geometry":{"type":"Point","coordinates":[135.49493,34.70256]},"properties":{"name":"大阪","line":"東海道線","riders":11}},{"type":"Feature","geometry":{"type":"Point","coordinates":[135.52376,34.76322]},"properties":{"name":"吹田","line":"東海道線","riders":45944}},{"type":"Feature","geometry":{"type":"Point","coordinates":[135.49509,34.70233]},"properties":{"name":"大阪","line":"東海道線","riders":872374}},{"type":"Feature","geometry":{"type":"Point","coordinates":[135.49506,34.70239]},"properties":{"name":"大阪","line":"東海道線","riders":11}},{"type":"Feature","geometry":{"type":"Point","coordinates":[135.504,34.73921]},"properties":{"name":"東淀川","line":"東海道線","riders":16608}},{"type":"Feature","geometry":{"type":"Point","coordinates":[135.54133,34.77694]},"properties":{"name":"岸辺","line":"東海道線","riders":37852}},{"type":"Feature","geometry":{"type":"Point","coordinates":[135.46889,34.71273]},"properties":{"name":"塚本","line":"東海道線","riders":38054}},{"type":"Feature","geometry":{"type":"Point","coordinates":[135.56207,34.81508]},"properties":{"name":"茨木","line":"東海道線","riders":98021}},{"type":"Feature","geometry":{"type":"Point","coordinates":[135.27757,34.7268]},"properties":{"name":"摂津本山","line":"東海道線","riders":47066}},{"type":"Feature","geometry":{"type":"Point","coordinates":[135.34878,34.73901]},"properties":{"name":"西宮","line":"東海道線","riders":42005}},{"type":"Feature","geometry":{"type":"Point","coordinates":[135.26262,34.71974]},"properties":{"name":"住吉","line":"東海道線","riders":72150}},{"type":"Feature","geometry":{"type":"Point","coordinates":[135.2926,34.73063]},"properties":{"name":"甲南山手","line":"東海道線","riders":23298}},{"type":"Feature","geometry":{"type":"Point","coordinates":[135.3996,34.73789]},"properties":{"name":"立花","line":"東海道線","riders":51883}},{"type":"Feature","geometry":{"type":"Point","coordinates":[135.3074,34.73427]},"properties":{"name":"芦屋","line":"東海道線","riders":58084}},{"type":"Feature","geometry":{"type":"Point","coordinates":[135.37439,34.73906]},"properties":{"name":"甲子園口","line":"東海道線","riders":38607}},{"type":"Feature","geometry":{"type":"Point","coordinates":[135.23841,34.7148]},"properties":{"name":"六甲道","line":"東海道線","riders":53436}},{"type":"Feature","geometry":{"type":"Point","coordinates":[135.21654,34.70587]},"properties":{"name":"灘","line":"東海道線","riders":48434}},{"type":"Feature","geometry":{"type":"Point","coordinates":[135.75932,34.98517]},"properties":{"name":"京都","line":"奈良線","riders":11}},{"type":"Feature","geometry":{"type":"Point","coordinates":[135.76971,34.98141]},"properties":{"name":"東福寺","line":"奈良線","riders":19906}},{"type":"Feature","geometry":{"type":"Point","coordinates":[135.78073,34.87434]},"properties":{"name":"新田","line":"奈良線","riders":6356}},{"type":"Feature","geometry":{"type":"Point","coordinates":[135.79892,34.92481]},"properties":{"name":"木幡","line":"奈良線","riders":5526}},{"type":"Feature","geometry":{"type":"Point","coordinates":[135.79732,34.93288]},"properties":{"name":"六地蔵","line":"奈良線","riders":15504}},{"type":"Feature","geometry":{"type":"Point","coordinates":[135.78626,34.88908]},"properties":{"name":"JR小倉","line":"奈良線","riders":3871}},{"type":"Feature","geometry":{"type":"Point","coordinates":[135.77562,34.94799]},"properties":{"name":"JR藤森","line":"奈良線","riders":6332}},{"type":"Feature","geometry":{"type":"Point","coordinates":[135.78106,34.85558]},"properties":{"name":"城陽","line":"奈良線","riders":7084}},{"type":"Feature","geometry":{"type":"Point","coordinates":[135.77193,34.93256]},"properties":{"name":"桃山","line":"奈良線","riders":4246}},{"type":"Feature","geometry":{"type":"Point","coordinates":[135.77074,34.96675]},"properties":{"name":"稲荷","line":"奈良線","riders":19047}},{"type":"Feature","geometry":{"type":"Point","coordinates":[135.78977,34.84239]},"properties":{"name":"長池","line":"奈良線","riders":2531}},{"type":"Feature","geometry":{"type":"Point","coordinates":[134.81169,35.26711]},"properties":{"name":"青倉","line":"播但線","riders":134}},{"type":"Feature","geometry":{"type":"Point","coordinates":[134.8358,35.29924]},"properties":{"name":"竹田","line":"播但線","riders":374}},{"type":"Feature","geometry":{"type":"Point","coordinates":[135.33056,35.44186]},"properties":{"name":"西舞鶴","line":"舞鶴線","riders":2974}},{"type":"Feature","geometry":{"type":"Point","coordinates":[135.29456,35.32827]},"properties":{"name":"淵垣","line":"舞鶴線","riders":379}},{"type":"Feature","geometry":{"type":"Point","coordinates":[135.31112,35.34878]},"properties":{"name":"梅迫","line":"舞鶴線","riders":182}},{"type":"Feature","geometry":{"type":"Point","coordinates":[135.32625,35.40723]},"properties":{"name":"真倉","line":"舞鶴線","riders":54}},{"type":"Feature","geometry":{"type":"Point","coordinates":[135.09417,35.08787]},"properties":{"name":"下滝","line":"福知山線","riders":158}},{"type":"Feature","geometry":{"type":"Point","coordinates":[135.1341,35.24374]},"properties":{"name":"丹波竹田","line":"福知山線","riders":338}},{"type":"Feature","geometry":{"type":"Point","coordinates":[135.15553,34.97696]},"properties":{"name":"藍本","line":"福知山線","riders":446}},{"type":"Feature","geometry":{"type":"Point","coordinates":[135.1748,35.03764]},"properties":{"name":"南矢代","line":"福知山線","riders":386}},{"type":"Feature","geometry":{"type":"Point","coordinates":[135.07713,35.1272]},"properties":{"name":"柏原","line":"福知山線","riders":1857}},{"type":"Feature","geometry":{"type":"Point","coordinates":[135.15237,34.99693]},"properties":{"name":"草野","line":"福知山線","riders":525}},{"type":"Feature","geometry":{"type":"Point","coordinates":[135.06375,35.15275]},"properties":{"name":"石生","line":"福知山線","riders":812}},{"type":"Feature","geometry":{"type":"Point","coordinates":[135.13006,35.20799]},"properties":{"name":"市島","line":"福知山線","riders":549}},{"type":"Feature","geometry":{"type":"Point","coordinates":[135.09733,35.16852]},"properties":{"name":"黒井","line":"福知山線","riders":1112}},{"type":"Feature","geometry":{"type":"Point","coordinates":[135.15495,35.02196]},"properties":{"name":"古市","line":"福知山線","riders":452}},{"type":"Feature","geometry":{"type":"Point","coordinates":[135.17749,35.0562]},"properties":{"name":"篠山口","line":"福知山線","riders":7726}},{"type":"Feature","geometry":{"type":"Point","coordinates":[135.16857,35.0724]},"properties":{"name":"丹波大山","line":"福知山線","riders":256}},{"type":"Feature","geometry":{"type":"Point","coordinates":[135.41949,34.80115]},"properties":{"name":"北伊丹","line":"福知山線","riders":11266}},{"type":"Feature","geometry":{"type":"Point","coordinates":[135.42262,34.764]},"properties":{"name":"猪名寺","line":"福知山線","riders":19464}},{"type":"Feature","geometry":{"type":"Point","coordinates":[135.30888,34.82723]},"properties":{"name":"西宮名塩","line":"福知山線","riders":19147}},{"type":"Feature","geometry":{"type":"Point","coordinates":[135.37401,34.8166]},"properties":{"name":"中山寺","line":"福知山線","riders":19086}},{"type":"Feature","geometry":{"type":"Point","coordinates":[135.32533,34.81934]},"properties":{"name":"生瀬","line":"福知山線","riders":3908}},{"type":"Feature","geometry":{"type":"Point","coordinates":[135.42177,34.78061]},"properties":{"name":"伊丹","line":"福知山線","riders":50094}},{"type":"Feature","geometry":{"type":"Point","coordinates":[135.34085,34.81136]},"properties":{"name":"宝塚","line":"福知山線","riders":67219}},{"type":"Feature","geometry":{"type":"Point","coordinates":[135.30571,34.85551]},"properties":{"name":"武田尾","line":"福知山線","riders":1390}},{"type":"Feature","geometry":{"type":"Point","coordinates":[135.40981,34.82489]},"properties":{"name":"川西池田","line":"福知山線","riders":39657}},{"type":"Feature","geometry":{"type":"Point","coordinates":[135.42512,34.75083]},"properties":{"name":"塚口","line":"福知山線","riders":24084}},{"type":"Feature","geometry":{"type":"Point","coordinates":[135.19143,34.92855]},"properties":{"name":"広野","line":"福知山線","riders":2384}},{"type":"Feature","geometry":{"type":"Point","coordinates":[135.20862,34.91014]},"properties":{"name":"新三田","line":"福知山線","riders":30040}},{"type":"Feature","geometry":{"type":"Point","coordinates":[135.25581,34.86727]},"properties":{"name":"道場","line":"福知山線","riders":2286}},{"type":"Feature","geometry":{"type":"Point","coordinates":[135.22992,34.88869]},"properties":{"name":"三田","line":"福知山線","riders":37249}},{"type":"Feature","geometry":{"type":"Point","coordinates":[135.15595,34.94763]},"properties":{"name":"相野","line":"福知山線","riders":7721}},{"type":"Feature","geometry":{"type":"Point","coordinates":[135.65335,34.7555]},"properties":{"name":"寝屋川公園","line":"片町線","riders":9616}},{"type":"Feature","geometry":{"type":"Point","coordinates":[135.77841,34.80559]},"properties":{"name":"同志社前","line":"片町線","riders":11285}},{"type":"Feature","geometry":{"type":"Point","coordinates":[135.62168,34.70629]},"properties":{"name":"住道","line":"片町線","riders":65300}},{"type":"Feature","geometry":{"type":"Point","coordinates":[135.63702,34.71846]},"properties":{"name":"野崎","line":"片町線","riders":24389}},{"type":"Feature","geometry":{"type":"Point","coordinates":[135.66345,34.76735]},"properties":{"name":"星田","line":"片町線","riders":16912}},{"type":"Feature","geometry":{"type":"Point","coordinates":[135.70275,34.81444]},"properties":{"name":"藤阪","line":"片町線","riders":6644}},{"type":"Feature","geometry":{"type":"Point","coordinates":[135.69798,34.80141]},"properties":{"name":"津田","line":"片町線","riders":12027}},{"type":"Feature","geometry":{"type":"Point","coordinates":[135.71303,34.82595]},"properties":{"name":"長尾","line":"片町線","riders":25365}},{"type":"Feature","geometry":{"type":"Point","coordinates":[135.72757,34.83319]},"properties":{"name":"松井山手","line":"片町線","riders":14333}},{"type":"Feature","geometry":{"type":"Point","coordinates":[135.63925,34.7304]},"properties":{"name":"四条畷","line":"片町線","riders":38290}},{"type":"Feature","geometry":{"type":"Point","coordinates":[135.79202,34.76019]},"properties":{"name":"祝園","line":"片町線","riders":4656}},{"type":"Feature","geometry":{"type":"Point","coordinates":[135.7683,34.8218]},"properties":{"name":"京田辺","line":"片町線","riders":12796}},{"type":"Feature","geometry":{"type":"Point","coordinates":[135.68465,34.77652]},"properties":{"name":"河内磐船","line":"片町線","riders":22360}},{"type":"Feature","geometry":{"type":"Point","coordinates":[135.7845,34.79847]},"properties":{"name":"JR三山木","line":"片町線","riders":2138}},{"type":"Feature","geometry":{"type":"Point","coordinates":[135.78856,34.78057]},"properties":{"name":"下狛","line":"片町線","riders":912}},{"type":"Feature","geometry":{"type":"Point","coordinates":[135.64515,34.74565]},"properties":{"name":"忍ヶ丘","line":"片町線","riders":17566}},{"type":"Feature","geometry":{"type":"Point","coordinates":[135.7499,34.8308]},"properties":{"name":"大住","line":"片町線","riders":3978}},{"type":"Feature","geometry":{"type":"Point","coordinates":[135.5396,34.81059]},"properties":{"name":"公園東口","line":"国際文化公園都市モノレール線（彩都線）","riders":1940}},{"type":"Feature","geometry":{"type":"Point","coordinates":[135.52974,34.81845]},"properties":{"name":"阪大病院前","line":"国際文化公園都市モノレール線（彩都線）","riders":8226}},{"type":"Feature","geometry":{"type":"Point","coordinates":[135.53016,34.80678]},"properties":{"name":"万博記念公園","line":"国際文化公園都市モノレール線（彩都線）","riders":24415}},{"type":"Feature","geometry":{"type":"Point","coordinates":[135.56476,34.8032]},"properties":{"name":"南茨木","line":"大阪モノレール線","riders":30713}},{"type":"Feature","geometry":{"type":"Point","coordinates":[135.58261,34.73731]},"properties":{"name":"門真市","line":"大阪モノレール線","riders":22669}},{"type":"Feature","geometry":{"type":"Point","coordinates":[135.56596,34.79402]},"properties":{"name":"沢良宜","line":"大阪モノレール線","riders":3679}},{"type":"Feature","geometry":{"type":"Point","coordinates":[135.57894,34.74894]},"properties":{"name":"大日","line":"大阪モノレール線","riders":14946}},{"type":"Feature","geometry":{"type":"Point","coordinates":[135.56876,34.76509]},"properties":{"name":"南摂津","line":"大阪モノレール線","riders":9921}},{"type":"Feature","geometry":{"type":"Point","coordinates":[135.47534,34.80427]},"properties":{"name":"少路","line":"大阪モノレール線","riders":13106}},{"type":"Feature","geometry":{"type":"Point","coordinates":[135.51555,34.80564]},"properties":{"name":"山田","line":"大阪モノレール線","riders":18985}},{"type":"Feature","geometry":{"type":"Point","coordinates":[135.56143,34.78003]},"properties":{"name":"摂津","line":"大阪モノレール線","riders":5374}},{"type":"Feature","geometry":{"type":"Point","coordinates":[135.45869,34.80033]},"properties":{"name":"柴原阪大前","line":"大阪モノレール線","riders":0}},{"type":"Feature","geometry":{"type":"Point","coordinates":[135.55448,34.80804]},"properties":{"name":"宇野辺","line":"大阪モノレール線","riders":7641}},{"type":"Feature","geometry":{"type":"Point","coordinates":[135.49518,34.80746]},"properties":{"name":"千里中央","line":"大阪モノレール線","riders":42053}},{"type":"Feature","geometry":{"type":"Point","coordinates":[135.44941,34.79402]},"properties":{"name":"蛍池","line":"大阪モノレール線","riders":0}},{"type":"Feature","geometry":{"type":"Point","coordinates":[135.44212,34.79121]},"properties":{"name":"大阪空港","line":"大阪モノレール線","riders":17133}},{"type":"Feature","geometry":{"type":"Point","coordinates":[135.4971,34.75875]},"properties":{"name":"江坂","line":"1号線(御堂筋線)","riders":106876}},{"type":"Feature","geometry":{"type":"Point","coordinates":[135.49707,34.71129]},"properties":{"name":"中津","line":"1号線(御堂筋線)","riders":41688}},{"type":"Feature","geometry":{"type":"Point","coordinates":[135.4986,34.72655]},"properties":{"name":"西中島南方","line":"1号線(御堂筋線)","riders":66694}},{"type":"Feature","geometry":{"type":"Point","coordinates":[135.49854,34.73279]},"properties":{"name":"新大阪","line":"1号線(御堂筋線)","riders":152249}},{"type":"Feature","geometry":{"type":"Point","coordinates":[135.49768,34.70313]},"properties":{"name":"梅田","line":"1号線(御堂筋線)","riders":442507}},{"type":"Feature","geometry":{"type":"Point","coordinates":[135.49849,34.7411]},"properties":{"name":"東三国","line":"1号線(御堂筋線)","riders":36744}},{"type":"Feature","geometry":{"type":"Point","coordinates":[135.56435,34.73844]},"properties":{"name":"守口","line":"2号線(谷町線)","riders":17308}},{"type":"Feature","geometry":{"type":"Point","coordinates":[135.57832,34.7495]},"properties":{"name":"大日","line":"2号線(谷町線)","riders":33831}},{"type":"Feature","geometry":{"type":"Point","coordinates":[135.54565,34.71527]},"properties":{"name":"関目高殿","line":"2号線(谷町線)","riders":15385}},{"type":"Feature","geometry":{"type":"Point","coordinates":[135.50556,34.70718]},"properties":{"name":"中崎町","line":"2号線(谷町線)","riders":15170}},{"type":"Feature","geometry":{"type":"Point","coordinates":[135.53792,34.70889]},"properties":{"name":"野江内代","line":"2号線(谷町線)","riders":11508}},{"type":"Feature","geometry":{"type":"Point","coordinates":[135.52593,34.70894]},"properties":{"name":"都島","line":"2号線(谷町線)","riders":36064}},{"type":"Feature","geometry":{"type":"Point","coordinates":[135.51141,34.71072]},"properties":{"name":"天神橋筋六丁目","line":"2号線(谷町線)","riders":55636}},{"type":"Feature","geometry":{"type":"Point","coordinates":[135.54926,34.72423]},"properties":{"name":"千林大宮","line":"2号線(谷町線)","riders":16453}},{"type":"Feature","geometry":{"type":"Point","coordinates":[135.55458,34.73114]},"properties":{"name":"太子橋今市","line":"2号線(谷町線)","riders":13497}},{"type":"Feature","geometry":{"type":"Point","coordinates":[135.49982,34.70056]},"properties":{"name":"東梅田","line":"2号線(谷町線)","riders":169921}},{"type":"Feature","geometry":{"type":"Point","coordinates":[135.51085,34.70383]},"properties":{"name":"扇町","line":"6号線(堺筋線)","riders":16728}},{"type":"Feature","geometry":{"type":"Point","coordinates":[135.57268,34.70354]},"properties":{"name":"横堤","line":"7号線(長堀鶴見緑地線)","riders":18092}},{"type":"Feature","geometry":{"type":"Point","coordinates":[135.59247,34.71675]},"properties":{"name":"門真南","line":"7号線(長堀鶴見緑地線)","riders":11360}},{"type":"Feature","geometry":{"type":"Point","coordinates":[135.58071,34.71097]},"properties":{"name":"鶴見緑地","line":"7号線(長堀鶴見緑地線)","riders":10635}},{"type":"Feature","geometry":{"type":"Point","coordinates":[135.56007,34.70202]},"properties":{"name":"今福鶴見","line":"7号線(長堀鶴見緑地線)","riders":23168}},{"type":"Feature","geometry":{"type":"Point","coordinates":[135.54775,34.70049]},"properties":{"name":"蒲生四丁目","line":"7号線(長堀鶴見緑地線)","riders":18261}},{"type":"Feature","geometry":{"type":"Point","coordinates":[135.19528,35.58337]},"properties":{"name":"府中","line":"天橋立鋼索鉄道","riders":2632}},{"type":"Feature","geometry":{"type":"Point","coordinates":[135.19583,35.5862]},"properties":{"name":"傘松","line":"天橋立鋼索鉄道","riders":2632}},{"type":"Feature","geometry":{"type":"Point","coordinates":[135.41224,34.89301]},"properties":{"name":"山下","line":"日生線","riders":12}},{"type":"Feature","geometry":{"type":"Point","coordinates":[135.39308,34.90639]},"properties":{"name":"日生中央","line":"日生線","riders":12257}},{"type":"Feature","geometry":{"type":"Point","coordinates":[135.45691,34.92376]},"properties":{"name":"ケーブル山上","line":"鋼索線","riders":427}},{"type":"Feature","geometry":{"type":"Point","coordinates":[135.45117,34.9218]},"properties":{"name":"黒川","line":"鋼索線","riders":427}},{"type":"Feature","geometry":{"type":"Point","coordinates":[135.41733,34.86876]},"properties":{"name":"平野","line":"妙見線","riders":7848}},{"type":"Feature","geometry":{"type":"Point","coordinates":[135.41235,34.89293]},"properties":{"name":"山下","line":"妙見線","riders":7346}},{"type":"Feature","geometry":{"type":"Point","coordinates":[135.43141,34.89991]},"properties":{"name":"光風台","line":"妙見線","riders":4416}},{"type":"Feature","geometry":{"type":"Point","coordinates":[135.42114,34.84309]},"properties":{"name":"滝山","line":"妙見線","riders":2221}},{"type":"Feature","geometry":{"type":"Point","coordinates":[135.41834,34.85471]},"properties":{"name":"鼓滝","line":"妙見線","riders":5575}},{"type":"Feature","geometry":{"type":"Point","coordinates":[135.42307,34.83482]},"properties":{"name":"絹延橋","line":"妙見線","riders":2161}},{"type":"Feature","geometry":{"type":"Point","coordinates":[135.4167,34.86057]},"properties":{"name":"多田","line":"妙見線","riders":7529}},{"type":"Feature","geometry":{"type":"Point","coordinates":[135.42,34.87947]},"properties":{"name":"一の鳥居","line":"妙見線","riders":1129}},{"type":"Feature","geometry":{"type":"Point","coordinates":[135.41885,34.84775]},"properties":{"name":"鴬の森","line":"妙見線","riders":1241}},{"type":"Feature","geometry":{"type":"Point","coordinates":[135.44458,34.91152]},"properties":{"name":"妙見口","line":"妙見線","riders":1513}},{"type":"Feature","geometry":{"type":"Point","coordinates":[135.41298,34.82759]},"properties":{"name":"川西能勢口","line":"妙見線","riders":12}},{"type":"Feature","geometry":{"type":"Point","coordinates":[135.4156,34.88502]},"properties":{"name":"畦野","line":"妙見線","riders":8540}},{"type":"Feature","geometry":{"type":"Point","coordinates":[135.43809,34.90617]},"properties":{"name":"ときわ台","line":"妙見線","riders":2906}},{"type":"Feature","geometry":{"type":"Point","coordinates":[135.41645,34.89368]},"properties":{"name":"笹部","line":"妙見線","riders":174}},{"type":"Feature","geometry":{"type":"Point","coordinates":[135.19997,35.53444]},"properties":{"name":"宮津","line":"宮津線","riders":1626}},{"type":"Feature","geometry":{"type":"Point","coordinates":[135.09396,35.57966]},"properties":{"name":"京丹後大宮","line":"宮津線","riders":304}},{"type":"Feature","geometry":{"type":"Point","coordinates":[134.83551,35.55284]},"properties":{"name":"コウノトリの郷","line":"宮津線","riders":12}},{"type":"Feature","geometry":{"type":"Point","coordinates":[135.18287,35.55738]},"properties":{"name":"天橋立","line":"宮津線","riders":862}},{"type":"Feature","geometry":{"type":"Point","coordinates":[135.28494,35.47501]},"properties":{"name":"東雲","line":"宮津線","riders":48}},{"type":"Feature","geometry":{"type":"Point","coordinates":[134.89499,35.60227]},"properties":{"name":"久美浜","line":"宮津線","riders":238}},{"type":"Feature","geometry":{"type":"Point","coordinates":[135.2904,35.44619]},"properties":{"name":"四所","line":"宮津線","riders":54}},{"type":"Feature","geometry":{"type":"Point","coordinates":[135.1265,35.54346]},"properties":{"name":"与謝野","line":"宮津線","riders":826}},{"type":"Feature","geometry":{"type":"Point","coordinates":[135.2353,35.54368]},"properties":{"name":"栗田","line":"宮津線","riders":482}},{"type":"Feature","geometry":{"type":"Point","coordinates":[135.29368,35.50653]},"properties":{"name":"丹後神崎","line":"宮津線","riders":58}},{"type":"Feature","geometry":{"type":"Point","coordinates":[135.07213,35.62597]},"properties":{"name":"峰山","line":"宮津線","riders":634}},{"type":"Feature","geometry":{"type":"Point","coordinates":[134.97248,35.65002]},"properties":{"name":"夕日ヶ浦木津温泉","line":"宮津線","riders":300}},{"type":"Feature","geometry":{"type":"Point","coordinates":[134.92848,35.63012]},"properties":{"name":"小天橋","line":"宮津線","riders":148}},{"type":"Feature","geometry":{"type":"Point","coordinates":[134.81333,35.54493]},"properties":{"name":"豊岡","line":"宮津線","riders":440}},{"type":"Feature","geometry":{"type":"Point","coordinates":[134.91992,35.60679]},"properties":{"name":"かぶと山","line":"宮津線","riders":214}},{"type":"Feature","geometry":{"type":"Point","coordinates":[135.02559,35.66732]},"properties":{"name":"網野","line":"宮津線","riders":542}},{"type":"Feature","geometry":{"type":"Point","coordinates":[135.27948,35.5158]},"properties":{"name":"丹後由良","line":"宮津線","riders":164}},{"type":"Feature","geometry":{"type":"Point","coordinates":[135.15133,35.55035]},"properties":{"name":"岩滝口","line":"宮津線","riders":140}},{"type":"Feature","geometry":{"type":"Point","coordinates":[135.10168,35.33781]},"properties":{"name":"牧","line":"宮福線","riders":84}},{"type":"Feature","geometry":{"type":"Point","coordinates":[135.17332,35.46257]},"properties":{"name":"辛皮","line":"宮福線","riders":12}},{"type":"Feature","geometry":{"type":"Point","coordinates":[135.18777,35.50921]},"properties":{"name":"喜多","line":"宮福線","riders":12}},{"type":"Feature","geometry":{"type":"Point","coordinates":[135.15841,35.43216]},"properties":{"name":"大江山口内宮","line":"宮福線","riders":18}},{"type":"Feature","geometry":{"type":"Point","coordinates":[135.12926,35.37187]},"properties":{"name":"公庄","line":"宮福線","riders":60}},{"type":"Feature","geometry":{"type":"Point","coordinates":[135.11767,35.29699]},"properties":{"name":"福知山","line":"宮福線","riders":2210}},{"type":"Feature","geometry":{"type":"Point","coordinates":[135.11155,35.3593]},"properties":{"name":"下天津","line":"宮福線","riders":16}},{"type":"Feature","geometry":{"type":"Point","coordinates":[135.10577,35.31932]},"properties":{"name":"荒河かしの木台","line":"宮福線","riders":100}},{"type":"Feature","geometry":{"type":"Point","coordinates":[135.15449,35.4132]},"properties":{"name":"二俣","line":"宮福線","riders":20}},{"type":"Feature","geometry":{"type":"Point","coordinates":[135.1475,35.38878]},"properties":{"name":"大江","line":"宮福線","riders":234}},{"type":"Feature","geometry":{"type":"Point","coordinates":[135.15274,35.39578]},"properties":{"name":"大江高校前","line":"宮福線","riders":548}},{"type":"Feature","geometry":{"type":"Point","coordinates":[135.19225,35.52334]},"properties":{"name":"宮村","line":"宮福線","riders":32}},{"type":"Feature","geometry":{"type":"Point","coordinates":[135.10863,35.30658]},"properties":{"name":"福知山市民病院口","line":"宮福線","riders":82}},{"type":"Feature","geometry":{"type":"Point","coordinates":[134.82573,34.89641]},"properties":{"name":"長","line":"北条線","riders":60}},{"type":"Feature","geometry":{"type":"Point","coordinates":[134.85636,34.87527]},"properties":{"name":"法華口","line":"北条線","riders":108}},{"type":"Feature","geometry":{"type":"Point","coordinates":[134.84022,34.88628]},"properties":{"name":"播磨下里","line":"北条線","riders":92}},{"type":"Feature","geometry":{"type":"Point","coordinates":[134.82533,34.91044]},"properties":{"name":"播磨横田","line":"北条線","riders":68}},{"type":"Feature","geometry":{"type":"Point","coordinates":[134.87808,34.86203]},"properties":{"name":"網引","line":"北条線","riders":81}},{"type":"Feature","geometry":{"type":"Point","coordinates":[134.86684,34.86548]},"properties":{"name":"田原","line":"北条線","riders":66}},{"type":"Feature","geometry":{"type":"Point","coordinates":[134.83217,34.92914]},"properties":{"name":"北条町","line":"北条線","riders":699}},{"type":"Feature","geometry":{"type":"Point","coordinates":[135.1713,34.76156]},"properties":{"name":"谷上","line":"北神線","riders":26916}},{"type":"Feature","geometry":{"type":"Point","coordinates":[135.49527,34.77481]},"properties":{"name":"緑地公園","line":"南北線","riders":35552}},{"type":"Feature","geometry":{"type":"Point","coordinates":[135.49719,34.79329]},"properties":{"name":"桃山台","line":"南北線","riders":39902}},{"type":"Feature","geometry":{"type":"Point","coordinates":[135.49518,34.81032]},"properties":{"name":"千里中央","line":"南北線","riders":91536}},{"type":"Feature","geometry":{"type":"Point","coordinates":[135.2369,34.75178]},"properties":{"name":"六甲山上","line":"六甲ケーブル線","riders":752}},{"type":"Feature","geometry":{"type":"Point","coordinates":[135.23365,34.7374]},"properties":{"name":"六甲ケーブル下","line":"六甲ケーブル線","riders":803}},{"type":"Feature","geometry":{"type":"Point","coordinates":[135.33127,34.73904]},"properties":{"name":"さくら夙川","line":"東海道線","riders":16746}},{"type":"Feature","geometry":{"type":"Point","coordinates":[135.52287,34.85507]},"properties":{"name":"彩都西","line":"国際文化公園都市モノレール線（彩都線）","riders":10848}},{"type":"Feature","geometry":{"type":"Point","coordinates":[135.52671,34.83464]},"properties":{"name":"豊川","line":"国際文化公園都市モノレール線（彩都線）","riders":3223}},{"type":"Feature","geometry":{"type":"Point","coordinates":[135.55826,34.71525]},"properties":{"name":"新森古市","line":"8号線（今里筋線）","riders":7571}},{"type":"Feature","geometry":{"type":"Point","coordinates":[135.54726,34.76012]},"properties":{"name":"井高野","line":"8号線（今里筋線）","riders":7268}},{"type":"Feature","geometry":{"type":"Point","coordinates":[135.54451,34.75212]},"properties":{"name":"瑞光四丁目","line":"8号線（今里筋線）","riders":9670}},{"type":"Feature","geometry":{"type":"Point","coordinates":[135.54447,34.74399]},"properties":{"name":"だいどう豊里","line":"8号線（今里筋線）","riders":9815}},{"type":"Feature","geometry":{"type":"Point","coordinates":[135.55616,34.7314]},"properties":{"name":"太子橋今市","line":"8号線（今里筋線）","riders":21}},{"type":"Feature","geometry":{"type":"Point","coordinates":[135.56081,34.72216]},"properties":{"name":"清水","line":"8号線（今里筋線）","riders":5815}},{"type":"Feature","geometry":{"type":"Point","coordinates":[135.54644,34.71303]},"properties":{"name":"関目成育","line":"8号線（今里筋線）","riders":6864}},{"type":"Feature","geometry":{"type":"Point","coordinates":[135.54629,34.70106]},"properties":{"name":"蒲生四丁目","line":"8号線（今里筋線）","riders":21}},{"type":"Feature","geometry":{"type":"Point","coordinates":[135.71606,35.01094]},"properties":{"name":"太秦天神川","line":"東西線","riders":18011}},{"type":"Feature","geometry":{"type":"Point","coordinates":[135.73062,35.01096]},"properties":{"name":"西大路御池","line":"東西線","riders":12157}},{"type":"Feature","geometry":{"type":"Point","coordinates":[135.71041,34.96478]},"properties":{"name":"桂川","line":"東海道線","riders":31750}},{"type":"Feature","geometry":{"type":"Point","coordinates":[135.71482,35.01018]},"properties":{"name":"嵐電天神川","line":"嵐山本線","riders":4779}},{"type":"Feature","geometry":{"type":"Point","coordinates":[135.66251,34.88037]},"properties":{"name":"島本","line":"東海道線","riders":14072}},{"type":"Feature","geometry":{"type":"Point","coordinates":[135.55368,34.78637]},"properties":{"name":"摂津市","line":"京都線","riders":12517}},{"type":"Feature","geometry":{"type":"Point","coordinates":[134.90957,34.85736]},"properties":{"name":"粟生","line":"加古川線","riders":2811}},{"type":"Feature","geometry":{"type":"Point","coordinates":[134.90957,34.85686]},"properties":{"name":"粟生","line":"粟生線","riders":1736}},{"type":"Feature","geometry":{"type":"Point","coordinates":[134.90943,34.85736]},"properties":{"name":"粟生","line":"北条線","riders":12}},{"type":"Feature","geometry":{"type":"Point","coordinates":[135.68855,34.91289]},"properties":{"name":"西山天王山","line":"京都線","riders":12333}},{"type":"Feature","geometry":{"type":"Point","coordinates":[135.22475,34.70852]},"properties":{"name":"摩耶","line":"東海道線","riders":11570}},{"type":"Feature","geometry":{"type":"Point","coordinates":[135.7027,35.01568]},"properties":{"name":"撮影所前","line":"北野線","riders":623}},{"type":"Feature","geometry":{"type":"Point","coordinates":[135.57767,34.82852]},"properties":{"name":"JR総持寺","line":"東海道線","riders":15086}},{"type":"Feature","geometry":{"type":"Point","coordinates":[135.50154,34.73406]},"properties":{"name":"新大阪","line":"おおさか東線","riders":126938}},{"type":"Feature","geometry":{"type":"Point","coordinates":[135.51134,34.74942]},"properties":{"name":"南吹田","line":"おおさか東線","riders":4742}},{"type":"Feature","geometry":{"type":"Point","coordinates":[135.51981,34.7408]},"properties":{"name":"JR淡路","line":"おおさか東線","riders":12974}},{"type":"Feature","geometry":{"type":"Point","coordinates":[135.5306,34.7237]},"properties":{"name":"城北公園通","line":"おおさか東線","riders":8158}},{"type":"Feature","geometry":{"type":"Point","coordinates":[135.54139,34.70684]},"properties":{"name":"JR野江","line":"おおさか東線","riders":8434}},{"type":"Feature","geometry":{"type":"Point","coordinates":[135.74315,34.98902]},"properties":{"name":"梅小路京都西","line":"山陰線","riders":4828}}]}