{"type":"FeatureCollection","features":[{"type":"Feature","geometry":{"type":"Point","coordinates":[138.9494,34.72206]},"properties":{"name":"稲梓","line":"伊豆急行線","riders":79}},{"type":"Feature","geometry":{"type":"Point","coordinates":[139.06945,34.81721]},"properties":{"name":"伊豆熱川","line":"伊豆急行線","riders":1317}},{"type":"Feature","geometry":{"type":"Point","coordinates":[138.94129,34.69947]},"properties":{"name":"蓮台寺","line":"伊豆急行線","riders":827}},{"type":"Feature","geometry":{"type":"Point","coordinates":[139.06122,34.80185]},"properties":{"name":"片瀬白田","line":"伊豆急行線","riders":424}},{"type":"Feature","geometry":{"type":"Point","coordinates":[138.99591,34.74744]},"properties":{"name":"河津","line":"伊豆急行線","riders":1751}},{"type":"Feature","geometry":{"type":"Point","coordinates":[139.07572,34.82728]},"properties":{"name":"伊豆北川","line":"伊豆急行線","riders":84}},{"type":"Feature","geometry":{"type":"Point","coordinates":[138.94429,34.67969]},"properties":{"name":"伊豆急下田","line":"伊豆急行線","riders":3675}},{"type":"Feature","geometry":{"type":"Point","coordinates":[139.08803,34.95776]},"properties":{"name":"南伊東","line":"伊豆急行線","riders":1236}},{"type":"Feature","geometry":{"type":"Point","coordinates":[139.00467,34.75371]},"properties":{"name":"今井浜海岸","line":"伊豆急行線","riders":332}},{"type":"Feature","geometry":{"type":"Point","coordinates":[139.13169,34.91004]},"properties":{"name":"富戸","line":"伊豆急行線","riders":413}},{"type":"Feature","geometry":{"type":"Point","coordinates":[139.12193,34.89019]},"properties":{"name":"城ヶ崎海岸","line":"伊豆急行線","riders":776}},{"type":"Feature","geometry":{"type":"Point","coordinates":[139.10818,34.87746]},"properties":{"name":"伊豆高原","line":"伊豆急行線","riders":3289}},{"type":"Feature","geometry":{"type":"Point","coordinates":[139.03737,34.77455]},"properties":{"name":"伊豆稲取","line":"伊豆急行線","riders":1770}},{"type":"Feature","geometry":{"type":"Point","coordinates":[139.07407,34.84335]},"properties":{"name":"伊豆大川","line":"伊豆急行線","riders":329}},{"type":"Feature","geometry":{"type":"Point","coordinates":[139.09211,34.97483]},"properties":{"name":"伊東","line":"伊豆急行線","riders":15754}},{"type":"Feature","geometry":{"type":"Point","coordinates":[139.12484,34.95088]},"properties":{"name":"川奈","line":"伊豆急行線","riders":1600}},{"type":"Feature","geometry":{"type":"Point","coordinates":[138.95097,34.97927]},"properties":{"name":"修善寺","line":"駿豆線","riders":5192}},{"type":"Feature","geometry":{"type":"Point","coordinates":[138.91064,35.12586]},"properties":{"name":"三島","line":"駿豆線","riders":17286}},{"type":"Feature","geometry":{"type":"Point","coordinates":[138.93746,34.99437]},"properties":{"name":"大仁","line":"駿豆線","riders":2702}},{"type":"Feature","geometry":{"type":"Point","coordinates":[138.94552,35.05329]},"properties":{"name":"韮山","line":"駿豆線","riders":3078}},{"type":"Feature","geometry":{"type":"Point","coordinates":[138.95442,34.98886]},"properties":{"name":"牧之郷","line":"駿豆線","riders":2385}},{"type":"Feature","geometry":{"type":"Point","coordinates":[138.94751,35.03981]},"properties":{"name":"伊豆長岡","line":"駿豆線","riders":4953}},{"type":"Feature","geometry":{"type":"Point","coordinates":[138.92593,35.11103]},"properties":{"name":"三島二日町","line":"駿豆線","riders":17673}},{"type":"Feature","geometry":{"type":"Point","coordinates":[138.9437,35.06549]},"properties":{"name":"原木","line":"駿豆線","riders":1482}},{"type":"Feature","geometry":{"type":"Point","coordinates":[138.93938,35.0922]},"properties":{"name":"大場","line":"駿豆線","riders":5144}},{"type":"Feature","geometry":{"type":"Point","coordinates":[138.91856,35.1162]},"properties":{"name":"三島田町","line":"駿豆線","riders":3040}},{"type":"Feature","geometry":{"type":"Point","coordinates":[138.94578,35.01456]},"properties":{"name":"田京","line":"駿豆線","riders":3004}},{"type":"Feature","geometry":{"type":"Point","coordinates":[138.94156,35.07876]},"properties":{"name":"伊豆仁田","line":"駿豆線","riders":3432}},{"type":"Feature","geometry":{"type":"Point","coordinates":[138.91121,35.11935]},"properties":{"name":"三島広小路","line":"駿豆線","riders":4103}},{"type":"Feature","geometry":{"type":"Point","coordinates":[137.77784,34.78423]},"properties":{"name":"遠州小松","line":"鉄道線","riders":2123}},{"type":"Feature","geometry":{"type":"Point","coordinates":[137.74557,34.74155]},"properties":{"name":"上島","line":"鉄道線","riders":3494}},{"type":"Feature","geometry":{"type":"Point","coordinates":[137.78434,34.79133]},"properties":{"name":"浜北","line":"鉄道線","riders":3558}},{"type":"Feature","geometry":{"type":"Point","coordinates":[137.79874,34.82406]},"properties":{"name":"遠州芝本","line":"鉄道線","riders":1408}},{"type":"Feature","geometry":{"type":"Point","coordinates":[137.75163,34.74761]},"properties":{"name":"自動車学校前","line":"鉄道線","riders":2010}},{"type":"Feature","geometry":{"type":"Point","coordinates":[137.73599,34.71707]},"properties":{"name":"八幡","line":"鉄道線","riders":2179}},{"type":"Feature","geometry":{"type":"Point","coordinates":[137.73343,34.71059]},"properties":{"name":"遠州病院","line":"鉄道線","riders":2044}},{"type":"Feature","geometry":{"type":"Point","coordinates":[137.80114,34.83436]},"properties":{"name":"遠州岩水寺","line":"鉄道線","riders":886}},{"type":"Feature","geometry":{"type":"Point","coordinates":[137.73246,34.70341]},"properties":{"name":"新浜松","line":"鉄道線","riders":16535}},{"type":"Feature","geometry":{"type":"Point","coordinates":[137.75732,34.75727]},"properties":{"name":"さぎの宮","line":"鉄道線","riders":2276}},{"type":"Feature","geometry":{"type":"Point","coordinates":[137.76341,34.76808]},"properties":{"name":"積志","line":"鉄道線","riders":1891}},{"type":"Feature","geometry":{"type":"Point","coordinates":[137.78976,34.79816]},"properties":{"name":"美薗中央公園","line":"鉄道線","riders":2167}},{"type":"Feature","geometry":{"type":"Point","coordinates":[137.7739,34.77678]},"properties":{"name":"遠州西ヶ崎","line":"鉄道線","riders":1790}},{"type":"Feature","geometry":{"type":"Point","coordinates":[137.79555,34.80835]},"properties":{"name":"遠州小林","line":"鉄道線","riders":2682}},{"type":"Feature","geometry":{"type":"Point","coordinates":[137.73847,34.7236]},"properties":{"name":"助信","line":"鉄道線","riders":2720}},{"type":"Feature","geometry":{"type":"Point","coordinates":[137.74146,34.73322]},"properties":{"name":"曳馬","line":"鉄道線","riders":2671}},{"type":"Feature","geometry":{"type":"Point","coordinates":[137.73286,34.70755]},"properties":{"name":"第一通り","line":"鉄道線","riders":3174}},{"type":"Feature","geometry":{"type":"Point","coordinates":[137.80795,34.84675]},"properties":{"name":"西鹿島","line":"鉄道線","riders":3469}},{"type":"Feature","geometry":{"type":"Point","coordinates":[138.7046,35.16609]},"properties":{"name":"岳南原田","line":"岳南線","riders":266}},{"type":"Feature","geometry":{"type":"Point","coordinates":[138.73392,35.16047]},"properties":{"name":"須津","line":"岳南線","riders":184}},{"type":"Feature","geometry":{"type":"Point","coordinates":[138.69004,35.15776]},"properties":{"name":"ジヤトコ前","line":"岳南線","riders":124}},{"type":"Feature","geometry":{"type":"Point","coordinates":[138.71362,35.16148]},"properties":{"name":"比奈","line":"岳南線","riders":142}},{"type":"Feature","geometry":{"type":"Point","coordinates":[138.72339,35.16095]},"properties":{"name":"岳南富士岡","line":"岳南線","riders":337}},{"type":"Feature","geometry":{"type":"Point","coordinates":[138.70123,35.14444]},"properties":{"name":"吉原","line":"岳南線","riders":2016}},{"type":"Feature","geometry":{"type":"Point","coordinates":[138.68973,35.16077]},"properties":{"name":"吉原本町","line":"岳南線","riders":1143}},{"type":"Feature","geometry":{"type":"Point","coordinates":[138.75183,35.15524]},"properties":{"name":"岳南江尾","line":"岳南線","riders":173}},{"type":"Feature","geometry":{"type":"Point","coordinates":[138.69281,35.16197]},"properties":{"name":"本吉原","line":"岳南線","riders":356}},{"type":"Feature","geometry":{"type":"Point","coordinates":[138.74302,35.16098]},"properties":{"name":"神谷","line":"岳南線","riders":143}},{"type":"Feature","geometry":{"type":"Point","coordinates":[138.38765,34.97586]},"properties":{"name":"新静岡","line":"静岡清水線","riders":19657}},{"type":"Feature","geometry":{"type":"Point","coordinates":[138.39585,34.9784]},"properties":{"name":"音羽町","line":"静岡清水線","riders":1743}},{"type":"Feature","geometry":{"type":"Point","coordinates":[138.47749,35.01307]},"properties":{"name":"桜橋","line":"静岡清水線","riders":4727}},{"type":"Feature","geometry":{"type":"Point","coordinates":[138.40617,34.9821]},"properties":{"name":"柚木","line":"静岡清水線","riders":3223}},{"type":"Feature","geometry":{"type":"Point","coordinates":[138.48747,35.01703]},"properties":{"name":"新清水","line":"静岡清水線","riders":7304}},{"type":"Feature","geometry":{"type":"Point","coordinates":[138.4196,34.99287]},"properties":{"name":"古庄","line":"静岡清水線","riders":3666}},{"type":"Feature","geometry":{"type":"Point","coordinates":[138.43021,34.99341]},"properties":{"name":"県総合運動場","line":"静岡清水線","riders":3668}},{"type":"Feature","geometry":{"type":"Point","coordinates":[138.39117,34.97704]},"properties":{"name":"日吉町","line":"静岡清水線","riders":1493}},{"type":"Feature","geometry":{"type":"Point","coordinates":[138.43809,34.99751]},"properties":{"name":"県立美術館前","line":"静岡清水線","riders":1939}},{"type":"Feature","geometry":{"type":"Point","coordinates":[138.45974,35.01143]},"properties":{"name":"狐ヶ崎","line":"静岡清水線","riders":5474}},{"type":"Feature","geometry":{"type":"Point","coordinates":[138.40063,34.97843]},"properties":{"name":"春日町","line":"静岡清水線","riders":1844}},{"type":"Feature","geometry":{"type":"Point","coordinates":[138.41288,34.98911]},"properties":{"name":"長沼","line":"静岡清水線","riders":2533}},{"type":"Feature","geometry":{"type":"Point","coordinates":[138.45254,35.0079]},"properties":{"name":"御門台","line":"静岡清水線","riders":2950}},{"type":"Feature","geometry":{"type":"Point","coordinates":[138.4814,35.01504]},"properties":{"name":"入江岡","line":"静岡清水線","riders":733}},{"type":"Feature","geometry":{"type":"Point","coordinates":[138.44257,35.00142]},"properties":{"name":"草薙","line":"静岡清水線","riders":7801}},{"type":"Feature","geometry":{"type":"Point","coordinates":[138.14466,35.16758]},"properties":{"name":"アプトいちしろ","line":"井川線","riders":12}},{"type":"Feature","geometry":{"type":"Point","coordinates":[138.16801,35.16488]},"properties":{"name":"ひらんだ","line":"井川線","riders":12}},{"type":"Feature","geometry":{"type":"Point","coordinates":[138.13917,35.13603]},"properties":{"name":"土本","line":"井川線","riders":12}},{"type":"Feature","geometry":{"type":"Point","coordinates":[138.17446,35.1921]},"properties":{"name":"尾盛","line":"井川線","riders":12}},{"type":"Feature","geometry":{"type":"Point","coordinates":[138.13691,35.10777]},"properties":{"name":"千頭","line":"井川線","riders":1211}},{"type":"Feature","geometry":{"type":"Point","coordinates":[138.14104,35.14173]},"properties":{"name":"川根小山","line":"井川線","riders":12}},{"type":"Feature","geometry":{"type":"Point","coordinates":[138.14778,35.14978]},"properties":{"name":"奥泉","line":"井川線","riders":133}},{"type":"Feature","geometry":{"type":"Point","coordinates":[138.18064,35.16781]},"properties":{"name":"奥大井湖上","line":"井川線","riders":79}},{"type":"Feature","geometry":{"type":"Point","coordinates":[138.13436,35.12472]},"properties":{"name":"沢間","line":"井川線","riders":12}},{"type":"Feature","geometry":{"type":"Point","coordinates":[138.14059,35.11681]},"properties":{"name":"川根両国","line":"井川線","riders":12}},{"type":"Feature","geometry":{"type":"Point","coordinates":[138.19424,35.19174]},"properties":{"name":"閑蔵","line":"井川線","riders":53}},{"type":"Feature","geometry":{"type":"Point","coordinates":[138.18528,35.17883]},"properties":{"name":"接岨峡温泉","line":"井川線","riders":221}},{"type":"Feature","geometry":{"type":"Point","coordinates":[138.15713,35.16893]},"properties":{"name":"長島ダム","line":"井川線","riders":56}},{"type":"Feature","geometry":{"type":"Point","coordinates":[138.0862,34.96229]},"properties":{"name":"川根温泉笹間渡","line":"大井川本線","riders":73}},{"type":"Feature","geometry":{"type":"Point","coordinates":[138.12583,34.81924]},"properties":{"name":"金谷","line":"大井川本線","riders":3869}},{"type":"Feature","geometry":{"type":"Point","coordinates":[138.10173,34.88303]},"properties":{"name":"神尾","line":"大井川本線","riders":12}},{"type":"Feature","geometry":{"type":"Point","coordinates":[138.08218,34.92109]},"properties":{"name":"大和田","line":"大井川本線","riders":33}},{"type":"Feature","geometry":{"type":"Point","coordinates":[138.12747,35.09185]},"properties":{"name":"崎平","line":"大井川本線","riders":62}},{"type":"Feature","geometry":{"type":"Point","coordinates":[138.09548,35.05133]},"properties":{"name":"田野口","line":"大井川本線","riders":19}},{"type":"Feature","geometry":{"type":"Point","coordinates":[138.12083,34.84484]},"properties":{"name":"合格","line":"大井川本線","riders":90}},{"type":"Feature","geometry":{"type":"Point","coordinates":[138.07777,34.94008]},"properties":{"name":"家山","line":"大井川本線","riders":582}},{"type":"Feature","geometry":{"type":"Point","coordinates":[138.08773,34.9533]},"properties":{"name":"抜里","line":"大井川本線","riders":36}},{"type":"Feature","geometry":{"type":"Point","coordinates":[138.0901,34.90182]},"properties":{"name":"福用","line":"大井川本線","riders":89}},{"type":"Feature","geometry":{"type":"Point","coordinates":[138.11055,35.07471]},"properties":{"name":"駿河徳山","line":"大井川本線","riders":231}},{"type":"Feature","geometry":{"type":"Point","coordinates":[138.11557,35.08956]},"properties":{"name":"青部","line":"大井川本線","riders":30}},{"type":"Feature","geometry":{"type":"Point","coordinates":[138.1225,34.83889]},"properties":{"name":"日切","line":"大井川本線","riders":22}},{"type":"Feature","geometry":{"type":"Point","coordinates":[138.09065,34.99765]},"properties":{"name":"塩郷","line":"大井川本線","riders":32}},{"type":"Feature","geometry":{"type":"Point","coordinates":[138.08729,34.98599]},"properties":{"name":"地名","line":"大井川本線","riders":45}},{"type":"Feature","geometry":{"type":"Point","coordinates":[138.12603,34.83549]},"properties":{"name":"代官町","line":"大井川本線","riders":62}},{"type":"Feature","geometry":{"type":"Point","coordinates":[138.09011,35.02213]},"properties":{"name":"下泉","line":"大井川本線","riders":96}},{"type":"Feature","geometry":{"type":"Point","coordinates":[138.13765,34.82574]},"properties":{"name":"新金谷","line":"大井川本線","riders":907}},{"type":"Feature","geometry":{"type":"Point","coordinates":[137.93114,34.83137]},"properties":{"name":"戸綿","line":"天竜浜名湖線","riders":296}},{"type":"Feature","geometry":{"type":"Point","coordinates":[137.92427,34.83111]},"properties":{"name":"遠州森","line":"天竜浜名湖線","riders":715}},{"type":"Feature","geometry":{"type":"Point","coordinates":[137.9529,34.82017]},"properties":{"name":"原田","line":"天竜浜名湖線","riders":133}},{"type":"Feature","geometry":{"type":"Point","coordinates":[138.00006,34.77034]},"properties":{"name":"掛川市役所前","line":"天竜浜名湖線","riders":214}},{"type":"Feature","geometry":{"type":"Point","coordinates":[137.9638,34.78809]},"properties":{"name":"いこいの広場","line":"天竜浜名湖線","riders":159}},{"type":"Feature","geometry":{"type":"Point","coordinates":[137.97274,34.77824]},"properties":{"name":"桜木","line":"天竜浜名湖線","riders":320}},{"type":"Feature","geometry":{"type":"Point","coordinates":[137.95499,34.80846]},"properties":{"name":"原谷","line":"天竜浜名湖線","riders":295}},{"type":"Feature","geometry":{"type":"Point","coordinates":[137.99506,34.77199]},"properties":{"name":"西掛川","line":"天竜浜名湖線","riders":223}},{"type":"Feature","geometry":{"type":"Point","coordinates":[137.96164,34.79275]},"properties":{"name":"細谷","line":"天竜浜名湖線","riders":101}},{"type":"Feature","geometry":{"type":"Point","coordinates":[137.90757,34.82084]},"properties":{"name":"円田","line":"天竜浜名湖線","riders":83}},{"type":"Feature","geometry":{"type":"Point","coordinates":[138.01454,34.7694]},"properties":{"name":"掛川","line":"天竜浜名湖線","riders":22659}},{"type":"Feature","geometry":{"type":"Point","coordinates":[137.70927,34.81992]},"properties":{"name":"常葉大学前","line":"天竜浜名湖線","riders":93}},{"type":"Feature","geometry":{"type":"Point","coordinates":[137.62157,34.80236]},"properties":{"name":"西気賀","line":"天竜浜名湖線","riders":103}},{"type":"Feature","geometry":{"type":"Point","coordinates":[137.88909,34.81806]},"properties":{"name":"遠江一宮","line":"天竜浜名湖線","riders":145}},{"type":"Feature","geometry":{"type":"Point","coordinates":[137.83004,34.84724]},"properties":{"name":"上野部","line":"天竜浜名湖線","riders":21}},{"type":"Feature","geometry":{"type":"Point","coordinates":[137.77375,34.83045]},"properties":{"name":"宮口","line":"天竜浜名湖線","riders":249}},{"type":"Feature","geometry":{"type":"Point","coordinates":[137.79258,34.8377]},"properties":{"name":"岩水寺","line":"天竜浜名湖線","riders":103}},{"type":"Feature","geometry":{"type":"Point","coordinates":[137.80794,34.84676]},"properties":{"name":"西鹿島","line":"天竜浜名湖線","riders":3469}},{"type":"Feature","geometry":{"type":"Point","coordinates":[137.59925,34.78924]},"properties":{"name":"浜名湖佐久米","line":"天竜浜名湖線","riders":63}},{"type":"Feature","geometry":{"type":"Point","coordinates":[137.51209,34.7538]},"properties":{"name":"知波田","line":"天竜浜名湖線","riders":123}},{"type":"Feature","geometry":{"type":"Point","coordinates":[137.7183,34.82826]},"properties":{"name":"都田","line":"天竜浜名湖線","riders":85}},{"type":"Feature","geometry":{"type":"Point","coordinates":[137.61259,34.79014]},"properties":{"name":"寸座","line":"天竜浜名湖線","riders":45}},{"type":"Feature","geometry":{"type":"Point","coordinates":[137.86414,34.82659]},"properties":{"name":"敷地","line":"天竜浜名湖線","riders":90}},{"type":"Feature","geometry":{"type":"Point","coordinates":[137.54587,34.79501]},"properties":{"name":"奥浜名湖","line":"天竜浜名湖線","riders":101}},{"type":"Feature","geometry":{"type":"Point","coordinates":[137.82001,34.85913]},"properties":{"name":"天竜二俣","line":"天竜浜名湖線","riders":274}},{"type":"Feature","geometry":{"type":"Point","coordinates":[137.58661,34.79044]},"properties":{"name":"東都筑","line":"天竜浜名湖線","riders":114}},{"type":"Feature","geometry":{"type":"Point","coordinates":[137.66571,34.81231]},"properties":{"name":"岡地","line":"天竜浜名湖線","riders":209}},{"type":"Feature","geometry":{"type":"Point","coordinates":[137.73219,34.83438]},"properties":{"name":"フルーツパーク","line":"天竜浜名湖線","riders":77}},{"type":"Feature","geometry":{"type":"Point","coordinates":[137.54174,34.78401]},"properties":{"name":"尾奈","line":"天竜浜名湖線","riders":127}},{"type":"Feature","geometry":{"type":"Point","coordinates":[137.5745,34.79584]},"properties":{"name":"都筑","line":"天竜浜名湖線","riders":131}},{"type":"Feature","geometry":{"type":"Point","coordinates":[137.65195,34.8072]},"properties":{"name":"気賀","line":"天竜浜名湖線","riders":287}},{"type":"Feature","geometry":{"type":"Point","coordinates":[137.83976,34.83715]},"properties":{"name":"豊岡","line":"天竜浜名湖線","riders":155}},{"type":"Feature","geometry":{"type":"Point","coordinates":[137.55178,34.80257]},"properties":{"name":"三ヶ日","line":"天竜浜名湖線","riders":496}},{"type":"Feature","geometry":{"type":"Point","coordinates":[137.81277,34.8594]},"properties":{"name":"二俣本町","line":"天竜浜名湖線","riders":132}},{"type":"Feature","geometry":{"type":"Point","coordinates":[137.68129,34.8169]},"properties":{"name":"金指","line":"天竜浜名湖線","riders":725}},{"type":"Feature","geometry":{"type":"Point","coordinates":[138.88176,35.11604]},"properties":{"name":"大岡","line":"御殿場線","riders":2664}},{"type":"Feature","geometry":{"type":"Point","coordinates":[138.90926,35.17133]},"properties":{"name":"裾野","line":"御殿場線","riders":5015}},{"type":"Feature","geometry":{"type":"Point","coordinates":[138.89932,35.14735]},"properties":{"name":"長泉なめり","line":"御殿場線","riders":1956}},{"type":"Feature","geometry":{"type":"Point","coordinates":[138.89511,35.12854]},"properties":{"name":"下土狩","line":"御殿場線","riders":2715}},{"type":"Feature","geometry":{"type":"Point","coordinates":[138.86048,35.10304]},"properties":{"name":"沼津","line":"御殿場線","riders":41341}},{"type":"Feature","geometry":{"type":"Point","coordinates":[138.85966,35.10329]},"properties":{"name":"沼津","line":"御殿場線","riders":11}},{"type":"Feature","geometry":{"type":"Point","coordinates":[138.64753,35.18835]},"properties":{"name":"入山瀬","line":"身延線","riders":1928}},{"type":"Feature","geometry":{"type":"Point","coordinates":[138.63911,35.15731]},"properties":{"name":"柚木","line":"身延線","riders":932}},{"type":"Feature","geometry":{"type":"Point","coordinates":[138.65185,35.15127]},"properties":{"name":"富士","line":"身延線","riders":15576}},{"type":"Feature","geometry":{"type":"Point","coordinates":[138.58425,35.19929]},"properties":{"name":"沼久保","line":"身延線","riders":13}},{"type":"Feature","geometry":{"type":"Point","coordinates":[138.64579,35.16806]},"properties":{"name":"竪堀","line":"身延線","riders":2208}},{"type":"Feature","geometry":{"type":"Point","coordinates":[138.56383,35.19725]},"properties":{"name":"芝川","line":"身延線","riders":308}},{"type":"Feature","geometry":{"type":"Point","coordinates":[138.90969,35.12671]},"properties":{"name":"三島","line":"東海道新幹線","riders":11}},{"type":"Feature","geometry":{"type":"Point","coordinates":[138.38968,34.97174]},"properties":{"name":"静岡","line":"東海道新幹線","riders":11}},{"type":"Feature","geometry":{"type":"Point","coordinates":[138.016,34.76925]},"properties":{"name":"掛川","line":"東海道新幹線","riders":11}},{"type":"Feature","geometry":{"type":"Point","coordinates":[138.66301,35.14207]},"properties":{"name":"新富士","line":"東海道新幹線","riders":9324}},{"type":"Feature","geometry":{"type":"Point","coordinates":[137.73538,34.70376]},"properties":{"name":"浜松","line":"東海道新幹線","riders":11}},{"type":"Feature","geometry":{"type":"Point","coordinates":[138.9106,35.12615]},"properties":{"name":"三島","line":"東海道線","riders":61243}},{"type":"Feature","geometry":{"type":"Point","coordinates":[138.97098,35.10872]},"properties":{"name":"函南","line":"東海道線","riders":3516}},{"type":"Feature","geometry":{"type":"Point","coordinates":[138.2856,34.8598]},"properties":{"name":"西焼津","line":"東海道線","riders":12009}},{"type":"Feature","geometry":{"type":"Point","coordinates":[138.44102,35.00229]},"properties":{"name":"草薙","line":"東海道線","riders":21922}},{"type":"Feature","geometry":{"type":"Point","coordinates":[138.20384,34.83648]},"properties":{"name":"六合","line":"東海道線","riders":6092}},{"type":"Feature","geometry":{"type":"Point","coordinates":[138.79334,35.12494]},"properties":{"name":"原","line":"東海道線","riders":4457}},{"type":"Feature","geometry":{"type":"Point","coordinates":[138.81867,35.11837]},"properties":{"name":"片浜","line":"東海道線","riders":4986}},{"type":"Feature","geometry":{"type":"Point","coordinates":[138.25287,34.84957]},"properties":{"name":"藤枝","line":"東海道線","riders":22622}},{"type":"Feature","geometry":{"type":"Point","coordinates":[138.4891,35.0234]},"properties":{"name":"清水","line":"東海道線","riders":20665}},{"type":"Feature","geometry":{"type":"Point","coordinates":[138.31848,34.87229]},"properties":{"name":"焼津","line":"東海道線","riders":17737}},{"type":"Feature","geometry":{"type":"Point","coordinates":[138.61871,35.14113]},"properties":{"name":"富士川","line":"東海道線","riders":2961}},{"type":"Feature","geometry":{"type":"Point","coordinates":[138.58283,35.11404]},"properties":{"name":"蒲原","line":"東海道線","riders":1384}},{"type":"Feature","geometry":{"type":"Point","coordinates":[138.08539,34.76167]},"properties":{"name":"菊川","line":"東海道線","riders":8167}},{"type":"Feature","geometry":{"type":"Point","coordinates":[138.55282,35.09712]},"properties":{"name":"由比","line":"東海道線","riders":2775}},{"type":"Feature","geometry":{"type":"Point","coordinates":[138.3641,34.94121]},"properties":{"name":"安倍川","line":"東海道線","riders":9707}},{"type":"Feature","geometry":{"type":"Point","coordinates":[138.70264,35.14388]},"properties":{"name":"吉原","line":"東海道線","riders":6581}},{"type":"Feature","geometry":{"type":"Point","coordinates":[138.41292,34.98408]},"properties":{"name":"東静岡","line":"東海道線","riders":16801}},{"type":"Feature","geometry":{"type":"Point","coordinates":[137.926,34.74144]},"properties":{"name":"袋井","line":"東海道線","riders":10650}},{"type":"Feature","geometry":{"type":"Point","coordinates":[138.35932,34.92188]},"properties":{"name":"用宗","line":"東海道線","riders":3035}},{"type":"Feature","geometry":{"type":"Point","coordinates":[138.38892,34.97179]},"properties":{"name":"静岡","line":"東海道線","riders":118793}},{"type":"Feature","geometry":{"type":"Point","coordinates":[138.52191,35.05251]},"properties":{"name":"興津","line":"東海道線","riders":4278}},{"type":"Feature","geometry":{"type":"Point","coordinates":[138.17343,34.83015]},"properties":{"name":"島田","line":"東海道線","riders":11074}},{"type":"Feature","geometry":{"type":"Point","coordinates":[137.96184,34.75245]},"properties":{"name":"愛野","line":"東海道線","riders":6715}},{"type":"Feature","geometry":{"type":"Point","coordinates":[138.6081,35.11941]},"properties":{"name":"新蒲原","line":"東海道線","riders":2849}},{"type":"Feature","geometry":{"type":"Point","coordinates":[138.74549,35.13627]},"properties":{"name":"東田子の浦","line":"東海道線","riders":2659}},{"type":"Feature","geometry":{"type":"Point","coordinates":[137.8198,34.71209]},"properties":{"name":"豊田町","line":"東海道線","riders":5701}},{"type":"Feature","geometry":{"type":"Point","coordinates":[137.60341,34.69001]},"properties":{"name":"弁天島","line":"東海道線","riders":1501}},{"type":"Feature","geometry":{"type":"Point","coordinates":[137.56882,34.69428]},"properties":{"name":"新居町","line":"東海道線","riders":4297}},{"type":"Feature","geometry":{"type":"Point","coordinates":[137.73512,34.70406]},"properties":{"name":"浜松","line":"東海道線","riders":74051}},{"type":"Feature","geometry":{"type":"Point","coordinates":[137.85227,34.71021]},"properties":{"name":"磐田","line":"東海道線","riders":16092}},{"type":"Feature","geometry":{"type":"Point","coordinates":[137.68135,34.69043]},"properties":{"name":"高塚","line":"東海道線","riders":5993}},{"type":"Feature","geometry":{"type":"Point","coordinates":[137.62633,34.68569]},"properties":{"name":"舞阪","line":"東海道線","riders":5363}},{"type":"Feature","geometry":{"type":"Point","coordinates":[137.7794,34.71706]},"properties":{"name":"天竜川","line":"東海道線","riders":5916}},{"type":"Feature","geometry":{"type":"Point","coordinates":[137.54619,34.71677]},"properties":{"name":"鷲津","line":"東海道線","riders":6780}},{"type":"Feature","geometry":{"type":"Point","coordinates":[137.81678,35.42921]},"properties":{"name":"千代","line":"飯田線","riders":11}},{"type":"Feature","geometry":{"type":"Point","coordinates":[137.85365,35.27362]},"properties":{"name":"平岡","line":"飯田線","riders":91}},{"type":"Feature","geometry":{"type":"Point","coordinates":[137.81734,35.4411]},"properties":{"name":"天竜峡","line":"飯田線","riders":477}},{"type":"Feature","geometry":{"type":"Point","coordinates":[137.71386,35.02897]},"properties":{"name":"東栄","line":"飯田線","riders":133}},{"type":"Feature","geometry":{"type":"Point","coordinates":[137.7039,35.02433]},"properties":{"name":"池場","line":"飯田線","riders":11}},{"type":"Feature","geometry":{"type":"Point","coordinates":[137.83981,35.47557]},"properties":{"name":"駄科","line":"飯田線","riders":302}},{"type":"Feature","geometry":{"type":"Point","coordinates":[137.75241,35.0502]},"properties":{"name":"上市場","line":"飯田線","riders":16}},{"type":"Feature","geometry":{"type":"Point","coordinates":[137.78639,35.06933]},"properties":{"name":"下川合","line":"飯田線","riders":25}},{"type":"Feature","geometry":{"type":"Point","coordinates":[137.81718,35.41915]},"properties":{"name":"金野","line":"飯田線","riders":11}},{"type":"Feature","geometry":{"type":"Point","coordinates":[137.82775,35.46404]},"properties":{"name":"時又","line":"飯田線","riders":200}},{"type":"Feature","geometry":{"type":"Point","coordinates":[137.76357,35.05634]},"properties":{"name":"浦川","line":"飯田線","riders":110}},{"type":"Feature","geometry":{"type":"Point","coordinates":[137.86946,35.15407]},"properties":{"name":"向市場","line":"飯田線","riders":11}},{"type":"Feature","geometry":{"type":"Point","coordinates":[137.74425,35.04935]},"properties":{"name":"出馬","line":"飯田線","riders":11}},{"type":"Feature","geometry":{"type":"Point","coordinates":[137.80286,35.08532]},"properties":{"name":"中部天竜","line":"飯田線","riders":206}},{"type":"Feature","geometry":{"type":"Point","coordinates":[137.77509,35.06058]},"properties":{"name":"早瀬","line":"飯田線","riders":18}},{"type":"Feature","geometry":{"type":"Point","coordinates":[137.86203,35.13159]},"properties":{"name":"城西","line":"飯田線","riders":30}},{"type":"Feature","geometry":{"type":"Point","coordinates":[137.84145,35.33637]},"properties":{"name":"温田","line":"飯田線","riders":380}},{"type":"Feature","geometry":{"type":"Point","coordinates":[137.64401,34.99052]},"properties":{"name":"柿平","line":"飯田線","riders":11}},{"type":"Feature","geometry":{"type":"Point","coordinates":[137.81575,35.45312]},"properties":{"name":"川路","line":"飯田線","riders":256}},{"type":"Feature","geometry":{"type":"Point","coordinates":[137.83267,35.26743]},"properties":{"name":"鶯巣","line":"飯田線","riders":11}},{"type":"Feature","geometry":{"type":"Point","coordinates":[137.8705,35.16334]},"properties":{"name":"水窪","line":"飯田線","riders":75}},{"type":"Feature","geometry":{"type":"Point","coordinates":[137.83599,35.2099]},"properties":{"name":"小和田","line":"飯田線","riders":11}},{"type":"Feature","geometry":{"type":"Point","coordinates":[137.81852,35.19046]},"properties":{"name":"大嵐","line":"飯田線","riders":35}},{"type":"Feature","geometry":{"type":"Point","coordinates":[137.85436,35.11491]},"properties":{"name":"相月","line":"飯田線","riders":15}},{"type":"Feature","geometry":{"type":"Point","coordinates":[137.84154,35.49675]},"properties":{"name":"伊那八幡","line":"飯田線","riders":372}},{"type":"Feature","geometry":{"type":"Point","coordinates":[137.6209,34.98855]},"properties":{"name":"三河槙原","line":"飯田線","riders":36}},{"type":"Feature","geometry":{"type":"Point","coordinates":[137.80972,35.09187]},"properties":{"name":"佐久間","line":"飯田線","riders":14}},{"type":"Feature","geometry":{"type":"Point","coordinates":[137.83938,35.48744]},"properties":{"name":"毛賀","line":"飯田線","riders":191}},{"type":"Feature","geometry":{"type":"Point","coordinates":[137.84858,35.31175]},"properties":{"name":"為栗","line":"飯田線","riders":11}},{"type":"Feature","geometry":{"type":"Point","coordinates":[137.81407,35.37535]},"properties":{"name":"門島","line":"飯田線","riders":11}},{"type":"Feature","geometry":{"type":"Point","coordinates":[137.83494,35.23592]},"properties":{"name":"中井侍","line":"飯田線","riders":11}},{"type":"Feature","geometry":{"type":"Point","coordinates":[137.81021,35.40233]},"properties":{"name":"唐笠","line":"飯田線","riders":23}},{"type":"Feature","geometry":{"type":"Point","coordinates":[137.66399,35.00173]},"properties":{"name":"三河川合","line":"飯田線","riders":50}},{"type":"Feature","geometry":{"type":"Point","coordinates":[137.83791,35.34896]},"properties":{"name":"田本","line":"飯田線","riders":11}},{"type":"Feature","geometry":{"type":"Point","coordinates":[137.83475,35.25409]},"properties":{"name":"伊那小沢","line":"飯田線","riders":11}},{"type":"Feature","geometry":{"type":"Point","coordinates":[137.55163,34.92075]},"properties":{"name":"鳥居","line":"飯田線","riders":72}},{"type":"Feature","geometry":{"type":"Point","coordinates":[137.603,34.95198]},"properties":{"name":"三河大野","line":"飯田線","riders":217}},{"type":"Feature","geometry":{"type":"Point","coordinates":[137.61303,34.9705]},"properties":{"name":"湯谷温泉","line":"飯田線","riders":88}},{"type":"Feature","geometry":{"type":"Point","coordinates":[137.52731,34.91224]},"properties":{"name":"三河東郷","line":"飯田線","riders":145}},{"type":"Feature","geometry":{"type":"Point","coordinates":[137.50298,34.90612]},"properties":{"name":"東新町","line":"飯田線","riders":1096}},{"type":"Feature","geometry":{"type":"Point","coordinates":[137.57674,34.93265]},"properties":{"name":"本長篠","line":"飯田線","riders":519}},{"type":"Feature","geometry":{"type":"Point","coordinates":[137.51443,34.91036]},"properties":{"name":"茶臼山","line":"飯田線","riders":543}},{"type":"Feature","geometry":{"type":"Point","coordinates":[137.54901,34.93015]},"properties":{"name":"大海","line":"飯田線","riders":215}},{"type":"Feature","geometry":{"type":"Point","coordinates":[137.56528,34.92605]},"properties":{"name":"長篠城","line":"飯田線","riders":94}},{"type":"Feature","geometry":{"type":"Point","coordinates":[139.06557,35.09872]},"properties":{"name":"来宮","line":"伊東線","riders":2280}},{"type":"Feature","geometry":{"type":"Point","coordinates":[139.06691,35.05948]},"properties":{"name":"伊豆多賀","line":"伊東線","riders":1296}},{"type":"Feature","geometry":{"type":"Point","coordinates":[139.07978,35.00563]},"properties":{"name":"宇佐美","line":"伊東線","riders":2644}},{"type":"Feature","geometry":{"type":"Point","coordinates":[139.08107,35.04351]},"properties":{"name":"網代","line":"伊東線","riders":1894}},{"type":"Feature","geometry":{"type":"Point","coordinates":[137.5097,34.73787]},"properties":{"name":"大森","line":"天竜浜名湖線","riders":55}},{"type":"Feature","geometry":{"type":"Point","coordinates":[137.91772,34.82613]},"properties":{"name":"森町病院前","line":"天竜浜名湖線","riders":93}},{"type":"Feature","geometry":{"type":"Point","coordinates":[137.88563,34.71866]},"properties":{"name":"御厨","line":"東海道線","riders":2574}},{"type":"Feature","geometry":{"type":"Point","coordinates":[138.11938,34.85012]},"properties":{"name":"門出","line":"大井川本線","riders":50}}]}