{"type":"FeatureCollection","features":[{"type":"Feature","geometry":{"type":"Point","coordinates":[130.6301,31.25432]},"properties":{"name":"二月田","line":"指宿枕崎線","riders":690}},{"type":"Feature","geometry":{"type":"Point","coordinates":[130.54103,31.58378]},"properties":{"name":"鹿児島中央","line":"九州新幹線","riders":11}},{"type":"Feature","geometry":{"type":"Point","coordinates":[130.31241,31.81351]},"properties":{"name":"川内","line":"九州新幹線","riders":11}},{"type":"Feature","geometry":{"type":"Point","coordinates":[130.5436,31.5548]},"properties":{"name":"南鹿児島","line":"指宿枕崎線","riders":2688}},{"type":"Feature","geometry":{"type":"Point","coordinates":[130.51875,31.20433]},"properties":{"name":"入野","line":"指宿枕崎線","riders":19}},{"type":"Feature","geometry":{"type":"Point","coordinates":[130.51898,31.52709]},"properties":{"name":"谷山","line":"指宿枕崎線","riders":5580}},{"type":"Feature","geometry":{"type":"Point","coordinates":[130.53474,31.20397]},"properties":{"name":"開聞","line":"指宿枕崎線","riders":43}},{"type":"Feature","geometry":{"type":"Point","coordinates":[130.29943,31.27211]},"properties":{"name":"枕崎","line":"指宿枕崎線","riders":40}},{"type":"Feature","geometry":{"type":"Point","coordinates":[130.51384,31.44917]},"properties":{"name":"平川","line":"指宿枕崎線","riders":1957}},{"type":"Feature","geometry":{"type":"Point","coordinates":[130.52274,31.42122]},"properties":{"name":"瀬々串","line":"指宿枕崎線","riders":339}},{"type":"Feature","geometry":{"type":"Point","coordinates":[130.35665,31.25687]},"properties":{"name":"白沢","line":"指宿枕崎線","riders":11}},{"type":"Feature","geometry":{"type":"Point","coordinates":[130.39467,31.25889]},"properties":{"name":"松ヶ浦","line":"指宿枕崎線","riders":11}},{"type":"Feature","geometry":{"type":"Point","coordinates":[130.57761,31.30727]},"properties":{"name":"生見","line":"指宿枕崎線","riders":113}},{"type":"Feature","geometry":{"type":"Point","coordinates":[130.55729,31.34304]},"properties":{"name":"前之浜","line":"指宿枕崎線","riders":159}},{"type":"Feature","geometry":{"type":"Point","coordinates":[130.64261,31.23697]},"properties":{"name":"指宿","line":"指宿枕崎線","riders":1475}},{"type":"Feature","geometry":{"type":"Point","coordinates":[130.3762,31.25714]},"properties":{"name":"薩摩塩屋","line":"指宿枕崎線","riders":11}},{"type":"Feature","geometry":{"type":"Point","coordinates":[130.50766,31.50054]},"properties":{"name":"坂之上","line":"指宿枕崎線","riders":4526}},{"type":"Feature","geometry":{"type":"Point","coordinates":[130.53505,31.39378]},"properties":{"name":"中名","line":"指宿枕崎線","riders":285}},{"type":"Feature","geometry":{"type":"Point","coordinates":[130.41343,31.25794]},"properties":{"name":"頴娃大川","line":"指宿枕崎線","riders":13}},{"type":"Feature","geometry":{"type":"Point","coordinates":[130.43056,31.25716]},"properties":{"name":"水成川","line":"指宿枕崎線","riders":11}},{"type":"Feature","geometry":{"type":"Point","coordinates":[130.50038,31.22903]},"properties":{"name":"頴娃","line":"指宿枕崎線","riders":12}},{"type":"Feature","geometry":{"type":"Point","coordinates":[130.53883,31.37133]},"properties":{"name":"喜入","line":"指宿枕崎線","riders":1178}},{"type":"Feature","geometry":{"type":"Point","coordinates":[130.59894,31.29068]},"properties":{"name":"薩摩今和泉","line":"指宿枕崎線","riders":929}},{"type":"Feature","geometry":{"type":"Point","coordinates":[130.54199,31.56564]},"properties":{"name":"郡元","line":"指宿枕崎線","riders":2347}},{"type":"Feature","geometry":{"type":"Point","coordinates":[130.54206,31.58428]},"properties":{"name":"鹿児島中央","line":"指宿枕崎線","riders":41421}},{"type":"Feature","geometry":{"type":"Point","coordinates":[130.61972,31.27714]},"properties":{"name":"宮ヶ浜","line":"指宿枕崎線","riders":258}},{"type":"Feature","geometry":{"type":"Point","coordinates":[130.54987,31.20094]},"properties":{"name":"東開聞","line":"指宿枕崎線","riders":40}},{"type":"Feature","geometry":{"type":"Point","coordinates":[130.50408,31.47524]},"properties":{"name":"五位野","line":"指宿枕崎線","riders":686}},{"type":"Feature","geometry":{"type":"Point","coordinates":[130.57645,31.1903]},"properties":{"name":"西大山","line":"指宿枕崎線","riders":83}},{"type":"Feature","geometry":{"type":"Point","coordinates":[130.33108,31.26227]},"properties":{"name":"薩摩板敷","line":"指宿枕崎線","riders":105}},{"type":"Feature","geometry":{"type":"Point","coordinates":[130.50583,31.51691]},"properties":{"name":"慈眼寺","line":"指宿枕崎線","riders":3054}},{"type":"Feature","geometry":{"type":"Point","coordinates":[130.46866,31.25208]},"properties":{"name":"御領","line":"指宿枕崎線","riders":11}},{"type":"Feature","geometry":{"type":"Point","coordinates":[130.4452,31.25935]},"properties":{"name":"石垣","line":"指宿枕崎線","riders":27}},{"type":"Feature","geometry":{"type":"Point","coordinates":[130.56553,31.19478]},"properties":{"name":"薩摩川尻","line":"指宿枕崎線","riders":30}},{"type":"Feature","geometry":{"type":"Point","coordinates":[130.59925,31.19499]},"properties":{"name":"大山","line":"指宿枕崎線","riders":61}},{"type":"Feature","geometry":{"type":"Point","coordinates":[130.53622,31.54406]},"properties":{"name":"宇宿","line":"指宿枕崎線","riders":2561}},{"type":"Feature","geometry":{"type":"Point","coordinates":[130.63,31.21161]},"properties":{"name":"山川","line":"指宿枕崎線","riders":347}},{"type":"Feature","geometry":{"type":"Point","coordinates":[130.49142,31.24117]},"properties":{"name":"西頴娃","line":"指宿枕崎線","riders":178}},{"type":"Feature","geometry":{"type":"Point","coordinates":[130.3122,31.81363]},"properties":{"name":"川内","line":"鹿児島線","riders":5835}},{"type":"Feature","geometry":{"type":"Point","coordinates":[130.56438,31.60228]},"properties":{"name":"鹿児島","line":"鹿児島線","riders":3274}},{"type":"Feature","geometry":{"type":"Point","coordinates":[130.34789,31.65499]},"properties":{"name":"東市来","line":"鹿児島線","riders":707}},{"type":"Feature","geometry":{"type":"Point","coordinates":[130.30291,31.68993]},"properties":{"name":"市来","line":"鹿児島線","riders":705}},{"type":"Feature","geometry":{"type":"Point","coordinates":[130.30807,31.76612]},"properties":{"name":"木場茶屋","line":"鹿児島線","riders":61}},{"type":"Feature","geometry":{"type":"Point","coordinates":[130.27443,31.72184]},"properties":{"name":"串木野","line":"鹿児島線","riders":1728}},{"type":"Feature","geometry":{"type":"Point","coordinates":[130.43884,31.60538]},"properties":{"name":"薩摩松元","line":"鹿児島線","riders":1162}},{"type":"Feature","geometry":{"type":"Point","coordinates":[130.3368,31.67392]},"properties":{"name":"湯之元","line":"鹿児島線","riders":726}},{"type":"Feature","geometry":{"type":"Point","coordinates":[130.45883,31.59416]},"properties":{"name":"上伊集院","line":"鹿児島線","riders":3472}},{"type":"Feature","geometry":{"type":"Point","coordinates":[130.39581,31.63016]},"properties":{"name":"伊集院","line":"鹿児島線","riders":4954}},{"type":"Feature","geometry":{"type":"Point","coordinates":[130.30707,31.79257]},"properties":{"name":"隈之城","line":"鹿児島線","riders":787}},{"type":"Feature","geometry":{"type":"Point","coordinates":[130.62323,31.71524]},"properties":{"name":"姶良","line":"日豊線","riders":2006}},{"type":"Feature","geometry":{"type":"Point","coordinates":[130.61413,31.70278]},"properties":{"name":"重富","line":"日豊線","riders":1012}},{"type":"Feature","geometry":{"type":"Point","coordinates":[130.67068,31.73925]},"properties":{"name":"加治木","line":"日豊線","riders":3600}},{"type":"Feature","geometry":{"type":"Point","coordinates":[130.60418,31.64744]},"properties":{"name":"竜ヶ水","line":"日豊線","riders":11}},{"type":"Feature","geometry":{"type":"Point","coordinates":[130.6533,31.73688]},"properties":{"name":"錦江","line":"日豊線","riders":1006}},{"type":"Feature","geometry":{"type":"Point","coordinates":[130.63281,31.72696]},"properties":{"name":"帖佐","line":"日豊線","riders":3244}},{"type":"Feature","geometry":{"type":"Point","coordinates":[130.55724,31.59478]},"properties":{"name":"朝日通","line":"第一期線","riders":1614}},{"type":"Feature","geometry":{"type":"Point","coordinates":[130.55938,31.59868]},"properties":{"name":"水族館口","line":"第一期線","riders":1222}},{"type":"Feature","geometry":{"type":"Point","coordinates":[130.55474,31.59051]},"properties":{"name":"天文館通","line":"第一期線","riders":4605}},{"type":"Feature","geometry":{"type":"Point","coordinates":[130.56235,31.6012]},"properties":{"name":"鹿児島駅前","line":"第一期線","riders":1527}},{"type":"Feature","geometry":{"type":"Point","coordinates":[130.55385,31.58331]},"properties":{"name":"新屋敷","line":"第一期線","riders":896}},{"type":"Feature","geometry":{"type":"Point","coordinates":[130.56099,31.60001]},"properties":{"name":"桜島桟橋通","line":"第一期線","riders":1744}},{"type":"Feature","geometry":{"type":"Point","coordinates":[130.54987,31.58815]},"properties":{"name":"高見馬場","line":"第一期線","riders":3286}},{"type":"Feature","geometry":{"type":"Point","coordinates":[130.55288,31.58594]},"properties":{"name":"甲東中学校前","line":"第一期線","riders":885}},{"type":"Feature","geometry":{"type":"Point","coordinates":[130.55734,31.59156]},"properties":{"name":"いづろ通","line":"第一期線","riders":3939}},{"type":"Feature","geometry":{"type":"Point","coordinates":[130.55397,31.57946]},"properties":{"name":"武之橋","line":"第一期線","riders":699}},{"type":"Feature","geometry":{"type":"Point","coordinates":[130.55814,31.59727]},"properties":{"name":"市役所前","line":"第一期線","riders":1435}},{"type":"Feature","geometry":{"type":"Point","coordinates":[130.54352,31.58365]},"properties":{"name":"鹿児島中央駅前","line":"第二期線","riders":5636}},{"type":"Feature","geometry":{"type":"Point","coordinates":[130.54762,31.58705]},"properties":{"name":"加治屋町","line":"第二期線","riders":882}},{"type":"Feature","geometry":{"type":"Point","coordinates":[130.54525,31.58588]},"properties":{"name":"高見橋","line":"第二期線","riders":841}},{"type":"Feature","geometry":{"type":"Point","coordinates":[130.55373,31.5774]},"properties":{"name":"二中通","line":"谷山線","riders":1379}},{"type":"Feature","geometry":{"type":"Point","coordinates":[130.54694,31.55951]},"properties":{"name":"涙橋","line":"谷山線","riders":856}},{"type":"Feature","geometry":{"type":"Point","coordinates":[130.53378,31.53945]},"properties":{"name":"笹貫","line":"谷山線","riders":1808}},{"type":"Feature","geometry":{"type":"Point","coordinates":[130.53904,31.54647]},"properties":{"name":"宇宿一丁目","line":"谷山線","riders":724}},{"type":"Feature","geometry":{"type":"Point","coordinates":[130.5235,31.53017]},"properties":{"name":"谷山","line":"谷山線","riders":6135}},{"type":"Feature","geometry":{"type":"Point","coordinates":[130.54951,31.56321]},"properties":{"name":"郡元","line":"谷山線","riders":6863}},{"type":"Feature","geometry":{"type":"Point","coordinates":[130.5296,31.5356]},"properties":{"name":"上塩屋","line":"谷山線","riders":1240}},{"type":"Feature","geometry":{"type":"Point","coordinates":[130.553,31.57383]},"properties":{"name":"荒田八幡","line":"谷山線","riders":1404}},{"type":"Feature","geometry":{"type":"Point","coordinates":[130.54139,31.55014]},"properties":{"name":"二軒茶屋","line":"谷山線","riders":820}},{"type":"Feature","geometry":{"type":"Point","coordinates":[130.55193,31.56961]},"properties":{"name":"騎射場","line":"谷山線","riders":1868}},{"type":"Feature","geometry":{"type":"Point","coordinates":[130.54389,31.55476]},"properties":{"name":"南鹿児島駅前","line":"谷山線","riders":1411}},{"type":"Feature","geometry":{"type":"Point","coordinates":[130.53784,31.54455]},"properties":{"name":"脇田","line":"谷山線","riders":2575}},{"type":"Feature","geometry":{"type":"Point","coordinates":[130.55046,31.56535]},"properties":{"name":"鴨池","line":"谷山線","riders":849}},{"type":"Feature","geometry":{"type":"Point","coordinates":[130.54301,31.58086]},"properties":{"name":"都通","line":"唐湊線","riders":952}},{"type":"Feature","geometry":{"type":"Point","coordinates":[130.5451,31.56507]},"properties":{"name":"中郡","line":"唐湊線","riders":1629}},{"type":"Feature","geometry":{"type":"Point","coordinates":[130.54075,31.5714]},"properties":{"name":"唐湊","line":"唐湊線","riders":577}},{"type":"Feature","geometry":{"type":"Point","coordinates":[130.5427,31.57903]},"properties":{"name":"中洲通","line":"唐湊線","riders":750}},{"type":"Feature","geometry":{"type":"Point","coordinates":[130.5417,31.57549]},"properties":{"name":"市立病院前","line":"唐湊線","riders":1052}},{"type":"Feature","geometry":{"type":"Point","coordinates":[130.54057,31.57304]},"properties":{"name":"神田（交通局前）","line":"唐湊線","riders":847}},{"type":"Feature","geometry":{"type":"Point","coordinates":[130.54185,31.56838]},"properties":{"name":"工学部前","line":"唐湊線","riders":704}},{"type":"Feature","geometry":{"type":"Point","coordinates":[130.54359,31.56583]},"properties":{"name":"純心学園前","line":"唐湊線","riders":1796}},{"type":"Feature","geometry":{"type":"Point","coordinates":[130.22375,31.9164]},"properties":{"name":"西方","line":"肥薩おれんじ鉄道線","riders":34}},{"type":"Feature","geometry":{"type":"Point","coordinates":[130.22056,31.89254]},"properties":{"name":"薩摩高城","line":"肥薩おれんじ鉄道線","riders":23}},{"type":"Feature","geometry":{"type":"Point","coordinates":[130.20717,31.97402]},"properties":{"name":"牛ノ浜","line":"肥薩おれんじ鉄道線","riders":52}},{"type":"Feature","geometry":{"type":"Point","coordinates":[130.21914,31.94941]},"properties":{"name":"薩摩大川","line":"肥薩おれんじ鉄道線","riders":64}},{"type":"Feature","geometry":{"type":"Point","coordinates":[130.23353,31.85441]},"properties":{"name":"草道","line":"肥薩おれんじ鉄道線","riders":76}},{"type":"Feature","geometry":{"type":"Point","coordinates":[130.29173,31.83594]},"properties":{"name":"上川内","line":"肥薩おれんじ鉄道線","riders":301}},{"type":"Feature","geometry":{"type":"Point","coordinates":[130.50345,31.57699]},"properties":{"name":"広木","line":"鹿児島線","riders":1986}},{"type":"Feature","geometry":{"type":"Point","coordinates":[130.284,31.70381]},"properties":{"name":"神村学園前","line":"鹿児島線","riders":1944}}]}