{"type":"FeatureCollection","features":[{"type":"Feature","geometry":{"type":"Point","coordinates":[133.73816,34.67418]},"properties":{"name":"総社","line":"井原線","riders":7110}},{"type":"Feature","geometry":{"type":"Point","coordinates":[133.73351,34.64404]},"properties":{"name":"清音","line":"井原線","riders":4024}},{"type":"Feature","geometry":{"type":"Point","coordinates":[133.40221,34.56469]},"properties":{"name":"御領","line":"井原線","riders":93}},{"type":"Feature","geometry":{"type":"Point","coordinates":[133.45065,34.58798]},"properties":{"name":"いずえ","line":"井原線","riders":58}},{"type":"Feature","geometry":{"type":"Point","coordinates":[133.69217,34.62682]},"properties":{"name":"吉備真備","line":"井原線","riders":514}},{"type":"Feature","geometry":{"type":"Point","coordinates":[133.66185,34.62163]},"properties":{"name":"備中呉妹","line":"井原線","riders":97}},{"type":"Feature","geometry":{"type":"Point","coordinates":[133.54241,34.60601]},"properties":{"name":"小田","line":"井原線","riders":144}},{"type":"Feature","geometry":{"type":"Point","coordinates":[133.59024,34.62931]},"properties":{"name":"矢掛","line":"井原線","riders":733}},{"type":"Feature","geometry":{"type":"Point","coordinates":[133.43332,34.58173]},"properties":{"name":"子守唄の里高屋","line":"井原線","riders":192}},{"type":"Feature","geometry":{"type":"Point","coordinates":[133.61963,34.61643]},"properties":{"name":"三谷","line":"井原線","riders":83}},{"type":"Feature","geometry":{"type":"Point","coordinates":[133.46908,34.59278]},"properties":{"name":"井原","line":"井原線","riders":801}},{"type":"Feature","geometry":{"type":"Point","coordinates":[133.50779,34.59668]},"properties":{"name":"早雲の里荏原","line":"井原線","riders":247}},{"type":"Feature","geometry":{"type":"Point","coordinates":[133.71502,34.63241]},"properties":{"name":"川辺宿","line":"井原線","riders":195}},{"type":"Feature","geometry":{"type":"Point","coordinates":[133.92533,34.66554]},"properties":{"name":"柳川","line":"清輝橋線","riders":482}},{"type":"Feature","geometry":{"type":"Point","coordinates":[133.92633,34.66077]},"properties":{"name":"田町","line":"清輝橋線","riders":175}},{"type":"Feature","geometry":{"type":"Point","coordinates":[133.92633,34.66275]},"properties":{"name":"郵便局前","line":"清輝橋線","riders":646}},{"type":"Feature","geometry":{"type":"Point","coordinates":[133.92633,34.65872]},"properties":{"name":"新西大寺町筋","line":"清輝橋線","riders":164}},{"type":"Feature","geometry":{"type":"Point","coordinates":[133.92632,34.65662]},"properties":{"name":"大雲寺前","line":"清輝橋線","riders":177}},{"type":"Feature","geometry":{"type":"Point","coordinates":[133.92586,34.65174]},"properties":{"name":"清輝橋","line":"清輝橋線","riders":691}},{"type":"Feature","geometry":{"type":"Point","coordinates":[133.92329,34.66554]},"properties":{"name":"西川緑道公園","line":"東山本線","riders":406}},{"type":"Feature","geometry":{"type":"Point","coordinates":[133.91968,34.66551]},"properties":{"name":"岡山駅前","line":"東山本線","riders":7498}},{"type":"Feature","geometry":{"type":"Point","coordinates":[133.93057,34.65865]},"properties":{"name":"西大寺町","line":"東山本線","riders":536}},{"type":"Feature","geometry":{"type":"Point","coordinates":[133.94298,34.65618]},"properties":{"name":"東山・おかでんミュージアム","line":"東山本線","riders":2920}},{"type":"Feature","geometry":{"type":"Point","coordinates":[133.9305,34.66267]},"properties":{"name":"県庁通り","line":"東山本線","riders":2082}},{"type":"Feature","geometry":{"type":"Point","coordinates":[133.93899,34.65618]},"properties":{"name":"門田屋敷","line":"東山本線","riders":623}},{"type":"Feature","geometry":{"type":"Point","coordinates":[133.92976,34.66557]},"properties":{"name":"城下","line":"東山本線","riders":2238}},{"type":"Feature","geometry":{"type":"Point","coordinates":[133.93757,34.65751]},"properties":{"name":"中納言","line":"東山本線","riders":308}},{"type":"Feature","geometry":{"type":"Point","coordinates":[133.93659,34.65763]},"properties":{"name":"小橋","line":"東山本線","riders":359}},{"type":"Feature","geometry":{"type":"Point","coordinates":[133.80769,34.46281]},"properties":{"name":"児島","line":"本四備讃線","riders":10578}},{"type":"Feature","geometry":{"type":"Point","coordinates":[133.74723,34.59119]},"properties":{"name":"球場前","line":"水島本線","riders":404}},{"type":"Feature","geometry":{"type":"Point","coordinates":[133.76463,34.60058]},"properties":{"name":"倉敷市","line":"水島本線","riders":4659}},{"type":"Feature","geometry":{"type":"Point","coordinates":[133.74761,34.54405]},"properties":{"name":"弥生","line":"水島本線","riders":622}},{"type":"Feature","geometry":{"type":"Point","coordinates":[133.7497,34.56152]},"properties":{"name":"浦田","line":"水島本線","riders":754}},{"type":"Feature","geometry":{"type":"Point","coordinates":[133.74334,34.53405]},"properties":{"name":"常盤","line":"水島本線","riders":398}},{"type":"Feature","geometry":{"type":"Point","coordinates":[133.74135,34.52931]},"properties":{"name":"水島","line":"水島本線","riders":1327}},{"type":"Feature","geometry":{"type":"Point","coordinates":[133.74341,34.57778]},"properties":{"name":"西富井","line":"水島本線","riders":735}},{"type":"Feature","geometry":{"type":"Point","coordinates":[133.74504,34.53803]},"properties":{"name":"栄","line":"水島本線","riders":572}},{"type":"Feature","geometry":{"type":"Point","coordinates":[133.74447,34.57]},"properties":{"name":"福井","line":"水島本線","riders":584}},{"type":"Feature","geometry":{"type":"Point","coordinates":[133.73415,34.52282]},"properties":{"name":"三菱自工前","line":"水島本線","riders":154}},{"type":"Feature","geometry":{"type":"Point","coordinates":[134.03205,35.05871]},"properties":{"name":"東津山","line":"因美線","riders":246}},{"type":"Feature","geometry":{"type":"Point","coordinates":[134.06594,35.08047]},"properties":{"name":"高野","line":"因美線","riders":66}},{"type":"Feature","geometry":{"type":"Point","coordinates":[133.91803,34.66698]},"properties":{"name":"岡山","line":"宇野線","riders":11}},{"type":"Feature","geometry":{"type":"Point","coordinates":[133.85106,34.60564]},"properties":{"name":"備中箕島","line":"宇野線","riders":402}},{"type":"Feature","geometry":{"type":"Point","coordinates":[133.82803,34.59235]},"properties":{"name":"久々原","line":"宇野線","riders":150}},{"type":"Feature","geometry":{"type":"Point","coordinates":[133.87941,34.53648]},"properties":{"name":"迫川","line":"宇野線","riders":514}},{"type":"Feature","geometry":{"type":"Point","coordinates":[133.9108,34.64726]},"properties":{"name":"大元","line":"宇野線","riders":3674}},{"type":"Feature","geometry":{"type":"Point","coordinates":[133.83336,34.60211]},"properties":{"name":"早島","line":"宇野線","riders":2476}},{"type":"Feature","geometry":{"type":"Point","coordinates":[133.89981,34.63138]},"properties":{"name":"備前西市","line":"宇野線","riders":3626}},{"type":"Feature","geometry":{"type":"Point","coordinates":[133.87181,34.60842]},"properties":{"name":"妹尾","line":"宇野線","riders":6398}},{"type":"Feature","geometry":{"type":"Point","coordinates":[133.94307,34.51609]},"properties":{"name":"備前田井","line":"宇野線","riders":636}},{"type":"Feature","geometry":{"type":"Point","coordinates":[133.86123,34.54425]},"properties":{"name":"備前片岡","line":"宇野線","riders":534}},{"type":"Feature","geometry":{"type":"Point","coordinates":[133.95381,34.49509]},"properties":{"name":"宇野","line":"宇野線","riders":2618}},{"type":"Feature","geometry":{"type":"Point","coordinates":[133.82576,34.57698]},"properties":{"name":"茶屋町","line":"宇野線","riders":7828}},{"type":"Feature","geometry":{"type":"Point","coordinates":[133.89306,34.53138]},"properties":{"name":"常山","line":"宇野線","riders":928}},{"type":"Feature","geometry":{"type":"Point","coordinates":[133.83515,34.55199]},"properties":{"name":"彦崎","line":"宇野線","riders":618}},{"type":"Feature","geometry":{"type":"Point","coordinates":[133.91951,34.53209]},"properties":{"name":"八浜","line":"宇野線","riders":915}},{"type":"Feature","geometry":{"type":"Point","coordinates":[133.88805,34.66292]},"properties":{"name":"大安寺","line":"吉備線","riders":690}},{"type":"Feature","geometry":{"type":"Point","coordinates":[133.86404,34.67883]},"properties":{"name":"備前一宮","line":"吉備線","riders":2052}},{"type":"Feature","geometry":{"type":"Point","coordinates":[133.84624,34.67441]},"properties":{"name":"吉備津","line":"吉備線","riders":1214}},{"type":"Feature","geometry":{"type":"Point","coordinates":[133.82258,34.68631]},"properties":{"name":"備中高松","line":"吉備線","riders":2658}},{"type":"Feature","geometry":{"type":"Point","coordinates":[133.80276,34.698]},"properties":{"name":"足守","line":"吉備線","riders":1345}},{"type":"Feature","geometry":{"type":"Point","coordinates":[133.91754,34.66689]},"properties":{"name":"岡山","line":"吉備線","riders":11}},{"type":"Feature","geometry":{"type":"Point","coordinates":[133.90041,34.66775]},"properties":{"name":"備前三門","line":"吉備線","riders":2294}},{"type":"Feature","geometry":{"type":"Point","coordinates":[133.7755,34.69119]},"properties":{"name":"服部","line":"吉備線","riders":1656}},{"type":"Feature","geometry":{"type":"Point","coordinates":[133.75137,34.67771]},"properties":{"name":"東総社","line":"吉備線","riders":1866}},{"type":"Feature","geometry":{"type":"Point","coordinates":[133.40058,34.9946]},"properties":{"name":"備中神代","line":"芸備線","riders":43}},{"type":"Feature","geometry":{"type":"Point","coordinates":[133.91797,34.66563]},"properties":{"name":"岡山","line":"山陽新幹線","riders":11}},{"type":"Feature","geometry":{"type":"Point","coordinates":[133.67836,34.56508]},"properties":{"name":"新倉敷","line":"山陽新幹線","riders":11}},{"type":"Feature","geometry":{"type":"Point","coordinates":[134.15285,34.79726]},"properties":{"name":"和気","line":"山陽線","riders":2798}},{"type":"Feature","geometry":{"type":"Point","coordinates":[134.04194,34.73465]},"properties":{"name":"瀬戸","line":"山陽線","riders":5464}},{"type":"Feature","geometry":{"type":"Point","coordinates":[134.10945,34.78359]},"properties":{"name":"熊山","line":"山陽線","riders":2992}},{"type":"Feature","geometry":{"type":"Point","coordinates":[134.08057,34.75825]},"properties":{"name":"万富","line":"山陽線","riders":1344}},{"type":"Feature","geometry":{"type":"Point","coordinates":[133.76551,34.60171]},"properties":{"name":"倉敷","line":"山陽線","riders":11}},{"type":"Feature","geometry":{"type":"Point","coordinates":[134.02065,34.69931]},"properties":{"name":"上道","line":"山陽線","riders":2910}},{"type":"Feature","geometry":{"type":"Point","coordinates":[133.8544,34.64281]},"properties":{"name":"庭瀬","line":"山陽線","riders":8682}},{"type":"Feature","geometry":{"type":"Point","coordinates":[133.9872,34.68559]},"properties":{"name":"東岡山","line":"山陽線","riders":7948}},{"type":"Feature","geometry":{"type":"Point","coordinates":[133.8082,34.62645]},"properties":{"name":"中庄","line":"山陽線","riders":15904}},{"type":"Feature","geometry":{"type":"Point","coordinates":[133.7656,34.60161]},"properties":{"name":"倉敷","line":"山陽線","riders":38954}},{"type":"Feature","geometry":{"type":"Point","coordinates":[133.95765,34.68294]},"properties":{"name":"高島","line":"山陽線","riders":7102}},{"type":"Feature","geometry":{"type":"Point","coordinates":[133.88497,34.65293]},"properties":{"name":"北長瀬","line":"山陽線","riders":9430}},{"type":"Feature","geometry":{"type":"Point","coordinates":[133.91833,34.66696]},"properties":{"name":"岡山","line":"山陽線","riders":139142}},{"type":"Feature","geometry":{"type":"Point","coordinates":[133.621,34.54099]},"properties":{"name":"金光","line":"山陽線","riders":5032}},{"type":"Feature","geometry":{"type":"Point","coordinates":[133.5877,34.52724]},"properties":{"name":"鴨方","line":"山陽線","riders":6322}},{"type":"Feature","geometry":{"type":"Point","coordinates":[133.55055,34.50776]},"properties":{"name":"里庄","line":"山陽線","riders":2676}},{"type":"Feature","geometry":{"type":"Point","coordinates":[133.40654,34.49527]},"properties":{"name":"東福山","line":"山陽線","riders":8822}},{"type":"Feature","geometry":{"type":"Point","coordinates":[133.67883,34.56491]},"properties":{"name":"新倉敷","line":"山陽線","riders":15774}},{"type":"Feature","geometry":{"type":"Point","coordinates":[133.50455,34.5048]},"properties":{"name":"笠岡","line":"山陽線","riders":7499}},{"type":"Feature","geometry":{"type":"Point","coordinates":[133.72792,34.58579]},"properties":{"name":"西阿知","line":"山陽線","riders":6370}},{"type":"Feature","geometry":{"type":"Point","coordinates":[133.44018,34.49824]},"properties":{"name":"大門","line":"山陽線","riders":5144}},{"type":"Feature","geometry":{"type":"Point","coordinates":[134.18426,34.74524]},"properties":{"name":"西片上","line":"赤穂線","riders":1190}},{"type":"Feature","geometry":{"type":"Point","coordinates":[134.12021,34.72791]},"properties":{"name":"香登","line":"赤穂線","riders":610}},{"type":"Feature","geometry":{"type":"Point","coordinates":[134.16111,34.73859]},"properties":{"name":"伊部","line":"赤穂線","riders":918}},{"type":"Feature","geometry":{"type":"Point","coordinates":[134.19683,34.74826]},"properties":{"name":"備前片上","line":"赤穂線","riders":326}},{"type":"Feature","geometry":{"type":"Point","coordinates":[134.09849,34.69931]},"properties":{"name":"長船","line":"赤穂線","riders":2406}},{"type":"Feature","geometry":{"type":"Point","coordinates":[134.09098,34.66843]},"properties":{"name":"邑久","line":"赤穂線","riders":3680}},{"type":"Feature","geometry":{"type":"Point","coordinates":[134.03652,34.66183]},"properties":{"name":"西大寺","line":"赤穂線","riders":7408}},{"type":"Feature","geometry":{"type":"Point","coordinates":[134.0709,34.66141]},"properties":{"name":"大富","line":"赤穂線","riders":478}},{"type":"Feature","geometry":{"type":"Point","coordinates":[134.00647,34.66553]},"properties":{"name":"大多羅","line":"赤穂線","riders":3246}},{"type":"Feature","geometry":{"type":"Point","coordinates":[134.00344,35.0545]},"properties":{"name":"津山","line":"津山線","riders":4414}},{"type":"Feature","geometry":{"type":"Point","coordinates":[133.96088,35.03207]},"properties":{"name":"佐良山","line":"津山線","riders":40}},{"type":"Feature","geometry":{"type":"Point","coordinates":[133.93368,34.79203]},"properties":{"name":"金川","line":"津山線","riders":1822}},{"type":"Feature","geometry":{"type":"Point","coordinates":[133.95919,34.99868]},"properties":{"name":"亀甲","line":"津山線","riders":508}},{"type":"Feature","geometry":{"type":"Point","coordinates":[133.98275,35.05447]},"properties":{"name":"津山口","line":"津山線","riders":48}},{"type":"Feature","geometry":{"type":"Point","coordinates":[133.95779,34.92565]},"properties":{"name":"弓削","line":"津山線","riders":442}},{"type":"Feature","geometry":{"type":"Point","coordinates":[133.8992,34.84226]},"properties":{"name":"建部","line":"津山線","riders":425}},{"type":"Feature","geometry":{"type":"Point","coordinates":[133.93538,34.89624]},"properties":{"name":"神目","line":"津山線","riders":166}},{"type":"Feature","geometry":{"type":"Point","coordinates":[133.96452,34.71696]},"properties":{"name":"玉柏","line":"津山線","riders":196}},{"type":"Feature","geometry":{"type":"Point","coordinates":[133.96206,34.96823]},"properties":{"name":"小原","line":"津山線","riders":72}},{"type":"Feature","geometry":{"type":"Point","coordinates":[133.96045,34.74126]},"properties":{"name":"牧山","line":"津山線","riders":103}},{"type":"Feature","geometry":{"type":"Point","coordinates":[133.90404,34.8703]},"properties":{"name":"福渡","line":"津山線","riders":568}},{"type":"Feature","geometry":{"type":"Point","coordinates":[133.95924,34.95164]},"properties":{"name":"誕生寺","line":"津山線","riders":124}},{"type":"Feature","geometry":{"type":"Point","coordinates":[133.9326,34.77111]},"properties":{"name":"野々口","line":"津山線","riders":294}},{"type":"Feature","geometry":{"type":"Point","coordinates":[133.9274,34.68448]},"properties":{"name":"法界院","line":"津山線","riders":2635}},{"type":"Feature","geometry":{"type":"Point","coordinates":[133.945,34.70498]},"properties":{"name":"備前原","line":"津山線","riders":218}},{"type":"Feature","geometry":{"type":"Point","coordinates":[133.4567,34.9872]},"properties":{"name":"新見","line":"伯備線","riders":1677}},{"type":"Feature","geometry":{"type":"Point","coordinates":[133.58851,34.85018]},"properties":{"name":"備中川面","line":"伯備線","riders":169}},{"type":"Feature","geometry":{"type":"Point","coordinates":[133.55647,34.87681]},"properties":{"name":"方谷","line":"伯備線","riders":37}},{"type":"Feature","geometry":{"type":"Point","coordinates":[133.69002,34.71563]},"properties":{"name":"日羽","line":"伯備線","riders":206}},{"type":"Feature","geometry":{"type":"Point","coordinates":[133.6065,34.75854]},"properties":{"name":"備中広瀬","line":"伯備線","riders":180}},{"type":"Feature","geometry":{"type":"Point","coordinates":[133.51624,34.93173]},"properties":{"name":"井倉","line":"伯備線","riders":149}},{"type":"Feature","geometry":{"type":"Point","coordinates":[133.65425,34.71984]},"properties":{"name":"美袋","line":"伯備線","riders":577}},{"type":"Feature","geometry":{"type":"Point","coordinates":[133.47956,34.95473]},"properties":{"name":"石蟹","line":"伯備線","riders":251}},{"type":"Feature","geometry":{"type":"Point","coordinates":[133.61654,34.78862]},"properties":{"name":"備中高梁","line":"伯備線","riders":4117}},{"type":"Feature","geometry":{"type":"Point","coordinates":[133.42233,34.98808]},"properties":{"name":"布原","line":"伯備線","riders":11}},{"type":"Feature","geometry":{"type":"Point","coordinates":[133.61435,34.82572]},"properties":{"name":"木野山","line":"伯備線","riders":121}},{"type":"Feature","geometry":{"type":"Point","coordinates":[133.7225,34.70626]},"properties":{"name":"豪渓","line":"伯備線","riders":300}},{"type":"Feature","geometry":{"type":"Point","coordinates":[134.06753,35.04532]},"properties":{"name":"美作大崎","line":"姫新線","riders":51}},{"type":"Feature","geometry":{"type":"Point","coordinates":[133.95752,35.05898]},"properties":{"name":"院庄","line":"姫新線","riders":130}},{"type":"Feature","geometry":{"type":"Point","coordinates":[133.76024,35.02336]},"properties":{"name":"美作落合","line":"姫新線","riders":520}},{"type":"Feature","geometry":{"type":"Point","coordinates":[133.87728,35.06215]},"properties":{"name":"坪井","line":"姫新線","riders":63}},{"type":"Feature","geometry":{"type":"Point","coordinates":[133.76073,35.04921]},"properties":{"name":"古見","line":"姫新線","riders":148}},{"type":"Feature","geometry":{"type":"Point","coordinates":[134.18919,35.01968]},"properties":{"name":"楢原","line":"姫新線","riders":58}},{"type":"Feature","geometry":{"type":"Point","coordinates":[134.08952,35.04345]},"properties":{"name":"西勝間田","line":"姫新線","riders":36}},{"type":"Feature","geometry":{"type":"Point","coordinates":[134.11875,35.03587]},"properties":{"name":"勝間田","line":"姫新線","riders":387}},{"type":"Feature","geometry":{"type":"Point","coordinates":[133.90604,35.05849]},"properties":{"name":"美作千代","line":"姫新線","riders":123}},{"type":"Feature","geometry":{"type":"Point","coordinates":[134.1517,35.01393]},"properties":{"name":"林野","line":"姫新線","riders":311}},{"type":"Feature","geometry":{"type":"Point","coordinates":[133.82011,35.05875]},"properties":{"name":"美作追分","line":"姫新線","riders":67}},{"type":"Feature","geometry":{"type":"Point","coordinates":[133.56602,35.07626]},"properties":{"name":"刑部","line":"姫新線","riders":139}},{"type":"Feature","geometry":{"type":"Point","coordinates":[133.69476,35.08061]},"properties":{"name":"中国勝山","line":"姫新線","riders":756}},{"type":"Feature","geometry":{"type":"Point","coordinates":[133.66669,35.04797]},"properties":{"name":"月田","line":"姫新線","riders":177}},{"type":"Feature","geometry":{"type":"Point","coordinates":[133.74508,35.081]},"properties":{"name":"久世","line":"姫新線","riders":450}},{"type":"Feature","geometry":{"type":"Point","coordinates":[133.51274,35.02269]},"properties":{"name":"岩山","line":"姫新線","riders":20}},{"type":"Feature","geometry":{"type":"Point","coordinates":[133.61239,35.05492]},"properties":{"name":"富原","line":"姫新線","riders":112}},{"type":"Feature","geometry":{"type":"Point","coordinates":[133.55371,35.04634]},"properties":{"name":"丹治部","line":"姫新線","riders":34}},{"type":"Feature","geometry":{"type":"Point","coordinates":[133.82801,34.55081]},"properties":{"name":"植松","line":"本四備讃線","riders":370}},{"type":"Feature","geometry":{"type":"Point","coordinates":[133.81517,34.49095]},"properties":{"name":"上の町","line":"本四備讃線","riders":898}},{"type":"Feature","geometry":{"type":"Point","coordinates":[133.82382,34.52784]},"properties":{"name":"木見","line":"本四備讃線","riders":413}},{"type":"Feature","geometry":{"type":"Point","coordinates":[133.93802,34.67894]},"properties":{"name":"西川原","line":"山陽線","riders":7746}},{"type":"Feature","geometry":{"type":"Point","coordinates":[133.92626,34.65466]},"properties":{"name":"東中央町","line":"清輝橋線","riders":201}}]}